{
"type": "FeatureCollection",
"name": "Araçatuba",
"crs": { "type": "name", "properties": { "name": "urn:ogc:def:crs:EPSG::4674" } },
"xy_coordinate_resolution": 1e-15,
"features": [
{ "type": "Feature", "properties": { "fid": 46, "NM_REGIAO": "Sudeste", "NM_UF": "São Paulo", "NM_MUN": "Araçatuba", "NM_DIST": "Araçatuba", "CD_SUBDIST": "35028040500", "ER_REGIAO": "Araçatuba", "ER_REGIAO_CIDADE": "Araçatuba_Araçatuba" }, "geometry": { "type": "MultiPolygon", "coordinates": [ [ [ [ -50.39222019999994, -21.214151699999945 ], [ -50.403911599999958, -21.22352479999995 ], [ -50.404963399999986, -21.226240099999927 ], [ -50.404704699999968, -21.228880699999934 ], [ -50.403571899999974, -21.232557799999938 ], [ -50.394578, -21.248072899999954 ], [ -50.390443499999947, -21.251682199999948 ], [ -50.466550799999936, -21.297108899999955 ], [ -50.465724, -21.299191199999939 ], [ -50.46233129999996, -21.301823 ], [ -50.466975499999933, -21.309449499999971 ], [ -50.467781299999956, -21.313322899999946 ], [ -50.469651699999986, -21.313885199999959 ], [ -50.471828899999934, -21.316692399999965 ], [ -50.472767699999963, -21.320252099999948 ], [ -50.476183, -21.32556 ], [ -50.475971299999969, -21.328083599999957 ], [ -50.477167599999973, -21.33095869999994 ], [ -50.480414599999961, -21.33343919999993 ], [ -50.484068, -21.340712799999949 ], [ -50.484234399999934, -21.34343819999998 ], [ -50.483132599999976, -21.346934499999975 ], [ -50.484715799999947, -21.35255669999998 ], [ -50.486637, -21.355175399999951 ], [ -50.491269299999942, -21.358266399999934 ], [ -50.495178499999952, -21.358727599999952 ], [ -50.498131399999977, -21.362092 ], [ -50.49758079999998, -21.363588499999935 ], [ -50.498484399999938, -21.365698 ], [ -50.502576799999986, -21.367024199999946 ], [ -50.506591499999956, -21.370930899999962 ], [ -50.508864099999982, -21.371526499999959 ], [ -50.510828099999969, -21.373829299999954 ], [ -50.512235499999974, -21.374099 ], [ -50.514222399999937, -21.376796399999932 ], [ -50.513930799999969, -21.379436099999964 ], [ -50.515806299999952, -21.381027699999947 ], [ -50.518486499999938, -21.381779199999983 ], [ -50.517686099999935, -21.383121799999969 ], [ -50.519699099999968, -21.386259699999982 ], [ -50.518902, -21.387189399999954 ], [ -50.523241199999973, -21.389597399999957 ], [ -50.523663299999953, -21.390623799999958 ], [ -50.525146899999982, -21.398259099999962 ], [ -50.524772699999971, -21.399321499999928 ], [ -50.526281, -21.401134899999931 ], [ -50.524962799999969, -21.402092399999958 ], [ -50.525908, -21.410299899999927 ], [ -50.526908099999957, -21.412422499999934 ], [ -50.530103499999939, -21.412782299999947 ], [ -50.532168299999967, -21.413954 ], [ -50.534283499999958, -21.418941199999949 ], [ -50.538422, -21.422725199999945 ], [ -50.53995279999998, -21.430509 ], [ -50.542144199999939, -21.434755399999972 ], [ -50.54153, -21.435556299999973 ], [ -50.539386499999978, -21.435578799999973 ], [ -50.538986899999941, -21.436523 ], [ -50.542464199999984, -21.440618399999948 ], [ -50.544622, -21.445315099999959 ], [ -50.548114799999951, -21.448494699999969 ], [ -50.552665099999956, -21.450297699999965 ], [ -50.554400599999951, -21.449593299999947 ], [ -50.558049399999959, -21.451317099999983 ], [ -50.563656499999979, -21.452278399999955 ], [ -50.567280299999936, -21.454604899999936 ], [ -50.572965599999975, -21.454268599999978 ], [ -50.573889299999962, -21.455390099999931 ], [ -50.577955499999973, -21.451977099999965 ], [ -50.577707299999986, -21.449430799999959 ], [ -50.578794099999982, -21.44753309999993 ], [ -50.578899799999931, -21.44336329999993 ], [ -50.581676, -21.441754899999978 ], [ -50.586141099999963, -21.442003599999964 ], [ -50.587721599999952, -21.443586299999936 ], [ -50.589914, -21.444118 ], [ -50.591662699999972, -21.442773599999953 ], [ -50.595272399999942, -21.443253899999945 ], [ -50.600598099999957, -21.444322899999975 ], [ -50.603556899999944, -21.445850299999961 ], [ -50.606441399999937, -21.444556 ], [ -50.60836919999997, -21.444812699999943 ], [ -50.612833099999932, -21.447195299999976 ], [ -50.615876199999946, -21.446273699999949 ], [ -50.619775199999935, -21.448161199999959 ], [ -50.621167299999968, -21.451128399999959 ], [ -50.622271099999978, -21.451718899999946 ], [ -50.62355359999998, -21.448356099999955 ], [ -50.62510229999998, -21.447299699999974 ], [ -50.625305899999944, -21.445509299999969 ], [ -50.624563799999976, -21.442609499999946 ], [ -50.620427599999971, -21.437421299999983 ], [ -50.61837769999994, -21.436115599999937 ], [ -50.619352499999934, -21.432024499999955 ], [ -50.618459, -21.430348599999945 ], [ -50.617529699999977, -21.428983199999948 ], [ -50.616053499999964, -21.429264899999964 ], [ -50.613325599999939, -21.426086299999952 ], [ -50.611689299999966, -21.42639319999995 ], [ -50.610031, -21.424704499999962 ], [ -50.607617599999969, -21.425119199999983 ], [ -50.607755099999963, -21.419692199999929 ], [ -50.605382599999984, -21.419458199999951 ], [ -50.60551959999998, -21.417139599999928 ], [ -50.604090399999961, -21.415953899999977 ], [ -50.60174539999997, -21.416381399999977 ], [ -50.60139259999994, -21.415538199999958 ], [ -50.603531799999985, -21.411873699999944 ], [ -50.604119499999968, -21.408531099999948 ], [ -50.602420399999971, -21.399411 ], [ -50.600172599999951, -21.396046199999944 ], [ -50.599761299999955, -21.393854099999942 ], [ -50.601879799999949, -21.387707499999976 ], [ -50.602436699999942, -21.37400219999995 ], [ -50.603553, -21.371312499999931 ], [ -50.603118499999937, -21.364693899999963 ], [ -50.605822299999943, -21.361281299999973 ], [ -50.60571989999994, -21.359156799999937 ], [ -50.600085099999944, -21.354812599999946 ], [ -50.599717699999985, -21.347003 ], [ -50.597435899999937, -21.343591499999945 ], [ -50.594606599999963, -21.341932399999962 ], [ -50.589440799999977, -21.332738399999982 ], [ -50.588972799999965, -21.327752699999962 ], [ -50.589630899999975, -21.324894099999938 ], [ -50.58858349999997, -21.320657899999958 ], [ -50.584342699999979, -21.314814599999977 ], [ -50.580712299999959, -21.312266799999975 ], [ -50.578653599999939, -21.30563159999997 ], [ -50.574198699999954, -21.299572699999942 ], [ -50.573507, -21.296274499999981 ], [ -50.565436299999931, -21.293722799999955 ], [ -50.563039099999969, -21.290779499999928 ], [ -50.558627299999955, -21.292430299999978 ], [ -50.557315699999947, -21.291794699999969 ], [ -50.556199899999967, -21.289998599999933 ], [ -50.55689689999997, -21.287761599999953 ], [ -50.554820799999959, -21.28540019999997 ], [ -50.554268, -21.282694799999945 ], [ -50.549383499999976, -21.278631699999949 ], [ -50.547876099999939, -21.274954199999968 ], [ -50.544279499999959, -21.271145599999954 ], [ -50.543606099999977, -21.268455699999947 ], [ -50.543267199999946, -21.263697199999967 ], [ -50.545539499999961, -21.259333199999958 ], [ -50.544124199999942, -21.257868299999927 ], [ -50.544895, -21.252222399999937 ], [ -50.551672599999961, -21.24774919999993 ], [ -50.551452599999948, -21.245654899999977 ], [ -50.554329799999948, -21.242598199999975 ], [ -50.557354499999974, -21.236794399999951 ], [ -50.561086199999977, -21.232196399999964 ], [ -50.561797199999944, -21.227718099999947 ], [ -50.562917, -21.226005499999928 ], [ -50.562383699999941, -21.221998 ], [ -50.563013499999954, -21.219807299999957 ], [ -50.567983399999946, -21.218168299999945 ], [ -50.569742199999951, -21.214357099999972 ], [ -50.569816699999933, -21.210968899999955 ], [ -50.573489, -21.209389099999953 ], [ -50.574408299999959, -21.205792599999938 ], [ -50.577209399999958, -21.20288359999995 ], [ -50.575980099999981, -21.198043899999959 ], [ -50.572009799999933, -21.19168209999998 ], [ -50.570914799999969, -21.185415499999976 ], [ -50.572822899999949, -21.184291499999972 ], [ -50.573738599999956, -21.182720699999948 ], [ -50.577704899999958, -21.182394199999976 ], [ -50.580236799999966, -21.18065219999994 ], [ -50.584102399999949, -21.180766299999959 ], [ -50.582920599999966, -21.178128499999957 ], [ -50.58380509999995, -21.175683 ], [ -50.589082099999985, -21.173173499999962 ], [ -50.589641399999948, -21.171045299999946 ], [ -50.591859599999964, -21.170160899999928 ], [ -50.592929, -21.166279399999951 ], [ -50.595487299999945, -21.16521419999998 ], [ -50.595041, -21.16367809999997 ], [ -50.591442799999982, -21.161958699999957 ], [ -50.590965599999947, -21.160676399999943 ], [ -50.591758899999945, -21.15741 ], [ -50.593026099999975, -21.156492899999932 ], [ -50.592985499999941, -21.154314599999964 ], [ -50.597092799999984, -21.15136549999994 ], [ -50.596664299999986, -21.150394499999948 ], [ -50.601170699999955, -21.150289199999975 ], [ -50.601627599999972, -21.148709899999972 ], [ -50.60296649999998, -21.148441799999944 ], [ -50.601022399999977, -21.145734699999934 ], [ -50.600953499999946, -21.144032099999947 ], [ -50.602317899999946, -21.142982399999937 ], [ -50.599977899999942, -21.139357299999972 ], [ -50.601638599999944, -21.135700499999928 ], [ -50.599677399999962, -21.134508399999959 ], [ -50.599584399999969, -21.133394299999964 ], [ -50.606135599999959, -21.130325199999959 ], [ -50.608169299999986, -21.131672 ], [ -50.609007799999972, -21.134301 ], [ -50.612228699999946, -21.132314199999939 ], [ -50.613481, -21.134534799999983 ], [ -50.614882499999965, -21.13502 ], [ -50.616537, -21.133796099999927 ], [ -50.617712399999959, -21.131167299999959 ], [ -50.620655299999953, -21.132007199999975 ], [ -50.622860599999967, -21.128781199999935 ], [ -50.621162, -21.124219899999957 ], [ -50.620198799999969, -21.117100899999969 ], [ -50.617517699999951, -21.113567499999931 ], [ -50.61660459999996, -21.106035499999962 ], [ -50.624411899999984, -21.087613399999952 ], [ -50.631125199999985, -21.084134399999982 ], [ -50.631872099999953, -21.081515799999977 ], [ -50.638954599999977, -21.072101699999962 ], [ -50.63849179999994, -21.062084599999935 ], [ -50.640246599999955, -21.057829199999958 ], [ -50.641068599999983, -21.052771499999949 ], [ -50.639038599999935, -21.051759499999946 ], [ -50.635376299999962, -21.047901 ], [ -50.635107299999959, -21.045215499999927 ], [ -50.640758, -21.046718 ], [ -50.644807, -21.043051399999968 ], [ -50.653920699999958, -21.040863099999967 ], [ -50.657038399999976, -21.042444899999964 ], [ -50.659655499999985, -21.04194769999998 ], [ -50.662155299999938, -21.042502099999979 ], [ -50.666211199999964, -21.040598899999964 ], [ -50.667721499999971, -21.03847 ], [ -50.670314599999983, -21.037484199999938 ], [ -50.675877599999978, -21.03945269999997 ], [ -50.680236399999956, -21.038395299999934 ], [ -50.686930599999982, -21.039999699999953 ], [ -50.690306899999939, -21.037568699999952 ], [ -50.695502799999986, -21.031149299999981 ], [ -50.701593299999956, -21.027843899999937 ], [ -50.707943399999976, -21.026419699999963 ], [ -50.797304799999949, -20.985221199999955 ], [ -50.79757509999996, -20.983056599999941 ], [ -50.800030899999967, -20.979756599999973 ], [ -50.800511399999948, -20.976618899999949 ], [ -50.800122899999963, -20.97060689999995 ], [ -50.797005899999931, -20.96586259999998 ], [ -50.797904499999959, -20.96354649999995 ], [ -50.899600799999973, -20.909771399999954 ], [ -50.886186699999939, -20.891777599999955 ], [ -50.882097299999941, -20.884379 ], [ -50.878849599999967, -20.875205599999958 ], [ -50.875908099999947, -20.873356599999966 ], [ -50.871467, -20.86539659999994 ], [ -50.87088209999996, -20.862964399999953 ], [ -50.867278, -20.861338599999954 ], [ -50.867493299999978, -20.858506899999952 ], [ -50.870142099999953, -20.855445399999951 ], [ -50.866437699999949, -20.853329699999961 ], [ -50.867546499999946, -20.848891299999934 ], [ -50.867109, -20.847744699999964 ], [ -50.863914799999975, -20.845370399999979 ], [ -50.865121399999964, -20.841262099999938 ], [ -50.863918399999932, -20.838168499999938 ], [ -50.864105299999949, -20.836706099999958 ], [ -50.86712609999995, -20.832398499999954 ], [ -50.8666, -20.830515899999966 ], [ -50.854892899999982, -20.835982899999976 ], [ -50.838489099999947, -20.850526 ], [ -50.822455, -20.852998299999967 ], [ -50.817003399999976, -20.855024499999956 ], [ -50.810569699999974, -20.859912 ], [ -50.80833709999996, -20.868004399999961 ], [ -50.806524499999966, -20.870224199999939 ], [ -50.803541299999949, -20.871711299999959 ], [ -50.794567, -20.873144 ], [ -50.786415499999976, -20.879762899999946 ], [ -50.777552799999967, -20.882694299999969 ], [ -50.769975, -20.889078499999982 ], [ -50.765023399999961, -20.891454199999941 ], [ -50.754866399999969, -20.892604299999959 ], [ -50.746262299999955, -20.892258799999979 ], [ -50.737363199999947, -20.887821499999973 ], [ -50.734134, -20.889075199999979 ], [ -50.729690599999969, -20.893298899999934 ], [ -50.714369, -20.895188599999983 ], [ -50.708545399999934, -20.893946399999948 ], [ -50.703172099999961, -20.891016699999966 ], [ -50.687366099999963, -20.889133 ], [ -50.684194799999943, -20.889478399999973 ], [ -50.677621299999942, -20.892362099999957 ], [ -50.673641299999986, -20.896069899999929 ], [ -50.668560899999932, -20.904493899999977 ], [ -50.645522599999936, -20.932211299999949 ], [ -50.634358899999938, -20.950460299999975 ], [ -50.624521399999935, -20.958693099999948 ], [ -50.617243899999949, -20.965989899999954 ], [ -50.61314189999996, -20.968503699999928 ], [ -50.606807099999969, -20.970214399999975 ], [ -50.578422099999955, -20.974485199999947 ], [ -50.573266899999965, -20.976909199999966 ], [ -50.561330399999974, -20.985620399999959 ], [ -50.558919399999979, -20.988194799999974 ], [ -50.556869899999981, -20.995052699999974 ], [ -50.554972699999951, -20.997571599999958 ], [ -50.543822699999964, -21.00362819999998 ], [ -50.539596899999935, -21.010607599999958 ], [ -50.529603099999974, -21.019183199999929 ], [ -50.528583799999979, -21.021856599999978 ], [ -50.528566099999978, -21.027394299999969 ], [ -50.52719529999996, -21.032066499999928 ], [ -50.523018, -21.035470099999941 ], [ -50.51742489999998, -21.036481399999957 ], [ -50.509084599999937, -21.036201499999947 ], [ -50.497032199999978, -21.04005959999995 ], [ -50.478837799999951, -21.040556399999957 ], [ -50.468032599999958, -21.044816 ], [ -50.461986599999932, -21.045897199999956 ], [ -50.455031799999972, -21.044799199999943 ], [ -50.452009499999974, -21.041413599999942 ], [ -50.438662599999986, -21.03286449999996 ], [ -50.434992799999975, -21.031677499999944 ], [ -50.43235569999996, -21.03190189999998 ], [ -50.423150199999952, -21.036756599999933 ], [ -50.409954099999936, -21.046351799999968 ], [ -50.394971299999952, -21.063030799999979 ], [ -50.39013, -21.06530719999995 ], [ -50.387603699999943, -21.065098499999976 ], [ -50.38539929999996, -21.063638399999945 ], [ -50.376870399999973, -21.048049799999944 ], [ -50.37426279999994, -21.044501399999945 ], [ -50.371476299999983, -21.042339799999979 ], [ -50.365062199999954, -21.042065899999955 ], [ -50.358495299999959, -21.04341 ], [ -50.35492069999998, -21.045322899999974 ], [ -50.351811, -21.049912499999948 ], [ -50.350980499999935, -21.056618699999945 ], [ -50.350108, -21.05821519999995 ], [ -50.346979799999986, -21.060273699999982 ], [ -50.349035099999981, -21.065612399999964 ], [ -50.344152899999983, -21.073804699999982 ], [ -50.343004899999983, -21.076709699999981 ], [ -50.343113, -21.080588099999943 ], [ -50.344508499999961, -21.082642699999951 ], [ -50.350611, -21.085875699999974 ], [ -50.350223, -21.087938399999928 ], [ -50.34727179999993, -21.093120899999974 ], [ -50.347357099999954, -21.095314499999972 ], [ -50.349025, -21.097043699999972 ], [ -50.353020099999981, -21.097901799999931 ], [ -50.354995799999983, -21.099322699999959 ], [ -50.355147099999954, -21.102288399999964 ], [ -50.353591499999936, -21.104917499999942 ], [ -50.354661799999974, -21.106423699999937 ], [ -50.352682699999946, -21.110158699999943 ], [ -50.355810799999972, -21.115332399999943 ], [ -50.359865699999943, -21.117217799999935 ], [ -50.361816599999941, -21.120075799999938 ], [ -50.360649599999931, -21.123331499999949 ], [ -50.356258099999934, -21.126371399999982 ], [ -50.356606199999931, -21.129108699999961 ], [ -50.358437099999946, -21.129875799999979 ], [ -50.359181599999943, -21.13250979999998 ], [ -50.362777599999959, -21.13505349999997 ], [ -50.36459149999996, -21.139675499999953 ], [ -50.36899429999994, -21.143856 ], [ -50.370619099999942, -21.14885819999995 ], [ -50.375387799999942, -21.152933499999961 ], [ -50.380442899999935, -21.154045499999938 ], [ -50.381607199999962, -21.155825299999947 ], [ -50.38105429999996, -21.156250899999975 ], [ -50.382281099999943, -21.157315299999937 ], [ -50.383101499999952, -21.156777399999953 ], [ -50.384719899999936, -21.157346099999927 ], [ -50.383898899999963, -21.158015599999942 ], [ -50.384690399999954, -21.159888099999932 ], [ -50.384206099999972, -21.161624699999948 ], [ -50.387005699999975, -21.165039299999933 ], [ -50.385919799999954, -21.166801699999951 ], [ -50.387929399999962, -21.168725 ], [ -50.386774499999945, -21.172173399999963 ], [ -50.388885599999981, -21.173368299999936 ], [ -50.390849, -21.176764099999957 ], [ -50.391315799999973, -21.179313199999967 ], [ -50.39323719999993, -21.180196899999942 ], [ -50.393709899999976, -21.182548199999928 ], [ -50.390152599999965, -21.190949799999942 ], [ -50.392494699999986, -21.209677299999953 ], [ -50.39222019999994, -21.214151699999945 ] ] ] ] } }
]
}
