{
"type": "FeatureCollection",
"name": "Araçatuba_Araçatuba",
"crs": { "type": "name", "properties": { "name": "urn:ogc:def:crs:EPSG::4674" } },
"xy_coordinate_resolution": 1e-15,
"features": [
{ "type": "Feature", "properties": { "fid": 46, "NM_MUN": "Araçatuba", "NM_DIST": "Araçatuba", "ER_REGIAO": "Araçatuba", "ER_REGIAO_CIDADE": "Araçatuba_Araçatuba" }, "geometry": { "type": "MultiPolygon", "coordinates": [ [ [ [ -50.3922202, -21.2141517 ], [ -50.4039116, -21.2235248 ], [ -50.4049634, -21.2262401 ], [ -50.4047047, -21.2288807 ], [ -50.4035719, -21.2325578 ], [ -50.394578, -21.2480729 ], [ -50.3904435, -21.2516822 ], [ -50.4665508, -21.2971089 ], [ -50.465724, -21.2991912 ], [ -50.4623313, -21.301823 ], [ -50.4669755, -21.3094495 ], [ -50.4677813, -21.3133229 ], [ -50.4696517, -21.3138852 ], [ -50.4718289, -21.3166924 ], [ -50.4727677, -21.3202521 ], [ -50.476183, -21.32556 ], [ -50.4759713, -21.3280836 ], [ -50.4771676, -21.3309587 ], [ -50.4804146, -21.3334392 ], [ -50.484068, -21.3407128 ], [ -50.4842344, -21.3434382 ], [ -50.4831326, -21.3469345 ], [ -50.4847158, -21.3525567 ], [ -50.486637, -21.3551754 ], [ -50.4912693, -21.3582664 ], [ -50.4951785, -21.3587276 ], [ -50.4981314, -21.362092 ], [ -50.4975808, -21.3635885 ], [ -50.4984844, -21.365698 ], [ -50.5025768, -21.3670242 ], [ -50.5065915, -21.3709309 ], [ -50.5088641, -21.3715265 ], [ -50.5108281, -21.3738293 ], [ -50.5122355, -21.374099 ], [ -50.5142224, -21.3767964 ], [ -50.5139308, -21.3794361 ], [ -50.5158063, -21.3810277 ], [ -50.5184865, -21.3817792 ], [ -50.5176861, -21.3831218 ], [ -50.5196991, -21.3862597 ], [ -50.518902, -21.3871894 ], [ -50.5232412, -21.3895974 ], [ -50.5236633, -21.3906238 ], [ -50.5251469, -21.3982591 ], [ -50.5247727, -21.3993215 ], [ -50.526281, -21.4011349 ], [ -50.5249628, -21.4020924 ], [ -50.525908, -21.4102999 ], [ -50.5269081, -21.4124225 ], [ -50.5301035, -21.4127823 ], [ -50.5321683, -21.413954 ], [ -50.5342835, -21.4189412 ], [ -50.538422, -21.4227252 ], [ -50.5399528, -21.430509 ], [ -50.5421442, -21.4347554 ], [ -50.54153, -21.4355563 ], [ -50.5393865, -21.4355788 ], [ -50.5389869, -21.436523 ], [ -50.5424642, -21.4406184 ], [ -50.544622, -21.4453151 ], [ -50.5481148, -21.4484947 ], [ -50.5526651, -21.4502977 ], [ -50.5544006, -21.4495933 ], [ -50.5580494, -21.4513171 ], [ -50.5636565, -21.4522784 ], [ -50.5672803, -21.4546049 ], [ -50.5729656, -21.4542686 ], [ -50.5738893, -21.4553901 ], [ -50.5779555, -21.4519771 ], [ -50.5777073, -21.4494308 ], [ -50.5787941, -21.4475331 ], [ -50.5788998, -21.4433633 ], [ -50.581676, -21.4417549 ], [ -50.5861411, -21.4420036 ], [ -50.5877216, -21.4435863 ], [ -50.589914, -21.444118 ], [ -50.5916627, -21.4427736 ], [ -50.5952724, -21.4432539 ], [ -50.6005981, -21.4443229 ], [ -50.6035569, -21.4458503 ], [ -50.6064414, -21.444556 ], [ -50.6083692, -21.4448127 ], [ -50.6128331, -21.4471953 ], [ -50.6158762, -21.4462737 ], [ -50.6197752, -21.4481612 ], [ -50.6211673, -21.4511284 ], [ -50.6222711, -21.4517189 ], [ -50.6235536, -21.4483561 ], [ -50.6251023, -21.4472997 ], [ -50.6253059, -21.4455093 ], [ -50.6245638, -21.4426095 ], [ -50.6204276, -21.4374213 ], [ -50.6183777, -21.4361156 ], [ -50.6193525, -21.4320245 ], [ -50.618459, -21.4303486 ], [ -50.6175297, -21.4289832 ], [ -50.6160535, -21.4292649 ], [ -50.6133256, -21.4260863 ], [ -50.6116893, -21.4263932 ], [ -50.610031, -21.4247045 ], [ -50.6076176, -21.4251192 ], [ -50.6077551, -21.4196922 ], [ -50.6053826, -21.4194582 ], [ -50.6055196, -21.4171396 ], [ -50.6040904, -21.4159539 ], [ -50.6017454, -21.4163814 ], [ -50.6013926, -21.4155382 ], [ -50.6035318, -21.4118737 ], [ -50.6041195, -21.4085311 ], [ -50.6024204, -21.399411 ], [ -50.6001726, -21.3960462 ], [ -50.5997613, -21.3938541 ], [ -50.6018798, -21.3877075 ], [ -50.6024367, -21.3740022 ], [ -50.603553, -21.3713125 ], [ -50.6031185, -21.3646939 ], [ -50.6058223, -21.3612813 ], [ -50.6057199, -21.3591568 ], [ -50.6000851, -21.3548126 ], [ -50.5997177, -21.347003 ], [ -50.5974359, -21.3435915 ], [ -50.5946066, -21.3419324 ], [ -50.5894408, -21.3327384 ], [ -50.5889728, -21.3277527 ], [ -50.5896309, -21.3248941 ], [ -50.5885835, -21.3206579 ], [ -50.5843427, -21.3148146 ], [ -50.5807123, -21.3122668 ], [ -50.5786536, -21.3056316 ], [ -50.5741987, -21.2995727 ], [ -50.573507, -21.2962745 ], [ -50.5654363, -21.2937228 ], [ -50.5630391, -21.2907795 ], [ -50.5586273, -21.2924303 ], [ -50.5573157, -21.2917947 ], [ -50.5561999, -21.2899986 ], [ -50.5568969, -21.2877616 ], [ -50.5548208, -21.2854002 ], [ -50.554268, -21.2826948 ], [ -50.5493835, -21.2786317 ], [ -50.5478761, -21.2749542 ], [ -50.5442795, -21.2711456 ], [ -50.5436061, -21.2684557 ], [ -50.5432672, -21.2636972 ], [ -50.5455395, -21.2593332 ], [ -50.5441242, -21.2578683 ], [ -50.544895, -21.2522224 ], [ -50.5516726, -21.2477492 ], [ -50.5514526, -21.2456549 ], [ -50.5543298, -21.2425982 ], [ -50.5573545, -21.2367944 ], [ -50.5610862, -21.2321964 ], [ -50.5617972, -21.2277181 ], [ -50.562917, -21.2260055 ], [ -50.5623837, -21.221998 ], [ -50.5630135, -21.2198073 ], [ -50.5679834, -21.2181683 ], [ -50.5697422, -21.2143571 ], [ -50.5698167, -21.2109689 ], [ -50.573489, -21.2093891 ], [ -50.5744083, -21.2057926 ], [ -50.5772094, -21.2028836 ], [ -50.5759801, -21.1980439 ], [ -50.5720098, -21.1916821 ], [ -50.5709148, -21.1854155 ], [ -50.5728229, -21.1842915 ], [ -50.5737386, -21.1827207 ], [ -50.5777049, -21.1823942 ], [ -50.5802368, -21.1806522 ], [ -50.5841024, -21.1807663 ], [ -50.5829206, -21.1781285 ], [ -50.5838051, -21.175683 ], [ -50.5890821, -21.1731735 ], [ -50.5896414, -21.1710453 ], [ -50.5918596, -21.1701609 ], [ -50.592929, -21.1662794 ], [ -50.5954873, -21.1652142 ], [ -50.595041, -21.1636781 ], [ -50.5914428, -21.1619587 ], [ -50.5909656, -21.1606764 ], [ -50.5917589, -21.15741 ], [ -50.5930261, -21.1564929 ], [ -50.5929855, -21.1543146 ], [ -50.5970928, -21.1513655 ], [ -50.5966643, -21.1503945 ], [ -50.6011707, -21.1502892 ], [ -50.6016276, -21.1487099 ], [ -50.6029665, -21.1484418 ], [ -50.6010224, -21.1457347 ], [ -50.6009535, -21.1440321 ], [ -50.6023179, -21.1429824 ], [ -50.5999779, -21.1393573 ], [ -50.6016386, -21.1357005 ], [ -50.5996774, -21.1345084 ], [ -50.5995844, -21.1333943 ], [ -50.6061356, -21.1303252 ], [ -50.6081693, -21.131672 ], [ -50.6090078, -21.134301 ], [ -50.6122287, -21.1323142 ], [ -50.613481, -21.1345348 ], [ -50.6148825, -21.13502 ], [ -50.616537, -21.1337961 ], [ -50.6177124, -21.1311673 ], [ -50.6206553, -21.1320072 ], [ -50.6228606, -21.1287812 ], [ -50.621162, -21.1242199 ], [ -50.6201988, -21.1171009 ], [ -50.6175177, -21.1135675 ], [ -50.6166046, -21.1060355 ], [ -50.6244119, -21.0876134 ], [ -50.6311252, -21.0841344 ], [ -50.6318721, -21.0815158 ], [ -50.6389546, -21.0721017 ], [ -50.6384918, -21.0620846 ], [ -50.6402466, -21.0578292 ], [ -50.6410686, -21.0527715 ], [ -50.6390386, -21.0517595 ], [ -50.6353763, -21.047901 ], [ -50.6351073, -21.0452155 ], [ -50.640758, -21.046718 ], [ -50.644807, -21.0430514 ], [ -50.6539207, -21.0408631 ], [ -50.6570384, -21.0424449 ], [ -50.6596555, -21.0419477 ], [ -50.6621553, -21.0425021 ], [ -50.6662112, -21.0405989 ], [ -50.6677215, -21.03847 ], [ -50.6703146, -21.0374842 ], [ -50.6758776, -21.0394527 ], [ -50.6802364, -21.0383953 ], [ -50.6869306, -21.0399997 ], [ -50.6903069, -21.0375687 ], [ -50.6955028, -21.0311493 ], [ -50.7015933, -21.0278439 ], [ -50.7079434, -21.0264197 ], [ -50.7973048, -20.9852212 ], [ -50.7975751, -20.9830566 ], [ -50.8000309, -20.9797566 ], [ -50.8005114, -20.9766189 ], [ -50.8001229, -20.9706069 ], [ -50.7970059, -20.9658626 ], [ -50.7979045, -20.9635465 ], [ -50.8996008, -20.9097714 ], [ -50.8861867, -20.8917776 ], [ -50.8820973, -20.884379 ], [ -50.8788496, -20.8752056 ], [ -50.8759081, -20.8733566 ], [ -50.871467, -20.8653966 ], [ -50.8708821, -20.8629644 ], [ -50.867278, -20.8613386 ], [ -50.8674933, -20.8585069 ], [ -50.8701421, -20.8554454 ], [ -50.8664377, -20.8533297 ], [ -50.8675465, -20.8488913 ], [ -50.867109, -20.8477447 ], [ -50.8639148, -20.8453704 ], [ -50.8651214, -20.8412621 ], [ -50.8639184, -20.8381685 ], [ -50.8641053, -20.8367061 ], [ -50.8671261, -20.8323985 ], [ -50.8666, -20.8305159 ], [ -50.8548929, -20.8359829 ], [ -50.8384891, -20.850526 ], [ -50.822455, -20.8529983 ], [ -50.8170034, -20.8550245 ], [ -50.8105697, -20.859912 ], [ -50.8083371, -20.8680044 ], [ -50.8065245, -20.8702242 ], [ -50.8035413, -20.8717113 ], [ -50.794567, -20.873144 ], [ -50.7864155, -20.8797629 ], [ -50.7775528, -20.8826943 ], [ -50.769975, -20.8890785 ], [ -50.7650234, -20.8914542 ], [ -50.7548664, -20.8926043 ], [ -50.7462623, -20.8922588 ], [ -50.7373632, -20.8878215 ], [ -50.734134, -20.8890752 ], [ -50.7296906, -20.8932989 ], [ -50.714369, -20.8951886 ], [ -50.7085454, -20.8939464 ], [ -50.7031721, -20.8910167 ], [ -50.6873661, -20.889133 ], [ -50.6841948, -20.8894784 ], [ -50.6776213, -20.8923621 ], [ -50.6736413, -20.8960699 ], [ -50.6685609, -20.9044939 ], [ -50.6455226, -20.9322113 ], [ -50.6343589, -20.9504603 ], [ -50.6245214, -20.9586931 ], [ -50.6172439, -20.9659899 ], [ -50.6131419, -20.9685037 ], [ -50.6068071, -20.9702144 ], [ -50.5784221, -20.9744852 ], [ -50.5732669, -20.9769092 ], [ -50.5613304, -20.9856204 ], [ -50.5589194, -20.9881948 ], [ -50.5568699, -20.9950527 ], [ -50.5549727, -20.9975716 ], [ -50.5438227, -21.0036282 ], [ -50.5395969, -21.0106076 ], [ -50.5296031, -21.0191832 ], [ -50.5285838, -21.0218566 ], [ -50.5285661, -21.0273943 ], [ -50.5271953, -21.0320665 ], [ -50.523018, -21.0354701 ], [ -50.5174249, -21.0364814 ], [ -50.5090846, -21.0362015 ], [ -50.4970322, -21.0400596 ], [ -50.4788378, -21.0405564 ], [ -50.4680326, -21.044816 ], [ -50.4619866, -21.0458972 ], [ -50.4550318, -21.0447992 ], [ -50.4520095, -21.0414136 ], [ -50.4386626, -21.0328645 ], [ -50.4349928, -21.0316775 ], [ -50.4323557, -21.0319019 ], [ -50.4231502, -21.0367566 ], [ -50.4099541, -21.0463518 ], [ -50.3949713, -21.0630308 ], [ -50.39013, -21.0653072 ], [ -50.3876037, -21.0650985 ], [ -50.3853993, -21.0636384 ], [ -50.3768704, -21.0480498 ], [ -50.3742628, -21.0445014 ], [ -50.3714763, -21.0423398 ], [ -50.3650622, -21.0420659 ], [ -50.3584953, -21.04341 ], [ -50.3549207, -21.0453229 ], [ -50.351811, -21.0499125 ], [ -50.3509805, -21.0566187 ], [ -50.350108, -21.0582152 ], [ -50.3469798, -21.0602737 ], [ -50.3490351, -21.0656124 ], [ -50.3441529, -21.0738047 ], [ -50.3430049, -21.0767097 ], [ -50.343113, -21.0805881 ], [ -50.3445085, -21.0826427 ], [ -50.350611, -21.0858757 ], [ -50.350223, -21.0879384 ], [ -50.3472718, -21.0931209 ], [ -50.3473571, -21.0953145 ], [ -50.349025, -21.0970437 ], [ -50.3530201, -21.0979018 ], [ -50.3549958, -21.0993227 ], [ -50.3551471, -21.1022884 ], [ -50.3535915, -21.1049175 ], [ -50.3546618, -21.1064237 ], [ -50.3526827, -21.1101587 ], [ -50.3558108, -21.1153324 ], [ -50.3598657, -21.1172178 ], [ -50.3618166, -21.1200758 ], [ -50.3606496, -21.1233315 ], [ -50.3562581, -21.1263714 ], [ -50.3566062, -21.1291087 ], [ -50.3584371, -21.1298758 ], [ -50.3591816, -21.1325098 ], [ -50.3627776, -21.1350535 ], [ -50.3645915, -21.1396755 ], [ -50.3689943, -21.143856 ], [ -50.3706191, -21.1488582 ], [ -50.3753878, -21.1529335 ], [ -50.3804429, -21.1540455 ], [ -50.3816072, -21.1558253 ], [ -50.3810543, -21.1562509 ], [ -50.3822811, -21.1573153 ], [ -50.3831015, -21.1567774 ], [ -50.3847199, -21.1573461 ], [ -50.3838989, -21.1580156 ], [ -50.3846904, -21.1598881 ], [ -50.3842061, -21.1616247 ], [ -50.3870057, -21.1650393 ], [ -50.3859198, -21.1668017 ], [ -50.3879294, -21.168725 ], [ -50.3867745, -21.1721734 ], [ -50.3888856, -21.1733683 ], [ -50.390849, -21.1767641 ], [ -50.3913158, -21.1793132 ], [ -50.3932372, -21.1801969 ], [ -50.3937099, -21.1825482 ], [ -50.3901526, -21.1909498 ], [ -50.3924947, -21.2096773 ], [ -50.3922202, -21.2141517 ] ] ] ] } }
]
}
