{
"type": "FeatureCollection",
"name": "Capital Oeste_Butantã",
"crs": { "type": "name", "properties": { "name": "urn:ogc:def:crs:EPSG::4674" } },
"xy_coordinate_resolution": 1e-15,
"features": [
{ "type": "Feature", "properties": { "fid": 846, "NM_REGIAO": "Sudeste", "NM_UF": "São Paulo", "NM_MUN": "São Paulo", "NM_DIST": "Butantã", "CD_SUBDIST": "35503081200", "ER_REGIAO": "Capital Oeste_Butantã", "ER_REGIAO_CIDADE": "Capital Oeste_Butantã" }, "geometry": { "type": "MultiPolygon", "coordinates": [ [ [ [ -46.708214, -23.577843 ], [ -46.713187, -23.58248 ], [ -46.724319, -23.586594 ], [ -46.724054, -23.583951 ], [ -46.725348, -23.582444 ], [ -46.73133, -23.586397 ], [ -46.733008, -23.588875 ], [ -46.735516, -23.589921 ], [ -46.737967, -23.584746 ], [ -46.745237, -23.585056 ], [ -46.749467, -23.586517 ], [ -46.757046, -23.586488 ], [ -46.754728, -23.584565 ], [ -46.752057, -23.584895 ], [ -46.751318, -23.583579 ], [ -46.749782, -23.583511 ], [ -46.750051, -23.58085 ], [ -46.748842, -23.578149 ], [ -46.745452, -23.579105 ], [ -46.738797, -23.574037 ], [ -46.735407, -23.574074 ], [ -46.739008, -23.572228 ], [ -46.741338, -23.569383 ], [ -46.740396, -23.568722 ], [ -46.742466, -23.566197 ], [ -46.741584, -23.565567 ], [ -46.743313, -23.563412 ], [ -46.741552, -23.562628 ], [ -46.744413, -23.558476 ], [ -46.741807, -23.55701 ], [ -46.739291, -23.556745 ], [ -46.733415, -23.553426 ], [ -46.73155, -23.548235 ], [ -46.708208, -23.560026 ], [ -46.705569, -23.562197 ], [ -46.700917, -23.57225 ], [ -46.703486, -23.572339 ], [ -46.70601, -23.57352 ], [ -46.708214, -23.577843 ] ] ] ] } }
]
}
