{
"type": "FeatureCollection",
"name": "Capital Norte_Vila Guilherme",
"crs": { "type": "name", "properties": { "name": "urn:ogc:def:crs:EPSG::4674" } },
"xy_coordinate_resolution": 1e-15,
"features": [
{ "type": "Feature", "properties": { "fid": 920, "NM_REGIAO": "Sudeste", "NM_UF": "São Paulo", "NM_MUN": "São Paulo", "NM_DIST": "Vila Guilherme", "CD_SUBDIST": "35503088600", "ER_REGIAO": "Capital Norte_Vila Guilherme", "ER_REGIAO_CIDADE": "Capital Norte_Vila Guilherme" }, "geometry": { "type": "MultiPolygon", "coordinates": [ [ [ [ -46.603225, -23.523017 ], [ -46.610645, -23.523126 ], [ -46.616011, -23.519683 ], [ -46.61892, -23.518777 ], [ -46.619008, -23.517262 ], [ -46.621098, -23.514387 ], [ -46.621215, -23.511294 ], [ -46.615569, -23.508354 ], [ -46.615483, -23.501503 ], [ -46.612164, -23.497001 ], [ -46.611285, -23.492596 ], [ -46.6063, -23.493166 ], [ -46.599188, -23.491721 ], [ -46.597568, -23.492722 ], [ -46.598142, -23.496012 ], [ -46.596889, -23.496762 ], [ -46.596818, -23.498179 ], [ -46.595578, -23.49821 ], [ -46.593194, -23.499937 ], [ -46.59351, -23.502237 ], [ -46.595984, -23.503986 ], [ -46.59688, -23.50599 ], [ -46.594849, -23.509567 ], [ -46.595107, -23.52009 ], [ -46.596089, -23.522201 ], [ -46.595078, -23.525269 ], [ -46.596941, -23.527631 ], [ -46.603225, -23.523017 ] ] ] ] } }
]
}
