{
"type": "FeatureCollection",
"name": "Capital Norte_Jaraguá",
"crs": { "type": "name", "properties": { "name": "urn:ogc:def:crs:EPSG::4674" } },
"xy_coordinate_resolution": 1e-15,
"features": [
{ "type": "Feature", "properties": { "fid": 876, "NM_MUN": "São Paulo", "ER_REGIAO_CIDADE": "Capital Norte_Jaraguá", "CONTAR_CARTEIRA": 368.0, "CONTAR_FINALIZADOS": 228.0, "CONTAR_T2": 1.0, "CONTAR_T3": 0.0 }, "geometry": { "type": "MultiPolygon", "coordinates": [ [ [ [ -46.7203416, -23.4569569 ], [ -46.720115, -23.45705 ], [ -46.719557, -23.457059 ], [ -46.71933, -23.457161 ], [ -46.719262, -23.457264 ], [ -46.718944, -23.458192 ], [ -46.736162, -23.462626 ], [ -46.745037, -23.469153 ], [ -46.745431, -23.468549 ], [ -46.745631, -23.468061 ], [ -46.74575, -23.467595 ], [ -46.745809, -23.467061 ], [ -46.745802, -23.466753 ], [ -46.745742, -23.466283 ], [ -46.745598, -23.465788 ], [ -46.746378, -23.46562 ], [ -46.74669, -23.46559 ], [ -46.747702, -23.465697 ], [ -46.747963, -23.46575 ], [ -46.748509, -23.46594 ], [ -46.749016, -23.466039 ], [ -46.750532, -23.466514 ], [ -46.750197, -23.467342 ], [ -46.750554, -23.467476 ], [ -46.750622, -23.467603 ], [ -46.750659, -23.467854 ], [ -46.751247, -23.46852 ], [ -46.75176, -23.469317 ], [ -46.752464, -23.469338 ], [ -46.753108, -23.469009 ], [ -46.753099, -23.469559 ], [ -46.753278, -23.471272 ], [ -46.753259, -23.471831 ], [ -46.753291, -23.472109 ], [ -46.75335, -23.472246 ], [ -46.753372, -23.472496 ], [ -46.753352, -23.472741 ], [ -46.753196, -23.473204 ], [ -46.753696, -23.473397 ], [ -46.75436, -23.473749 ], [ -46.754454, -23.473766 ], [ -46.754572, -23.473754 ], [ -46.755059, -23.473574 ], [ -46.756826, -23.473157 ], [ -46.757639, -23.473165 ], [ -46.758062, -23.473019 ], [ -46.758227, -23.472995 ], [ -46.75957, -23.473056 ], [ -46.760374, -23.472924 ], [ -46.760596, -23.472926 ], [ -46.760704, -23.473014 ], [ -46.761026, -23.473455 ], [ -46.761186, -23.473575 ], [ -46.761709, -23.473798 ], [ -46.762363, -23.473909 ], [ -46.764148, -23.475099 ], [ -46.765417, -23.47683 ], [ -46.76589, -23.476676 ], [ -46.765998, -23.4755285 ], [ -46.766362, -23.475788 ], [ -46.766466, -23.47583 ], [ -46.767098, -23.4759 ], [ -46.768065, -23.476077 ], [ -46.768369, -23.475693 ], [ -46.769832, -23.474099 ], [ -46.770117, -23.473834 ], [ -46.770365, -23.473661 ], [ -46.770609, -23.473571 ], [ -46.770935, -23.473506 ], [ -46.771081, -23.473513 ], [ -46.771233, -23.473529 ], [ -46.771433, -23.473658 ], [ -46.771627, -23.473715 ], [ -46.771781, -23.473607 ], [ -46.771956, -23.473612 ], [ -46.772225, -23.473767 ], [ -46.77314, -23.473396 ], [ -46.773165, -23.473187 ], [ -46.773254, -23.472976 ], [ -46.773374, -23.472799 ], [ -46.773796, -23.472441 ], [ -46.774215, -23.472156 ], [ -46.774701, -23.472006 ], [ -46.775009, -23.471876 ], [ -46.775115, -23.471787 ], [ -46.774968, -23.470853 ], [ -46.774986, -23.470604 ], [ -46.77566, -23.469162 ], [ -46.775765, -23.46879 ], [ -46.775805, -23.468578 ], [ -46.775752, -23.468027 ], [ -46.775741, -23.467419 ], [ -46.775708, -23.467249 ], [ -46.775513, -23.466898 ], [ -46.775314, -23.466685 ], [ -46.775319, -23.466399 ], [ -46.775153, -23.466169 ], [ -46.775106, -23.466028 ], [ -46.775123, -23.465465 ], [ -46.775075, -23.465146 ], [ -46.774885, -23.464681 ], [ -46.774824, -23.464436 ], [ -46.774596, -23.464136 ], [ -46.774435, -23.464013 ], [ -46.773786, -23.463647 ], [ -46.773198, -23.463269 ], [ -46.772781, -23.463073 ], [ -46.772353, -23.462475 ], [ -46.772045, -23.462134 ], [ -46.771962, -23.461903 ], [ -46.772119, -23.461434 ], [ -46.77211, -23.461273 ], [ -46.771916, -23.460944 ], [ -46.77145, -23.460493 ], [ -46.771365, -23.460341 ], [ -46.771258, -23.459889 ], [ -46.771154, -23.459709 ], [ -46.770819, -23.459388 ], [ -46.77059, -23.45928 ], [ -46.769893, -23.459161 ], [ -46.769766, -23.459089 ], [ -46.769236, -23.458636 ], [ -46.769207, -23.458543 ], [ -46.769252, -23.458478 ], [ -46.769638, -23.458205 ], [ -46.76984, -23.457985 ], [ -46.770102, -23.458306 ], [ -46.770226, -23.458383 ], [ -46.770389, -23.458424 ], [ -46.771267, -23.458516 ], [ -46.772037, -23.458756 ], [ -46.772248, -23.458919 ], [ -46.772609, -23.459311 ], [ -46.772928, -23.4598 ], [ -46.773501, -23.460483 ], [ -46.773571, -23.46063 ], [ -46.773659, -23.461288 ], [ -46.77373, -23.461513 ], [ -46.773973, -23.461856 ], [ -46.774633, -23.46257 ], [ -46.775618, -23.463792 ], [ -46.776428, -23.464699 ], [ -46.776738, -23.464984 ], [ -46.77696, -23.465061 ], [ -46.77769, -23.465024 ], [ -46.777902, -23.46498 ], [ -46.777765, -23.464624 ], [ -46.777358, -23.464227 ], [ -46.776568, -23.463818 ], [ -46.775858, -23.463342 ], [ -46.775697, -23.463026 ], [ -46.775738, -23.462559 ], [ -46.775702, -23.462276 ], [ -46.775475, -23.461964 ], [ -46.775359, -23.461713 ], [ -46.775097, -23.460905 ], [ -46.775129, -23.456289 ], [ -46.773578, -23.456283 ], [ -46.773217, -23.456081 ], [ -46.772562, -23.455499 ], [ -46.77225, -23.455178 ], [ -46.771229, -23.454451 ], [ -46.770093, -23.453444 ], [ -46.769997, -23.453071 ], [ -46.769617, -23.452699 ], [ -46.769486, -23.452434 ], [ -46.769377, -23.452048 ], [ -46.76931, -23.451656 ], [ -46.769277, -23.450597 ], [ -46.769409, -23.449122 ], [ -46.769391, -23.448874 ], [ -46.769313, -23.448713 ], [ -46.769208, -23.448597 ], [ -46.76868, -23.448354 ], [ -46.767821, -23.448033 ], [ -46.767716, -23.447964 ], [ -46.767511, -23.447814 ], [ -46.76738, -23.447593 ], [ -46.766945, -23.447197 ], [ -46.766764, -23.447081 ], [ -46.766441, -23.446985 ], [ -46.766113, -23.44684 ], [ -46.765974, -23.446667 ], [ -46.765828, -23.446386 ], [ -46.765316, -23.444822 ], [ -46.765035, -23.444276 ], [ -46.765029, -23.444154 ], [ -46.765169, -23.443708 ], [ -46.765158, -23.443564 ], [ -46.764798, -23.44318 ], [ -46.764538, -23.442115 ], [ -46.764551, -23.441652 ], [ -46.764944, -23.440632 ], [ -46.765003, -23.440444 ], [ -46.765027, -23.440153 ], [ -46.764972, -23.439567 ], [ -46.764847, -23.439035 ], [ -46.764272, -23.438086 ], [ -46.764248, -23.43788 ], [ -46.764346, -23.437213 ], [ -46.764292, -23.437111 ], [ -46.764298, -23.43698 ], [ -46.764866, -23.436027 ], [ -46.764803, -23.435928 ], [ -46.764603, -23.435804 ], [ -46.76439, -23.435723 ], [ -46.764183, -23.435436 ], [ -46.763839, -23.435198 ], [ -46.763801, -23.435141 ], [ -46.763755, -23.434907 ], [ -46.76365, -23.434836 ], [ -46.763592, -23.434738 ], [ -46.763537, -23.434475 ], [ -46.763314, -23.434035 ], [ -46.763281, -23.433879 ], [ -46.763238, -23.43382 ], [ -46.762813, -23.433694 ], [ -46.762421, -23.433516 ], [ -46.762173, -23.433488 ], [ -46.762032, -23.4334 ], [ -46.761884, -23.433254 ], [ -46.761701, -23.433216 ], [ -46.761601, -23.43313 ], [ -46.761558, -23.432782 ], [ -46.761613, -23.432439 ], [ -46.761618, -23.432125 ], [ -46.761569, -23.431776 ], [ -46.760075, -23.431693 ], [ -46.759819, -23.431552 ], [ -46.759711, -23.431386 ], [ -46.758907, -23.4317 ], [ -46.7587, -23.431811 ], [ -46.758581, -23.431913 ], [ -46.755044, -23.431512 ], [ -46.752212, -23.431322 ], [ -46.747892, -23.430947 ], [ -46.747832, -23.430813 ], [ -46.747854, -23.430577 ], [ -46.747795, -23.430521 ], [ -46.747801, -23.430434 ], [ -46.747755, -23.430395 ], [ -46.747568, -23.430373 ], [ -46.747527, -23.430287 ], [ -46.747512, -23.430071 ], [ -46.747565, -23.429975 ], [ -46.747797, -23.429832 ], [ -46.748037, -23.429581 ], [ -46.74806, -23.429522 ], [ -46.747947, -23.429338 ], [ -46.747965, -23.429266 ], [ -46.748198, -23.429229 ], [ -46.748292, -23.429145 ], [ -46.748034, -23.428982 ], [ -46.747845, -23.428616 ], [ -46.7478, -23.42861 ], [ -46.747754, -23.428702 ], [ -46.747721, -23.428711 ], [ -46.747578, -23.428582 ], [ -46.747581, -23.428429 ], [ -46.747657, -23.428132 ], [ -46.747627, -23.427633 ], [ -46.74788, -23.427517 ], [ -46.74791, -23.427407 ], [ -46.747847, -23.427282 ], [ -46.747701, -23.427159 ], [ -46.747615, -23.426728 ], [ -46.747534, -23.426494 ], [ -46.747532, -23.426367 ], [ -46.747371, -23.426145 ], [ -46.747349, -23.426071 ], [ -46.747444, -23.425623 ], [ -46.747377, -23.425358 ], [ -46.747248, -23.425034 ], [ -46.747083, -23.424868 ], [ -46.746951, -23.424883 ], [ -46.74652, -23.424805 ], [ -46.746068, -23.424627 ], [ -46.745753, -23.42446 ], [ -46.745448, -23.424246 ], [ -46.745223, -23.423961 ], [ -46.745163, -23.42373 ], [ -46.74515, -23.423499 ], [ -46.744915, -23.423175 ], [ -46.744729, -23.423046 ], [ -46.744461, -23.422662 ], [ -46.744112, -23.422492 ], [ -46.743873, -23.422266 ], [ -46.743204, -23.422042 ], [ -46.743159, -23.421884 ], [ -46.743202, -23.421689 ], [ -46.743212, -23.421384 ], [ -46.74291, -23.421613 ], [ -46.742802, -23.421653 ], [ -46.742597, -23.421686 ], [ -46.742063, -23.42169 ], [ -46.741575, -23.421591 ], [ -46.740972, -23.421201 ], [ -46.740314, -23.42106 ], [ -46.740057, -23.420949 ], [ -46.738873, -23.421031 ], [ -46.738513, -23.420996 ], [ -46.738223, -23.421006 ], [ -46.737085, -23.420907 ], [ -46.737008, -23.420976 ], [ -46.73706, -23.421128 ], [ -46.73716, -23.42119 ], [ -46.737787, -23.421416 ], [ -46.738001, -23.42159 ], [ -46.737972, -23.421697 ], [ -46.737829, -23.421742 ], [ -46.737162, -23.421678 ], [ -46.736431, -23.421431 ], [ -46.736204, -23.421436 ], [ -46.735817, -23.421595 ], [ -46.735531, -23.421646 ], [ -46.734543, -23.421583 ], [ -46.734209, -23.421639 ], [ -46.733959, -23.421718 ], [ -46.73344, -23.422088 ], [ -46.733231, -23.422197 ], [ -46.732916, -23.422287 ], [ -46.731102, -23.422656 ], [ -46.730233, -23.422875 ], [ -46.730021, -23.422945 ], [ -46.729816, -23.423138 ], [ -46.729602, -23.423624 ], [ -46.7290091, -23.4245629 ], [ -46.728923, -23.424525 ], [ -46.72888, -23.424458 ], [ -46.7288555, -23.4243105 ], [ -46.729186, -23.423068 ], [ -46.729345, -23.422641 ], [ -46.729331, -23.422529 ], [ -46.729161, -23.422348 ], [ -46.728543, -23.422018 ], [ -46.727949, -23.422857 ], [ -46.727829, -23.422983 ], [ -46.727481, -23.423245 ], [ -46.727113, -23.42336 ], [ -46.726694, -23.423371 ], [ -46.726289, -23.423279 ], [ -46.726049, -23.423159 ], [ -46.725271, -23.422665 ], [ -46.724961, -23.4225816 ], [ -46.724743, -23.422644 ], [ -46.724632, -23.422802 ], [ -46.724566, -23.422769 ], [ -46.724419, -23.422771 ], [ -46.723697, -23.422915 ], [ -46.722916, -23.423425 ], [ -46.72279, -23.423435 ], [ -46.722718, -23.42371 ], [ -46.723207, -23.423921 ], [ -46.723471, -23.423874 ], [ -46.72367, -23.423876 ], [ -46.723821, -23.42392 ], [ -46.724051, -23.424108 ], [ -46.724123, -23.424235 ], [ -46.724227, -23.424583 ], [ -46.724197, -23.424677 ], [ -46.72396, -23.424983 ], [ -46.723785, -23.425676 ], [ -46.723608, -23.425874 ], [ -46.723507, -23.426069 ], [ -46.723187, -23.426382 ], [ -46.723076, -23.426579 ], [ -46.723024, -23.42675 ], [ -46.72299, -23.427413 ], [ -46.722937, -23.427653 ], [ -46.722509, -23.428144 ], [ -46.720408, -23.427122 ], [ -46.719202, -23.426616 ], [ -46.718882, -23.426419 ], [ -46.717855, -23.425136 ], [ -46.717522, -23.424603 ], [ -46.717279, -23.42407 ], [ -46.716901, -23.422919 ], [ -46.716751, -23.422615 ], [ -46.71631, -23.422114 ], [ -46.715864, -23.4219497 ], [ -46.715295, -23.421842 ], [ -46.714539, -23.421794 ], [ -46.711841, -23.421747 ], [ -46.71141, -23.421673 ], [ -46.711092, -23.421563 ], [ -46.710647, -23.421524 ], [ -46.709575, -23.421547 ], [ -46.709125, -23.421456 ], [ -46.708997, -23.421379 ], [ -46.708844, -23.42125 ], [ -46.708713, -23.420977 ], [ -46.708577, -23.42032 ], [ -46.708457, -23.418338 ], [ -46.708276, -23.416541 ], [ -46.707313, -23.416477 ], [ -46.706464, -23.416615 ], [ -46.704682, -23.416924 ], [ -46.703563, -23.417245 ], [ -46.702346, -23.417516 ], [ -46.701858, -23.417496 ], [ -46.701207, -23.417323 ], [ -46.700598, -23.41722 ], [ -46.700285, -23.417242 ], [ -46.700098, -23.417347 ], [ -46.699996, -23.417567 ], [ -46.699918, -23.418045 ], [ -46.699913, -23.418759 ], [ -46.700056, -23.420077 ], [ -46.700231, -23.421253 ], [ -46.700427, -23.42185 ], [ -46.700434, -23.422299 ], [ -46.70094, -23.422251 ], [ -46.702088, -23.422242 ], [ -46.702546, -23.422281 ], [ -46.702898, -23.422408 ], [ -46.703169, -23.422601 ], [ -46.703347, -23.422804 ], [ -46.703477, -23.423062 ], [ -46.703559, -23.423567 ], [ -46.703434, -23.424859 ], [ -46.703498, -23.425451 ], [ -46.703488, -23.426122 ], [ -46.703339, -23.427048 ], [ -46.702718, -23.42954 ], [ -46.702648, -23.430674 ], [ -46.703189, -23.435368 ], [ -46.703234, -23.436725 ], [ -46.703394, -23.43691 ], [ -46.703813, -23.437085 ], [ -46.704841, -23.437159 ], [ -46.70541, -23.437376 ], [ -46.706397, -23.437216 ], [ -46.706948, -23.437428 ], [ -46.707228, -23.437586 ], [ -46.707892, -23.438128 ], [ -46.708333, -23.438616 ], [ -46.708486, -23.438842 ], [ -46.709236, -23.439086 ], [ -46.709759, -23.43915 ], [ -46.71024, -23.439267 ], [ -46.710477, -23.439338 ], [ -46.710822, -23.439537 ], [ -46.71104, -23.439757 ], [ -46.711185, -23.439827 ], [ -46.711319, -23.439941 ], [ -46.711698, -23.440423 ], [ -46.711782, -23.440675 ], [ -46.7117943, -23.4411893 ], [ -46.711743, -23.441524 ], [ -46.711618, -23.441732 ], [ -46.711401, -23.442253 ], [ -46.711302, -23.442446 ], [ -46.710458, -23.443349 ], [ -46.709826, -23.443809 ], [ -46.709547, -23.443976 ], [ -46.708718, -23.44436 ], [ -46.708124, -23.444417 ], [ -46.708027, -23.444479 ], [ -46.70791, -23.444731 ], [ -46.707854, -23.444775 ], [ -46.707512, -23.444833 ], [ -46.707125, -23.445014 ], [ -46.706978, -23.445151 ], [ -46.706429, -23.445815 ], [ -46.706244, -23.446161 ], [ -46.706253, -23.446288 ], [ -46.706456, -23.446649 ], [ -46.706459, -23.446704 ], [ -46.706455, -23.446765 ], [ -46.706346, -23.446943 ], [ -46.706395, -23.447212 ], [ -46.706379, -23.447282 ], [ -46.706197, -23.447675 ], [ -46.70619, -23.447825 ], [ -46.706227, -23.447944 ], [ -46.706323, -23.448083 ], [ -46.706361, -23.448253 ], [ -46.706659, -23.448674 ], [ -46.70673, -23.44883 ], [ -46.706777, -23.449207 ], [ -46.706741, -23.449513 ], [ -46.706753, -23.449698 ], [ -46.706876, -23.449914 ], [ -46.706918, -23.450069 ], [ -46.707007, -23.450199 ], [ -46.70722, -23.450377 ], [ -46.707235, -23.450447 ], [ -46.707223, -23.450667 ], [ -46.707276, -23.450908 ], [ -46.707255, -23.451116 ], [ -46.7072, -23.451238 ], [ -46.707011, -23.451386 ], [ -46.707716, -23.451706 ], [ -46.707987, -23.452021 ], [ -46.708109, -23.452089 ], [ -46.708338, -23.452126 ], [ -46.708537, -23.452355 ], [ -46.708642, -23.452408 ], [ -46.70901, -23.452514 ], [ -46.709276, -23.452675 ], [ -46.709695, -23.452714 ], [ -46.710156, -23.452705 ], [ -46.71047, -23.452884 ], [ -46.710569, -23.453031 ], [ -46.710714, -23.453137 ], [ -46.710877, -23.453344 ], [ -46.711141, -23.45381 ], [ -46.711405, -23.454164 ], [ -46.711661, -23.454406 ], [ -46.711802, -23.45448 ], [ -46.7120615, -23.454521 ], [ -46.711868, -23.454257 ], [ -46.711798, -23.4541 ], [ -46.711854, -23.453838 ], [ -46.712015, -23.453604 ], [ -46.712156, -23.453466 ], [ -46.713117, -23.45227 ], [ -46.713941, -23.45114 ], [ -46.714177, -23.450924 ], [ -46.714505, -23.450774 ], [ -46.715436, -23.450659 ], [ -46.715861, -23.450565 ], [ -46.715808, -23.450914 ], [ -46.715824, -23.451128 ], [ -46.716021, -23.451525 ], [ -46.716395, -23.451795 ], [ -46.716566, -23.451872 ], [ -46.717395, -23.452102 ], [ -46.717615, -23.452366 ], [ -46.717831, -23.452549 ], [ -46.718025, -23.452627 ], [ -46.718672, -23.452764 ], [ -46.718754, -23.4533 ], [ -46.718923, -23.453604 ], [ -46.719218, -23.453782 ], [ -46.719712, -23.454004 ], [ -46.719935, -23.454213 ], [ -46.720021, -23.454358 ], [ -46.720131, -23.454677 ], [ -46.720465, -23.456269 ], [ -46.720496, -23.45666 ], [ -46.720449, -23.456838 ], [ -46.7203416, -23.4569569 ] ] ] ] } }
]
}
