{
"type": "FeatureCollection",
"name": "ER_REGIAO_Ribeirão do Sul",
"crs": { "type": "name", "properties": { "name": "urn:ogc:def:crs:EPSG::4674" } },
"xy_coordinate_resolution": 1e-15,
"features": [
{ "type": "Feature", "properties": { "fid": 724, "NM_REGIAO": "Sudeste", "NM_UF": "São Paulo", "NM_MUN": "Ribeirão do Sul", "NM_DIST": "Ribeirão do Sul", "CD_SUBDIST": "35432040500", "ER_REGIAO": "Ribeirão do Sul", "ER_REGIAO_CIDADE": "Ribeirão do Sul_Marília" }, "geometry": { "type": "MultiPolygon", "coordinates": [ [ [ [ -49.9680796, -22.8141784 ], [ -49.9853498, -22.8008609 ], [ -49.9851896, -22.8000285 ], [ -49.98718, -22.8002792 ], [ -49.9891361, -22.8022258 ], [ -49.9890599, -22.8032478 ], [ -49.989801, -22.8032592 ], [ -49.9927647, -22.7975155 ], [ -49.9935663, -22.797668 ], [ -49.9938357, -22.7964294 ], [ -49.9950622, -22.7958137 ], [ -49.9943936, -22.7952865 ], [ -49.9951457, -22.794299 ], [ -49.9978876, -22.7981922 ], [ -50.0012928, -22.7977879 ], [ -50.0003215, -22.7956263 ], [ -50.0014213, -22.7935414 ], [ -50.0004619, -22.7922314 ], [ -50.0026245, -22.7921544 ], [ -50.0043619, -22.7908881 ], [ -50.0048826, -22.7858965 ], [ -50.0061426, -22.7851367 ], [ -50.0063126, -22.7871089 ], [ -50.0077607, -22.7863469 ], [ -50.0086619, -22.7867011 ], [ -50.0100548, -22.7843043 ], [ -50.0005363, -22.7720049 ], [ -50.0008637, -22.7692303 ], [ -49.9978697, -22.765948 ], [ -49.9978074, -22.7592378 ], [ -49.9960087, -22.7524353 ], [ -49.9935353, -22.7486518 ], [ -49.9919952, -22.7478439 ], [ -49.9920809, -22.7419516 ], [ -49.9873839, -22.7339168 ], [ -49.9840943, -22.7252472 ], [ -49.9831358, -22.7199848 ], [ -49.9735676, -22.7123838 ], [ -49.9724402, -22.7083178 ], [ -49.9726904, -22.6941634 ], [ -49.9736084, -22.6878457 ], [ -49.9728079, -22.6853575 ], [ -49.9719661, -22.6842492 ], [ -49.96915, -22.6833095 ], [ -49.9587297, -22.6841065 ], [ -49.9524197, -22.6799243 ], [ -49.9447452, -22.6808708 ], [ -49.9288151, -22.6769509 ], [ -49.9234202, -22.6737591 ], [ -49.9208596, -22.6693384 ], [ -49.9165421, -22.666465 ], [ -49.9140632, -22.6637941 ], [ -49.9121549, -22.6641719 ], [ -49.9093826, -22.6677492 ], [ -49.9079264, -22.6684693 ], [ -49.9061884, -22.6684547 ], [ -49.902187, -22.666612 ], [ -49.8994303, -22.6714857 ], [ -49.8944204, -22.6727476 ], [ -49.8914707, -22.6763092 ], [ -49.8931698, -22.6856612 ], [ -49.8925576, -22.6884948 ], [ -49.8901236, -22.6930926 ], [ -49.8915816, -22.6988105 ], [ -49.8909973, -22.700381 ], [ -49.8882944, -22.7025309 ], [ -49.8846304, -22.703286 ], [ -49.8802739, -22.7060927 ], [ -49.8734363, -22.7005907 ], [ -49.8710853, -22.7000939 ], [ -49.8651568, -22.7068924 ], [ -49.8645874, -22.713911 ], [ -49.8629802, -22.7173551 ], [ -49.8597177, -22.7194043 ], [ -49.8550181, -22.7207016 ], [ -49.850746, -22.7250571 ], [ -49.8478277, -22.7261127 ], [ -49.8480361, -22.730203 ], [ -49.846064, -22.7360295 ], [ -49.8433111, -22.740554 ], [ -49.8430665, -22.7464433 ], [ -49.8389431, -22.7533648 ], [ -49.8382446, -22.7601743 ], [ -49.8367141, -22.7631963 ], [ -49.8374618, -22.7681496 ], [ -49.8385066, -22.7700579 ], [ -49.8421136, -22.7707321 ], [ -49.8508408, -22.7769255 ], [ -49.8556516, -22.7864431 ], [ -49.8660646, -22.8030984 ], [ -49.8668288, -22.806361 ], [ -49.8662563, -22.8078734 ], [ -49.8671177, -22.8086279 ], [ -49.8708415, -22.8059559 ], [ -49.8773793, -22.8104906 ], [ -49.8777409, -22.8115721 ], [ -49.8882451, -22.8151419 ], [ -49.894258, -22.8159672 ], [ -49.9036998, -22.8149838 ], [ -49.913515, -22.8166252 ], [ -49.9181361, -22.8192312 ], [ -49.9256087, -22.8259545 ], [ -49.9386014, -22.8330561 ], [ -49.9490077, -22.8114558 ], [ -49.9580852, -22.8141989 ], [ -49.9613403, -22.8144444 ], [ -49.965305, -22.8135287 ], [ -49.9680796, -22.8141784 ] ] ] ] } }
]
}
