{
"type": "FeatureCollection",
"name": "ER_REGIAO_Maracaí_Maracaí",
"crs": { "type": "name", "properties": { "name": "urn:ogc:def:crs:EPSG::4674" } },
"xy_coordinate_resolution": 1e-15,
"features": [
{ "type": "Feature", "properties": { "fid": 466, "NM_REGIAO": "Sudeste", "NM_UF": "São Paulo", "NM_MUN": "Maracaí", "NM_DIST": "Maracaí", "CD_SUBDIST": "35288090500", "ER_REGIAO": "Maracaí_Maracaí", "ER_REGIAO_CIDADE": "Maracaí_Maracaí_Marília" }, "geometry": { "type": "MultiPolygon", "coordinates": [ [ [ [ -50.7084695, -22.5507926 ], [ -50.691638, -22.5466947 ], [ -50.6905891, -22.5442369 ], [ -50.6911677, -22.5402432 ], [ -50.6874768, -22.5360382 ], [ -50.6870016, -22.5343598 ], [ -50.6828619, -22.5326312 ], [ -50.6804202, -22.5306877 ], [ -50.6785259, -22.5248473 ], [ -50.6753336, -22.5197486 ], [ -50.6733719, -22.5115373 ], [ -50.6690237, -22.5096175 ], [ -50.6623597, -22.5106252 ], [ -50.6578351, -22.5099813 ], [ -50.6573365, -22.51135 ], [ -50.6593905, -22.5156047 ], [ -50.6592233, -22.5205728 ], [ -50.6609708, -22.52472 ], [ -50.6604405, -22.5305555 ], [ -50.6536398, -22.5423381 ], [ -50.6499862, -22.5452494 ], [ -50.6458337, -22.5508064 ], [ -50.6449971, -22.55524 ], [ -50.6413625, -22.5579855 ], [ -50.6403788, -22.5628195 ], [ -50.6389131, -22.5621965 ], [ -50.637337, -22.5627504 ], [ -50.6351045, -22.5596725 ], [ -50.6352931, -22.5586013 ], [ -50.6344161, -22.5590418 ], [ -50.6341382, -22.5580529 ], [ -50.6338004, -22.5586601 ], [ -50.6333576, -22.5579044 ], [ -50.6326249, -22.5582678 ], [ -50.6318731, -22.5572954 ], [ -50.6327578, -22.5572399 ], [ -50.633686, -22.5550975 ], [ -50.632174, -22.5548312 ], [ -50.6329893, -22.554279 ], [ -50.6314989, -22.5540174 ], [ -50.631572, -22.5531255 ], [ -50.6298752, -22.5525113 ], [ -50.6281477, -22.5539439 ], [ -50.6263959, -22.5528508 ], [ -50.6253896, -22.5534993 ], [ -50.6254762, -22.5505688 ], [ -50.6233266, -22.5482543 ], [ -50.6213619, -22.5502668 ], [ -50.6195826, -22.5506646 ], [ -50.6199618, -22.5500881 ], [ -50.6180626, -22.5483149 ], [ -50.6186262, -22.5465184 ], [ -50.616917, -22.5471794 ], [ -50.6167558, -22.5485384 ], [ -50.6153998, -22.5495072 ], [ -50.6146608, -22.5464651 ], [ -50.6126835, -22.5445163 ], [ -50.6084616, -22.5433659 ], [ -50.6066893, -22.5468776 ], [ -50.5999677, -22.5498573 ], [ -50.596822, -22.5534968 ], [ -50.5955529, -22.5568593 ], [ -50.592891, -22.5592012 ], [ -50.5897476, -22.5648193 ], [ -50.5873618, -22.5665996 ], [ -50.5851932, -22.5712444 ], [ -50.5779441, -22.580894 ], [ -50.568411, -22.5836753 ], [ -50.5605935, -22.5833992 ], [ -50.554305, -22.5860956 ], [ -50.543419, -22.5873538 ], [ -50.5269169, -22.5918386 ], [ -50.5226975, -22.5947614 ], [ -50.5195805, -22.599141 ], [ -50.5142762, -22.603674 ], [ -50.5191624, -22.6042222 ], [ -50.5209946, -22.6069976 ], [ -50.5277891, -22.6135003 ], [ -50.5340407, -22.6177866 ], [ -50.5373617, -22.6180886 ], [ -50.5470329, -22.621595 ], [ -50.5502547, -22.6273712 ], [ -50.5538412, -22.6286964 ], [ -50.554956, -22.6319057 ], [ -50.5561262, -22.6328561 ], [ -50.556299, -22.6347853 ], [ -50.5605942, -22.6373384 ], [ -50.5622093, -22.6369774 ], [ -50.5633866, -22.6381573 ], [ -50.5638379, -22.6373473 ], [ -50.5664426, -22.6377929 ], [ -50.56714, -22.6400598 ], [ -50.5694869, -22.6403417 ], [ -50.573257, -22.6431883 ], [ -50.5720172, -22.6439339 ], [ -50.5725002, -22.6454891 ], [ -50.5697582, -22.6526524 ], [ -50.5702309, -22.6583628 ], [ -50.568848, -22.6657511 ], [ -50.5688845, -22.6749952 ], [ -50.5701656, -22.677565 ], [ -50.5697253, -22.6793377 ], [ -50.5711512, -22.6838 ], [ -50.5716095, -22.6915083 ], [ -50.5753236, -22.6889497 ], [ -50.5828944, -22.6764199 ], [ -50.5861609, -22.6739895 ], [ -50.5921457, -22.6743503 ], [ -50.5994275, -22.6779276 ], [ -50.6043556, -22.679347 ], [ -50.6118333, -22.6772378 ], [ -50.6159804, -22.6787603 ], [ -50.617963, -22.6786452 ], [ -50.6225706, -22.6769493 ], [ -50.6282093, -22.677067 ], [ -50.6331364, -22.6754317 ], [ -50.6415444, -22.6762565 ], [ -50.6433299, -22.6769207 ], [ -50.6466351, -22.6807698 ], [ -50.6524116, -22.6851936 ], [ -50.6606976, -22.6840523 ], [ -50.6676673, -22.6900735 ], [ -50.6743932, -22.6915084 ], [ -50.6821121, -22.6970187 ], [ -50.6844093, -22.6998578 ], [ -50.68838, -22.7005532 ], [ -50.6987901, -22.7077168 ], [ -50.705574, -22.7108789 ], [ -50.7170796, -22.714024 ], [ -50.7227312, -22.7202777 ], [ -50.7291512, -22.7208176 ], [ -50.7349254, -22.7229297 ], [ -50.7405906, -22.7224571 ], [ -50.7434769, -22.7214127 ], [ -50.7406717, -22.7158724 ], [ -50.7380071, -22.7148007 ], [ -50.7367045, -22.7105121 ], [ -50.736942, -22.7080477 ], [ -50.7386248, -22.7051323 ], [ -50.7367513, -22.696587 ], [ -50.7378397, -22.6936779 ], [ -50.7420055, -22.6874545 ], [ -50.7422792, -22.6854396 ], [ -50.7498901, -22.6754602 ], [ -50.7543982, -22.675722 ], [ -50.7616336, -22.6804947 ], [ -50.766657, -22.6809505 ], [ -50.7733371, -22.6786263 ], [ -50.7788396, -22.6735368 ], [ -50.7797396, -22.6707604 ], [ -50.7814818, -22.6694667 ], [ -50.7791909, -22.6656702 ], [ -50.7753823, -22.6527382 ], [ -50.7779399, -22.650567 ], [ -50.7813999, -22.6493375 ], [ -50.783535, -22.6441983 ], [ -50.7928541, -22.6373381 ], [ -50.7986119, -22.6270021 ], [ -50.7978731, -22.6243309 ], [ -50.7982579, -22.6182662 ], [ -50.8026906, -22.6123316 ], [ -50.7951357, -22.605267 ], [ -50.7934187, -22.6021199 ], [ -50.7879493, -22.5967718 ], [ -50.7821677, -22.594743 ], [ -50.7730284, -22.595552 ], [ -50.7706083, -22.5941324 ], [ -50.7697487, -22.5913279 ], [ -50.7707727, -22.5820027 ], [ -50.7695811, -22.5810461 ], [ -50.763668, -22.5814811 ], [ -50.755863, -22.5799619 ], [ -50.7492509, -22.5844394 ], [ -50.7394295, -22.5836255 ], [ -50.7358118, -22.5802589 ], [ -50.7301727, -22.5661988 ], [ -50.7245038, -22.5639729 ], [ -50.713498, -22.5617831 ], [ -50.7109429, -22.5582719 ], [ -50.7084695, -22.5507926 ] ] ] ] } }
]
}
