{
"type": "FeatureCollection",
"name": "ER_REGIAO_Igaratá",
"crs": { "type": "name", "properties": { "name": "urn:ogc:def:crs:EPSG::4674" } },
"xy_coordinate_resolution": 1e-15,
"features": [
{ "type": "Feature", "properties": { "fid": 329, "NM_REGIAO": "Sudeste", "NM_UF": "São Paulo", "NM_MUN": "Igaratá", "NM_DIST": "Igaratá", "CD_SUBDIST": "35202020500", "ER_REGIAO": "Igaratá", "ER_REGIAO_CIDADE": "Igaratá_Guarulhos" }, "geometry": { "type": "MultiPolygon", "coordinates": [ [ [ [ -46.15788, -23.235883 ], [ -46.162304, -23.23461 ], [ -46.165017, -23.235146 ], [ -46.166851, -23.232394 ], [ -46.170654, -23.230007 ], [ -46.174741, -23.230997 ], [ -46.178915, -23.227217 ], [ -46.182101, -23.226471 ], [ -46.183962, -23.224183 ], [ -46.187584, -23.224893 ], [ -46.189094, -23.224376 ], [ -46.190915, -23.221228 ], [ -46.196283, -23.218793 ], [ -46.196077, -23.210269 ], [ -46.198511, -23.208296 ], [ -46.202375, -23.207817 ], [ -46.204116, -23.208247 ], [ -46.204882, -23.209674 ], [ -46.207936, -23.206467 ], [ -46.207948, -23.205026 ], [ -46.210843, -23.203728 ], [ -46.21442, -23.200453 ], [ -46.217073, -23.200006 ], [ -46.218589, -23.197434 ], [ -46.224675, -23.196238 ], [ -46.227907, -23.189245 ], [ -46.232566, -23.189651 ], [ -46.234107, -23.187232 ], [ -46.235838, -23.186611 ], [ -46.238885, -23.187514 ], [ -46.244918, -23.185912 ], [ -46.250531, -23.189013 ], [ -46.257704, -23.185775 ], [ -46.260507, -23.186553 ], [ -46.262766, -23.186169 ], [ -46.263527, -23.183595 ], [ -46.261808, -23.181286 ], [ -46.259621, -23.180014 ], [ -46.261763, -23.178059 ], [ -46.260579, -23.176109 ], [ -46.261423, -23.173826 ], [ -46.256893, -23.1728335 ], [ -46.2560852, -23.1718348 ], [ -46.2556798, -23.1687177 ], [ -46.2575016, -23.1674365 ], [ -46.2563897, -23.1636145 ], [ -46.2570834, -23.1598045 ], [ -46.2536411, -23.1564583 ], [ -46.2505717, -23.1563515 ], [ -46.2471255, -23.1551028 ], [ -46.2462119, -23.150868 ], [ -46.2431873, -23.1492298 ], [ -46.2401634, -23.1427537 ], [ -46.2374953, -23.1412971 ], [ -46.2352344, -23.1354433 ], [ -46.2322157, -23.1350956 ], [ -46.2260462, -23.1368976 ], [ -46.227228, -23.1326703 ], [ -46.2262641, -23.1305093 ], [ -46.2267483, -23.1279248 ], [ -46.2236471, -23.1256977 ], [ -46.2215501, -23.1230164 ], [ -46.2199363, -23.1242231 ], [ -46.2184944, -23.1237989 ], [ -46.217689, -23.120065 ], [ -46.2182, -23.117261 ], [ -46.214259, -23.11442 ], [ -46.215642, -23.111094 ], [ -46.215061, -23.108424 ], [ -46.212589, -23.106828 ], [ -46.208866, -23.106682 ], [ -46.210289, -23.105734 ], [ -46.210483, -23.104602 ], [ -46.208664, -23.101974 ], [ -46.209088, -23.098779 ], [ -46.205219, -23.093062 ], [ -46.205773, -23.087607 ], [ -46.204872, -23.084424 ], [ -46.202438, -23.082533 ], [ -46.196282, -23.080359 ], [ -46.194808, -23.077932 ], [ -46.187598, -23.077272 ], [ -46.182693, -23.07947 ], [ -46.180331, -23.079393 ], [ -46.175008, -23.075864 ], [ -46.173526, -23.070825 ], [ -46.17039, -23.071623 ], [ -46.168833, -23.070015 ], [ -46.167495, -23.070091 ], [ -46.165371, -23.068646 ], [ -46.163927, -23.066701 ], [ -46.16144, -23.066122 ], [ -46.162292, -23.063157 ], [ -46.15886, -23.061528 ], [ -46.160268, -23.057319 ], [ -46.15854, -23.05276 ], [ -46.158941, -23.049925 ], [ -46.154862, -23.049357 ], [ -46.15345, -23.046718 ], [ -46.15102, -23.044517 ], [ -46.149409, -23.043711 ], [ -46.146643, -23.044172 ], [ -46.143828, -23.042279 ], [ -46.144261, -23.039332 ], [ -46.140472, -23.038841 ], [ -46.139849, -23.035923 ], [ -46.141973, -23.031324 ], [ -46.141986, -23.028503 ], [ -46.138619, -23.028855 ], [ -46.133942, -23.026244 ], [ -46.130086, -23.020936 ], [ -46.125905, -23.011827 ], [ -46.125536, -23.009277 ], [ -46.121464, -23.008956 ], [ -46.117601, -23.005374 ], [ -46.113912, -23.004588 ], [ -46.109044, -23.001776 ], [ -46.100501, -23.000167 ], [ -46.099969, -22.998841 ], [ -46.097697, -22.998704 ], [ -46.09385, -22.996915 ], [ -46.089695, -22.993326 ], [ -46.089139, -22.989253 ], [ -46.08656, -22.985005 ], [ -46.082585, -22.985489 ], [ -46.080807, -22.987394 ], [ -46.076012, -22.985908 ], [ -46.07017, -22.989386 ], [ -46.07032, -22.993549 ], [ -46.066718, -22.994105 ], [ -46.065461, -22.997911 ], [ -46.067153, -23.000054 ], [ -46.067384, -23.001838 ], [ -46.071282, -23.006655 ], [ -46.071785, -23.011161 ], [ -46.070934, -23.014449 ], [ -46.073308, -23.016146 ], [ -46.074809, -23.016265 ], [ -46.077876, -23.019078 ], [ -46.080756, -23.025637 ], [ -46.080316, -23.029246 ], [ -46.082042, -23.031259 ], [ -46.082544, -23.033836 ], [ -46.078982, -23.034452 ], [ -46.078576, -23.036255 ], [ -46.076272, -23.0374 ], [ -46.078884, -23.039914 ], [ -46.078085, -23.041456 ], [ -46.078317, -23.043067 ], [ -46.080684, -23.044452 ], [ -46.08061, -23.045415 ], [ -46.082418, -23.04611 ], [ -46.081941, -23.047017 ], [ -46.082924, -23.048919 ], [ -46.081658, -23.051139 ], [ -46.085922, -23.052635 ], [ -46.086574, -23.056787 ], [ -46.089396, -23.061986 ], [ -46.088809, -23.06356 ], [ -46.089955, -23.063449 ], [ -46.090588, -23.065462 ], [ -46.091688, -23.066235 ], [ -46.089679, -23.067983 ], [ -46.090509, -23.069534 ], [ -46.08948, -23.074519 ], [ -46.091032, -23.07594 ], [ -46.09043, -23.076854 ], [ -46.092105, -23.078201 ], [ -46.090727, -23.078884 ], [ -46.093923, -23.081832 ], [ -46.094162, -23.084325 ], [ -46.096064, -23.083581 ], [ -46.099927, -23.084564 ], [ -46.101796, -23.083267 ], [ -46.103791, -23.084684 ], [ -46.104852, -23.084453 ], [ -46.105117, -23.088187 ], [ -46.104447, -23.090491 ], [ -46.107707, -23.094457 ], [ -46.107989, -23.097303 ], [ -46.105106, -23.099253 ], [ -46.104358, -23.101523 ], [ -46.101397, -23.103538 ], [ -46.101771, -23.10634 ], [ -46.103105, -23.107827 ], [ -46.102033, -23.108571 ], [ -46.100605, -23.107902 ], [ -46.099782, -23.10946 ], [ -46.101004, -23.110913 ], [ -46.100129, -23.112691 ], [ -46.101615, -23.115853 ], [ -46.103798, -23.11617 ], [ -46.103901, -23.117268 ], [ -46.102767, -23.118107 ], [ -46.099909, -23.118387 ], [ -46.098215, -23.119664 ], [ -46.096486, -23.118347 ], [ -46.094259, -23.119118 ], [ -46.093171, -23.120764 ], [ -46.095455, -23.120436 ], [ -46.098309, -23.121579 ], [ -46.099411, -23.124253 ], [ -46.101062, -23.125572 ], [ -46.097646, -23.131544 ], [ -46.095867, -23.132487 ], [ -46.097406, -23.134687 ], [ -46.097563, -23.137131 ], [ -46.0914, -23.142853 ], [ -46.094753, -23.148072 ], [ -46.097774, -23.150643 ], [ -46.099794, -23.154906 ], [ -46.102222, -23.156168 ], [ -46.102597, -23.157321 ], [ -46.098934, -23.161296 ], [ -46.098087, -23.164166 ], [ -46.09281, -23.171599 ], [ -46.086849, -23.172862 ], [ -46.081019, -23.169579 ], [ -46.078163, -23.16928 ], [ -46.074873, -23.172217 ], [ -46.073647, -23.174784 ], [ -46.075238, -23.177588 ], [ -46.074803, -23.180873 ], [ -46.076831, -23.183973 ], [ -46.079777, -23.186047 ], [ -46.07935, -23.187221 ], [ -46.07711, -23.188822 ], [ -46.077647, -23.192101 ], [ -46.076262, -23.193365 ], [ -46.079757, -23.195699 ], [ -46.080977, -23.197472 ], [ -46.079666, -23.199916 ], [ -46.079278, -23.205159 ], [ -46.082038, -23.206881 ], [ -46.090191, -23.206983 ], [ -46.091242, -23.208023 ], [ -46.092681, -23.214431 ], [ -46.095809, -23.217824 ], [ -46.097973, -23.219235 ], [ -46.104623, -23.220572 ], [ -46.10505, -23.221632 ], [ -46.10387, -23.224652 ], [ -46.104252, -23.22561 ], [ -46.109613, -23.227145 ], [ -46.112697, -23.227048 ], [ -46.116788, -23.229977 ], [ -46.118009, -23.231975 ], [ -46.118223, -23.236261 ], [ -46.122314, -23.237429 ], [ -46.12368, -23.239875 ], [ -46.128474, -23.243455 ], [ -46.128958, -23.245416 ], [ -46.128411, -23.249811 ], [ -46.133318, -23.252618 ], [ -46.136452, -23.255695 ], [ -46.141096, -23.256275 ], [ -46.143267, -23.255397 ], [ -46.145746, -23.256827 ], [ -46.151456, -23.257373 ], [ -46.15671, -23.255244 ], [ -46.155963, -23.250722 ], [ -46.158154, -23.246574 ], [ -46.157508, -23.2423 ], [ -46.156717, -23.241171 ], [ -46.154624, -23.240608 ], [ -46.152917, -23.236411 ], [ -46.154161, -23.235272 ], [ -46.15788, -23.235883 ] ] ] ] } }
]
}
