{
"type": "FeatureCollection",
"name": "ER_REGIAO_Igarapava",
"crs": { "type": "name", "properties": { "name": "urn:ogc:def:crs:EPSG::4674" } },
"xy_coordinate_resolution": 1e-15,
"features": [
{ "type": "Feature", "properties": { "fid": 328, "NM_REGIAO": "Sudeste", "NM_UF": "São Paulo", "NM_MUN": "Igarapava", "NM_DIST": "Igarapava", "CD_SUBDIST": "35201030500", "ER_REGIAO": "Igarapava", "ER_REGIAO_CIDADE": "Igarapava_Franca" }, "geometry": { "type": "MultiPolygon", "coordinates": [ [ [ [ -47.6681765, -20.1213686 ], [ -47.670462, -20.1221956 ], [ -47.6712423, -20.1239883 ], [ -47.6732332, -20.1243849 ], [ -47.6749483, -20.1261589 ], [ -47.6753525, -20.1292087 ], [ -47.6779893, -20.1335932 ], [ -47.6796653, -20.1332583 ], [ -47.682518, -20.1350235 ], [ -47.6834533, -20.1365349 ], [ -47.6847661, -20.1367589 ], [ -47.6847001, -20.1381555 ], [ -47.6868863, -20.1399337 ], [ -47.6903972, -20.1403106 ], [ -47.6950639, -20.1433576 ], [ -47.7001577, -20.1416013 ], [ -47.7032089, -20.1423419 ], [ -47.7077833, -20.1421701 ], [ -47.7098861, -20.1439334 ], [ -47.7128547, -20.1444695 ], [ -47.713866, -20.146292 ], [ -47.7134243, -20.1473742 ], [ -47.7159263, -20.1502585 ], [ -47.7164439, -20.1534589 ], [ -47.7228653, -20.1562611 ], [ -47.7277024, -20.1571151 ], [ -47.729863, -20.1541966 ], [ -47.7323134, -20.153029 ], [ -47.741642, -20.1517443 ], [ -47.7431702, -20.1483545 ], [ -47.7486859, -20.1467133 ], [ -47.7501477, -20.1450564 ], [ -47.7486052, -20.1420976 ], [ -47.7491267, -20.133759 ], [ -47.7436297, -20.131209 ], [ -47.7404372, -20.1318228 ], [ -47.7368394, -20.1295556 ], [ -47.7398096, -20.1272679 ], [ -47.7393907, -20.1238119 ], [ -47.7379496, -20.1220607 ], [ -47.745318, -20.1209964 ], [ -47.7469178, -20.1192995 ], [ -47.7482948, -20.1192087 ], [ -47.7480062, -20.1164156 ], [ -47.7487677, -20.1139733 ], [ -47.7506967, -20.1124677 ], [ -47.7512156, -20.1102039 ], [ -47.7529373, -20.1090956 ], [ -47.7542879, -20.1059619 ], [ -47.7634828, -20.0989822 ], [ -47.7670602, -20.0947037 ], [ -47.7691308, -20.0853752 ], [ -47.7736162, -20.0780853 ], [ -47.7753899, -20.0761333 ], [ -47.7806141, -20.075178 ], [ -47.7846979, -20.0690453 ], [ -47.7901027, -20.0682084 ], [ -47.7926416, -20.0689851 ], [ -47.7996576, -20.0661773 ], [ -47.8027368, -20.068514 ], [ -47.807009, -20.0697341 ], [ -47.8101558, -20.069726 ], [ -47.8129298, -20.068204 ], [ -47.8156513, -20.0688915 ], [ -47.8222421, -20.0677387 ], [ -47.8286714, -20.0699173 ], [ -47.8301025, -20.0733781 ], [ -47.8355644, -20.0737405 ], [ -47.8404595, -20.071137 ], [ -47.8434392, -20.0723906 ], [ -47.8459768, -20.0722816 ], [ -47.8483404, -20.0694803 ], [ -47.8504404, -20.0692572 ], [ -47.8513699, -20.0707814 ], [ -47.8545511, -20.0700408 ], [ -47.8562182, -20.0713962 ], [ -47.8587235, -20.0707167 ], [ -47.8627422, -20.0728063 ], [ -47.8626945, -20.07491 ], [ -47.8651067, -20.0747532 ], [ -47.8698078, -20.0761523 ], [ -47.8699656, -20.0636946 ], [ -47.8692697, -20.0618648 ], [ -47.866571, -20.0589486 ], [ -47.8645174, -20.0582814 ], [ -47.8610563, -20.0554692 ], [ -47.8593839, -20.0524121 ], [ -47.8589921, -20.0499272 ], [ -47.8614615, -20.0450096 ], [ -47.8664092, -20.041754 ], [ -47.8714544, -20.0396482 ], [ -47.8758201, -20.0324105 ], [ -47.8758308, -20.0214101 ], [ -47.8724421, -20.0130302 ], [ -47.8687385, -20.008647 ], [ -47.8597507, -19.9929397 ], [ -47.8561502, -19.9905448 ], [ -47.8530469, -19.9898208 ], [ -47.8477787, -19.989861 ], [ -47.8447777, -19.9909786 ], [ -47.8399938, -19.9949482 ], [ -47.8346805, -19.9960656 ], [ -47.8283015, -19.9921073 ], [ -47.8091899, -19.9867454 ], [ -47.8056581, -19.9851317 ], [ -47.7625837, -19.9860217 ], [ -47.754214, -19.9900528 ], [ -47.7511056, -19.9902891 ], [ -47.7336817, -19.9879282 ], [ -47.7283303, -19.9841397 ], [ -47.7126917, -19.978148 ], [ -47.7084053, -19.9787016 ], [ -47.7042354, -19.979904 ], [ -47.6956332, -19.9844012 ], [ -47.6879891, -19.9902445 ], [ -47.6808492, -19.9980473 ], [ -47.6761499, -20.0019156 ], [ -47.6742648, -20.0060698 ], [ -47.6755795, -20.0136796 ], [ -47.6706264, -20.0225159 ], [ -47.6553862, -20.0348513 ], [ -47.6507967, -20.0373487 ], [ -47.6396561, -20.0472194 ], [ -47.6347643, -20.0492478 ], [ -47.6301602, -20.0469585 ], [ -47.6249354, -20.042286 ], [ -47.6139901, -20.042109 ], [ -47.6088219, -20.037823 ], [ -47.5996583, -20.0324375 ], [ -47.5947481, -20.0258915 ], [ -47.5936649, -20.0209432 ], [ -47.5939842, -20.0109482 ], [ -47.5909071, -20.00334 ], [ -47.5838246, -19.9966646 ], [ -47.5756245, -19.9942476 ], [ -47.5700985, -19.9944528 ], [ -47.5596441, -19.99662 ], [ -47.5526378, -19.9960259 ], [ -47.5492377, -19.9937697 ], [ -47.5464624, -19.9929591 ], [ -47.5432692, -19.9941558 ], [ -47.5423461, -19.9967562 ], [ -47.5438039, -19.9997826 ], [ -47.5431433, -20.011662 ], [ -47.5400786, -20.0189029 ], [ -47.5373751, -20.0220894 ], [ -47.5371231, -20.0253414 ], [ -47.5342328, -20.0289938 ], [ -47.5294899, -20.0326857 ], [ -47.5298403, -20.0354239 ], [ -47.5090011, -20.0599083 ], [ -47.518596, -20.0989992 ], [ -47.5176831, -20.1017542 ], [ -47.5178732, -20.1055112 ], [ -47.5216058, -20.10784 ], [ -47.5319625, -20.109267 ], [ -47.5328895, -20.1125935 ], [ -47.532358, -20.1215037 ], [ -47.538677, -20.1255752 ], [ -47.5438875, -20.1268474 ], [ -47.5419686, -20.1305583 ], [ -47.5416397, -20.1329869 ], [ -47.543332, -20.1371844 ], [ -47.5496096, -20.1407922 ], [ -47.5582199, -20.1429619 ], [ -47.5636061, -20.153287 ], [ -47.5676448, -20.1548919 ], [ -47.570724, -20.1556663 ], [ -47.5729373, -20.1540333 ], [ -47.5778094, -20.1523376 ], [ -47.5797377, -20.1506241 ], [ -47.5812366, -20.1504402 ], [ -47.586111, -20.1519285 ], [ -47.5938246, -20.152553 ], [ -47.5968278, -20.1539688 ], [ -47.598545, -20.1534808 ], [ -47.602411, -20.1552423 ], [ -47.6055129, -20.1551854 ], [ -47.609123, -20.1596032 ], [ -47.6122361, -20.1582879 ], [ -47.6117249, -20.1576096 ], [ -47.6138334, -20.1557187 ], [ -47.6152191, -20.1504061 ], [ -47.6196359, -20.1480311 ], [ -47.620409, -20.1442363 ], [ -47.6214416, -20.1436999 ], [ -47.620239, -20.1404471 ], [ -47.623374, -20.1370305 ], [ -47.6246395, -20.1383437 ], [ -47.6270251, -20.1362171 ], [ -47.6301612, -20.1361096 ], [ -47.6299029, -20.1347185 ], [ -47.632697, -20.1348505 ], [ -47.6325839, -20.1339375 ], [ -47.6355375, -20.1329252 ], [ -47.6371372, -20.1314085 ], [ -47.6411752, -20.1330117 ], [ -47.644778, -20.131093 ], [ -47.6480977, -20.1317875 ], [ -47.6485122, -20.1308907 ], [ -47.651038, -20.1301325 ], [ -47.6523203, -20.1307053 ], [ -47.6521453, -20.131929 ], [ -47.6536081, -20.1321549 ], [ -47.6538603, -20.1306095 ], [ -47.6554881, -20.1298811 ], [ -47.6568423, -20.130496 ], [ -47.6592737, -20.1298242 ], [ -47.6619489, -20.130766 ], [ -47.6621691, -20.1321836 ], [ -47.663433, -20.1322171 ], [ -47.6666046, -20.1295003 ], [ -47.6679584, -20.1267427 ], [ -47.6667378, -20.1225138 ], [ -47.6681765, -20.1213686 ] ] ] ] } }
]
}
