{
"type": "FeatureCollection",
"name": "ER_REGIAO_Taquaral",
"crs": { "type": "name", "properties": { "name": "urn:ogc:def:crs:EPSG::4674" } },
"xy_coordinate_resolution": 1e-15,
"features": [
{ "type": "Feature", "properties": { "fid": 979, "NM_REGIAO": "Sudeste", "NM_UF": "São Paulo", "NM_MUN": "Taquaral", "NM_DIST": "Taquaral", "CD_SUBDIST": "35536580500", "ER_REGIAO": "Taquaral", "ER_REGIAO_CIDADE": "Taquaral_Barretos" }, "geometry": { "type": "MultiPolygon", "coordinates": [ [ [ [ -48.3712829, -21.0585411 ], [ -48.3588733, -21.0564346 ], [ -48.346818, -21.0590601 ], [ -48.3240632, -21.0525053 ], [ -48.3211723, -21.0528014 ], [ -48.3171397, -21.0569614 ], [ -48.3168509, -21.0586292 ], [ -48.318054, -21.0608632 ], [ -48.3193817, -21.0594235 ], [ -48.3205104, -21.0593153 ], [ -48.325229, -21.0629109 ], [ -48.3272365, -21.0622515 ], [ -48.3328129, -21.0643619 ], [ -48.342341, -21.0749977 ], [ -48.3459397, -21.0762601 ], [ -48.3477156, -21.0782574 ], [ -48.3532338, -21.0816703 ], [ -48.3592638, -21.0835763 ], [ -48.3643395, -21.0881603 ], [ -48.3728963, -21.0925002 ], [ -48.3740477, -21.0943967 ], [ -48.3772225, -21.0966723 ], [ -48.3841264, -21.0979531 ], [ -48.393728, -21.0966207 ], [ -48.3992729, -21.0948332 ], [ -48.4027685, -21.0906344 ], [ -48.4088586, -21.0896321 ], [ -48.4140959, -21.0900272 ], [ -48.4236682, -21.0948796 ], [ -48.4310014, -21.0953491 ], [ -48.4376686, -21.0904675 ], [ -48.4434819, -21.0832428 ], [ -48.4446282, -21.0812686 ], [ -48.4451479, -21.074636 ], [ -48.4526576, -21.0701527 ], [ -48.4581486, -21.0783428 ], [ -48.4598075, -21.0752123 ], [ -48.4606997, -21.0702973 ], [ -48.4597427, -21.0624663 ], [ -48.4561112, -21.0528221 ], [ -48.4521587, -21.051645 ], [ -48.4474764, -21.047104 ], [ -48.4416906, -21.0447771 ], [ -48.4384079, -21.0412068 ], [ -48.4330668, -21.0374442 ], [ -48.4317514, -21.0461027 ], [ -48.4301345, -21.0497815 ], [ -48.4152186, -21.0496672 ], [ -48.4000951, -21.0434304 ], [ -48.3968488, -21.0431006 ], [ -48.3890271, -21.0440729 ], [ -48.3861288, -21.0459314 ], [ -48.3836887, -21.0494519 ], [ -48.3830695, -21.0533455 ], [ -48.3743054, -21.0578957 ], [ -48.3712829, -21.0585411 ] ] ] ] } }
]
}
