{
"type": "FeatureCollection",
"name": "ER_REGIAO_Itapetininga_Morro do Alto",
"crs": { "type": "name", "properties": { "name": "urn:ogc:def:crs:EPSG::4674" } },
"xy_coordinate_resolution": 1e-15,
"features": [
{ "type": "Feature", "properties": { "fid": 365, "NM_REGIAO": "Sudeste", "NM_UF": "São Paulo", "NM_MUN": "Itapetininga", "NM_DIST": "Morro do Alto", "CD_SUBDIST": "35223072000", "ER_REGIAO": "Itapetininga_Morro do Alto", "ER_REGIAO_CIDADE": "Itapetininga_Morro do Alto_Sorocaba" }, "geometry": { "type": "MultiPolygon", "coordinates": [ [ [ [ -47.9756104, -23.5021046 ], [ -47.9826152, -23.4954955 ], [ -47.9887388, -23.4918062 ], [ -47.9920004, -23.4923075 ], [ -47.9978367, -23.4960927 ], [ -48.0000259, -23.496004 ], [ -48.0011554, -23.4935598 ], [ -48.0010925, -23.4882716 ], [ -48.0113413, -23.4839837 ], [ -48.016903, -23.4879206 ], [ -48.0206108, -23.4884874 ], [ -48.0226589, -23.4897953 ], [ -48.026258, -23.494617 ], [ -48.0277506, -23.4954191 ], [ -48.0306553, -23.495317 ], [ -48.04378, -23.4884731 ], [ -48.0489636, -23.4882355 ], [ -48.0490515, -23.4876958 ], [ -48.0476635, -23.4861805 ], [ -48.0466744, -23.4786625 ], [ -48.0445399, -23.4745458 ], [ -48.0438344, -23.4712202 ], [ -48.0414068, -23.4671552 ], [ -48.039457, -23.4658576 ], [ -48.0374563, -23.460975 ], [ -48.0286564, -23.4566834 ], [ -48.0262514, -23.454126 ], [ -48.023846, -23.453598 ], [ -48.0227674, -23.449892 ], [ -48.0246159, -23.4461339 ], [ -48.0246967, -23.4424119 ], [ -48.0232076, -23.4370819 ], [ -48.0202063, -23.4353986 ], [ -48.0183427, -23.4320962 ], [ -48.0169678, -23.4328948 ], [ -48.0165219, -23.4321203 ], [ -48.014372, -23.4316694 ], [ -48.0139915, -23.4325688 ], [ -48.0124476, -23.4324262 ], [ -48.011383, -23.4316021 ], [ -48.0115235, -23.4306179 ], [ -48.0093915, -23.4297485 ], [ -48.007613, -23.42964 ], [ -48.0066224, -23.4308849 ], [ -48.0064727, -23.4300372 ], [ -48.0052614, -23.4297085 ], [ -48.0038518, -23.4309058 ], [ -47.9998919, -23.430739 ], [ -47.9993486, -23.4298034 ], [ -47.9968442, -23.4293306 ], [ -47.9957874, -23.4267911 ], [ -47.990566, -23.4250432 ], [ -47.9904511, -23.4240358 ], [ -47.9868243, -23.4219417 ], [ -47.9865619, -23.4231184 ], [ -47.9860699, -23.4218508 ], [ -47.9835155, -23.4214719 ], [ -47.982769, -23.4230909 ], [ -47.9815179, -23.423159 ], [ -47.9783617, -23.4218909 ], [ -47.9784547, -23.4210602 ], [ -47.9775441, -23.421479 ], [ -47.9779668, -23.4205736 ], [ -47.9754754, -23.4186228 ], [ -47.9761562, -23.4183161 ], [ -47.975841, -23.4171258 ], [ -47.9726498, -23.4153569 ], [ -47.9731364, -23.4142435 ], [ -47.970164, -23.414201 ], [ -47.9683843, -23.41266 ], [ -47.966399, -23.4129164 ], [ -47.9637093, -23.4152066 ], [ -47.9616103, -23.4153896 ], [ -47.9604021, -23.4159018 ], [ -47.9600587, -23.4170665 ], [ -47.9591001, -23.4166986 ], [ -47.9574125, -23.418285 ], [ -47.9561856, -23.4182711 ], [ -47.9558438, -23.4175114 ], [ -47.9568981, -23.416859 ], [ -47.9559669, -23.4164551 ], [ -47.9576884, -23.4142192 ], [ -47.9537325, -23.4117209 ], [ -47.9534335, -23.410084 ], [ -47.9490962, -23.408385 ], [ -47.9435181, -23.4102377 ], [ -47.931707, -23.4199588 ], [ -47.9331479, -23.4279748 ], [ -47.9357287, -23.4335326 ], [ -47.9382384, -23.436883 ], [ -47.9389516, -23.441586 ], [ -47.9422877, -23.4436417 ], [ -47.9440408, -23.4463863 ], [ -47.9394454, -23.4508904 ], [ -47.9395193, -23.4566535 ], [ -47.9367851, -23.4572789 ], [ -47.935756, -23.4594266 ], [ -47.9355914, -23.4623543 ], [ -47.9312811, -23.4609641 ], [ -47.9271058, -23.462057 ], [ -47.9227117, -23.4614054 ], [ -47.9156074, -23.4533548 ], [ -47.9142495, -23.4481834 ], [ -47.9125091, -23.4493075 ], [ -47.9094681, -23.4487001 ], [ -47.9050957, -23.4472268 ], [ -47.8987741, -23.4433967 ], [ -47.8937111, -23.4438831 ], [ -47.8882736, -23.4500624 ], [ -47.8797955, -23.4484112 ], [ -47.8751923, -23.4453074 ], [ -47.8700189, -23.4455297 ], [ -47.8625047, -23.4560327 ], [ -47.8565262, -23.4598061 ], [ -47.8538531, -23.4626872 ], [ -47.8512801, -23.463455 ], [ -47.8500629, -23.4684778 ], [ -47.8511162, -23.4705608 ], [ -47.8509586, -23.4737384 ], [ -47.8495337, -23.4745044 ], [ -47.846122, -23.4738766 ], [ -47.8476099, -23.4787467 ], [ -47.8472295, -23.4830649 ], [ -47.8362099, -23.4797175 ], [ -47.8297351, -23.4792638 ], [ -47.8259067, -23.4769859 ], [ -47.8234868, -23.4767097 ], [ -47.8180308, -23.4783578 ], [ -47.8149016, -23.4810321 ], [ -47.8106178, -23.4825805 ], [ -47.8072143, -23.4886962 ], [ -47.8085418, -23.4892649 ], [ -47.8117561, -23.4874387 ], [ -47.8149971, -23.4895606 ], [ -47.8149721, -23.490932 ], [ -47.8165342, -23.4922671 ], [ -47.8203127, -23.4915737 ], [ -47.8222014, -23.4921519 ], [ -47.8224074, -23.4935495 ], [ -47.820853, -23.4949999 ], [ -47.8213353, -23.4963374 ], [ -47.8263626, -23.4993687 ], [ -47.8339691, -23.4981676 ], [ -47.8355858, -23.501782 ], [ -47.8369039, -23.502745 ], [ -47.8377062, -23.505543 ], [ -47.8393545, -23.5055225 ], [ -47.8392044, -23.5072685 ], [ -47.840793, -23.510164 ], [ -47.8428719, -23.5083518 ], [ -47.8455487, -23.5122723 ], [ -47.8466882, -23.5118584 ], [ -47.8478393, -23.5092182 ], [ -47.8519449, -23.5067085 ], [ -47.8598439, -23.5104706 ], [ -47.8610288, -23.5099864 ], [ -47.8618131, -23.5105272 ], [ -47.8618175, -23.5093788 ], [ -47.8624257, -23.5094288 ], [ -47.8633744, -23.5115777 ], [ -47.864637, -23.5122409 ], [ -47.8655822, -23.5121346 ], [ -47.8659677, -23.5109382 ], [ -47.8678556, -23.5124821 ], [ -47.8685783, -23.5118182 ], [ -47.8711059, -23.5129765 ], [ -47.8725875, -23.5122625 ], [ -47.8777516, -23.5124475 ], [ -47.8833657, -23.5155537 ], [ -47.8882283, -23.5142913 ], [ -47.8908863, -23.5112193 ], [ -47.8921399, -23.5132272 ], [ -47.8948516, -23.5141743 ], [ -47.8972556, -23.5138829 ], [ -47.8989, -23.5125611 ], [ -47.9018097, -23.5134409 ], [ -47.9039376, -23.5161519 ], [ -47.9063802, -23.5176034 ], [ -47.9101276, -23.5165742 ], [ -47.912068, -23.5172606 ], [ -47.9124053, -23.5165316 ], [ -47.9155702, -23.5175785 ], [ -47.9176394, -23.517281 ], [ -47.9193878, -23.5189485 ], [ -47.9212355, -23.5186245 ], [ -47.9226916, -23.5205105 ], [ -47.9245021, -23.5190418 ], [ -47.9268238, -23.5191728 ], [ -47.9291247, -23.5152313 ], [ -47.9314997, -23.5149655 ], [ -47.932726, -23.5137673 ], [ -47.9411588, -23.5126407 ], [ -47.9436475, -23.5133983 ], [ -47.9473225, -23.5089855 ], [ -47.9560738, -23.5044111 ], [ -47.956867, -23.5047717 ], [ -47.9660954, -23.5021489 ], [ -47.9756104, -23.5021046 ] ] ] ] } }
]
}
