{
"type": "FeatureCollection",
"name": "ER_REGIAO_Caiabu_Iubatinga",
"crs": { "type": "name", "properties": { "name": "urn:ogc:def:crs:EPSG::4674" } },
"xy_coordinate_resolution": 1e-15,
"features": [
{ "type": "Feature", "properties": { "fid": 140, "NM_REGIAO": "Sudeste", "NM_UF": "São Paulo", "NM_MUN": "Caiabu", "NM_DIST": "Iubatinga", "CD_SUBDIST": "35089001500", "ER_REGIAO": "Caiabu_Iubatinga", "ER_REGIAO_CIDADE": "Caiabu_Iubatinga_Presidente Prudente" }, "geometry": { "type": "MultiPolygon", "coordinates": [ [ [ [ -51.1651232, -21.9025804 ], [ -51.1641282, -21.9074833 ], [ -51.163023, -21.9089114 ], [ -51.1636369, -21.9109085 ], [ -51.1615032, -21.9151764 ], [ -51.163274, -21.917164 ], [ -51.1648549, -21.9175928 ], [ -51.1648561, -21.9199313 ], [ -51.1667393, -21.9235988 ], [ -51.1662903, -21.9258281 ], [ -51.1693846, -21.9312475 ], [ -51.1719994, -21.9327959 ], [ -51.1717203, -21.9354581 ], [ -51.1730185, -21.9369924 ], [ -51.1725674, -21.9373734 ], [ -51.1769584, -21.9425602 ], [ -51.1765087, -21.9440421 ], [ -51.1790597, -21.9488013 ], [ -51.1819104, -21.9511953 ], [ -51.1861867, -21.9487896 ], [ -51.194682, -21.9472118 ], [ -51.1999586, -21.9429584 ], [ -51.2052007, -21.9428204 ], [ -51.2072009, -21.9441654 ], [ -51.2090172, -21.9470968 ], [ -51.2174206, -21.9420042 ], [ -51.2194899, -21.9427974 ], [ -51.2230996, -21.9418318 ], [ -51.2270771, -21.9439125 ], [ -51.230612, -21.9431021 ], [ -51.2331756, -21.9435418 ], [ -51.2366554, -21.9402371 ], [ -51.238067, -21.9407167 ], [ -51.2388257, -21.9401045 ], [ -51.2442949, -21.9398947 ], [ -51.2456858, -21.9400471 ], [ -51.2458036, -21.9410111 ], [ -51.2478758, -21.9403632 ], [ -51.2482839, -21.9384923 ], [ -51.2522183, -21.9393027 ], [ -51.2546065, -21.9415616 ], [ -51.2580419, -21.9405706 ], [ -51.2584888, -21.9410261 ], [ -51.2616739, -21.9388992 ], [ -51.2609666, -21.9377436 ], [ -51.2625357, -21.936367 ], [ -51.2639239, -21.9369073 ], [ -51.2654528, -21.9362951 ], [ -51.2668972, -21.9332552 ], [ -51.2661683, -21.932971 ], [ -51.2664862, -21.9315978 ], [ -51.2687003, -21.9315942 ], [ -51.2677088, -21.931093 ], [ -51.2695422, -21.9300843 ], [ -51.2699419, -21.9309019 ], [ -51.2717312, -21.9283819 ], [ -51.2711177, -21.9274928 ], [ -51.2747438, -21.9270791 ], [ -51.2739543, -21.9255651 ], [ -51.2750155, -21.9244489 ], [ -51.2720032, -21.9220484 ], [ -51.2699403, -21.9171729 ], [ -51.2690873, -21.9166511 ], [ -51.2693826, -21.9149314 ], [ -51.271828, -21.9141596 ], [ -51.2726699, -21.9126904 ], [ -51.2680382, -21.9047001 ], [ -51.265646, -21.902679 ], [ -51.2625228, -21.9030102 ], [ -51.2613704, -21.9019588 ], [ -51.26119, -21.9028221 ], [ -51.2586697, -21.9023572 ], [ -51.2586606, -21.9013243 ], [ -51.2568169, -21.9005186 ], [ -51.2609612, -21.8971757 ], [ -51.2607825, -21.8949879 ], [ -51.2619178, -21.8946735 ], [ -51.2598115, -21.8935217 ], [ -51.2605667, -21.8924333 ], [ -51.2616515, -21.8923976 ], [ -51.2624911, -21.8896714 ], [ -51.2594141, -21.8906369 ], [ -51.2569974, -21.8933309 ], [ -51.2520386, -21.8931262 ], [ -51.2463468, -21.8965202 ], [ -51.2419294, -21.8975965 ], [ -51.2316089, -21.8981643 ], [ -51.2295488, -21.8971343 ], [ -51.2288052, -21.8948402 ], [ -51.225734, -21.8918133 ], [ -51.2239642, -21.8915293 ], [ -51.2237447, -21.8921639 ], [ -51.2184221, -21.8937347 ], [ -51.2177286, -21.8918989 ], [ -51.1651232, -21.9025804 ] ] ] ] } }
]
}
