{
"type": "FeatureCollection",
"name": "ER_REGIAO_Ipiguá",
"crs": { "type": "name", "properties": { "name": "urn:ogc:def:crs:EPSG::4674" } },
"xy_coordinate_resolution": 1e-15,
"features": [
{ "type": "Feature", "properties": { "fid": 344, "NM_REGIAO": "Sudeste", "NM_UF": "São Paulo", "NM_MUN": "Ipiguá", "NM_DIST": "Ipiguá", "CD_SUBDIST": "35211500500", "ER_REGIAO": "Ipiguá", "ER_REGIAO_CIDADE": "Ipiguá_São José do Rio Preto" }, "geometry": { "type": "MultiPolygon", "coordinates": [ [ [ [ -49.3621169, -20.6712561 ], [ -49.3577586, -20.6737942 ], [ -49.3558077, -20.6732237 ], [ -49.3549658, -20.6741648 ], [ -49.3516761, -20.6745639 ], [ -49.3507287, -20.6759703 ], [ -49.3488573, -20.6766047 ], [ -49.3485603, -20.6782728 ], [ -49.347057, -20.678352 ], [ -49.3466988, -20.6819873 ], [ -49.347046, -20.6842167 ], [ -49.3487562, -20.6849434 ], [ -49.3498412, -20.6880175 ], [ -49.3517841, -20.6888358 ], [ -49.3533673, -20.691078 ], [ -49.3529273, -20.6949399 ], [ -49.3544235, -20.7003336 ], [ -49.3593215, -20.7075225 ], [ -49.3619068, -20.7139336 ], [ -49.3625417, -20.7176854 ], [ -49.367764, -20.722839 ], [ -49.371695, -20.722001 ], [ -49.376561, -20.718607 ], [ -49.380422, -20.713146 ], [ -49.384769, -20.7116 ], [ -49.387801, -20.708893 ], [ -49.392688, -20.708034 ], [ -49.394463, -20.703845 ], [ -49.39545, -20.703606 ], [ -49.4009, -20.706279 ], [ -49.407389, -20.713146 ], [ -49.411661, -20.715989 ], [ -49.412505, -20.722645 ], [ -49.415353, -20.72846 ], [ -49.417304, -20.730893 ], [ -49.419276, -20.73163 ], [ -49.424835, -20.730634 ], [ -49.428455, -20.727071 ], [ -49.428682, -20.725028 ], [ -49.425565, -20.717441 ], [ -49.424405, -20.711826 ], [ -49.4259281, -20.7057551 ], [ -49.4279658, -20.7026708 ], [ -49.4301463, -20.7003775 ], [ -49.43575, -20.697513 ], [ -49.446691, -20.695255 ], [ -49.452016, -20.690191 ], [ -49.453957, -20.687297 ], [ -49.460718, -20.685155 ], [ -49.462657, -20.683185 ], [ -49.465153, -20.682305 ], [ -49.4622325, -20.6780689 ], [ -49.4579407, -20.6747789 ], [ -49.4580633, -20.6666687 ], [ -49.4559919, -20.663209 ], [ -49.4555649, -20.6583679 ], [ -49.4545817, -20.6560848 ], [ -49.4533023, -20.6551411 ], [ -49.4524386, -20.6494298 ], [ -49.4482282, -20.644437 ], [ -49.4483275, -20.6401423 ], [ -49.4435706, -20.6367174 ], [ -49.4388337, -20.6286118 ], [ -49.4354377, -20.6273635 ], [ -49.4335397, -20.6218205 ], [ -49.4318852, -20.6198224 ], [ -49.424784, -20.6154235 ], [ -49.4243257, -20.613611 ], [ -49.4231286, -20.6126252 ], [ -49.4230494, -20.6082511 ], [ -49.4247841, -20.6013659 ], [ -49.4263319, -20.5994135 ], [ -49.4258913, -20.5972655 ], [ -49.4284352, -20.5922586 ], [ -49.4284451, -20.5876859 ], [ -49.4374288, -20.5794054 ], [ -49.4380578, -20.5758762 ], [ -49.4430747, -20.5734011 ], [ -49.4429722, -20.5645561 ], [ -49.4444514, -20.560203 ], [ -49.4446305, -20.5552075 ], [ -49.4440165, -20.5539479 ], [ -49.4460005, -20.5432428 ], [ -49.4439811, -20.5433138 ], [ -49.444514, -20.5443421 ], [ -49.4411664, -20.5456313 ], [ -49.4395336, -20.5449452 ], [ -49.4381471, -20.5455149 ], [ -49.4366056, -20.5473707 ], [ -49.4351162, -20.5470275 ], [ -49.4326001, -20.5481526 ], [ -49.4318287, -20.5497442 ], [ -49.4285402, -20.5488905 ], [ -49.4278063, -20.549736 ], [ -49.4266739, -20.5493454 ], [ -49.4270345, -20.5499689 ], [ -49.4252994, -20.5521428 ], [ -49.4254607, -20.5550326 ], [ -49.4246146, -20.5576788 ], [ -49.4220707, -20.5585712 ], [ -49.4204408, -20.5571056 ], [ -49.4172973, -20.5588656 ], [ -49.4165704, -20.5597534 ], [ -49.4173804, -20.5609579 ], [ -49.4171239, -20.5622602 ], [ -49.4140136, -20.5633356 ], [ -49.4125533, -20.5664419 ], [ -49.412929, -20.5689596 ], [ -49.4122243, -20.5698078 ], [ -49.4064433, -20.5730196 ], [ -49.4062311, -20.5740106 ], [ -49.4031141, -20.5724537 ], [ -49.402474, -20.5728844 ], [ -49.3999907, -20.5758192 ], [ -49.3981773, -20.5797601 ], [ -49.3956804, -20.5811173 ], [ -49.3963562, -20.5831471 ], [ -49.3924708, -20.5834043 ], [ -49.3922047, -20.5852469 ], [ -49.3910797, -20.5862717 ], [ -49.3907704, -20.5850998 ], [ -49.3889262, -20.5855263 ], [ -49.3856481, -20.5900876 ], [ -49.378923, -20.5909327 ], [ -49.3756619, -20.5945007 ], [ -49.3773221, -20.5973331 ], [ -49.3768707, -20.5989978 ], [ -49.3715201, -20.5996017 ], [ -49.3700091, -20.6016227 ], [ -49.3673702, -20.6028568 ], [ -49.3661865, -20.6048501 ], [ -49.3629074, -20.6062066 ], [ -49.3627117, -20.6083183 ], [ -49.3612679, -20.6092179 ], [ -49.3632503, -20.6130267 ], [ -49.3617481, -20.6154978 ], [ -49.3629184, -20.6162003 ], [ -49.3628064, -20.6169625 ], [ -49.3608637, -20.6197947 ], [ -49.3585287, -20.6278711 ], [ -49.3558185, -20.628602 ], [ -49.354091, -20.630412 ], [ -49.3540943, -20.63172 ], [ -49.3548246, -20.6321118 ], [ -49.352943, -20.6334246 ], [ -49.3526678, -20.6348505 ], [ -49.3535821, -20.6352017 ], [ -49.352477, -20.635337 ], [ -49.353741, -20.636216 ], [ -49.3528535, -20.640247 ], [ -49.3541399, -20.6422481 ], [ -49.3562478, -20.6435374 ], [ -49.356208, -20.6462966 ], [ -49.3571812, -20.64733 ], [ -49.3575811, -20.6499449 ], [ -49.3585462, -20.6502658 ], [ -49.3584562, -20.6520302 ], [ -49.3564751, -20.6541229 ], [ -49.3571103, -20.6556499 ], [ -49.356444, -20.6578221 ], [ -49.3587513, -20.6623083 ], [ -49.3585226, -20.6645324 ], [ -49.3619152, -20.6686927 ], [ -49.3614815, -20.6696504 ], [ -49.3621169, -20.6712561 ] ] ] ] } }
]
}
