{
"type": "FeatureCollection",
"name": "ER_REGIAO_Mococa_Mococa",
"crs": { "type": "name", "properties": { "name": "urn:ogc:def:crs:EPSG::4674" } },
"xy_coordinate_resolution": 1e-15,
"features": [
{ "type": "Feature", "properties": { "fid": 504, "NM_REGIAO": "Sudeste", "NM_UF": "São Paulo", "NM_MUN": "Mococa", "NM_DIST": "Mococa", "CD_SUBDIST": "35305080500", "ER_REGIAO": "Mococa_Mococa", "ER_REGIAO_CIDADE": "Mococa_Mococa_Ribeirão Preto" }, "geometry": { "type": "MultiPolygon", "coordinates": [ [ [ [ -47.0433858, -21.6238325 ], [ -47.0502942, -21.6193794 ], [ -47.0551154, -21.6186607 ], [ -47.0586206, -21.6203235 ], [ -47.0596899, -21.6257047 ], [ -47.0620676, -21.6259228 ], [ -47.0631895, -21.6237784 ], [ -47.0631963, -21.621338 ], [ -47.0606556, -21.6181693 ], [ -47.0609556, -21.6176194 ], [ -47.0624858, -21.6175634 ], [ -47.0654839, -21.6212963 ], [ -47.0671854, -21.6219633 ], [ -47.0687862, -21.6185981 ], [ -47.0733825, -21.6175066 ], [ -47.0761488, -21.6158235 ], [ -47.0787906, -21.6122326 ], [ -47.0815263, -21.6109228 ], [ -47.081272, -21.6099924 ], [ -47.0770167, -21.6079039 ], [ -47.0772094, -21.6059975 ], [ -47.0786551, -21.6042876 ], [ -47.0785158, -21.6030152 ], [ -47.0770851, -21.6020846 ], [ -47.0716592, -21.601172 ], [ -47.0705322, -21.5997751 ], [ -47.0702982, -21.5963815 ], [ -47.0729898, -21.594027 ], [ -47.0787047, -21.5953189 ], [ -47.0817829, -21.5918285 ], [ -47.085352, -21.5919041 ], [ -47.0871289, -21.5909857 ], [ -47.0885425, -21.5879789 ], [ -47.0886879, -21.5816453 ], [ -47.0849876, -21.5752869 ], [ -47.0846357, -21.5723078 ], [ -47.085401, -21.5714195 ], [ -47.0906765, -21.5699087 ], [ -47.0949774, -21.5696647 ], [ -47.0967414, -21.5688893 ], [ -47.0975337, -21.5674298 ], [ -47.0959546, -21.5637911 ], [ -47.0905187, -21.5654302 ], [ -47.0891241, -21.5650448 ], [ -47.0834433, -21.5504209 ], [ -47.0836692, -21.5476059 ], [ -47.0899053, -21.5402028 ], [ -47.0931015, -21.5419362 ], [ -47.1025741, -21.5391467 ], [ -47.1030532, -21.5312087 ], [ -47.1045119, -21.526528 ], [ -47.1171818, -21.52795 ], [ -47.1216887, -21.5258736 ], [ -47.1277038, -21.5261865 ], [ -47.1307467, -21.5243984 ], [ -47.1302231, -21.5206324 ], [ -47.1222657, -21.511178 ], [ -47.1237783, -21.5072574 ], [ -47.1236877, -21.5018957 ], [ -47.1300536, -21.4943833 ], [ -47.1319362, -21.4938314 ], [ -47.1356277, -21.4972012 ], [ -47.1436181, -21.5001994 ], [ -47.1455788, -21.5002659 ], [ -47.1479705, -21.4986053 ], [ -47.1533134, -21.4917615 ], [ -47.1577039, -21.4900275 ], [ -47.1659669, -21.4843334 ], [ -47.1776285, -21.4829186 ], [ -47.1904568, -21.4876176 ], [ -47.1958398, -21.4884439 ], [ -47.1974214, -21.4908351 ], [ -47.1987954, -21.4909086 ], [ -47.2087508, -21.4868727 ], [ -47.2109732, -21.4798059 ], [ -47.2131551, -21.4765875 ], [ -47.2130138, -21.475163 ], [ -47.2098002, -21.470193 ], [ -47.2058396, -21.4662719 ], [ -47.2056332, -21.4638403 ], [ -47.2137862, -21.4638343 ], [ -47.2213404, -21.4592555 ], [ -47.2250964, -21.461203 ], [ -47.2335511, -21.469534 ], [ -47.2353525, -21.4703621 ], [ -47.2372809, -21.4697838 ], [ -47.2392624, -21.4671624 ], [ -47.2440612, -21.4684973 ], [ -47.2465631, -21.4684424 ], [ -47.2478002, -21.4674839 ], [ -47.2476205, -21.4619973 ], [ -47.2461867, -21.4565241 ], [ -47.240963, -21.4516104 ], [ -47.2413211, -21.4433115 ], [ -47.237568, -21.4435174 ], [ -47.2363597, -21.4418362 ], [ -47.2363726, -21.439284 ], [ -47.2328309, -21.4369493 ], [ -47.232995, -21.4342207 ], [ -47.2319079, -21.431946 ], [ -47.2335344, -21.4290336 ], [ -47.2336477, -21.4272339 ], [ -47.2319154, -21.4247787 ], [ -47.2313361, -21.4220885 ], [ -47.2293853, -21.4218511 ], [ -47.2276522, -21.4201443 ], [ -47.2260565, -21.4207666 ], [ -47.2249818, -21.4221233 ], [ -47.225952, -21.4252308 ], [ -47.2226824, -21.4260319 ], [ -47.224276, -21.4278742 ], [ -47.2188544, -21.4291296 ], [ -47.2149226, -21.4269945 ], [ -47.213701, -21.4236927 ], [ -47.2161172, -21.4230964 ], [ -47.2172777, -21.4207872 ], [ -47.216735, -21.4185424 ], [ -47.2155664, -21.4185089 ], [ -47.2148099, -21.4172537 ], [ -47.2148755, -21.4153803 ], [ -47.2080815, -21.4143285 ], [ -47.2061625, -21.4087128 ], [ -47.208969, -21.4072733 ], [ -47.2087095, -21.4038171 ], [ -47.2096837, -21.4018149 ], [ -47.2061813, -21.3981382 ], [ -47.2070083, -21.3961059 ], [ -47.2036985, -21.3896984 ], [ -47.2049504, -21.3867865 ], [ -47.2046167, -21.3849913 ], [ -47.2002222, -21.3794565 ], [ -47.1977484, -21.3731375 ], [ -47.1949941, -21.3693077 ], [ -47.1925753, -21.367442 ], [ -47.1921271, -21.3637096 ], [ -47.1885015, -21.3610458 ], [ -47.1870203, -21.3587776 ], [ -47.1872661, -21.3531524 ], [ -47.1918566, -21.3480149 ], [ -47.1876715, -21.346768 ], [ -47.1870447, -21.3452621 ], [ -47.1816498, -21.3404192 ], [ -47.1792804, -21.336754 ], [ -47.1767687, -21.3244183 ], [ -47.1739423, -21.3169082 ], [ -47.1586859, -21.303235 ], [ -47.1501559, -21.2996763 ], [ -47.1459279, -21.2943735 ], [ -47.1444206, -21.2947796 ], [ -47.1437333, -21.2966312 ], [ -47.1444691, -21.3007362 ], [ -47.1468389, -21.3036218 ], [ -47.1467275, -21.3054329 ], [ -47.1366352, -21.3201799 ], [ -47.132424, -21.3238307 ], [ -47.1300847, -21.3280713 ], [ -47.1275857, -21.3288151 ], [ -47.1249107, -21.3267821 ], [ -47.1236791, -21.3306074 ], [ -47.1237377, -21.3334605 ], [ -47.1212017, -21.3372205 ], [ -47.118651, -21.3383355 ], [ -47.1162479, -21.3409037 ], [ -47.1186453, -21.3479032 ], [ -47.1191394, -21.3546737 ], [ -47.1189688, -21.3556596 ], [ -47.1168165, -21.3572924 ], [ -47.1160398, -21.3594425 ], [ -47.1087808, -21.3615771 ], [ -47.1039017, -21.3608213 ], [ -47.1013642, -21.3620353 ], [ -47.0924179, -21.3636364 ], [ -47.0758817, -21.3605328 ], [ -47.0727624, -21.3610867 ], [ -47.0682375, -21.3633849 ], [ -47.0609653, -21.3619211 ], [ -47.0577213, -21.3602769 ], [ -47.0557852, -21.3606042 ], [ -47.0557684, -21.3611847 ], [ -47.0534948, -21.3603043 ], [ -47.052479, -21.3606614 ], [ -47.0492269, -21.3633446 ], [ -47.0475794, -21.3675992 ], [ -47.0483791, -21.3685835 ], [ -47.0476363, -21.3703252 ], [ -47.0455666, -21.3714535 ], [ -47.0440113, -21.3712987 ], [ -47.0424022, -21.3732553 ], [ -47.0404313, -21.3732145 ], [ -47.0377715, -21.3754026 ], [ -47.0356177, -21.3744792 ], [ -47.0283658, -21.3773687 ], [ -47.0256365, -21.3774841 ], [ -47.0249839, -21.3791279 ], [ -47.0195514, -21.3829822 ], [ -47.0179411, -21.3860028 ], [ -47.0163275, -21.3929782 ], [ -47.0172498, -21.3967126 ], [ -47.0159436, -21.3986975 ], [ -47.0141514, -21.3996796 ], [ -47.0146182, -21.4011631 ], [ -47.0137667, -21.4034093 ], [ -47.0111737, -21.4046016 ], [ -47.0096194, -21.4064603 ], [ -47.0107924, -21.4099743 ], [ -47.0077141, -21.410673 ], [ -47.0101094, -21.415276 ], [ -47.0116787, -21.4152872 ], [ -47.0128415, -21.4163495 ], [ -47.0129704, -21.419107 ], [ -47.0115079, -21.4222728 ], [ -47.0102072, -21.420823 ], [ -47.009386, -21.4214393 ], [ -47.0069744, -21.4204868 ], [ -47.0050324, -21.4214625 ], [ -46.999674, -21.4209957 ], [ -46.9932825, -21.4234283 ], [ -46.9927293, -21.4253005 ], [ -46.9903696, -21.4248772 ], [ -46.9902567, -21.4232459 ], [ -46.9868713, -21.4216401 ], [ -46.9860628, -21.4221507 ], [ -46.9872018, -21.4236882 ], [ -46.9843674, -21.4266951 ], [ -46.9808148, -21.4260208 ], [ -46.9788624, -21.424073 ], [ -46.9765946, -21.4233031 ], [ -46.9743464, -21.4178499 ], [ -46.9729398, -21.4192724 ], [ -46.9720435, -21.4218298 ], [ -46.9704253, -21.4222923 ], [ -46.9664806, -21.4211783 ], [ -46.9647087, -21.4181135 ], [ -46.9619588, -21.4205836 ], [ -46.9580686, -21.4224303 ], [ -46.9566623, -21.4247444 ], [ -46.9536186, -21.4242301 ], [ -46.9517332, -21.4216409 ], [ -46.9501715, -21.4220112 ], [ -46.9490903, -21.4195859 ], [ -46.9482173, -21.4202885 ], [ -46.946921, -21.4200205 ], [ -46.9459648, -21.4216879 ], [ -46.9442079, -21.4210009 ], [ -46.9435939, -21.4226807 ], [ -46.9402617, -21.4220822 ], [ -46.9390908, -21.4242965 ], [ -46.9342496, -21.4252539 ], [ -46.9329014, -21.4249792 ], [ -46.9316258, -21.4226471 ], [ -46.9286246, -21.4233116 ], [ -46.9254535, -21.4226378 ], [ -46.9220504, -21.4268364 ], [ -46.920776, -21.4271313 ], [ -46.916924, -21.4208651 ], [ -46.9122846, -21.4200692 ], [ -46.9083146, -21.4211784 ], [ -46.906872, -21.4181756 ], [ -46.9034616, -21.4185979 ], [ -46.9002917, -21.4131927 ], [ -46.8989851, -21.4132392 ], [ -46.89876, -21.4155072 ], [ -46.8969093, -21.4154059 ], [ -46.89596, -21.4164229 ], [ -46.8899646, -21.414762 ], [ -46.88719, -21.4150506 ], [ -46.8858065, -21.4176767 ], [ -46.8835272, -21.418694 ], [ -46.8806174, -21.4227364 ], [ -46.8754789, -21.424225 ], [ -46.8697977, -21.4239044 ], [ -46.8675848, -21.4267404 ], [ -46.8668318, -21.4263898 ], [ -46.8641718, -21.4286592 ], [ -46.8638631, -21.4311937 ], [ -46.8610995, -21.4344263 ], [ -46.8538191, -21.4372078 ], [ -46.8530821, -21.4395786 ], [ -46.8496692, -21.443638 ], [ -46.8474283, -21.4442651 ], [ -46.8435964, -21.4468935 ], [ -46.8353166, -21.4552249 ], [ -46.8308331, -21.4566922 ], [ -46.8299726, -21.4577232 ], [ -46.8294225, -21.4613927 ], [ -46.832673, -21.4627973 ], [ -46.8326429, -21.4674179 ], [ -46.8364019, -21.470192 ], [ -46.83546, -21.4723366 ], [ -46.8363001, -21.4796308 ], [ -46.8345443, -21.4827861 ], [ -46.8353462, -21.4878017 ], [ -46.8346432, -21.4894877 ], [ -46.8311871, -21.4929117 ], [ -46.8291901, -21.49685 ], [ -46.8322799, -21.4968633 ], [ -46.8365761, -21.5012768 ], [ -46.842523, -21.50419 ], [ -46.8450244, -21.5018289 ], [ -46.8484259, -21.5016531 ], [ -46.851002, -21.4991836 ], [ -46.8522803, -21.4947542 ], [ -46.8542059, -21.4921699 ], [ -46.8637873, -21.4903282 ], [ -46.8681448, -21.4858524 ], [ -46.8769512, -21.4877577 ], [ -46.88241, -21.4911365 ], [ -46.8894111, -21.4881791 ], [ -46.8909602, -21.4863452 ], [ -46.8919628, -21.4865457 ], [ -46.8940064, -21.489047 ], [ -46.8968736, -21.4895803 ], [ -46.9049551, -21.4853153 ], [ -46.9090704, -21.484158 ], [ -46.9111463, -21.4845347 ], [ -46.9161085, -21.4883245 ], [ -46.9164683, -21.4898655 ], [ -46.9141535, -21.4938624 ], [ -46.914337, -21.4953915 ], [ -46.9183612, -21.4986533 ], [ -46.9213945, -21.499073 ], [ -46.9224601, -21.5005818 ], [ -46.9231196, -21.5039855 ], [ -46.9255662, -21.5069957 ], [ -46.9252938, -21.5120999 ], [ -46.9337308, -21.5186692 ], [ -46.9337404, -21.520359 ], [ -46.9328065, -21.5212465 ], [ -46.9290981, -21.5212287 ], [ -46.932212, -21.5305925 ], [ -46.9304602, -21.537225 ], [ -46.9319656, -21.5412985 ], [ -46.9267184, -21.5515764 ], [ -46.9268066, -21.5570056 ], [ -46.9293711, -21.5591768 ], [ -46.9338624, -21.5606612 ], [ -46.9436676, -21.5696316 ], [ -46.9506343, -21.5725735 ], [ -46.9546008, -21.5725957 ], [ -46.9526644, -21.576882 ], [ -46.9499507, -21.5802526 ], [ -46.9511912, -21.5866242 ], [ -46.9556133, -21.5927336 ], [ -46.9610896, -21.5917559 ], [ -46.9648272, -21.592821 ], [ -46.9675275, -21.5970337 ], [ -46.9675365, -21.5985017 ], [ -46.970267, -21.600163 ], [ -46.9727791, -21.6039968 ], [ -46.9721465, -21.6066684 ], [ -46.9737405, -21.6084975 ], [ -46.9751974, -21.6084495 ], [ -46.9787105, -21.6109005 ], [ -46.9819727, -21.6108182 ], [ -46.9872159, -21.6144767 ], [ -46.9948077, -21.6162108 ], [ -46.9959002, -21.6157715 ], [ -46.9961026, -21.6142291 ], [ -46.9920351, -21.6082426 ], [ -46.9969638, -21.6061819 ], [ -47.0022332, -21.6087825 ], [ -47.0058593, -21.6131908 ], [ -47.0081016, -21.6182068 ], [ -47.0129344, -21.6225775 ], [ -47.0122045, -21.6244782 ], [ -47.0080192, -21.6267725 ], [ -47.0060396, -21.629741 ], [ -47.0065107, -21.6328543 ], [ -47.0076091, -21.6337149 ], [ -47.0098817, -21.6336878 ], [ -47.0146583, -21.6313858 ], [ -47.0191731, -21.627314 ], [ -47.0248544, -21.6308845 ], [ -47.0302209, -21.6256441 ], [ -47.0389931, -21.6231368 ], [ -47.0433858, -21.6238325 ] ] ] ] } }
]
}
