{
"type": "FeatureCollection",
"name": "ER_REGIAO_Jacareí_São Silvestre de Jacareí",
"crs": { "type": "name", "properties": { "name": "urn:ogc:def:crs:EPSG::4674" } },
"xy_coordinate_resolution": 1e-15,
"features": [
{ "type": "Feature", "properties": { "fid": 408, "NM_REGIAO": "Sudeste", "NM_UF": "São Paulo", "NM_MUN": "Jacareí", "NM_DIST": "São Silvestre de Jacareí", "CD_SUBDIST": "35244021000", "ER_REGIAO": "Jacareí_São Silvestre de Jacareí", "ER_REGIAO_CIDADE": "Jacareí_São Silvestre de Jacareí_Alto Tietê" }, "geometry": { "type": "MultiPolygon", "coordinates": [ [ [ [ -46.0064598, -23.3836825 ], [ -46.0105398, -23.3842725 ], [ -46.010948, -23.387054 ], [ -46.0136763, -23.3874964 ], [ -46.015694, -23.3911748 ], [ -46.0166824, -23.3908535 ], [ -46.0184228, -23.3880689 ], [ -46.0222132, -23.3876312 ], [ -46.026283, -23.3921015 ], [ -46.0295291, -23.3917572 ], [ -46.0346451, -23.3871518 ], [ -46.0367249, -23.3881477 ], [ -46.041287, -23.3843571 ], [ -46.047902, -23.3761789 ], [ -46.0514125, -23.3686437 ], [ -46.0543657, -23.3678938 ], [ -46.0559487, -23.3662442 ], [ -46.0574589, -23.3614263 ], [ -46.059696, -23.3602007 ], [ -46.0605729, -23.3577916 ], [ -46.0635062, -23.3588264 ], [ -46.0646893, -23.3568973 ], [ -46.0678272, -23.3549706 ], [ -46.0669931, -23.352869 ], [ -46.0679671, -23.3487667 ], [ -46.0710093, -23.346373 ], [ -46.0737088, -23.3421546 ], [ -46.0768566, -23.3409376 ], [ -46.0799663, -23.3415073 ], [ -46.080166, -23.339741 ], [ -46.079517, -23.338878 ], [ -46.076307, -23.338668 ], [ -46.073011, -23.334902 ], [ -46.072231, -23.33092 ], [ -46.070002, -23.328426 ], [ -46.069628, -23.326632 ], [ -46.0656727, -23.325651 ], [ -46.061891, -23.32719 ], [ -46.057867, -23.325461 ], [ -46.053439, -23.329121 ], [ -46.048673, -23.329323 ], [ -46.04799, -23.325316 ], [ -46.041074, -23.325051 ], [ -46.040666, -23.319504 ], [ -46.038712, -23.317969 ], [ -46.03652, -23.318428 ], [ -46.03566, -23.320282 ], [ -46.032387, -23.32304 ], [ -46.029219, -23.32377 ], [ -46.028256, -23.326602 ], [ -46.02451, -23.326817 ], [ -46.021743, -23.329037 ], [ -46.01546, -23.328685 ], [ -46.014698, -23.328258 ], [ -46.014593, -23.326166 ], [ -46.012475, -23.324937 ], [ -46.006757, -23.324747 ], [ -46.004827, -23.326145 ], [ -46.002343, -23.326113 ], [ -46.000946, -23.327795 ], [ -45.996739, -23.328849 ], [ -45.9938285, -23.33518 ], [ -45.9931789, -23.3386837 ], [ -45.9946814, -23.34224 ], [ -45.9927101, -23.3449814 ], [ -45.9958062, -23.3491013 ], [ -45.9888325, -23.3585054 ], [ -45.9850174, -23.3622502 ], [ -45.9822582, -23.3667273 ], [ -45.9799756, -23.3679093 ], [ -45.9785944, -23.3736353 ], [ -45.9733129, -23.376815 ], [ -45.9755329, -23.3794797 ], [ -45.9740995, -23.3806793 ], [ -45.9701753, -23.3876023 ], [ -45.9693265, -23.3926452 ], [ -45.9671109, -23.3963152 ], [ -45.9666347, -23.3994596 ], [ -45.9686, -23.401848 ], [ -45.9713, -23.400631 ], [ -45.974303, -23.401175 ], [ -45.976729, -23.403665 ], [ -45.980209, -23.405422 ], [ -45.981102, -23.409047 ], [ -45.980691, -23.41443 ], [ -45.9845137, -23.4165051 ], [ -45.9873849, -23.419776 ], [ -45.9905747, -23.4182073 ], [ -45.9918189, -23.4163199 ], [ -45.9946239, -23.40581 ], [ -45.9971029, -23.4020865 ], [ -45.9977048, -23.3968657 ], [ -45.9989793, -23.3939518 ], [ -45.9983327, -23.3913753 ], [ -45.9999363, -23.3878126 ], [ -46.0025066, -23.3853394 ], [ -46.0064598, -23.3836825 ] ] ] ] } }
]
}
