{
"type": "FeatureCollection",
"name": "ER_REGIAO_Mineiros do Tietê",
"crs": { "type": "name", "properties": { "name": "urn:ogc:def:crs:EPSG::4674" } },
"xy_coordinate_resolution": 1e-15,
"features": [
{ "type": "Feature", "properties": { "fid": 489, "NM_REGIAO": "Sudeste", "NM_UF": "São Paulo", "NM_MUN": "Mineiros do Tietê", "NM_DIST": "Mineiros do Tietê", "CD_SUBDIST": "35298070500", "ER_REGIAO": "Mineiros do Tietê", "ER_REGIAO_CIDADE": "Mineiros do Tietê_Bauru" }, "geometry": { "type": "MultiPolygon", "coordinates": [ [ [ [ -48.4737491, -22.4822317 ], [ -48.5033995, -22.4571363 ], [ -48.5055787, -22.4457341 ], [ -48.5029451, -22.4357239 ], [ -48.5063165, -22.4353477 ], [ -48.5096737, -22.4361185 ], [ -48.5109714, -22.4349104 ], [ -48.5125569, -22.4325663 ], [ -48.512542, -22.4267808 ], [ -48.5159653, -22.421947 ], [ -48.5151556, -22.4103721 ], [ -48.5103806, -22.4063573 ], [ -48.5029094, -22.4026758 ], [ -48.5038796, -22.3996133 ], [ -48.5036227, -22.3958251 ], [ -48.5011343, -22.394685 ], [ -48.4933759, -22.3952212 ], [ -48.4888094, -22.3914623 ], [ -48.4887331, -22.3834328 ], [ -48.4875858, -22.3818772 ], [ -48.4880914, -22.3799511 ], [ -48.4855725, -22.3731717 ], [ -48.4812963, -22.3684073 ], [ -48.4769652, -22.3677633 ], [ -48.4761678, -22.366036 ], [ -48.4748518, -22.3654854 ], [ -48.4764972, -22.363311 ], [ -48.4798641, -22.3626604 ], [ -48.4811868, -22.3583706 ], [ -48.4807825, -22.3561859 ], [ -48.4776546, -22.354041 ], [ -48.4767046, -22.3521689 ], [ -48.4739135, -22.3525133 ], [ -48.4725228, -22.3514463 ], [ -48.4667138, -22.3533259 ], [ -48.4646665, -22.355834 ], [ -48.4623524, -22.3560297 ], [ -48.4585486, -22.3587559 ], [ -48.4553822, -22.3616243 ], [ -48.4542689, -22.3637257 ], [ -48.4527541, -22.3638765 ], [ -48.4513368, -22.3651674 ], [ -48.4496005, -22.3649739 ], [ -48.4423887, -22.3698009 ], [ -48.4382145, -22.3704149 ], [ -48.4350201, -22.3742323 ], [ -48.4273355, -22.3784149 ], [ -48.4223378, -22.3800272 ], [ -48.4133493, -22.3804742 ], [ -48.4099855, -22.3825787 ], [ -48.4083984, -22.3847435 ], [ -48.4086034, -22.3863687 ], [ -48.4065856, -22.3911294 ], [ -48.3991379, -22.4172907 ], [ -48.3973433, -22.4196208 ], [ -48.3939084, -22.4220824 ], [ -48.3947101, -22.4249837 ], [ -48.3979338, -22.429388 ], [ -48.3990858, -22.4360022 ], [ -48.3987709, -22.4394292 ], [ -48.3961698, -22.4452125 ], [ -48.3949606, -22.4515992 ], [ -48.3906399, -22.4600606 ], [ -48.3904174, -22.4625134 ], [ -48.3848778, -22.4680362 ], [ -48.3835412, -22.4739656 ], [ -48.3813689, -22.4786771 ], [ -48.3761717, -22.4838324 ], [ -48.3719991, -22.4896072 ], [ -48.3684113, -22.4912471 ], [ -48.3641418, -22.4947018 ], [ -48.3619744, -22.5017511 ], [ -48.3637395, -22.5074463 ], [ -48.3651922, -22.5085795 ], [ -48.3671994, -22.5141625 ], [ -48.3663602, -22.518534 ], [ -48.3633736, -22.5225165 ], [ -48.362046, -22.5275783 ], [ -48.3600618, -22.5302952 ], [ -48.3601726, -22.5359111 ], [ -48.3590833, -22.5386017 ], [ -48.3609843, -22.545522 ], [ -48.3608467, -22.5546974 ], [ -48.3596836, -22.5628417 ], [ -48.3617575, -22.5679592 ], [ -48.3642262, -22.5700785 ], [ -48.3677912, -22.5705854 ], [ -48.3767421, -22.5738639 ], [ -48.3844925, -22.5800161 ], [ -48.3949703, -22.5714924 ], [ -48.4058071, -22.5612002 ], [ -48.4148055, -22.55495 ], [ -48.4438468, -22.5399588 ], [ -48.4519125, -22.5394216 ], [ -48.4480691, -22.5230881 ], [ -48.4507298, -22.5188296 ], [ -48.4571245, -22.515169 ], [ -48.4595791, -22.5127681 ], [ -48.4603313, -22.5107877 ], [ -48.4587132, -22.4979318 ], [ -48.4622595, -22.4838847 ], [ -48.4704956, -22.4842051 ], [ -48.4737491, -22.4822317 ] ] ] ] } }
]
}
