{
"type": "FeatureCollection",
"name": "ER_REGIAO_Santa Clara d'Oeste",
"crs": { "type": "name", "properties": { "name": "urn:ogc:def:crs:EPSG::4674" } },
"xy_coordinate_resolution": 1e-15,
"features": [
{ "type": "Feature", "properties": { "fid": 766, "NM_REGIAO": "Sudeste", "NM_UF": "São Paulo", "NM_MUN": "Santa Clara d'Oeste", "NM_DIST": "Santa Clara d'Oeste", "CD_SUBDIST": "35461080500", "ER_REGIAO": "Santa Clara d'Oeste", "ER_REGIAO_CIDADE": "Santa Clara d'Oeste_Votuporanga" }, "geometry": { "type": "MultiPolygon", "coordinates": [ [ [ [ -50.9107454, -20.1382991 ], [ -50.9128865, -20.1366354 ], [ -50.9165564, -20.1358352 ], [ -50.9188821, -20.1332844 ], [ -50.9192418, -20.1320663 ], [ -50.9183492, -20.1305114 ], [ -50.9231366, -20.1290015 ], [ -50.9280816, -20.1237361 ], [ -50.9318889, -20.1227272 ], [ -50.9412154, -20.1240534 ], [ -50.9462239, -20.1204099 ], [ -50.9500071, -20.1200844 ], [ -50.9533082, -20.1165939 ], [ -50.9541668, -20.1138574 ], [ -50.9552002, -20.1132555 ], [ -50.9659006, -20.1113735 ], [ -50.9723366, -20.1077979 ], [ -50.9747896, -20.1078182 ], [ -50.9748994, -20.1069759 ], [ -50.9763046, -20.1064228 ], [ -50.980949, -20.1057272 ], [ -50.9826638, -20.1040294 ], [ -50.9849747, -20.0977282 ], [ -50.9908284, -20.096682 ], [ -50.9975774, -20.0972768 ], [ -51.0011911, -20.0963348 ], [ -51.000475, -20.0853844 ], [ -50.9965342, -20.0773146 ], [ -50.9808395, -20.0578564 ], [ -50.971725, -20.0404725 ], [ -50.9691294, -20.0364452 ], [ -50.9658345, -20.0335907 ], [ -50.9618953, -20.0319333 ], [ -50.9531779, -20.033877 ], [ -50.9470541, -20.0312523 ], [ -50.9336598, -20.0149292 ], [ -50.9247157, -20.0113546 ], [ -50.9119029, -20.003079 ], [ -50.9108526, -19.9974493 ], [ -50.9081347, -19.9942574 ], [ -50.8971994, -19.9901552 ], [ -50.8859988, -19.9903894 ], [ -50.8847436, -19.9962819 ], [ -50.8818572, -19.9983244 ], [ -50.8761188, -19.9984247 ], [ -50.8696373, -20.0004832 ], [ -50.8639637, -20.0046859 ], [ -50.8592713, -20.0108213 ], [ -50.8533269, -20.0137556 ], [ -50.8441503, -20.0229229 ], [ -50.8417607, -20.0242507 ], [ -50.838517, -20.02787 ], [ -50.8349927, -20.0340613 ], [ -50.828039, -20.0435389 ], [ -50.8252694, -20.0532042 ], [ -50.8294522, -20.0552468 ], [ -50.8357772, -20.0630572 ], [ -50.8356665, -20.0654584 ], [ -50.8379386, -20.0718337 ], [ -50.8374758, -20.0770576 ], [ -50.8416101, -20.0821097 ], [ -50.8461352, -20.0855434 ], [ -50.847337, -20.0876268 ], [ -50.8480826, -20.092352 ], [ -50.8522702, -20.0964194 ], [ -50.8547495, -20.1008937 ], [ -50.8630468, -20.0970292 ], [ -50.8639146, -20.1003121 ], [ -50.8655819, -20.1025505 ], [ -50.8656087, -20.1118227 ], [ -50.8667233, -20.1176265 ], [ -50.8692507, -20.1242905 ], [ -50.8694204, -20.1306553 ], [ -50.8711874, -20.1323839 ], [ -50.8788224, -20.1295603 ], [ -50.8815122, -20.1293615 ], [ -50.8834508, -20.1303923 ], [ -50.8875241, -20.135449 ], [ -50.8914008, -20.1386335 ], [ -50.9008344, -20.1414345 ], [ -50.9090798, -20.141516 ], [ -50.9107454, -20.1382991 ] ] ] ] } }
]
}
