{
"type": "FeatureCollection",
"name": "ER_REGIAO_São Manuel_São Manuel",
"crs": { "type": "name", "properties": { "name": "urn:ogc:def:crs:EPSG::4674" } },
"xy_coordinate_resolution": 1e-15,
"features": [
{ "type": "Feature", "properties": { "fid": 831, "NM_REGIAO": "Sudeste", "NM_UF": "São Paulo", "NM_MUN": "São Manuel", "NM_DIST": "São Manuel", "CD_SUBDIST": "35501000500", "ER_REGIAO": "São Manuel_São Manuel", "ER_REGIAO_CIDADE": "São Manuel_São Manuel_Bauru" }, "geometry": { "type": "MultiPolygon", "coordinates": [ [ [ [ -48.551494899999966, -22.857558099999949 ], [ -48.555315399999984, -22.852932599999974 ], [ -48.558523399999956, -22.853220199999953 ], [ -48.561889199999939, -22.851509299999975 ], [ -48.567314899999985, -22.853444699999955 ], [ -48.56962859999993, -22.849943499999938 ], [ -48.578698599999939, -22.844752399999948 ], [ -48.585458299999971, -22.835753 ], [ -48.586198199999956, -22.831478 ], [ -48.587798299999974, -22.828150199999982 ], [ -48.587275899999952, -22.821607099999937 ], [ -48.588030499999945, -22.818579299999953 ], [ -48.590822799999955, -22.815438499999971 ], [ -48.598339499999952, -22.814955299999951 ], [ -48.602500899999939, -22.811915399999975 ], [ -48.606826199999944, -22.810048499999937 ], [ -48.605867599999954, -22.809345499999949 ], [ -48.605927299999962, -22.808055699999954 ], [ -48.604819199999952, -22.807510599999944 ], [ -48.605210299999953, -22.80345589999996 ], [ -48.603064, -22.802322099999969 ], [ -48.603110199999946, -22.800634899999977 ], [ -48.609257199999945, -22.795072799999957 ], [ -48.612553699999978, -22.79045949999994 ], [ -48.612961, -22.779452 ], [ -48.610849899999948, -22.774537 ], [ -48.613181499999939, -22.77268719999995 ], [ -48.615306499999974, -22.77373179999995 ], [ -48.615398899999946, -22.772251299999937 ], [ -48.614648399999965, -22.77121429999994 ], [ -48.611810299999945, -22.770143 ], [ -48.610967799999969, -22.765331899999978 ], [ -48.609149499999944, -22.762984199999948 ], [ -48.609229399999947, -22.760632899999962 ], [ -48.610472699999946, -22.758797799999968 ], [ -48.61640959999994, -22.756384799999978 ], [ -48.615962, -22.754279 ], [ -48.61392589999997, -22.751366 ], [ -48.610954099999958, -22.749526 ], [ -48.59472169999998, -22.74388289999996 ], [ -48.600059899999962, -22.741484699999944 ], [ -48.597994099999937, -22.738369 ], [ -48.596811099999968, -22.734076 ], [ -48.597336699999971, -22.73299 ], [ -48.604070199999967, -22.729427 ], [ -48.60446109999998, -22.727247 ], [ -48.601544, -22.719036199999948 ], [ -48.598396299999933, -22.715279399999929 ], [ -48.59480689999998, -22.69781 ], [ -48.594519099999957, -22.694640299999946 ], [ -48.595864799999958, -22.689362199999948 ], [ -48.596974199999977, -22.687869199999966 ], [ -48.596088299999963, -22.686947299999929 ], [ -48.596040199999948, -22.685197499999958 ], [ -48.594145599999933, -22.685014099999933 ], [ -48.595462299999951, -22.683548799999983 ], [ -48.59419459999998, -22.681514899999968 ], [ -48.595115599999986, -22.680157799999961 ], [ -48.594182699999976, -22.679093 ], [ -48.593803499999979, -22.674273299999982 ], [ -48.597529, -22.669984 ], [ -48.600863499999946, -22.670440799999938 ], [ -48.603591599999959, -22.669328899999982 ], [ -48.608129899999938, -22.675166899999965 ], [ -48.61340139999993, -22.679994099999931 ], [ -48.620426399999985, -22.695361199999979 ], [ -48.621783099999959, -22.685481799999934 ], [ -48.620109299999967, -22.674751 ], [ -48.62058959999996, -22.66876979999995 ], [ -48.618350699999951, -22.664946399999963 ], [ -48.612107799999933, -22.660965399999952 ], [ -48.60879929999993, -22.657415699999945 ], [ -48.607934099999966, -22.655467499999929 ], [ -48.608043, -22.652862399999947 ], [ -48.612260299999946, -22.643012299999953 ], [ -48.616811599999949, -22.636479699999938 ], [ -48.617116799999962, -22.63277839999995 ], [ -48.61521289999996, -22.632253799999944 ], [ -48.615823399999954, -22.628786799999943 ], [ -48.617425599999933, -22.626915699999927 ], [ -48.619102, -22.628182599999946 ], [ -48.621039799999949, -22.626789899999949 ], [ -48.622733899999957, -22.622932299999945 ], [ -48.622246, -22.621579499999939 ], [ -48.623004599999945, -22.61960849999997 ], [ -48.624168499999939, -22.619771299999968 ], [ -48.626073299999973, -22.617146499999933 ], [ -48.626364099999932, -22.616135099999951 ], [ -48.625285799999972, -22.61487569999997 ], [ -48.625954899999954, -22.614158799999927 ], [ -48.62492519999995, -22.612326499999938 ], [ -48.629923499999961, -22.607124799999951 ], [ -48.632269899999983, -22.606684899999948 ], [ -48.632224299999962, -22.603866899999957 ], [ -48.635349899999937, -22.602312199999972 ], [ -48.635716299999956, -22.599419199999943 ], [ -48.638653499999975, -22.600363499999958 ], [ -48.640481699999953, -22.59653389999994 ], [ -48.645232799999974, -22.59657059999995 ], [ -48.645089599999949, -22.593775199999982 ], [ -48.646245199999953, -22.593149399999959 ], [ -48.647381499999938, -22.593664699999977 ], [ -48.647788799999944, -22.59292279999994 ], [ -48.647121499999969, -22.589933499999972 ], [ -48.649997299999939, -22.58877119999994 ], [ -48.650703799999974, -22.586210599999959 ], [ -48.649572699999965, -22.583490799999936 ], [ -48.650604299999941, -22.582352599999979 ], [ -48.649600299999975, -22.579956099999947 ], [ -48.65042939999995, -22.578178099999946 ], [ -48.650049799999977, -22.574625399999945 ], [ -48.647834699999976, -22.573845099999971 ], [ -48.648474399999941, -22.571595799999955 ], [ -48.646308499999975, -22.570206499999983 ], [ -48.643732399999976, -22.570123699999954 ], [ -48.641886499999941, -22.568748 ], [ -48.644280899999956, -22.569056499999931 ], [ -48.642621, -22.565878399999974 ], [ -48.643431199999952, -22.565394699999956 ], [ -48.643185, -22.563330699999938 ], [ -48.64481539999997, -22.561582599999952 ], [ -48.641964299999984, -22.558663399999944 ], [ -48.64161729999995, -22.556236899999931 ], [ -48.642424499999947, -22.554993799999977 ], [ -48.640861699999959, -22.553147799999977 ], [ -48.640942499999937, -22.552007599999968 ], [ -48.641765599999985, -22.547718599999939 ], [ -48.643246699999963, -22.54543069999994 ], [ -48.642626, -22.544466399999976 ], [ -48.643551, -22.542933199999936 ], [ -48.643002499999966, -22.540005699999938 ], [ -48.643889199999933, -22.53996159999997 ], [ -48.64502269999997, -22.536803499999962 ], [ -48.642540599999961, -22.538647399999945 ], [ -48.637659799999938, -22.539702099999943 ], [ -48.633153799999945, -22.54360939999998 ], [ -48.632098199999973, -22.547483399999976 ], [ -48.630069899999967, -22.548349599999938 ], [ -48.625217599999985, -22.547994599999981 ], [ -48.624280599999963, -22.548725 ], [ -48.623396399999933, -22.552753699999982 ], [ -48.620661699999971, -22.555257899999958 ], [ -48.620695, -22.560979 ], [ -48.619707799999958, -22.56229819999993 ], [ -48.621039099999962, -22.56448869999997 ], [ -48.620792899999969, -22.566442 ], [ -48.619723099999931, -22.56908 ], [ -48.617008299999952, -22.570409 ], [ -48.616552199999944, -22.574351099999944 ], [ -48.615037699999959, -22.575561799999946 ], [ -48.610247499999957, -22.577832299999955 ], [ -48.602738199999976, -22.577070699999979 ], [ -48.596798599999943, -22.58143119999994 ], [ -48.594245599999965, -22.584805099999983 ], [ -48.590885299999968, -22.585507 ], [ -48.586042499999962, -22.583909499999947 ], [ -48.58197, -22.579399699999954 ], [ -48.57371059999997, -22.578015599999958 ], [ -48.568224, -22.580652 ], [ -48.561067399999956, -22.587218599999972 ], [ -48.557144199999982, -22.583653899999945 ], [ -48.54691669999994, -22.581665499999929 ], [ -48.54105809999993, -22.579491499999961 ], [ -48.536172699999952, -22.579582599999981 ], [ -48.532609099999945, -22.576758699999971 ], [ -48.529391199999964, -22.576096899999982 ], [ -48.526319799999953, -22.574022299999967 ], [ -48.523173499999984, -22.569146699999976 ], [ -48.524135599999966, -22.565984899999933 ], [ -48.522691299999963, -22.563981699999943 ], [ -48.52171919999995, -22.560152 ], [ -48.515543699999967, -22.55015 ], [ -48.513027299999976, -22.548496499999942 ], [ -48.50784509999994, -22.549300499999958 ], [ -48.504179099999931, -22.552613199999939 ], [ -48.500066799999956, -22.552562199999954 ], [ -48.494604199999969, -22.550212099999953 ], [ -48.490330699999959, -22.546076299999982 ], [ -48.487336199999959, -22.546811099999957 ], [ -48.460751099999982, -22.540252499999951 ], [ -48.455080299999963, -22.539508799999965 ], [ -48.444715799999983, -22.539662 ], [ -48.414805499999943, -22.55495 ], [ -48.405807099999947, -22.561200199999973 ], [ -48.394970299999954, -22.571492399999954 ], [ -48.384492499999965, -22.580016099999966 ], [ -48.374879199999953, -22.590647 ], [ -48.369293399999947, -22.59980239999993 ], [ -48.365381399999933, -22.608871199999953 ], [ -48.370785399999932, -22.613085599999977 ], [ -48.380069699999979, -22.618087799999955 ], [ -48.394304399999953, -22.61983209999994 ], [ -48.405778399999974, -22.623075 ], [ -48.414012799999966, -22.631592299999966 ], [ -48.414200799999946, -22.633676899999955 ], [ -48.41064, -22.634057299999938 ], [ -48.407498699999962, -22.636212499999942 ], [ -48.405632599999933, -22.642129 ], [ -48.406003699999985, -22.642867299999978 ], [ -48.408144599999957, -22.643058699999983 ], [ -48.413709099999949, -22.648056099999962 ], [ -48.414003, -22.650459399999932 ], [ -48.410908099999972, -22.655874299999937 ], [ -48.419747199999961, -22.663160699999935 ], [ -48.419526, -22.66417359999997 ], [ -48.416357299999959, -22.666148 ], [ -48.415650599999935, -22.670843 ], [ -48.411258, -22.677169399999968 ], [ -48.411123, -22.680153599999983 ], [ -48.412269799999933, -22.682437199999981 ], [ -48.419770599999936, -22.686503899999934 ], [ -48.427218299999936, -22.695492499999943 ], [ -48.428351199999952, -22.697574799999927 ], [ -48.428173799999968, -22.703050599999983 ], [ -48.430262899999946, -22.707636699999966 ], [ -48.436436499999957, -22.712097 ], [ -48.44619, -22.71444269999995 ], [ -48.446821499999942, -22.716648 ], [ -48.445810399999971, -22.722110399999963 ], [ -48.446958499999937, -22.72387729999997 ], [ -48.450479599999937, -22.723595 ], [ -48.458752299999958, -22.724641499999962 ], [ -48.465720799999986, -22.726556099999982 ], [ -48.473155299999974, -22.725757499999929 ], [ -48.476292, -22.724135599999954 ], [ -48.475171499999931, -22.727046499999972 ], [ -48.474682499999972, -22.734395699999936 ], [ -48.475426, -22.739466199999981 ], [ -48.47519879999993, -22.748436499999968 ], [ -48.477145399999984, -22.761629099999936 ], [ -48.476214, -22.766841699999929 ], [ -48.476782499999956, -22.769825199999957 ], [ -48.474553, -22.772264899999982 ], [ -48.474460599999986, -22.773441699999978 ], [ -48.480556799999931, -22.78129249999995 ], [ -48.481610799999942, -22.785457399999927 ], [ -48.485188199999982, -22.787225099999944 ], [ -48.485740399999941, -22.792647299999942 ], [ -48.486948699999971, -22.794754499999954 ], [ -48.495528799999931, -22.800305399999957 ], [ -48.500093599999957, -22.804407399999945 ], [ -48.513465, -22.804435299999966 ], [ -48.518439499999943, -22.806723799999929 ], [ -48.521246499999961, -22.80730959999994 ], [ -48.526436599999954, -22.806801399999927 ], [ -48.527910299999974, -22.807799599999953 ], [ -48.529806099999973, -22.811936599999967 ], [ -48.532335199999977, -22.814134699999954 ], [ -48.536266599999976, -22.826112 ], [ -48.539261599999975, -22.829588899999976 ], [ -48.541490099999976, -22.837410599999941 ], [ -48.54347329999996, -22.839402799999959 ], [ -48.539292299999943, -22.841170099999943 ], [ -48.537783, -22.843192399999964 ], [ -48.536125499999969, -22.84334089999993 ], [ -48.535864699999934, -22.844813599999952 ], [ -48.538238799999931, -22.845784099999946 ], [ -48.541882599999951, -22.849673899999971 ], [ -48.542051899999933, -22.855598899999961 ], [ -48.548348099999941, -22.859172399999977 ], [ -48.551494899999966, -22.857558099999949 ] ] ] ] } }
]
}
