{
"type": "FeatureCollection",
"name": "ER_REGIAO_Hortolândia",
"crs": { "type": "name", "properties": { "name": "urn:ogc:def:crs:EPSG::4674" } },
"xy_coordinate_resolution": 1e-15,
"features": [
{ "type": "Feature", "properties": { "fid": 312, "NM_REGIAO": "Sudeste", "NM_UF": "São Paulo", "NM_MUN": "Hortolândia", "NM_DIST": "Hortolândia", "CD_SUBDIST": "35190710500", "ER_REGIAO": "Hortolândia", "ER_REGIAO_CIDADE": "Hortolândia_Campinas" }, "geometry": { "type": "MultiPolygon", "coordinates": [ [ [ [ -47.167694199999971, -22.858034099999941 ], [ -47.159472, -22.859325 ], [ -47.157627, -22.861103 ], [ -47.155719, -22.87232419999998 ], [ -47.160044899999946, -22.878321799999981 ], [ -47.157407, -22.882436 ], [ -47.15711, -22.887326 ], [ -47.15809, -22.888999 ], [ -47.160414, -22.88999 ], [ -47.161852299999964, -22.895155699999975 ], [ -47.165628599999934, -22.899470099999974 ], [ -47.166898699999933, -22.90367109999994 ], [ -47.171561099999963, -22.906162399999971 ], [ -47.172603199999969, -22.907660399999941 ], [ -47.179456, -22.912141 ], [ -47.19262, -22.910582 ], [ -47.204363, -22.911903 ], [ -47.20832, -22.913058299999932 ], [ -47.215663699999936, -22.913269899999932 ], [ -47.218705, -22.911735 ], [ -47.222631199999967, -22.90598209999996 ], [ -47.227264199999979, -22.905501099999981 ], [ -47.229375599999969, -22.905924499999969 ], [ -47.233661899999959, -22.910328099999958 ], [ -47.23510559999994, -22.908205899999928 ], [ -47.239579599999956, -22.907800899999927 ], [ -47.246767, -22.909478 ], [ -47.248418, -22.904671 ], [ -47.254987699999958, -22.898483399999975 ], [ -47.257663, -22.898799 ], [ -47.260478, -22.895672 ], [ -47.256522, -22.891911 ], [ -47.258237, -22.887494 ], [ -47.259003, -22.881896 ], [ -47.260794699999963, -22.878098 ], [ -47.251279, -22.875791 ], [ -47.249909, -22.876561 ], [ -47.242262, -22.876828 ], [ -47.241478, -22.874123 ], [ -47.240132, -22.873583 ], [ -47.240678, -22.872076 ], [ -47.239974, -22.871926 ], [ -47.239029, -22.868454 ], [ -47.239268, -22.866306 ], [ -47.235915, -22.861349 ], [ -47.235573, -22.857493 ], [ -47.238172, -22.855532 ], [ -47.243684, -22.854267 ], [ -47.241055, -22.852494 ], [ -47.240949, -22.848014 ], [ -47.23874, -22.841593 ], [ -47.236714, -22.840016 ], [ -47.235252299999956, -22.840007 ], [ -47.23506, -22.828914 ], [ -47.233556, -22.826039 ], [ -47.230791, -22.8256 ], [ -47.228394, -22.827009 ], [ -47.221726, -22.833691 ], [ -47.219627, -22.837351 ], [ -47.214522, -22.83938 ], [ -47.21355, -22.841458 ], [ -47.212931, -22.848357 ], [ -47.208442, -22.846707 ], [ -47.207023, -22.842256 ], [ -47.205327, -22.84265 ], [ -47.205064, -22.841131 ], [ -47.204405, -22.841013 ], [ -47.203254, -22.84243 ], [ -47.203664, -22.845195 ], [ -47.192273, -22.852184 ], [ -47.192931, -22.854437 ], [ -47.188713, -22.858666 ], [ -47.180969, -22.860035 ], [ -47.177772, -22.857696 ], [ -47.167694199999971, -22.858034099999941 ] ] ] ] } }
]
}
