{
"type": "FeatureCollection",
"name": "ER_REGIAO_Guareí",
"crs": { "type": "name", "properties": { "name": "urn:ogc:def:crs:EPSG::4674" } },
"xy_coordinate_resolution": 1e-15,
"features": [
{ "type": "Feature", "properties": { "fid": 301, "NM_REGIAO": "Sudeste", "NM_UF": "São Paulo", "NM_MUN": "Guareí", "NM_DIST": "Guareí", "CD_SUBDIST": "35185030500", "ER_REGIAO": "Guareí", "ER_REGIAO_CIDADE": "Guareí_Botucatu" }, "geometry": { "type": "MultiPolygon", "coordinates": [ [ [ [ -48.174579, -23.494877 ], [ -48.200750099999937, -23.488097499999981 ], [ -48.203187799999967, -23.488910399999952 ], [ -48.207596399999943, -23.486473799999942 ], [ -48.209055899999953, -23.484244199999978 ], [ -48.217081599999972, -23.483149 ], [ -48.220836399999939, -23.479753399999936 ], [ -48.220890099999963, -23.47509539999993 ], [ -48.222246499999983, -23.473670699999957 ], [ -48.223473399999932, -23.474469099999965 ], [ -48.226556199999948, -23.471600099999932 ], [ -48.22755959999995, -23.471772099999953 ], [ -48.229315799999938, -23.474023299999942 ], [ -48.230157499999962, -23.471526799999936 ], [ -48.231779199999949, -23.472011299999963 ], [ -48.234568499999966, -23.471217899999942 ], [ -48.235184, -23.472492099999954 ], [ -48.240237499999978, -23.474254599999938 ], [ -48.245033899999953, -23.478189599999951 ], [ -48.245424299999968, -23.475837399999932 ], [ -48.24833469999993, -23.476088399999981 ], [ -48.247059099999944, -23.474266199999931 ], [ -48.248318199999972, -23.473337899999933 ], [ -48.249477599999977, -23.473506499999928 ], [ -48.249750499999948, -23.47239 ], [ -48.248897399999976, -23.471688299999983 ], [ -48.249998099999971, -23.470705599999974 ], [ -48.253517099999954, -23.470902299999977 ], [ -48.251353199999983, -23.46950279999993 ], [ -48.251547199999948, -23.468827 ], [ -48.255065699999932, -23.467905199999961 ], [ -48.256063, -23.469775599999934 ], [ -48.257403299999964, -23.468485899999962 ], [ -48.257751599999949, -23.469262599999979 ], [ -48.258578299999954, -23.46897169999994 ], [ -48.258681199999955, -23.467524 ], [ -48.261636099999976, -23.466745099999969 ], [ -48.264591, -23.467096399999946 ], [ -48.264743299999964, -23.468395899999962 ], [ -48.26739589999994, -23.466635799999949 ], [ -48.267431199999976, -23.464599899999939 ], [ -48.263855499999977, -23.463568199999941 ], [ -48.26566239999994, -23.460456199999953 ], [ -48.264415799999938, -23.458143799999959 ], [ -48.267592699999966, -23.45411009999998 ], [ -48.266763499999968, -23.452901899999972 ], [ -48.26752769999996, -23.449865899999963 ], [ -48.268907899999931, -23.450111699999979 ], [ -48.27161609999996, -23.447801 ], [ -48.273607199999958, -23.448257099999978 ], [ -48.275381799999934, -23.447375399999942 ], [ -48.275500699999952, -23.448183299999982 ], [ -48.27582579999995, -23.447163899999964 ], [ -48.276565699999935, -23.44726739999993 ], [ -48.276321199999984, -23.446603399999958 ], [ -48.277647799999954, -23.446138099999928 ], [ -48.281088, -23.447056499999974 ], [ -48.28135089999995, -23.445979899999941 ], [ -48.282712299999957, -23.446094399999936 ], [ -48.284062699999936, -23.447347699999966 ], [ -48.285993499999961, -23.446589399999937 ], [ -48.286471699999936, -23.447446399999933 ], [ -48.288188399999967, -23.44733709999997 ], [ -48.288948, -23.448233199999947 ], [ -48.290132799999981, -23.447536699999944 ], [ -48.290284399999962, -23.44629139999995 ], [ -48.294340299999931, -23.445310799999959 ], [ -48.295083399999953, -23.442090199999939 ], [ -48.297083, -23.440844699999957 ], [ -48.297054199999934, -23.439102399999967 ], [ -48.295711599999947, -23.439260499999932 ], [ -48.295012699999972, -23.438114699999971 ], [ -48.293153099999984, -23.437769 ], [ -48.292726099999982, -23.435404799999958 ], [ -48.293766399999981, -23.434762399999954 ], [ -48.293842699999971, -23.433581799999956 ], [ -48.295419099999947, -23.433930799999928 ], [ -48.295656299999962, -23.431854399999963 ], [ -48.297528799999952, -23.430556599999932 ], [ -48.29726729999993, -23.429759699999977 ], [ -48.298591199999976, -23.428033299999981 ], [ -48.300848299999984, -23.426417299999969 ], [ -48.299462299999959, -23.419912199999942 ], [ -48.301232599999935, -23.418548399999963 ], [ -48.301823899999931, -23.415682199999935 ], [ -48.30376229999996, -23.41605409999994 ], [ -48.30570849999998, -23.415403099999935 ], [ -48.305920699999945, -23.416983799999969 ], [ -48.307902799999965, -23.416613 ], [ -48.310938699999951, -23.418178299999965 ], [ -48.311679399999946, -23.417483499999946 ], [ -48.311453099999937, -23.418923199999938 ], [ -48.312381199999948, -23.418607699999939 ], [ -48.313015299999961, -23.419875199999979 ], [ -48.313327799999968, -23.419004699999959 ], [ -48.314218899999958, -23.41968849999995 ], [ -48.315176, -23.419177 ], [ -48.315435899999954, -23.420605499999965 ], [ -48.316628899999955, -23.420849499999974 ], [ -48.315657099999953, -23.421179599999959 ], [ -48.316342099999986, -23.421805499999948 ], [ -48.315805299999965, -23.422152299999937 ], [ -48.317028799999946, -23.422371299999952 ], [ -48.316171299999951, -23.423141099999953 ], [ -48.317780299999981, -23.423548599999947 ], [ -48.31900289999993, -23.422554399999967 ], [ -48.320615299999986, -23.42334169999998 ], [ -48.321078799999952, -23.422532399999966 ], [ -48.322286199999951, -23.42315119999995 ], [ -48.32235849999995, -23.424845599999969 ], [ -48.325390599999935, -23.430052399999965 ], [ -48.324807799999974, -23.430628 ], [ -48.325757899999985, -23.430851299999972 ], [ -48.324785799999972, -23.431254399999943 ], [ -48.325021399999969, -23.432866499999932 ], [ -48.326337799999976, -23.431808199999978 ], [ -48.328275699999949, -23.433482 ], [ -48.329431099999965, -23.432387199999937 ], [ -48.329770699999983, -23.429119399999934 ], [ -48.332877799999949, -23.423326599999939 ], [ -48.346245799999963, -23.418906499999935 ], [ -48.348660499999937, -23.415825899999959 ], [ -48.353818599999954, -23.411851299999967 ], [ -48.361578399999985, -23.410904799999969 ], [ -48.362858299999971, -23.412236 ], [ -48.364101699999935, -23.41237689999997 ], [ -48.370495499999947, -23.407970099999943 ], [ -48.370638699999972, -23.406671199999948 ], [ -48.368761699999936, -23.403004099999976 ], [ -48.367909099999963, -23.39912529999998 ], [ -48.362962399999958, -23.393189799999959 ], [ -48.361424299999953, -23.384269299999971 ], [ -48.357668499999932, -23.379604099999938 ], [ -48.355985199999964, -23.375724299999945 ], [ -48.358896299999969, -23.369822799999952 ], [ -48.358943699999941, -23.366030299999977 ], [ -48.361399399999982, -23.360147499999982 ], [ -48.363351799999975, -23.350867199999982 ], [ -48.368016, -23.344374899999934 ], [ -48.369350199999985, -23.343258099999957 ], [ -48.371175199999982, -23.343908499999941 ], [ -48.37434849999994, -23.34245889999994 ], [ -48.384295, -23.344318399999963 ], [ -48.387076599999943, -23.343754499999932 ], [ -48.384276599999964, -23.340394899999978 ], [ -48.385541399999966, -23.330731299999968 ], [ -48.38362049999995, -23.327623499999959 ], [ -48.378501899999947, -23.324655199999938 ], [ -48.377219599999933, -23.322813099999962 ], [ -48.376983699999982, -23.319869899999958 ], [ -48.379789, -23.31631909999993 ], [ -48.379502399999978, -23.315111 ], [ -48.370909499999982, -23.309028799999965 ], [ -48.366999, -23.308540599999958 ], [ -48.363856699999985, -23.304646499999933 ], [ -48.359054599999979, -23.302274099999977 ], [ -48.358346899999958, -23.300154599999928 ], [ -48.35947729999998, -23.296257899999944 ], [ -48.364141, -23.293543299999953 ], [ -48.364468299999942, -23.29232479999996 ], [ -48.356462299999976, -23.286612399999967 ], [ -48.353871099999935, -23.286865099999943 ], [ -48.351873499999954, -23.289408599999945 ], [ -48.350287599999945, -23.285345199999938 ], [ -48.347773199999949, -23.282767599999943 ], [ -48.338833399999942, -23.282011 ], [ -48.335622299999955, -23.283917599999938 ], [ -48.334974, -23.283611699999938 ], [ -48.335162299999979, -23.282172299999957 ], [ -48.336530599999946, -23.280723199999954 ], [ -48.337361099999953, -23.276663 ], [ -48.342266, -23.271388399999978 ], [ -48.342117499999972, -23.270000799999934 ], [ -48.339030399999956, -23.269844899999953 ], [ -48.336949899999979, -23.268 ], [ -48.327024499999936, -23.269009899999958 ], [ -48.31926059999995, -23.265302499999962 ], [ -48.310476, -23.264902799999959 ], [ -48.308686699999953, -23.261905499999955 ], [ -48.305943599999978, -23.259877099999983 ], [ -48.304011199999934, -23.260034899999937 ], [ -48.303095699999972, -23.258796 ], [ -48.300355299999978, -23.257879 ], [ -48.298125499999969, -23.258038599999963 ], [ -48.29040729999997, -23.260135699999978 ], [ -48.289091699999972, -23.262884799999938 ], [ -48.28748539999998, -23.264288 ], [ -48.279617299999984, -23.264230199999929 ], [ -48.27690709999996, -23.265348399999937 ], [ -48.273133399999949, -23.273702199999946 ], [ -48.276230399999974, -23.278239299999939 ], [ -48.276843699999972, -23.284125899999935 ], [ -48.273266199999966, -23.288414099999954 ], [ -48.270644699999934, -23.288249399999927 ], [ -48.267657099999951, -23.281829199999947 ], [ -48.263944099999947, -23.278408799999966 ], [ -48.260846399999934, -23.277242299999955 ], [ -48.258513, -23.277639499999964 ], [ -48.255889299999978, -23.279623399999934 ], [ -48.25178649999998, -23.280971 ], [ -48.241431699999964, -23.280234699999937 ], [ -48.238874599999974, -23.283387599999969 ], [ -48.239391699999942, -23.28607 ], [ -48.237617399999976, -23.290548199999932 ], [ -48.229190699999947, -23.292489099999955 ], [ -48.227114, -23.294519299999934 ], [ -48.224874199999931, -23.299207 ], [ -48.221270799999957, -23.297314799999981 ], [ -48.219061299999964, -23.298566199999982 ], [ -48.214884799999936, -23.297391599999969 ], [ -48.212529899999936, -23.30244179999994 ], [ -48.211243399999944, -23.303162899999961 ], [ -48.20959419999997, -23.301644599999975 ], [ -48.205793799999981, -23.300282 ], [ -48.203298099999984, -23.296385899999962 ], [ -48.194107899999949, -23.29474179999994 ], [ -48.19276629999996, -23.291219199999944 ], [ -48.190094899999963, -23.290876899999944 ], [ -48.189936299999943, -23.287712 ], [ -48.188967899999966, -23.28575619999998 ], [ -48.185742799999957, -23.285392399999978 ], [ -48.183486899999934, -23.281757899999945 ], [ -48.184738799999934, -23.278933 ], [ -48.184098699999936, -23.276359499999955 ], [ -48.178685499999972, -23.27216379999993 ], [ -48.176960899999983, -23.274521299999947 ], [ -48.175617099999954, -23.27440329999996 ], [ -48.173880699999984, -23.271537299999977 ], [ -48.168939099999932, -23.269498399999975 ], [ -48.162197899999967, -23.261663299999952 ], [ -48.159095699999966, -23.260516399999972 ], [ -48.154245599999967, -23.262345699999969 ], [ -48.151787799999966, -23.265291899999966 ], [ -48.146855099999982, -23.266454799999963 ], [ -48.140752, -23.265864499999964 ], [ -48.139404499999955, -23.268018699999971 ], [ -48.138460099999975, -23.27311 ], [ -48.136783099999946, -23.275704399999938 ], [ -48.137073499999985, -23.277488499999947 ], [ -48.138991399999952, -23.280258 ], [ -48.139087599999982, -23.283458199999927 ], [ -48.137118599999951, -23.283164499999941 ], [ -48.134516699999949, -23.28465019999993 ], [ -48.129345699999931, -23.28551559999994 ], [ -48.125429099999963, -23.287861699999951 ], [ -48.123591399999953, -23.289493499999935 ], [ -48.121911099999977, -23.29454549999997 ], [ -48.117786199999955, -23.29770039999994 ], [ -48.116528699999947, -23.300367799999947 ], [ -48.110528199999976, -23.301631399999962 ], [ -48.109375199999931, -23.302550899999972 ], [ -48.108347499999979, -23.304153499999927 ], [ -48.108633599999962, -23.313350599999978 ], [ -48.104780199999936, -23.31633979999998 ], [ -48.102618399999983, -23.321297799999968 ], [ -48.099223299999949, -23.322237499999972 ], [ -48.096474, -23.320065099999965 ], [ -48.093453199999942, -23.321965199999966 ], [ -48.092508299999963, -23.318956399999934 ], [ -48.091875499999958, -23.318839 ], [ -48.087267299999951, -23.32409169999994 ], [ -48.086881, -23.327833099999964 ], [ -48.084970699999985, -23.328208399999937 ], [ -48.082075, -23.326778799999943 ], [ -48.081274599999972, -23.327348799999982 ], [ -48.079984599999932, -23.336399099999937 ], [ -48.082537, -23.339565599999958 ], [ -48.079989, -23.341799699999967 ], [ -48.080822199999943, -23.345883 ], [ -48.082552499999963, -23.347226499999977 ], [ -48.082929199999967, -23.349694 ], [ -48.086011799999937, -23.351289 ], [ -48.087619199999949, -23.353660699999978 ], [ -48.090986799999939, -23.353405899999927 ], [ -48.091788199999939, -23.355061599999942 ], [ -48.087950399999954, -23.358232499999929 ], [ -48.08510119999994, -23.361946899999964 ], [ -48.081411699999933, -23.370305 ], [ -48.08156, -23.371239 ], [ -48.083369699999935, -23.372543299999961 ], [ -48.08274, -23.373360699999978 ], [ -48.077715, -23.376175199999977 ], [ -48.071432199999947, -23.377182299999959 ], [ -48.067002299999956, -23.381589599999927 ], [ -48.064911399999971, -23.381320699999947 ], [ -48.064003, -23.382304699999963 ], [ -48.059749, -23.381849699999975 ], [ -48.056493699999976, -23.387013499999966 ], [ -48.052993, -23.389432199999931 ], [ -48.052076199999931, -23.391844399999968 ], [ -48.052203899999938, -23.39686 ], [ -48.051149399999986, -23.399240799999973 ], [ -48.051609099999951, -23.401151 ], [ -48.05046219999997, -23.404848 ], [ -48.050411099999963, -23.408739599999933 ], [ -48.051859699999966, -23.411371799999984 ], [ -48.051327, -23.41770189999994 ], [ -48.048498799999948, -23.421366599999942 ], [ -48.048752399999955, -23.424291799999935 ], [ -48.049779099999967, -23.424217399999975 ], [ -48.052353099999948, -23.42076069999996 ], [ -48.058096499999976, -23.420283099999949 ], [ -48.059387799999968, -23.417604399999959 ], [ -48.063995899999952, -23.418682099999955 ], [ -48.064993399999935, -23.420440799999938 ], [ -48.069315, -23.420044699999949 ], [ -48.071443, -23.418490499999962 ], [ -48.07338649999997, -23.418278799999939 ], [ -48.074408799999958, -23.419507599999974 ], [ -48.078246199999967, -23.418792499999938 ], [ -48.080671099999961, -23.424399699999981 ], [ -48.085487799999953, -23.428646 ], [ -48.085533599999962, -23.43352109999995 ], [ -48.087131299999953, -23.43687129999995 ], [ -48.094501499999978, -23.440842199999963 ], [ -48.097808199999974, -23.443761099999961 ], [ -48.102328799999952, -23.445664 ], [ -48.107661199999939, -23.45071919999998 ], [ -48.113976, -23.451093299999968 ], [ -48.115778299999931, -23.453605399999958 ], [ -48.116173299999957, -23.456750199999931 ], [ -48.118296499999985, -23.458741799999927 ], [ -48.122468, -23.459302299999933 ], [ -48.126134699999966, -23.458835299999976 ], [ -48.136155699999961, -23.460642199999938 ], [ -48.139909599999953, -23.46442019999995 ], [ -48.145093699999961, -23.463620899999967 ], [ -48.151301799999942, -23.466222699999946 ], [ -48.153534599999944, -23.471601799999974 ], [ -48.160110699999962, -23.475510899999961 ], [ -48.167948799999976, -23.477202199999965 ], [ -48.167673399999956, -23.479713 ], [ -48.166056, -23.48264249999994 ], [ -48.16654479999994, -23.485130399999946 ], [ -48.167552899999976, -23.485931 ], [ -48.167168099999969, -23.48716909999996 ], [ -48.168202299999962, -23.488353899999936 ], [ -48.167742299999986, -23.489364199999955 ], [ -48.174487399999975, -23.493474799999944 ], [ -48.174579, -23.494877 ] ] ] ] } }
]
}
