{
"type": "FeatureCollection",
"name": "ER_REGIAO_Ouro Verde",
"crs": { "type": "name", "properties": { "name": "urn:ogc:def:crs:EPSG::4674" } },
"xy_coordinate_resolution": 1e-15,
"features": [
{ "type": "Feature", "properties": { "fid": 585, "NM_REGIAO": "Sudeste", "NM_UF": "São Paulo", "NM_MUN": "Ouro Verde", "NM_DIST": "Ouro Verde", "CD_SUBDIST": "35348070500", "ER_REGIAO": "Ouro Verde", "ER_REGIAO_CIDADE": "Ouro Verde_Presidente Prudente" }, "geometry": { "type": "MultiPolygon", "coordinates": [ [ [ [ -51.7698082, -21.4809951 ], [ -51.7683102, -21.475501 ], [ -51.7659246, -21.471565 ], [ -51.7650057, -21.4665977 ], [ -51.7599426, -21.4603294 ], [ -51.7576237, -21.4595591 ], [ -51.7573111, -21.4536319 ], [ -51.7521075, -21.4484826 ], [ -51.75326, -21.4483178 ], [ -51.7548391, -21.4450914 ], [ -51.7540747, -21.4414713 ], [ -51.7550239, -21.4344596 ], [ -51.7541697, -21.4302946 ], [ -51.7595505, -21.4224473 ], [ -51.7609219, -21.4171613 ], [ -51.763071, -21.4149193 ], [ -51.7646755, -21.4050683 ], [ -51.7680046, -21.3993898 ], [ -51.7669159, -21.397676 ], [ -51.7671462, -21.394876 ], [ -51.7729836, -21.3882901 ], [ -51.7699538, -21.3853975 ], [ -51.7655134, -21.3875129 ], [ -51.7641703, -21.3874247 ], [ -51.7624296, -21.3897655 ], [ -51.7582795, -21.3892696 ], [ -51.7493393, -21.3912144 ], [ -51.7415965, -21.3911672 ], [ -51.7346476, -21.3921125 ], [ -51.7213416, -21.3956214 ], [ -51.7187908, -21.3977811 ], [ -51.7158414, -21.3982744 ], [ -51.7116454, -21.4020182 ], [ -51.7085919, -21.4028765 ], [ -51.7005112, -21.4077962 ], [ -51.6906231, -21.410584 ], [ -51.6889852, -21.4134669 ], [ -51.6893491, -21.4154126 ], [ -51.6861765, -21.4200642 ], [ -51.680707, -21.4251958 ], [ -51.6789851, -21.4292175 ], [ -51.6778653, -21.4303023 ], [ -51.6690852, -21.4332339 ], [ -51.6688376, -21.4363706 ], [ -51.6724565, -21.4446897 ], [ -51.670069, -21.4526175 ], [ -51.669727, -21.4566492 ], [ -51.6756943, -21.4662944 ], [ -51.6760861, -21.4690916 ], [ -51.6795962, -21.4775228 ], [ -51.6795082, -21.4824029 ], [ -51.6777958, -21.4871701 ], [ -51.6736093, -21.4922089 ], [ -51.6716489, -21.4968887 ], [ -51.6609001, -21.4966466 ], [ -51.6550391, -21.4954751 ], [ -51.6518177, -21.5011731 ], [ -51.6509567, -21.5051992 ], [ -51.6466556, -21.5114423 ], [ -51.6471885, -21.5159971 ], [ -51.648464, -21.5193312 ], [ -51.6511413, -21.5226001 ], [ -51.6549119, -21.5251839 ], [ -51.6576633, -21.5254726 ], [ -51.6595277, -21.5266522 ], [ -51.6625003, -21.5312818 ], [ -51.6641932, -21.5372129 ], [ -51.6676542, -21.5422888 ], [ -51.670854, -21.5490479 ], [ -51.6778319, -21.5545195 ], [ -51.6819394, -21.5620652 ], [ -51.6875026, -21.5630851 ], [ -51.6910376, -21.565216 ], [ -51.6913307, -21.5672788 ], [ -51.6925576, -21.5686446 ], [ -51.6921454, -21.5724686 ], [ -51.6935786, -21.5759638 ], [ -51.6936572, -21.5787359 ], [ -51.69509, -21.5815901 ], [ -51.7023979, -21.5880001 ], [ -51.7042915, -21.5885628 ], [ -51.7052638, -21.5901845 ], [ -51.7050886, -21.5920722 ], [ -51.7064521, -21.5925084 ], [ -51.7106281, -21.5909516 ], [ -51.7120892, -21.5916665 ], [ -51.7128306, -21.5943251 ], [ -51.7140203, -21.5959799 ], [ -51.7160592, -21.5961546 ], [ -51.7167459, -21.5983838 ], [ -51.7178009, -21.597941 ], [ -51.7178206, -21.5952908 ], [ -51.7190594, -21.5945618 ], [ -51.7215883, -21.5968544 ], [ -51.7238878, -21.5946326 ], [ -51.7248787, -21.5966464 ], [ -51.7273341, -21.597288 ], [ -51.7281594, -21.5966932 ], [ -51.7273717, -21.5939039 ], [ -51.727934, -21.5930249 ], [ -51.7289721, -21.5935809 ], [ -51.7295387, -21.5957291 ], [ -51.7312934, -21.5935708 ], [ -51.7310343, -21.5918901 ], [ -51.7358293, -21.5929993 ], [ -51.7382084, -21.5926028 ], [ -51.7406643, -21.5910831 ], [ -51.7406472, -21.594141 ], [ -51.7415316, -21.5944734 ], [ -51.7422055, -21.5941034 ], [ -51.742466, -21.591758 ], [ -51.7470257, -21.5925836 ], [ -51.7476566, -21.5944766 ], [ -51.7499358, -21.593707 ], [ -51.7506056, -21.5946722 ], [ -51.7494828, -21.595666 ], [ -51.7496021, -21.5966286 ], [ -51.7544678, -21.6007295 ], [ -51.7573675, -21.5997939 ], [ -51.7587651, -21.6002717 ], [ -51.7573676, -21.6019038 ], [ -51.7580207, -21.6027876 ], [ -51.7621034, -21.602988 ], [ -51.7605935, -21.6008188 ], [ -51.7613892, -21.599796 ], [ -51.7646175, -21.6022885 ], [ -51.7651801, -21.6035906 ], [ -51.7674371, -21.6027138 ], [ -51.7676227, -21.6038138 ], [ -51.7712608, -21.6064725 ], [ -51.7734514, -21.6064521 ], [ -51.7748813, -21.6047994 ], [ -51.776247, -21.6045047 ], [ -51.7779234, -21.6070581 ], [ -51.7796695, -21.6074729 ], [ -51.7805457, -21.6062304 ], [ -51.7795961, -21.6039466 ], [ -51.7866099, -21.599959 ], [ -51.7877547, -21.5950051 ], [ -51.7901808, -21.595011 ], [ -51.7940545, -21.597085 ], [ -51.7953342, -21.5959271 ], [ -51.7943408, -21.5936386 ], [ -51.7950473, -21.5932887 ], [ -51.7997483, -21.5961955 ], [ -51.8043955, -21.5967703 ], [ -51.8069351, -21.594852 ], [ -51.809989, -21.5954703 ], [ -51.808168, -21.5931337 ], [ -51.8084359, -21.592317 ], [ -51.8114941, -21.5935253 ], [ -51.817919, -21.5926173 ], [ -51.819179, -21.5880041 ], [ -51.8189921, -21.585783 ], [ -51.8216052, -21.5853625 ], [ -51.821354, -21.5833252 ], [ -51.8220488, -21.5828529 ], [ -51.8246292, -21.5843894 ], [ -51.8266789, -21.5826262 ], [ -51.8289148, -21.5829718 ], [ -51.8291987, -21.5811561 ], [ -51.8312733, -21.5799737 ], [ -51.8319087, -21.5805616 ], [ -51.830808, -21.5824527 ], [ -51.8330907, -21.5833587 ], [ -51.8353593, -21.5826762 ], [ -51.8368852, -21.5837371 ], [ -51.8377086, -21.5810014 ], [ -51.8405124, -21.5815479 ], [ -51.8414343, -21.5789034 ], [ -51.8427607, -21.5783871 ], [ -51.8413146, -21.5726535 ], [ -51.8387023, -21.566681 ], [ -51.8384202, -21.5626514 ], [ -51.8336038, -21.5559678 ], [ -51.8338707, -21.5474898 ], [ -51.8310661, -21.5443662 ], [ -51.8303179, -21.5409255 ], [ -51.828181, -21.5386148 ], [ -51.8277371, -21.5353594 ], [ -51.8240633, -21.5327363 ], [ -51.8227585, -21.527213 ], [ -51.8202581, -21.5253489 ], [ -51.7974866, -21.5191025 ], [ -51.7941758, -21.51634 ], [ -51.7905667, -21.5091884 ], [ -51.7786719, -21.5062325 ], [ -51.778375, -21.5047473 ], [ -51.7792311, -21.5037937 ], [ -51.7835135, -21.5028486 ], [ -51.7851475, -21.5018936 ], [ -51.786347, -21.4999336 ], [ -51.7849006, -21.4965945 ], [ -51.7824486, -21.4946546 ], [ -51.7817366, -21.4900534 ], [ -51.7725661, -21.4844867 ], [ -51.7698082, -21.4809951 ] ] ] ] } }
]
}
