{
"type": "FeatureCollection",
"name": "ER_REGIAO_Santo André_Santo André",
"crs": { "type": "name", "properties": { "name": "urn:ogc:def:crs:EPSG::4674" } },
"xy_coordinate_resolution": 1e-15,
"features": [
{ "type": "Feature", "properties": { "fid": 791, "NM_REGIAO": "Sudeste", "NM_UF": "São Paulo", "NM_MUN": "Santo André", "NM_DIST": "Santo André", "CD_SUBDIST": "35478090500", "ER_REGIAO": "Santo André_Santo André", "ER_REGIAO_CIDADE": "Santo André_Santo André_Osasco" }, "geometry": { "type": "MultiPolygon", "coordinates": [ [ [ [ -46.5185977, -23.7178776 ], [ -46.521869, -23.714685 ], [ -46.520402, -23.711507 ], [ -46.517271, -23.709741 ], [ -46.517673, -23.707077 ], [ -46.516593, -23.705741 ], [ -46.517752, -23.704135 ], [ -46.51931, -23.703658 ], [ -46.520069, -23.700612 ], [ -46.522429, -23.702714 ], [ -46.523749, -23.701351 ], [ -46.529141, -23.703426 ], [ -46.530143, -23.701641 ], [ -46.533399, -23.700151 ], [ -46.534306, -23.697652 ], [ -46.53686, -23.696316 ], [ -46.537655, -23.690475 ], [ -46.541427, -23.685729 ], [ -46.544796, -23.683805 ], [ -46.549754, -23.68475 ], [ -46.553335, -23.68355 ], [ -46.554658, -23.680174 ], [ -46.553189, -23.676557 ], [ -46.554011, -23.671816 ], [ -46.553212, -23.667263 ], [ -46.563653, -23.652203 ], [ -46.5650411, -23.6508234 ], [ -46.5672136, -23.6501626 ], [ -46.564812, -23.64681 ], [ -46.561892, -23.64568 ], [ -46.5605988, -23.6437159 ], [ -46.557851, -23.645808 ], [ -46.555796, -23.648832 ], [ -46.55474, -23.644113 ], [ -46.5516786, -23.6425345 ], [ -46.55166, -23.639194 ], [ -46.550744, -23.638143 ], [ -46.549247, -23.629228 ], [ -46.547972, -23.626932 ], [ -46.544989, -23.624569 ], [ -46.5484, -23.618966 ], [ -46.551159, -23.616667 ], [ -46.550315, -23.616028 ], [ -46.545406, -23.615848 ], [ -46.546146, -23.611242 ], [ -46.544646, -23.610843 ], [ -46.548043, -23.606092 ], [ -46.546818, -23.605665 ], [ -46.544767, -23.607989 ], [ -46.534495, -23.614357 ], [ -46.521504, -23.613934 ], [ -46.517413, -23.6176 ], [ -46.513226, -23.618925 ], [ -46.509833, -23.62375 ], [ -46.506231, -23.625781 ], [ -46.504601, -23.625668 ], [ -46.503719, -23.626811 ], [ -46.5029348, -23.6347209 ], [ -46.5091114, -23.636846 ], [ -46.512373, -23.6410183 ], [ -46.521725, -23.641267 ], [ -46.525433, -23.648515 ], [ -46.523422, -23.649901 ], [ -46.52635, -23.653829 ], [ -46.519409, -23.656731 ], [ -46.502121, -23.660828 ], [ -46.497257, -23.660397 ], [ -46.497241, -23.661063 ], [ -46.492703, -23.660184 ], [ -46.492574, -23.660955 ], [ -46.48992, -23.661793 ], [ -46.489181, -23.664206 ], [ -46.486855, -23.665202 ], [ -46.485814, -23.666816 ], [ -46.485161, -23.669401 ], [ -46.481633, -23.671814 ], [ -46.480281, -23.68072 ], [ -46.483332, -23.685016 ], [ -46.483048, -23.687354 ], [ -46.485294, -23.689037 ], [ -46.486102, -23.693825 ], [ -46.489146, -23.694924 ], [ -46.491144, -23.697905 ], [ -46.490239, -23.700211 ], [ -46.490887, -23.705269 ], [ -46.489054, -23.706709 ], [ -46.491204, -23.707806 ], [ -46.491748, -23.708967 ], [ -46.489812, -23.711392 ], [ -46.483365, -23.711432 ], [ -46.483448, -23.71596 ], [ -46.48175, -23.717814 ], [ -46.478111, -23.719584 ], [ -46.4765103, -23.719483 ], [ -46.4749833, -23.7182889 ], [ -46.473866, -23.720659 ], [ -46.469799, -23.72398 ], [ -46.468854, -23.725859 ], [ -46.469787, -23.727112 ], [ -46.46875, -23.732178 ], [ -46.470163, -23.73551 ], [ -46.46987, -23.736642 ], [ -46.471395, -23.737975 ], [ -46.471497, -23.73905 ], [ -46.467831, -23.740823 ], [ -46.46352, -23.746501 ], [ -46.457828, -23.750658 ], [ -46.456892, -23.752109 ], [ -46.457997, -23.754929 ], [ -46.457627, -23.756008 ], [ -46.454442, -23.756789 ], [ -46.453339, -23.757824 ], [ -46.45307, -23.759685 ], [ -46.457891, -23.763552 ], [ -46.456958, -23.766052 ], [ -46.457603, -23.768207 ], [ -46.460214, -23.767205 ], [ -46.459803, -23.769929 ], [ -46.460848, -23.77276 ], [ -46.461916, -23.77306 ], [ -46.460267, -23.775337 ], [ -46.461797, -23.776301 ], [ -46.462131, -23.778267 ], [ -46.463828, -23.778024 ], [ -46.464569, -23.77896 ], [ -46.467779, -23.777525 ], [ -46.471136, -23.773971 ], [ -46.474326, -23.772678 ], [ -46.476794, -23.766939 ], [ -46.484894, -23.761735 ], [ -46.49515, -23.750559 ], [ -46.496527, -23.74782 ], [ -46.499366, -23.746026 ], [ -46.50125, -23.746236 ], [ -46.50232, -23.745014 ], [ -46.506465, -23.743324 ], [ -46.50753, -23.745163 ], [ -46.51171, -23.747685 ], [ -46.513547, -23.746781 ], [ -46.522664, -23.750092 ], [ -46.527816, -23.74861 ], [ -46.526445, -23.745888 ], [ -46.521115, -23.745817 ], [ -46.517537, -23.742204 ], [ -46.518476, -23.740026 ], [ -46.517752, -23.737701 ], [ -46.520366, -23.735082 ], [ -46.517838, -23.731158 ], [ -46.516879, -23.727813 ], [ -46.518395, -23.72383 ], [ -46.517366, -23.720335 ], [ -46.5185977, -23.7178776 ] ] ] ] } }
]
}
