{
"type": "FeatureCollection",
"name": "ER_REGIAO_Embu-Guaçu_Embu-Guaçu",
"crs": { "type": "name", "properties": { "name": "urn:ogc:def:crs:EPSG::4674" } },
"xy_coordinate_resolution": 1e-15,
"features": [
{ "type": "Feature", "properties": { "fid": 245, "NM_REGIAO": "Sudeste", "NM_UF": "São Paulo", "NM_MUN": "Embu-Guaçu", "NM_DIST": "Embu-Guaçu", "CD_SUBDIST": "35151030500", "ER_REGIAO": "Embu-Guaçu_Embu-Guaçu", "ER_REGIAO_CIDADE": "Embu-Guaçu_Embu-Guaçu_Osasco" }, "geometry": { "type": "MultiPolygon", "coordinates": [ [ [ [ -46.8134581, -23.8794612 ], [ -46.8114878, -23.8811553 ], [ -46.8119394, -23.8817198 ], [ -46.8103392, -23.8825392 ], [ -46.8085332, -23.8864565 ], [ -46.806615, -23.887471 ], [ -46.807375, -23.889199 ], [ -46.806714, -23.889186 ], [ -46.80688, -23.890887 ], [ -46.80406, -23.892884 ], [ -46.804951, -23.893108 ], [ -46.804861, -23.897123 ], [ -46.806903, -23.89982 ], [ -46.806718, -23.901322 ], [ -46.808296, -23.902538 ], [ -46.808578, -23.904396 ], [ -46.810548, -23.905541 ], [ -46.811571, -23.907734 ], [ -46.811879, -23.911268 ], [ -46.810696, -23.911204 ], [ -46.811751, -23.912257 ], [ -46.811066, -23.915099 ], [ -46.811818, -23.917103 ], [ -46.809851, -23.91796 ], [ -46.810748, -23.918606 ], [ -46.810684, -23.920464 ], [ -46.812885, -23.9196008 ], [ -46.8157866, -23.921469 ], [ -46.8211924, -23.928288 ], [ -46.8234801, -23.9292061 ], [ -46.8247704, -23.9279512 ], [ -46.8277685, -23.9315571 ], [ -46.8303266, -23.9322317 ], [ -46.832821, -23.9342317 ], [ -46.8364606, -23.9340996 ], [ -46.8380109, -23.9357621 ], [ -46.8403453, -23.934708 ], [ -46.841133, -23.9368399 ], [ -46.8426167, -23.9379675 ], [ -46.8442116, -23.9349222 ], [ -46.8463741, -23.9361899 ], [ -46.8491328, -23.9362278 ], [ -46.8491658, -23.9379052 ], [ -46.849924, -23.9385124 ], [ -46.8536738, -23.9379009 ], [ -46.8544029, -23.9396915 ], [ -46.8561378, -23.938146 ], [ -46.8570565, -23.9390525 ], [ -46.8584161, -23.9387624 ], [ -46.8597421, -23.9355409 ], [ -46.8624474, -23.9359578 ], [ -46.8637562, -23.9334728 ], [ -46.8670745, -23.9340454 ], [ -46.8698575, -23.9359577 ], [ -46.8722007, -23.9354567 ], [ -46.8735994, -23.929694 ], [ -46.8790807, -23.9282436 ], [ -46.8845733, -23.9309253 ], [ -46.8866654, -23.9338869 ], [ -46.8901345, -23.933204 ], [ -46.8926158, -23.9359418 ], [ -46.8934278, -23.9381466 ], [ -46.8983338, -23.9387377 ], [ -46.8993176, -23.9406279 ], [ -46.9029829, -23.9398676 ], [ -46.9038117, -23.9418611 ], [ -46.904964, -23.9412251 ], [ -46.9075623, -23.9360376 ], [ -46.9097906, -23.9365288 ], [ -46.9116975, -23.9353669 ], [ -46.9121832, -23.9343849 ], [ -46.9106726, -23.9353504 ], [ -46.9076854, -23.9349968 ], [ -46.9047801, -23.9288175 ], [ -46.9024191, -23.9271282 ], [ -46.8985166, -23.9277564 ], [ -46.8979999, -23.9241677 ], [ -46.8964445, -23.9207602 ], [ -46.890505, -23.9171054 ], [ -46.8902676, -23.9136086 ], [ -46.8887876, -23.9122148 ], [ -46.889285, -23.9063355 ], [ -46.8880467, -23.9039442 ], [ -46.8887517, -23.9012802 ], [ -46.8853869, -23.898438 ], [ -46.885017, -23.8969929 ], [ -46.8826978, -23.8961659 ], [ -46.8817047, -23.8936654 ], [ -46.8806113, -23.8933088 ], [ -46.878077, -23.8941928 ], [ -46.875809, -23.893562 ], [ -46.8739589, -23.894878 ], [ -46.8700558, -23.8948715 ], [ -46.8701977, -23.8917075 ], [ -46.8679873, -23.8902637 ], [ -46.8661517, -23.8868038 ], [ -46.8628677, -23.8873054 ], [ -46.8610267, -23.8863887 ], [ -46.8582027, -23.8781418 ], [ -46.8575286, -23.8768532 ], [ -46.8559427, -23.8762861 ], [ -46.8553376, -23.8729269 ], [ -46.8540947, -23.8720064 ], [ -46.8493944, -23.862481 ], [ -46.8495373, -23.8570053 ], [ -46.8484472, -23.856346 ], [ -46.8508054, -23.8537963 ], [ -46.8542222, -23.854668 ], [ -46.8557473, -23.85348 ], [ -46.8576973, -23.854874 ], [ -46.8612033, -23.8520385 ], [ -46.8623531, -23.8534171 ], [ -46.8652611, -23.8539966 ], [ -46.8700311, -23.8521755 ], [ -46.8719784, -23.8532451 ], [ -46.8757249, -23.8505333 ], [ -46.8760365, -23.8489947 ], [ -46.8773481, -23.8485763 ], [ -46.8780518, -23.8470197 ], [ -46.8811148, -23.8464751 ], [ -46.8846652, -23.8417763 ], [ -46.8915848, -23.8413007 ], [ -46.8924598, -23.8387486 ], [ -46.8956205, -23.8376702 ], [ -46.8954618, -23.8365482 ], [ -46.8902912, -23.8347941 ], [ -46.8875482, -23.8326617 ], [ -46.8859922, -23.8293864 ], [ -46.8830382, -23.8281128 ], [ -46.8841093, -23.8235597 ], [ -46.8856456, -23.8211511 ], [ -46.8845099, -23.8176123 ], [ -46.880082, -23.8166285 ], [ -46.8783363, -23.8110111 ], [ -46.8788325, -23.8089689 ], [ -46.8812528, -23.8062399 ], [ -46.8818871, -23.8043092 ], [ -46.8792774, -23.7988417 ], [ -46.8778449, -23.7978921 ], [ -46.8720213, -23.7971811 ], [ -46.8721538, -23.7994586 ], [ -46.8698435, -23.7990902 ], [ -46.8677709, -23.7998527 ], [ -46.8661563, -23.8015578 ], [ -46.8654776, -23.8045965 ], [ -46.8635183, -23.804563 ], [ -46.8626096, -23.801983 ], [ -46.8574205, -23.7996839 ], [ -46.8572924, -23.7964015 ], [ -46.855812, -23.7946457 ], [ -46.8496098, -23.7962669 ], [ -46.849014, -23.7927214 ], [ -46.8467541, -23.791474 ], [ -46.8441917, -23.7874068 ], [ -46.8443709, -23.7850071 ], [ -46.8427924, -23.7836294 ], [ -46.8399418, -23.7830336 ], [ -46.8394759, -23.7813784 ], [ -46.8400897, -23.7791686 ], [ -46.8391926, -23.7779588 ], [ -46.8358076, -23.7801863 ], [ -46.8336482, -23.7803309 ], [ -46.8309439, -23.7792586 ], [ -46.8278145, -23.7737254 ], [ -46.8236775, -23.7698853 ], [ -46.8236913, -23.7688163 ], [ -46.8206318, -23.7672254 ], [ -46.8174944, -23.7671531 ], [ -46.8146614, -23.7687043 ], [ -46.8135253, -23.767521 ], [ -46.8125679, -23.7681737 ], [ -46.8109262, -23.766579 ], [ -46.8080423, -23.7665066 ], [ -46.7997405, -23.7708667 ], [ -46.7962103, -23.7691583 ], [ -46.7931337, -23.7661607 ], [ -46.7905007, -23.7665244 ], [ -46.7877322, -23.7650425 ], [ -46.7861999, -23.7662646 ], [ -46.7842958, -23.7647653 ], [ -46.7812559, -23.7649205 ], [ -46.777421, -23.767175 ], [ -46.781492, -23.772055 ], [ -46.787589, -23.773553 ], [ -46.79008, -23.77608 ], [ -46.791018, -23.780014 ], [ -46.79022, -23.782615 ], [ -46.789134, -23.783325 ], [ -46.789797, -23.783523 ], [ -46.78974, -23.786067 ], [ -46.787949, -23.786994 ], [ -46.790271, -23.787479 ], [ -46.790043, -23.789576 ], [ -46.789513, -23.789169 ], [ -46.789167, -23.789946 ], [ -46.790593, -23.791222 ], [ -46.791451, -23.790855 ], [ -46.792338, -23.792919 ], [ -46.794405, -23.793917 ], [ -46.79646, -23.797516 ], [ -46.79625, -23.799461 ], [ -46.800471, -23.801561 ], [ -46.800378, -23.805179 ], [ -46.801766, -23.806136 ], [ -46.801936, -23.807939 ], [ -46.801221, -23.80972 ], [ -46.796832, -23.81103 ], [ -46.794459, -23.810632 ], [ -46.782306, -23.813274 ], [ -46.776964, -23.816819 ], [ -46.773346, -23.818155 ], [ -46.792933, -23.8394289 ], [ -46.7935768, -23.8429703 ], [ -46.7966725, -23.8459579 ], [ -46.79752, -23.850578 ], [ -46.8003123, -23.8522359 ], [ -46.8060672, -23.8503137 ], [ -46.8100162, -23.8510133 ], [ -46.8089245, -23.860411 ], [ -46.8097905, -23.8610686 ], [ -46.8101333, -23.8636033 ], [ -46.8128002, -23.8640045 ], [ -46.8122118, -23.8642322 ], [ -46.8128562, -23.8648966 ], [ -46.8122005, -23.864965 ], [ -46.8123909, -23.8659257 ], [ -46.8141657, -23.8695824 ], [ -46.8115857, -23.8711496 ], [ -46.8120065, -23.8721804 ], [ -46.810916, -23.872384 ], [ -46.8106035, -23.8733174 ], [ -46.8120942, -23.8740406 ], [ -46.8118963, -23.8751272 ], [ -46.8133333, -23.8765258 ], [ -46.8126235, -23.878299 ], [ -46.8134581, -23.8794612 ] ] ] ] } }
]
}
