{
"type": "FeatureCollection",
"name": "ER_REGIAO_Guararapes_Ribeiro do Vale",
"crs": { "type": "name", "properties": { "name": "urn:ogc:def:crs:EPSG::4674" } },
"xy_coordinate_resolution": 1e-15,
"features": [
{ "type": "Feature", "properties": { "fid": 298, "NM_REGIAO": "Sudeste", "NM_UF": "São Paulo", "NM_MUN": "Guararapes", "NM_DIST": "Ribeiro do Vale", "CD_SUBDIST": "35182061000", "ER_REGIAO": "Guararapes_Ribeiro do Vale", "ER_REGIAO_CIDADE": "Guararapes_Ribeiro do Vale_Araçatuba" }, "geometry": { "type": "MultiPolygon", "coordinates": [ [ [ [ -50.6868329, -21.0399752 ], [ -50.6802364, -21.0383953 ], [ -50.6758776, -21.0394527 ], [ -50.6703146, -21.0374842 ], [ -50.6677215, -21.03847 ], [ -50.6662112, -21.0405989 ], [ -50.6621553, -21.0425021 ], [ -50.6596555, -21.0419477 ], [ -50.6570384, -21.0424449 ], [ -50.6539207, -21.0408631 ], [ -50.6510387, -21.0412517 ], [ -50.6481042, -21.0426826 ], [ -50.644807, -21.0430514 ], [ -50.640758, -21.046718 ], [ -50.6351073, -21.0452155 ], [ -50.6350644, -21.0472929 ], [ -50.6390386, -21.0517595 ], [ -50.6433647, -21.0532903 ], [ -50.6489226, -21.0628118 ], [ -50.6540529, -21.0681195 ], [ -50.6597836, -21.0723735 ], [ -50.6678631, -21.0741241 ], [ -50.6800507, -21.0838911 ], [ -50.6785348, -21.0858334 ], [ -50.6786771, -21.088564 ], [ -50.6816535, -21.0956186 ], [ -50.6892053, -21.1035599 ], [ -50.6983149, -21.1104 ], [ -50.7004904, -21.1139378 ], [ -50.7019489, -21.1184675 ], [ -50.7012284, -21.123092 ], [ -50.7068076, -21.1274636 ], [ -50.7207681, -21.1286289 ], [ -50.7253621, -21.1328664 ], [ -50.7301732, -21.135688 ], [ -50.7416574, -21.1373696 ], [ -50.750078, -21.1299535 ], [ -50.7521215, -21.1295867 ], [ -50.7551544, -21.1311368 ], [ -50.7589119, -21.1293467 ], [ -50.7669724, -21.1246164 ], [ -50.7533581, -21.1021645 ], [ -50.7500455, -21.0992928 ], [ -50.7450261, -21.0971832 ], [ -50.7445607, -21.095656 ], [ -50.7492832, -21.0931585 ], [ -50.7608862, -21.0900663 ], [ -50.7620527, -21.0886734 ], [ -50.7649875, -21.087615 ], [ -50.7668778, -21.0881368 ], [ -50.7691884, -21.0872767 ], [ -50.7714949, -21.084847 ], [ -50.7749314, -21.0837106 ], [ -50.7746433, -21.0828409 ], [ -50.7764028, -21.0804647 ], [ -50.7795489, -21.0799316 ], [ -50.7805801, -21.0785142 ], [ -50.7816738, -21.0783104 ], [ -50.7838597, -21.0747312 ], [ -50.7843064, -21.0725184 ], [ -50.7859608, -21.0714882 ], [ -50.7867837, -21.0717669 ], [ -50.7926808, -21.0676571 ], [ -50.7952108, -21.0631977 ], [ -50.8022217, -21.0605571 ], [ -50.8001711, -21.0553251 ], [ -50.7981203, -21.0525828 ], [ -50.7991493, -21.0493779 ], [ -50.8017615, -21.0464788 ], [ -50.8006206, -21.0443003 ], [ -50.7970383, -21.0417655 ], [ -50.7966596, -21.0404404 ], [ -50.798639, -21.0358505 ], [ -50.8008527, -21.0338893 ], [ -50.8012508, -21.0293527 ], [ -50.8028573, -21.0272953 ], [ -50.8003995, -21.0225381 ], [ -50.8033076, -21.0205773 ], [ -50.8033587, -21.0180937 ], [ -50.8017745, -21.0158655 ], [ -50.801704, -21.0143882 ], [ -50.8046292, -21.0124737 ], [ -50.8016683, -21.0073138 ], [ -50.8016146, -21.0048715 ], [ -50.7989255, -21.0020884 ], [ -50.7980925, -20.9985661 ], [ -50.7983227, -20.9953552 ], [ -50.7959204, -20.9916699 ], [ -50.7973048, -20.9852212 ], [ -50.7079434, -21.0264197 ], [ -50.7015933, -21.0278439 ], [ -50.6955028, -21.0311493 ], [ -50.6903069, -21.0375687 ], [ -50.6868329, -21.0399752 ] ] ] ] } }
]
}
