{
"type": "FeatureCollection",
"name": "ER_REGIAO_Nova Guataporanga",
"crs": { "type": "name", "properties": { "name": "urn:ogc:def:crs:EPSG::4674" } },
"xy_coordinate_resolution": 1e-15,
"features": [
{ "type": "Feature", "properties": { "fid": 561, "NM_REGIAO": "Sudeste", "NM_UF": "São Paulo", "NM_MUN": "Nova Guataporanga", "NM_DIST": "Nova Guataporanga", "CD_SUBDIST": "35331060500", "ER_REGIAO": "Nova Guataporanga", "ER_REGIAO_CIDADE": "Nova Guataporanga_Presidente Prudente" }, "geometry": { "type": "MultiPolygon", "coordinates": [ [ [ [ -51.6778009, -21.309927 ], [ -51.6816446, -21.3036288 ], [ -51.6677993, -21.3061373 ], [ -51.6648135, -21.3049578 ], [ -51.6600888, -21.3002518 ], [ -51.6527899, -21.3011642 ], [ -51.650604, -21.299646 ], [ -51.6483394, -21.2944287 ], [ -51.6494666, -21.2895441 ], [ -51.6523962, -21.2845405 ], [ -51.6475859, -21.2846151 ], [ -51.6417604, -21.2863407 ], [ -51.6354011, -21.2932287 ], [ -51.6230911, -21.2970088 ], [ -51.6219509, -21.2982654 ], [ -51.6190347, -21.2992604 ], [ -51.615698, -21.3029517 ], [ -51.6149791, -21.3052071 ], [ -51.61562, -21.3083761 ], [ -51.6176155, -21.3106347 ], [ -51.6232525, -21.3133968 ], [ -51.6250355, -21.3168293 ], [ -51.6172884, -21.3227789 ], [ -51.6160683, -21.327035 ], [ -51.6167477, -21.3296618 ], [ -51.6200637, -21.3316275 ], [ -51.6208126, -21.3336157 ], [ -51.6209546, -21.3392119 ], [ -51.6222909, -21.3454867 ], [ -51.6194825, -21.3557383 ], [ -51.6218081, -21.356107 ], [ -51.6255629, -21.355382 ], [ -51.6325072, -21.3528625 ], [ -51.6417494, -21.3511592 ], [ -51.6437855, -21.3500333 ], [ -51.6524221, -21.3483733 ], [ -51.6667854, -21.3442317 ], [ -51.6698659, -21.3439233 ], [ -51.6744531, -21.3466874 ], [ -51.6760131, -21.3467451 ], [ -51.6751418, -21.3430994 ], [ -51.6727533, -21.3400752 ], [ -51.672994, -21.3378755 ], [ -51.6759469, -21.3318547 ], [ -51.6776471, -21.3219078 ], [ -51.6773663, -21.3189234 ], [ -51.6739742, -21.3151226 ], [ -51.6742831, -21.3133207 ], [ -51.6778009, -21.309927 ] ] ] ] } }
]
}
