{
"type": "FeatureCollection",
"name": "ER_REGIAO_Estiva Gerbi",
"crs": { "type": "name", "properties": { "name": "urn:ogc:def:crs:EPSG::4674" } },
"xy_coordinate_resolution": 1e-15,
"features": [
{ "type": "Feature", "properties": { "fid": 1042, "NM_REGIAO": "Sudeste", "NM_UF": "São Paulo", "NM_MUN": "Estiva Gerbi", "NM_DIST": "Estiva Gerbi", "CD_SUBDIST": "35573030500", "ER_REGIAO": "Estiva Gerbi", "ER_REGIAO_CIDADE": "Estiva Gerbi_São João da Boa Vista" }, "geometry": { "type": "MultiPolygon", "coordinates": [ [ [ [ -46.956849299999931, -22.295611699999938 ], [ -46.969557099999975, -22.295384299999967 ], [ -46.974688899999933, -22.27742429999995 ], [ -46.973778599999946, -22.270944 ], [ -46.977543299999979, -22.255720199999928 ], [ -46.978676399999983, -22.225005499999952 ], [ -46.983724199999983, -22.19992869999993 ], [ -46.981110299999955, -22.198967 ], [ -46.972832099999948, -22.200268299999948 ], [ -46.967813799999931, -22.19829249999998 ], [ -46.959154, -22.19814139999994 ], [ -46.952849799999967, -22.192445199999952 ], [ -46.953243199999974, -22.189788299999975 ], [ -46.955014, -22.188021299999946 ], [ -46.954767, -22.187042399999939 ], [ -46.950997699999959, -22.185008499999981 ], [ -46.94601629999994, -22.183511599999974 ], [ -46.938786399999969, -22.185252599999956 ], [ -46.929197899999963, -22.183874499999945 ], [ -46.923598799999979, -22.188174799999956 ], [ -46.914443399999982, -22.199809699999946 ], [ -46.915142, -22.20899819999994 ], [ -46.912660599999981, -22.215246899999954 ], [ -46.91063859999997, -22.215794399999936 ], [ -46.905133399999954, -22.212658 ], [ -46.905214, -22.210225499999979 ], [ -46.901218899999947, -22.204896099999928 ], [ -46.897081599999979, -22.20488469999998 ], [ -46.899994899999967, -22.245745099999965 ], [ -46.906624, -22.251042599999948 ], [ -46.908003299999962, -22.25631519999996 ], [ -46.910881299999971, -22.260070299999938 ], [ -46.912545499999965, -22.260888799999975 ], [ -46.913586299999963, -22.26306429999994 ], [ -46.91621269999996, -22.264752599999952 ], [ -46.918047099999967, -22.264894099999935 ], [ -46.918996599999957, -22.266515899999945 ], [ -46.922170299999948, -22.267045899999971 ], [ -46.924170799999956, -22.269571099999951 ], [ -46.956849299999931, -22.295611699999938 ] ] ] ] } }
]
}
