{
"type": "FeatureCollection",
"name": "ER_REGIAO_Cedral",
"crs": { "type": "name", "properties": { "name": "urn:ogc:def:crs:EPSG::4674" } },
"xy_coordinate_resolution": 1e-15,
"features": [
{ "type": "Feature", "properties": { "fid": 191, "NM_REGIAO": "Sudeste", "NM_UF": "São Paulo", "NM_MUN": "Cedral", "NM_DIST": "Cedral", "CD_SUBDIST": "35113000500", "ER_REGIAO": "Cedral", "ER_REGIAO_CIDADE": "Cedral_São José do Rio Preto" }, "geometry": { "type": "MultiPolygon", "coordinates": [ [ [ [ -49.301186, -20.883613 ], [ -49.295728, -20.877751 ], [ -49.289979, -20.875407 ], [ -49.281447, -20.877748 ], [ -49.278232, -20.879485 ], [ -49.275684, -20.882084 ], [ -49.27452, -20.882053 ], [ -49.269205, -20.87148 ], [ -49.258164, -20.863851 ], [ -49.255825, -20.861261 ], [ -49.256011, -20.854323 ], [ -49.257167, -20.851153 ], [ -49.246885, -20.846112 ], [ -49.2394859, -20.8434609 ], [ -49.2284779, -20.8429095 ], [ -49.2232986, -20.8390243 ], [ -49.215946, -20.8391863 ], [ -49.2108894, -20.8409652 ], [ -49.2068711, -20.840309 ], [ -49.2051912, -20.8390586 ], [ -49.2005915, -20.8316549 ], [ -49.2005182, -20.8290909 ], [ -49.1969901, -20.82527 ], [ -49.1903599, -20.8232875 ], [ -49.1804681, -20.8162002 ], [ -49.1769312, -20.8148192 ], [ -49.1727336, -20.8142654 ], [ -49.1695214, -20.8156625 ], [ -49.1678239, -20.8177758 ], [ -49.1663531, -20.8219638 ], [ -49.1635532, -20.8240731 ], [ -49.1567761, -20.8247084 ], [ -49.1487236, -20.8213006 ], [ -49.1418226, -20.8248053 ], [ -49.1440001, -20.826227 ], [ -49.1459666, -20.8292795 ], [ -49.147304, -20.8372262 ], [ -49.1491984, -20.8420503 ], [ -49.1492133, -20.8474807 ], [ -49.1550127, -20.8498757 ], [ -49.1576726, -20.8515226 ], [ -49.1583865, -20.8528534 ], [ -49.1613018, -20.8536454 ], [ -49.1663405, -20.8629341 ], [ -49.1671806, -20.8664781 ], [ -49.1690834, -20.8688135 ], [ -49.1725437, -20.8703702 ], [ -49.1753907, -20.8727653 ], [ -49.1804901, -20.8732492 ], [ -49.1841687, -20.8752316 ], [ -49.1806839, -20.8842086 ], [ -49.1811389, -20.8896444 ], [ -49.1839647, -20.8952116 ], [ -49.1864062, -20.8957513 ], [ -49.1937083, -20.9046736 ], [ -49.1964817, -20.9066611 ], [ -49.199547, -20.9074587 ], [ -49.207731, -20.9085634 ], [ -49.2130338, -20.9079846 ], [ -49.2155902, -20.9110271 ], [ -49.220304, -20.9143369 ], [ -49.2330253, -20.9145806 ], [ -49.2381156, -20.913606 ], [ -49.2430792, -20.9160276 ], [ -49.2481182, -20.9171945 ], [ -49.2483464, -20.9374249 ], [ -49.2531813, -20.9447086 ], [ -49.2489441, -20.9467495 ], [ -49.2458659, -20.9514963 ], [ -49.2430187, -20.9538315 ], [ -49.2446924, -20.9541051 ], [ -49.251713, -20.9585677 ], [ -49.2575229, -20.9585181 ], [ -49.2572843, -20.9608322 ], [ -49.2584417, -20.9620183 ], [ -49.2656089, -20.9659404 ], [ -49.2710939, -20.9674778 ], [ -49.272946, -20.9691201 ], [ -49.2766304, -20.9864492 ], [ -49.2749081, -20.9912728 ], [ -49.2741117, -20.9985833 ], [ -49.2751851, -21.0033896 ], [ -49.27497, -21.0065756 ], [ -49.2827298, -21.0175995 ], [ -49.2851876, -21.0178449 ], [ -49.2871564, -21.0192273 ], [ -49.2914109, -21.0160789 ], [ -49.2927421, -21.0131327 ], [ -49.2951098, -21.0107303 ], [ -49.2991514, -21.0080344 ], [ -49.3030018, -21.0076251 ], [ -49.3058006, -21.0106184 ], [ -49.3070522, -21.0109655 ], [ -49.3176085, -21.005493 ], [ -49.3197961, -21.0033523 ], [ -49.3219336, -21.0029037 ], [ -49.3230136, -20.9985636 ], [ -49.3244959, -20.9961387 ], [ -49.3242647, -20.9947568 ], [ -49.3291635, -20.9892192 ], [ -49.3343354, -20.9873542 ], [ -49.3359903, -20.9833973 ], [ -49.3377973, -20.9820312 ], [ -49.3513528, -20.9805896 ], [ -49.356322, -20.9836359 ], [ -49.3597856, -20.9836038 ], [ -49.3600844, -20.9774915 ], [ -49.3648334, -20.9737786 ], [ -49.3750341, -20.960292 ], [ -49.372321, -20.952009 ], [ -49.364555, -20.945833 ], [ -49.362404, -20.943011 ], [ -49.361494, -20.939988 ], [ -49.35647, -20.937741 ], [ -49.35197, -20.933454 ], [ -49.346019, -20.931584 ], [ -49.345077, -20.932275 ], [ -49.335641, -20.932792 ], [ -49.33161, -20.931713 ], [ -49.331573, -20.929245 ], [ -49.333679, -20.924643 ], [ -49.327653, -20.922038 ], [ -49.320801, -20.912047 ], [ -49.316, -20.909911 ], [ -49.315424, -20.908434 ], [ -49.316057, -20.904842 ], [ -49.314085, -20.894867 ], [ -49.308262, -20.890345 ], [ -49.303064, -20.889638 ], [ -49.301186, -20.883613 ] ] ] ] } }
]
}
