{
"type": "FeatureCollection",
"name": "ER_REGIAO_Iguape",
"crs": { "type": "name", "properties": { "name": "urn:ogc:def:crs:EPSG::4674" } },
"xy_coordinate_resolution": 1e-15,
"features": [
{ "type": "Feature", "properties": { "fid": 330, "NM_REGIAO": "Sudeste", "NM_UF": "São Paulo", "NM_MUN": "Iguape", "NM_DIST": "Iguape", "CD_SUBDIST": "35203010500", "ER_REGIAO": "Iguape", "ER_REGIAO_CIDADE": "Iguape_Baixada Santista" }, "geometry": { "type": "MultiPolygon", "coordinates": [ [ [ [ -47.573190799999963, -24.369559399999957 ], [ -47.56880179999996, -24.366492599999958 ], [ -47.56457039999998, -24.367011499999933 ], [ -47.56109669999995, -24.365684199999976 ], [ -47.560468599999979, -24.365986699999951 ], [ -47.560581399999933, -24.368426199999931 ], [ -47.556706799999972, -24.368230799999935 ], [ -47.55140339999997, -24.369957299999953 ], [ -47.550658799999951, -24.368128499999955 ], [ -47.545939499999974, -24.363964799999962 ], [ -47.545366, -24.36120109999996 ], [ -47.543810899999983, -24.35953939999996 ], [ -47.537827299999947, -24.357329399999969 ], [ -47.530769699999951, -24.362287399999957 ], [ -47.526939, -24.363958599999933 ], [ -47.518748099999982, -24.364339399999949 ], [ -47.513507499999946, -24.366103099999975 ], [ -47.504731799999945, -24.367012 ], [ -47.504428599999983, -24.368229799999938 ], [ -47.507948399999975, -24.374172099999953 ], [ -47.507487799999979, -24.375476699999979 ], [ -47.505728599999941, -24.376493 ], [ -47.501904499999966, -24.376809 ], [ -47.497446799999977, -24.375551599999937 ], [ -47.493833399999971, -24.372343399999977 ], [ -47.484020599999951, -24.368196799999964 ], [ -47.479890499999954, -24.369380199999966 ], [ -47.472516199999973, -24.368473699999981 ], [ -47.468544099999974, -24.371719399999961 ], [ -47.464872299999968, -24.373328299999969 ], [ -47.462857, -24.373393699999951 ], [ -47.462164399999949, -24.375819 ], [ -47.465435599999978, -24.379163299999959 ], [ -47.465149499999939, -24.380787099999964 ], [ -47.462547499999971, -24.382540699999936 ], [ -47.455576, -24.384327599999949 ], [ -47.451740799999982, -24.383914599999969 ], [ -47.451080199999979, -24.388041 ], [ -47.448030599999981, -24.388806899999963 ], [ -47.443050299999982, -24.388170799999955 ], [ -47.440348799999981, -24.388979399999982 ], [ -47.43566119999997, -24.387475699999982 ], [ -47.434233199999937, -24.386277 ], [ -47.433686899999941, -24.384292099999982 ], [ -47.429985, -24.381425799999931 ], [ -47.430537099999981, -24.378735799999959 ], [ -47.427224599999931, -24.377194199999963 ], [ -47.426440599999978, -24.375568399999963 ], [ -47.424819199999945, -24.374906 ], [ -47.419443599999965, -24.375108 ], [ -47.417548699999941, -24.376176699999974 ], [ -47.414779899999985, -24.374981 ], [ -47.414096299999983, -24.377364899999975 ], [ -47.40525329999997, -24.379266299999983 ], [ -47.403684599999963, -24.382365099999959 ], [ -47.400260099999969, -24.382521399999973 ], [ -47.398230199999944, -24.38535829999995 ], [ -47.388596299999961, -24.384699299999966 ], [ -47.380751199999963, -24.38597459999994 ], [ -47.374765599999932, -24.384584399999937 ], [ -47.371403699999973, -24.385387199999968 ], [ -47.366683199999954, -24.38477359999996 ], [ -47.365693799999974, -24.381979199999932 ], [ -47.361407, -24.378439699999944 ], [ -47.361087099999963, -24.376939199999981 ], [ -47.362149699999975, -24.375361299999952 ], [ -47.359146299999964, -24.374903199999949 ], [ -47.360151099999939, -24.372471699999949 ], [ -47.359887399999934, -24.370763199999942 ], [ -47.349645199999941, -24.370005399999968 ], [ -47.345523399999934, -24.368111399999975 ], [ -47.343446599999936, -24.365326099999947 ], [ -47.340268299999934, -24.364746699999955 ], [ -47.339362799999947, -24.36256439999994 ], [ -47.339671399999986, -24.35975389999993 ], [ -47.33713, -24.356314599999962 ], [ -47.338010599999961, -24.352702199999953 ], [ -47.336767599999973, -24.349978499999963 ], [ -47.334579499999961, -24.348942699999952 ], [ -47.329520299999956, -24.349448499999937 ], [ -47.328607, -24.347906599999931 ], [ -47.324331699999959, -24.347127199999932 ], [ -47.322091, -24.344153 ], [ -47.319185199999936, -24.342437599999982 ], [ -47.31889179999996, -24.340328799999952 ], [ -47.32081119999998, -24.337882799999932 ], [ -47.316110599999945, -24.33644019999997 ], [ -47.31334309999994, -24.33708189999993 ], [ -47.311839599999985, -24.338617499999941 ], [ -47.30905219999994, -24.338533 ], [ -47.304105399999969, -24.342275799999982 ], [ -47.304367699999943, -24.343585099999927 ], [ -47.311192199999937, -24.344642299999975 ], [ -47.312202299999967, -24.345430799999974 ], [ -47.310654299999953, -24.348834699999941 ], [ -47.306847399999981, -24.350900099999933 ], [ -47.307123, -24.351734599999929 ], [ -47.312713699999961, -24.351651 ], [ -47.310967299999959, -24.354268899999965 ], [ -47.308397599999978, -24.355155499999967 ], [ -47.309397399999966, -24.356327299999975 ], [ -47.30889609999997, -24.357356 ], [ -47.306850299999951, -24.357251799999972 ], [ -47.305105499999968, -24.356045399999971 ], [ -47.300335099999984, -24.359943899999962 ], [ -47.296507199999951, -24.359244399999966 ], [ -47.293574699999965, -24.360046499999953 ], [ -47.291268499999944, -24.359661 ], [ -47.289082299999961, -24.357923599999936 ], [ -47.282643399999984, -24.359389799999974 ], [ -47.276152299999978, -24.355961599999944 ], [ -47.270960199999934, -24.356431699999973 ], [ -47.264469599999984, -24.359461199999942 ], [ -47.260980199999949, -24.358892599999933 ], [ -47.251163399999939, -24.360711199999969 ], [ -47.24742509999993, -24.361813699999971 ], [ -47.249020499999972, -24.365352399999949 ], [ -47.248566799999935, -24.371863 ], [ -47.247447499999964, -24.373810299999946 ], [ -47.237290399999949, -24.372993 ], [ -47.235535599999935, -24.374050199999942 ], [ -47.235082399999953, -24.376434899999936 ], [ -47.221901499999944, -24.374474899999939 ], [ -47.219606499999941, -24.372975399999973 ], [ -47.218965799999978, -24.370713699999953 ], [ -47.217597199999943, -24.369864699999937 ], [ -47.213950699999941, -24.371103299999959 ], [ -47.20918469999998, -24.371337599999947 ], [ -47.204973199999984, -24.369181799999978 ], [ -47.198958399999981, -24.368306 ], [ -47.198076799999967, -24.367578299999934 ], [ -47.198692799999947, -24.364982699999928 ], [ -47.194165199999986, -24.362729899999977 ], [ -47.187790799999959, -24.366177899999968 ], [ -47.186474699999962, -24.368538099999967 ], [ -47.185627799999963, -24.374317799999972 ], [ -47.180614399999968, -24.375054099999943 ], [ -47.175275, -24.36917 ], [ -47.173872699999947, -24.364668199999983 ], [ -47.16963949999996, -24.365674499999955 ], [ -47.164654799999937, -24.364310699999976 ], [ -47.161916299999973, -24.366179099999954 ], [ -47.155876099999944, -24.367511899999954 ], [ -47.154011499999967, -24.36611709999994 ], [ -47.151645, -24.361558399999979 ], [ -47.148909699999933, -24.358550199999968 ], [ -47.146801499999981, -24.35802949999993 ], [ -47.146108799999979, -24.358814299999949 ], [ -47.147573199999954, -24.359816399999943 ], [ -47.148065499999973, -24.362572 ], [ -47.146873599999935, -24.364338 ], [ -47.140709, -24.365099 ], [ -47.13551, -24.364318 ], [ -47.133356, -24.367051 ], [ -47.130188, -24.365048 ], [ -47.126374, -24.366376 ], [ -47.120766, -24.364766 ], [ -47.11781, -24.367048 ], [ -47.117068, -24.369376 ], [ -47.114169, -24.371698 ], [ -47.114445, -24.373829 ], [ -47.116412, -24.376719 ], [ -47.116173, -24.379191 ], [ -47.114001, -24.379859 ], [ -47.110998, -24.382551 ], [ -47.113164, -24.385945 ], [ -47.110991, -24.388069 ], [ -47.106952, -24.388405 ], [ -47.101288, -24.390526 ], [ -47.10066, -24.391671 ], [ -47.105755, -24.395117 ], [ -47.107951, -24.397724 ], [ -47.111229, -24.398603 ], [ -47.11232, -24.399697 ], [ -47.113216, -24.402254 ], [ -47.112703, -24.405987 ], [ -47.113637, -24.407584 ], [ -47.113703, -24.410364 ], [ -47.116552, -24.412775 ], [ -47.117723, -24.417633 ], [ -47.116003, -24.417867 ], [ -47.116115, -24.41896 ], [ -47.114403, -24.42004 ], [ -47.111814, -24.426003 ], [ -47.108006, -24.426937 ], [ -47.10807, -24.42982 ], [ -47.105547, -24.430444 ], [ -47.101991, -24.433284 ], [ -47.092883, -24.435506 ], [ -47.087259, -24.432541 ], [ -47.086339, -24.430516 ], [ -47.081961, -24.433305 ], [ -47.080902, -24.435164 ], [ -47.081029, -24.437689 ], [ -47.078398, -24.441127 ], [ -47.077899899999977, -24.448204499999974 ], [ -47.109537099999955, -24.468003099999976 ], [ -47.134741399999939, -24.485259 ], [ -47.175809399999935, -24.516279399999974 ], [ -47.187671399999942, -24.527323399999943 ], [ -47.188505299999974, -24.529758 ], [ -47.186526799999967, -24.531074399999966 ], [ -47.186165499999959, -24.532602399999973 ], [ -47.189016599999945, -24.536065899999983 ], [ -47.190189799999985, -24.536600399999941 ], [ -47.193723, -24.535724199999947 ], [ -47.196901799999978, -24.538424899999939 ], [ -47.197693399999935, -24.53810059999995 ], [ -47.200555, -24.539595399999939 ], [ -47.220747399999937, -24.553733299999976 ], [ -47.227860799999974, -24.560491 ], [ -47.225433199999941, -24.56318159999995 ], [ -47.224243699999931, -24.566893599999958 ], [ -47.227026099999932, -24.571252 ], [ -47.229659, -24.572230199999979 ], [ -47.23320769999998, -24.571732399999973 ], [ -47.234430399999951, -24.572344 ], [ -47.236294399999963, -24.571343699999943 ], [ -47.240601899999945, -24.574753599999951 ], [ -47.241992, -24.57497989999996 ], [ -47.243894, -24.57367279999994 ], [ -47.245009399999958, -24.573970199999962 ], [ -47.280907699999943, -24.593781699999965 ], [ -47.375274799999943, -24.650078 ], [ -47.389948, -24.66008069999998 ], [ -47.405223199999966, -24.672870899999964 ], [ -47.408312499999965, -24.673924 ], [ -47.411074499999984, -24.67373159999994 ], [ -47.415295, -24.675575399999957 ], [ -47.417048799999975, -24.672460599999965 ], [ -47.424602499999935, -24.674062799999945 ], [ -47.427701699999943, -24.672932 ], [ -47.431423499999937, -24.673819199999969 ], [ -47.438511, -24.679203799999982 ], [ -47.44081749999998, -24.679076699999939 ], [ -47.44847679999998, -24.688722499999983 ], [ -47.45549589999996, -24.69530519999995 ], [ -47.469641799999977, -24.701662899999974 ], [ -47.474159799999939, -24.70458229999997 ], [ -47.479267799999946, -24.705659799999978 ], [ -47.487111399999947, -24.705768399999954 ], [ -47.507809, -24.700268599999958 ], [ -47.541130799999962, -24.706416499999932 ], [ -47.543316399999981, -24.708514099999945 ], [ -47.545408499999951, -24.713930599999969 ], [ -47.551268799999946, -24.721770399999969 ], [ -47.568515899999966, -24.732435099999975 ], [ -47.582436899999948, -24.73850079999994 ], [ -47.584264599999983, -24.740154799999971 ], [ -47.584993699999984, -24.742138699999941 ], [ -47.590091399999949, -24.746766799999932 ], [ -47.605414399999972, -24.751502199999948 ], [ -47.613281899999947, -24.755735799999968 ], [ -47.616510099999971, -24.758499099999938 ], [ -47.619621799999948, -24.759175899999946 ], [ -47.628349399999934, -24.763504599999976 ], [ -47.639189899999963, -24.774524799999938 ], [ -47.645160099999941, -24.777035799999965 ], [ -47.651864699999976, -24.783312899999942 ], [ -47.65697659999995, -24.785254099999975 ], [ -47.658726099999967, -24.787499399999945 ], [ -47.666107799999963, -24.792555599999957 ], [ -47.670335799999975, -24.796486 ], [ -47.682204499999955, -24.810919399999932 ], [ -47.685882499999934, -24.814080099999956 ], [ -47.692728699999975, -24.81672459999993 ], [ -47.694625599999938, -24.818834599999946 ], [ -47.703186799999969, -24.822932799999933 ], [ -47.705815799999982, -24.825568899999951 ], [ -47.711429599999974, -24.82877069999995 ], [ -47.719698499999936, -24.832151799999963 ], [ -47.734362399999952, -24.835684399999934 ], [ -47.737998799999957, -24.830154499999935 ], [ -47.740854399999932, -24.829947199999935 ], [ -47.74395839999994, -24.831723099999977 ], [ -47.747894299999984, -24.831694599999935 ], [ -47.748892199999943, -24.833585099999937 ], [ -47.74654959999998, -24.836954299999945 ], [ -47.746653499999979, -24.838663599999961 ], [ -47.750057199999958, -24.841554499999972 ], [ -47.756865799999957, -24.840888199999938 ], [ -47.756623599999955, -24.836041699999953 ], [ -47.760747499999979, -24.83326169999998 ], [ -47.763298299999974, -24.83308889999995 ], [ -47.765078299999971, -24.834951599999954 ], [ -47.762314699999934, -24.836341299999958 ], [ -47.762164699999971, -24.837276599999939 ], [ -47.765303699999947, -24.837559 ], [ -47.768132199999968, -24.840648599999952 ], [ -47.772020699999985, -24.839518599999963 ], [ -47.76973049999998, -24.842110699999978 ], [ -47.770452899999952, -24.845509499999935 ], [ -47.771132499999965, -24.845526899999982 ], [ -47.77206979999994, -24.843113399999936 ], [ -47.773275699999942, -24.842253299999982 ], [ -47.774689699999954, -24.843066499999964 ], [ -47.773741599999937, -24.844887899999947 ], [ -47.77446939999993, -24.846862399999964 ], [ -47.778068699999949, -24.846521499999938 ], [ -47.779358499999944, -24.841741199999944 ], [ -47.777076799999975, -24.838147399999968 ], [ -47.776645899999949, -24.836018799999977 ], [ -47.778037599999948, -24.834711299999981 ], [ -47.77900539999996, -24.835672299999942 ], [ -47.781294099999968, -24.832352499999956 ], [ -47.782902499999977, -24.831934299999944 ], [ -47.782181, -24.830109399999969 ], [ -47.782794, -24.828508799999952 ], [ -47.780634, -24.828276399999936 ], [ -47.779501299999936, -24.829044199999942 ], [ -47.77973609999998, -24.826692399999956 ], [ -47.775635799999975, -24.82194949999996 ], [ -47.774840799999936, -24.818276099999935 ], [ -47.773651899999948, -24.816514499999982 ], [ -47.775856, -24.812979899999959 ], [ -47.778878299999974, -24.810283 ], [ -47.778374499999984, -24.808027399999958 ], [ -47.781747499999938, -24.801587599999948 ], [ -47.784275899999955, -24.800443 ], [ -47.787782099999959, -24.801144699999952 ], [ -47.790350499999931, -24.799535 ], [ -47.792727299999967, -24.799163699999951 ], [ -47.792540899999949, -24.796554299999968 ], [ -47.795403699999952, -24.794398099999967 ], [ -47.799169699999936, -24.79435559999996 ], [ -47.802351499999986, -24.78998839999997 ], [ -47.803751199999965, -24.789791599999944 ], [ -47.804388899999935, -24.791256799999928 ], [ -47.806753799999967, -24.791516099999967 ], [ -47.809958299999948, -24.789767599999948 ], [ -47.811038, -24.788441499999976 ], [ -47.810799599999939, -24.785456599999975 ], [ -47.822295699999984, -24.777199399999972 ], [ -47.824415, -24.771099699999979 ], [ -47.826428299999975, -24.770379199999979 ], [ -47.82665389999994, -24.768586099999936 ], [ -47.829031799999939, -24.76726 ], [ -47.82945, -24.758646799999951 ], [ -47.830299399999944, -24.756386499999962 ], [ -47.82597149999998, -24.758304499999952 ], [ -47.823695399999963, -24.761491 ], [ -47.816749399999935, -24.765182599999946 ], [ -47.816272399999946, -24.767947399999969 ], [ -47.814721399999939, -24.769301899999959 ], [ -47.812354699999958, -24.769545499999936 ], [ -47.806350399999985, -24.76728739999993 ], [ -47.804071499999964, -24.758552699999939 ], [ -47.80392779999994, -24.752433899999971 ], [ -47.802832899999942, -24.749160199999949 ], [ -47.799999599999978, -24.745385899999974 ], [ -47.798947199999986, -24.741143499999964 ], [ -47.797240699999975, -24.739683799999966 ], [ -47.795893, -24.734537099999955 ], [ -47.796383, -24.732845 ], [ -47.793808899999931, -24.731382699999983 ], [ -47.794597799999963, -24.730583299999978 ], [ -47.793667099999936, -24.72817079999993 ], [ -47.788677399999983, -24.722988199999975 ], [ -47.786000499999943, -24.721610599999963 ], [ -47.782819399999937, -24.718501699999933 ], [ -47.782807299999945, -24.717196299999955 ], [ -47.781629799999962, -24.716067599999974 ], [ -47.778891, -24.715022899999951 ], [ -47.777156, -24.716642799999931 ], [ -47.774880099999962, -24.715581099999952 ], [ -47.773573, -24.716930899999966 ], [ -47.772917299999961, -24.716728499999931 ], [ -47.771690299999932, -24.714176799999962 ], [ -47.773235799999952, -24.712172299999963 ], [ -47.772254199999963, -24.711404199999947 ], [ -47.77057149999996, -24.711936199999968 ], [ -47.766472499999963, -24.708082299999944 ], [ -47.766523199999938, -24.707266 ], [ -47.769055199999968, -24.706325699999979 ], [ -47.771381599999984, -24.704273499999942 ], [ -47.772683799999982, -24.700857799999937 ], [ -47.771958099999949, -24.697579499999961 ], [ -47.768968699999959, -24.696193299999948 ], [ -47.768834199999958, -24.693300099999931 ], [ -47.765782099999967, -24.691964399999961 ], [ -47.765942099999961, -24.690146299999981 ], [ -47.768049, -24.688600299999962 ], [ -47.769012799999985, -24.682072499999947 ], [ -47.765105799999958, -24.677577299999939 ], [ -47.763778799999955, -24.673134799999957 ], [ -47.760825499999953, -24.66828419999996 ], [ -47.755234099999939, -24.663785799999971 ], [ -47.749469499999975, -24.662127099999964 ], [ -47.749134899999945, -24.65999729999993 ], [ -47.747991699999943, -24.659643299999971 ], [ -47.74716369999993, -24.658144899999968 ], [ -47.747246399999938, -24.653881299999966 ], [ -47.745969499999944, -24.652621599999975 ], [ -47.747613899999976, -24.652108799999951 ], [ -47.746521899999948, -24.648535699999968 ], [ -47.747466599999939, -24.648252899999932 ], [ -47.747809399999937, -24.646675399999936 ], [ -47.746967599999948, -24.641500199999939 ], [ -47.743707, -24.636015399999962 ], [ -47.741890799999965, -24.635104699999943 ], [ -47.740577199999962, -24.635490899999979 ], [ -47.739332799999943, -24.634219 ], [ -47.738140199999975, -24.634361099999978 ], [ -47.737706799999955, -24.633499699999959 ], [ -47.735015899999951, -24.632800799999927 ], [ -47.732150099999956, -24.627144299999941 ], [ -47.727745199999958, -24.622101899999961 ], [ -47.722095199999956, -24.618968099999961 ], [ -47.714907499999981, -24.616832099999954 ], [ -47.71342379999993, -24.615489 ], [ -47.712285099999974, -24.612199 ], [ -47.712821699999949, -24.605308 ], [ -47.71014329999997, -24.601990799999953 ], [ -47.705562899999961, -24.600512499999979 ], [ -47.700589499999978, -24.603806 ], [ -47.695807799999955, -24.604049099999941 ], [ -47.694506599999954, -24.603212499999927 ], [ -47.693791899999951, -24.601778099999933 ], [ -47.692269199999942, -24.584597199999962 ], [ -47.691690199999982, -24.583513799999935 ], [ -47.686352199999931, -24.580137599999944 ], [ -47.685330499999964, -24.576323699999932 ], [ -47.685322599999949, -24.571984699999973 ], [ -47.688656899999955, -24.563867199999947 ], [ -47.688162099999943, -24.558711199999948 ], [ -47.685133899999983, -24.553063799999961 ], [ -47.685385499999938, -24.55082989999994 ], [ -47.643846599999961, -24.522956299999976 ], [ -47.642939, -24.521190899999965 ], [ -47.640300699999955, -24.519761199999948 ], [ -47.639514499999962, -24.518214 ], [ -47.637583899999981, -24.51746049999997 ], [ -47.632983899999942, -24.517942599999969 ], [ -47.629874199999961, -24.517300299999931 ], [ -47.626665699999933, -24.513926799999979 ], [ -47.628493, -24.507569299999943 ], [ -47.632444799999973, -24.500172699999951 ], [ -47.63937059999995, -24.497628299999974 ], [ -47.643125, -24.494803199999978 ], [ -47.644292899999982, -24.494890799999951 ], [ -47.644221399999935, -24.494019199999968 ], [ -47.645442199999934, -24.493469699999935 ], [ -47.644480499999986, -24.49205459999996 ], [ -47.645443499999942, -24.490213899999958 ], [ -47.645422599999961, -24.487220599999944 ], [ -47.642144599999938, -24.481568799999934 ], [ -47.644107599999984, -24.47810839999994 ], [ -47.644199599999979, -24.471327199999962 ], [ -47.642058899999938, -24.468760399999951 ], [ -47.64229169999993, -24.467707299999972 ], [ -47.63986, -24.464353299999971 ], [ -47.63944239999995, -24.461806499999966 ], [ -47.641099599999961, -24.459683699999971 ], [ -47.640697399999965, -24.45784969999994 ], [ -47.643251799999973, -24.454633399999977 ], [ -47.642304199999955, -24.452748699999972 ], [ -47.648073299999965, -24.445112499999937 ], [ -47.651917399999945, -24.434650499999975 ], [ -47.653869199999974, -24.432289899999944 ], [ -47.654375399999935, -24.428383499999939 ], [ -47.660694199999966, -24.424619799999959 ], [ -47.661179299999958, -24.421226699999977 ], [ -47.664174599999967, -24.416488799999968 ], [ -47.666199, -24.41089489999996 ], [ -47.67131349999994, -24.403793899999982 ], [ -47.671851599999968, -24.400810299999932 ], [ -47.673855399999979, -24.398394799999949 ], [ -47.675764399999935, -24.397478699999965 ], [ -47.675862799999948, -24.396024299999965 ], [ -47.679478599999982, -24.389504399999964 ], [ -47.679872799999941, -24.383881899999949 ], [ -47.682459799999947, -24.382128 ], [ -47.68361729999998, -24.379139499999951 ], [ -47.680755899999951, -24.37905939999996 ], [ -47.676286199999936, -24.377575299999933 ], [ -47.67176349999994, -24.380687399999942 ], [ -47.667083499999933, -24.379443399999957 ], [ -47.657757899999979, -24.380429899999967 ], [ -47.652863799999977, -24.377532899999949 ], [ -47.646547199999986, -24.378332199999932 ], [ -47.643133699999964, -24.374822399999971 ], [ -47.639582299999972, -24.374671399999954 ], [ -47.631526699999938, -24.372144299999945 ], [ -47.626253499999962, -24.371916499999941 ], [ -47.621798299999966, -24.368005799999935 ], [ -47.616711699999939, -24.371752299999969 ], [ -47.610435299999949, -24.372577899999953 ], [ -47.606739499999946, -24.373958499999958 ], [ -47.602025699999956, -24.373418799999968 ], [ -47.59962749999994, -24.374775399999976 ], [ -47.58855559999995, -24.372124799999938 ], [ -47.58733419999993, -24.368536399999982 ], [ -47.582764099999963, -24.366508 ], [ -47.576563799999974, -24.36733 ], [ -47.573190799999963, -24.369559399999957 ] ] ] ] } }
]
}
