{
"type": "FeatureCollection",
"name": "ER_REGIAO_São Sebastião da Grama",
"crs": { "type": "name", "properties": { "name": "urn:ogc:def:crs:EPSG::4674" } },
"xy_coordinate_resolution": 1e-15,
"features": [
{ "type": "Feature", "properties": { "fid": 940, "NM_REGIAO": "Sudeste", "NM_UF": "São Paulo", "NM_MUN": "São Sebastião da Grama", "NM_DIST": "São Sebastião da Grama", "CD_SUBDIST": "35508030500", "ER_REGIAO": "São Sebastião da Grama", "ER_REGIAO_CIDADE": "São Sebastião da Grama_São João da Boa Vista" }, "geometry": { "type": "MultiPolygon", "coordinates": [ [ [ [ -46.8311832, -21.7574925 ], [ -46.8334947, -21.7601998 ], [ -46.8410235, -21.757986 ], [ -46.842813, -21.7584913 ], [ -46.8430814, -21.759514 ], [ -46.8436007, -21.7589194 ], [ -46.8458412, -21.7537902 ], [ -46.8480314, -21.7513573 ], [ -46.8476031, -21.7452243 ], [ -46.8500413, -21.7434054 ], [ -46.8536739, -21.7424936 ], [ -46.8545678, -21.7410978 ], [ -46.8536206, -21.7376285 ], [ -46.8543925, -21.7352585 ], [ -46.8598017, -21.7329391 ], [ -46.8673592, -21.7242896 ], [ -46.8674002, -21.7183265 ], [ -46.8694257, -21.7146279 ], [ -46.8718749, -21.7128593 ], [ -46.871834, -21.7087023 ], [ -46.8694796, -21.7083224 ], [ -46.8671208, -21.7062727 ], [ -46.8661805, -21.7040647 ], [ -46.8607664, -21.7020019 ], [ -46.8590247, -21.7002903 ], [ -46.8576258, -21.6965826 ], [ -46.8563838, -21.6979842 ], [ -46.8536111, -21.6983001 ], [ -46.8528817, -21.6998009 ], [ -46.8495435, -21.7012931 ], [ -46.8475925, -21.6993201 ], [ -46.844577, -21.6987561 ], [ -46.8417396, -21.6964765 ], [ -46.8392393, -21.6924395 ], [ -46.8387964, -21.6887163 ], [ -46.8354842, -21.6850782 ], [ -46.8349192, -21.6817305 ], [ -46.8334787, -21.6791076 ], [ -46.8269128, -21.6745746 ], [ -46.8217307, -21.6721932 ], [ -46.8193164, -21.6696299 ], [ -46.8167656, -21.6581313 ], [ -46.8154765, -21.659509 ], [ -46.8132532, -21.6601461 ], [ -46.8050113, -21.6601793 ], [ -46.8050697, -21.6675432 ], [ -46.8038018, -21.6698493 ], [ -46.8002301, -21.6726918 ], [ -46.8002111, -21.6740433 ], [ -46.8017426, -21.6755469 ], [ -46.8018043, -21.6776642 ], [ -46.798281, -21.6792624 ], [ -46.7971143, -21.6853827 ], [ -46.7931806, -21.6845808 ], [ -46.7879617, -21.6813357 ], [ -46.7878092, -21.6840731 ], [ -46.784792, -21.6875345 ], [ -46.7816959, -21.6889576 ], [ -46.7778024, -21.6889832 ], [ -46.7777155, -21.6904125 ], [ -46.7762258, -21.6917313 ], [ -46.7766021, -21.6938384 ], [ -46.7735324, -21.6932187 ], [ -46.7716356, -21.6947168 ], [ -46.7699524, -21.6949079 ], [ -46.7646202, -21.692881 ], [ -46.7556625, -21.6917391 ], [ -46.7531286, -21.6924174 ], [ -46.7464627, -21.6963676 ], [ -46.7416956, -21.6959951 ], [ -46.7376426, -21.6999193 ], [ -46.7355187, -21.703877 ], [ -46.7344992, -21.7079385 ], [ -46.7302942, -21.7089961 ], [ -46.7283824, -21.7103179 ], [ -46.725278, -21.7091231 ], [ -46.7229581, -21.7113186 ], [ -46.7150627, -21.7114013 ], [ -46.7119425, -21.7082465 ], [ -46.7075287, -21.7079207 ], [ -46.7025052, -21.7099473 ], [ -46.6991007, -21.7087021 ], [ -46.6981595, -21.7095569 ], [ -46.6979513, -21.7116208 ], [ -46.6952384, -21.7137546 ], [ -46.6924935, -21.7132196 ], [ -46.6912625, -21.7141972 ], [ -46.688963, -21.7200927 ], [ -46.6900373, -21.7226213 ], [ -46.6888925, -21.7239555 ], [ -46.6891502, -21.7262535 ], [ -46.6872807, -21.7270333 ], [ -46.6848344, -21.7262751 ], [ -46.6810461, -21.7312746 ], [ -46.674832, -21.7329776 ], [ -46.673717, -21.7348804 ], [ -46.6753551, -21.7399745 ], [ -46.6733423, -21.7426125 ], [ -46.6705472, -21.7437913 ], [ -46.6693379, -21.7456046 ], [ -46.6635816, -21.7477464 ], [ -46.6616826, -21.7509503 ], [ -46.6566678, -21.7509986 ], [ -46.6550766, -21.7498853 ], [ -46.654563, -21.7475491 ], [ -46.653695, -21.7469049 ], [ -46.6530834, -21.7492111 ], [ -46.6513544, -21.7502059 ], [ -46.6435353, -21.7466163 ], [ -46.6375414, -21.7491713 ], [ -46.6311509, -21.7607914 ], [ -46.630685, -21.7686032 ], [ -46.6394469, -21.768472 ], [ -46.6423093, -21.7728475 ], [ -46.6460393, -21.7760511 ], [ -46.6539913, -21.7792464 ], [ -46.6543348, -21.7806118 ], [ -46.6515832, -21.7868364 ], [ -46.6512016, -21.7894427 ], [ -46.667725, -21.8069654 ], [ -46.6687555, -21.8089824 ], [ -46.6695117, -21.8146375 ], [ -46.6708262, -21.8164812 ], [ -46.6807044, -21.8233555 ], [ -46.6854985, -21.8283384 ], [ -46.6909705, -21.8369638 ], [ -46.6907145, -21.8376349 ], [ -46.702771, -21.8413561 ], [ -46.7051714, -21.8398626 ], [ -46.7059602, -21.8331107 ], [ -46.7085471, -21.8288474 ], [ -46.7148486, -21.8263083 ], [ -46.7203224, -21.8210922 ], [ -46.7264855, -21.8189963 ], [ -46.7361778, -21.818501 ], [ -46.7353651, -21.8211402 ], [ -46.7369621, -21.8241308 ], [ -46.7427408, -21.8287336 ], [ -46.7486103, -21.8303485 ], [ -46.750515, -21.8341713 ], [ -46.7528029, -21.8319035 ], [ -46.7562118, -21.8301756 ], [ -46.7610827, -21.8300953 ], [ -46.7652519, -21.827806 ], [ -46.7671603, -21.8257189 ], [ -46.7700573, -21.8262976 ], [ -46.7715876, -21.8246411 ], [ -46.7703738, -21.8185921 ], [ -46.7720072, -21.817864 ], [ -46.7724121, -21.8168643 ], [ -46.7736523, -21.8172873 ], [ -46.7791892, -21.8156639 ], [ -46.7803975, -21.8129392 ], [ -46.7818186, -21.8126552 ], [ -46.7852677, -21.8098607 ], [ -46.7883631, -21.8053195 ], [ -46.7932813, -21.8042416 ], [ -46.7933475, -21.8026166 ], [ -46.7955419, -21.8009104 ], [ -46.7972585, -21.7973813 ], [ -46.799124, -21.796381 ], [ -46.8019162, -21.7965298 ], [ -46.8013377, -21.7950572 ], [ -46.8045796, -21.7923995 ], [ -46.8029539, -21.7899164 ], [ -46.804453, -21.7875128 ], [ -46.8037917, -21.7862611 ], [ -46.8054236, -21.7862078 ], [ -46.8058999, -21.7847594 ], [ -46.8079732, -21.7842025 ], [ -46.8099985, -21.7853183 ], [ -46.8095562, -21.7846212 ], [ -46.8111304, -21.783864 ], [ -46.8108288, -21.7828129 ], [ -46.8132187, -21.7835286 ], [ -46.8159223, -21.7806489 ], [ -46.8165417, -21.7787378 ], [ -46.8181972, -21.7774165 ], [ -46.8206104, -21.7715707 ], [ -46.8193471, -21.7701234 ], [ -46.8200977, -21.7683724 ], [ -46.8188308, -21.766089 ], [ -46.8193302, -21.7626829 ], [ -46.8187916, -21.7614133 ], [ -46.8164588, -21.7607999 ], [ -46.8187921, -21.7591783 ], [ -46.8234714, -21.7588134 ], [ -46.82856, -21.7539133 ], [ -46.8301419, -21.7549504 ], [ -46.8311832, -21.7574925 ] ] ] ] } }
]
}
