{
"type": "FeatureCollection",
"name": "ER_REGIAO_Boituva",
"crs": { "type": "name", "properties": { "name": "urn:ogc:def:crs:EPSG::4674" } },
"xy_coordinate_resolution": 1e-15,
"features": [
{ "type": "Feature", "properties": { "fid": 106, "NM_REGIAO": "Sudeste", "NM_UF": "São Paulo", "NM_MUN": "Boituva", "NM_DIST": "Boituva", "CD_SUBDIST": "35070010500", "ER_REGIAO": "Boituva", "ER_REGIAO_CIDADE": "Boituva_Sorocaba" }, "geometry": { "type": "MultiPolygon", "coordinates": [ [ [ [ -47.6733845, -23.3510976 ], [ -47.6740319, -23.3493416 ], [ -47.6751385, -23.3507717 ], [ -47.677, -23.3501605 ], [ -47.6781119, -23.3475086 ], [ -47.6806555, -23.3475388 ], [ -47.6816288, -23.3427728 ], [ -47.683139, -23.3409407 ], [ -47.6820365, -23.3392599 ], [ -47.6826967, -23.3349003 ], [ -47.68783, -23.3304099 ], [ -47.6905304, -23.3297467 ], [ -47.6914779, -23.3300751 ], [ -47.6928093, -23.3323809 ], [ -47.6939722, -23.3323771 ], [ -47.6942851, -23.3337457 ], [ -47.6956797, -23.3341001 ], [ -47.6953643, -23.3359415 ], [ -47.6966855, -23.3355521 ], [ -47.6972181, -23.3366866 ], [ -47.6993818, -23.3361564 ], [ -47.6993689, -23.3344034 ], [ -47.7007538, -23.3360162 ], [ -47.7018945, -23.3351798 ], [ -47.7025746, -23.3361961 ], [ -47.7065094, -23.3356333 ], [ -47.706433, -23.3340611 ], [ -47.7091768, -23.331859 ], [ -47.7113738, -23.3304577 ], [ -47.713174, -23.3306574 ], [ -47.7143776, -23.3343283 ], [ -47.7129479, -23.3370579 ], [ -47.7133516, -23.3380829 ], [ -47.714877, -23.3391699 ], [ -47.7160288, -23.3376629 ], [ -47.7171499, -23.337821 ], [ -47.7171722, -23.3415329 ], [ -47.7213985, -23.3433607 ], [ -47.7217128, -23.3441475 ], [ -47.7238076, -23.3431898 ], [ -47.7232204, -23.3418616 ], [ -47.7242257, -23.3415061 ], [ -47.723977, -23.3396204 ], [ -47.7270218, -23.3367402 ], [ -47.7262757, -23.3347124 ], [ -47.7285185, -23.3334152 ], [ -47.7274961, -23.3320786 ], [ -47.7283039, -23.3314688 ], [ -47.7318042, -23.3328096 ], [ -47.7350396, -23.3329619 ], [ -47.7386518, -23.3300554 ], [ -47.7408395, -23.3298619 ], [ -47.7417178, -23.3303123 ], [ -47.7427707, -23.3332092 ], [ -47.7440956, -23.3323618 ], [ -47.74494, -23.3296383 ], [ -47.7457093, -23.3294917 ], [ -47.7493406, -23.3307969 ], [ -47.7503083, -23.3334288 ], [ -47.754724, -23.3350411 ], [ -47.756944, -23.3378099 ], [ -47.7584703, -23.3377598 ], [ -47.7586607, -23.3304465 ], [ -47.7568715, -23.3246284 ], [ -47.7598813, -23.3240976 ], [ -47.7602895, -23.3214843 ], [ -47.7621559, -23.3211267 ], [ -47.7664974, -23.3275989 ], [ -47.767984, -23.3283107 ], [ -47.7732771, -23.323344 ], [ -47.7787748, -23.3204399 ], [ -47.7796399, -23.3189948 ], [ -47.7799382, -23.3157521 ], [ -47.779343, -23.3148347 ], [ -47.7744042, -23.3148742 ], [ -47.7707354, -23.313703 ], [ -47.7687033, -23.3112071 ], [ -47.766386, -23.3100588 ], [ -47.7665574, -23.307964 ], [ -47.7692172, -23.3049056 ], [ -47.7660343, -23.3054451 ], [ -47.764814, -23.3030209 ], [ -47.7624368, -23.3015671 ], [ -47.7633888, -23.3010041 ], [ -47.7671832, -23.301844 ], [ -47.7665021, -23.2996067 ], [ -47.7674106, -23.2982164 ], [ -47.7722362, -23.2960008 ], [ -47.7721005, -23.2938371 ], [ -47.7729349, -23.2930248 ], [ -47.7743954, -23.2930942 ], [ -47.7759116, -23.2947989 ], [ -47.7757915, -23.2927402 ], [ -47.7736251, -23.2905422 ], [ -47.7714399, -23.2917463 ], [ -47.7694011, -23.2906747 ], [ -47.7691212, -23.2887697 ], [ -47.7701567, -23.2850131 ], [ -47.7622806, -23.2841413 ], [ -47.7610355, -23.2829616 ], [ -47.7659841, -23.2808247 ], [ -47.7705391, -23.2811208 ], [ -47.7708045, -23.279375 ], [ -47.767763, -23.2753115 ], [ -47.7677859, -23.274004 ], [ -47.77602, -23.2723904 ], [ -47.7779749, -23.270705 ], [ -47.7778771, -23.2690896 ], [ -47.77622, -23.2688147 ], [ -47.7723508, -23.2712096 ], [ -47.7703486, -23.2713292 ], [ -47.7667834, -23.2659123 ], [ -47.7676385, -23.2632276 ], [ -47.7725598, -23.2618878 ], [ -47.7740808, -23.2643858 ], [ -47.7775903, -23.2656098 ], [ -47.7800785, -23.2627403 ], [ -47.7731344, -23.2567595 ], [ -47.7698723, -23.2555003 ], [ -47.7722202, -23.2518232 ], [ -47.7668232, -23.2480013 ], [ -47.7632318, -23.2434306 ], [ -47.7611697, -23.2420973 ], [ -47.7531643, -23.2409263 ], [ -47.7502803, -23.2393095 ], [ -47.7486441, -23.2377187 ], [ -47.7459191, -23.2320597 ], [ -47.7432273, -23.229874 ], [ -47.7294934, -23.2306106 ], [ -47.7238293, -23.2321858 ], [ -47.7201696, -23.234353 ], [ -47.7189702, -23.2342154 ], [ -47.7149852, -23.2313142 ], [ -47.7017998, -23.2275814 ], [ -47.7031593, -23.2266024 ], [ -47.706455, -23.2192039 ], [ -47.7039994, -23.2160254 ], [ -47.6994372, -23.2165755 ], [ -47.6921669, -23.2189955 ], [ -47.690648, -23.2199545 ], [ -47.6901158, -23.2232341 ], [ -47.6845462, -23.2197403 ], [ -47.6800996, -23.2201343 ], [ -47.673954, -23.2153035 ], [ -47.6698583, -23.213761 ], [ -47.6666404, -23.2112763 ], [ -47.6639725, -23.2076483 ], [ -47.6610871, -23.2055374 ], [ -47.6601828, -23.2026014 ], [ -47.6590825, -23.2015358 ], [ -47.6561912, -23.2009783 ], [ -47.6510956, -23.1976448 ], [ -47.6472408, -23.1962743 ], [ -47.6468898, -23.1946669 ], [ -47.6453972, -23.1935658 ], [ -47.6423452, -23.1936804 ], [ -47.6394005, -23.195282 ], [ -47.6328184, -23.1911041 ], [ -47.6306583, -23.1908652 ], [ -47.6295046, -23.1916261 ], [ -47.6319058, -23.1921004 ], [ -47.6285691, -23.1950544 ], [ -47.6289259, -23.199434 ], [ -47.6281324, -23.2019707 ], [ -47.6266295, -23.2027121 ], [ -47.6255366, -23.2002612 ], [ -47.62323, -23.2004055 ], [ -47.6224294, -23.2017964 ], [ -47.6184127, -23.2046049 ], [ -47.6173907, -23.2073149 ], [ -47.6162269, -23.207872 ], [ -47.6123428, -23.2402242 ], [ -47.6134024, -23.2406878 ], [ -47.614596, -23.2442012 ], [ -47.6151503, -23.2498348 ], [ -47.6135995, -23.2563282 ], [ -47.6149013, -23.2605463 ], [ -47.6134438, -23.2671082 ], [ -47.6125122, -23.2685243 ], [ -47.6057296, -23.2722611 ], [ -47.6016314, -23.2730183 ], [ -47.6063427, -23.2824123 ], [ -47.6088266, -23.2842555 ], [ -47.6091976, -23.2871287 ], [ -47.6051091, -23.2928131 ], [ -47.6080549, -23.296431 ], [ -47.6088598, -23.2985414 ], [ -47.6086881, -23.3020184 ], [ -47.6077759, -23.3035925 ], [ -47.6026074, -23.3070743 ], [ -47.5977067, -23.3145649 ], [ -47.5972001, -23.3163281 ], [ -47.5997233, -23.3188465 ], [ -47.6003044, -23.3206844 ], [ -47.5991552, -23.3233745 ], [ -47.5948221, -23.3267378 ], [ -47.5895931, -23.3329677 ], [ -47.5838586, -23.3368804 ], [ -47.5785072, -23.3385295 ], [ -47.5752427, -23.3425228 ], [ -47.5735209, -23.3534972 ], [ -47.5766398, -23.3573862 ], [ -47.5768428, -23.3598084 ], [ -47.5783468, -23.3617066 ], [ -47.5780236, -23.3637136 ], [ -47.5835272, -23.3638412 ], [ -47.5861335, -23.3662104 ], [ -47.5872044, -23.365605 ], [ -47.5902203, -23.3687371 ], [ -47.5914263, -23.3658608 ], [ -47.5930715, -23.3662155 ], [ -47.5918847, -23.3648608 ], [ -47.5924336, -23.3638124 ], [ -47.594491, -23.3632534 ], [ -47.5964465, -23.3637529 ], [ -47.5965677, -23.3618276 ], [ -47.5987838, -23.3623817 ], [ -47.5994512, -23.3610477 ], [ -47.6015388, -23.3608557 ], [ -47.6060116, -23.3643975 ], [ -47.6084488, -23.3718538 ], [ -47.609721, -23.3711935 ], [ -47.6106947, -23.3675199 ], [ -47.6088002, -23.3648166 ], [ -47.6097729, -23.3638672 ], [ -47.6115268, -23.3641416 ], [ -47.6100339, -23.3623287 ], [ -47.6115146, -23.3618098 ], [ -47.6085342, -23.3599463 ], [ -47.6096499, -23.3571235 ], [ -47.6183121, -23.3609036 ], [ -47.6183652, -23.3635697 ], [ -47.6155724, -23.3655593 ], [ -47.6160984, -23.3663278 ], [ -47.6193542, -23.3663152 ], [ -47.6213216, -23.3680782 ], [ -47.623195, -23.3662715 ], [ -47.628016, -23.3666117 ], [ -47.6330604, -23.365436 ], [ -47.6339398, -23.3661657 ], [ -47.6327829, -23.3679369 ], [ -47.6349678, -23.3686988 ], [ -47.6364171, -23.367362 ], [ -47.6379417, -23.3673158 ], [ -47.6386536, -23.3659438 ], [ -47.6363564, -23.3647872 ], [ -47.6364233, -23.3635347 ], [ -47.6410986, -23.3651373 ], [ -47.6420949, -23.3644062 ], [ -47.6429426, -23.3618321 ], [ -47.6482294, -23.3656936 ], [ -47.6488426, -23.3691467 ], [ -47.6480951, -23.3714902 ], [ -47.6500842, -23.3697966 ], [ -47.6523912, -23.369255 ], [ -47.6522911, -23.3711247 ], [ -47.6532084, -23.3726211 ], [ -47.6539541, -23.3726071 ], [ -47.6537196, -23.3720042 ], [ -47.6555038, -23.3702942 ], [ -47.6573555, -23.3696325 ], [ -47.6595606, -23.3708131 ], [ -47.6593705, -23.3722728 ], [ -47.661625, -23.3713962 ], [ -47.6597715, -23.3764025 ], [ -47.6607545, -23.37796 ], [ -47.663053, -23.3791388 ], [ -47.6648455, -23.377911 ], [ -47.6652272, -23.376539 ], [ -47.6641914, -23.3757185 ], [ -47.6665439, -23.3744916 ], [ -47.6662897, -23.3719997 ], [ -47.6675486, -23.3702162 ], [ -47.6729694, -23.3706898 ], [ -47.6757894, -23.367783 ], [ -47.6766189, -23.3621418 ], [ -47.6786359, -23.3590695 ], [ -47.6781467, -23.3584465 ], [ -47.6770801, -23.3590339 ], [ -47.677482, -23.3570683 ], [ -47.6767306, -23.3570174 ], [ -47.6762299, -23.3580556 ], [ -47.6755876, -23.3566388 ], [ -47.6713091, -23.3545559 ], [ -47.6718752, -23.3527408 ], [ -47.6739136, -23.352465 ], [ -47.6733845, -23.3510976 ] ] ] ] } }
]
}
