{
"type": "FeatureCollection",
"name": "ER_REGIAO_Lavrinhas_Pinheiros",
"crs": { "type": "name", "properties": { "name": "urn:ogc:def:crs:EPSG::4674" } },
"xy_coordinate_resolution": 1e-15,
"features": [
{ "type": "Feature", "properties": { "fid": 438, "NM_REGIAO": "Sudeste", "NM_UF": "São Paulo", "NM_MUN": "Lavrinhas", "NM_DIST": "Pinheiros", "CD_SUBDIST": "35266051000", "ER_REGIAO": "Lavrinhas_Pinheiros", "ER_REGIAO_CIDADE": "Lavrinhas_Pinheiros_Guaratinguetá" }, "geometry": { "type": "MultiPolygon", "coordinates": [ [ [ [ -44.9235829, -22.5274755 ], [ -44.9251765, -22.5186264 ], [ -44.9273636, -22.5170721 ], [ -44.9248627, -22.5088671 ], [ -44.9319687, -22.4990195 ], [ -44.9325515, -22.4962692 ], [ -44.9356884, -22.4914092 ], [ -44.9406712, -22.4900434 ], [ -44.9444564, -22.4860212 ], [ -44.9468184, -22.486746 ], [ -44.9510009, -22.4859108 ], [ -44.961368, -22.4863724 ], [ -44.9634996, -22.4858131 ], [ -44.9663633, -22.4835589 ], [ -44.9669778, -22.4810553 ], [ -44.9655752, -22.4776288 ], [ -44.9658591, -22.4751928 ], [ -44.9599255, -22.4666598 ], [ -44.9516464, -22.4630832 ], [ -44.9472858, -22.4588596 ], [ -44.9423186, -22.4560701 ], [ -44.9416243, -22.4540256 ], [ -44.9400702, -22.4526691 ], [ -44.9355634, -22.4530915 ], [ -44.9313017, -22.4517947 ], [ -44.9285887, -22.4531509 ], [ -44.9140901, -22.455064 ], [ -44.9110987, -22.4529084 ], [ -44.9082583, -22.4521574 ], [ -44.9036245, -22.4542268 ], [ -44.8993877, -22.4537387 ], [ -44.8975393, -22.4524827 ], [ -44.8976822, -22.4491138 ], [ -44.8953791, -22.446856 ], [ -44.8945703, -22.442863 ], [ -44.8897111, -22.4358532 ], [ -44.8897308, -22.432124 ], [ -44.8849572, -22.4308423 ], [ -44.8829273, -22.4290669 ], [ -44.8796444, -22.4296503 ], [ -44.8784597, -22.4287545 ], [ -44.8752899, -22.4285655 ], [ -44.8715058, -22.4240858 ], [ -44.8659595, -22.4243883 ], [ -44.8595994, -22.4230432 ], [ -44.8545114, -22.4280013 ], [ -44.8498196, -22.4265319 ], [ -44.8439453, -22.4278032 ], [ -44.8478341, -22.430231 ], [ -44.851663, -22.4300324 ], [ -44.85521, -22.4326288 ], [ -44.8522293, -22.4341432 ], [ -44.8495702, -22.4395782 ], [ -44.8491686, -22.4419863 ], [ -44.8514886, -22.4480229 ], [ -44.8496008, -22.4527092 ], [ -44.8522277, -22.4574467 ], [ -44.8515272, -22.4609871 ], [ -44.8530403, -22.4657149 ], [ -44.8517535, -22.4716538 ], [ -44.848995, -22.4744261 ], [ -44.8482038, -22.4785054 ], [ -44.849093, -22.4801609 ], [ -44.8489874, -22.4823564 ], [ -44.8504453, -22.4848019 ], [ -44.8523429, -22.4860039 ], [ -44.8524643, -22.4875071 ], [ -44.8511542, -22.4923788 ], [ -44.8471169, -22.4972027 ], [ -44.8475783, -22.4995232 ], [ -44.8464756, -22.5024215 ], [ -44.8472865, -22.5044628 ], [ -44.8461063, -22.5057111 ], [ -44.8416181, -22.5060679 ], [ -44.8405444, -22.5072504 ], [ -44.84109, -22.5114541 ], [ -44.8470018, -22.5159394 ], [ -44.8484274, -22.5203976 ], [ -44.8505918, -22.5230431 ], [ -44.8490141, -22.5240864 ], [ -44.8494982, -22.5257406 ], [ -44.847911, -22.5264272 ], [ -44.8474664, -22.5288828 ], [ -44.8466515, -22.529348 ], [ -44.8476755, -22.5313789 ], [ -44.846986, -22.5326682 ], [ -44.847531, -22.5335822 ], [ -44.8457406, -22.5332656 ], [ -44.8451033, -22.5365382 ], [ -44.8419849, -22.5364332 ], [ -44.8367993, -22.5410477 ], [ -44.8338329, -22.5407362 ], [ -44.8318566, -22.5434875 ], [ -44.8325975, -22.5457881 ], [ -44.8317661, -22.5475068 ], [ -44.82785, -22.5489037 ], [ -44.8304929, -22.5505939 ], [ -44.8292659, -22.5544022 ], [ -44.8314129, -22.5553065 ], [ -44.8304849, -22.5574234 ], [ -44.8307902, -22.5593782 ], [ -44.8326397, -22.5597174 ], [ -44.8360032, -22.5581857 ], [ -44.843037, -22.5601138 ], [ -44.8449258, -22.5588998 ], [ -44.8512635, -22.5576858 ], [ -44.8545715, -22.5583074 ], [ -44.8925721, -22.5467903 ], [ -44.8946778, -22.5455685 ], [ -44.8965514, -22.5404628 ], [ -44.905334, -22.5443907 ], [ -44.9071158, -22.5444726 ], [ -44.9092105, -22.5425611 ], [ -44.9134649, -22.5414797 ], [ -44.9172577, -22.543727 ], [ -44.9196653, -22.5437846 ], [ -44.9233088, -22.541117 ], [ -44.921668, -22.538341 ], [ -44.9210995, -22.5335064 ], [ -44.9235829, -22.5274755 ] ] ] ] } }
]
}
