{
"type": "FeatureCollection",
"name": "ER_REGIAO_Mariápolis_Mourão",
"crs": { "type": "name", "properties": { "name": "urn:ogc:def:crs:EPSG::4674" } },
"xy_coordinate_resolution": 1e-15,
"features": [
{ "type": "Feature", "properties": { "fid": 470, "NM_REGIAO": "Sudeste", "NM_UF": "São Paulo", "NM_MUN": "Mariápolis", "NM_DIST": "Mourão", "CD_SUBDIST": "35289081000", "ER_REGIAO": "Mariápolis_Mourão", "ER_REGIAO_CIDADE": "Mariápolis_Mourão_Presidente Prudente" }, "geometry": { "type": "MultiPolygon", "coordinates": [ [ [ [ -51.191209699999945, -21.746546799999976 ], [ -51.196634599999982, -21.744136599999933 ], [ -51.199556499999971, -21.741487099999972 ], [ -51.205803, -21.740496199999939 ], [ -51.209593899999959, -21.741150199999936 ], [ -51.21464839999993, -21.737771099999975 ], [ -51.216856099999973, -21.737753899999973 ], [ -51.220643799999948, -21.739344899999935 ], [ -51.222428599999944, -21.737660099999971 ], [ -51.225477199999943, -21.74067969999993 ], [ -51.227050499999962, -21.739456099999927 ], [ -51.231152099999974, -21.739124299999958 ], [ -51.234320399999945, -21.737353 ], [ -51.241938699999935, -21.736730499999965 ], [ -51.240786599999979, -21.733151 ], [ -51.24144, -21.732443399999966 ], [ -51.23970769999994, -21.731650799999954 ], [ -51.238676599999962, -21.732685199999935 ], [ -51.23783949999995, -21.732251499999961 ], [ -51.238392499999975, -21.730283699999973 ], [ -51.237662299999954, -21.726176799999962 ], [ -51.235608399999933, -21.724372099999982 ], [ -51.233085599999981, -21.724803799999961 ], [ -51.230778799999939, -21.723937199999966 ], [ -51.231860299999937, -21.722617399999933 ], [ -51.228446699999949, -21.720882599999982 ], [ -51.226366399999961, -21.71593839999997 ], [ -51.22384059999996, -21.714433299999939 ], [ -51.221325, -21.710053699999946 ], [ -51.21816709999996, -21.708766799999978 ], [ -51.212946599999952, -21.709167699999966 ], [ -51.211943599999984, -21.704582099999982 ], [ -51.207990499999937, -21.701359299999979 ], [ -51.203993299999979, -21.702832099999966 ], [ -51.20154169999995, -21.701978899999972 ], [ -51.19760169999995, -21.702853399999981 ], [ -51.196175, -21.701740699999959 ], [ -51.193973699999958, -21.703143099999977 ], [ -51.192226, -21.701235699999927 ], [ -51.188948699999969, -21.700819699999954 ], [ -51.184993299999974, -21.69744529999997 ], [ -51.183454899999958, -21.69415129999993 ], [ -51.175834099999975, -21.692018799999971 ], [ -51.171409099999948, -21.693125499999951 ], [ -51.167506299999957, -21.699748799999952 ], [ -51.160936899999967, -21.703036499999939 ], [ -51.155754499999944, -21.70724359999997 ], [ -51.151802199999963, -21.706007399999976 ], [ -51.149890699999958, -21.706432 ], [ -51.148049599999979, -21.709163299999943 ], [ -51.148499, -21.711271599999975 ], [ -51.146875, -21.717841299999975 ], [ -51.149436699999967, -21.721517199999937 ], [ -51.149722599999961, -21.723196799999982 ], [ -51.141244299999983, -21.725526 ], [ -51.136842399999978, -21.731146 ], [ -51.128896099999963, -21.738942599999973 ], [ -51.125969, -21.743098399999951 ], [ -51.126143199999944, -21.744061399999964 ], [ -51.127423799999974, -21.744037599999956 ], [ -51.132768499999941, -21.742335499999967 ], [ -51.131938, -21.745495399999982 ], [ -51.132836099999963, -21.75022279999996 ], [ -51.13611, -21.754415499999936 ], [ -51.137203299999953, -21.758182599999941 ], [ -51.139576499999976, -21.758772399999941 ], [ -51.141277699999932, -21.760393199999953 ], [ -51.145007, -21.759168099999954 ], [ -51.146285, -21.76000449999998 ], [ -51.148621699999978, -21.759695299999976 ], [ -51.150460499999951, -21.761070599999982 ], [ -51.150932499999954, -21.760475199999973 ], [ -51.153510399999959, -21.761119199999939 ], [ -51.155040699999972, -21.760411199999965 ], [ -51.156044299999962, -21.761485299999947 ], [ -51.159908399999949, -21.762698199999932 ], [ -51.162499099999934, -21.762249599999961 ], [ -51.166648599999974, -21.76370339999994 ], [ -51.168738899999937, -21.762078299999928 ], [ -51.171601599999974, -21.764083599999935 ], [ -51.174714599999959, -21.760436 ], [ -51.17624509999996, -21.761283499999934 ], [ -51.177706899999976, -21.760420199999942 ], [ -51.177747199999942, -21.759317899999928 ], [ -51.180070099999966, -21.756335599999943 ], [ -51.188413799999978, -21.750279299999931 ], [ -51.191209699999945, -21.746546799999976 ] ] ] ] } }
]
}
