{
"type": "FeatureCollection",
"name": "ER_REGIAO_Santa Rita d'Oeste_Santa Rita d'Oeste",
"crs": { "type": "name", "properties": { "name": "urn:ogc:def:crs:EPSG::4674" } },
"xy_coordinate_resolution": 1e-15,
"features": [
{ "type": "Feature", "properties": { "fid": 784, "NM_REGIAO": "Sudeste", "NM_UF": "São Paulo", "NM_MUN": "Santa Rita d'Oeste", "NM_DIST": "Santa Rita d'Oeste", "CD_SUBDIST": "35474030500", "ER_REGIAO": "Santa Rita d'Oeste_Santa Rita d'Oeste", "ER_REGIAO_CIDADE": "Santa Rita d'Oeste_Santa Rita d'Oeste_Votuporanga" }, "geometry": { "type": "MultiPolygon", "coordinates": [ [ [ [ -50.8031203, -20.1267671 ], [ -50.8016519, -20.1384438 ], [ -50.7983642, -20.1428286 ], [ -50.7939778, -20.1417198 ], [ -50.7831638, -20.1430419 ], [ -50.779278, -20.1418474 ], [ -50.775417, -20.1436351 ], [ -50.7692178, -20.1444055 ], [ -50.7657484, -20.1432774 ], [ -50.7621917, -20.1443169 ], [ -50.7588921, -20.1420124 ], [ -50.7571007, -20.1419042 ], [ -50.7557599, -20.1400914 ], [ -50.7521796, -20.1377851 ], [ -50.7465967, -20.1397293 ], [ -50.7442963, -20.1456232 ], [ -50.748321, -20.1537007 ], [ -50.7487117, -20.1568186 ], [ -50.750491, -20.1584951 ], [ -50.7557716, -20.1609732 ], [ -50.7592095, -20.1638278 ], [ -50.7595041, -20.1653146 ], [ -50.7692158, -20.1635785 ], [ -50.7752191, -20.1665746 ], [ -50.7797446, -20.1671806 ], [ -50.7862491, -20.163483 ], [ -50.792023, -20.1619011 ], [ -50.7961625, -20.1620115 ], [ -50.79938, -20.1632808 ], [ -50.8000221, -20.1650589 ], [ -50.7996328, -20.1677233 ], [ -50.8016021, -20.170149 ], [ -50.8025246, -20.1732883 ], [ -50.8059404, -20.1774184 ], [ -50.8082952, -20.1825478 ], [ -50.8115692, -20.1842169 ], [ -50.8117636, -20.1855654 ], [ -50.8098881, -20.1891775 ], [ -50.8093407, -20.1973311 ], [ -50.8075752, -20.2011613 ], [ -50.8079395, -20.2056163 ], [ -50.8067794, -20.2100333 ], [ -50.8097786, -20.2136063 ], [ -50.812633, -20.2154165 ], [ -50.8213275, -20.2170454 ], [ -50.8242732, -20.2157823 ], [ -50.8290732, -20.206402 ], [ -50.8328378, -20.2020271 ], [ -50.8419274, -20.1947912 ], [ -50.8446017, -20.1893691 ], [ -50.8467099, -20.1878491 ], [ -50.847195, -20.1853453 ], [ -50.8511134, -20.1827778 ], [ -50.8542828, -20.182518 ], [ -50.8542287, -20.1809081 ], [ -50.8613871, -20.1755419 ], [ -50.8619083, -20.1729001 ], [ -50.8637526, -20.1696961 ], [ -50.865685, -20.1618349 ], [ -50.868945, -20.159152 ], [ -50.8707171, -20.1564586 ], [ -50.8730772, -20.1459964 ], [ -50.8732227, -20.1420525 ], [ -50.8719283, -20.1345248 ], [ -50.8711874, -20.1323839 ], [ -50.8694204, -20.1306553 ], [ -50.8692507, -20.1242905 ], [ -50.8667233, -20.1176265 ], [ -50.8656087, -20.1118227 ], [ -50.8655819, -20.1025505 ], [ -50.8639146, -20.1003121 ], [ -50.8630468, -20.0970292 ], [ -50.8562432, -20.1005531 ], [ -50.8536399, -20.101278 ], [ -50.8519057, -20.1003909 ], [ -50.8487273, -20.1025032 ], [ -50.8438843, -20.1039133 ], [ -50.8395611, -20.1033014 ], [ -50.8370274, -20.1043037 ], [ -50.834257, -20.1040896 ], [ -50.8293441, -20.105301 ], [ -50.8272857, -20.1066341 ], [ -50.8201054, -20.1081074 ], [ -50.8186079, -20.1092737 ], [ -50.8185624, -20.1113972 ], [ -50.8168443, -20.1125135 ], [ -50.8174958, -20.1140266 ], [ -50.8103535, -20.1185134 ], [ -50.8091188, -20.1211557 ], [ -50.806725, -20.1218008 ], [ -50.8046938, -20.123398 ], [ -50.8031203, -20.1267671 ] ] ] ] } }
]
}
