{
"type": "FeatureCollection",
"name": "ER_REGIAO_Dracena_Jaciporã",
"crs": { "type": "name", "properties": { "name": "urn:ogc:def:crs:EPSG::4674" } },
"xy_coordinate_resolution": 1e-15,
"features": [
{ "type": "Feature", "properties": { "fid": 232, "NM_REGIAO": "Sudeste", "NM_UF": "São Paulo", "NM_MUN": "Dracena", "NM_DIST": "Jaciporã", "CD_SUBDIST": "35144031000", "ER_REGIAO": "Dracena_Jaciporã", "ER_REGIAO_CIDADE": "Dracena_Jaciporã_Presidente Prudente" }, "geometry": { "type": "MultiPolygon", "coordinates": [ [ [ [ -51.5688869, -21.5731295 ], [ -51.5623687, -21.5780684 ], [ -51.556833, -21.5775153 ], [ -51.5489957, -21.580653 ], [ -51.5406389, -21.5811933 ], [ -51.5362388, -21.5824667 ], [ -51.5294395, -21.5888724 ], [ -51.5271861, -21.5888299 ], [ -51.5238512, -21.5902578 ], [ -51.5215369, -21.5888525 ], [ -51.5191427, -21.5888024 ], [ -51.5150423, -21.5911413 ], [ -51.5104744, -21.5916487 ], [ -51.5068839, -21.5929849 ], [ -51.5042536, -21.5946962 ], [ -51.504605, -21.5954596 ], [ -51.5028438, -21.5967391 ], [ -51.5033195, -21.5976914 ], [ -51.5025429, -21.5979733 ], [ -51.5026025, -21.6021571 ], [ -51.5013063, -21.6060192 ], [ -51.5018665, -21.6072713 ], [ -51.5013051, -21.6103234 ], [ -51.5024029, -21.6142518 ], [ -51.5009986, -21.6147759 ], [ -51.5009706, -21.6129922 ], [ -51.4993461, -21.6128748 ], [ -51.4960956, -21.6154021 ], [ -51.4925146, -21.6200474 ], [ -51.4935208, -21.6280173 ], [ -51.4944402, -21.6292666 ], [ -51.4939482, -21.6309054 ], [ -51.4956497, -21.6337459 ], [ -51.4957558, -21.6382934 ], [ -51.4965801, -21.6387869 ], [ -51.4979233, -21.6375772 ], [ -51.5012636, -21.6388175 ], [ -51.5039837, -21.643532 ], [ -51.504017, -21.6489273 ], [ -51.5065193, -21.6515766 ], [ -51.5059468, -21.6520608 ], [ -51.5066525, -21.6543215 ], [ -51.5093759, -21.6557062 ], [ -51.5093664, -21.6571536 ], [ -51.5111151, -21.6583034 ], [ -51.511476, -21.6596409 ], [ -51.5126398, -21.6598684 ], [ -51.5129533, -21.6610783 ], [ -51.5140929, -21.6617054 ], [ -51.5141814, -21.6630726 ], [ -51.5184467, -21.6656399 ], [ -51.5208578, -21.6710549 ], [ -51.5194998, -21.6734782 ], [ -51.5210513, -21.6763477 ], [ -51.5202478, -21.6813787 ], [ -51.5223499, -21.6856721 ], [ -51.5242587, -21.6869686 ], [ -51.5314118, -21.6869344 ], [ -51.5379538, -21.6836598 ], [ -51.5436959, -21.6852107 ], [ -51.5468552, -21.6823939 ], [ -51.5525118, -21.6824907 ], [ -51.555934, -21.685741 ], [ -51.5570503, -21.6848606 ], [ -51.5568655, -21.682184 ], [ -51.5584338, -21.6816487 ], [ -51.5612631, -21.6819517 ], [ -51.5640197, -21.684144 ], [ -51.5688457, -21.683747 ], [ -51.5720871, -21.6853123 ], [ -51.5745192, -21.6825927 ], [ -51.5769886, -21.6837868 ], [ -51.5784249, -21.6829936 ], [ -51.5788835, -21.6813204 ], [ -51.577714, -21.6779201 ], [ -51.5781544, -21.6771507 ], [ -51.5805636, -21.6796633 ], [ -51.5842223, -21.6801397 ], [ -51.5871105, -21.6824195 ], [ -51.5911383, -21.6824255 ], [ -51.5909662, -21.6812438 ], [ -51.5878574, -21.680154 ], [ -51.5882032, -21.6793714 ], [ -51.5912389, -21.6785859 ], [ -51.5918845, -21.6808405 ], [ -51.5990363, -21.6830563 ], [ -51.600334, -21.6804084 ], [ -51.6035155, -21.681484 ], [ -51.6070217, -21.6802209 ], [ -51.6092863, -21.6776305 ], [ -51.6097664, -21.6759571 ], [ -51.6113246, -21.6748098 ], [ -51.6117351, -21.6721854 ], [ -51.6168181, -21.6708212 ], [ -51.6184974, -21.6691297 ], [ -51.6247222, -21.6696024 ], [ -51.6251321, -21.6685613 ], [ -51.6238084, -21.6670375 ], [ -51.6241903, -21.6659487 ], [ -51.626261, -21.6673814 ], [ -51.6325819, -21.6665726 ], [ -51.6330858, -21.6646103 ], [ -51.63022, -21.6625555 ], [ -51.6323201, -21.6607265 ], [ -51.6361504, -21.6605963 ], [ -51.6374421, -21.6623063 ], [ -51.6382198, -21.6617367 ], [ -51.6378311, -21.660138 ], [ -51.6390692, -21.6573608 ], [ -51.6406501, -21.6573479 ], [ -51.6419088, -21.6592525 ], [ -51.6431797, -21.6581807 ], [ -51.6449454, -21.6580142 ], [ -51.6460709, -21.6561208 ], [ -51.6438507, -21.6554024 ], [ -51.6434099, -21.6543576 ], [ -51.6479702, -21.654965 ], [ -51.6488053, -21.6515506 ], [ -51.6470435, -21.6492744 ], [ -51.6509718, -21.645148 ], [ -51.6507107, -21.6436541 ], [ -51.6521279, -21.6436485 ], [ -51.6529046, -21.6450385 ], [ -51.6536957, -21.6450221 ], [ -51.6538899, -21.6427107 ], [ -51.6563753, -21.6426533 ], [ -51.6558106, -21.6415343 ], [ -51.6566009, -21.6411031 ], [ -51.6585392, -21.6438135 ], [ -51.6597361, -21.6416955 ], [ -51.6612994, -21.6418319 ], [ -51.6616418, -21.6435973 ], [ -51.6643292, -21.6431925 ], [ -51.6663731, -21.6419476 ], [ -51.6655219, -21.6401775 ], [ -51.6660785, -21.6371634 ], [ -51.6691184, -21.6344178 ], [ -51.6684634, -21.6326401 ], [ -51.6741367, -21.6320566 ], [ -51.6771354, -21.6345705 ], [ -51.6801876, -21.6345138 ], [ -51.6807113, -21.6365324 ], [ -51.6819339, -21.6337813 ], [ -51.6836742, -21.6351574 ], [ -51.6866495, -21.6357516 ], [ -51.6858756, -21.6323165 ], [ -51.6897152, -21.6324314 ], [ -51.6912362, -21.633621 ], [ -51.6919735, -21.6300998 ], [ -51.6976589, -21.6313238 ], [ -51.6978522, -21.6337855 ], [ -51.7001432, -21.6325908 ], [ -51.6986767, -21.6294283 ], [ -51.69408, -21.6270775 ], [ -51.6886317, -21.6221567 ], [ -51.6841012, -21.6201631 ], [ -51.6838075, -21.6136152 ], [ -51.6821743, -21.6110643 ], [ -51.6770435, -21.6108745 ], [ -51.6640482, -21.603777 ], [ -51.6592794, -21.5976763 ], [ -51.6465452, -21.5853075 ], [ -51.6444949, -21.5850149 ], [ -51.6405375, -21.5830346 ], [ -51.6393944, -21.5816447 ], [ -51.6317027, -21.5786049 ], [ -51.6284422, -21.5742948 ], [ -51.6250984, -21.5708987 ], [ -51.6233526, -21.5701211 ], [ -51.6214282, -21.5675709 ], [ -51.6193836, -21.5672971 ], [ -51.6160359, -21.5653458 ], [ -51.6089247, -21.5641383 ], [ -51.6068006, -21.561828 ], [ -51.6061676, -21.5591022 ], [ -51.6029366, -21.5565259 ], [ -51.6012747, -21.5562466 ], [ -51.5991112, -21.5543526 ], [ -51.5949958, -21.5537265 ], [ -51.586433, -21.5484456 ], [ -51.5825172, -21.5488962 ], [ -51.5801604, -21.5477293 ], [ -51.582365, -21.5519609 ], [ -51.5823051, -21.5541767 ], [ -51.5764269, -21.5587025 ], [ -51.5739334, -21.5618595 ], [ -51.5707409, -21.5706273 ], [ -51.5688869, -21.5731295 ] ] ] ] } }
]
}
