{
"type": "FeatureCollection",
"name": "ER_REGIAO_Chavantes_Irapé",
"crs": { "type": "name", "properties": { "name": "urn:ogc:def:crs:EPSG::4674" } },
"xy_coordinate_resolution": 1e-15,
"features": [
{ "type": "Feature", "properties": { "fid": 1041, "NM_REGIAO": "Sudeste", "NM_UF": "São Paulo", "NM_MUN": "Chavantes", "NM_DIST": "Irapé", "CD_SUBDIST": "35572041500", "ER_REGIAO": "Chavantes_Irapé", "ER_REGIAO_CIDADE": "Chavantes_Irapé_Ourinhos" }, "geometry": { "type": "MultiPolygon", "coordinates": [ [ [ [ -49.7220229, -23.0495957 ], [ -49.718385, -23.0518375 ], [ -49.7174464, -23.0568446 ], [ -49.7188224, -23.0645313 ], [ -49.722247, -23.0728259 ], [ -49.7229494, -23.0806098 ], [ -49.7239876, -23.082853 ], [ -49.7283344, -23.0878848 ], [ -49.7295255, -23.0914993 ], [ -49.7300109, -23.0990548 ], [ -49.7274384, -23.1052272 ], [ -49.727126, -23.1079945 ], [ -49.7304617, -23.1058789 ], [ -49.7353316, -23.1045616 ], [ -49.7402393, -23.0991683 ], [ -49.7452959, -23.0994423 ], [ -49.7497664, -23.0975105 ], [ -49.751382, -23.0977574 ], [ -49.7549814, -23.1026577 ], [ -49.7629482, -23.105576 ], [ -49.7678128, -23.105005 ], [ -49.7733019, -23.1021443 ], [ -49.7786731, -23.1012963 ], [ -49.7891791, -23.1033455 ], [ -49.7917155, -23.1024262 ], [ -49.7938767, -23.0965054 ], [ -49.7955726, -23.0945901 ], [ -49.7994654, -23.0933958 ], [ -49.8035119, -23.0944603 ], [ -49.8066035, -23.0943341 ], [ -49.8094686, -23.0892064 ], [ -49.8127219, -23.0799907 ], [ -49.8139066, -23.0786268 ], [ -49.8193899, -23.0769538 ], [ -49.8146943, -23.0759582 ], [ -49.8147085, -23.0737125 ], [ -49.8111579, -23.0723144 ], [ -49.8110927, -23.0700063 ], [ -49.8076877, -23.0601164 ], [ -49.8024777, -23.0587428 ], [ -49.7949038, -23.051146 ], [ -49.7941661, -23.04998 ], [ -49.7942706, -23.0458436 ], [ -49.7933707, -23.0424973 ], [ -49.7852532, -23.0400373 ], [ -49.7824244, -23.0377882 ], [ -49.7773395, -23.0369615 ], [ -49.7703519, -23.0333991 ], [ -49.7624587, -23.0337362 ], [ -49.7606203, -23.0324375 ], [ -49.7557256, -23.0312874 ], [ -49.7480132, -23.032032 ], [ -49.7423439, -23.026959 ], [ -49.7242632, -23.0492898 ], [ -49.7220229, -23.0495957 ] ] ] ] } }
]
}
