{
"type": "FeatureCollection",
"name": "ER_REGIAO_Nova Granada_Mangaratu",
"crs": { "type": "name", "properties": { "name": "urn:ogc:def:crs:EPSG::4674" } },
"xy_coordinate_resolution": 1e-15,
"features": [
{ "type": "Feature", "properties": { "fid": 559, "NM_REGIAO": "Sudeste", "NM_UF": "São Paulo", "NM_MUN": "Nova Granada", "NM_DIST": "Mangaratu", "CD_SUBDIST": "35330071500", "ER_REGIAO": "Nova Granada_Mangaratu", "ER_REGIAO_CIDADE": "Nova Granada_Mangaratu_Barretos" }, "geometry": { "type": "MultiPolygon", "coordinates": [ [ [ [ -49.2677471, -20.4169664 ], [ -49.2672399, -20.4187554 ], [ -49.2654551, -20.418919 ], [ -49.2668296, -20.420994 ], [ -49.2657469, -20.4212833 ], [ -49.2655102, -20.4226508 ], [ -49.2643573, -20.4214155 ], [ -49.2628592, -20.4221025 ], [ -49.2610714, -20.4255721 ], [ -49.2581232, -20.4235946 ], [ -49.2556368, -20.4231783 ], [ -49.2538606, -20.4248305 ], [ -49.253611, -20.4260934 ], [ -49.2515269, -20.4255898 ], [ -49.250196, -20.4266361 ], [ -49.2483845, -20.4244493 ], [ -49.2469933, -20.4254201 ], [ -49.2474648, -20.423875 ], [ -49.2452694, -20.4234289 ], [ -49.2437612, -20.4240138 ], [ -49.2432401, -20.4223712 ], [ -49.2406362, -20.4225602 ], [ -49.2399916, -20.4208316 ], [ -49.2364049, -20.4167902 ], [ -49.2283114, -20.4123768 ], [ -49.2223098, -20.4138224 ], [ -49.2229957, -20.4155515 ], [ -49.2240723, -20.414584 ], [ -49.2248272, -20.4163334 ], [ -49.2232254, -20.4172433 ], [ -49.2242958, -20.4186306 ], [ -49.2232248, -20.4197025 ], [ -49.2237389, -20.4219321 ], [ -49.2267746, -20.4221098 ], [ -49.2322414, -20.4257073 ], [ -49.2345034, -20.425776 ], [ -49.2347199, -20.4274154 ], [ -49.2363806, -20.4274192 ], [ -49.2377526, -20.4296836 ], [ -49.2371205, -20.4318889 ], [ -49.2349563, -20.4333799 ], [ -49.2268751, -20.4356721 ], [ -49.2272154, -20.4367779 ], [ -49.226056, -20.4389524 ], [ -49.2271263, -20.4390618 ], [ -49.2272269, -20.4375804 ], [ -49.229496, -20.4376492 ], [ -49.232809, -20.4414401 ], [ -49.2370574, -20.4439293 ], [ -49.2401653, -20.4469157 ], [ -49.2425675, -20.446242 ], [ -49.2438192, -20.4481529 ], [ -49.2494323, -20.448428 ], [ -49.2502035, -20.449998 ], [ -49.2520295, -20.4507078 ], [ -49.2529887, -20.4527393 ], [ -49.2596018, -20.4581787 ], [ -49.2640733, -20.4597804 ], [ -49.2685705, -20.4627043 ], [ -49.2728213, -20.4674738 ], [ -49.2795527, -20.4772619 ], [ -49.2812251, -20.478073 ], [ -49.2836397, -20.4785105 ], [ -49.2907136, -20.4751872 ], [ -49.2949427, -20.4749563 ], [ -49.299118, -20.4763916 ], [ -49.3034722, -20.4756135 ], [ -49.3106515, -20.4770285 ], [ -49.3143169, -20.479284 ], [ -49.3194394, -20.4801046 ], [ -49.3280319, -20.4837526 ], [ -49.3340005, -20.4844117 ], [ -49.3401189, -20.4836439 ], [ -49.3460119, -20.4885478 ], [ -49.3493292, -20.4901618 ], [ -49.346907, -20.4864742 ], [ -49.3472981, -20.4820373 ], [ -49.3493515, -20.4809794 ], [ -49.3559662, -20.4808582 ], [ -49.3618664, -20.4752816 ], [ -49.3608393, -20.4670695 ], [ -49.3582039, -20.4566458 ], [ -49.3600978, -20.4420061 ], [ -49.3599218, -20.4368927 ], [ -49.3606, -20.4357925 ], [ -49.3640438, -20.4340595 ], [ -49.3699132, -20.4283135 ], [ -49.3588012, -20.4232098 ], [ -49.3493645, -20.4226245 ], [ -49.3443172, -20.4199708 ], [ -49.3360528, -20.419772 ], [ -49.3305465, -20.418613 ], [ -49.3265357, -20.4198888 ], [ -49.3227276, -20.4182687 ], [ -49.3194899, -20.4184162 ], [ -49.3128218, -20.4220026 ], [ -49.3075329, -20.4224003 ], [ -49.3062126, -20.4213386 ], [ -49.3040874, -20.416391 ], [ -49.2975077, -20.4118985 ], [ -49.292389, -20.4101146 ], [ -49.2837314, -20.4086523 ], [ -49.2808764, -20.4088626 ], [ -49.2778759, -20.4105393 ], [ -49.2720469, -20.4163774 ], [ -49.2677471, -20.4169664 ] ] ] ] } }
]
}
