{
"type": "FeatureCollection",
"name": "ER_REGIAO_Borá",
"crs": { "type": "name", "properties": { "name": "urn:ogc:def:crs:EPSG::4674" } },
"xy_coordinate_resolution": 1e-15,
"features": [
{ "type": "Feature", "properties": { "fid": 109, "NM_REGIAO": "Sudeste", "NM_UF": "São Paulo", "NM_MUN": "Borá", "NM_DIST": "Borá", "CD_SUBDIST": "35072090500", "ER_REGIAO": "Borá", "ER_REGIAO_CIDADE": "Borá_Marília" }, "geometry": { "type": "MultiPolygon", "coordinates": [ [ [ [ -50.5489394, -22.2984911 ], [ -50.5581316, -22.2964088 ], [ -50.558281, -22.2895233 ], [ -50.5609528, -22.2834758 ], [ -50.5586319, -22.2805938 ], [ -50.558675, -22.2781587 ], [ -50.5566151, -22.2768669 ], [ -50.5555537, -22.2735245 ], [ -50.5544593, -22.261673 ], [ -50.5533317, -22.2582255 ], [ -50.5538391, -22.2553808 ], [ -50.5565219, -22.2508749 ], [ -50.5536371, -22.2480956 ], [ -50.5519547, -22.2450783 ], [ -50.5508292, -22.2365234 ], [ -50.5516315, -22.2332556 ], [ -50.5504811, -22.232105 ], [ -50.5491768, -22.2324558 ], [ -50.5445128, -22.230316 ], [ -50.5448351, -22.2277223 ], [ -50.5427099, -22.2258416 ], [ -50.5395041, -22.2267754 ], [ -50.5380323, -22.2255324 ], [ -50.5351369, -22.2251405 ], [ -50.5332421, -22.2224966 ], [ -50.5312176, -22.2222569 ], [ -50.5299735, -22.2234044 ], [ -50.5239315, -22.2203574 ], [ -50.5234729, -22.2178674 ], [ -50.5210246, -22.2159589 ], [ -50.5215037, -22.2140684 ], [ -50.5174663, -22.2103144 ], [ -50.5148735, -22.2053441 ], [ -50.5125533, -22.2039237 ], [ -50.5127102, -22.2010894 ], [ -50.5086352, -22.1970135 ], [ -50.5069668, -22.1915707 ], [ -50.504406, -22.1888141 ], [ -50.5042671, -22.1870676 ], [ -50.498552, -22.1831911 ], [ -50.4991667, -22.1802476 ], [ -50.4989382, -22.1782735 ], [ -50.4973776, -22.177044 ], [ -50.4980647, -22.1758073 ], [ -50.4971897, -22.1735937 ], [ -50.4977657, -22.1705039 ], [ -50.49689, -22.1696059 ], [ -50.4973778, -22.165942 ], [ -50.4954899, -22.1650664 ], [ -50.4949886, -22.1637201 ], [ -50.4920755, -22.1614125 ], [ -50.4921332, -22.1591323 ], [ -50.4908283, -22.1598006 ], [ -50.4893876, -22.1589739 ], [ -50.4887969, -22.1563262 ], [ -50.4866879, -22.1547848 ], [ -50.485246, -22.15216 ], [ -50.4813846, -22.1546255 ], [ -50.4794801, -22.1572542 ], [ -50.4750157, -22.1604192 ], [ -50.4732351, -22.1633409 ], [ -50.4694904, -22.1660291 ], [ -50.4674203, -22.1666874 ], [ -50.4649654, -22.1653638 ], [ -50.4595631, -22.1663582 ], [ -50.4583936, -22.1684958 ], [ -50.4554586, -22.1696189 ], [ -50.4540934, -22.1716096 ], [ -50.4517294, -22.1731402 ], [ -50.4529325, -22.1745292 ], [ -50.4516924, -22.1756031 ], [ -50.4526215, -22.1768341 ], [ -50.4519194, -22.1777672 ], [ -50.4523251, -22.1804034 ], [ -50.4507227, -22.1818232 ], [ -50.4524466, -22.1834735 ], [ -50.4508673, -22.185997 ], [ -50.4507706, -22.1876521 ], [ -50.4516966, -22.1886894 ], [ -50.4514761, -22.1908995 ], [ -50.4528072, -22.1916787 ], [ -50.4516265, -22.192592 ], [ -50.4525477, -22.1948498 ], [ -50.4535467, -22.1952917 ], [ -50.4531059, -22.19764 ], [ -50.453818, -22.200226 ], [ -50.4529977, -22.201272 ], [ -50.453989, -22.2026896 ], [ -50.453661, -22.2042781 ], [ -50.4525275, -22.2051331 ], [ -50.4544871, -22.2078402 ], [ -50.453136, -22.210127 ], [ -50.4537418, -22.21181 ], [ -50.4530126, -22.214647 ], [ -50.4540619, -22.2152827 ], [ -50.4550454, -22.2177381 ], [ -50.4540076, -22.220194 ], [ -50.4561197, -22.222094 ], [ -50.4556794, -22.2243034 ], [ -50.457134, -22.2257334 ], [ -50.4565884, -22.2272591 ], [ -50.4577145, -22.2283811 ], [ -50.4609703, -22.2289109 ], [ -50.4616747, -22.2309998 ], [ -50.4644243, -22.2330444 ], [ -50.4642859, -22.2343522 ], [ -50.4665442, -22.2350539 ], [ -50.4674895, -22.23418 ], [ -50.4702207, -22.2359686 ], [ -50.4714221, -22.2348506 ], [ -50.4726614, -22.2351396 ], [ -50.4723878, -22.2363205 ], [ -50.4711483, -22.2361433 ], [ -50.4722826, -22.2372287 ], [ -50.4712539, -22.2372984 ], [ -50.4712439, -22.2384093 ], [ -50.4740591, -22.2434578 ], [ -50.4738335, -22.2460553 ], [ -50.4746798, -22.2485942 ], [ -50.4759264, -22.2495995 ], [ -50.4761261, -22.2518329 ], [ -50.4792907, -22.2580865 ], [ -50.4767291, -22.2626212 ], [ -50.4773662, -22.266126 ], [ -50.4783749, -22.266808 ], [ -50.4770972, -22.2693064 ], [ -50.4788449, -22.2711393 ], [ -50.4796415, -22.273899 ], [ -50.4782098, -22.2748564 ], [ -50.4766296, -22.2745499 ], [ -50.4754509, -22.2763221 ], [ -50.4768066, -22.2776338 ], [ -50.4769503, -22.2829066 ], [ -50.4705353, -22.2967414 ], [ -50.4708094, -22.305524 ], [ -50.4650253, -22.3114289 ], [ -50.4653152, -22.3159128 ], [ -50.4710412, -22.3125201 ], [ -50.475277, -22.3134021 ], [ -50.4761526, -22.3090769 ], [ -50.4770014, -22.3085218 ], [ -50.480525, -22.3099671 ], [ -50.4841512, -22.3147993 ], [ -50.4892177, -22.318997 ], [ -50.4930486, -22.3177982 ], [ -50.4986273, -22.3121134 ], [ -50.5066905, -22.3138003 ], [ -50.5087618, -22.3156503 ], [ -50.5147897, -22.3152234 ], [ -50.5194427, -22.3126888 ], [ -50.5231417, -22.3123261 ], [ -50.5269448, -22.3080713 ], [ -50.5301249, -22.3087453 ], [ -50.532308, -22.3081263 ], [ -50.532963, -22.306488 ], [ -50.5323297, -22.3038717 ], [ -50.5329636, -22.3031628 ], [ -50.54348, -22.3015344 ], [ -50.5489394, -22.2984911 ] ] ] ] } }
]
}
