{
"type": "FeatureCollection",
"name": "ER_REGIAO_Lutécia",
"crs": { "type": "name", "properties": { "name": "urn:ogc:def:crs:EPSG::4674" } },
"xy_coordinate_resolution": 1e-15,
"features": [
{ "type": "Feature", "properties": { "fid": 455, "NM_REGIAO": "Sudeste", "NM_UF": "São Paulo", "NM_MUN": "Lutécia", "NM_DIST": "Lutécia", "CD_SUBDIST": "35279000500", "ER_REGIAO": "Lutécia", "ER_REGIAO_CIDADE": "Lutécia_Marília" }, "geometry": { "type": "MultiPolygon", "coordinates": [ [ [ [ -50.4383016, -22.4570534 ], [ -50.4403265, -22.4583596 ], [ -50.4434937, -22.4576367 ], [ -50.4453455, -22.4593313 ], [ -50.4487481, -22.4582969 ], [ -50.4509969, -22.4599371 ], [ -50.4532234, -22.4578009 ], [ -50.4556876, -22.4571263 ], [ -50.4580143, -22.4578095 ], [ -50.460508, -22.4562823 ], [ -50.4628725, -22.4584606 ], [ -50.4657908, -22.4573521 ], [ -50.4683394, -22.4603216 ], [ -50.4713864, -22.4595062 ], [ -50.4722889, -22.4605548 ], [ -50.4725379, -22.4598208 ], [ -50.4703226, -22.4560821 ], [ -50.471107, -22.4548106 ], [ -50.4711154, -22.4519871 ], [ -50.4699883, -22.4507135 ], [ -50.4697481, -22.4479613 ], [ -50.4698859, -22.4459334 ], [ -50.4708231, -22.4448428 ], [ -50.4709105, -22.4397827 ], [ -50.4731229, -22.4378299 ], [ -50.4719709, -22.4357017 ], [ -50.4697332, -22.4189663 ], [ -50.4684288, -22.4147669 ], [ -50.4671873, -22.4117286 ], [ -50.4647822, -22.4090329 ], [ -50.4626895, -22.4080376 ], [ -50.459564, -22.4085861 ], [ -50.457319, -22.4064005 ], [ -50.4559953, -22.4019445 ], [ -50.4515649, -22.3940171 ], [ -50.4518157, -22.3891915 ], [ -50.4572652, -22.3812909 ], [ -50.4579139, -22.376428 ], [ -50.4575125, -22.3711472 ], [ -50.4559882, -22.3664515 ], [ -50.4492249, -22.3639236 ], [ -50.4423493, -22.355928 ], [ -50.4422339, -22.3548144 ], [ -50.4455779, -22.348181 ], [ -50.4462609, -22.3432684 ], [ -50.4484757, -22.3386779 ], [ -50.4484391, -22.3354901 ], [ -50.4510278, -22.3306183 ], [ -50.4520711, -22.3146798 ], [ -50.4599036, -22.3131859 ], [ -50.4653152, -22.3159128 ], [ -50.4650253, -22.3114289 ], [ -50.4708094, -22.305524 ], [ -50.4705353, -22.2967414 ], [ -50.4770704, -22.2824141 ], [ -50.4763579, -22.2794988 ], [ -50.4768066, -22.2776338 ], [ -50.4754509, -22.2763221 ], [ -50.4766296, -22.2745499 ], [ -50.4782098, -22.2748564 ], [ -50.4796415, -22.273899 ], [ -50.4788449, -22.2711393 ], [ -50.4770972, -22.2693064 ], [ -50.4783749, -22.266808 ], [ -50.4773662, -22.266126 ], [ -50.4767291, -22.2626212 ], [ -50.4792907, -22.2580865 ], [ -50.4761261, -22.2518329 ], [ -50.4759264, -22.2495995 ], [ -50.4746798, -22.2485942 ], [ -50.4738335, -22.2460553 ], [ -50.4740591, -22.2434578 ], [ -50.4712439, -22.2384093 ], [ -50.4712539, -22.2372984 ], [ -50.4722826, -22.2372287 ], [ -50.4711483, -22.2361433 ], [ -50.4723878, -22.2363205 ], [ -50.4726614, -22.2351396 ], [ -50.4714221, -22.2348506 ], [ -50.4702207, -22.2359686 ], [ -50.4674895, -22.23418 ], [ -50.4665442, -22.2350539 ], [ -50.4642859, -22.2343522 ], [ -50.4644243, -22.2330444 ], [ -50.4616747, -22.2309998 ], [ -50.4609703, -22.2289109 ], [ -50.4577145, -22.2283811 ], [ -50.4565884, -22.2272591 ], [ -50.457134, -22.2257334 ], [ -50.4556794, -22.2243034 ], [ -50.4561197, -22.222094 ], [ -50.4540076, -22.220194 ], [ -50.4550454, -22.2177381 ], [ -50.4540619, -22.2152827 ], [ -50.4530126, -22.214647 ], [ -50.4537418, -22.21181 ], [ -50.453136, -22.210127 ], [ -50.4544871, -22.2078402 ], [ -50.4525275, -22.2051331 ], [ -50.453661, -22.2042781 ], [ -50.453989, -22.2026896 ], [ -50.4529977, -22.201272 ], [ -50.453818, -22.200226 ], [ -50.4531059, -22.19764 ], [ -50.4535467, -22.1952917 ], [ -50.4525477, -22.1948498 ], [ -50.4516265, -22.192592 ], [ -50.4528072, -22.1916787 ], [ -50.4514761, -22.1908995 ], [ -50.4516966, -22.1886894 ], [ -50.4507706, -22.1876521 ], [ -50.4508673, -22.185997 ], [ -50.4525222, -22.1842265 ], [ -50.4507227, -22.1818232 ], [ -50.4522569, -22.1808015 ], [ -50.4519194, -22.1777672 ], [ -50.4526215, -22.1768341 ], [ -50.4516924, -22.1756031 ], [ -50.4529325, -22.1745292 ], [ -50.4517294, -22.1731402 ], [ -50.4472867, -22.173476 ], [ -50.4441096, -22.1752266 ], [ -50.4404425, -22.1738692 ], [ -50.4377035, -22.1739548 ], [ -50.4351909, -22.1723894 ], [ -50.4346028, -22.1683602 ], [ -50.4332678, -22.16666 ], [ -50.4315622, -22.1654262 ], [ -50.4296406, -22.1652221 ], [ -50.4266498, -22.1655405 ], [ -50.4262394, -22.168046 ], [ -50.4235996, -22.1688552 ], [ -50.4226862, -22.1734711 ], [ -50.4184578, -22.1732076 ], [ -50.4162732, -22.1758601 ], [ -50.4130748, -22.1750958 ], [ -50.4111564, -22.1778589 ], [ -50.4106027, -22.1807877 ], [ -50.4064666, -22.1827826 ], [ -50.4036807, -22.1827943 ], [ -50.4017543, -22.1855353 ], [ -50.3987286, -22.1846983 ], [ -50.395704, -22.1873109 ], [ -50.3891163, -22.1862851 ], [ -50.3867389, -22.1879791 ], [ -50.3836017, -22.1857527 ], [ -50.3809134, -22.1867657 ], [ -50.377092, -22.1848728 ], [ -50.3665489, -22.1857092 ], [ -50.3653963, -22.1872395 ], [ -50.3633379, -22.1877577 ], [ -50.3618239, -22.1893451 ], [ -50.3629871, -22.1924485 ], [ -50.3621126, -22.19493 ], [ -50.3612328, -22.195102 ], [ -50.3583801, -22.1942137 ], [ -50.3541406, -22.1945478 ], [ -50.3504463, -22.1923697 ], [ -50.3492702, -22.18874 ], [ -50.3474877, -22.1872565 ], [ -50.3445428, -22.1893934 ], [ -50.3403791, -22.1903267 ], [ -50.3397151, -22.1913326 ], [ -50.3406498, -22.192842 ], [ -50.3402294, -22.195486 ], [ -50.3342877, -22.1996018 ], [ -50.3308223, -22.199862 ], [ -50.3285264, -22.2019547 ], [ -50.3248069, -22.2005972 ], [ -50.3210483, -22.2020579 ], [ -50.3187957, -22.2069599 ], [ -50.3155491, -22.2063762 ], [ -50.3108062, -22.2068386 ], [ -50.3088296, -22.2033805 ], [ -50.306851, -22.2035329 ], [ -50.3054607, -22.202153 ], [ -50.3047697, -22.2022231 ], [ -50.3039913, -22.2046901 ], [ -50.3017615, -22.2042566 ], [ -50.2995581, -22.2054312 ], [ -50.2981994, -22.207194 ], [ -50.2992749, -22.2087334 ], [ -50.3010749, -22.2098382 ], [ -50.3040511, -22.2094847 ], [ -50.3035604, -22.2118945 ], [ -50.3044054, -22.2140322 ], [ -50.3038204, -22.216478 ], [ -50.305781, -22.2200237 ], [ -50.3060403, -22.2225239 ], [ -50.3076133, -22.224117 ], [ -50.3072658, -22.2261473 ], [ -50.3099617, -22.2299032 ], [ -50.3101063, -22.2324169 ], [ -50.3094317, -22.2342799 ], [ -50.3084341, -22.2346541 ], [ -50.3107336, -22.2361528 ], [ -50.3121575, -22.238768 ], [ -50.3107863, -22.2414444 ], [ -50.3121976, -22.2418085 ], [ -50.3117533, -22.2437321 ], [ -50.3124893, -22.2447843 ], [ -50.3116464, -22.2453727 ], [ -50.3116654, -22.2467166 ], [ -50.3097065, -22.2471186 ], [ -50.3096698, -22.2482001 ], [ -50.314472, -22.2535848 ], [ -50.3152995, -22.2552003 ], [ -50.3144163, -22.258569 ], [ -50.3203832, -22.2651425 ], [ -50.3203837, -22.2682998 ], [ -50.3245204, -22.2702173 ], [ -50.3252999, -22.2714191 ], [ -50.3249587, -22.2773434 ], [ -50.3283834, -22.2768694 ], [ -50.329862, -22.279682 ], [ -50.3259498, -22.2832762 ], [ -50.3264821, -22.2845962 ], [ -50.3280435, -22.2855505 ], [ -50.3277226, -22.2869817 ], [ -50.3284459, -22.2883026 ], [ -50.325893, -22.2918415 ], [ -50.3270779, -22.2936882 ], [ -50.3303231, -22.2949879 ], [ -50.3312908, -22.2962928 ], [ -50.3292867, -22.2982286 ], [ -50.3300029, -22.2995617 ], [ -50.330018, -22.3029675 ], [ -50.3314086, -22.3045373 ], [ -50.3314186, -22.3057359 ], [ -50.3311647, -22.3095645 ], [ -50.3298107, -22.3102021 ], [ -50.3288271, -22.3122151 ], [ -50.3298727, -22.3136812 ], [ -50.3297127, -22.3175832 ], [ -50.3282629, -22.3185127 ], [ -50.3283216, -22.3193754 ], [ -50.3302832, -22.319822 ], [ -50.3310327, -22.3222653 ], [ -50.330655, -22.3244895 ], [ -50.3315787, -22.3248994 ], [ -50.3324921, -22.3280126 ], [ -50.3311546, -22.3306651 ], [ -50.3325739, -22.3419833 ], [ -50.3318641, -22.3438347 ], [ -50.329184, -22.3452809 ], [ -50.3286472, -22.3510831 ], [ -50.3294155, -22.3558535 ], [ -50.331739, -22.3581686 ], [ -50.330083, -22.3592862 ], [ -50.3242274, -22.3592663 ], [ -50.3142059, -22.3563563 ], [ -50.3123003, -22.3583175 ], [ -50.3093273, -22.3588783 ], [ -50.3061818, -22.3647968 ], [ -50.3036829, -22.3640609 ], [ -50.2984511, -22.3685358 ], [ -50.2938309, -22.3705159 ], [ -50.2910971, -22.3707626 ], [ -50.2860001, -22.369627 ], [ -50.2810429, -22.3704647 ], [ -50.2761278, -22.3724546 ], [ -50.273032, -22.3705774 ], [ -50.2719949, -22.3682389 ], [ -50.2707504, -22.3682139 ], [ -50.2637778, -22.3713427 ], [ -50.2602079, -22.3706373 ], [ -50.2555968, -22.3725813 ], [ -50.252622, -22.3750734 ], [ -50.2499082, -22.3751107 ], [ -50.2479596, -22.377107 ], [ -50.2418686, -22.3796014 ], [ -50.2367877, -22.3793465 ], [ -50.2376179, -22.3810519 ], [ -50.2400481, -22.3817746 ], [ -50.2451324, -22.3815093 ], [ -50.2481478, -22.3804721 ], [ -50.2530637, -22.3811161 ], [ -50.2557321, -22.3847168 ], [ -50.2589842, -22.3864565 ], [ -50.2617288, -22.3890781 ], [ -50.2634624, -22.3926744 ], [ -50.2663409, -22.3922855 ], [ -50.2685193, -22.3935013 ], [ -50.2703447, -22.3961186 ], [ -50.2754768, -22.3976472 ], [ -50.2757103, -22.3995996 ], [ -50.2803571, -22.40535 ], [ -50.2813573, -22.4080147 ], [ -50.2811574, -22.4102137 ], [ -50.2830436, -22.4148409 ], [ -50.2845606, -22.4148476 ], [ -50.2859256, -22.4169292 ], [ -50.28824, -22.4177945 ], [ -50.2894344, -22.4194149 ], [ -50.2925909, -22.4185591 ], [ -50.2943969, -22.4189324 ], [ -50.2984057, -22.4220924 ], [ -50.3004972, -22.42197 ], [ -50.300942, -22.4226223 ], [ -50.2997116, -22.4234428 ], [ -50.300246, -22.425699 ], [ -50.3015177, -22.4269733 ], [ -50.302129, -22.4304839 ], [ -50.3041332, -22.4321443 ], [ -50.3049198, -22.4349609 ], [ -50.3088998, -22.4363963 ], [ -50.3129037, -22.4390178 ], [ -50.3143256, -22.4390439 ], [ -50.3197516, -22.4435742 ], [ -50.3291188, -22.4431541 ], [ -50.3362647, -22.4449449 ], [ -50.3364512, -22.4498534 ], [ -50.3353089, -22.4538213 ], [ -50.3408666, -22.4601502 ], [ -50.3435252, -22.4650852 ], [ -50.3444205, -22.4709622 ], [ -50.347388, -22.4724378 ], [ -50.3496821, -22.4789074 ], [ -50.351344, -22.4775806 ], [ -50.3568029, -22.4759761 ], [ -50.3584284, -22.4733273 ], [ -50.3607866, -22.4716067 ], [ -50.3704628, -22.4699091 ], [ -50.3733892, -22.4680875 ], [ -50.3771038, -22.4614797 ], [ -50.381852, -22.4568943 ], [ -50.3823984, -22.4546034 ], [ -50.3958391, -22.4473747 ], [ -50.3977286, -22.444918 ], [ -50.4047707, -22.4458296 ], [ -50.4078496, -22.4480731 ], [ -50.4090967, -22.4476093 ], [ -50.4109111, -22.4483602 ], [ -50.4126088, -22.4520186 ], [ -50.4156661, -22.4527339 ], [ -50.417958, -22.4557426 ], [ -50.4200832, -22.4553324 ], [ -50.4215844, -22.4564397 ], [ -50.4285783, -22.4578921 ], [ -50.4310715, -22.4572321 ], [ -50.4356858, -22.4582546 ], [ -50.4364706, -22.4572854 ], [ -50.4383016, -22.4570534 ] ] ] ] } }
]
}
