{
"type": "FeatureCollection",
"name": "ER_REGIAO_Olímpia_Olímpia",
"crs": { "type": "name", "properties": { "name": "urn:ogc:def:crs:EPSG::4674" } },
"xy_coordinate_resolution": 1e-15,
"features": [
{ "type": "Feature", "properties": { "fid": 572, "NM_REGIAO": "Sudeste", "NM_UF": "São Paulo", "NM_MUN": "Olímpia", "NM_DIST": "Olímpia", "CD_SUBDIST": "35339080500", "ER_REGIAO": "Olímpia_Olímpia", "ER_REGIAO_CIDADE": "Olímpia_Olímpia_Barretos" }, "geometry": { "type": "MultiPolygon", "coordinates": [ [ [ [ -48.916367, -20.6798992 ], [ -48.9143545, -20.6813034 ], [ -48.9127396, -20.6814396 ], [ -48.905758, -20.6769448 ], [ -48.9009602, -20.6762415 ], [ -48.8891879, -20.6720011 ], [ -48.8863714, -20.6703482 ], [ -48.8817893, -20.6652049 ], [ -48.875234, -20.6662959 ], [ -48.8698104, -20.6637723 ], [ -48.8672796, -20.6638819 ], [ -48.8623015, -20.6602537 ], [ -48.8587388, -20.6543775 ], [ -48.8543274, -20.6548255 ], [ -48.8461406, -20.6506469 ], [ -48.8416052, -20.6525217 ], [ -48.8358353, -20.65203 ], [ -48.8328465, -20.6530223 ], [ -48.8308841, -20.6545792 ], [ -48.8288292, -20.6586645 ], [ -48.8274722, -20.6590688 ], [ -48.8213986, -20.6577355 ], [ -48.8163486, -20.6548452 ], [ -48.8142769, -20.6553189 ], [ -48.8109653, -20.6581723 ], [ -48.8096769, -20.6582255 ], [ -48.8065269, -20.6533713 ], [ -48.8050026, -20.6526007 ], [ -48.7993845, -20.6541366 ], [ -48.7929423, -20.6613292 ], [ -48.7921146, -20.6631853 ], [ -48.7942832, -20.6694365 ], [ -48.7892806, -20.6764506 ], [ -48.7891805, -20.6832196 ], [ -48.787289, -20.6858468 ], [ -48.7865066, -20.6887289 ], [ -48.7900659, -20.6954804 ], [ -48.7898824, -20.6992936 ], [ -48.7914416, -20.707385 ], [ -48.7927298, -20.7084449 ], [ -48.79489, -20.7086928 ], [ -48.7974149, -20.7125695 ], [ -48.800731, -20.7140164 ], [ -48.7980857, -20.7155909 ], [ -48.7969218, -20.7199868 ], [ -48.7945231, -20.7213408 ], [ -48.7941192, -20.7226145 ], [ -48.7923696, -20.7230777 ], [ -48.7929959, -20.7240006 ], [ -48.7924191, -20.725305 ], [ -48.802765, -20.7256501 ], [ -48.8043442, -20.7262946 ], [ -48.806626, -20.7329671 ], [ -48.8122814, -20.7399319 ], [ -48.8141372, -20.7574465 ], [ -48.8154257, -20.7600002 ], [ -48.8207559, -20.7638028 ], [ -48.8202977, -20.7697626 ], [ -48.8214397, -20.7730071 ], [ -48.8253261, -20.7729888 ], [ -48.8292204, -20.7709643 ], [ -48.833837, -20.7699574 ], [ -48.8368794, -20.7699738 ], [ -48.8414545, -20.7715939 ], [ -48.8441054, -20.7745899 ], [ -48.8471171, -20.7759362 ], [ -48.8512126, -20.7798298 ], [ -48.8555283, -20.785396 ], [ -48.8600819, -20.7881496 ], [ -48.882555, -20.8075498 ], [ -48.8888462, -20.8171031 ], [ -48.8917033, -20.8237961 ], [ -48.9022053, -20.8181759 ], [ -48.912071, -20.8157573 ], [ -48.9162085, -20.8132176 ], [ -48.9194093, -20.8129501 ], [ -48.9208541, -20.813915 ], [ -48.9267358, -20.8270396 ], [ -48.9286545, -20.8389747 ], [ -48.9347195, -20.846124 ], [ -48.9371565, -20.851855 ], [ -48.9396181, -20.8543033 ], [ -48.9416901, -20.8586817 ], [ -48.9436871, -20.8600248 ], [ -48.9444382, -20.8630296 ], [ -48.9493791, -20.8695674 ], [ -48.9502633, -20.8692908 ], [ -48.9504441, -20.8673392 ], [ -48.9516116, -20.8663802 ], [ -48.9560833, -20.868248 ], [ -48.9569164, -20.8664784 ], [ -48.9590355, -20.865813 ], [ -48.960176, -20.8641389 ], [ -48.9655019, -20.8628812 ], [ -48.9688474, -20.8591688 ], [ -48.9707556, -20.858597 ], [ -48.9703482, -20.8576971 ], [ -48.9732428, -20.8564291 ], [ -48.9840723, -20.8484825 ], [ -48.9889266, -20.8480027 ], [ -48.9894229, -20.8489503 ], [ -48.9909919, -20.8491482 ], [ -48.9944601, -20.8480227 ], [ -49.0004307, -20.8483469 ], [ -49.0027957, -20.850082 ], [ -49.0044776, -20.8535515 ], [ -49.0065608, -20.8544515 ], [ -49.0079714, -20.8539783 ], [ -49.007826, -20.8550026 ], [ -49.0094861, -20.8553868 ], [ -49.0104238, -20.8546764 ], [ -49.0111225, -20.8554965 ], [ -49.0117407, -20.8547092 ], [ -49.0129176, -20.8551118 ], [ -49.012623, -20.8538144 ], [ -49.0148261, -20.8540576 ], [ -49.0147161, -20.854738 ], [ -49.0161368, -20.8544244 ], [ -49.018368, -20.8525608 ], [ -49.0222916, -20.8511785 ], [ -49.0281934, -20.8444584 ], [ -49.0282357, -20.8432609 ], [ -49.0320717, -20.8402375 ], [ -49.0325933, -20.8388448 ], [ -49.0346704, -20.8372989 ], [ -49.041663, -20.835495 ], [ -49.04088, -20.8333756 ], [ -49.0459203, -20.8298642 ], [ -49.0460863, -20.8267652 ], [ -49.0470462, -20.8265983 ], [ -49.0466757, -20.8255851 ], [ -49.0496967, -20.8237645 ], [ -49.0543309, -20.8225738 ], [ -49.0548663, -20.8187513 ], [ -49.0585373, -20.8172068 ], [ -49.0604285, -20.8147139 ], [ -49.0619924, -20.8148822 ], [ -49.0627818, -20.8133115 ], [ -49.0639951, -20.8134751 ], [ -49.0640545, -20.8122158 ], [ -49.0653455, -20.8119412 ], [ -49.0637265, -20.8106905 ], [ -49.0621322, -20.8072437 ], [ -49.06052, -20.8057599 ], [ -49.056843, -20.8040871 ], [ -49.0559287, -20.802744 ], [ -49.0540174, -20.8020937 ], [ -49.052642, -20.7998051 ], [ -49.0437635, -20.7942572 ], [ -49.0403166, -20.7897671 ], [ -49.0384236, -20.7886218 ], [ -49.0378351, -20.7854669 ], [ -49.0357958, -20.783188 ], [ -49.03525, -20.7799334 ], [ -49.0305772, -20.7735515 ], [ -49.0277037, -20.7664524 ], [ -49.0270365, -20.7590251 ], [ -49.0260448, -20.7564818 ], [ -49.0268255, -20.7495755 ], [ -49.0306615, -20.743765 ], [ -49.0339085, -20.7408286 ], [ -49.0363273, -20.7397427 ], [ -49.0328247, -20.7360491 ], [ -49.0260906, -20.7323956 ], [ -49.0219377, -20.7311176 ], [ -49.0205905, -20.7289918 ], [ -49.0193157, -20.7153415 ], [ -49.0182228, -20.7136095 ], [ -49.016438, -20.7116243 ], [ -49.0120929, -20.7110999 ], [ -49.0062236, -20.7077699 ], [ -49.0020278, -20.703561 ], [ -49.0003273, -20.6975657 ], [ -48.9949819, -20.6920895 ], [ -48.9945218, -20.6924184 ], [ -48.9948574, -20.6918465 ], [ -48.9940846, -20.6920185 ], [ -48.9935057, -20.6906976 ], [ -48.991078, -20.6893862 ], [ -48.9878053, -20.688542 ], [ -48.9859028, -20.6862136 ], [ -48.9832901, -20.6855056 ], [ -48.9822846, -20.6836148 ], [ -48.9796411, -20.6826789 ], [ -48.97959, -20.6743499 ], [ -48.9737689, -20.6686344 ], [ -48.9702932, -20.6688016 ], [ -48.9699592, -20.669933 ], [ -48.967057, -20.6677673 ], [ -48.964837, -20.6672461 ], [ -48.964206, -20.6660335 ], [ -48.9625165, -20.666078 ], [ -48.9615089, -20.667341 ], [ -48.958902, -20.6656584 ], [ -48.9539477, -20.6716291 ], [ -48.9497916, -20.6718986 ], [ -48.9473939, -20.6745664 ], [ -48.9461863, -20.6744672 ], [ -48.9440692, -20.6760543 ], [ -48.9403464, -20.6756501 ], [ -48.9383595, -20.6740096 ], [ -48.9376086, -20.6749639 ], [ -48.9364701, -20.6744325 ], [ -48.9353238, -20.6752059 ], [ -48.9303165, -20.6739578 ], [ -48.9282708, -20.6759908 ], [ -48.9176789, -20.6773027 ], [ -48.9174968, -20.6782447 ], [ -48.9165198, -20.6781404 ], [ -48.916367, -20.6798992 ] ] ] ] } }
]
}
