{
"type": "FeatureCollection",
"name": "ER_REGIAO_Barrinha",
"crs": { "type": "name", "properties": { "name": "urn:ogc:def:crs:EPSG::4674" } },
"xy_coordinate_resolution": 1e-15,
"features": [
{ "type": "Feature", "properties": { "fid": 84, "NM_REGIAO": "Sudeste", "NM_UF": "São Paulo", "NM_MUN": "Barrinha", "NM_DIST": "Barrinha", "CD_SUBDIST": "35056090500", "ER_REGIAO": "Barrinha", "ER_REGIAO_CIDADE": "Barrinha_Ribeirão Preto" }, "geometry": { "type": "MultiPolygon", "coordinates": [ [ [ [ -48.1390315, -21.2486715 ], [ -48.1412827, -21.2369252 ], [ -48.1440766, -21.2359458 ], [ -48.1472282, -21.2396625 ], [ -48.1500461, -21.2400738 ], [ -48.1521799, -21.2393333 ], [ -48.1567927, -21.2332377 ], [ -48.1589674, -21.2256985 ], [ -48.1622001, -21.2244387 ], [ -48.1705731, -21.2157684 ], [ -48.1722154, -21.2032404 ], [ -48.1772667, -21.1911991 ], [ -48.1783124, -21.1866842 ], [ -48.1777294, -21.1845768 ], [ -48.1744597, -21.1810223 ], [ -48.1720338, -21.1762047 ], [ -48.1690163, -21.1613889 ], [ -48.167457, -21.1634812 ], [ -48.1657647, -21.1639557 ], [ -48.1654736, -21.163297 ], [ -48.166815, -21.1616507 ], [ -48.164591, -21.1623913 ], [ -48.1648594, -21.1601476 ], [ -48.1627554, -21.1610488 ], [ -48.1624229, -21.1595798 ], [ -48.1609638, -21.1608622 ], [ -48.16047, -21.1597988 ], [ -48.1594724, -21.1597106 ], [ -48.1587066, -21.1613703 ], [ -48.1585936, -21.1596651 ], [ -48.1575571, -21.1595844 ], [ -48.157269, -21.1608809 ], [ -48.1551166, -21.1600727 ], [ -48.1552562, -21.1611275 ], [ -48.1532482, -21.1623261 ], [ -48.1537719, -21.1641723 ], [ -48.1527668, -21.1637607 ], [ -48.1515987, -21.1655037 ], [ -48.1503577, -21.1656733 ], [ -48.151009, -21.1636705 ], [ -48.1480883, -21.1657049 ], [ -48.1467123, -21.1657304 ], [ -48.1459875, -21.1649065 ], [ -48.1469152, -21.16479 ], [ -48.1470106, -21.1631288 ], [ -48.1459801, -21.1639462 ], [ -48.1447215, -21.1632929 ], [ -48.1438225, -21.1610235 ], [ -48.1412388, -21.1620644 ], [ -48.1390752, -21.1619052 ], [ -48.1390171, -21.1628893 ], [ -48.1400251, -21.162835 ], [ -48.1396223, -21.1636407 ], [ -48.1403865, -21.1650768 ], [ -48.1377776, -21.1656049 ], [ -48.1374651, -21.1679765 ], [ -48.13887, -21.1680736 ], [ -48.1372699, -21.1691852 ], [ -48.1368228, -21.1683817 ], [ -48.1338344, -21.169027 ], [ -48.1351258, -21.169409 ], [ -48.1347505, -21.1702264 ], [ -48.1362687, -21.1724768 ], [ -48.1347357, -21.1718184 ], [ -48.1337953, -21.1737886 ], [ -48.1323714, -21.1727587 ], [ -48.1312946, -21.1733315 ], [ -48.1315188, -21.1719996 ], [ -48.1303663, -21.1714191 ], [ -48.1275562, -21.1720102 ], [ -48.1264364, -21.1735207 ], [ -48.1252628, -21.1724977 ], [ -48.1233456, -21.1729019 ], [ -48.1230444, -21.1716274 ], [ -48.1203105, -21.1722183 ], [ -48.1201018, -21.1709201 ], [ -48.1192818, -21.1737382 ], [ -48.11992, -21.1753815 ], [ -48.1179162, -21.1766823 ], [ -48.1187158, -21.1772696 ], [ -48.1171526, -21.1783679 ], [ -48.1166605, -21.1802275 ], [ -48.1148078, -21.1799285 ], [ -48.1140336, -21.1805458 ], [ -48.1156401, -21.1816352 ], [ -48.1122079, -21.1827659 ], [ -48.1133928, -21.1843292 ], [ -48.1119454, -21.1839875 ], [ -48.1111051, -21.1847653 ], [ -48.1118495, -21.1865949 ], [ -48.110692, -21.1863092 ], [ -48.1108304, -21.1880152 ], [ -48.1100171, -21.1886437 ], [ -48.1083327, -21.1852962 ], [ -48.1068108, -21.1845497 ], [ -48.1069721, -21.1859723 ], [ -48.1054439, -21.1861351 ], [ -48.1062924, -21.1872873 ], [ -48.1050082, -21.1865986 ], [ -48.1031036, -21.1875049 ], [ -48.1019067, -21.1860266 ], [ -48.0940892, -21.1886669 ], [ -48.0940495, -21.1874142 ], [ -48.0920912, -21.1851932 ], [ -48.0879419, -21.1836867 ], [ -48.0869287, -21.1840833 ], [ -48.0862655, -21.1830742 ], [ -48.0856805, -21.1845004 ], [ -48.0816418, -21.183317 ], [ -48.0796974, -21.1842505 ], [ -48.0792928, -21.1856209 ], [ -48.0774917, -21.1856939 ], [ -48.0770847, -21.1850257 ], [ -48.0768601, -21.1862332 ], [ -48.0752439, -21.1859699 ], [ -48.0758031, -21.1870257 ], [ -48.0722875, -21.186231 ], [ -48.0727386, -21.1870951 ], [ -48.0706536, -21.1878328 ], [ -48.0693473, -21.1867122 ], [ -48.0691255, -21.1873899 ], [ -48.0672844, -21.1876431 ], [ -48.0670582, -21.1886931 ], [ -48.0667657, -21.187912 ], [ -48.0650716, -21.1876467 ], [ -48.0643837, -21.1894444 ], [ -48.0631682, -21.1882972 ], [ -48.0625096, -21.189341 ], [ -48.0612233, -21.188589 ], [ -48.0603125, -21.1901548 ], [ -48.0572796, -21.190108 ], [ -48.0557018, -21.1928279 ], [ -48.0546229, -21.1919742 ], [ -48.0542064, -21.1928421 ], [ -48.0501042, -21.1925211 ], [ -48.0473197, -21.1944215 ], [ -48.0474486, -21.1962512 ], [ -48.0459109, -21.1977247 ], [ -48.0458714, -21.1995936 ], [ -48.0441963, -21.201584 ], [ -48.0418742, -21.2020935 ], [ -48.0417828, -21.2030515 ], [ -48.042398, -21.204463 ], [ -48.044077, -21.205166 ], [ -48.043465, -21.20909 ], [ -48.044543, -21.209422 ], [ -48.045037, -21.208645 ], [ -48.045166, -21.210941 ], [ -48.046659, -21.210253 ], [ -48.045183, -21.212361 ], [ -48.047253, -21.211744 ], [ -48.046823, -21.213376 ], [ -48.049056, -21.213251 ], [ -48.047891, -21.215525 ], [ -48.04874, -21.214754 ], [ -48.05053, -21.216071 ], [ -48.048733, -21.216847 ], [ -48.049843, -21.217514 ], [ -48.049047, -21.217618 ], [ -48.049719, -21.219493 ], [ -48.050809, -21.219282 ], [ -48.049902, -21.220808 ], [ -48.050971, -21.220911 ], [ -48.050767, -21.222206 ], [ -48.052012, -21.223193 ], [ -48.053042, -21.223024 ], [ -48.052895, -21.223925 ], [ -48.051789, -21.223871 ], [ -48.052164, -21.22547 ], [ -48.051405, -21.226367 ], [ -48.05326, -21.227935 ], [ -48.052074, -21.228718 ], [ -48.050588, -21.22703 ], [ -48.049868, -21.227275 ], [ -48.050753, -21.2295 ], [ -48.049157, -21.229802 ], [ -48.050417, -21.230881 ], [ -48.047346, -21.235761 ], [ -48.048077, -21.236618 ], [ -48.047991, -21.238421 ], [ -48.047031, -21.238786 ], [ -48.047584, -21.239519 ], [ -48.046484, -21.239714 ], [ -48.047272, -21.242356 ], [ -48.046576, -21.242511 ], [ -48.046084, -21.241494 ], [ -48.045119, -21.242179 ], [ -48.044634, -21.24342 ], [ -48.045238, -21.244224 ], [ -48.043981, -21.246106 ], [ -48.04061, -21.247194 ], [ -48.037714, -21.246128 ], [ -48.038302, -21.249544 ], [ -48.037197, -21.251134 ], [ -48.037693, -21.254246 ], [ -48.037147, -21.255558 ], [ -48.035441, -21.256394 ], [ -48.035263, -21.257437 ], [ -48.036049, -21.258177 ], [ -48.034021, -21.258361 ], [ -48.031619, -21.26173 ], [ -48.031929, -21.264801 ], [ -48.030181, -21.266721 ], [ -48.030464, -21.267831 ], [ -48.029821, -21.267423 ], [ -48.028922, -21.268784 ], [ -48.029477, -21.270488 ], [ -48.028861, -21.270783 ], [ -48.029547, -21.271194 ], [ -48.028639, -21.274072 ], [ -48.029666, -21.275067 ], [ -48.028201, -21.276016 ], [ -48.028557, -21.276489 ], [ -48.023216, -21.27679 ], [ -48.022866, -21.278509 ], [ -48.021686, -21.278483 ], [ -48.022183, -21.279131 ], [ -48.021438, -21.279725 ], [ -48.020139, -21.279654 ], [ -48.019783, -21.280831 ], [ -48.018234, -21.281237 ], [ -48.019139, -21.281344 ], [ -48.018834, -21.282172 ], [ -48.017289, -21.282375 ], [ -48.016189, -21.284044 ], [ -48.01255, -21.283959 ], [ -48.010286, -21.285516 ], [ -48.007918, -21.283245 ], [ -48.006959, -21.283498 ], [ -48.006567, -21.285249 ], [ -48.005808, -21.28554 ], [ -48.006201, -21.287926 ], [ -48.00502, -21.288466 ], [ -48.004254, -21.287667 ], [ -48.004166, -21.288668 ], [ -48.003336, -21.288289 ], [ -48.003173, -21.289969 ], [ -48.002402, -21.290277 ], [ -48.002939, -21.291267 ], [ -48.001614, -21.290632 ], [ -48.001756, -21.291364 ], [ -48.000918, -21.291492 ], [ -48.001867, -21.292977 ], [ -48.001174, -21.295473 ], [ -47.999581, -21.295818 ], [ -47.995147, -21.294572 ], [ -47.99169, -21.297055 ], [ -47.991891, -21.298847 ], [ -47.994261, -21.301107 ], [ -47.995108, -21.303018 ], [ -47.99466, -21.3047 ], [ -48.0009959, -21.3036641 ], [ -48.0095702, -21.306764 ], [ -48.0209423, -21.3064858 ], [ -48.0257509, -21.3048774 ], [ -48.0394466, -21.3041826 ], [ -48.0464265, -21.3022247 ], [ -48.0566279, -21.3006856 ], [ -48.0613062, -21.3017919 ], [ -48.0667917, -21.3049578 ], [ -48.0681105, -21.3036088 ], [ -48.0697693, -21.2969731 ], [ -48.0746792, -21.2915776 ], [ -48.0767188, -21.2876916 ], [ -48.0784965, -21.2831695 ], [ -48.0799813, -21.2728939 ], [ -48.0816991, -21.269109 ], [ -48.0839062, -21.2668985 ], [ -48.0895066, -21.2647021 ], [ -48.0914634, -21.2625231 ], [ -48.0953389, -21.2622706 ], [ -48.1041366, -21.2662398 ], [ -48.1118725, -21.2721562 ], [ -48.1154139, -21.2737081 ], [ -48.1218741, -21.2736916 ], [ -48.1296238, -21.2719715 ], [ -48.1360305, -21.268298 ], [ -48.1377721, -21.2626877 ], [ -48.1390315, -21.2486715 ] ] ] ] } }
]
}
