{
"type": "FeatureCollection",
"name": "ER_REGIAO_Anhumas",
"crs": { "type": "name", "properties": { "name": "urn:ogc:def:crs:EPSG::4674" } },
"xy_coordinate_resolution": 1e-15,
"features": [
{ "type": "Feature", "properties": { "fid": 38, "NM_REGIAO": "Sudeste", "NM_UF": "São Paulo", "NM_MUN": "Anhumas", "NM_DIST": "Anhumas", "CD_SUBDIST": "35024080500", "ER_REGIAO": "Anhumas", "ER_REGIAO_CIDADE": "Anhumas_Presidente Prudente" }, "geometry": { "type": "MultiPolygon", "coordinates": [ [ [ [ -51.3722009, -22.2370809 ], [ -51.3700051, -22.2401622 ], [ -51.3693447, -22.2447664 ], [ -51.3666357, -22.2473151 ], [ -51.3650538, -22.2524683 ], [ -51.3601888, -22.2570231 ], [ -51.3561747, -22.2583052 ], [ -51.3570031, -22.2621934 ], [ -51.3559458, -22.2658931 ], [ -51.3564224, -22.2679511 ], [ -51.3560198, -22.2696988 ], [ -51.3538913, -22.2723983 ], [ -51.3566253, -22.2760478 ], [ -51.3575, -22.278974 ], [ -51.3533985, -22.2910983 ], [ -51.3500403, -22.2944979 ], [ -51.3464155, -22.3001335 ], [ -51.3475293, -22.3089904 ], [ -51.3510303, -22.312658 ], [ -51.349622, -22.3156281 ], [ -51.3520887, -22.3179848 ], [ -51.3510097, -22.3213059 ], [ -51.3525604, -22.324624 ], [ -51.34874, -22.328033 ], [ -51.3493527, -22.3297738 ], [ -51.3479317, -22.3321202 ], [ -51.3484065, -22.3368888 ], [ -51.3495608, -22.3395101 ], [ -51.3478536, -22.343893 ], [ -51.348593, -22.347713 ], [ -51.3505652, -22.3514964 ], [ -51.3541332, -22.3529037 ], [ -51.356546, -22.3564046 ], [ -51.3583622, -22.3576163 ], [ -51.36316, -22.3578731 ], [ -51.3640191, -22.3590719 ], [ -51.3616476, -22.3637238 ], [ -51.3633998, -22.3717907 ], [ -51.3633025, -22.3771591 ], [ -51.3641111, -22.3798063 ], [ -51.3660726, -22.3819362 ], [ -51.3681137, -22.3861835 ], [ -51.3716078, -22.3875415 ], [ -51.3726409, -22.3897781 ], [ -51.3772171, -22.3913999 ], [ -51.3793541, -22.3931481 ], [ -51.3831047, -22.3943097 ], [ -51.385667, -22.3936283 ], [ -51.3870844, -22.3964125 ], [ -51.3867354, -22.3983018 ], [ -51.388979, -22.4017346 ], [ -51.3903805, -22.4025792 ], [ -51.3901065, -22.4059064 ], [ -51.3929043, -22.4107775 ], [ -51.390788, -22.4137267 ], [ -51.3920075, -22.4200973 ], [ -51.3909005, -22.4258971 ], [ -51.3913364, -22.4289262 ], [ -51.3931237, -22.431849 ], [ -51.3964625, -22.4345251 ], [ -51.3982285, -22.4346402 ], [ -51.3999145, -22.4358738 ], [ -51.4014589, -22.4387574 ], [ -51.4025947, -22.4381295 ], [ -51.4037453, -22.4390026 ], [ -51.4035937, -22.4414573 ], [ -51.405467, -22.4428121 ], [ -51.4055703, -22.444208 ], [ -51.4073765, -22.4466608 ], [ -51.4071253, -22.4515991 ], [ -51.4080291, -22.4540997 ], [ -51.4069096, -22.455725 ], [ -51.4063414, -22.4607764 ], [ -51.40717, -22.4647043 ], [ -51.4105583, -22.4686849 ], [ -51.4118569, -22.4718091 ], [ -51.4133313, -22.4729463 ], [ -51.4233115, -22.4756958 ], [ -51.4307278, -22.4797295 ], [ -51.4337515, -22.4822484 ], [ -51.4390352, -22.5012674 ], [ -51.440967, -22.5046811 ], [ -51.4467759, -22.5095983 ], [ -51.4502126, -22.5146051 ], [ -51.4527595, -22.5156651 ], [ -51.4534515, -22.5150868 ], [ -51.4530642, -22.5132533 ], [ -51.4542332, -22.5091902 ], [ -51.4563346, -22.5072904 ], [ -51.4565256, -22.5048732 ], [ -51.4605787, -22.5004701 ], [ -51.4614781, -22.4950743 ], [ -51.4609368, -22.4936337 ], [ -51.4622547, -22.4936905 ], [ -51.4646806, -22.4922045 ], [ -51.4639968, -22.4887159 ], [ -51.4659906, -22.4858658 ], [ -51.473432, -22.4813351 ], [ -51.4813773, -22.4837848 ], [ -51.4851367, -22.4830773 ], [ -51.4876863, -22.480796 ], [ -51.487874, -22.4779328 ], [ -51.4886975, -22.4776984 ], [ -51.4909854, -22.479685 ], [ -51.4933617, -22.4778945 ], [ -51.4960039, -22.472937 ], [ -51.5015385, -22.47179 ], [ -51.5059468, -22.4672152 ], [ -51.516394, -22.4617757 ], [ -51.5202393, -22.458216 ], [ -51.5189765, -22.4556851 ], [ -51.5196495, -22.4531379 ], [ -51.5185415, -22.4499921 ], [ -51.516014, -22.4465186 ], [ -51.5171759, -22.444672 ], [ -51.5155403, -22.4425668 ], [ -51.5155429, -22.440456 ], [ -51.514486, -22.4390301 ], [ -51.512516, -22.438193 ], [ -51.5108843, -22.4346285 ], [ -51.509215, -22.4335542 ], [ -51.5078475, -22.4310803 ], [ -51.5092913, -22.4282418 ], [ -51.5087302, -22.4264274 ], [ -51.50985, -22.4233926 ], [ -51.5082337, -22.419738 ], [ -51.5084425, -22.4181069 ], [ -51.5059876, -22.4140884 ], [ -51.5036048, -22.4127323 ], [ -51.5041379, -22.4103518 ], [ -51.5002539, -22.4029992 ], [ -51.5000772, -22.4002793 ], [ -51.5013422, -22.3973244 ], [ -51.499558, -22.3913506 ], [ -51.4993562, -22.3846604 ], [ -51.5008977, -22.378508 ], [ -51.5008156, -22.3759789 ], [ -51.4979151, -22.3725446 ], [ -51.4989111, -22.3698466 ], [ -51.4971403, -22.3658573 ], [ -51.4921029, -22.3614441 ], [ -51.4905686, -22.3616234 ], [ -51.4889104, -22.3595357 ], [ -51.4859438, -22.3591169 ], [ -51.4844863, -22.3560837 ], [ -51.4823066, -22.3552613 ], [ -51.4825274, -22.3514964 ], [ -51.4811564, -22.3478993 ], [ -51.4802945, -22.3478882 ], [ -51.4808332, -22.3431168 ], [ -51.4787812, -22.3411116 ], [ -51.4779373, -22.3377983 ], [ -51.4794245, -22.3327115 ], [ -51.4770565, -22.3322293 ], [ -51.4766356, -22.3330323 ], [ -51.474315, -22.3335827 ], [ -51.4729557, -22.3333556 ], [ -51.4727486, -22.3325816 ], [ -51.4732884, -22.3280548 ], [ -51.4747158, -22.3274 ], [ -51.4729145, -22.3254603 ], [ -51.4733157, -22.3242871 ], [ -51.4724146, -22.3228543 ], [ -51.4731769, -22.319346 ], [ -51.4729487, -22.3144885 ], [ -51.470783, -22.3132513 ], [ -51.4684332, -22.3136634 ], [ -51.463227, -22.309468 ], [ -51.4604635, -22.3084907 ], [ -51.4560631, -22.3026393 ], [ -51.4558599, -22.3007645 ], [ -51.4570967, -22.2993613 ], [ -51.4572934, -22.2969962 ], [ -51.4545993, -22.2902906 ], [ -51.4534155, -22.2809239 ], [ -51.450975, -22.2780226 ], [ -51.4503952, -22.2742321 ], [ -51.4443344, -22.2722807 ], [ -51.4441362, -22.2710124 ], [ -51.4452991, -22.2699279 ], [ -51.4407091, -22.2671024 ], [ -51.4364395, -22.2669386 ], [ -51.4350231, -22.2655906 ], [ -51.4305153, -22.2644464 ], [ -51.4286449, -22.2621365 ], [ -51.4261761, -22.2613565 ], [ -51.4236413, -22.2590405 ], [ -51.4208324, -22.2578102 ], [ -51.4201381, -22.2568372 ], [ -51.4204325, -22.2557013 ], [ -51.4155668, -22.2514558 ], [ -51.4148726, -22.2476222 ], [ -51.4130637, -22.2441561 ], [ -51.4148704, -22.2430388 ], [ -51.4158587, -22.2403112 ], [ -51.4138428, -22.2365188 ], [ -51.4164282, -22.2327632 ], [ -51.4179587, -22.232039 ], [ -51.4186204, -22.2287486 ], [ -51.4171335, -22.2236422 ], [ -51.419068, -22.2221973 ], [ -51.4212588, -22.2226809 ], [ -51.4218809, -22.2208311 ], [ -51.4242001, -22.2203494 ], [ -51.4247888, -22.2171135 ], [ -51.4269529, -22.2136153 ], [ -51.4258794, -22.2106947 ], [ -51.4283078, -22.2083282 ], [ -51.4305469, -22.2087299 ], [ -51.4337073, -22.2066933 ], [ -51.4340355, -22.20547 ], [ -51.4285028, -22.2053451 ], [ -51.4275071, -22.2038293 ], [ -51.4262953, -22.203683 ], [ -51.4245206, -22.2007251 ], [ -51.4209316, -22.201047 ], [ -51.4198583, -22.1983862 ], [ -51.4190403, -22.1981301 ], [ -51.4127249, -22.1993149 ], [ -51.407226, -22.1980558 ], [ -51.4056752, -22.2003205 ], [ -51.4021904, -22.1999664 ], [ -51.4008787, -22.2005676 ], [ -51.399267, -22.2034662 ], [ -51.4004068, -22.2059282 ], [ -51.3995982, -22.2089946 ], [ -51.3949968, -22.2107606 ], [ -51.394091, -22.2123647 ], [ -51.391851, -22.2131329 ], [ -51.3900355, -22.2163444 ], [ -51.3883301, -22.2171503 ], [ -51.3889496, -22.2194862 ], [ -51.3885304, -22.2209956 ], [ -51.3875084, -22.2208758 ], [ -51.386189, -22.2226431 ], [ -51.3864718, -22.2254155 ], [ -51.3792161, -22.2302977 ], [ -51.3778438, -22.2328918 ], [ -51.3722009, -22.2370809 ] ] ] ] } }
]
}
