{
"type": "FeatureCollection",
"name": "ER_REGIAO_Itapeva_Guarizinho",
"crs": { "type": "name", "properties": { "name": "urn:ogc:def:crs:EPSG::4674" } },
"xy_coordinate_resolution": 1e-15,
"features": [
{ "type": "Feature", "properties": { "fid": 372, "NM_REGIAO": "Sudeste", "NM_UF": "São Paulo", "NM_MUN": "Itapeva", "NM_DIST": "Guarizinho", "CD_SUBDIST": "35224061500", "ER_REGIAO": "Itapeva_Guarizinho", "ER_REGIAO_CIDADE": "Itapeva_Guarizinho_Botucatu" }, "geometry": { "type": "MultiPolygon", "coordinates": [ [ [ [ -48.8673433, -23.6081465 ], [ -48.8589222, -23.6026003 ], [ -48.8549254, -23.6012617 ], [ -48.8520383, -23.5978987 ], [ -48.8470671, -23.5949601 ], [ -48.8411225, -23.5935226 ], [ -48.8373915, -23.5944894 ], [ -48.8333705, -23.5979226 ], [ -48.8320367, -23.6010775 ], [ -48.8251972, -23.6053399 ], [ -48.8225124, -23.605347 ], [ -48.8208569, -23.6064309 ], [ -48.8187973, -23.6089592 ], [ -48.8184056, -23.6167319 ], [ -48.8124429, -23.6235356 ], [ -48.8032764, -23.6365204 ], [ -48.8001695, -23.6392942 ], [ -48.7950232, -23.6413577 ], [ -48.7918735, -23.6406563 ], [ -48.7885376, -23.6385656 ], [ -48.7855812, -23.6389734 ], [ -48.7771315, -23.6467824 ], [ -48.7727383, -23.654665 ], [ -48.7643462, -23.6575168 ], [ -48.7604858, -23.655912 ], [ -48.7597045, -23.6562944 ], [ -48.7591213, -23.6576604 ], [ -48.759513, -23.6645738 ], [ -48.7605059, -23.6693538 ], [ -48.763514, -23.6710857 ], [ -48.7657947, -23.6741085 ], [ -48.7670143, -23.677271 ], [ -48.7661671, -23.6809699 ], [ -48.7634307, -23.6828675 ], [ -48.7598932, -23.6831308 ], [ -48.7589962, -23.6856657 ], [ -48.7594006, -23.6890682 ], [ -48.7561392, -23.6926252 ], [ -48.7553759, -23.6951977 ], [ -48.7520748, -23.6953572 ], [ -48.7502994, -23.6974256 ], [ -48.7475405, -23.6972018 ], [ -48.7460727, -23.6957827 ], [ -48.7447322, -23.6967907 ], [ -48.7444882, -23.6981501 ], [ -48.7419776, -23.6994885 ], [ -48.741324, -23.7006638 ], [ -48.7349, -23.7046181 ], [ -48.7354273, -23.706217 ], [ -48.7314104, -23.7095235 ], [ -48.731496, -23.7103484 ], [ -48.7277738, -23.7149306 ], [ -48.7247804, -23.7158165 ], [ -48.7211481, -23.7208842 ], [ -48.7234882, -23.721892 ], [ -48.7239961, -23.7231183 ], [ -48.7290444, -23.7234087 ], [ -48.7286853, -23.7255717 ], [ -48.7314824, -23.727443 ], [ -48.7309497, -23.7295577 ], [ -48.7328658, -23.7311299 ], [ -48.7350429, -23.7313434 ], [ -48.7367326, -23.7305706 ], [ -48.7393985, -23.7350492 ], [ -48.741407, -23.7332806 ], [ -48.744355, -23.7349462 ], [ -48.7448444, -23.7360054 ], [ -48.7443009, -23.7386114 ], [ -48.7458157, -23.7391876 ], [ -48.744779, -23.7433417 ], [ -48.7491953, -23.7468702 ], [ -48.7449109, -23.7555509 ], [ -48.7444784, -23.7596633 ], [ -48.7404768, -23.7637897 ], [ -48.7365191, -23.765898 ], [ -48.7335422, -23.7702615 ], [ -48.7301727, -23.7727695 ], [ -48.7267607, -23.7742127 ], [ -48.7235871, -23.7744441 ], [ -48.7113044, -23.7797934 ], [ -48.7117367, -23.7811172 ], [ -48.7137991, -23.7821185 ], [ -48.714036, -23.7832987 ], [ -48.7203169, -23.7830286 ], [ -48.7237963, -23.7850946 ], [ -48.7254093, -23.795241 ], [ -48.7281812, -23.8019634 ], [ -48.7293627, -23.8029058 ], [ -48.7341505, -23.8040294 ], [ -48.7365371, -23.8080539 ], [ -48.7364694, -23.8119635 ], [ -48.7336599, -23.8131751 ], [ -48.73265, -23.8159731 ], [ -48.7325307, -23.820088 ], [ -48.7344038, -23.8230661 ], [ -48.7369889, -23.8230874 ], [ -48.7381949, -23.8240837 ], [ -48.7411201, -23.8238303 ], [ -48.7430836, -23.8265971 ], [ -48.7453654, -23.8272472 ], [ -48.7543242, -23.8264286 ], [ -48.7589153, -23.8248043 ], [ -48.7636616, -23.8243745 ], [ -48.76772, -23.8229497 ], [ -48.7687603, -23.8195249 ], [ -48.7750675, -23.8162897 ], [ -48.778347, -23.8161069 ], [ -48.7798963, -23.8152589 ], [ -48.7810453, -23.8159945 ], [ -48.7877368, -23.8153135 ], [ -48.7904221, -23.8130233 ], [ -48.8015804, -23.8089769 ], [ -48.8061887, -23.8062505 ], [ -48.8104365, -23.8083495 ], [ -48.8127199, -23.8076536 ], [ -48.8157748, -23.8087157 ], [ -48.8225119, -23.8080689 ], [ -48.8302876, -23.8104493 ], [ -48.834337, -23.8172151 ], [ -48.8382888, -23.817339 ], [ -48.8410071, -23.8207846 ], [ -48.8413307, -23.8223819 ], [ -48.8502717, -23.8274197 ], [ -48.8517595, -23.8268029 ], [ -48.8574595, -23.8203195 ], [ -48.8599559, -23.8194498 ], [ -48.8687672, -23.8210138 ], [ -48.8716628, -23.8232961 ], [ -48.8756468, -23.8249266 ], [ -48.8848907, -23.8253668 ], [ -48.8887594, -23.8268868 ], [ -48.8964631, -23.8268117 ], [ -48.8996296, -23.8243003 ], [ -48.9019236, -23.8266361 ], [ -48.904348, -23.824816 ], [ -48.9095983, -23.8243649 ], [ -48.9120139, -23.8246236 ], [ -48.9148702, -23.826524 ], [ -48.9192335, -23.8255733 ], [ -48.9198396, -23.8272564 ], [ -48.9236598, -23.8286696 ], [ -48.928827, -23.8269499 ], [ -48.931611, -23.8247881 ], [ -48.9356794, -23.8271448 ], [ -48.9365411, -23.8285976 ], [ -48.9404572, -23.8294471 ], [ -48.9465414, -23.8279306 ], [ -48.9481164, -23.8287214 ], [ -48.9543971, -23.8387998 ], [ -48.9565668, -23.840949 ], [ -48.9610668, -23.8424331 ], [ -48.9639116, -23.8418162 ], [ -48.9663498, -23.8430997 ], [ -48.9719225, -23.841281 ], [ -48.9768636, -23.8418757 ], [ -48.9786241, -23.8412296 ], [ -48.9789075, -23.8406553 ], [ -48.9754549, -23.8404071 ], [ -48.9696983, -23.8338531 ], [ -48.9684018, -23.8290542 ], [ -48.9639012, -23.820947 ], [ -48.9589483, -23.8083503 ], [ -48.9548155, -23.8042623 ], [ -48.9502306, -23.8012302 ], [ -48.948732, -23.7985752 ], [ -48.9599482, -23.786003 ], [ -48.9614314, -23.7854515 ], [ -48.9690392, -23.7870551 ], [ -48.9748945, -23.7841799 ], [ -48.9769274, -23.7820981 ], [ -48.978595, -23.774738 ], [ -48.9859281, -23.7673578 ], [ -48.9892393, -23.7665122 ], [ -48.9924249, -23.7673761 ], [ -48.9959829, -23.7667986 ], [ -49.0009834, -23.7674382 ], [ -49.0060113, -23.7640261 ], [ -49.0073436, -23.7610422 ], [ -49.0103972, -23.759787 ], [ -49.0130997, -23.7556962 ], [ -49.0182079, -23.7526013 ], [ -49.0209945, -23.7488157 ], [ -49.0225687, -23.7481746 ], [ -49.0232569, -23.7450266 ], [ -49.022624, -23.7389913 ], [ -49.0238743, -23.7371123 ], [ -49.0269571, -23.7354559 ], [ -49.0312281, -23.7315312 ], [ -49.0345935, -23.725577 ], [ -49.0362356, -23.720217 ], [ -49.0402528, -23.7137243 ], [ -49.0417048, -23.7050258 ], [ -49.0404506, -23.696357 ], [ -49.0413384, -23.6949336 ], [ -49.0463469, -23.6925718 ], [ -49.0544501, -23.6862133 ], [ -49.0535377, -23.6852025 ], [ -49.0408448, -23.6817987 ], [ -49.0327924, -23.6775923 ], [ -49.0309581, -23.6722589 ], [ -49.0313713, -23.6654708 ], [ -49.0277921, -23.6535405 ], [ -49.0246204, -23.6494773 ], [ -49.0190518, -23.6481562 ], [ -49.0119551, -23.6436699 ], [ -49.0105388, -23.6411695 ], [ -49.0096219, -23.6359311 ], [ -49.0068942, -23.6328249 ], [ -49.0058124, -23.6334719 ], [ -49.004366, -23.6366189 ], [ -48.9981468, -23.6415585 ], [ -48.9957069, -23.6425346 ], [ -48.992164, -23.6421648 ], [ -48.9875603, -23.6389357 ], [ -48.9867003, -23.6357497 ], [ -48.9855634, -23.6347045 ], [ -48.9785872, -23.6309574 ], [ -48.9793119, -23.626596 ], [ -48.9783178, -23.6234093 ], [ -48.9734288, -23.622459 ], [ -48.9654555, -23.6235188 ], [ -48.9584781, -23.6229471 ], [ -48.9521489, -23.621103 ], [ -48.9464267, -23.6241808 ], [ -48.9435671, -23.6238808 ], [ -48.9358981, -23.6208767 ], [ -48.9251536, -23.626426 ], [ -48.9237821, -23.6238049 ], [ -48.9185845, -23.6242998 ], [ -48.9113157, -23.6206216 ], [ -48.9052839, -23.6211645 ], [ -48.9014564, -23.6180135 ], [ -48.8980664, -23.6174144 ], [ -48.8959465, -23.6146624 ], [ -48.8919203, -23.6138352 ], [ -48.8894567, -23.6123604 ], [ -48.8826448, -23.6122718 ], [ -48.8783106, -23.6102923 ], [ -48.8748679, -23.610324 ], [ -48.8673433, -23.6081465 ] ] ] ] } }
]
}
