{
"type": "FeatureCollection",
"name": "ER_REGIAO_Glicério_Glicério",
"crs": { "type": "name", "properties": { "name": "urn:ogc:def:crs:EPSG::4674" } },
"xy_coordinate_resolution": 1e-15,
"features": [
{ "type": "Feature", "properties": { "fid": 283, "NM_REGIAO": "Sudeste", "NM_UF": "São Paulo", "NM_MUN": "Glicério", "NM_DIST": "Glicério", "CD_SUBDIST": "35171090500", "ER_REGIAO": "Glicério_Glicério", "ER_REGIAO_CIDADE": "Glicério_Glicério_Araçatuba" }, "geometry": { "type": "MultiPolygon", "coordinates": [ [ [ [ -50.1609659, -21.2769685 ], [ -50.1566257, -21.2732955 ], [ -50.1502693, -21.2708785 ], [ -50.148981, -21.2710492 ], [ -50.1491161, -21.2694897 ], [ -50.1480742, -21.2683037 ], [ -50.1426681, -21.2767974 ], [ -50.1390967, -21.2787038 ], [ -50.1401278, -21.287082 ], [ -50.1386083, -21.2988821 ], [ -50.1411577, -21.3032094 ], [ -50.1401336, -21.3067107 ], [ -50.1412, -21.3128195 ], [ -50.1440636, -21.3158171 ], [ -50.1537026, -21.3204685 ], [ -50.1580226, -21.3244057 ], [ -50.1627413, -21.3265459 ], [ -50.1638721, -21.3291847 ], [ -50.1627424, -21.3329044 ], [ -50.1633089, -21.3349928 ], [ -50.1612178, -21.3362475 ], [ -50.1620734, -21.3396419 ], [ -50.1606627, -21.3423364 ], [ -50.1629662, -21.3438631 ], [ -50.1634845, -21.3453856 ], [ -50.160726, -21.3459012 ], [ -50.159944, -21.3469347 ], [ -50.1607002, -21.3481485 ], [ -50.1627076, -21.348643 ], [ -50.1635712, -21.3503086 ], [ -50.1644526, -21.3536406 ], [ -50.1628876, -21.356342 ], [ -50.1644757, -21.3598427 ], [ -50.1620164, -21.3608154 ], [ -50.1607116, -21.3628382 ], [ -50.1583028, -21.3632556 ], [ -50.1582889, -21.3666343 ], [ -50.1549578, -21.370372 ], [ -50.1520636, -21.3711204 ], [ -50.149638, -21.3754159 ], [ -50.1489756, -21.3792818 ], [ -50.145457, -21.3783517 ], [ -50.1443436, -21.3802475 ], [ -50.1446769, -21.3830095 ], [ -50.1495718, -21.3849819 ], [ -50.1505727, -21.3863594 ], [ -50.1502973, -21.3901699 ], [ -50.1493916, -21.3921183 ], [ -50.1479872, -21.3929932 ], [ -50.1486968, -21.3961725 ], [ -50.1476268, -21.3967331 ], [ -50.1465502, -21.395741 ], [ -50.1460435, -21.3976237 ], [ -50.1496162, -21.4007325 ], [ -50.1505937, -21.4027115 ], [ -50.1534625, -21.4044119 ], [ -50.1546233, -21.4065051 ], [ -50.1535535, -21.4085247 ], [ -50.1546156, -21.4114088 ], [ -50.1537087, -21.4114758 ], [ -50.1527552, -21.4136206 ], [ -50.1516217, -21.4125478 ], [ -50.1504302, -21.4130592 ], [ -50.1506648, -21.4178763 ], [ -50.1518628, -21.4178497 ], [ -50.1535806, -21.4196365 ], [ -50.1563111, -21.4203422 ], [ -50.1577437, -21.4220337 ], [ -50.1588117, -21.4218553 ], [ -50.1609298, -21.4240969 ], [ -50.1629201, -21.4230286 ], [ -50.166286, -21.42396 ], [ -50.1692434, -21.4232438 ], [ -50.1738239, -21.424161 ], [ -50.1755717, -21.4269196 ], [ -50.1807427, -21.426715 ], [ -50.1859391, -21.4319056 ], [ -50.1884733, -21.4365465 ], [ -50.1894271, -21.4368322 ], [ -50.1901735, -21.440097 ], [ -50.1920727, -21.4425 ], [ -50.1923521, -21.4453016 ], [ -50.1944437, -21.4479282 ], [ -50.2012646, -21.44769 ], [ -50.2054632, -21.4511181 ], [ -50.209436, -21.4521707 ], [ -50.2118746, -21.4578807 ], [ -50.2143643, -21.4587011 ], [ -50.2155809, -21.4609457 ], [ -50.2201254, -21.4637834 ], [ -50.2221311, -21.466553 ], [ -50.2288017, -21.462878 ], [ -50.2311863, -21.4642333 ], [ -50.2341531, -21.46393 ], [ -50.2382003, -21.4669081 ], [ -50.2402588, -21.4669482 ], [ -50.2424552, -21.4699024 ], [ -50.2433298, -21.475018 ], [ -50.24524, -21.4784638 ], [ -50.2475302, -21.4798954 ], [ -50.2472121, -21.4815069 ], [ -50.2490701, -21.4826287 ], [ -50.2502281, -21.4867708 ], [ -50.2517101, -21.487121 ], [ -50.2524379, -21.4898871 ], [ -50.2560014, -21.4909701 ], [ -50.2562997, -21.4922067 ], [ -50.257774, -21.4925495 ], [ -50.259036, -21.4941812 ], [ -50.2996257, -21.4570412 ], [ -50.2823577, -21.431308 ], [ -50.2795224, -21.4286273 ], [ -50.274813, -21.4270656 ], [ -50.2713486, -21.4248506 ], [ -50.269209, -21.42138 ], [ -50.2679507, -21.4163446 ], [ -50.2545416, -21.4043793 ], [ -50.253558, -21.4006215 ], [ -50.2542726, -21.3892439 ], [ -50.2520257, -21.3856644 ], [ -50.2457562, -21.3804766 ], [ -50.243499, -21.3753485 ], [ -50.2440872, -21.37022 ], [ -50.247877, -21.3634758 ], [ -50.24897, -21.3580158 ], [ -50.2482392, -21.3538479 ], [ -50.244803, -21.3468928 ], [ -50.2387854, -21.3246516 ], [ -50.2392367, -21.3222333 ], [ -50.2412882, -21.3187227 ], [ -50.2409054, -21.313999 ], [ -50.2416657, -21.3120078 ], [ -50.2344558, -21.3111128 ], [ -50.2323648, -21.3101644 ], [ -50.2298188, -21.3065736 ], [ -50.2275941, -21.2978447 ], [ -50.2229498, -21.2950076 ], [ -50.2200107, -21.2949643 ], [ -50.217807, -21.2937634 ], [ -50.2144914, -21.2879108 ], [ -50.2106226, -21.2866896 ], [ -50.2055569, -21.282344 ], [ -50.2052667, -21.2785179 ], [ -50.200955, -21.2892467 ], [ -50.1974003, -21.2906544 ], [ -50.1902541, -21.2898827 ], [ -50.1849449, -21.2924425 ], [ -50.1817044, -21.295297 ], [ -50.1711821, -21.285378 ], [ -50.1660867, -21.2811434 ], [ -50.1617717, -21.2788272 ], [ -50.1609659, -21.2769685 ] ] ] ] } }
]
}
