{
"type": "FeatureCollection",
"name": "ER_REGIAO_Capital Oeste_Perdizes",
"crs": { "type": "name", "properties": { "name": "urn:ogc:def:crs:EPSG::4674" } },
"xy_coordinate_resolution": 1e-15,
"features": [
{ "type": "Feature", "properties": { "fid": 894, "NM_REGIAO": "Sudeste", "NM_UF": "São Paulo", "NM_MUN": "São Paulo", "NM_DIST": "Perdizes", "CD_SUBDIST": "35503086000", "ER_REGIAO": "Capital Oeste_Perdizes", "ER_REGIAO_CIDADE": "Capital Oeste_Perdizes" }, "geometry": { "type": "MultiPolygon", "coordinates": [ [ [ [ -46.679436, -23.549979 ], [ -46.684006, -23.549529 ], [ -46.68593, -23.548048 ], [ -46.689767, -23.547126 ], [ -46.69612, -23.542371 ], [ -46.69726, -23.540468 ], [ -46.697925, -23.534002 ], [ -46.695995, -23.534935 ], [ -46.694006, -23.533442 ], [ -46.6935825, -23.5320911 ], [ -46.6922159, -23.5327059 ], [ -46.687482, -23.526061 ], [ -46.685365, -23.526108 ], [ -46.685283, -23.523649 ], [ -46.682652, -23.5249 ], [ -46.682305, -23.526314 ], [ -46.679535, -23.528444 ], [ -46.67288, -23.532284 ], [ -46.665316, -23.533833 ], [ -46.663427, -23.534989 ], [ -46.664018, -23.539808 ], [ -46.666162, -23.544827 ], [ -46.674041, -23.548357 ], [ -46.67581, -23.552015 ], [ -46.679436, -23.549979 ] ] ] ] } }
]
}
