{
"type": "FeatureCollection",
"name": "ER_REGIAO_Euclides da Cunha Paulista",
"crs": { "type": "name", "properties": { "name": "urn:ogc:def:crs:EPSG::4674" } },
"xy_coordinate_resolution": 1e-15,
"features": [
{ "type": "Feature", "properties": { "fid": 253, "NM_REGIAO": "Sudeste", "NM_UF": "São Paulo", "NM_MUN": "Euclides da Cunha Paulista", "NM_DIST": "Euclides da Cunha Paulista", "CD_SUBDIST": "35153500500", "ER_REGIAO": "Euclides da Cunha Paulista", "ER_REGIAO_CIDADE": "Euclides da Cunha Paulista_Presidente Prudente" }, "geometry": { "type": "MultiPolygon", "coordinates": [ [ [ [ -52.4506874, -22.5553889 ], [ -52.4516372, -22.5630646 ], [ -52.4554911, -22.5699982 ], [ -52.4516746, -22.5754695 ], [ -52.4523216, -22.5794408 ], [ -52.4515995, -22.5813234 ], [ -52.4514121, -22.5881621 ], [ -52.450217, -22.5899787 ], [ -52.4473215, -22.5915595 ], [ -52.4452914, -22.5960999 ], [ -52.4461448, -22.5985737 ], [ -52.445216, -22.600215 ], [ -52.4459724, -22.6023231 ], [ -52.4448247, -22.605609 ], [ -52.4456925, -22.6082796 ], [ -52.4550477, -22.6106207 ], [ -52.4676343, -22.6158782 ], [ -52.4734918, -22.6195064 ], [ -52.4789585, -22.6241148 ], [ -52.4901323, -22.6306519 ], [ -52.4988236, -22.63423 ], [ -52.5026768, -22.6345557 ], [ -52.5066277, -22.633465 ], [ -52.5117811, -22.6303197 ], [ -52.5234943, -22.6198966 ], [ -52.5293068, -22.6176676 ], [ -52.5389385, -22.6157499 ], [ -52.5453772, -22.6117435 ], [ -52.5538866, -22.6007246 ], [ -52.5631392, -22.5934085 ], [ -52.5671288, -22.5892474 ], [ -52.5715463, -22.5828956 ], [ -52.5757741, -22.5719736 ], [ -52.5813278, -22.5673803 ], [ -52.5849228, -22.5659332 ], [ -52.5893444, -22.5660966 ], [ -52.5944576, -22.5684499 ], [ -52.5998813, -22.569662 ], [ -52.6069627, -22.5733492 ], [ -52.6113574, -22.5744716 ], [ -52.6199489, -22.5803075 ], [ -52.6300827, -22.5905494 ], [ -52.6328835, -22.5925325 ], [ -52.6441646, -22.5975396 ], [ -52.6511985, -22.602606 ], [ -52.6559508, -22.607199 ], [ -52.6630339, -22.6119156 ], [ -52.6971054, -22.6270066 ], [ -52.7082514, -22.6280619 ], [ -52.7224292, -22.6267524 ], [ -52.7324223, -22.6226451 ], [ -52.7503018, -22.6123689 ], [ -52.7643106, -22.6086369 ], [ -52.762189, -22.5901689 ], [ -52.7602777, -22.5864054 ], [ -52.7568982, -22.5845654 ], [ -52.7557003, -22.5829183 ], [ -52.7565213, -22.5818087 ], [ -52.7551042, -22.5770775 ], [ -52.7514774, -22.572609 ], [ -52.7511181, -22.5671627 ], [ -52.7484774, -22.563909 ], [ -52.7466986, -22.5560942 ], [ -52.7370467, -22.5387945 ], [ -52.7323198, -22.5246652 ], [ -52.7211288, -22.5159669 ], [ -52.7165358, -22.5113627 ], [ -52.7149403, -22.5071019 ], [ -52.7100322, -22.5005891 ], [ -52.7114971, -22.4983544 ], [ -52.7104308, -22.4952247 ], [ -52.7001153, -22.4818244 ], [ -52.6961936, -22.4789947 ], [ -52.6928818, -22.4695771 ], [ -52.6860634, -22.4630996 ], [ -52.6850948, -22.4599009 ], [ -52.6788776, -22.4546945 ], [ -52.6734165, -22.453515 ], [ -52.6694218, -22.4512358 ], [ -52.6640994, -22.4432529 ], [ -52.6627006, -22.4422256 ], [ -52.6534604, -22.4396416 ], [ -52.6517863, -22.4383663 ], [ -52.6496516, -22.4341907 ], [ -52.6380451, -22.4331769 ], [ -52.6338148, -22.4310655 ], [ -52.6288102, -22.4236341 ], [ -52.620558, -22.4172925 ], [ -52.6172806, -22.4076888 ], [ -52.6149254, -22.4042513 ], [ -52.6115791, -22.4015591 ], [ -52.6030591, -22.402683 ], [ -52.5982999, -22.4061918 ], [ -52.5953981, -22.406935 ], [ -52.585172, -22.4128661 ], [ -52.5818028, -22.4130415 ], [ -52.5625896, -22.3961438 ], [ -52.5563214, -22.3924026 ], [ -52.5495109, -22.3937979 ], [ -52.5441262, -22.396273 ], [ -52.5337277, -22.3910979 ], [ -52.5289364, -22.3918101 ], [ -52.5269189, -22.3941554 ], [ -52.5164492, -22.3877082 ], [ -52.5119049, -22.3877496 ], [ -52.5080702, -22.3917283 ], [ -52.5027542, -22.4005206 ], [ -52.4931773, -22.4051011 ], [ -52.4861607, -22.4113174 ], [ -52.4682331, -22.4157105 ], [ -52.4652964, -22.4178747 ], [ -52.4651187, -22.4202519 ], [ -52.4682123, -22.4279688 ], [ -52.4790394, -22.4426886 ], [ -52.4790497, -22.4439707 ], [ -52.4744259, -22.4506666 ], [ -52.470587, -22.4592739 ], [ -52.4683625, -22.4666586 ], [ -52.4681906, -22.4744283 ], [ -52.4708226, -22.4914434 ], [ -52.4684707, -22.4981117 ], [ -52.4679916, -22.5027801 ], [ -52.4652591, -22.5029268 ], [ -52.462869, -22.5045532 ], [ -52.4597986, -22.5077217 ], [ -52.4594005, -22.5092635 ], [ -52.4605387, -22.5149602 ], [ -52.4655522, -22.5279155 ], [ -52.4659955, -22.5333636 ], [ -52.4633652, -22.5373822 ], [ -52.4572194, -22.5420803 ], [ -52.4526383, -22.5481961 ], [ -52.4506874, -22.5553889 ] ] ] ] } }
]
}
