{
"type": "FeatureCollection",
"name": "ER_REGIAO_Palmeira d'Oeste_Dalas",
"crs": { "type": "name", "properties": { "name": "urn:ogc:def:crs:EPSG::4674" } },
"xy_coordinate_resolution": 1e-15,
"features": [
{ "type": "Feature", "properties": { "fid": 592, "NM_REGIAO": "Sudeste", "NM_UF": "São Paulo", "NM_MUN": "Palmeira d'Oeste", "NM_DIST": "Dalas", "CD_SUBDIST": "35352001000", "ER_REGIAO": "Palmeira d'Oeste_Dalas", "ER_REGIAO_CIDADE": "Palmeira d'Oeste_Dalas_Araçatuba" }, "geometry": { "type": "MultiPolygon", "coordinates": [ [ [ [ -50.771554099999946, -20.544979599999976 ], [ -50.779142099999945, -20.545436199999926 ], [ -50.788017699999955, -20.541861199999971 ], [ -50.789679099999944, -20.545521699999938 ], [ -50.790575899999965, -20.54586089999998 ], [ -50.796756699999946, -20.544286499999941 ], [ -50.799559499999987, -20.541456399999959 ], [ -50.80388279999994, -20.54511679999996 ], [ -50.807834599999978, -20.54676749999993 ], [ -50.810100299999931, -20.54352149999994 ], [ -50.810307599999931, -20.542266799999936 ], [ -50.806343599999934, -20.541116699999975 ], [ -50.80746819999996, -20.538551699999971 ], [ -50.807715199999961, -20.535303599999963 ], [ -50.812123199999974, -20.531151799999975 ], [ -50.80686529999997, -20.528178699999955 ], [ -50.804375499999935, -20.525667399999975 ], [ -50.80501849999996, -20.523968699999955 ], [ -50.803113399999972, -20.519577 ], [ -50.803049599999952, -20.514015699999959 ], [ -50.806039299999952, -20.508159499999977 ], [ -50.803494699999931, -20.502047299999958 ], [ -50.805253, -20.498038699999938 ], [ -50.804380099999946, -20.495563299999958 ], [ -50.806663799999967, -20.491403 ], [ -50.804841, -20.485244699999953 ], [ -50.801150799999959, -20.483337199999937 ], [ -50.799151, -20.479974199999958 ], [ -50.79950249999996, -20.473637099999962 ], [ -50.798222599999974, -20.471792899999969 ], [ -50.796825899999931, -20.471003899999971 ], [ -50.794546, -20.471248 ], [ -50.792178299999932, -20.474141 ], [ -50.788113899999985, -20.476469399999928 ], [ -50.785436699999934, -20.476674399999979 ], [ -50.778335499999969, -20.475216 ], [ -50.774153599999977, -20.475997399999983 ], [ -50.770859, -20.474421499999949 ], [ -50.76705439999995, -20.47028389999997 ], [ -50.767019599999969, -20.466776599999946 ], [ -50.768622799999946, -20.462411 ], [ -50.766384399999936, -20.464288299999964 ], [ -50.76386569999994, -20.464812599999959 ], [ -50.760581599999966, -20.464304399999946 ], [ -50.756229899999937, -20.461509199999966 ], [ -50.752354099999934, -20.461369799999943 ], [ -50.748862, -20.462138599999946 ], [ -50.74697679999997, -20.463575899999967 ], [ -50.741546199999959, -20.464346699999965 ], [ -50.741582299999948, -20.46114289999997 ], [ -50.738844, -20.45921519999996 ], [ -50.731421199999943, -20.456880199999944 ], [ -50.72609319999998, -20.458696299999929 ], [ -50.718148399999961, -20.456985199999963 ], [ -50.718707299999949, -20.453463899999974 ], [ -50.714782699999944, -20.448434499999962 ], [ -50.703087399999959, -20.44665109999994 ], [ -50.701931199999933, -20.447108199999946 ], [ -50.697932899999955, -20.452862 ], [ -50.693070399999954, -20.456383699999947 ], [ -50.684859499999959, -20.456724699999938 ], [ -50.683439, -20.460066099999949 ], [ -50.67607309999994, -20.468339599999979 ], [ -50.672962, -20.468793499999947 ], [ -50.671524499999975, -20.470459199999937 ], [ -50.668773599999952, -20.469995299999937 ], [ -50.668169599999942, -20.470703599999979 ], [ -50.667128899999966, -20.47339089999997 ], [ -50.666952199999969, -20.477086099999951 ], [ -50.668396899999948, -20.480284899999958 ], [ -50.667626899999959, -20.484369 ], [ -50.668558699999949, -20.486649499999942 ], [ -50.664324199999953, -20.491268099999957 ], [ -50.664157399999965, -20.494144399999982 ], [ -50.662594499999955, -20.498085399999979 ], [ -50.659195499999953, -20.503648399999975 ], [ -50.659973699999966, -20.504234099999962 ], [ -50.658017899999948, -20.506018599999948 ], [ -50.657475699999964, -20.512261499999966 ], [ -50.65367759999998, -20.513065499999982 ], [ -50.655511399999966, -20.516856099999927 ], [ -50.65879579999995, -20.517583899999977 ], [ -50.662401399999965, -20.52094969999996 ], [ -50.661390199999971, -20.527387099999942 ], [ -50.664030499999967, -20.530961299999944 ], [ -50.666421, -20.532055399999933 ], [ -50.671447399999977, -20.53147139999993 ], [ -50.677003499999955, -20.529317899999967 ], [ -50.678825599999982, -20.527608099999952 ], [ -50.680012799999986, -20.528211399999975 ], [ -50.679307, -20.53009609999998 ], [ -50.682179799999972, -20.529425099999969 ], [ -50.683687099999986, -20.527139 ], [ -50.683091199999978, -20.524512699999946 ], [ -50.685778599999935, -20.524765599999967 ], [ -50.689115099999981, -20.523546799999963 ], [ -50.690109899999982, -20.524645599999928 ], [ -50.689996, -20.525742399999956 ], [ -50.689141799999959, -20.526116599999966 ], [ -50.690064699999937, -20.52729039999997 ], [ -50.688471199999981, -20.533306899999957 ], [ -50.691009199999939, -20.533566199999939 ], [ -50.68961029999997, -20.535066399999948 ], [ -50.687950699999931, -20.535281399999974 ], [ -50.689056099999959, -20.536966499999949 ], [ -50.691844799999956, -20.538511799999981 ], [ -50.693430599999942, -20.531301299999939 ], [ -50.69582829999996, -20.528871 ], [ -50.699419399999954, -20.532018099999959 ], [ -50.702242799999965, -20.532173199999932 ], [ -50.705700199999967, -20.534448299999951 ], [ -50.709883899999966, -20.532344 ], [ -50.711526699999979, -20.528274199999942 ], [ -50.712756399999932, -20.527502299999981 ], [ -50.715995099999986, -20.527327299999968 ], [ -50.71742919999997, -20.528186199999936 ], [ -50.720447, -20.52665079999997 ], [ -50.724993, -20.526853399999936 ], [ -50.730449199999953, -20.531129799999974 ], [ -50.729123399999935, -20.53214209999993 ], [ -50.729351799999961, -20.533137199999942 ], [ -50.735246099999983, -20.534 ], [ -50.737252599999977, -20.536099399999955 ], [ -50.73848449999997, -20.53868609999995 ], [ -50.738816899999961, -20.544938099999968 ], [ -50.749626099999944, -20.541926199999978 ], [ -50.754354299999932, -20.539041099999963 ], [ -50.755805, -20.541681399999959 ], [ -50.755258499999968, -20.546788099999958 ], [ -50.755948099999955, -20.548419099999933 ], [ -50.761364899999933, -20.552091299999972 ], [ -50.766991, -20.553167499999972 ], [ -50.770280399999933, -20.552332699999965 ], [ -50.76859, -20.54975989999997 ], [ -50.768651, -20.544740299999944 ], [ -50.769350399999951, -20.544167699999946 ], [ -50.771554099999946, -20.544979599999976 ] ] ] ] } }
]
}
