{
"type": "FeatureCollection",
"name": "ER_REGIAO_Planalto",
"crs": { "type": "name", "properties": { "name": "urn:ogc:def:crs:EPSG::4674" } },
"xy_coordinate_resolution": 1e-15,
"features": [
{ "type": "Feature", "properties": { "fid": 663, "NM_REGIAO": "Sudeste", "NM_UF": "São Paulo", "NM_MUN": "Planalto", "NM_DIST": "Planalto", "CD_SUBDIST": "35396080500", "ER_REGIAO": "Planalto", "ER_REGIAO_CIDADE": "Planalto_São José do Rio Preto" }, "geometry": { "type": "MultiPolygon", "coordinates": [ [ [ [ -49.9820549, -21.0636083 ], [ -49.9836199, -21.0627878 ], [ -49.9850296, -21.0601886 ], [ -49.9848156, -21.0457588 ], [ -49.986512, -21.0429049 ], [ -49.9927466, -21.0388351 ], [ -49.9956832, -21.0329945 ], [ -50.0056356, -21.0299293 ], [ -50.0550375, -20.9973332 ], [ -50.0465397, -20.9917026 ], [ -50.0438293, -20.9913107 ], [ -50.0422658, -20.9893477 ], [ -50.0408499, -20.9837295 ], [ -50.0388252, -20.9806568 ], [ -50.0370073, -20.9808283 ], [ -50.0343673, -20.9786821 ], [ -50.0273506, -20.9763339 ], [ -50.0211293, -20.9775432 ], [ -50.0182908, -20.9772769 ], [ -50.0165181, -20.9753134 ], [ -50.0184446, -20.9734028 ], [ -50.0180957, -20.9713246 ], [ -50.0196164, -20.9692252 ], [ -50.0160072, -20.9647684 ], [ -50.014104, -20.9647916 ], [ -50.0119309, -20.966718 ], [ -50.0086212, -20.9641776 ], [ -50.0065117, -20.9665301 ], [ -50.0051013, -20.9658922 ], [ -50.0038708, -20.9635139 ], [ -50.0070035, -20.9597185 ], [ -50.0033226, -20.9577978 ], [ -50.002262, -20.9537394 ], [ -49.9999629, -20.9537874 ], [ -49.9966795, -20.9515793 ], [ -49.9954965, -20.9498097 ], [ -49.9933798, -20.9497989 ], [ -49.9929551, -20.9480165 ], [ -49.9892487, -20.9428872 ], [ -49.9888633, -20.9404259 ], [ -49.9869516, -20.9372833 ], [ -49.9831689, -20.933192 ], [ -49.978887, -20.9218 ], [ -49.9750892, -20.915088 ], [ -49.9751723, -20.9104314 ], [ -49.9712412, -20.90818 ], [ -49.9665681, -20.910051 ], [ -49.9616037, -20.9095802 ], [ -49.958008, -20.9063846 ], [ -49.9569627, -20.9068811 ], [ -49.9547667, -20.9107413 ], [ -49.9526578, -20.9126829 ], [ -49.9495815, -20.9207329 ], [ -49.9489294, -20.9265602 ], [ -49.9455824, -20.9306478 ], [ -49.9434715, -20.9354253 ], [ -49.9311068, -20.9328652 ], [ -49.9262614, -20.928548 ], [ -49.9246783, -20.9227686 ], [ -49.9231355, -20.9204015 ], [ -49.9182772, -20.9187441 ], [ -49.8824331, -20.9170634 ], [ -49.8720475, -20.9178454 ], [ -49.8711122, -20.922038 ], [ -49.8648928, -20.9271717 ], [ -49.8574056, -20.9314752 ], [ -49.8562873, -20.9329285 ], [ -49.8507639, -20.9318642 ], [ -49.8458624, -20.9401876 ], [ -49.8460937, -20.9452845 ], [ -49.8378318, -20.9453719 ], [ -49.8293451, -20.9499644 ], [ -49.8293816, -20.9521019 ], [ -49.8272982, -20.9536901 ], [ -49.8275409, -20.9547661 ], [ -49.8297668, -20.9565224 ], [ -49.8280623, -20.9591366 ], [ -49.8313889, -20.9614566 ], [ -49.830974, -20.9622171 ], [ -49.8330633, -20.963288 ], [ -49.8327182, -20.9639746 ], [ -49.8348156, -20.965066 ], [ -49.8347781, -20.9662459 ], [ -49.8362988, -20.9672809 ], [ -49.8377034, -20.9699646 ], [ -49.8413276, -20.9720898 ], [ -49.8420048, -20.9738948 ], [ -49.8412053, -20.9766743 ], [ -49.8420627, -20.9777065 ], [ -49.8432279, -20.9772005 ], [ -49.8479776, -20.9833853 ], [ -49.84674, -20.9860787 ], [ -49.8479555, -20.9879277 ], [ -49.8472072, -20.9891307 ], [ -49.8484669, -20.9895855 ], [ -49.8490231, -20.9908774 ], [ -49.8486703, -20.9947709 ], [ -49.8511206, -20.9975903 ], [ -49.8537699, -21.0029949 ], [ -49.8550942, -21.0022388 ], [ -49.8569855, -21.0047287 ], [ -49.8578086, -21.0043089 ], [ -49.859282, -21.0054201 ], [ -49.8585484, -21.0067638 ], [ -49.8592139, -21.0069925 ], [ -49.8590186, -21.0081914 ], [ -49.8566537, -21.0116346 ], [ -49.8568314, -21.0136538 ], [ -49.8548884, -21.0181639 ], [ -49.8595376, -21.0232826 ], [ -49.862004, -21.0241529 ], [ -49.8624113, -21.0296548 ], [ -49.8658576, -21.0327873 ], [ -49.868998, -21.0326907 ], [ -49.8697456, -21.033471 ], [ -49.8693315, -21.0365793 ], [ -49.872452, -21.0416031 ], [ -49.874647, -21.0416456 ], [ -49.8756274, -21.0406489 ], [ -49.8754565, -21.0425834 ], [ -49.8771074, -21.0438407 ], [ -49.8766414, -21.0444749 ], [ -49.8782107, -21.0461292 ], [ -49.8782201, -21.0471517 ], [ -49.8828651, -21.0506337 ], [ -49.8835184, -21.0534116 ], [ -49.8863113, -21.0548466 ], [ -49.8867145, -21.0568525 ], [ -49.8891841, -21.0585264 ], [ -49.8887707, -21.0626721 ], [ -49.8925579, -21.063603 ], [ -49.8961711, -21.0660915 ], [ -49.8978371, -21.0659198 ], [ -49.8976874, -21.0668511 ], [ -49.898556, -21.0668377 ], [ -49.8994277, -21.06822 ], [ -49.9000709, -21.0753274 ], [ -49.9023553, -21.0754635 ], [ -49.902164, -21.0737723 ], [ -49.9066085, -21.0723945 ], [ -49.9078056, -21.0705492 ], [ -49.9093284, -21.0706182 ], [ -49.9114967, -21.069191 ], [ -49.9169112, -21.0725006 ], [ -49.9190179, -21.0732543 ], [ -49.9203085, -21.0728778 ], [ -49.9216977, -21.0744545 ], [ -49.9207429, -21.0769539 ], [ -49.9255619, -21.0758903 ], [ -49.9265209, -21.0783869 ], [ -49.9272925, -21.0781215 ], [ -49.9281886, -21.079606 ], [ -49.9276535, -21.0804839 ], [ -49.9285176, -21.0804631 ], [ -49.929238, -21.0821806 ], [ -49.9339609, -21.0835512 ], [ -49.9338101, -21.0856616 ], [ -49.9356177, -21.0874032 ], [ -49.9345857, -21.0887795 ], [ -49.9356392, -21.0892636 ], [ -49.9352344, -21.0899516 ], [ -49.9376632, -21.0914061 ], [ -49.938378, -21.0932632 ], [ -49.9396167, -21.0937011 ], [ -49.939292, -21.0942758 ], [ -49.9408984, -21.0942537 ], [ -49.9409126, -21.0962455 ], [ -49.9433257, -21.0980322 ], [ -49.9444405, -21.0978929 ], [ -49.9460623, -21.1004928 ], [ -49.9457442, -21.1032709 ], [ -49.9464673, -21.1035514 ], [ -49.9464944, -21.1060258 ], [ -49.9476708, -21.10727 ], [ -49.9469315, -21.1077617 ], [ -49.9475305, -21.1100217 ], [ -49.945815, -21.114189 ], [ -49.9467743, -21.1152414 ], [ -49.9456267, -21.1153772 ], [ -49.9461956, -21.1167962 ], [ -49.94565, -21.1179867 ], [ -49.9472235, -21.1199273 ], [ -49.9461343, -21.1213852 ], [ -49.9471471, -21.1218881 ], [ -49.9468829, -21.1225733 ], [ -49.9504191, -21.124082 ], [ -49.9502437, -21.1262685 ], [ -49.954802, -21.125445 ], [ -49.9545738, -21.1263958 ], [ -49.9559947, -21.1276183 ], [ -49.954873, -21.128577 ], [ -49.9565206, -21.1290566 ], [ -49.9561475, -21.1313141 ], [ -49.9588742, -21.1318137 ], [ -49.9595733, -21.1330317 ], [ -49.9969295, -21.0989733 ], [ -49.9927819, -21.0991217 ], [ -49.9900812, -21.0982692 ], [ -49.9850402, -21.0947279 ], [ -49.9810025, -21.0883307 ], [ -49.9806933, -21.0805485 ], [ -49.9817428, -21.077142 ], [ -49.9810533, -21.074505 ], [ -49.98208, -21.0725161 ], [ -49.9813985, -21.070586 ], [ -49.9824534, -21.0677612 ], [ -49.9820549, -21.0636083 ] ] ] ] } }
]
}
