{
"type": "FeatureCollection",
"name": "ER_REGIAO_Iperó_Iperó",
"crs": { "type": "name", "properties": { "name": "urn:ogc:def:crs:EPSG::4674" } },
"xy_coordinate_resolution": 1e-15,
"features": [
{ "type": "Feature", "properties": { "fid": 341, "NM_REGIAO": "Sudeste", "NM_UF": "São Paulo", "NM_MUN": "Iperó", "NM_DIST": "Iperó", "CD_SUBDIST": "35210020500", "ER_REGIAO": "Iperó_Iperó", "ER_REGIAO_CIDADE": "Iperó_Iperó_Sorocaba" }, "geometry": { "type": "MultiPolygon", "coordinates": [ [ [ [ -47.68783, -23.3304099 ], [ -47.6826967, -23.3349003 ], [ -47.6821174, -23.3366502 ], [ -47.6826907, -23.3380148 ], [ -47.6820365, -23.3392599 ], [ -47.683139, -23.3409407 ], [ -47.6816288, -23.3427728 ], [ -47.6806555, -23.3475388 ], [ -47.6781119, -23.3475086 ], [ -47.677, -23.3501605 ], [ -47.6751385, -23.3507717 ], [ -47.6742004, -23.3494014 ], [ -47.6735363, -23.3496147 ], [ -47.6739136, -23.352465 ], [ -47.6722006, -23.3525678 ], [ -47.6712026, -23.3537487 ], [ -47.6715986, -23.3548283 ], [ -47.6755876, -23.3566388 ], [ -47.6759322, -23.3579133 ], [ -47.677482, -23.3570683 ], [ -47.6770801, -23.3590339 ], [ -47.6781467, -23.3584465 ], [ -47.6786359, -23.3590695 ], [ -47.6766189, -23.3621418 ], [ -47.675562, -23.3683439 ], [ -47.6737349, -23.3703628 ], [ -47.6738524, -23.3767533 ], [ -47.6751068, -23.3786696 ], [ -47.675346, -23.3814082 ], [ -47.6839867, -23.3932346 ], [ -47.6879757, -23.3934445 ], [ -47.6942961, -23.3978598 ], [ -47.7014676, -23.3982582 ], [ -47.7073809, -23.3912639 ], [ -47.7129616, -23.389975 ], [ -47.7151006, -23.3887432 ], [ -47.7173538, -23.3886769 ], [ -47.7183226, -23.3877373 ], [ -47.7193923, -23.3884518 ], [ -47.7206406, -23.3866943 ], [ -47.7256321, -23.3855368 ], [ -47.724672, -23.3842036 ], [ -47.7251361, -23.3824435 ], [ -47.7274562, -23.3803582 ], [ -47.7295212, -23.3802113 ], [ -47.7297215, -23.3770064 ], [ -47.7288616, -23.3756025 ], [ -47.7296361, -23.374772 ], [ -47.7286774, -23.3742589 ], [ -47.7285375, -23.3693849 ], [ -47.7307156, -23.3675214 ], [ -47.7300125, -23.3668819 ], [ -47.7305859, -23.3660802 ], [ -47.7297874, -23.3620683 ], [ -47.7303596, -23.3604195 ], [ -47.7265152, -23.3579345 ], [ -47.7267444, -23.3561263 ], [ -47.7261289, -23.3555622 ], [ -47.727586, -23.355364 ], [ -47.7264996, -23.3543864 ], [ -47.7302208, -23.351678 ], [ -47.732715, -23.3525283 ], [ -47.7334763, -23.350833 ], [ -47.7321234, -23.3500875 ], [ -47.7337734, -23.3493683 ], [ -47.7364673, -23.3509027 ], [ -47.7354036, -23.3577493 ], [ -47.7373137, -23.3568929 ], [ -47.7389296, -23.3539277 ], [ -47.7389287, -23.3522219 ], [ -47.7402499, -23.3521027 ], [ -47.7398547, -23.3501851 ], [ -47.7424425, -23.348049 ], [ -47.7420629, -23.3452984 ], [ -47.743221, -23.3444632 ], [ -47.7440595, -23.3451997 ], [ -47.7449333, -23.3424585 ], [ -47.7380138, -23.3339004 ], [ -47.7370332, -23.3315485 ], [ -47.7350396, -23.3329619 ], [ -47.7330317, -23.3330141 ], [ -47.7278152, -23.3315572 ], [ -47.7285185, -23.3334152 ], [ -47.7262757, -23.3347124 ], [ -47.7270218, -23.3367402 ], [ -47.723977, -23.3396204 ], [ -47.7242257, -23.3415061 ], [ -47.7232204, -23.3418616 ], [ -47.7236876, -23.3433693 ], [ -47.7217128, -23.3441475 ], [ -47.7213985, -23.3433607 ], [ -47.7171722, -23.3415329 ], [ -47.7171499, -23.337821 ], [ -47.7160288, -23.3376629 ], [ -47.714877, -23.3391699 ], [ -47.7133516, -23.3380829 ], [ -47.7129479, -23.3370579 ], [ -47.7143776, -23.3343283 ], [ -47.713174, -23.3306574 ], [ -47.7113738, -23.3304577 ], [ -47.7091768, -23.331859 ], [ -47.706433, -23.3340611 ], [ -47.7065094, -23.3356333 ], [ -47.7025746, -23.3361961 ], [ -47.7018945, -23.3351798 ], [ -47.7007538, -23.3360162 ], [ -47.6993689, -23.3344034 ], [ -47.6993818, -23.3361564 ], [ -47.6972181, -23.3366866 ], [ -47.6966855, -23.3355521 ], [ -47.6953643, -23.3359415 ], [ -47.6956797, -23.3341001 ], [ -47.6942851, -23.3337457 ], [ -47.6939722, -23.3323771 ], [ -47.6928093, -23.3323809 ], [ -47.6911333, -23.32985 ], [ -47.68783, -23.3304099 ] ] ] ] } }
]
}
