{
"type": "FeatureCollection",
"name": "ER_REGIAO_Altinópolis",
"crs": { "type": "name", "properties": { "name": "urn:ogc:def:crs:EPSG::4674" } },
"xy_coordinate_resolution": 1e-15,
"features": [
{ "type": "Feature", "properties": { "fid": 15, "NM_REGIAO": "Sudeste", "NM_UF": "São Paulo", "NM_MUN": "Altinópolis", "NM_DIST": "Altinópolis", "CD_SUBDIST": "35010040500", "ER_REGIAO": "Altinópolis", "ER_REGIAO_CIDADE": "Altinópolis_Franca" }, "geometry": { "type": "MultiPolygon", "coordinates": [ [ [ [ -47.248874799999953, -20.990210199999979 ], [ -47.242907699999932, -20.989229 ], [ -47.243681799999933, -20.992015399999957 ], [ -47.240263699999957, -20.992904799999963 ], [ -47.239806099999953, -20.993743 ], [ -47.246329199999934, -20.996761599999957 ], [ -47.246803499999942, -20.998132599999963 ], [ -47.245791, -20.999490799999933 ], [ -47.250009099999943, -21.001436299999966 ], [ -47.253164199999958, -21.004796299999953 ], [ -47.253827499999943, -21.007718499999953 ], [ -47.250663, -21.009168 ], [ -47.249161699999945, -21.011051399999928 ], [ -47.249431899999934, -21.019214499999975 ], [ -47.247233399999971, -21.021246499999961 ], [ -47.244642899999974, -21.025534499999935 ], [ -47.239011599999969, -21.039146499999958 ], [ -47.237555699999973, -21.040377399999954 ], [ -47.233668, -21.041361099999961 ], [ -47.23913959999993, -21.050105599999938 ], [ -47.235329499999978, -21.063247499999932 ], [ -47.235594399999968, -21.066956299999958 ], [ -47.234208499999966, -21.069755099999952 ], [ -47.233746199999985, -21.073082 ], [ -47.231841699999961, -21.076224099999934 ], [ -47.23187779999995, -21.079497899999978 ], [ -47.228780299999983, -21.082097499999975 ], [ -47.223474199999941, -21.083255399999928 ], [ -47.222883699999954, -21.083954299999959 ], [ -47.22330009999996, -21.085450699999967 ], [ -47.224355199999934, -21.085697399999958 ], [ -47.228572499999984, -21.083955499999945 ], [ -47.231065799999953, -21.084368899999959 ], [ -47.234678, -21.083413299999961 ], [ -47.238040199999944, -21.080665899999929 ], [ -47.241778499999953, -21.079750099999956 ], [ -47.24805269999996, -21.075738399999977 ], [ -47.254483499999935, -21.076636099999973 ], [ -47.260166599999934, -21.075520799999936 ], [ -47.26067519999998, -21.075797 ], [ -47.259860799999956, -21.077532299999973 ], [ -47.261016099999949, -21.080585399999961 ], [ -47.26262909999997, -21.081719299999975 ], [ -47.263497799999982, -21.084466299999974 ], [ -47.266186599999969, -21.085287699999981 ], [ -47.267435, -21.090264699999977 ], [ -47.270254799999975, -21.094494099999963 ], [ -47.272715699999935, -21.095289399999956 ], [ -47.275603599999954, -21.094693399999983 ], [ -47.277498199999968, -21.096358599999974 ], [ -47.28253, -21.097796899999935 ], [ -47.283407, -21.09915239999998 ], [ -47.287526499999956, -21.099165399999947 ], [ -47.288855599999977, -21.101156 ], [ -47.291090899999972, -21.101852299999962 ], [ -47.293339099999969, -21.100810299999978 ], [ -47.293725, -21.097742399999959 ], [ -47.296671199999935, -21.097753099999977 ], [ -47.297230299999967, -21.096249199999932 ], [ -47.299446, -21.097743499999979 ], [ -47.302085499999976, -21.096928799999944 ], [ -47.303001399999971, -21.098728799999947 ], [ -47.306256, -21.099700399999961 ], [ -47.308394899999939, -21.101854699999933 ], [ -47.310032799999931, -21.100992499999961 ], [ -47.312737499999969, -21.10121369999996 ], [ -47.315252499999986, -21.10344559999993 ], [ -47.317295199999933, -21.103607499999953 ], [ -47.318824, -21.102128899999968 ], [ -47.326271599999984, -21.10087939999994 ], [ -47.326527899999974, -21.101672199999939 ], [ -47.325486199999943, -21.103075499999932 ], [ -47.32668659999996, -21.104489399999977 ], [ -47.327451, -21.107847899999967 ], [ -47.330505699999947, -21.108278399999961 ], [ -47.331013599999949, -21.10681459999995 ], [ -47.332353099999978, -21.106095 ], [ -47.339038099999982, -21.110191899999961 ], [ -47.339495399999976, -21.112735899999961 ], [ -47.337054299999977, -21.113935499999968 ], [ -47.338018699999964, -21.113977699999964 ], [ -47.338098899999977, -21.114702399999942 ], [ -47.33724239999998, -21.118506199999956 ], [ -47.338143699999932, -21.120085399999937 ], [ -47.341123699999969, -21.119672599999944 ], [ -47.344453499999986, -21.121194699999933 ], [ -47.344613899999956, -21.122691 ], [ -47.343272299999967, -21.123282 ], [ -47.344065299999954, -21.124095699999941 ], [ -47.341687899999954, -21.125806499999953 ], [ -47.342366699999957, -21.125880599999959 ], [ -47.342088699999977, -21.126945499999977 ], [ -47.343706399999974, -21.128684699999951 ], [ -47.344782299999963, -21.128972099999942 ], [ -47.345535899999959, -21.131697599999939 ], [ -47.349049099999945, -21.13418669999993 ], [ -47.349837, -21.137246 ], [ -47.353011399999957, -21.136351699999977 ], [ -47.354294099999947, -21.137358899999981 ], [ -47.356197899999984, -21.136435699999936 ], [ -47.35852749999998, -21.136958799999945 ], [ -47.361152199999935, -21.138529699999935 ], [ -47.369258899999977, -21.146261699999968 ], [ -47.371097, -21.147046899999964 ], [ -47.379845899999964, -21.147275099999945 ], [ -47.385395, -21.14483869999998 ], [ -47.388373299999955, -21.137900299999956 ], [ -47.394447699999944, -21.138110899999958 ], [ -47.397817699999962, -21.139789299999961 ], [ -47.400692699999979, -21.143520899999942 ], [ -47.407186599999932, -21.146436499999936 ], [ -47.409746599999949, -21.147419199999945 ], [ -47.41174529999995, -21.147067799999945 ], [ -47.415417799999943, -21.149471299999959 ], [ -47.422423199999969, -21.149666699999955 ], [ -47.422765899999945, -21.155148199999928 ], [ -47.430177399999934, -21.153710699999976 ], [ -47.432771099999968, -21.158395499999983 ], [ -47.437715099999934, -21.16439349999996 ], [ -47.440407099999959, -21.164233099999933 ], [ -47.441887899999983, -21.165853199999958 ], [ -47.446226799999977, -21.166217399999937 ], [ -47.446158, -21.168557 ], [ -47.449497, -21.171397399999933 ], [ -47.451165599999968, -21.171912899999938 ], [ -47.455026299999986, -21.176755199999945 ], [ -47.461679199999935, -21.179114499999969 ], [ -47.464019, -21.17914159999998 ], [ -47.472159799999986, -21.183389699999964 ], [ -47.473831, -21.186255599999981 ], [ -47.475701899999933, -21.192922299999964 ], [ -47.477034599999968, -21.202267599999971 ], [ -47.478876399999933, -21.203760299999942 ], [ -47.478283599999941, -21.205332099999964 ], [ -47.478719199999944, -21.206537199999957 ], [ -47.480700599999977, -21.208211399999982 ], [ -47.493149199999948, -21.207337099999961 ], [ -47.492941, -21.20983519999993 ], [ -47.494854, -21.212913499999956 ], [ -47.500064799999961, -21.214352699999949 ], [ -47.500095499999986, -21.210496699999965 ], [ -47.501778299999955, -21.209231699999975 ], [ -47.501447699999972, -21.20604869999994 ], [ -47.503121299999975, -21.204136099999971 ], [ -47.512142799999936, -21.207541799999944 ], [ -47.513860499999964, -21.206509899999958 ], [ -47.513291199999969, -21.202478199999973 ], [ -47.515061199999934, -21.201901299999975 ], [ -47.516849699999966, -21.202618599999937 ], [ -47.517774199999963, -21.206840099999965 ], [ -47.520095399999946, -21.204747899999973 ], [ -47.523607599999934, -21.205550699999947 ], [ -47.527811, -21.200075 ], [ -47.533726, -21.195632 ], [ -47.534827, -21.19309 ], [ -47.534411, -21.189511 ], [ -47.529945, -21.187198 ], [ -47.527521, -21.184708 ], [ -47.526767, -21.182237 ], [ -47.527508, -21.180354 ], [ -47.532953, -21.182972 ], [ -47.540742, -21.183322 ], [ -47.550229, -21.186167 ], [ -47.556675, -21.189378 ], [ -47.559744, -21.189709 ], [ -47.56739, -21.188113 ], [ -47.570182, -21.18675 ], [ -47.578436, -21.174608 ], [ -47.581545, -21.172747 ], [ -47.601281, -21.177958 ], [ -47.612723, -21.18199 ], [ -47.617123, -21.180587 ], [ -47.625488, -21.174147 ], [ -47.628805, -21.170077 ], [ -47.629135, -21.167867 ], [ -47.627667, -21.160968 ], [ -47.624457, -21.153531 ], [ -47.625956, -21.148995 ], [ -47.628204, -21.148317 ], [ -47.622921, -21.140997 ], [ -47.616118, -21.138062 ], [ -47.610229, -21.141152 ], [ -47.604575, -21.140637 ], [ -47.602453, -21.138529 ], [ -47.601055, -21.139279 ], [ -47.598338, -21.137252 ], [ -47.597711, -21.134085 ], [ -47.596066, -21.132845 ], [ -47.596117, -21.128122 ], [ -47.593228, -21.127372 ], [ -47.590154, -21.128706 ], [ -47.587778, -21.125449 ], [ -47.584187, -21.122562 ], [ -47.579094, -21.121211 ], [ -47.57713, -21.119086 ], [ -47.574676, -21.118488 ], [ -47.572532, -21.115662 ], [ -47.568129, -21.114433 ], [ -47.567593, -21.112 ], [ -47.566238, -21.110703 ], [ -47.561289, -21.110058 ], [ -47.558958, -21.107622 ], [ -47.554957, -21.108486 ], [ -47.550084, -21.107564 ], [ -47.546149, -21.109506 ], [ -47.542222, -21.107665 ], [ -47.540309, -21.104524 ], [ -47.530449, -21.102562 ], [ -47.527083, -21.100067 ], [ -47.522702, -21.099676 ], [ -47.519171, -21.097708 ], [ -47.518114, -21.097933 ], [ -47.519039, -21.095803 ], [ -47.518277, -21.095594 ], [ -47.51887, -21.093102 ], [ -47.517945, -21.092151 ], [ -47.519406, -21.090882 ], [ -47.518739, -21.087794 ], [ -47.520092, -21.085361 ], [ -47.519279, -21.084248 ], [ -47.520269, -21.083152 ], [ -47.520029, -21.080157 ], [ -47.520766, -21.079992 ], [ -47.520706, -21.077985 ], [ -47.521975, -21.077399 ], [ -47.522464, -21.075164 ], [ -47.521225, -21.074085 ], [ -47.521196, -21.072942 ], [ -47.522153, -21.071794 ], [ -47.521782, -21.071263 ], [ -47.523095, -21.070431 ], [ -47.522364, -21.067439 ], [ -47.524981, -21.063051 ], [ -47.524724, -21.060486 ], [ -47.525389, -21.059143 ], [ -47.52795, -21.058641 ], [ -47.527846, -21.057797 ], [ -47.531704, -21.054922 ], [ -47.532862, -21.052536 ], [ -47.535353, -21.052437 ], [ -47.538471, -21.050818 ], [ -47.539652, -21.047227 ], [ -47.538881, -21.043825 ], [ -47.540027, -21.042101 ], [ -47.539755, -21.04037 ], [ -47.541265, -21.037036 ], [ -47.540638499999943, -21.034553399999936 ], [ -47.529767599999957, -21.025461299999961 ], [ -47.527280599999983, -21.019800199999963 ], [ -47.520187599999986, -21.021368 ], [ -47.517814599999951, -21.019898199999943 ], [ -47.514909299999943, -21.020382199999972 ], [ -47.510581299999956, -21.022276499999975 ], [ -47.50822009999996, -21.024702899999966 ], [ -47.505949299999941, -21.025049 ], [ -47.503531299999963, -21.023709499999939 ], [ -47.499246199999959, -21.018065199999967 ], [ -47.493863599999941, -21.018487 ], [ -47.491018899999972, -21.016605299999981 ], [ -47.483659499999931, -21.01632509999996 ], [ -47.483646, -21.015553299999965 ], [ -47.488708499999973, -21.013929499999961 ], [ -47.490982299999985, -21.012118599999951 ], [ -47.490890599999943, -21.010223899999971 ], [ -47.48916909999997, -21.007666699999959 ], [ -47.488251499999933, -20.99746209999995 ], [ -47.485125299999936, -20.994384099999934 ], [ -47.480336899999941, -20.992433699999935 ], [ -47.47698719999994, -20.989187099999981 ], [ -47.476296799999943, -20.987030499999946 ], [ -47.472476599999936, -20.984601899999973 ], [ -47.465141099999983, -20.986193399999934 ], [ -47.439532099999951, -20.960453199999961 ], [ -47.440082799999971, -20.941827 ], [ -47.437599, -20.932002599999976 ], [ -47.438019099999963, -20.927742199999955 ], [ -47.436791, -20.918224599999974 ], [ -47.434790199999952, -20.914894499999946 ], [ -47.431970499999977, -20.90690619999998 ], [ -47.427935899999966, -20.900350699999933 ], [ -47.427603399999953, -20.896185699999933 ], [ -47.420386899999983, -20.889589399999977 ], [ -47.418296199999986, -20.888678 ], [ -47.416185799999937, -20.884304699999973 ], [ -47.413363899999979, -20.881838199999947 ], [ -47.413048099999969, -20.88039619999995 ], [ -47.411460499999976, -20.880584299999953 ], [ -47.410508899999968, -20.879602399999953 ], [ -47.410374499999932, -20.877643299999932 ], [ -47.40866189999997, -20.877238899999952 ], [ -47.407134299999939, -20.875531099999932 ], [ -47.406648599999983, -20.872940299999982 ], [ -47.406541299999958, -20.871613199999956 ], [ -47.408154199999956, -20.86939579999995 ], [ -47.411074799999938, -20.868965699999933 ], [ -47.411784, -20.867814599999974 ], [ -47.410329599999955, -20.867488399999957 ], [ -47.407748899999945, -20.863958099999934 ], [ -47.410196, -20.863247399999977 ], [ -47.409964599999967, -20.860271799999964 ], [ -47.413344199999983, -20.855871499999978 ], [ -47.411589799999945, -20.850050499999952 ], [ -47.412233499999957, -20.847999 ], [ -47.411687, -20.84642139999994 ], [ -47.415617199999986, -20.843516 ], [ -47.417164299999968, -20.840768299999979 ], [ -47.415164199999936, -20.83724419999993 ], [ -47.415998199999933, -20.834660699999972 ], [ -47.415091899999936, -20.83317459999995 ], [ -47.418320199999982, -20.82622559999993 ], [ -47.416873799999962, -20.824845499999981 ], [ -47.41508639999995, -20.818542599999944 ], [ -47.413706299999944, -20.817583 ], [ -47.413676099999975, -20.813318099999947 ], [ -47.41211519999996, -20.809143099999972 ], [ -47.410996699999941, -20.809394199999929 ], [ -47.410909499999946, -20.810336399999983 ], [ -47.409001, -20.809699 ], [ -47.406385599999965, -20.811050499999965 ], [ -47.406656799999951, -20.812347899999963 ], [ -47.402805599999965, -20.811265 ], [ -47.396314899999936, -20.810871799999973 ], [ -47.394370899999956, -20.813401 ], [ -47.394760499999961, -20.814778399999966 ], [ -47.393181899999945, -20.815479099999948 ], [ -47.392831399999977, -20.819465899999955 ], [ -47.385539799999947, -20.822444099999927 ], [ -47.382445099999984, -20.819939199999965 ], [ -47.380216599999983, -20.821466799999939 ], [ -47.379043499999966, -20.820373899999936 ], [ -47.378088099999957, -20.82159269999994 ], [ -47.377937199999963, -20.820541699999978 ], [ -47.377154899999937, -20.820358799999951 ], [ -47.374494399999946, -20.822418 ], [ -47.370702799999947, -20.82148669999998 ], [ -47.370062599999983, -20.822008499999981 ], [ -47.370515699999942, -20.824629499999958 ], [ -47.369691499999931, -20.827127599999983 ], [ -47.365789599999971, -20.82568509999993 ], [ -47.363037599999984, -20.826693499999976 ], [ -47.35638419999998, -20.825287699999933 ], [ -47.355540699999949, -20.825949 ], [ -47.355419199999972, -20.829536299999972 ], [ -47.35473369999994, -20.829752499999927 ], [ -47.352755899999977, -20.828658899999937 ], [ -47.348961699999961, -20.829180199999939 ], [ -47.34490169999998, -20.827686299999982 ], [ -47.343518599999982, -20.830418699999939 ], [ -47.347140099999933, -20.832328899999936 ], [ -47.347579499999938, -20.833941899999957 ], [ -47.345125799999948, -20.83435129999998 ], [ -47.345098199999939, -20.835433099999932 ], [ -47.348443699999962, -20.837524099999939 ], [ -47.349644799999965, -20.840028399999937 ], [ -47.348048099999971, -20.841453099999967 ], [ -47.347251599999936, -20.844358299999953 ], [ -47.348651699999948, -20.847888399999931 ], [ -47.346562, -20.849870099999976 ], [ -47.344678899999963, -20.848980499999982 ], [ -47.342832, -20.849601 ], [ -47.34267049999994, -20.850557299999934 ], [ -47.344886799999983, -20.852023299999928 ], [ -47.344509199999948, -20.854234699999949 ], [ -47.341507199999967, -20.857661099999973 ], [ -47.338636799999961, -20.85778369999997 ], [ -47.336692599999935, -20.859209199999952 ], [ -47.333137199999953, -20.858772299999941 ], [ -47.332964599999968, -20.859867299999962 ], [ -47.330448499999932, -20.859197399999971 ], [ -47.329958899999951, -20.859937799999955 ], [ -47.328706499999953, -20.85989909999995 ], [ -47.330289899999968, -20.85847949999993 ], [ -47.329422799999975, -20.857646099999954 ], [ -47.328997699999945, -20.858731399999954 ], [ -47.32755659999998, -20.859304599999973 ], [ -47.326861199999939, -20.856268099999966 ], [ -47.327760499999954, -20.855354899999952 ], [ -47.326912499999935, -20.853852699999948 ], [ -47.325160799999935, -20.853862099999958 ], [ -47.323680399999944, -20.852373199999931 ], [ -47.32511059999996, -20.850567499999954 ], [ -47.323137799999984, -20.847734 ], [ -47.321002599999986, -20.847111199999972 ], [ -47.319935, -20.848524599999962 ], [ -47.316411899999935, -20.849292799999944 ], [ -47.313185, -20.847678499999972 ], [ -47.314844199999982, -20.845591699999943 ], [ -47.313473699999975, -20.843491399999948 ], [ -47.314852899999948, -20.843140499999947 ], [ -47.314529499999935, -20.841283099999941 ], [ -47.309999599999969, -20.841621199999963 ], [ -47.306488699999932, -20.843179599999928 ], [ -47.307035299999939, -20.838645799999938 ], [ -47.305882299999951, -20.837325899999939 ], [ -47.302203899999938, -20.840231899999935 ], [ -47.302493, -20.841688099999942 ], [ -47.300974, -20.841183299999955 ], [ -47.300907, -20.842063099999962 ], [ -47.299821899999984, -20.842373099999975 ], [ -47.298738299999968, -20.841246399999932 ], [ -47.299304599999971, -20.84027459999993 ], [ -47.297757299999944, -20.839454099999955 ], [ -47.296523, -20.839595699999961 ], [ -47.297499199999947, -20.840393 ], [ -47.295657499999948, -20.839898099999971 ], [ -47.295505099999957, -20.8414 ], [ -47.293849, -20.841511699999955 ], [ -47.293404099999975, -20.839734 ], [ -47.294091199999968, -20.83974459999996 ], [ -47.294267099999956, -20.838794399999927 ], [ -47.292480199999943, -20.83802129999998 ], [ -47.291489399999932, -20.838741099999936 ], [ -47.291022299999952, -20.837676899999963 ], [ -47.289528299999972, -20.838188499999944 ], [ -47.290702299999964, -20.836960899999951 ], [ -47.289552499999957, -20.835916 ], [ -47.287866099999974, -20.837918799999954 ], [ -47.287422299999946, -20.836720799999966 ], [ -47.285266, -20.837053699999956 ], [ -47.286144699999966, -20.838698199999953 ], [ -47.283284699999967, -20.838487 ], [ -47.283457099999964, -20.841133699999943 ], [ -47.282100699999944, -20.842741399999966 ], [ -47.281323599999951, -20.842980699999941 ], [ -47.280742799999985, -20.84205309999993 ], [ -47.28148189999996, -20.841738699999951 ], [ -47.280679899999939, -20.841264399999943 ], [ -47.275597299999959, -20.843856099999982 ], [ -47.276123699999971, -20.844731199999956 ], [ -47.278528399999971, -20.845344499999953 ], [ -47.277845899999932, -20.846353 ], [ -47.275738899999965, -20.846437 ], [ -47.273659799999962, -20.84811609999997 ], [ -47.274046399999975, -20.848720599999979 ], [ -47.273295, -20.84980459999997 ], [ -47.267321099999947, -20.854209499999968 ], [ -47.266016299999933, -20.856076899999948 ], [ -47.266673399999945, -20.858155799999963 ], [ -47.265985799999953, -20.858456 ], [ -47.265699899999959, -20.857558799999936 ], [ -47.263610799999981, -20.857026 ], [ -47.26323519999994, -20.853619299999934 ], [ -47.259739, -20.854939 ], [ -47.260079799999971, -20.856628099999966 ], [ -47.258295799999985, -20.858023799999955 ], [ -47.257549299999937, -20.857984699999975 ], [ -47.257273099999964, -20.856312399999979 ], [ -47.25537369999995, -20.856849899999929 ], [ -47.255926599999952, -20.85747269999996 ], [ -47.255422199999941, -20.859801699999934 ], [ -47.25096869999993, -20.860672199999954 ], [ -47.252183699999932, -20.862082899999962 ], [ -47.250998599999946, -20.863909 ], [ -47.246132, -20.864571699999942 ], [ -47.24403609999996, -20.862818199999936 ], [ -47.238071399999967, -20.861463499999957 ], [ -47.236698799999942, -20.860566699999936 ], [ -47.23591, -20.858409 ], [ -47.231205699999975, -20.857988599999942 ], [ -47.23010069999998, -20.858821199999966 ], [ -47.228864199999975, -20.856439199999954 ], [ -47.227359499999977, -20.856471599999963 ], [ -47.240044299999965, -20.88528169999995 ], [ -47.22457309999993, -20.91161349999993 ], [ -47.210458099999983, -20.924139 ], [ -47.190039899999931, -20.928218099999981 ], [ -47.192566, -20.942053 ], [ -47.186619399999984, -20.949493299999972 ], [ -47.18301189999994, -20.951642 ], [ -47.181276199999957, -20.953810099999941 ], [ -47.189181099999985, -20.962404299999946 ], [ -47.193704099999934, -20.968830099999934 ], [ -47.199090899999931, -20.970105 ], [ -47.200426099999959, -20.971752699999968 ], [ -47.203898799999934, -20.97238909999993 ], [ -47.215531399999975, -20.97103409999994 ], [ -47.225672199999963, -20.98336379999995 ], [ -47.227517099999943, -20.983628099999976 ], [ -47.232202099999938, -20.981007199999965 ], [ -47.237159399999939, -20.981450099999961 ], [ -47.243505699999957, -20.983939599999928 ], [ -47.246439099999975, -20.985996099999966 ], [ -47.248874799999953, -20.990210199999979 ] ] ] ] } }
]
}
