{
"type": "FeatureCollection",
"name": "ER_REGIAO_Itajobi_Nova Cardoso",
"crs": { "type": "name", "properties": { "name": "urn:ogc:def:crs:EPSG::4674" } },
"xy_coordinate_resolution": 1e-15,
"features": [
{ "type": "Feature", "properties": { "fid": 356, "NM_REGIAO": "Sudeste", "NM_UF": "São Paulo", "NM_MUN": "Itajobi", "NM_DIST": "Nova Cardoso", "CD_SUBDIST": "35219030700", "ER_REGIAO": "Itajobi_Nova Cardoso", "ER_REGIAO_CIDADE": "Itajobi_Nova Cardoso_São José do Rio Preto" }, "geometry": { "type": "MultiPolygon", "coordinates": [ [ [ [ -49.1731734, -21.3920183 ], [ -49.1770888, -21.3860222 ], [ -49.178866, -21.3804088 ], [ -49.1835722, -21.3762837 ], [ -49.1854714, -21.3663417 ], [ -49.1881483, -21.3621555 ], [ -49.1898944, -21.3610902 ], [ -49.1934028, -21.3609085 ], [ -49.1976237, -21.3594083 ], [ -49.2038362, -21.3621419 ], [ -49.2079551, -21.3612241 ], [ -49.2126099, -21.3615313 ], [ -49.2157652, -21.3580005 ], [ -49.2197005, -21.3568763 ], [ -49.2236091, -21.346894 ], [ -49.227614, -21.342424 ], [ -49.2340747, -21.3235744 ], [ -49.231133, -21.3246614 ], [ -49.2268134, -21.3249076 ], [ -49.2243646, -21.3230717 ], [ -49.2170597, -21.3210819 ], [ -49.2150995, -21.3184003 ], [ -49.2147402, -21.3155966 ], [ -49.2116607, -21.3114852 ], [ -49.2078907, -21.3092242 ], [ -49.2052097, -21.3090859 ], [ -49.2020581, -21.3062254 ], [ -49.1980366, -21.3066289 ], [ -49.1960581, -21.3047025 ], [ -49.1907541, -21.3034236 ], [ -49.1875175, -21.3036205 ], [ -49.1837832, -21.2977992 ], [ -49.1786918, -21.2975494 ], [ -49.1763162, -21.2957177 ], [ -49.1748432, -21.2932056 ], [ -49.1721995, -21.2933498 ], [ -49.1699356, -21.2891126 ], [ -49.1669033, -21.289614 ], [ -49.1646771, -21.2879397 ], [ -49.1605473, -21.2867467 ], [ -49.1560875, -21.2868855 ], [ -49.1529051, -21.2884066 ], [ -49.1507511, -21.2882645 ], [ -49.1447156, -21.290434 ], [ -49.1401498, -21.2923546 ], [ -49.1377826, -21.2947591 ], [ -49.1303797, -21.2974138 ], [ -49.1250808, -21.3104695 ], [ -49.1220743, -21.3138145 ], [ -49.1185676, -21.3154299 ], [ -49.1169913, -21.3173183 ], [ -49.1160739, -21.3188355 ], [ -49.1158475, -21.3234218 ], [ -49.1102236, -21.3307044 ], [ -49.1101434, -21.3323927 ], [ -49.1140546, -21.3356912 ], [ -49.1111568, -21.3411386 ], [ -49.1129307, -21.3477808 ], [ -49.1070222, -21.3531669 ], [ -49.0968136, -21.3568882 ], [ -49.0933873, -21.3647796 ], [ -49.0946314, -21.3672262 ], [ -49.0969227, -21.3684215 ], [ -49.0964661, -21.3718148 ], [ -49.100469, -21.3750425 ], [ -49.10102, -21.3786506 ], [ -49.1059849, -21.3843148 ], [ -49.1084356, -21.3856993 ], [ -49.1154651, -21.3868556 ], [ -49.1177084, -21.3892293 ], [ -49.1213225, -21.3881542 ], [ -49.1238232, -21.3892887 ], [ -49.1264557, -21.3890713 ], [ -49.1304056, -21.3862186 ], [ -49.1355829, -21.3851037 ], [ -49.1391007, -21.3873543 ], [ -49.1376971, -21.3884716 ], [ -49.1365211, -21.3913236 ], [ -49.1362091, -21.3966912 ], [ -49.1372274, -21.4024712 ], [ -49.1408707, -21.4116193 ], [ -49.1447273, -21.4100535 ], [ -49.1484466, -21.4127507 ], [ -49.1504811, -21.413121 ], [ -49.1600801, -21.4133068 ], [ -49.1680437, -21.4120793 ], [ -49.1717834, -21.4122985 ], [ -49.1737784, -21.4093814 ], [ -49.1795539, -21.4064907 ], [ -49.1815717, -21.4031651 ], [ -49.1789616, -21.3978836 ], [ -49.1731734, -21.3920183 ] ] ] ] } }
]
}
