{
"type": "FeatureCollection",
"name": "ER_REGIAO_Monte Azul Paulista_Monte Azul Paulista",
"crs": { "type": "name", "properties": { "name": "urn:ogc:def:crs:EPSG::4674" } },
"xy_coordinate_resolution": 1e-15,
"features": [
{ "type": "Feature", "properties": { "fid": 530, "NM_REGIAO": "Sudeste", "NM_UF": "São Paulo", "NM_MUN": "Monte Azul Paulista", "NM_DIST": "Monte Azul Paulista", "CD_SUBDIST": "35315060500", "ER_REGIAO": "Monte Azul Paulista_Monte Azul Paulista", "ER_REGIAO_CIDADE": "Monte Azul Paulista_Monte Azul Paulista_Barretos" }, "geometry": { "type": "MultiPolygon", "coordinates": [ [ [ [ -48.688464, -20.8913431 ], [ -48.6868604, -20.8877026 ], [ -48.6860829, -20.8824027 ], [ -48.6888774, -20.8762329 ], [ -48.684569, -20.8698461 ], [ -48.6847161, -20.8630281 ], [ -48.682331, -20.8574579 ], [ -48.6814772, -20.849877 ], [ -48.6818577, -20.8481647 ], [ -48.683949, -20.8475821 ], [ -48.6842333, -20.8459271 ], [ -48.6865398, -20.8426439 ], [ -48.6897264, -20.8406213 ], [ -48.6884436, -20.8402145 ], [ -48.6848629, -20.836055 ], [ -48.682136, -20.8345364 ], [ -48.6680602, -20.8296314 ], [ -48.661771, -20.8332565 ], [ -48.6588565, -20.8339416 ], [ -48.6566628, -20.8339116 ], [ -48.6557626, -20.8330914 ], [ -48.6507517, -20.8336575 ], [ -48.6495321, -20.8331503 ], [ -48.6463096, -20.8308814 ], [ -48.6454181, -20.8290801 ], [ -48.6447169, -20.8228677 ], [ -48.6452237, -20.8199976 ], [ -48.6442553, -20.8197109 ], [ -48.6360148, -20.8189851 ], [ -48.6363473, -20.8219663 ], [ -48.6356173, -20.8244688 ], [ -48.6280625, -20.8338639 ], [ -48.6278513, -20.8353679 ], [ -48.6294322, -20.8379758 ], [ -48.6284937, -20.84379 ], [ -48.6324907, -20.8461501 ], [ -48.633087, -20.8487912 ], [ -48.6317757, -20.8511683 ], [ -48.6248504, -20.8554693 ], [ -48.6237288, -20.8600173 ], [ -48.6147764, -20.8619632 ], [ -48.6105175, -20.8641828 ], [ -48.6046374, -20.8743255 ], [ -48.5997988, -20.8790489 ], [ -48.5941443, -20.8793013 ], [ -48.5855874, -20.877368 ], [ -48.5874276, -20.8860716 ], [ -48.587103, -20.8908738 ], [ -48.5891646, -20.8974086 ], [ -48.5930547, -20.902414 ], [ -48.5944269, -20.9061661 ], [ -48.5980373, -20.9113102 ], [ -48.5995398, -20.9154814 ], [ -48.5999033, -20.9197689 ], [ -48.5980276, -20.922956 ], [ -48.5979544, -20.9253122 ], [ -48.6029312, -20.9376553 ], [ -48.6004188, -20.9430809 ], [ -48.6024276, -20.9466875 ], [ -48.6080258, -20.9489596 ], [ -48.6077431, -20.9516064 ], [ -48.6037052, -20.9571766 ], [ -48.6030711, -20.9610293 ], [ -48.6053804, -20.9627063 ], [ -48.6149832, -20.9628189 ], [ -48.6170581, -20.9641409 ], [ -48.6216122, -20.9652069 ], [ -48.626061, -20.964055 ], [ -48.6285822, -20.9648209 ], [ -48.6292806, -20.9682829 ], [ -48.6318022, -20.9725137 ], [ -48.6328058, -20.9775371 ], [ -48.6340855, -20.9797964 ], [ -48.635386, -20.9797823 ], [ -48.6397309, -20.9768901 ], [ -48.6409918, -20.9774167 ], [ -48.6432114, -20.9811098 ], [ -48.6455635, -20.981558 ], [ -48.6486892, -20.9808717 ], [ -48.6539842, -20.9766692 ], [ -48.656692, -20.9764207 ], [ -48.6582816, -20.9783646 ], [ -48.6588641, -20.9831056 ], [ -48.6611407, -20.9864659 ], [ -48.6612818, -20.9907849 ], [ -48.6628994, -20.9938611 ], [ -48.6672312, -20.9978008 ], [ -48.6740802, -21.0008949 ], [ -48.6792464, -21.0061657 ], [ -48.6868328, -21.010546 ], [ -48.6887754, -21.0076009 ], [ -48.6876434, -21.0052991 ], [ -48.6884228, -21.0030666 ], [ -48.6894527, -21.0035206 ], [ -48.6892492, -21.0042679 ], [ -48.6913843, -21.0042753 ], [ -48.6910863, -21.0051281 ], [ -48.6938133, -21.0068975 ], [ -48.695463, -21.0060111 ], [ -48.6991777, -21.0056935 ], [ -48.7009527, -21.0041452 ], [ -48.7011776, -21.0030014 ], [ -48.6998714, -21.0015304 ], [ -48.7007711, -21.0017085 ], [ -48.7014388, -21.0004914 ], [ -48.7002689, -20.9965581 ], [ -48.697713, -20.9942815 ], [ -48.7013941, -20.9923766 ], [ -48.7029038, -20.9933455 ], [ -48.7063204, -20.9929155 ], [ -48.7088371, -20.9910633 ], [ -48.7083365, -20.9898918 ], [ -48.7097453, -20.9894203 ], [ -48.7092344, -20.9886777 ], [ -48.7104167, -20.9877755 ], [ -48.709879, -20.9859456 ], [ -48.7073272, -20.9843209 ], [ -48.7084799, -20.980997 ], [ -48.7099941, -20.9807971 ], [ -48.711463, -20.9792664 ], [ -48.7134388, -20.9791198 ], [ -48.7165538, -20.9769149 ], [ -48.718141, -20.9778359 ], [ -48.7193106, -20.975473 ], [ -48.720872, -20.9744807 ], [ -48.7255456, -20.9782361 ], [ -48.7263855, -20.9807208 ], [ -48.7279591, -20.9811462 ], [ -48.7275241, -20.9804552 ], [ -48.7290824, -20.9774538 ], [ -48.7347772, -20.9741109 ], [ -48.736899, -20.9709006 ], [ -48.7375103, -20.9680452 ], [ -48.7364594, -20.9659252 ], [ -48.7370614, -20.9640148 ], [ -48.7324557, -20.9629514 ], [ -48.7294961, -20.96082 ], [ -48.7286428, -20.9556149 ], [ -48.7242575, -20.9516263 ], [ -48.7247905, -20.9428112 ], [ -48.7262422, -20.9390834 ], [ -48.722296, -20.9399117 ], [ -48.7215315, -20.9386727 ], [ -48.7196943, -20.9381785 ], [ -48.7154591, -20.9385808 ], [ -48.7108304, -20.935872 ], [ -48.7107588, -20.9344103 ], [ -48.7122363, -20.9329884 ], [ -48.7108977, -20.9269373 ], [ -48.7063384, -20.9188826 ], [ -48.703014, -20.9152065 ], [ -48.7005343, -20.9094803 ], [ -48.6982503, -20.90732 ], [ -48.6921239, -20.9048409 ], [ -48.6886244, -20.9017012 ], [ -48.689444, -20.8996244 ], [ -48.688464, -20.8913431 ] ] ] ] } }
]
}
