{
"type": "FeatureCollection",
"name": "ER_REGIAO_Capital Oeste_Rio Pequeno",
"crs": { "type": "name", "properties": { "name": "urn:ogc:def:crs:EPSG::4674" } },
"xy_coordinate_resolution": 1e-15,
"features": [
{ "type": "Feature", "properties": { "fid": 901, "NM_REGIAO": "Sudeste", "NM_UF": "São Paulo", "NM_MUN": "São Paulo", "NM_DIST": "Rio Pequeno", "CD_SUBDIST": "35503086700", "ER_REGIAO": "Capital Oeste_Rio Pequeno", "ER_REGIAO_CIDADE": "Capital Oeste_Rio Pequeno" }, "geometry": { "type": "MultiPolygon", "coordinates": [ [ [ [ -46.738561, -23.573948 ], [ -46.745452, -23.579105 ], [ -46.748842, -23.578149 ], [ -46.750051, -23.58085 ], [ -46.749782, -23.583511 ], [ -46.751318, -23.583579 ], [ -46.752057, -23.584895 ], [ -46.754728, -23.584565 ], [ -46.757266, -23.586485 ], [ -46.766215, -23.585074 ], [ -46.770419, -23.583168 ], [ -46.774438, -23.583136 ], [ -46.777852, -23.580184 ], [ -46.778744, -23.578233 ], [ -46.78148, -23.576859 ], [ -46.7822807, -23.5747375 ], [ -46.779605, -23.570769 ], [ -46.773135, -23.570178 ], [ -46.771925, -23.565054 ], [ -46.770406, -23.564735 ], [ -46.768689, -23.56264 ], [ -46.767513, -23.562609 ], [ -46.76665, -23.563766 ], [ -46.765092, -23.56325 ], [ -46.76223, -23.556763 ], [ -46.760234, -23.555014 ], [ -46.759376, -23.55302 ], [ -46.759989, -23.549853 ], [ -46.75879, -23.548983 ], [ -46.759148, -23.548311 ], [ -46.758517, -23.549009 ], [ -46.755805, -23.555577 ], [ -46.751471, -23.554865 ], [ -46.747604, -23.558646 ], [ -46.744413, -23.558476 ], [ -46.742207, -23.561549 ], [ -46.741552, -23.562628 ], [ -46.743313, -23.563412 ], [ -46.741584, -23.565567 ], [ -46.742466, -23.566197 ], [ -46.740396, -23.568722 ], [ -46.741338, -23.569383 ], [ -46.739008, -23.572228 ], [ -46.735407, -23.574074 ], [ -46.738561, -23.573948 ] ] ] ] } }
]
}
