{
"type": "FeatureCollection",
"name": "ER_REGIAO_Águas de Lindóia",
"crs": { "type": "name", "properties": { "name": "urn:ogc:def:crs:EPSG::4674" } },
"xy_coordinate_resolution": 1e-15,
"features": [
{ "type": "Feature", "properties": { "fid": 6, "NM_REGIAO": "Sudeste", "NM_UF": "São Paulo", "NM_MUN": "Águas de Lindóia", "NM_DIST": "Águas de Lindóia", "CD_SUBDIST": "35005010500", "ER_REGIAO": "Águas de Lindóia", "ER_REGIAO_CIDADE": "Águas de Lindóia_Campinas" }, "geometry": { "type": "MultiPolygon", "coordinates": [ [ [ [ -46.6176092, -22.5117217 ], [ -46.6194881, -22.513784 ], [ -46.6218735, -22.5139259 ], [ -46.6266673, -22.5112775 ], [ -46.6280786, -22.5101396 ], [ -46.6281319, -22.5086661 ], [ -46.6309268, -22.5069277 ], [ -46.6304923, -22.5024084 ], [ -46.6317437, -22.4999767 ], [ -46.6341885, -22.4986872 ], [ -46.6335763, -22.4956016 ], [ -46.6314222, -22.4932235 ], [ -46.6353058, -22.4941845 ], [ -46.6366321, -22.493031 ], [ -46.6398763, -22.4926405 ], [ -46.6429559, -22.4904972 ], [ -46.6456382, -22.4932466 ], [ -46.6478573, -22.4931048 ], [ -46.6537294, -22.4873081 ], [ -46.6589276, -22.4840636 ], [ -46.6606353, -22.4788636 ], [ -46.6582591, -22.4731081 ], [ -46.6563821, -22.4714817 ], [ -46.6532625, -22.4712579 ], [ -46.6483655, -22.4668157 ], [ -46.6449105, -22.4653799 ], [ -46.6425664, -22.4602614 ], [ -46.6392584, -22.4609877 ], [ -46.6374525, -22.4604848 ], [ -46.6281407, -22.4514762 ], [ -46.6251942, -22.4467792 ], [ -46.621402, -22.4450916 ], [ -46.6184777, -22.4426884 ], [ -46.6163028, -22.4386342 ], [ -46.6119228, -22.435443 ], [ -46.6061404, -22.4417297 ], [ -46.6034679, -22.4430741 ], [ -46.6006762, -22.4414747 ], [ -46.5944183, -22.4409634 ], [ -46.5917343, -22.4381139 ], [ -46.5851339, -22.4394475 ], [ -46.5736718, -22.4455858 ], [ -46.5751423, -22.4478774 ], [ -46.5740311, -22.4515367 ], [ -46.5726544, -22.4531416 ], [ -46.5681145, -22.4508765 ], [ -46.5648345, -22.4473925 ], [ -46.554814, -22.44665 ], [ -46.5534785, -22.4479002 ], [ -46.5488098, -22.4551545 ], [ -46.5493333, -22.4571425 ], [ -46.5515534, -22.4599795 ], [ -46.5498648, -22.4695489 ], [ -46.5524516, -22.4695312 ], [ -46.5573524, -22.4722371 ], [ -46.5591839, -22.4738928 ], [ -46.5599514, -22.4773705 ], [ -46.5643589, -22.4775833 ], [ -46.5656919, -22.4829639 ], [ -46.5643477, -22.4844768 ], [ -46.5624892, -22.484572 ], [ -46.5639047, -22.4866575 ], [ -46.5654918, -22.4877222 ], [ -46.5692553, -22.4855643 ], [ -46.5710681, -22.4867209 ], [ -46.5773547, -22.4869862 ], [ -46.5794669, -22.4889114 ], [ -46.5885284, -22.4896713 ], [ -46.5849828, -22.4934501 ], [ -46.5861684, -22.4953113 ], [ -46.5859201, -22.4989823 ], [ -46.5836544, -22.5013519 ], [ -46.5821088, -22.5059482 ], [ -46.5797674, -22.507711 ], [ -46.5800136, -22.5117376 ], [ -46.5832905, -22.5159388 ], [ -46.5869294, -22.5157705 ], [ -46.5878274, -22.5136517 ], [ -46.5903324, -22.5156101 ], [ -46.5989739, -22.5150112 ], [ -46.6002036, -22.513201 ], [ -46.59991, -22.5101578 ], [ -46.6023628, -22.5128579 ], [ -46.6068767, -22.514941 ], [ -46.6094714, -22.5136436 ], [ -46.6121166, -22.5100144 ], [ -46.6176092, -22.5117217 ] ] ] ] } }
]
}
