{
"type": "FeatureCollection",
"name": "ER_REGIAO_Tupã_Universo",
"crs": { "type": "name", "properties": { "name": "urn:ogc:def:crs:EPSG::4674" } },
"xy_coordinate_resolution": 1e-15,
"features": [
{ "type": "Feature", "properties": { "fid": 1006, "NM_REGIAO": "Sudeste", "NM_UF": "São Paulo", "NM_MUN": "Tupã", "NM_DIST": "Universo", "CD_SUBDIST": "35550002000", "ER_REGIAO": "Tupã_Universo", "ER_REGIAO_CIDADE": "Tupã_Universo_Marília" }, "geometry": { "type": "MultiPolygon", "coordinates": [ [ [ [ -50.6167013, -21.8857642 ], [ -50.6158656, -21.8836832 ], [ -50.6114317, -21.88168 ], [ -50.60961, -21.8793165 ], [ -50.6088423, -21.8729446 ], [ -50.6058913, -21.8692742 ], [ -50.6058969, -21.8679746 ], [ -50.6082993, -21.864887 ], [ -50.6091462, -21.8577167 ], [ -50.6078104, -21.8607653 ], [ -50.6060133, -21.8626159 ], [ -50.6026518, -21.8627675 ], [ -50.5980577, -21.8616597 ], [ -50.5955682, -21.8621293 ], [ -50.5926518, -21.8670077 ], [ -50.589126, -21.8641868 ], [ -50.5821405, -21.8701613 ], [ -50.579282, -21.8775363 ], [ -50.5754628, -21.8758312 ], [ -50.5719273, -21.8786929 ], [ -50.5696297, -21.8823768 ], [ -50.5644776, -21.8826713 ], [ -50.5627838, -21.8837775 ], [ -50.5645454, -21.8894536 ], [ -50.5660696, -21.8908082 ], [ -50.5672336, -21.896259 ], [ -50.5650776, -21.9021978 ], [ -50.565536, -21.909862 ], [ -50.564969, -21.911807 ], [ -50.5662202, -21.9124911 ], [ -50.5695741, -21.9112929 ], [ -50.5726217, -21.9126848 ], [ -50.5767243, -21.9116309 ], [ -50.5830272, -21.9133567 ], [ -50.5873105, -21.9126787 ], [ -50.589036, -21.9152556 ], [ -50.5893157, -21.9200357 ], [ -50.5927432, -21.922641 ], [ -50.6047965, -21.9214204 ], [ -50.6151731, -21.9239991 ], [ -50.6182229, -21.9234825 ], [ -50.6224937, -21.9192475 ], [ -50.6216738, -21.9187959 ], [ -50.6218555, -21.9169642 ], [ -50.6237344, -21.9118831 ], [ -50.6277289, -21.9063619 ], [ -50.6279953, -21.9037219 ], [ -50.6190379, -21.9032154 ], [ -50.6115642, -21.8965841 ], [ -50.6112305, -21.8914983 ], [ -50.6164243, -21.8876462 ], [ -50.6167013, -21.8857642 ] ] ] ] } }
]
}
