{
"type": "FeatureCollection",
"name": "ER_REGIAO_Torrinha",
"crs": { "type": "name", "properties": { "name": "urn:ogc:def:crs:EPSG::4674" } },
"xy_coordinate_resolution": 1e-15,
"features": [
{ "type": "Feature", "properties": { "fid": 999, "NM_REGIAO": "Sudeste", "NM_UF": "São Paulo", "NM_MUN": "Torrinha", "NM_DIST": "Torrinha", "CD_SUBDIST": "35547060500", "ER_REGIAO": "Torrinha", "ER_REGIAO_CIDADE": "Torrinha_Bauru" }, "geometry": { "type": "MultiPolygon", "coordinates": [ [ [ [ -48.12527, -22.378799599999979 ], [ -48.121410899999944, -22.378968599999951 ], [ -48.118494, -22.376932299999964 ], [ -48.111430399999961, -22.375113799999951 ], [ -48.108799099999942, -22.382448699999941 ], [ -48.10614309999994, -22.387005299999942 ], [ -48.10381689999997, -22.388260499999944 ], [ -48.094596399999944, -22.389816499999938 ], [ -48.088728499999945, -22.394420599999933 ], [ -48.085127899999975, -22.394532399999946 ], [ -48.081033199999979, -22.398335199999963 ], [ -48.078974099999982, -22.401665199999968 ], [ -48.071263299999941, -22.404143799999929 ], [ -48.063283799999965, -22.412006199999951 ], [ -48.060756699999956, -22.41854109999997 ], [ -48.062668799999983, -22.422504499999945 ], [ -48.062580299999979, -22.424418399999979 ], [ -48.059196099999951, -22.427820899999972 ], [ -48.059284, -22.432340099999976 ], [ -48.056854599999951, -22.438163199999963 ], [ -48.054052399999932, -22.440331899999933 ], [ -48.054965699999968, -22.444074499999942 ], [ -48.05228139999997, -22.445982099999981 ], [ -48.052936599999953, -22.446688 ], [ -48.057532199999969, -22.447126399999945 ], [ -48.059007299999962, -22.448599199999933 ], [ -48.056547499999965, -22.449780099999941 ], [ -48.054559199999971, -22.452645299999972 ], [ -48.048185699999976, -22.453375699999981 ], [ -48.047653199999957, -22.45418369999993 ], [ -48.051146499999959, -22.45695859999995 ], [ -48.05161709999993, -22.459274299999947 ], [ -48.054785299999935, -22.461425499999962 ], [ -48.054744099999937, -22.462818399999946 ], [ -48.051148199999943, -22.470447099999944 ], [ -48.050137, -22.471351799999979 ], [ -48.047252499999956, -22.471675799999957 ], [ -48.046372899999938, -22.473932899999966 ], [ -48.04236659999998, -22.476445699999942 ], [ -48.041496599999959, -22.47847459999997 ], [ -48.04211289999995, -22.481561199999931 ], [ -48.04136189999997, -22.484532799999954 ], [ -48.043018599999982, -22.487578599999949 ], [ -48.043664099999944, -22.492386299999964 ], [ -48.041958199999954, -22.495623099999932 ], [ -48.04344459999993, -22.500663299999928 ], [ -48.041611299999943, -22.502833099999975 ], [ -48.040778799999941, -22.505886199999964 ], [ -48.042438299999958, -22.506606699999963 ], [ -48.043858299999954, -22.510885199999962 ], [ -48.052978799999948, -22.514522299999953 ], [ -48.061928, -22.512706 ], [ -48.065541, -22.515742 ], [ -48.067623, -22.514434 ], [ -48.067598, -22.516767 ], [ -48.06943, -22.518673 ], [ -48.071683, -22.518844 ], [ -48.071489, -22.521848 ], [ -48.073558, -22.523114 ], [ -48.073847, -22.527252 ], [ -48.075004, -22.527639 ], [ -48.077168, -22.525901 ], [ -48.076491, -22.521799 ], [ -48.079011, -22.518349 ], [ -48.079078, -22.515175 ], [ -48.081489, -22.510612 ], [ -48.084464, -22.506771 ], [ -48.085209, -22.507036 ], [ -48.085493, -22.509265 ], [ -48.087008, -22.510254 ], [ -48.092163, -22.506534 ], [ -48.093659, -22.501601 ], [ -48.09365, -22.498674 ], [ -48.096255, -22.500386 ], [ -48.096185, -22.503533 ], [ -48.098702, -22.509307 ], [ -48.103133, -22.509299 ], [ -48.104284, -22.50817 ], [ -48.103233, -22.504202 ], [ -48.104035, -22.501978 ], [ -48.103601, -22.500931 ], [ -48.105291, -22.49855 ], [ -48.109983, -22.503263 ], [ -48.111812, -22.503925 ], [ -48.11354, -22.503348 ], [ -48.114728, -22.501483 ], [ -48.118935, -22.501294 ], [ -48.121146, -22.498745 ], [ -48.119627, -22.495133 ], [ -48.122323, -22.492926 ], [ -48.122879, -22.494276 ], [ -48.123731, -22.494128 ], [ -48.125992, -22.490024 ], [ -48.127703, -22.493633 ], [ -48.129644, -22.494962 ], [ -48.128176, -22.49902 ], [ -48.128909, -22.504019 ], [ -48.127081, -22.506341 ], [ -48.123657, -22.507048 ], [ -48.124995, -22.509376 ], [ -48.124639, -22.511359 ], [ -48.120938, -22.515565 ], [ -48.121582, -22.520594 ], [ -48.123446, -22.52525 ], [ -48.123411, -22.5292 ], [ -48.124379, -22.528807 ], [ -48.125622, -22.524689 ], [ -48.12918, -22.522105 ], [ -48.133571, -22.5238 ], [ -48.133133, -22.525862 ], [ -48.134814, -22.527977 ], [ -48.137782, -22.527972 ], [ -48.139008, -22.52735 ], [ -48.140259, -22.524716 ], [ -48.141571, -22.519121 ], [ -48.139221, -22.515115 ], [ -48.135864, -22.516028 ], [ -48.134914, -22.514374 ], [ -48.131729, -22.514244 ], [ -48.133203, -22.509566 ], [ -48.130777, -22.505792 ], [ -48.132077, -22.503051 ], [ -48.134355, -22.501021 ], [ -48.13694, -22.500877 ], [ -48.137371, -22.499555 ], [ -48.140324, -22.496862 ], [ -48.140952, -22.494405 ], [ -48.139472, -22.491253 ], [ -48.144513, -22.490979 ], [ -48.145411, -22.490489 ], [ -48.144967, -22.488725 ], [ -48.147958, -22.488816 ], [ -48.148727, -22.486441 ], [ -48.147032, -22.483607 ], [ -48.149015, -22.483345 ], [ -48.1496, -22.480974 ], [ -48.153026, -22.484881 ], [ -48.155033, -22.484589 ], [ -48.155001, -22.48694 ], [ -48.159111, -22.490656 ], [ -48.159474, -22.488915 ], [ -48.158148, -22.486488 ], [ -48.16002, -22.484201 ], [ -48.159635, -22.481464 ], [ -48.158407, -22.479665 ], [ -48.160468, -22.47831 ], [ -48.161448, -22.480433 ], [ -48.165682, -22.482798 ], [ -48.168045, -22.480065 ], [ -48.16841, -22.478249 ], [ -48.170022, -22.478433 ], [ -48.172617, -22.476003 ], [ -48.174307, -22.477155 ], [ -48.174601, -22.478387 ], [ -48.173345, -22.479951 ], [ -48.173687, -22.48169 ], [ -48.176218, -22.483526 ], [ -48.17387, -22.485218 ], [ -48.171852, -22.488054 ], [ -48.172246, -22.490716 ], [ -48.170846, -22.492284 ], [ -48.173862, -22.495899 ], [ -48.174312, -22.499336 ], [ -48.176777, -22.498585 ], [ -48.177404, -22.497264 ], [ -48.175151, -22.492709 ], [ -48.175206, -22.489608 ], [ -48.17825, -22.489914 ], [ -48.181324, -22.489105 ], [ -48.183426, -22.482939 ], [ -48.185514, -22.484961 ], [ -48.188971, -22.486226 ], [ -48.192585, -22.490373 ], [ -48.191216, -22.493972 ], [ -48.188263, -22.497483 ], [ -48.192915, -22.499432 ], [ -48.188717, -22.50939 ], [ -48.189198, -22.511373 ], [ -48.187817, -22.513836 ], [ -48.192932, -22.512842 ], [ -48.194218, -22.50874 ], [ -48.194875, -22.508978 ], [ -48.195449, -22.511717 ], [ -48.197824, -22.512665 ], [ -48.197367, -22.510711 ], [ -48.198775, -22.508468 ], [ -48.197506, -22.505022 ], [ -48.198016, -22.503664 ], [ -48.199851, -22.504182 ], [ -48.200699, -22.502617 ], [ -48.202838, -22.504083 ], [ -48.205748, -22.502335 ], [ -48.20751, -22.502483 ], [ -48.207817, -22.503943 ], [ -48.206386, -22.507781 ], [ -48.207267, -22.511739 ], [ -48.209053, -22.510995 ], [ -48.209614, -22.509344 ], [ -48.210258, -22.510598 ], [ -48.213224, -22.51068 ], [ -48.211861, -22.513859 ], [ -48.213724, -22.515611 ], [ -48.213748, -22.51793 ], [ -48.218092, -22.51881 ], [ -48.216064, -22.530874 ], [ -48.217169, -22.536563 ], [ -48.223799, -22.52956 ], [ -48.228166, -22.530523 ], [ -48.230446, -22.529059 ], [ -48.229137, -22.523638 ], [ -48.230531, -22.52288 ], [ -48.231193, -22.521013 ], [ -48.234850799999947, -22.520379399999968 ], [ -48.240367099999958, -22.515886299999977 ], [ -48.245402599999977, -22.51439019999998 ], [ -48.246972299999982, -22.51491029999994 ], [ -48.250973199999976, -22.518489099999954 ], [ -48.260753, -22.52115989999993 ], [ -48.26487149999997, -22.525787299999934 ], [ -48.269965099999979, -22.527095499999973 ], [ -48.271953699999983, -22.528475299999968 ], [ -48.278348299999948, -22.527472599999953 ], [ -48.282450899999958, -22.525363699999957 ], [ -48.289468399999976, -22.525408499999969 ], [ -48.286798399999952, -22.52389409999995 ], [ -48.283461199999977, -22.519787099999974 ], [ -48.284253199999966, -22.514784899999938 ], [ -48.282578499999943, -22.51272709999995 ], [ -48.282151899999974, -22.507059199999958 ], [ -48.279888199999959, -22.504572899999971 ], [ -48.278128599999945, -22.500312 ], [ -48.278478099999973, -22.498487799999964 ], [ -48.276668199999961, -22.495611699999927 ], [ -48.273737299999937, -22.495203799999956 ], [ -48.270635499999969, -22.492787699999951 ], [ -48.264649899999938, -22.492218399999956 ], [ -48.261889399999973, -22.493123899999944 ], [ -48.257421399999942, -22.49198 ], [ -48.256360599999937, -22.491317 ], [ -48.255496899999969, -22.488829799999962 ], [ -48.247169299999939, -22.483510299999978 ], [ -48.245458399999961, -22.480725799999959 ], [ -48.243034299999977, -22.479432 ], [ -48.243512799999962, -22.477578299999948 ], [ -48.244809, -22.476594099999943 ], [ -48.24397579999993, -22.475605299999927 ], [ -48.24471, -22.475018699999964 ], [ -48.244014399999969, -22.473032299999943 ], [ -48.243146799999977, -22.472404899999958 ], [ -48.24402269999996, -22.471027 ], [ -48.243096299999934, -22.469566899999961 ], [ -48.243835, -22.468260599999951 ], [ -48.246730199999945, -22.466980499999977 ], [ -48.247957, -22.46532069999995 ], [ -48.25125909999997, -22.465036599999962 ], [ -48.254549599999962, -22.462964099999965 ], [ -48.256376099999954, -22.460435599999983 ], [ -48.256917699999974, -22.457681599999944 ], [ -48.26098049999996, -22.454911899999956 ], [ -48.265257, -22.44974 ], [ -48.268886099999975, -22.447904 ], [ -48.271186399999976, -22.439573699999983 ], [ -48.273475699999949, -22.436859699999957 ], [ -48.274506, -22.43424239999996 ], [ -48.277097399999946, -22.432261599999947 ], [ -48.278653099999985, -22.427075799999955 ], [ -48.277830499999936, -22.423418599999934 ], [ -48.275625099999957, -22.420862599999964 ], [ -48.269505799999934, -22.416953599999943 ], [ -48.26711679999994, -22.413268899999935 ], [ -48.268221299999936, -22.408419099999946 ], [ -48.26202429999995, -22.399640899999952 ], [ -48.261779399999966, -22.397941499999945 ], [ -48.253904699999964, -22.39001449999995 ], [ -48.249999299999956, -22.387865099999942 ], [ -48.248892599999976, -22.388355899999965 ], [ -48.247509099999945, -22.391269099999931 ], [ -48.240126199999963, -22.393315399999949 ], [ -48.237586599999986, -22.392734 ], [ -48.237274699999944, -22.388218499999937 ], [ -48.240386899999976, -22.384558699999957 ], [ -48.242515499999968, -22.37729719999993 ], [ -48.242770599999972, -22.372764 ], [ -48.240807899999936, -22.368336699999929 ], [ -48.239348199999938, -22.367542599999979 ], [ -48.169269399999962, -22.362783399999955 ], [ -48.168139199999985, -22.363812699999983 ], [ -48.161845899999946, -22.363859299999945 ], [ -48.159687, -22.362185699999941 ], [ -48.155085, -22.361637 ], [ -48.15169979999996, -22.36562779999997 ], [ -48.149837499999933, -22.366545099999939 ], [ -48.149872899999934, -22.367857199999946 ], [ -48.148525599999971, -22.367707899999971 ], [ -48.146166199999982, -22.369103899999971 ], [ -48.147009899999944, -22.371434799999975 ], [ -48.142321099999947, -22.371561 ], [ -48.140542399999958, -22.370786099999975 ], [ -48.140410399999951, -22.371823199999938 ], [ -48.137049799999943, -22.374146399999972 ], [ -48.133610699999963, -22.375676799999951 ], [ -48.131361, -22.375703499999929 ], [ -48.129276299999958, -22.377097399999968 ], [ -48.127413399999966, -22.377099299999941 ], [ -48.12527, -22.378799599999979 ] ] ] ] } }
]
}
