{
"type": "FeatureCollection",
"name": "ER_REGIAO_Santa Adélia_Santa Adélia",
"crs": { "type": "name", "properties": { "name": "urn:ogc:def:crs:EPSG::4674" } },
"xy_coordinate_resolution": 1e-15,
"features": [
{ "type": "Feature", "properties": { "fid": 759, "NM_REGIAO": "Sudeste", "NM_UF": "São Paulo", "NM_MUN": "Santa Adélia", "NM_DIST": "Santa Adélia", "CD_SUBDIST": "35456050500", "ER_REGIAO": "Santa Adélia_Santa Adélia", "ER_REGIAO_CIDADE": "Santa Adélia_Santa Adélia_Araraquara" }, "geometry": { "type": "MultiPolygon", "coordinates": [ [ [ [ -48.863935, -21.251716199999976 ], [ -48.857600799999943, -21.247258199999976 ], [ -48.853616899999963, -21.24224739999994 ], [ -48.848500599999966, -21.238649199999941 ], [ -48.847489699999983, -21.237121799999954 ], [ -48.848096, -21.236098399999946 ], [ -48.856152499999951, -21.231865399999947 ], [ -48.859614099999931, -21.228603599999929 ], [ -48.852329599999962, -21.221293699999933 ], [ -48.849753199999952, -21.219695399999978 ], [ -48.84491689999993, -21.218844899999965 ], [ -48.843534899999952, -21.220337299999983 ], [ -48.835644099999968, -21.220189599999969 ], [ -48.829672399999936, -21.222378299999946 ], [ -48.825417699999946, -21.222232199999951 ], [ -48.81788789999996, -21.215652 ], [ -48.81323279999998, -21.214448799999957 ], [ -48.809519699999953, -21.215712699999983 ], [ -48.804337, -21.216117499999939 ], [ -48.799705099999983, -21.219717599999967 ], [ -48.784036399999934, -21.224285299999963 ], [ -48.778918499999975, -21.223744899999929 ], [ -48.77809869999993, -21.222561699999972 ], [ -48.776326, -21.222024399999952 ], [ -48.773955299999955, -21.222126899999978 ], [ -48.773084, -21.220382899999947 ], [ -48.770074799999975, -21.218319099999974 ], [ -48.759470199999953, -21.218850299999929 ], [ -48.760046099999954, -21.221093799999949 ], [ -48.759260599999948, -21.22634759999994 ], [ -48.760742499999935, -21.240809499999955 ], [ -48.755255699999964, -21.244784899999956 ], [ -48.743891, -21.243836199999976 ], [ -48.741833199999974, -21.244727599999976 ], [ -48.74145459999994, -21.246128499999941 ], [ -48.743837199999973, -21.250662 ], [ -48.743422899999985, -21.25317739999997 ], [ -48.738871399999937, -21.258430399999952 ], [ -48.734187099999986, -21.260980199999949 ], [ -48.736301799999978, -21.266088 ], [ -48.734039699999983, -21.271356099999934 ], [ -48.733950899999968, -21.271879599999977 ], [ -48.735202499999957, -21.271550199999979 ], [ -48.734834299999932, -21.274493399999983 ], [ -48.733371199999965, -21.276193899999953 ], [ -48.733622699999955, -21.278982599999949 ], [ -48.735854199999949, -21.284420299999965 ], [ -48.735270499999956, -21.287998099999982 ], [ -48.732469699999967, -21.295172199999968 ], [ -48.732165099999975, -21.301508399999932 ], [ -48.733393299999932, -21.306293399999959 ], [ -48.740163699999982, -21.298461499999974 ], [ -48.745985099999984, -21.294294799999932 ], [ -48.750419099999931, -21.292604899999958 ], [ -48.761317899999938, -21.290595099999962 ], [ -48.768379, -21.28716739999993 ], [ -48.768935799999952, -21.291367799999932 ], [ -48.767069499999934, -21.296490899999981 ], [ -48.767645699999946, -21.302343199999939 ], [ -48.77230179999998, -21.30812119999996 ], [ -48.77239359999993, -21.309283799999946 ], [ -48.777364099999943, -21.31297619999998 ], [ -48.779080799999974, -21.321596599999964 ], [ -48.78078069999998, -21.323781399999973 ], [ -48.78135919999994, -21.326670699999966 ], [ -48.786098899999956, -21.330580899999973 ], [ -48.797392, -21.332228599999951 ], [ -48.859563399999956, -21.277950899999951 ], [ -48.870165899999961, -21.26778459999997 ], [ -48.869013799999948, -21.267128399999933 ], [ -48.863935, -21.251716199999976 ] ] ] ] } }
]
}
