{
"type": "FeatureCollection",
"name": "ER_REGIAO_Guarujá_Guarujá",
"crs": { "type": "name", "properties": { "name": "urn:ogc:def:crs:EPSG::4674" } },
"xy_coordinate_resolution": 1e-15,
"features": [
{ "type": "Feature", "properties": { "fid": 303, "NM_REGIAO": "Sudeste", "NM_UF": "São Paulo", "NM_MUN": "Guarujá", "NM_DIST": "Guarujá", "CD_SUBDIST": "35187010500", "ER_REGIAO": "Guarujá_Guarujá", "ER_REGIAO_CIDADE": "Guarujá_Guarujá_Baixada Santista" }, "geometry": { "type": "MultiPolygon", "coordinates": [ [ [ [ -46.293976199999975, -24.027913199999944 ], [ -46.295038399999953, -24.028066499999966 ], [ -46.294189599999982, -24.027495699999974 ], [ -46.293976199999975, -24.027913199999944 ] ] ], [ [ [ -46.239560899999958, -23.96989259999998 ], [ -46.244106, -23.967931 ], [ -46.243262399999935, -23.965241699999979 ], [ -46.244011, -23.964241799999968 ], [ -46.242882699999939, -23.962705599999936 ], [ -46.242689, -23.96067039999997 ], [ -46.241488, -23.958841599999971 ], [ -46.240535399999942, -23.958654399999944 ], [ -46.241120699999954, -23.958111 ], [ -46.242638599999964, -23.95909039999998 ], [ -46.242519, -23.957131499999946 ], [ -46.243617, -23.957374699999946 ], [ -46.24485459999994, -23.955444299999954 ], [ -46.244280899999978, -23.954975299999944 ], [ -46.242779299999938, -23.955957299999966 ], [ -46.242839, -23.954343399999971 ], [ -46.241657299999986, -23.953653599999939 ], [ -46.243897899999979, -23.951497399999937 ], [ -46.243547, -23.950807 ], [ -46.242311099999938, -23.950416099999927 ], [ -46.241128, -23.95182 ], [ -46.239634099999932, -23.950331399999982 ], [ -46.238531, -23.952247 ], [ -46.234866799999963, -23.949099599999954 ], [ -46.235116199999936, -23.948353199999929 ], [ -46.237156099999936, -23.947807499999954 ], [ -46.237883499999953, -23.94449069999996 ], [ -46.233875, -23.945686 ], [ -46.229455499999972, -23.942345399999965 ], [ -46.232467799999938, -23.939714899999956 ], [ -46.229869299999962, -23.936732099999972 ], [ -46.232328, -23.934949 ], [ -46.233004, -23.931291 ], [ -46.238587, -23.930208 ], [ -46.239668, -23.928359 ], [ -46.23977, -23.923429 ], [ -46.236347, -23.920364 ], [ -46.233086, -23.914149 ], [ -46.228547, -23.910533 ], [ -46.225602, -23.909797 ], [ -46.21952, -23.910938 ], [ -46.211856, -23.915941 ], [ -46.20668, -23.915209 ], [ -46.19392, -23.906027 ], [ -46.192834, -23.904 ], [ -46.192406, -23.897401 ], [ -46.189707, -23.893763 ], [ -46.183832, -23.890432 ], [ -46.17307, -23.887219 ], [ -46.160954, -23.874476 ], [ -46.153104, -23.861314 ], [ -46.133194, -23.856505899999945 ], [ -46.133132599999954, -23.858008699999971 ], [ -46.130188199999964, -23.856863299999929 ], [ -46.125348699999961, -23.857170199999928 ], [ -46.123825499999953, -23.860771099999965 ], [ -46.127517599999976, -23.863060099999927 ], [ -46.13067239999998, -23.862718599999937 ], [ -46.134126499999979, -23.865331799999979 ], [ -46.136326899999972, -23.868112599999961 ], [ -46.136500599999977, -23.871139 ], [ -46.139178499999957, -23.874604099999942 ], [ -46.139233499999932, -23.876334399999962 ], [ -46.137547299999937, -23.877200399999936 ], [ -46.140347299999974, -23.879347499999938 ], [ -46.14086089999995, -23.881531499999937 ], [ -46.140151499999945, -23.882936199999961 ], [ -46.139031599999953, -23.883203199999969 ], [ -46.139118699999983, -23.884501399999976 ], [ -46.137446899999929, -23.885539 ], [ -46.13823629999996, -23.890258699999947 ], [ -46.140840699999956, -23.892105899999933 ], [ -46.14817759999994, -23.893775699999935 ], [ -46.151453699999934, -23.898681299999964 ], [ -46.152249, -23.90238839999995 ], [ -46.151233299999944, -23.905271599999935 ], [ -46.15058229999994, -23.905854599999941 ], [ -46.147136599999953, -23.904819399999951 ], [ -46.146049599999969, -23.905112499999973 ], [ -46.146184, -23.905786599999942 ], [ -46.148845199999982, -23.906558899999936 ], [ -46.150893199999985, -23.908167 ], [ -46.152471099999957, -23.907848499999943 ], [ -46.155728699999941, -23.909256199999959 ], [ -46.156592599999954, -23.909131 ], [ -46.155977599999972, -23.907839299999978 ], [ -46.156513799999971, -23.907024199999967 ], [ -46.158250399999986, -23.907348399999933 ], [ -46.160651, -23.906510299999979 ], [ -46.167134199999964, -23.911045199999933 ], [ -46.168260799999985, -23.912559499999929 ], [ -46.168590499999937, -23.915089799999976 ], [ -46.169752499999959, -23.915449499999966 ], [ -46.170550399999968, -23.916824099999928 ], [ -46.17215559999994, -23.91706789999995 ], [ -46.171968599999957, -23.918185799999947 ], [ -46.174225799999931, -23.921368 ], [ -46.178871299999969, -23.92418379999998 ], [ -46.180214699999965, -23.928265 ], [ -46.180543299999954, -23.93309359999995 ], [ -46.180115, -23.935921399999927 ], [ -46.178354099999979, -23.93902769999994 ], [ -46.173865599999942, -23.941559799999936 ], [ -46.173267199999941, -23.939973399999928 ], [ -46.170222599999931, -23.937864099999956 ], [ -46.168338499999948, -23.937736399999949 ], [ -46.167251, -23.938335199999983 ], [ -46.165593399999977, -23.944157299999972 ], [ -46.160411099999976, -23.945524299999931 ], [ -46.161398599999984, -23.946173599999952 ], [ -46.164997299999982, -23.94602459999993 ], [ -46.167010499999947, -23.947007199999973 ], [ -46.17032839999996, -23.951992299999972 ], [ -46.172567499999957, -23.957872699999939 ], [ -46.177712799999938, -23.960534699999982 ], [ -46.181903099999943, -23.961175899999944 ], [ -46.184704299999964, -23.965379299999938 ], [ -46.185258199999964, -23.968416699999977 ], [ -46.184591699999942, -23.971256 ], [ -46.187021699999946, -23.972792499999969 ], [ -46.185766799999953, -23.974964099999966 ], [ -46.187247399999933, -23.977430599999934 ], [ -46.18481079999998, -23.978808 ], [ -46.186619499999949, -23.982632099999933 ], [ -46.184205099999986, -23.982955799999957 ], [ -46.186047199999962, -23.984518799999933 ], [ -46.186274199999957, -23.987090099999932 ], [ -46.184360399999946, -23.987470299999927 ], [ -46.183827, -23.988771 ], [ -46.18171469999993, -23.989139 ], [ -46.182242899999949, -23.991086299999949 ], [ -46.185289099999977, -23.992137299999968 ], [ -46.187894099999937, -23.98994179999994 ], [ -46.191284899999971, -23.989939899999968 ], [ -46.195708699999955, -23.993987299999958 ], [ -46.200363, -23.995111099999974 ], [ -46.200856399999964, -23.996593399999938 ], [ -46.199689099999944, -23.997667 ], [ -46.201060699999971, -23.999924499999963 ], [ -46.202490399999931, -24.000607499999944 ], [ -46.206684499999938, -24.000247099999967 ], [ -46.207774599999937, -23.998976 ], [ -46.205176499999936, -23.995534699999951 ], [ -46.202709899999945, -23.994128499999931 ], [ -46.203666099999964, -23.991310299999952 ], [ -46.209207699999979, -23.987169399999971 ], [ -46.211900299999968, -23.986407799999938 ], [ -46.214386199999979, -23.986124199999949 ], [ -46.227919099999951, -23.988172599999928 ], [ -46.239651899999956, -23.990784799999972 ], [ -46.247397599999942, -23.993858099999954 ], [ -46.248055199999953, -23.995844099999943 ], [ -46.250061, -23.996716099999958 ], [ -46.252377399999943, -23.996612499999969 ], [ -46.255654799999945, -23.99960939999994 ], [ -46.259269599999982, -24.00013569999993 ], [ -46.265198, -24.004051899999979 ], [ -46.267403, -24.007390699999974 ], [ -46.267444, -24.009072499999945 ], [ -46.265277099999935, -24.010061699999937 ], [ -46.264445, -24.011999099999969 ], [ -46.263220099999955, -24.012587 ], [ -46.262981199999956, -24.014077 ], [ -46.265905, -24.014381899999933 ], [ -46.268114099999934, -24.012941399999931 ], [ -46.270411, -24.013725399999942 ], [ -46.274907399999961, -24.016284199999973 ], [ -46.276395, -24.019029499999931 ], [ -46.279213299999981, -24.021309299999928 ], [ -46.280252099999984, -24.026852799999972 ], [ -46.277738899999974, -24.030265699999973 ], [ -46.278000299999974, -24.036068 ], [ -46.28195779999993, -24.038380699999948 ], [ -46.281497899999977, -24.040355599999941 ], [ -46.282612399999948, -24.041713099999981 ], [ -46.282615699999951, -24.043030899999962 ], [ -46.28748829999995, -24.045063099999936 ], [ -46.289298899999949, -24.044835899999953 ], [ -46.287579699999981, -24.042451199999959 ], [ -46.289821099999983, -24.039810899999964 ], [ -46.288696899999934, -24.038589799999954 ], [ -46.28692239999998, -24.03851439999994 ], [ -46.289206499999977, -24.036925699999983 ], [ -46.287581, -24.036048499999936 ], [ -46.288020499999959, -24.034424199999933 ], [ -46.284718899999973, -24.032385199999965 ], [ -46.284514, -24.02932549999997 ], [ -46.285806799999932, -24.028548599999965 ], [ -46.284078699999952, -24.02647479999996 ], [ -46.286136699999986, -24.024196099999983 ], [ -46.289311699999985, -24.025662399999931 ], [ -46.289944099999957, -24.02425 ], [ -46.292123, -24.023145899999975 ], [ -46.292538499999978, -24.022029599999939 ], [ -46.290823699999976, -24.019705099999953 ], [ -46.294965499999932, -24.015986799999951 ], [ -46.299497699999961, -24.016100399999971 ], [ -46.30218739999998, -24.01854069999996 ], [ -46.304562, -24.019484599999942 ], [ -46.311180399999955, -24.028664799999945 ], [ -46.312660899999969, -24.027043099999958 ], [ -46.311996299999976, -24.022569699999963 ], [ -46.313374899999985, -24.020618499999955 ], [ -46.315267, -24.02026 ], [ -46.316710299999954, -24.021442099999945 ], [ -46.31771759999998, -24.023999899999978 ], [ -46.319257199999981, -24.024597599999936 ], [ -46.321424099999945, -24.022678 ], [ -46.324250799999959, -24.02245819999996 ], [ -46.32473959999993, -24.021262 ], [ -46.322868199999959, -24.016333 ], [ -46.323594299999968, -24.012031599999943 ], [ -46.322332399999937, -24.009721299999967 ], [ -46.323475, -24.009099699999979 ], [ -46.320145099999934, -24.003001299999937 ], [ -46.320674099999962, -24.00077 ], [ -46.322166699999968, -24.00048529999998 ], [ -46.319647199999963, -23.997366599999964 ], [ -46.317483699999968, -23.997837 ], [ -46.316040199999975, -23.996987499999932 ], [ -46.31535619999994, -23.998374899999931 ], [ -46.313829599999963, -23.998441899999932 ], [ -46.310958699999958, -23.996084599999961 ], [ -46.308252799999934, -23.995684 ], [ -46.306326299999967, -23.993083499999955 ], [ -46.300731, -23.993181 ], [ -46.297463, -23.992172 ], [ -46.291642, -23.987594 ], [ -46.290259499999934, -23.985479099999964 ], [ -46.283814, -23.987777 ], [ -46.283702, -23.985097 ], [ -46.281167, -23.9827 ], [ -46.279887, -23.982608 ], [ -46.277563, -23.984329 ], [ -46.276792, -23.983614 ], [ -46.276831, -23.981716 ], [ -46.27206, -23.982433 ], [ -46.271965, -23.980667 ], [ -46.27107, -23.979682 ], [ -46.270228, -23.979968 ], [ -46.270069, -23.982324 ], [ -46.267936, -23.982408 ], [ -46.266294, -23.979291 ], [ -46.266248599999983, -23.977154 ], [ -46.263899, -23.977072 ], [ -46.26264, -23.978246 ], [ -46.261243, -23.977238 ], [ -46.261286, -23.97626 ], [ -46.258449, -23.975538 ], [ -46.257205, -23.973808 ], [ -46.254738, -23.974038 ], [ -46.254175299999986, -23.975039899999956 ], [ -46.249970299999973, -23.977169599999968 ], [ -46.246080399999983, -23.976492299999961 ], [ -46.242539799999975, -23.97433609999996 ], [ -46.239778499999943, -23.97131719999993 ], [ -46.239560899999958, -23.96989259999998 ] ] ], [ [ [ -46.292658299999971, -24.024552899999946 ], [ -46.292196499999932, -24.025146499999948 ], [ -46.293309499999964, -24.02604139999994 ], [ -46.293725599999959, -24.025364399999944 ], [ -46.292658299999971, -24.024552899999946 ] ] ], [ [ [ -46.324568, -24.00808 ], [ -46.323500199999955, -24.008524799999975 ], [ -46.324157699999944, -24.009388899999976 ], [ -46.325411499999973, -24.00938919999993 ], [ -46.324568, -24.00808 ] ] ], [ [ [ -46.270546499999966, -24.049754499999949 ], [ -46.27108039999996, -24.049881199999959 ], [ -46.270473, -24.049506799999961 ], [ -46.270546499999966, -24.049754499999949 ] ] ], [ [ [ -46.260518399999967, -24.045147099999951 ], [ -46.262631699999986, -24.048390599999948 ], [ -46.261625299999935, -24.05074639999998 ], [ -46.260389399999951, -24.051412199999959 ], [ -46.26075179999998, -24.052441199999976 ], [ -46.262351599999931, -24.052657899999929 ], [ -46.262530099999935, -24.051937 ], [ -46.264784, -24.051712299999963 ], [ -46.265753399999937, -24.05007089999998 ], [ -46.267365299999938, -24.050158199999942 ], [ -46.264496099999974, -24.048344899999961 ], [ -46.26280909999997, -24.045290799999975 ], [ -46.260518399999967, -24.045147099999951 ] ] ], [ [ [ -46.255940199999941, -24.001220599999954 ], [ -46.253482499999961, -24.002073 ], [ -46.25360319999993, -24.002675599999975 ], [ -46.255940199999941, -24.001220599999954 ] ] ], [ [ [ -46.136130499999979, -23.891841 ], [ -46.136801, -23.89335589999996 ], [ -46.137592099999949, -23.892482499999971 ], [ -46.136130499999979, -23.891841 ] ] ], [ [ [ -46.1339, -23.871262799999954 ], [ -46.134186599999964, -23.872096399999975 ], [ -46.135925099999952, -23.872637399999974 ], [ -46.135646599999973, -23.871585 ], [ -46.1339, -23.871262799999954 ] ] ], [ [ [ -46.12920239999994, -23.883836699999961 ], [ -46.12848379999997, -23.885329099999979 ], [ -46.130391199999963, -23.884866299999942 ], [ -46.12920239999994, -23.883836699999961 ] ] ], [ [ [ -46.170416499999931, -23.927352499999927 ], [ -46.169584199999974, -23.92743349999995 ], [ -46.170484899999963, -23.927873599999941 ], [ -46.170416499999931, -23.927352499999927 ] ] ], [ [ [ -46.167980199999931, -23.914751199999955 ], [ -46.167176599999948, -23.914888599999983 ], [ -46.166545299999939, -23.915672299999983 ], [ -46.168110699999943, -23.915898 ], [ -46.167980199999931, -23.914751199999955 ] ] ], [ [ [ -46.167688399999975, -23.966324 ], [ -46.165974499999948, -23.966861 ], [ -46.165834199999949, -23.967409399999951 ], [ -46.168077199999971, -23.96777359999993 ], [ -46.167688399999975, -23.966324 ] ] ], [ [ [ -46.175931899999966, -23.969680199999971 ], [ -46.176957199999947, -23.970591099999979 ], [ -46.177154499999972, -23.97055279999995 ], [ -46.175931899999966, -23.969680199999971 ] ] ], [ [ [ -46.180932399999961, -23.970670699999971 ], [ -46.180101799999932, -23.971092899999974 ], [ -46.18144419999993, -23.972919399999967 ], [ -46.181265599999961, -23.975240299999939 ], [ -46.182240599999943, -23.975690699999973 ], [ -46.184228499999961, -23.975038 ], [ -46.183658799999932, -23.972226199999966 ], [ -46.180932399999961, -23.970670699999971 ] ] ], [ [ [ -46.216530599999942, -24.007586899999978 ], [ -46.217740499999934, -24.010271399999965 ], [ -46.219515299999955, -24.010544 ], [ -46.216530599999942, -24.007586899999978 ] ] ] ] } }
]
}
