{
"type": "FeatureCollection",
"name": "ER_REGIAO_São Caetano do Sul",
"crs": { "type": "name", "properties": { "name": "urn:ogc:def:crs:EPSG::4674" } },
"xy_coordinate_resolution": 1e-15,
"features": [
{ "type": "Feature", "properties": { "fid": 807, "NM_REGIAO": "Sudeste", "NM_UF": "São Paulo", "NM_MUN": "São Caetano do Sul", "NM_DIST": "São Caetano do Sul", "CD_SUBDIST": "35488070500", "ER_REGIAO": "São Caetano do Sul", "ER_REGIAO_CIDADE": "São Caetano do Sul_Grande ABC" }, "geometry": { "type": "MultiPolygon", "coordinates": [ [ [ [ -46.556494, -23.6120133 ], [ -46.554107, -23.610571 ], [ -46.549738, -23.605576 ], [ -46.5478205, -23.6063171 ], [ -46.544646, -23.610843 ], [ -46.546146, -23.611242 ], [ -46.545406, -23.615848 ], [ -46.550315, -23.616028 ], [ -46.551159, -23.616667 ], [ -46.5484, -23.618966 ], [ -46.544989, -23.624569 ], [ -46.547972, -23.626932 ], [ -46.549247, -23.629228 ], [ -46.550744, -23.638143 ], [ -46.55166, -23.639194 ], [ -46.5516786, -23.6425345 ], [ -46.55474, -23.644113 ], [ -46.555796, -23.648832 ], [ -46.557851, -23.645808 ], [ -46.5605988, -23.6437159 ], [ -46.561892, -23.64568 ], [ -46.564812, -23.64681 ], [ -46.5672136, -23.6501626 ], [ -46.5711195, -23.6492389 ], [ -46.572726, -23.650473 ], [ -46.57408, -23.650342 ], [ -46.583251, -23.641279 ], [ -46.584958, -23.635161 ], [ -46.584483, -23.633908 ], [ -46.58226, -23.63231 ], [ -46.581414, -23.629223 ], [ -46.58305, -23.62566 ], [ -46.579386, -23.605413 ], [ -46.579, -23.599524 ], [ -46.574995, -23.60096 ], [ -46.557997, -23.611824 ], [ -46.556494, -23.6120133 ] ] ] ] } }
]
}
