{
"type": "FeatureCollection",
"name": "ER_REGIAO_Alfredo Marcondes",
"crs": { "type": "name", "properties": { "name": "urn:ogc:def:crs:EPSG::4674" } },
"xy_coordinate_resolution": 1e-15,
"features": [
{ "type": "Feature", "properties": { "fid": 12, "NM_REGIAO": "Sudeste", "NM_UF": "São Paulo", "NM_MUN": "Alfredo Marcondes", "NM_DIST": "Alfredo Marcondes", "CD_SUBDIST": "35008080500", "ER_REGIAO": "Alfredo Marcondes", "ER_REGIAO_CIDADE": "Alfredo Marcondes_Presidente Prudente" }, "geometry": { "type": "MultiPolygon", "coordinates": [ [ [ [ -51.4221241, -22.0004971 ], [ -51.4300416, -21.9962186 ], [ -51.4315833, -21.9965208 ], [ -51.4340841, -21.9933676 ], [ -51.4353132, -21.9929071 ], [ -51.435793, -21.9899113 ], [ -51.4424695, -21.9897185 ], [ -51.4444134, -21.9855937 ], [ -51.4437926, -21.9833318 ], [ -51.447521, -21.9798775 ], [ -51.448819, -21.980268 ], [ -51.45369, -21.9770338 ], [ -51.4539717, -21.9762788 ], [ -51.452864, -21.9744843 ], [ -51.4545746, -21.9711469 ], [ -51.4561951, -21.9698921 ], [ -51.4594813, -21.9701004 ], [ -51.4628457, -21.9674749 ], [ -51.4647885, -21.9628275 ], [ -51.4678119, -21.9601969 ], [ -51.4687191, -21.951648 ], [ -51.4669271, -21.9444278 ], [ -51.469287, -21.9392036 ], [ -51.4666057, -21.9348648 ], [ -51.4639156, -21.9368729 ], [ -51.4536198, -21.9372427 ], [ -51.4478272, -21.9394325 ], [ -51.4450004, -21.9382335 ], [ -51.4436598, -21.936433 ], [ -51.4405143, -21.9386014 ], [ -51.4315488, -21.9390654 ], [ -51.4307587, -21.9380478 ], [ -51.4320522, -21.9348093 ], [ -51.4290567, -21.9361694 ], [ -51.4274829, -21.9352839 ], [ -51.427551, -21.9325207 ], [ -51.4259075, -21.9297083 ], [ -51.4270994, -21.9255495 ], [ -51.4214959, -21.9207971 ], [ -51.4234765, -21.903531 ], [ -51.4202456, -21.9001992 ], [ -51.421812, -21.8920033 ], [ -51.4220943, -21.8804474 ], [ -51.4239007, -21.8771845 ], [ -51.4172152, -21.877375 ], [ -51.4160677, -21.8784877 ], [ -51.4139935, -21.8784588 ], [ -51.411511, -21.8801363 ], [ -51.4076833, -21.8810281 ], [ -51.4024145, -21.8818021 ], [ -51.3991945, -21.8810625 ], [ -51.3982112, -21.8822099 ], [ -51.3964999, -21.8820747 ], [ -51.393913, -21.8838884 ], [ -51.3937992, -21.8849939 ], [ -51.3919332, -21.8867369 ], [ -51.3887049, -21.8856369 ], [ -51.38651, -21.8870623 ], [ -51.3826368, -21.8843872 ], [ -51.3828112, -21.8822325 ], [ -51.3812655, -21.8818714 ], [ -51.3811913, -21.8801504 ], [ -51.3799996, -21.8782709 ], [ -51.3775408, -21.8760944 ], [ -51.374388, -21.8760618 ], [ -51.373214, -21.8753306 ], [ -51.3724837, -21.8768802 ], [ -51.3686536, -21.8770321 ], [ -51.3689811, -21.8789072 ], [ -51.3637514, -21.8785439 ], [ -51.3610717, -21.8808094 ], [ -51.3578071, -21.8785697 ], [ -51.3558595, -21.8793317 ], [ -51.351729, -21.8790795 ], [ -51.3505215, -21.8782307 ], [ -51.3503102, -21.8765717 ], [ -51.3476957, -21.8764964 ], [ -51.3423515, -21.8729327 ], [ -51.3394543, -21.8729998 ], [ -51.3354761, -21.8747271 ], [ -51.3284441, -21.8717854 ], [ -51.3256429, -21.8724977 ], [ -51.3251823, -21.8732375 ], [ -51.3258545, -21.8758897 ], [ -51.3282994, -21.8801488 ], [ -51.329059, -21.8875906 ], [ -51.3321169, -21.8945769 ], [ -51.3321031, -21.9028011 ], [ -51.3305139, -21.9103771 ], [ -51.3300955, -21.9182798 ], [ -51.3324039, -21.9212004 ], [ -51.3332606, -21.9241109 ], [ -51.3358952, -21.9239785 ], [ -51.3411305, -21.9215193 ], [ -51.3421294, -21.9235072 ], [ -51.3413922, -21.927807 ], [ -51.3422613, -21.9319892 ], [ -51.345432, -21.9366697 ], [ -51.3485944, -21.9389947 ], [ -51.3554197, -21.9421358 ], [ -51.3590121, -21.9468246 ], [ -51.3648691, -21.9497467 ], [ -51.3681003, -21.9502 ], [ -51.3661698, -21.955607 ], [ -51.3660808, -21.9584383 ], [ -51.3679454, -21.9634431 ], [ -51.3663634, -21.9676329 ], [ -51.3709198, -21.9681869 ], [ -51.3744808, -21.974327 ], [ -51.3761236, -21.9753044 ], [ -51.3785624, -21.9754389 ], [ -51.3795859, -21.9773431 ], [ -51.3836531, -21.9810447 ], [ -51.3887738, -21.9830176 ], [ -51.3923176, -21.9869246 ], [ -51.3958403, -21.9855203 ], [ -51.3950236, -21.990468 ], [ -51.391169, -21.9961354 ], [ -51.3927848, -22.0016757 ], [ -51.3966659, -22.0038445 ], [ -51.4030853, -22.000742 ], [ -51.4082487, -22.0038175 ], [ -51.4155968, -22.0009486 ], [ -51.4221241, -22.0004971 ] ] ] ] } }
]
}
