{
"type": "FeatureCollection",
"name": "ER_REGIAO_Itapetininga_Varginha",
"crs": { "type": "name", "properties": { "name": "urn:ogc:def:crs:EPSG::4674" } },
"xy_coordinate_resolution": 1e-15,
"features": [
{ "type": "Feature", "properties": { "fid": 368, "NM_REGIAO": "Sudeste", "NM_UF": "São Paulo", "NM_MUN": "Itapetininga", "NM_DIST": "Varginha", "CD_SUBDIST": "35223073500", "ER_REGIAO": "Itapetininga_Varginha", "ER_REGIAO_CIDADE": "Itapetininga_Varginha_Sorocaba" }, "geometry": { "type": "MultiPolygon", "coordinates": [ [ [ [ -48.2773583, -23.8469598 ], [ -48.2766061, -23.840751 ], [ -48.2802846, -23.8387535 ], [ -48.2827223, -23.834968 ], [ -48.2881518, -23.8347654 ], [ -48.2884825, -23.834235 ], [ -48.2869289, -23.8331302 ], [ -48.2894781, -23.8313841 ], [ -48.2904356, -23.832978 ], [ -48.2927282, -23.8341676 ], [ -48.294043, -23.833777 ], [ -48.2956244, -23.8309809 ], [ -48.2946133, -23.8260844 ], [ -48.2961228, -23.8251268 ], [ -48.3038121, -23.8313798 ], [ -48.3047907, -23.8305672 ], [ -48.3070926, -23.8315896 ], [ -48.3091409, -23.8347039 ], [ -48.314516, -23.834708 ], [ -48.3148395, -23.8327915 ], [ -48.3166499, -23.8320058 ], [ -48.315238, -23.8304178 ], [ -48.316564, -23.8295216 ], [ -48.3184951, -23.8294333 ], [ -48.3219642, -23.8320056 ], [ -48.322069, -23.8337436 ], [ -48.3180088, -23.8362897 ], [ -48.3177584, -23.8403111 ], [ -48.3154609, -23.8440098 ], [ -48.318589, -23.8510835 ], [ -48.3212291, -23.8488066 ], [ -48.3226363, -23.8489564 ], [ -48.3232444, -23.8509585 ], [ -48.3216878, -23.8539564 ], [ -48.3236362, -23.8552114 ], [ -48.3248753, -23.8549365 ], [ -48.3297856, -23.8504147 ], [ -48.33394, -23.8508298 ], [ -48.3395807, -23.854807 ], [ -48.3432078, -23.853166 ], [ -48.3427519, -23.8504127 ], [ -48.3398642, -23.846927 ], [ -48.3311062, -23.8411329 ], [ -48.34435, -23.8310303 ], [ -48.3504491, -23.8307348 ], [ -48.351611, -23.8291088 ], [ -48.3521867, -23.825873 ], [ -48.353679, -23.8244174 ], [ -48.3594303, -23.8233924 ], [ -48.3623494, -23.8240504 ], [ -48.3642947, -23.8266699 ], [ -48.3649059, -23.8289528 ], [ -48.3632835, -23.8302382 ], [ -48.3590208, -23.8308406 ], [ -48.3586188, -23.8320237 ], [ -48.3612284, -23.8360633 ], [ -48.3634159, -23.8362924 ], [ -48.3659125, -23.8352161 ], [ -48.3700595, -23.8205649 ], [ -48.3744934, -23.8134717 ], [ -48.3718772, -23.8106263 ], [ -48.3652651, -23.8102967 ], [ -48.3563717, -23.8075843 ], [ -48.3532343, -23.8079352 ], [ -48.3523367, -23.8068036 ], [ -48.3582098, -23.8035143 ], [ -48.360738, -23.8044137 ], [ -48.3625734, -23.8038722 ], [ -48.3661102, -23.8043861 ], [ -48.3688218, -23.7970953 ], [ -48.3762539, -23.7932472 ], [ -48.3831656, -23.7910969 ], [ -48.3826185, -23.7894832 ], [ -48.3840597, -23.787849 ], [ -48.3845653, -23.7856633 ], [ -48.3752423, -23.7809901 ], [ -48.3795994, -23.7776105 ], [ -48.3810952, -23.7772804 ], [ -48.3879944, -23.7789776 ], [ -48.3936094, -23.7812246 ], [ -48.3983559, -23.7791455 ], [ -48.4002318, -23.7774187 ], [ -48.3992692, -23.7762158 ], [ -48.3939741, -23.7757804 ], [ -48.3911416, -23.7715093 ], [ -48.3913941, -23.7704106 ], [ -48.3939822, -23.7697698 ], [ -48.3968279, -23.7657383 ], [ -48.4004612, -23.7643027 ], [ -48.3985645, -23.7622201 ], [ -48.3968154, -23.7621208 ], [ -48.3939721, -23.7653209 ], [ -48.3920533, -23.7659247 ], [ -48.3847871, -23.7637583 ], [ -48.3857321, -23.7596626 ], [ -48.3832184, -23.7587841 ], [ -48.3780946, -23.7635031 ], [ -48.3723287, -23.7653242 ], [ -48.3759609, -23.7602777 ], [ -48.3810942, -23.7567722 ], [ -48.3852435, -23.7581501 ], [ -48.3929521, -23.7568442 ], [ -48.3997132, -23.7600008 ], [ -48.4011565, -23.7575024 ], [ -48.4003617, -23.7548854 ], [ -48.3981298, -23.7537554 ], [ -48.3919413, -23.7541644 ], [ -48.3906791, -23.7533349 ], [ -48.391123, -23.751596 ], [ -48.400823, -23.74855 ], [ -48.4061577, -23.7497316 ], [ -48.408399, -23.7492004 ], [ -48.4073927, -23.7453761 ], [ -48.4031074, -23.7450668 ], [ -48.4065092, -23.7375387 ], [ -48.4062054, -23.7358304 ], [ -48.3966399, -23.7403451 ], [ -48.3949858, -23.7443262 ], [ -48.3893405, -23.7413125 ], [ -48.3941466, -23.7381968 ], [ -48.3963239, -23.7346459 ], [ -48.3973323, -23.7291214 ], [ -48.3949138, -23.7252344 ], [ -48.3966053, -23.7234613 ], [ -48.3965405, -23.7215169 ], [ -48.401181, -23.7194955 ], [ -48.4076107, -23.7193934 ], [ -48.4072712, -23.7155149 ], [ -48.4078133, -23.7146353 ], [ -48.4067491, -23.7142073 ], [ -48.4073341, -23.7125076 ], [ -48.4064089, -23.7121125 ], [ -48.4037444, -23.7136949 ], [ -48.4026959, -23.7127868 ], [ -48.4001623, -23.7152559 ], [ -48.3961257, -23.7171343 ], [ -48.3951916, -23.7158254 ], [ -48.3937404, -23.7166657 ], [ -48.3929158, -23.7158467 ], [ -48.3906266, -23.7161348 ], [ -48.3884299, -23.7186347 ], [ -48.380612, -23.720321 ], [ -48.3760825, -23.7251814 ], [ -48.3739921, -23.7248582 ], [ -48.3715634, -23.7223646 ], [ -48.3708086, -23.7246906 ], [ -48.3693266, -23.725463 ], [ -48.3653211, -23.7247147 ], [ -48.3621809, -23.7255429 ], [ -48.3604771, -23.7242238 ], [ -48.3568804, -23.7241228 ], [ -48.3522712, -23.7273074 ], [ -48.3503535, -23.7303 ], [ -48.345547, -23.7324316 ], [ -48.3421173, -23.7323677 ], [ -48.3410964, -23.7330036 ], [ -48.3386376, -23.7319627 ], [ -48.335134, -23.7321327 ], [ -48.3275011, -23.7353951 ], [ -48.3261458, -23.7349387 ], [ -48.3258348, -23.7329908 ], [ -48.3237368, -23.7314212 ], [ -48.321735, -23.7318357 ], [ -48.3186987, -23.7306492 ], [ -48.3102064, -23.7311237 ], [ -48.308787, -23.733289 ], [ -48.3035985, -23.7344367 ], [ -48.3011978, -23.7394257 ], [ -48.2986144, -23.7395107 ], [ -48.2957687, -23.7420958 ], [ -48.2927995, -23.7415061 ], [ -48.2874666, -23.7369447 ], [ -48.2852064, -23.7366212 ], [ -48.2843602, -23.7288837 ], [ -48.2863154, -23.7262804 ], [ -48.2864842, -23.7203989 ], [ -48.2827759, -23.7166135 ], [ -48.279059, -23.7142414 ], [ -48.2747992, -23.7084244 ], [ -48.2739846, -23.7034479 ], [ -48.2748059, -23.7008498 ], [ -48.2714788, -23.6971395 ], [ -48.2710364, -23.6941546 ], [ -48.2691322, -23.6914758 ], [ -48.2639863, -23.6889968 ], [ -48.2619675, -23.6871703 ], [ -48.2594568, -23.6865368 ], [ -48.2602608, -23.6892587 ], [ -48.2597616, -23.6902598 ], [ -48.2572279, -23.6918732 ], [ -48.2514719, -23.6924063 ], [ -48.2479814, -23.6954229 ], [ -48.2472631, -23.6971654 ], [ -48.249431, -23.7008674 ], [ -48.248995, -23.7023458 ], [ -48.2464027, -23.7020465 ], [ -48.2440674, -23.7031324 ], [ -48.2363627, -23.7003508 ], [ -48.2299494, -23.6960089 ], [ -48.2280212, -23.6918368 ], [ -48.2267222, -23.6908063 ], [ -48.2258592, -23.6840561 ], [ -48.2268172, -23.6769941 ], [ -48.2248303, -23.6763733 ], [ -48.2217344, -23.6787165 ], [ -48.2163289, -23.6747445 ], [ -48.214577, -23.6706934 ], [ -48.2154479, -23.6665454 ], [ -48.2122131, -23.6597064 ], [ -48.2097694, -23.6611046 ], [ -48.2072299, -23.6660668 ], [ -48.203938, -23.6694686 ], [ -48.1996794, -23.6706334 ], [ -48.1981282, -23.6743797 ], [ -48.1971217, -23.6745518 ], [ -48.1940152, -23.6724321 ], [ -48.1915629, -23.6754276 ], [ -48.1871789, -23.6755877 ], [ -48.1866307, -23.676421 ], [ -48.1869801, -23.6793601 ], [ -48.185084, -23.6812254 ], [ -48.1800892, -23.6809702 ], [ -48.173001, -23.6785453 ], [ -48.1695811, -23.6810246 ], [ -48.1621971, -23.6793844 ], [ -48.1600033, -23.6797321 ], [ -48.1609594, -23.6846283 ], [ -48.1596184, -23.6914167 ], [ -48.1603979, -23.6945518 ], [ -48.1593599, -23.6985049 ], [ -48.1596852, -23.7010885 ], [ -48.1511427, -23.7082357 ], [ -48.1477545, -23.715787 ], [ -48.1489096, -23.7196021 ], [ -48.1516283, -23.7200787 ], [ -48.1585832, -23.7305039 ], [ -48.1599078, -23.7371584 ], [ -48.1659146, -23.7357892 ], [ -48.1752588, -23.7367753 ], [ -48.1739203, -23.7372262 ], [ -48.1707411, -23.7406284 ], [ -48.17132, -23.7477796 ], [ -48.1705261, -23.7510257 ], [ -48.1742261, -23.7551838 ], [ -48.1751214, -23.7632116 ], [ -48.1792314, -23.7695435 ], [ -48.1799962, -23.7724937 ], [ -48.1796851, -23.7749302 ], [ -48.1819605, -23.7797843 ], [ -48.1779649, -23.7813014 ], [ -48.175211, -23.7839278 ], [ -48.1739716, -23.7841145 ], [ -48.1699786, -23.7822397 ], [ -48.1685281, -23.7829901 ], [ -48.1718661, -23.7917682 ], [ -48.1717684, -23.7953122 ], [ -48.1789239, -23.8030194 ], [ -48.1859294, -23.8071082 ], [ -48.1888469, -23.8072717 ], [ -48.1900037, -23.8089275 ], [ -48.18851, -23.8107474 ], [ -48.1889348, -23.8122767 ], [ -48.1912018, -23.8128459 ], [ -48.1951842, -23.8124365 ], [ -48.1944271, -23.8143912 ], [ -48.1949677, -23.8154399 ], [ -48.2000351, -23.814775 ], [ -48.2004329, -23.8171761 ], [ -48.2057615, -23.8179263 ], [ -48.2071193, -23.8198851 ], [ -48.2080391, -23.8178415 ], [ -48.2089387, -23.8175125 ], [ -48.2194436, -23.8182849 ], [ -48.2224713, -23.8195577 ], [ -48.2229068, -23.8211207 ], [ -48.2217381, -23.8263111 ], [ -48.225091, -23.8294443 ], [ -48.2273027, -23.8346754 ], [ -48.2299282, -23.838377 ], [ -48.2304829, -23.8419474 ], [ -48.2293667, -23.8448058 ], [ -48.2212266, -23.8503208 ], [ -48.2240959, -23.8511037 ], [ -48.2280537, -23.8508088 ], [ -48.2291777, -23.849502 ], [ -48.2301965, -23.8496795 ], [ -48.2305452, -23.8486199 ], [ -48.2315285, -23.8499937 ], [ -48.2329472, -23.8500601 ], [ -48.2315374, -23.8534438 ], [ -48.2327788, -23.8530565 ], [ -48.2336391, -23.8516696 ], [ -48.2372028, -23.8523297 ], [ -48.2377238, -23.8529655 ], [ -48.2371512, -23.8558379 ], [ -48.2398151, -23.8612793 ], [ -48.2480838, -23.8596256 ], [ -48.251794, -23.8605105 ], [ -48.2530308, -23.8601138 ], [ -48.2541864, -23.8556477 ], [ -48.2604081, -23.8520357 ], [ -48.2623114, -23.8532977 ], [ -48.2637105, -23.8511603 ], [ -48.2656903, -23.852381 ], [ -48.2648223, -23.8552184 ], [ -48.2652329, -23.8563764 ], [ -48.2689391, -23.856818 ], [ -48.2715943, -23.8541341 ], [ -48.2709742, -23.8518219 ], [ -48.2773583, -23.8469598 ] ] ] ] } }
]
}
