{
"type": "FeatureCollection",
"name": "ER_REGIAO_Cubatão",
"crs": { "type": "name", "properties": { "name": "urn:ogc:def:crs:EPSG::4674" } },
"xy_coordinate_resolution": 1e-15,
"features": [
{ "type": "Feature", "properties": { "fid": 218, "NM_REGIAO": "Sudeste", "NM_UF": "São Paulo", "NM_MUN": "Cubatão", "NM_DIST": "Cubatão", "CD_SUBDIST": "35135040500", "ER_REGIAO": "Cubatão", "ER_REGIAO_CIDADE": "Cubatão_Baixada Santista" }, "geometry": { "type": "MultiPolygon", "coordinates": [ [ [ [ -46.437298, -23.829244 ], [ -46.438247, -23.827182 ], [ -46.436647, -23.825229 ], [ -46.433934, -23.824039 ], [ -46.433836, -23.825435 ], [ -46.431725, -23.826001 ], [ -46.426594, -23.825273 ], [ -46.41919, -23.81917 ], [ -46.415141, -23.817019 ], [ -46.414421, -23.817966 ], [ -46.408771, -23.815067 ], [ -46.407654, -23.812951 ], [ -46.404083, -23.811883 ], [ -46.396052, -23.811778 ], [ -46.394332, -23.81436 ], [ -46.392737, -23.812077 ], [ -46.389392, -23.809906 ], [ -46.383309, -23.809593 ], [ -46.38231, -23.807519 ], [ -46.381662, -23.807672 ], [ -46.380676, -23.806115 ], [ -46.377598, -23.804134 ], [ -46.373327, -23.79546 ], [ -46.374544, -23.794617 ], [ -46.377118, -23.795029 ], [ -46.37707, -23.793588 ], [ -46.374948, -23.792525 ], [ -46.372349, -23.789695 ], [ -46.367435, -23.792489 ], [ -46.362395, -23.791199 ], [ -46.36107, -23.792473 ], [ -46.35866, -23.792152 ], [ -46.356404, -23.790604 ], [ -46.354444, -23.791472 ], [ -46.35357, -23.790513 ], [ -46.353523, -23.788426 ], [ -46.349108, -23.787157 ], [ -46.348409, -23.787833 ], [ -46.345387, -23.787551 ], [ -46.342347, -23.783819 ], [ -46.33861, -23.781668 ], [ -46.335559, -23.781247 ], [ -46.331781, -23.781258 ], [ -46.328692, -23.783443 ], [ -46.323531, -23.785339 ], [ -46.320257, -23.785262 ], [ -46.320292, -23.803097 ], [ -46.327577, -23.805281 ], [ -46.329257, -23.806964 ], [ -46.332343, -23.812739 ], [ -46.343546, -23.824784 ], [ -46.344206, -23.82982 ], [ -46.348322, -23.834608 ], [ -46.35056, -23.841186 ], [ -46.358838, -23.845992 ], [ -46.360879, -23.848608 ], [ -46.364594, -23.850692 ], [ -46.367496, -23.857701 ], [ -46.369499, -23.85982 ], [ -46.368937, -23.861775 ], [ -46.369867, -23.864627 ], [ -46.375034, -23.868516 ], [ -46.376528, -23.877702 ], [ -46.37492, -23.882616 ], [ -46.374886, -23.885156 ], [ -46.377206, -23.891958 ], [ -46.3770167, -23.9004094 ], [ -46.3751827, -23.9042794 ], [ -46.3691077, -23.9104444 ], [ -46.3688007, -23.9127484 ], [ -46.3701087, -23.9138674 ], [ -46.3755567, -23.9154464 ], [ -46.3896975, -23.9183972 ], [ -46.399468, -23.918448 ], [ -46.402848, -23.920511 ], [ -46.403006, -23.92183 ], [ -46.401871, -23.923108 ], [ -46.392287, -23.927161 ], [ -46.386333, -23.932998 ], [ -46.38974, -23.934549 ], [ -46.398035, -23.936218 ], [ -46.406681, -23.934151 ], [ -46.4224037, -23.934754 ], [ -46.4290385, -23.9374585 ], [ -46.4394073, -23.9378222 ], [ -46.4452176, -23.9414606 ], [ -46.4481374, -23.9411239 ], [ -46.450793, -23.9393327 ], [ -46.4541489, -23.932917 ], [ -46.4532385, -23.9272373 ], [ -46.4503287, -23.9192834 ], [ -46.450774, -23.9126735 ], [ -46.4494793, -23.9117549 ], [ -46.4471221, -23.9131802 ], [ -46.4474946, -23.9091959 ], [ -46.4506453, -23.9078569 ], [ -46.4532969, -23.9083435 ], [ -46.4557997, -23.907032 ], [ -46.4560864, -23.9083548 ], [ -46.457006, -23.9084893 ], [ -46.4632019, -23.9152833 ], [ -46.4687732, -23.9167993 ], [ -46.4717109, -23.9185355 ], [ -46.4774664, -23.918153 ], [ -46.481041, -23.9163888 ], [ -46.4928356, -23.9064363 ], [ -46.4931312, -23.9021248 ], [ -46.4923476, -23.9003444 ], [ -46.496213, -23.899565 ], [ -46.493126, -23.89596 ], [ -46.492618, -23.890392 ], [ -46.4878765, -23.8847019 ], [ -46.485251, -23.883454 ], [ -46.483542, -23.884079 ], [ -46.484444, -23.885675 ], [ -46.482613, -23.885704 ], [ -46.478068, -23.879186 ], [ -46.475255, -23.878811 ], [ -46.47283, -23.874578 ], [ -46.469376, -23.872928 ], [ -46.467717, -23.870689 ], [ -46.466418, -23.865839 ], [ -46.468122, -23.864718 ], [ -46.465828, -23.861013 ], [ -46.459898, -23.866088 ], [ -46.458621, -23.866136 ], [ -46.458461, -23.865292 ], [ -46.459733, -23.864632 ], [ -46.4597, -23.863177 ], [ -46.454552, -23.853909 ], [ -46.451351, -23.851443 ], [ -46.448501, -23.851637 ], [ -46.44286, -23.84963 ], [ -46.439166, -23.84348 ], [ -46.437898, -23.842583 ], [ -46.439298, -23.839591 ], [ -46.442601, -23.841704 ], [ -46.443859, -23.841105 ], [ -46.442057, -23.839129 ], [ -46.441163, -23.834867 ], [ -46.439392, -23.833216 ], [ -46.440993, -23.833317 ], [ -46.438817, -23.831427 ], [ -46.441525, -23.829842 ], [ -46.443938, -23.830702 ], [ -46.444606, -23.829235 ], [ -46.441141, -23.828715 ], [ -46.440081, -23.829592 ], [ -46.439265, -23.828348 ], [ -46.438388, -23.829616 ], [ -46.437298, -23.829244 ] ] ] ] } }
]
}
