{
"type": "FeatureCollection",
"name": "ER_REGIAO_Capital Sul_Campo Belo",
"crs": { "type": "name", "properties": { "name": "urn:ogc:def:crs:EPSG::4674" } },
"xy_coordinate_resolution": 1e-15,
"features": [
{ "type": "Feature", "properties": { "fid": 849, "NM_REGIAO": "Sudeste", "NM_UF": "São Paulo", "NM_MUN": "São Paulo", "NM_DIST": "Campo Belo", "CD_SUBDIST": "35503081500", "ER_REGIAO": "Capital Sul_Campo Belo", "ER_REGIAO_CIDADE": "Capital Sul_Campo Belo" }, "geometry": { "type": "MultiPolygon", "coordinates": [ [ [ [ -46.672187, -23.644586 ], [ -46.676284, -23.640518 ], [ -46.678765, -23.634843 ], [ -46.687304, -23.626346 ], [ -46.678363, -23.613427 ], [ -46.67663, -23.608563 ], [ -46.674405, -23.611097 ], [ -46.667322, -23.61546 ], [ -46.663517, -23.616492 ], [ -46.655102, -23.620758 ], [ -46.65059, -23.629443 ], [ -46.647561, -23.630436 ], [ -46.649598, -23.631855 ], [ -46.649055, -23.635546 ], [ -46.650254, -23.635837 ], [ -46.65175, -23.639576 ], [ -46.656516, -23.64086 ], [ -46.658714, -23.642863 ], [ -46.660308, -23.639498 ], [ -46.662465, -23.6382 ], [ -46.666231, -23.64201 ], [ -46.667759, -23.6424 ], [ -46.667589, -23.643025 ], [ -46.672187, -23.644586 ] ] ] ] } }
]
}
