{
"type": "FeatureCollection",
"name": "ER_REGIAO_Monte Aprazível_Junqueira",
"crs": { "type": "name", "properties": { "name": "urn:ogc:def:crs:EPSG::4674" } },
"xy_coordinate_resolution": 1e-15,
"features": [
{ "type": "Feature", "properties": { "fid": 529, "NM_REGIAO": "Sudeste", "NM_UF": "São Paulo", "NM_MUN": "Monte Aprazível", "NM_DIST": "Junqueira", "CD_SUBDIST": "35314072000", "ER_REGIAO": "Monte Aprazível_Junqueira", "ER_REGIAO_CIDADE": "Monte Aprazível_Junqueira_São José do Rio Preto" }, "geometry": { "type": "MultiPolygon", "coordinates": [ [ [ [ -49.857834299999979, -20.80252669999993 ], [ -49.800372799999934, -20.817345399999965 ], [ -49.800031099999956, -20.818105699999933 ], [ -49.801259899999934, -20.819532299999935 ], [ -49.802248299999974, -20.823206899999946 ], [ -49.805404599999974, -20.824642099999949 ], [ -49.804707299999961, -20.826009499999941 ], [ -49.807010699999978, -20.830745899999954 ], [ -49.809393, -20.831926899999928 ], [ -49.810878599999967, -20.833903699999951 ], [ -49.81927879999995, -20.837587299999939 ], [ -49.820215299999973, -20.839568499999928 ], [ -49.821838, -20.84091559999996 ], [ -49.824110399999938, -20.841211499999929 ], [ -49.826108799999986, -20.844222099999968 ], [ -49.830650499999933, -20.84546169999993 ], [ -49.833636799999965, -20.84855 ], [ -49.833510799999942, -20.849871399999927 ], [ -49.848361299999965, -20.842508899999928 ], [ -49.850918099999944, -20.843585699999949 ], [ -49.854629099999954, -20.850976199999934 ], [ -49.856185299999936, -20.852061299999946 ], [ -49.867086899999947, -20.84852 ], [ -49.873881, -20.848989099999983 ], [ -49.879070699999943, -20.845382599999937 ], [ -49.881963499999983, -20.844859799999938 ], [ -49.888751, -20.846012199999961 ], [ -49.89089569999993, -20.84731359999995 ], [ -49.892998599999942, -20.852206199999955 ], [ -49.899254199999973, -20.854532 ], [ -49.900287899999967, -20.85763529999997 ], [ -49.906928599999958, -20.859490499999936 ], [ -49.906236299999932, -20.858441699999958 ], [ -49.908369899999968, -20.85367569999994 ], [ -49.909545199999968, -20.848769199999936 ], [ -49.909119899999951, -20.846371199999965 ], [ -49.910428099999933, -20.842508599999974 ], [ -49.909590199999968, -20.84124259999993 ], [ -49.908496199999945, -20.829232199999979 ], [ -49.912861499999963, -20.822757 ], [ -49.912350099999969, -20.820971699999973 ], [ -49.913537399999939, -20.815036199999952 ], [ -49.913229299999955, -20.813500199999964 ], [ -49.909979, -20.811491299999943 ], [ -49.908823599999948, -20.809651499999973 ], [ -49.908761199999958, -20.80703589999996 ], [ -49.906826599999931, -20.805575199999964 ], [ -49.906829799999969, -20.804135099999939 ], [ -49.905864899999983, -20.804432399999939 ], [ -49.905246699999964, -20.803635499999928 ], [ -49.905149799999947, -20.801252599999941 ], [ -49.902432599999941, -20.796824399999934 ], [ -49.902782, -20.792151099999955 ], [ -49.903532599999949, -20.792144199999939 ], [ -49.903851399999951, -20.788729599999954 ], [ -49.905367, -20.785222 ], [ -49.90381739999998, -20.781584299999963 ], [ -49.906223699999941, -20.775685099999976 ], [ -49.90313459999993, -20.769003099999964 ], [ -49.903914899999961, -20.767086899999981 ], [ -49.903456199999937, -20.764207599999963 ], [ -49.905248899999947, -20.761494299999981 ], [ -49.898663099999965, -20.75928579999993 ], [ -49.890782899999977, -20.758133399999963 ], [ -49.88579969999995, -20.760140099999944 ], [ -49.872092, -20.763034799999957 ], [ -49.857834299999979, -20.80252669999993 ] ] ] ] } }
]
}
