{
"type": "FeatureCollection",
"name": "ER_REGIAO_Capital Centro_Jabaquara",
"crs": { "type": "name", "properties": { "name": "urn:ogc:def:crs:EPSG::4674" } },
"xy_coordinate_resolution": 1e-15,
"features": [
{ "type": "Feature", "properties": { "fid": 872, "NM_REGIAO": "Sudeste", "NM_UF": "São Paulo", "NM_MUN": "São Paulo", "NM_DIST": "Jabaquara", "CD_SUBDIST": "35503083800", "ER_REGIAO": "Capital Centro_Jabaquara", "ER_REGIAO_CIDADE": "Capital Centro_Jabaquara" }, "geometry": { "type": "MultiPolygon", "coordinates": [ [ [ [ -46.646393, -23.668739 ], [ -46.648623, -23.667432 ], [ -46.65127, -23.667493 ], [ -46.658204, -23.663134 ], [ -46.659324, -23.663005 ], [ -46.659682, -23.664469 ], [ -46.660784, -23.663624 ], [ -46.663108, -23.660637 ], [ -46.66347, -23.658612 ], [ -46.668847, -23.653035 ], [ -46.672006, -23.644867 ], [ -46.667589, -23.643025 ], [ -46.667759, -23.6424 ], [ -46.666231, -23.64201 ], [ -46.662465, -23.6382 ], [ -46.660308, -23.639498 ], [ -46.658714, -23.642863 ], [ -46.656516, -23.64086 ], [ -46.65175, -23.639576 ], [ -46.650254, -23.635837 ], [ -46.649055, -23.635546 ], [ -46.649598, -23.631855 ], [ -46.647611, -23.630218 ], [ -46.646444, -23.631861 ], [ -46.645349, -23.630705 ], [ -46.641503, -23.629293 ], [ -46.634494, -23.629756 ], [ -46.629816, -23.629186 ], [ -46.630415, -23.63894 ], [ -46.627292, -23.638401 ], [ -46.62737, -23.641019 ], [ -46.625998, -23.645229 ], [ -46.6235065, -23.6484651 ], [ -46.625007, -23.648718 ], [ -46.625611, -23.650015 ], [ -46.630436, -23.649505 ], [ -46.63061, -23.654208 ], [ -46.632325, -23.653561 ], [ -46.632679, -23.655098 ], [ -46.63404, -23.654853 ], [ -46.6335, -23.659824 ], [ -46.632477, -23.659979 ], [ -46.630648, -23.663688 ], [ -46.631369, -23.664139 ], [ -46.630383, -23.665265 ], [ -46.632791, -23.666505 ], [ -46.631062, -23.673259 ], [ -46.63358, -23.675137 ], [ -46.637772, -23.672333 ], [ -46.641321, -23.671366 ], [ -46.642506, -23.671723 ], [ -46.643339, -23.670878 ], [ -46.644185, -23.671547 ], [ -46.646393, -23.668739 ] ] ] ] } }
]
}
