{
"type": "FeatureCollection",
"name": "ER_REGIAO_São José do Rio Pardo",
"crs": { "type": "name", "properties": { "name": "urn:ogc:def:crs:EPSG::4674" } },
"xy_coordinate_resolution": 1e-15,
"features": [
{ "type": "Feature", "properties": { "fid": 821, "NM_REGIAO": "Sudeste", "NM_UF": "São Paulo", "NM_MUN": "São José do Rio Pardo", "NM_DIST": "São José do Rio Pardo", "CD_SUBDIST": "35497060500", "ER_REGIAO": "São José do Rio Pardo", "ER_REGIAO_CIDADE": "São José do Rio Pardo_São João da Boa Vista" }, "geometry": { "type": "MultiPolygon", "coordinates": [ [ [ [ -46.9400905, -21.6973686 ], [ -46.9445345, -21.6963067 ], [ -46.9475097, -21.6966903 ], [ -46.9522091, -21.7012602 ], [ -46.9657191, -21.6983618 ], [ -46.973721, -21.7005287 ], [ -46.9789866, -21.7006651 ], [ -46.9833351, -21.6960939 ], [ -46.9838776, -21.6944488 ], [ -46.9859656, -21.6935243 ], [ -46.9863244, -21.6906436 ], [ -46.9873336, -21.6893459 ], [ -46.9857757, -21.6889193 ], [ -46.9856007, -21.6859739 ], [ -46.9874057, -21.6860318 ], [ -46.9900499, -21.6823794 ], [ -46.9917853, -21.6822574 ], [ -46.9960313, -21.6798317 ], [ -46.9963522, -21.675813 ], [ -46.9930187, -21.6726956 ], [ -46.9929447, -21.667366 ], [ -46.9891221, -21.6676134 ], [ -46.9877837, -21.6663159 ], [ -46.9857173, -21.6669054 ], [ -46.9854641, -21.6644723 ], [ -46.9822608, -21.6636991 ], [ -46.9820787, -21.6621331 ], [ -46.9809101, -21.6611849 ], [ -46.9805696, -21.6578248 ], [ -46.978435, -21.6557806 ], [ -46.9773984, -21.6517805 ], [ -46.9802679, -21.6515975 ], [ -46.9818813, -21.650335 ], [ -46.9850262, -21.6506521 ], [ -46.9890855, -21.6542659 ], [ -46.989, -21.6529463 ], [ -46.9904003, -21.6539707 ], [ -46.9921742, -21.6519124 ], [ -46.9936357, -21.6537111 ], [ -46.9961735, -21.654348 ], [ -46.9962593, -21.6554676 ], [ -46.9967916, -21.6542562 ], [ -46.9976287, -21.6546675 ], [ -46.9980236, -21.6533311 ], [ -46.9997096, -21.6529656 ], [ -47.0003784, -21.6517301 ], [ -46.999695, -21.651267 ], [ -47.0006218, -21.6502476 ], [ -47.0018524, -21.6508602 ], [ -47.0028891, -21.6502811 ], [ -47.0035492, -21.6516471 ], [ -47.009312, -21.651864 ], [ -47.0104396, -21.6498435 ], [ -47.0151114, -21.6466632 ], [ -47.0177573, -21.6474196 ], [ -47.0214905, -21.6501913 ], [ -47.0224613, -21.6491126 ], [ -47.0235445, -21.6491309 ], [ -47.0239342, -21.648089 ], [ -47.0249222, -21.6482758 ], [ -47.0253849, -21.6468247 ], [ -47.0261457, -21.6476092 ], [ -47.0286324, -21.6472782 ], [ -47.0293244, -21.6437185 ], [ -47.0284837, -21.641541 ], [ -47.0298576, -21.6396994 ], [ -47.0309605, -21.6411521 ], [ -47.0321365, -21.6406873 ], [ -47.0310607, -21.6388738 ], [ -47.0321808, -21.6379431 ], [ -47.0326398, -21.6320705 ], [ -47.0344527, -21.629824 ], [ -47.0360202, -21.6300007 ], [ -47.0376661, -21.6257971 ], [ -47.0375565, -21.6234749 ], [ -47.0290407, -21.6261779 ], [ -47.0248544, -21.6308845 ], [ -47.0191731, -21.627314 ], [ -47.0146583, -21.6313858 ], [ -47.0098817, -21.6336878 ], [ -47.0076091, -21.6337149 ], [ -47.0065107, -21.6328543 ], [ -47.0060396, -21.629741 ], [ -47.0080192, -21.6267725 ], [ -47.0122045, -21.6244782 ], [ -47.0129344, -21.6225775 ], [ -47.0081016, -21.6182068 ], [ -47.0033879, -21.6096553 ], [ -46.9989001, -21.6068385 ], [ -46.9961111, -21.6062413 ], [ -46.9920351, -21.6082426 ], [ -46.9961026, -21.6142291 ], [ -46.9955761, -21.6160948 ], [ -46.9909308, -21.6158199 ], [ -46.9872159, -21.6144767 ], [ -46.9819727, -21.6108182 ], [ -46.9787105, -21.6109005 ], [ -46.9751974, -21.6084495 ], [ -46.9734746, -21.6082551 ], [ -46.9721465, -21.6066684 ], [ -46.9727791, -21.6039968 ], [ -46.970267, -21.600163 ], [ -46.9675365, -21.5985017 ], [ -46.9675275, -21.5970337 ], [ -46.9648272, -21.592821 ], [ -46.9624518, -21.5918329 ], [ -46.9587883, -21.5919474 ], [ -46.956246, -21.5929021 ], [ -46.9549488, -21.5920671 ], [ -46.9511912, -21.5866242 ], [ -46.9499507, -21.5802526 ], [ -46.9526644, -21.576882 ], [ -46.9546008, -21.5725957 ], [ -46.9506343, -21.5725735 ], [ -46.9436676, -21.5696316 ], [ -46.9338624, -21.5606612 ], [ -46.9293711, -21.5591768 ], [ -46.9268066, -21.5570056 ], [ -46.9267184, -21.5515764 ], [ -46.9319656, -21.5412985 ], [ -46.9304602, -21.537225 ], [ -46.932212, -21.5305925 ], [ -46.9290981, -21.5212287 ], [ -46.9328065, -21.5212465 ], [ -46.9337404, -21.520359 ], [ -46.9337308, -21.5186692 ], [ -46.9252938, -21.5120999 ], [ -46.9255662, -21.5069957 ], [ -46.9231196, -21.5039855 ], [ -46.9224601, -21.5005818 ], [ -46.9213945, -21.499073 ], [ -46.9183612, -21.4986533 ], [ -46.914337, -21.4953915 ], [ -46.9141535, -21.4938624 ], [ -46.9152868, -21.4927858 ], [ -46.9164721, -21.4891706 ], [ -46.9140555, -21.4864247 ], [ -46.9111463, -21.4845347 ], [ -46.9090704, -21.484158 ], [ -46.9049551, -21.4853153 ], [ -46.8968736, -21.4895803 ], [ -46.8940064, -21.489047 ], [ -46.8919628, -21.4865457 ], [ -46.8909602, -21.4863452 ], [ -46.8894111, -21.4881791 ], [ -46.88241, -21.4911365 ], [ -46.8769512, -21.4877577 ], [ -46.8681448, -21.4858524 ], [ -46.8637873, -21.4903282 ], [ -46.8542059, -21.4921699 ], [ -46.8522803, -21.4947542 ], [ -46.851002, -21.4991836 ], [ -46.8478884, -21.5019553 ], [ -46.8445364, -21.5020676 ], [ -46.842874, -21.5041628 ], [ -46.8365761, -21.5012768 ], [ -46.8322799, -21.4968633 ], [ -46.8291901, -21.49685 ], [ -46.8289125, -21.4980136 ], [ -46.8314951, -21.4999503 ], [ -46.8330607, -21.5028807 ], [ -46.8319566, -21.5059765 ], [ -46.826475, -21.5114205 ], [ -46.8220014, -21.5138721 ], [ -46.8166194, -21.511416 ], [ -46.8143862, -21.5095659 ], [ -46.8124205, -21.5096354 ], [ -46.8115074, -21.5155219 ], [ -46.812364, -21.5213934 ], [ -46.8116915, -21.5253219 ], [ -46.8065189, -21.5249558 ], [ -46.8002136, -21.5214136 ], [ -46.7904845, -21.5211311 ], [ -46.7894182, -21.5216163 ], [ -46.789758, -21.522609 ], [ -46.7910825, -21.5225321 ], [ -46.7911295, -21.5233259 ], [ -46.7919485, -21.5227109 ], [ -46.7925407, -21.5236382 ], [ -46.7931556, -21.5227746 ], [ -46.7944189, -21.5243914 ], [ -46.7935156, -21.5248052 ], [ -46.7916376, -21.5240729 ], [ -46.7878404, -21.5291337 ], [ -46.7869855, -21.5280351 ], [ -46.7852584, -21.5280745 ], [ -46.7844839, -21.5268495 ], [ -46.7826928, -21.5277466 ], [ -46.7843329, -21.5287138 ], [ -46.7843848, -21.5297072 ], [ -46.7833311, -21.529607 ], [ -46.7825306, -21.5307304 ], [ -46.781355, -21.5303992 ], [ -46.7820699, -21.5312184 ], [ -46.7814472, -21.5330737 ], [ -46.7825412, -21.53322 ], [ -46.7846028, -21.5353602 ], [ -46.7823231, -21.5358932 ], [ -46.7837019, -21.5365961 ], [ -46.7824968, -21.5373127 ], [ -46.7835959, -21.5390892 ], [ -46.7829972, -21.5412881 ], [ -46.78491, -21.5434321 ], [ -46.7817576, -21.5444762 ], [ -46.7800477, -21.5459437 ], [ -46.7771753, -21.552245 ], [ -46.7758162, -21.5507267 ], [ -46.775087, -21.5471113 ], [ -46.772498, -21.5459488 ], [ -46.7682849, -21.5417483 ], [ -46.7642131, -21.5409142 ], [ -46.7657426, -21.5429667 ], [ -46.7643061, -21.5449126 ], [ -46.7644954, -21.5470148 ], [ -46.761701, -21.5481196 ], [ -46.7596413, -21.5551832 ], [ -46.7611543, -21.5571182 ], [ -46.7605543, -21.5650024 ], [ -46.7617219, -21.570721 ], [ -46.7593697, -21.5731515 ], [ -46.7593839, -21.5771835 ], [ -46.757503, -21.5819005 ], [ -46.7591809, -21.5848067 ], [ -46.7605963, -21.5907787 ], [ -46.7599691, -21.5948944 ], [ -46.7610541, -21.6053495 ], [ -46.7629214, -21.6074873 ], [ -46.7645056, -21.6113251 ], [ -46.7716858, -21.6183794 ], [ -46.7731693, -21.6238309 ], [ -46.7766161, -21.6305542 ], [ -46.775913, -21.6345797 ], [ -46.7725992, -21.6394504 ], [ -46.7772246, -21.6465857 ], [ -46.7897169, -21.6553105 ], [ -46.7924857, -21.6555646 ], [ -46.7982445, -21.6528991 ], [ -46.8006902, -21.6535235 ], [ -46.8050113, -21.6601793 ], [ -46.8132532, -21.6601461 ], [ -46.8154765, -21.659509 ], [ -46.8167656, -21.6581313 ], [ -46.8193164, -21.6696299 ], [ -46.8217307, -21.6721932 ], [ -46.8269128, -21.6745746 ], [ -46.8334787, -21.6791076 ], [ -46.8349192, -21.6817305 ], [ -46.8354842, -21.6850782 ], [ -46.8387964, -21.6887163 ], [ -46.8392393, -21.6924395 ], [ -46.8417396, -21.6964765 ], [ -46.844577, -21.6987561 ], [ -46.8475925, -21.6993201 ], [ -46.8495435, -21.7012931 ], [ -46.8528817, -21.6998009 ], [ -46.8536111, -21.6983001 ], [ -46.8563838, -21.6979842 ], [ -46.8576258, -21.6965826 ], [ -46.8590247, -21.7002903 ], [ -46.8607664, -21.7020019 ], [ -46.8661805, -21.7040647 ], [ -46.8671208, -21.7062727 ], [ -46.8701576, -21.7086199 ], [ -46.871834, -21.7087023 ], [ -46.8846634, -21.6972503 ], [ -46.8886824, -21.6962012 ], [ -46.9024654, -21.6994078 ], [ -46.9078392, -21.698309 ], [ -46.9165788, -21.6990136 ], [ -46.9244689, -21.696531 ], [ -46.9341381, -21.6996613 ], [ -46.9373676, -21.6991604 ], [ -46.9400905, -21.6973686 ] ] ] ] } }
]
}
