{
"type": "FeatureCollection",
"name": "ER_REGIAO_Itaquaquecetuba",
"crs": { "type": "name", "properties": { "name": "urn:ogc:def:crs:EPSG::4674" } },
"xy_coordinate_resolution": 1e-15,
"features": [
{ "type": "Feature", "properties": { "fid": 384, "NM_REGIAO": "Sudeste", "NM_UF": "São Paulo", "NM_MUN": "Itaquaquecetuba", "NM_DIST": "Itaquaquecetuba", "CD_SUBDIST": "35231070500", "ER_REGIAO": "Itaquaquecetuba", "ER_REGIAO_CIDADE": "Itaquaquecetuba_Alto Tietê" }, "geometry": { "type": "MultiPolygon", "coordinates": [ [ [ [ -46.281486, -23.475909 ], [ -46.281514, -23.481734 ], [ -46.286029, -23.481695 ], [ -46.289466, -23.484943 ], [ -46.289699, -23.487507 ], [ -46.288231, -23.489768 ], [ -46.2945997, -23.4946341 ], [ -46.2972425, -23.495214 ], [ -46.2985752, -23.4963848 ], [ -46.2995247, -23.4956722 ], [ -46.3011746, -23.4961821 ], [ -46.3023548, -23.4951875 ], [ -46.3039928, -23.495696 ], [ -46.3057367, -23.4945656 ], [ -46.306448, -23.49253 ], [ -46.3077459, -23.4926389 ], [ -46.3093064, -23.4916128 ], [ -46.31055, -23.492536 ], [ -46.3136954, -23.4921081 ], [ -46.3141544, -23.4927808 ], [ -46.3169038, -23.4916566 ], [ -46.3203092, -23.4917671 ], [ -46.328532, -23.488615 ], [ -46.331004, -23.488877 ], [ -46.3331335, -23.4919127 ], [ -46.332552, -23.494092 ], [ -46.334251, -23.493336 ], [ -46.334078, -23.495094 ], [ -46.335461, -23.495392 ], [ -46.334313, -23.497399 ], [ -46.3358764, -23.4991616 ], [ -46.3360302, -23.5007535 ], [ -46.3343841, -23.5002965 ], [ -46.3338097, -23.5013865 ], [ -46.333329, -23.499429 ], [ -46.3321343, -23.5011442 ], [ -46.330496, -23.500045 ], [ -46.330569, -23.502177 ], [ -46.3295101, -23.5033023 ], [ -46.3298609, -23.5057048 ], [ -46.348215, -23.507934 ], [ -46.350783, -23.507616 ], [ -46.353634, -23.504813 ], [ -46.3663957, -23.5121558 ], [ -46.36538, -23.503026 ], [ -46.377307, -23.48417 ], [ -46.378519, -23.481309 ], [ -46.378574, -23.478967 ], [ -46.381168, -23.475683 ], [ -46.381939, -23.472089 ], [ -46.384284, -23.474145 ], [ -46.383296, -23.475264 ], [ -46.384472, -23.475588 ], [ -46.387038, -23.474519 ], [ -46.386348, -23.473174 ], [ -46.389122, -23.470944 ], [ -46.388459, -23.470287 ], [ -46.389374, -23.465999 ], [ -46.392293, -23.461118 ], [ -46.39196, -23.458917 ], [ -46.393257, -23.457193 ], [ -46.392559, -23.454192 ], [ -46.3954061, -23.4515575 ], [ -46.397284, -23.446475 ], [ -46.394884, -23.446605 ], [ -46.39365, -23.448731 ], [ -46.390911, -23.448871 ], [ -46.38918, -23.448095 ], [ -46.388761, -23.445159 ], [ -46.385522, -23.445656 ], [ -46.3835979, -23.4445278 ], [ -46.383954, -23.440507 ], [ -46.387154, -23.439156 ], [ -46.3881219, -23.4377908 ], [ -46.3873553, -23.4362307 ], [ -46.383826, -23.434793 ], [ -46.3827487, -23.43313 ], [ -46.379743, -23.434065 ], [ -46.3758099, -23.4321811 ], [ -46.373198, -23.433153 ], [ -46.372051, -23.432719 ], [ -46.3715165, -23.4337846 ], [ -46.3701429, -23.4339889 ], [ -46.369235, -23.436243 ], [ -46.367591, -23.437438 ], [ -46.366295, -23.437548 ], [ -46.365338, -23.435898 ], [ -46.36344, -23.435171 ], [ -46.359134, -23.438469 ], [ -46.357434, -23.434751 ], [ -46.357863, -23.429752 ], [ -46.354848, -23.42624 ], [ -46.354459, -23.422665 ], [ -46.352337, -23.420836 ], [ -46.347836, -23.420106 ], [ -46.341671, -23.422049 ], [ -46.340112, -23.42359 ], [ -46.336884, -23.422911 ], [ -46.32814, -23.424728 ], [ -46.3269637, -23.423465 ], [ -46.3256978, -23.4238297 ], [ -46.3253501, -23.425049 ], [ -46.3222949, -23.424736 ], [ -46.3223181, -23.4255126 ], [ -46.317293, -23.423731 ], [ -46.316589, -23.419946 ], [ -46.314069, -23.416537 ], [ -46.3129324, -23.41613 ], [ -46.3115659, -23.4175122 ], [ -46.3108879, -23.4234619 ], [ -46.302994, -23.424579 ], [ -46.3023986, -23.426198 ], [ -46.298688, -23.427825 ], [ -46.29755, -23.430878 ], [ -46.295824, -23.4310849 ], [ -46.2930121, -23.4299964 ], [ -46.2924749, -23.4317553 ], [ -46.2887545, -23.4345022 ], [ -46.2874553, -23.4339746 ], [ -46.2844286, -23.4352523 ], [ -46.280784, -23.4340637 ], [ -46.2795034, -23.4343629 ], [ -46.2781764, -23.4331528 ], [ -46.2768963, -23.4343378 ], [ -46.2737522, -23.4329308 ], [ -46.2741268, -23.4321643 ], [ -46.2730978, -23.4293905 ], [ -46.2705992, -23.4298831 ], [ -46.2716589, -23.4356016 ], [ -46.2732179, -23.4375976 ], [ -46.2726579, -23.4418809 ], [ -46.2736072, -23.4439495 ], [ -46.2732801, -23.4449627 ], [ -46.2758652, -23.4465468 ], [ -46.2741974, -23.4478058 ], [ -46.2748783, -23.4486901 ], [ -46.2740934, -23.4501251 ], [ -46.277887, -23.452915 ], [ -46.2798099, -23.4571041 ], [ -46.2870061, -23.4600126 ], [ -46.2862156, -23.460933 ], [ -46.286137, -23.466162 ], [ -46.284876, -23.469219 ], [ -46.283536, -23.469961 ], [ -46.281486, -23.475909 ] ] ] ] } }
]
}
