{
"type": "FeatureCollection",
"name": "ER_REGIAO_Birigui",
"crs": { "type": "name", "properties": { "name": "urn:ogc:def:crs:EPSG::4674" } },
"xy_coordinate_resolution": 1e-15,
"features": [
{ "type": "Feature", "properties": { "fid": 100, "NM_REGIAO": "Sudeste", "NM_UF": "São Paulo", "NM_MUN": "Birigui", "NM_DIST": "Birigui", "CD_SUBDIST": "35065080500", "ER_REGIAO": "Birigui", "ER_REGIAO_CIDADE": "Birigui_Araçatuba" }, "geometry": { "type": "MultiPolygon", "coordinates": [ [ [ [ -50.3098555, -21.2941526 ], [ -50.3124234, -21.3004948 ], [ -50.3121841, -21.3049964 ], [ -50.3104684, -21.3082786 ], [ -50.3111523, -21.3121627 ], [ -50.3106502, -21.3136042 ], [ -50.3117127, -21.3149206 ], [ -50.3122341, -21.3177002 ], [ -50.3101008, -21.3192718 ], [ -50.3103351, -21.3217857 ], [ -50.3120573, -21.3238467 ], [ -50.3150485, -21.3247799 ], [ -50.3155888, -21.32601 ], [ -50.3161257, -21.3440766 ], [ -50.3134912, -21.3509774 ], [ -50.3134968, -21.3541371 ], [ -50.3166482, -21.3583361 ], [ -50.3221797, -21.3635774 ], [ -50.3313242, -21.3688548 ], [ -50.3333958, -21.3731975 ], [ -50.3330924, -21.3801529 ], [ -50.3461136, -21.4011393 ], [ -50.3451293, -21.4037115 ], [ -50.3474534, -21.4148723 ], [ -50.3466629, -21.4217837 ], [ -50.3478731, -21.4307208 ], [ -50.3476551, -21.4342015 ], [ -50.3436118, -21.4429222 ], [ -50.3431922, -21.4536995 ], [ -50.3543284, -21.450334 ], [ -50.3584035, -21.4512315 ], [ -50.3608928, -21.4500923 ], [ -50.3629165, -21.4503086 ], [ -50.3675026, -21.4522396 ], [ -50.3722939, -21.4478111 ], [ -50.3749043, -21.4470872 ], [ -50.377929, -21.4449215 ], [ -50.3811686, -21.4519815 ], [ -50.3835606, -21.4524219 ], [ -50.3946177, -21.4601011 ], [ -50.4033669, -21.4647001 ], [ -50.4053813, -21.4670448 ], [ -50.4086192, -21.4669664 ], [ -50.4133674, -21.4681124 ], [ -50.4180778, -21.4669795 ], [ -50.4190106, -21.4654591 ], [ -50.420221, -21.4553896 ], [ -50.4226277, -21.4507278 ], [ -50.4225177, -21.444683 ], [ -50.42361, -21.4428665 ], [ -50.4219614, -21.4389335 ], [ -50.422615, -21.435478 ], [ -50.4216539, -21.4299841 ], [ -50.4222347, -21.4280476 ], [ -50.4181003, -21.4217708 ], [ -50.4180682, -21.4180662 ], [ -50.4212045, -21.4144319 ], [ -50.4256137, -21.4116074 ], [ -50.4261322, -21.4100447 ], [ -50.4255965, -21.4094218 ], [ -50.4277901, -21.4068928 ], [ -50.4304678, -21.406231 ], [ -50.4322302, -21.4029405 ], [ -50.4375617, -21.3995707 ], [ -50.4395821, -21.395335 ], [ -50.4458908, -21.3921831 ], [ -50.4474819, -21.3838229 ], [ -50.4498343, -21.3827074 ], [ -50.4508778, -21.380399 ], [ -50.4535317, -21.3786963 ], [ -50.4546085, -21.3762001 ], [ -50.4575699, -21.3752218 ], [ -50.4580819, -21.3699421 ], [ -50.4561816, -21.3654313 ], [ -50.456896, -21.3645625 ], [ -50.4564239, -21.3632214 ], [ -50.4551591, -21.3625201 ], [ -50.4550304, -21.3580134 ], [ -50.4534182, -21.3556011 ], [ -50.4560094, -21.3498755 ], [ -50.4574575, -21.3491268 ], [ -50.4595352, -21.3434877 ], [ -50.461418, -21.3413348 ], [ -50.4611423, -21.3398896 ], [ -50.4580198, -21.3386956 ], [ -50.4562754, -21.33533 ], [ -50.4521651, -21.3319191 ], [ -50.4529441, -21.3299189 ], [ -50.4547341, -21.3287336 ], [ -50.4531727, -21.3249832 ], [ -50.4530926, -21.3222235 ], [ -50.4537644, -21.3209867 ], [ -50.4583607, -21.3189667 ], [ -50.4624943, -21.3146496 ], [ -50.4622728, -21.3120249 ], [ -50.4633681, -21.3109359 ], [ -50.4633302, -21.3095795 ], [ -50.4657163, -21.3077257 ], [ -50.4624473, -21.3012067 ], [ -50.465724, -21.2991912 ], [ -50.4665508, -21.2971089 ], [ -50.3904435, -21.2516822 ], [ -50.394578, -21.2480729 ], [ -50.4035719, -21.2325578 ], [ -50.4048609, -21.2256969 ], [ -50.4034283, -21.2229536 ], [ -50.3922202, -21.2141517 ], [ -50.3924947, -21.2096773 ], [ -50.3901526, -21.1909498 ], [ -50.3937099, -21.1825482 ], [ -50.3932372, -21.1801969 ], [ -50.3913158, -21.1793132 ], [ -50.390849, -21.1767641 ], [ -50.3888856, -21.1733683 ], [ -50.3867745, -21.1721734 ], [ -50.3879294, -21.168725 ], [ -50.3859198, -21.1668017 ], [ -50.3870057, -21.1650393 ], [ -50.3842061, -21.1616247 ], [ -50.3846904, -21.1598881 ], [ -50.3838989, -21.1580156 ], [ -50.3847199, -21.1573461 ], [ -50.3831015, -21.1567774 ], [ -50.3822811, -21.1573153 ], [ -50.3810543, -21.1562509 ], [ -50.3816072, -21.1558253 ], [ -50.3804429, -21.1540455 ], [ -50.3753878, -21.1529335 ], [ -50.3706191, -21.1488582 ], [ -50.3689943, -21.143856 ], [ -50.3645915, -21.1396755 ], [ -50.3627776, -21.1350535 ], [ -50.3591816, -21.1325098 ], [ -50.3586203, -21.1301016 ], [ -50.3565004, -21.1288657 ], [ -50.3562581, -21.1263714 ], [ -50.3606496, -21.1233315 ], [ -50.3618166, -21.1200758 ], [ -50.3598657, -21.1172178 ], [ -50.3558108, -21.1153324 ], [ -50.3526827, -21.1101587 ], [ -50.3546618, -21.1064237 ], [ -50.3535915, -21.1049175 ], [ -50.3551471, -21.1022884 ], [ -50.3549958, -21.0993227 ], [ -50.3530201, -21.0979018 ], [ -50.349025, -21.0970437 ], [ -50.3473571, -21.0953145 ], [ -50.3472718, -21.0931209 ], [ -50.350223, -21.0879384 ], [ -50.350611, -21.0858757 ], [ -50.3437284, -21.0819928 ], [ -50.3429132, -21.0794429 ], [ -50.3441529, -21.0738047 ], [ -50.3490351, -21.0656124 ], [ -50.3469798, -21.0602737 ], [ -50.3393701, -21.0621825 ], [ -50.3302035, -21.0686539 ], [ -50.3209595, -21.0706862 ], [ -50.3153603, -21.0759641 ], [ -50.3119333, -21.0772975 ], [ -50.3090758, -21.0772049 ], [ -50.302086, -21.0735766 ], [ -50.2924583, -21.0735527 ], [ -50.2799315, -21.0713935 ], [ -50.277175, -21.0717354 ], [ -50.2744916, -21.0731186 ], [ -50.272384, -21.0764964 ], [ -50.2730334, -21.0815227 ], [ -50.2713827, -21.0871036 ], [ -50.2754015, -21.0960589 ], [ -50.2748254, -21.1000483 ], [ -50.2707286, -21.1045683 ], [ -50.2631159, -21.1085355 ], [ -50.2529949, -21.1170848 ], [ -50.2587188, -21.1233511 ], [ -50.2579051, -21.1272143 ], [ -50.25877, -21.1287238 ], [ -50.2506734, -21.1348386 ], [ -50.2473579, -21.1442761 ], [ -50.2455079, -21.145147 ], [ -50.2439578, -21.144588 ], [ -50.2419275, -21.1463169 ], [ -50.2430541, -21.1476408 ], [ -50.2488763, -21.1503088 ], [ -50.2478776, -21.1517518 ], [ -50.2452833, -21.1531764 ], [ -50.2499754, -21.1571746 ], [ -50.2506034, -21.1590789 ], [ -50.2473895, -21.1643596 ], [ -50.2469864, -21.1691498 ], [ -50.2438959, -21.1716891 ], [ -50.2429188, -21.174563 ], [ -50.2422077, -21.1836322 ], [ -50.2394826, -21.1874772 ], [ -50.2394149, -21.1890916 ], [ -50.2419505, -21.1919685 ], [ -50.243615, -21.1927398 ], [ -50.2457418, -21.196849 ], [ -50.2476796, -21.1952219 ], [ -50.2483191, -21.1959506 ], [ -50.2494786, -21.2001367 ], [ -50.2487603, -21.2021407 ], [ -50.2501289, -21.2045567 ], [ -50.2483631, -21.2070671 ], [ -50.2485132, -21.2129265 ], [ -50.2513465, -21.213886 ], [ -50.2540865, -21.2160504 ], [ -50.2543331, -21.2171466 ], [ -50.2514469, -21.2201783 ], [ -50.2517052, -21.2216611 ], [ -50.2561942, -21.2232302 ], [ -50.2586845, -21.2225175 ], [ -50.2594531, -21.2246272 ], [ -50.2622657, -21.2252729 ], [ -50.2611922, -21.2287912 ], [ -50.2626318, -21.2328395 ], [ -50.259875, -21.2339034 ], [ -50.2590581, -21.2388571 ], [ -50.2567987, -21.2394961 ], [ -50.2568232, -21.2408265 ], [ -50.2548838, -21.2404525 ], [ -50.2549844, -21.2412368 ], [ -50.2571486, -21.2456267 ], [ -50.260729, -21.2486939 ], [ -50.2602423, -21.2493496 ], [ -50.2608012, -21.2498491 ], [ -50.2622883, -21.2487154 ], [ -50.2645939, -21.2511244 ], [ -50.2663991, -21.2538498 ], [ -50.2654275, -21.2563673 ], [ -50.2679095, -21.258242 ], [ -50.2688189, -21.2604022 ], [ -50.2719082, -21.260094 ], [ -50.2729181, -21.259287 ], [ -50.2758462, -21.2600378 ], [ -50.2793059, -21.2621285 ], [ -50.2812699, -21.2623342 ], [ -50.283245, -21.2602522 ], [ -50.2862763, -21.2606524 ], [ -50.2886792, -21.2620075 ], [ -50.2898056, -21.2645267 ], [ -50.2916996, -21.2663255 ], [ -50.2902671, -21.2674743 ], [ -50.2928252, -21.2714687 ], [ -50.2920774, -21.2753833 ], [ -50.2998779, -21.2798527 ], [ -50.3004026, -21.2810536 ], [ -50.299482, -21.2811302 ], [ -50.299575, -21.2828921 ], [ -50.3010707, -21.2865311 ], [ -50.3056697, -21.2920321 ], [ -50.3071823, -21.2921115 ], [ -50.3098555, -21.2941526 ] ] ] ] } }
]
}
