{
"type": "FeatureCollection",
"name": "ER_REGIAO_Ibitinga_Cambaratiba",
"crs": { "type": "name", "properties": { "name": "urn:ogc:def:crs:EPSG::4674" } },
"xy_coordinate_resolution": 1e-15,
"features": [
{ "type": "Feature", "properties": { "fid": 322, "NM_REGIAO": "Sudeste", "NM_UF": "São Paulo", "NM_MUN": "Ibitinga", "NM_DIST": "Cambaratiba", "CD_SUBDIST": "35196001000", "ER_REGIAO": "Ibitinga_Cambaratiba", "ER_REGIAO_CIDADE": "Ibitinga_Cambaratiba_Araraquara" }, "geometry": { "type": "MultiPolygon", "coordinates": [ [ [ [ -49.0437286, -21.7287228 ], [ -49.0432253, -21.7258933 ], [ -49.0367229, -21.7225162 ], [ -49.0382432, -21.7178422 ], [ -49.0344972, -21.7136782 ], [ -49.0326745, -21.7127781 ], [ -49.030555, -21.7129426 ], [ -49.0267172, -21.7153244 ], [ -49.0244417, -21.7158075 ], [ -49.0217605, -21.7155192 ], [ -49.0182807, -21.7137964 ], [ -49.0159255, -21.7116301 ], [ -49.0177353, -21.7065696 ], [ -49.0165977, -21.7041155 ], [ -49.0093471, -21.6992112 ], [ -49.0045462, -21.6983528 ], [ -49.0020294, -21.6934607 ], [ -48.9997421, -21.6915817 ], [ -48.9958539, -21.6948907 ], [ -48.9922529, -21.6959631 ], [ -48.9926086, -21.6995357 ], [ -48.9915735, -21.7015327 ], [ -48.9894415, -21.7000527 ], [ -48.9845397, -21.6988459 ], [ -48.9807909, -21.6989894 ], [ -48.9788401, -21.6982821 ], [ -48.9788958, -21.6972094 ], [ -48.9775084, -21.6969847 ], [ -48.9767522, -21.6976265 ], [ -48.9780858, -21.7002605 ], [ -48.9778364, -21.7015399 ], [ -48.9742751, -21.7006002 ], [ -48.9698747, -21.7011543 ], [ -48.9674337, -21.6992541 ], [ -48.9625519, -21.700169 ], [ -48.9611558, -21.7031689 ], [ -48.9572278, -21.7065746 ], [ -48.9502742, -21.7146822 ], [ -48.9342944, -21.7260878 ], [ -48.933877, -21.7285831 ], [ -48.9308632, -21.7330497 ], [ -48.9299037, -21.7369027 ], [ -48.932844, -21.7424012 ], [ -48.9337033, -21.7485732 ], [ -48.9385408, -21.7514589 ], [ -48.9418233, -21.7522398 ], [ -48.9531087, -21.7574734 ], [ -48.9625099, -21.7652131 ], [ -48.967486, -21.7606144 ], [ -48.9731228, -21.7586122 ], [ -48.9766115, -21.7585665 ], [ -48.9850756, -21.7601689 ], [ -48.9998949, -21.7648418 ], [ -49.0063505, -21.7654091 ], [ -49.0141188, -21.7692723 ], [ -49.0191057, -21.7708073 ], [ -49.0326049, -21.7721055 ], [ -49.0440737, -21.7742247 ], [ -49.0461841, -21.7734511 ], [ -49.0516989, -21.7687287 ], [ -49.0624324, -21.7656601 ], [ -49.0667174, -21.7637476 ], [ -49.0744448, -21.7584703 ], [ -49.084027, -21.7555948 ], [ -49.0783457, -21.7534926 ], [ -49.0774967, -21.7506816 ], [ -49.0760365, -21.7500213 ], [ -49.0774958, -21.7487829 ], [ -49.0777355, -21.7473994 ], [ -49.0757858, -21.7455555 ], [ -49.0737926, -21.7457485 ], [ -49.0723378, -21.7439706 ], [ -49.0678809, -21.7451632 ], [ -49.0657066, -21.7442889 ], [ -49.0644205, -21.7421619 ], [ -49.0553139, -21.7429178 ], [ -49.0542581, -21.7424558 ], [ -49.0539626, -21.7413437 ], [ -49.0522576, -21.7416504 ], [ -49.0523627, -21.7400801 ], [ -49.055005, -21.7372325 ], [ -49.0566542, -21.7369988 ], [ -49.0571595, -21.7387918 ], [ -49.0590294, -21.7368029 ], [ -49.0609387, -21.7378441 ], [ -49.0639301, -21.7340268 ], [ -49.0642692, -21.7323706 ], [ -49.0616472, -21.7307093 ], [ -49.0592642, -21.7277499 ], [ -49.0578243, -21.7276612 ], [ -49.056925, -21.7293808 ], [ -49.0531396, -21.7304615 ], [ -49.0504847, -21.7288045 ], [ -49.0465759, -21.7286889 ], [ -49.044803, -21.729933 ], [ -49.0437286, -21.7287228 ] ] ] ] } }
]
}
