{
"type": "FeatureCollection",
"name": "ER_REGIAO_Itaju",
"crs": { "type": "name", "properties": { "name": "urn:ogc:def:crs:EPSG::4674" } },
"xy_coordinate_resolution": 1e-15,
"features": [
{ "type": "Feature", "properties": { "fid": 357, "NM_REGIAO": "Sudeste", "NM_UF": "São Paulo", "NM_MUN": "Itaju", "NM_DIST": "Itaju", "CD_SUBDIST": "35220000500", "ER_REGIAO": "Itaju", "ER_REGIAO_CIDADE": "Itaju_Araraquara" }, "geometry": { "type": "MultiPolygon", "coordinates": [ [ [ [ -48.8140836, -21.8924557 ], [ -48.8113346, -21.8918462 ], [ -48.8104195, -21.8923298 ], [ -48.8102808, -21.8935374 ], [ -48.8083032, -21.8935248 ], [ -48.8079123, -21.892875 ], [ -48.8094779, -21.8910099 ], [ -48.8089529, -21.8906423 ], [ -48.8066124, -21.8931052 ], [ -48.8058684, -21.8917807 ], [ -48.8036099, -21.893289 ], [ -48.8018248, -21.892535 ], [ -48.8004077, -21.894176 ], [ -48.7991009, -21.8923547 ], [ -48.7989653, -21.8951534 ], [ -48.7972212, -21.8940414 ], [ -48.7955569, -21.8943302 ], [ -48.7957244, -21.8931073 ], [ -48.7942292, -21.8917051 ], [ -48.7929228, -21.8919512 ], [ -48.7927223, -21.8929101 ], [ -48.7913538, -21.8922294 ], [ -48.7906896, -21.893054 ], [ -48.788931, -21.8929265 ], [ -48.788229, -21.8959558 ], [ -48.7873168, -21.8946052 ], [ -48.7857551, -21.896408 ], [ -48.7856461, -21.8940852 ], [ -48.7828562, -21.8951325 ], [ -48.7807581, -21.8938561 ], [ -48.7790878, -21.895767 ], [ -48.7790586, -21.8944965 ], [ -48.7779968, -21.8948574 ], [ -48.7762393, -21.893616 ], [ -48.7741278, -21.8940858 ], [ -48.7738232, -21.892062 ], [ -48.7722337, -21.8918658 ], [ -48.7729339, -21.8929207 ], [ -48.7711424, -21.8931144 ], [ -48.7692715, -21.8928813 ], [ -48.7685433, -21.8916923 ], [ -48.7672363, -21.8919003 ], [ -48.7680744, -21.8896633 ], [ -48.7662073, -21.8897509 ], [ -48.7639964, -21.8874884 ], [ -48.762789, -21.8875681 ], [ -48.7630028, -21.8862793 ], [ -48.7617114, -21.8866444 ], [ -48.7621818, -21.8851413 ], [ -48.7605517, -21.8839668 ], [ -48.7587042, -21.884633 ], [ -48.7547117, -21.883805 ], [ -48.7529378, -21.8869782 ], [ -48.752109, -21.8862766 ], [ -48.7514068, -21.8866941 ], [ -48.7515407, -21.8857483 ], [ -48.7504928, -21.8846284 ], [ -48.7492451, -21.8850618 ], [ -48.7475658, -21.8874312 ], [ -48.7458547, -21.8870393 ], [ -48.7465961, -21.8885176 ], [ -48.7457623, -21.8885296 ], [ -48.7453761, -21.8895772 ], [ -48.7446484, -21.8892221 ], [ -48.7445992, -21.8879638 ], [ -48.7422561, -21.886715 ], [ -48.7410701, -21.8872077 ], [ -48.7418596, -21.8876162 ], [ -48.7400493, -21.8894683 ], [ -48.7395316, -21.887789 ], [ -48.7359307, -21.8888041 ], [ -48.7373189, -21.8894023 ], [ -48.7374291, -21.8903631 ], [ -48.7311545, -21.8893588 ], [ -48.7307203, -21.89092 ], [ -48.726689, -21.8909989 ], [ -48.7267132, -21.8927683 ], [ -48.7259937, -21.8921592 ], [ -48.7245256, -21.8930455 ], [ -48.7264758, -21.8949618 ], [ -48.7254478, -21.8955163 ], [ -48.7258526, -21.896708 ], [ -48.7240784, -21.8963442 ], [ -48.7244348, -21.8979752 ], [ -48.7227371, -21.8975247 ], [ -48.7227573, -21.8998004 ], [ -48.7200267, -21.9008447 ], [ -48.7202091, -21.9039591 ], [ -48.7207891, -21.9041426 ], [ -48.7209539, -21.9032382 ], [ -48.7217985, -21.9045192 ], [ -48.7206867, -21.9046676 ], [ -48.7206502, -21.906121 ], [ -48.721938, -21.9062258 ], [ -48.7209289, -21.9066129 ], [ -48.7210009, -21.90884 ], [ -48.7201329, -21.908467 ], [ -48.7205401, -21.907637 ], [ -48.7192601, -21.9070444 ], [ -48.7197885, -21.9086412 ], [ -48.7181404, -21.9097972 ], [ -48.7180453, -21.9077209 ], [ -48.7165464, -21.9097369 ], [ -48.7154064, -21.9096884 ], [ -48.7168503, -21.9085679 ], [ -48.716444, -21.9081277 ], [ -48.7147609, -21.9081912 ], [ -48.7151178, -21.9091684 ], [ -48.711613, -21.9103146 ], [ -48.710948, -21.9100975 ], [ -48.7114366, -21.9091083 ], [ -48.710863, -21.9086925 ], [ -48.7095575, -21.9096971 ], [ -48.7085885, -21.9093661 ], [ -48.7088538, -21.9106934 ], [ -48.7078507, -21.9093658 ], [ -48.7070163, -21.9104706 ], [ -48.7067876, -21.9095449 ], [ -48.705826, -21.9109888 ], [ -48.7073668, -21.9118459 ], [ -48.7052873, -21.9133143 ], [ -48.7028831, -21.910453 ], [ -48.7025622, -21.9117053 ], [ -48.7013395, -21.9124503 ], [ -48.6992976, -21.9102358 ], [ -48.698838, -21.9120877 ], [ -48.6985946, -21.9111885 ], [ -48.6968644, -21.9109705 ], [ -48.6977488, -21.9121059 ], [ -48.696848, -21.9128821 ], [ -48.6945218, -21.913189 ], [ -48.6938575, -21.9117439 ], [ -48.6931439, -21.9124625 ], [ -48.6884491, -21.9126172 ], [ -48.6872688, -21.9147263 ], [ -48.6851337, -21.9160734 ], [ -48.6852918, -21.9169312 ], [ -48.6839753, -21.9170812 ], [ -48.684071, -21.9188794 ], [ -48.6831373, -21.9194678 ], [ -48.6851812, -21.9193362 ], [ -48.6856153, -21.9217355 ], [ -48.6836023, -21.9226095 ], [ -48.6835132, -21.9250219 ], [ -48.6823667, -21.9245842 ], [ -48.6822346, -21.9256653 ], [ -48.6815299, -21.9249401 ], [ -48.6801143, -21.925642 ], [ -48.6808089, -21.9269888 ], [ -48.6793454, -21.9271085 ], [ -48.6787191, -21.9281759 ], [ -48.682683, -21.9300178 ], [ -48.6853884, -21.933338 ], [ -48.6847443, -21.9411137 ], [ -48.6856032, -21.9438243 ], [ -48.6894474, -21.9493958 ], [ -48.6957523, -21.952911 ], [ -48.7000522, -21.9582 ], [ -48.7043314, -21.96163 ], [ -48.7116472, -21.9652609 ], [ -48.7131968, -21.968352 ], [ -48.7143661, -21.9761827 ], [ -48.7180135, -21.9809697 ], [ -48.7219189, -21.9832953 ], [ -48.735611, -21.9863861 ], [ -48.7404978, -21.9911674 ], [ -48.7458703, -21.9936646 ], [ -48.7483266, -21.9968123 ], [ -48.7631588, -22.0046464 ], [ -48.7655912, -22.0073781 ], [ -48.7670731, -22.0114256 ], [ -48.7698736, -22.0148245 ], [ -48.7720853, -22.020217 ], [ -48.7740065, -22.0216043 ], [ -48.7754645, -22.0218028 ], [ -48.7816107, -22.0197173 ], [ -48.7895522, -22.0201502 ], [ -48.8006794, -22.0146155 ], [ -48.8232832, -22.0115748 ], [ -48.8327685, -22.0125781 ], [ -48.8378876, -22.0184594 ], [ -48.8420571, -22.020529 ], [ -48.8521472, -22.0171083 ], [ -48.8600168, -22.0174373 ], [ -48.864474, -22.0197341 ], [ -48.8672131, -22.0240663 ], [ -48.8718171, -22.0230286 ], [ -48.8787891, -22.0227264 ], [ -48.8848754, -22.0201315 ], [ -48.8887759, -22.0153929 ], [ -48.8890946, -22.0109219 ], [ -48.8876608, -22.0060596 ], [ -48.8773181, -21.9878037 ], [ -48.8646812, -21.9713607 ], [ -48.8626337, -21.9645784 ], [ -48.8624243, -21.9595301 ], [ -48.8636071, -21.9569736 ], [ -48.877919, -21.9410644 ], [ -48.8856225, -21.9378591 ], [ -48.8997069, -21.9351445 ], [ -48.9047274, -21.9318696 ], [ -48.9088004, -21.9249281 ], [ -48.9081144, -21.9179018 ], [ -48.9057884, -21.9157011 ], [ -48.8964787, -21.9118988 ], [ -48.892171, -21.906657 ], [ -48.8878061, -21.9126597 ], [ -48.8803508, -21.9199801 ], [ -48.8776155, -21.921046 ], [ -48.8715254, -21.914458 ], [ -48.8677, -21.914765 ], [ -48.8654555, -21.9166727 ], [ -48.8618726, -21.9146224 ], [ -48.85869, -21.9144476 ], [ -48.8548117, -21.9117586 ], [ -48.8479384, -21.9098748 ], [ -48.8450794, -21.90562 ], [ -48.8408291, -21.9031343 ], [ -48.839979, -21.89833 ], [ -48.8361558, -21.8994153 ], [ -48.8329467, -21.8988052 ], [ -48.8320836, -21.8969935 ], [ -48.8325588, -21.8948572 ], [ -48.8342103, -21.8958049 ], [ -48.835508, -21.8948865 ], [ -48.8347349, -21.8932901 ], [ -48.8317629, -21.8925785 ], [ -48.8306142, -21.8904202 ], [ -48.8273341, -21.8929829 ], [ -48.8273083, -21.8918241 ], [ -48.8258423, -21.8913973 ], [ -48.8253998, -21.8902741 ], [ -48.8224045, -21.8895706 ], [ -48.8212887, -21.8900084 ], [ -48.8208297, -21.892418 ], [ -48.8199858, -21.8924059 ], [ -48.819084, -21.8904642 ], [ -48.8163567, -21.890809 ], [ -48.8140836, -21.8924557 ] ] ] ] } }
]
}
