{
"type": "FeatureCollection",
"name": "ER_REGIAO_Mairiporã_Terra Preta",
"crs": { "type": "name", "properties": { "name": "urn:ogc:def:crs:EPSG::4674" } },
"xy_coordinate_resolution": 1e-15,
"features": [
{ "type": "Feature", "properties": { "fid": 462, "NM_REGIAO": "Sudeste", "NM_UF": "São Paulo", "NM_MUN": "Mairiporã", "NM_DIST": "Terra Preta", "CD_SUBDIST": "35285021500", "ER_REGIAO": "Mairiporã_Terra Preta", "ER_REGIAO_CIDADE": "Mairiporã_Terra Preta_Guarulhos" }, "geometry": { "type": "MultiPolygon", "coordinates": [ [ [ [ -46.5841816, -23.2800132 ], [ -46.5958987, -23.2826547 ], [ -46.601374, -23.2823607 ], [ -46.6119782, -23.2753938 ], [ -46.6129552, -23.272819 ], [ -46.6270105, -23.2717356 ], [ -46.6267748, -23.2670467 ], [ -46.629456, -23.259019 ], [ -46.626406, -23.256211 ], [ -46.62399, -23.257062 ], [ -46.622762, -23.256729 ], [ -46.622163, -23.254809 ], [ -46.622775, -23.25246 ], [ -46.622563, -23.244619 ], [ -46.621772, -23.242179 ], [ -46.618944, -23.241603 ], [ -46.617603, -23.240313 ], [ -46.618323, -23.2385 ], [ -46.617, -23.233301 ], [ -46.61453, -23.230748 ], [ -46.615404, -23.2275 ], [ -46.609922, -23.225823 ], [ -46.606979, -23.22672 ], [ -46.60501, -23.229133 ], [ -46.603917, -23.235212 ], [ -46.6013395, -23.2342235 ], [ -46.593711, -23.23655 ], [ -46.589858, -23.236681 ], [ -46.588294, -23.234787 ], [ -46.585217, -23.234149 ], [ -46.583386, -23.232775 ], [ -46.575295, -23.232543 ], [ -46.568253, -23.233735 ], [ -46.566764, -23.235865 ], [ -46.563602, -23.236548 ], [ -46.558956, -23.235209 ], [ -46.553512, -23.236246 ], [ -46.552267, -23.23697 ], [ -46.551501, -23.239339 ], [ -46.546229, -23.241379 ], [ -46.539578, -23.239766 ], [ -46.532758, -23.240398 ], [ -46.529002, -23.241544 ], [ -46.5238, -23.238073 ], [ -46.520164, -23.237444 ], [ -46.516779, -23.238513 ], [ -46.5153801, -23.2375019 ], [ -46.51459, -23.241982 ], [ -46.515324, -23.244159 ], [ -46.513504, -23.247342 ], [ -46.513973, -23.249211 ], [ -46.5213664, -23.2508175 ], [ -46.5248427, -23.2563745 ], [ -46.5328667, -23.2583319 ], [ -46.5394092, -23.2617499 ], [ -46.5417767, -23.2638802 ], [ -46.5439631, -23.2638436 ], [ -46.5452852, -23.2659281 ], [ -46.5529984, -23.2660598 ], [ -46.5551815, -23.268706 ], [ -46.5577926, -23.2688433 ], [ -46.5597129, -23.2675 ], [ -46.5601126, -23.268093 ], [ -46.5630215, -23.2680557 ], [ -46.5611806, -23.2727122 ], [ -46.5606638, -23.2783134 ], [ -46.5578522, -23.2827349 ], [ -46.557531, -23.2856161 ], [ -46.5644627, -23.2812145 ], [ -46.571485, -23.2801649 ], [ -46.5723044, -23.2794638 ], [ -46.574307, -23.2804233 ], [ -46.5841816, -23.2800132 ] ] ] ] } }
]
}
