{
"type": "FeatureCollection",
"name": "ER_REGIAO_Nova Aliança_Nova Aliança",
"crs": { "type": "name", "properties": { "name": "urn:ogc:def:crs:EPSG::4674" } },
"xy_coordinate_resolution": 1e-15,
"features": [
{ "type": "Feature", "properties": { "fid": 550, "NM_REGIAO": "Sudeste", "NM_UF": "São Paulo", "NM_MUN": "Nova Aliança", "NM_DIST": "Nova Aliança", "CD_SUBDIST": "35328010500", "ER_REGIAO": "Nova Aliança_Nova Aliança", "ER_REGIAO_CIDADE": "Nova Aliança_Nova Aliança_São José do Rio Preto" }, "geometry": { "type": "MultiPolygon", "coordinates": [ [ [ [ -49.5249081, -21.0493913 ], [ -49.5267926, -21.0439906 ], [ -49.5300148, -21.0479538 ], [ -49.534237, -21.0491201 ], [ -49.5400874, -21.0546935 ], [ -49.5483466, -21.0554169 ], [ -49.5520427, -21.0593931 ], [ -49.5589893, -21.0614425 ], [ -49.5619257, -21.0616182 ], [ -49.563078, -21.0599664 ], [ -49.5635976, -21.057916 ], [ -49.5625579, -21.0577064 ], [ -49.5624377, -21.0563092 ], [ -49.5637875, -21.0534462 ], [ -49.5666233, -21.0528883 ], [ -49.567279, -21.0493421 ], [ -49.5654779, -21.0457833 ], [ -49.5639806, -21.044571 ], [ -49.563231, -21.0389338 ], [ -49.5612458, -21.0393405 ], [ -49.5599837, -21.0386966 ], [ -49.5604243, -21.0348772 ], [ -49.5580609, -21.0319989 ], [ -49.5588856, -21.0271572 ], [ -49.557438, -21.0246665 ], [ -49.5554855, -21.0221707 ], [ -49.5516457, -21.020198 ], [ -49.5477386, -21.0201893 ], [ -49.5466764, -21.0178279 ], [ -49.5444645, -21.0164869 ], [ -49.5439409, -21.0145421 ], [ -49.5427487, -21.0136562 ], [ -49.5377023, -21.0123423 ], [ -49.5376832, -21.010545 ], [ -49.5351075, -21.0081228 ], [ -49.5374607, -21.0052317 ], [ -49.534601, -21.0022308 ], [ -49.534903, -21.0000762 ], [ -49.5328743, -21.0002529 ], [ -49.5297592, -20.9989907 ], [ -49.5293346, -20.997573 ], [ -49.5304932, -20.9943685 ], [ -49.5295121, -20.9881134 ], [ -49.52891, -20.9870827 ], [ -49.5242663, -20.9848205 ], [ -49.5245668, -20.9786542 ], [ -49.52187, -20.9775605 ], [ -49.522649, -20.9751452 ], [ -49.5221074, -20.9696554 ], [ -49.5186221, -20.9669293 ], [ -49.5153845, -20.9630199 ], [ -49.5131433, -20.9590144 ], [ -49.5129026, -20.9568545 ], [ -49.5111986, -20.9554145 ], [ -49.5119638, -20.9525881 ], [ -49.510927, -20.9496143 ], [ -49.509787, -20.9490663 ], [ -49.5103197, -20.9469533 ], [ -49.5092195, -20.9457646 ], [ -49.5071377, -20.9461929 ], [ -49.5064916, -20.944991 ], [ -49.500819, -20.9425889 ], [ -49.4975071, -20.9423292 ], [ -49.4919306, -20.9458908 ], [ -49.4897124, -20.9459278 ], [ -49.4871577, -20.9476933 ], [ -49.4834877, -20.9483173 ], [ -49.4817253, -20.9502757 ], [ -49.4802041, -20.9544807 ], [ -49.4763304, -20.9569401 ], [ -49.4674307, -20.9683483 ], [ -49.4580743, -20.9728603 ], [ -49.455676, -20.9747961 ], [ -49.4524396, -20.9755002 ], [ -49.4495078, -20.9817288 ], [ -49.4459253, -20.9852367 ], [ -49.4475947, -20.986276 ], [ -49.4480653, -20.987541 ], [ -49.4477128, -20.9885976 ], [ -49.4485724, -20.9905488 ], [ -49.4478094, -20.9921964 ], [ -49.4488904, -20.9926875 ], [ -49.4491814, -20.9954606 ], [ -49.4513551, -20.9964701 ], [ -49.4561522, -21.0011313 ], [ -49.4561603, -21.0075408 ], [ -49.4593143, -21.0170349 ], [ -49.4589736, -21.0224602 ], [ -49.4604748, -21.0249692 ], [ -49.4598293, -21.0259756 ], [ -49.4597679, -21.0331043 ], [ -49.4587331, -21.0342517 ], [ -49.4635422, -21.039808 ], [ -49.4617352, -21.0441022 ], [ -49.4618456, -21.0499784 ], [ -49.4604598, -21.0537396 ], [ -49.4618338, -21.0569264 ], [ -49.4607723, -21.0596743 ], [ -49.4622366, -21.0613461 ], [ -49.4609159, -21.065273 ], [ -49.4628139, -21.0670906 ], [ -49.4641969, -21.0701407 ], [ -49.4622867, -21.0773057 ], [ -49.4627717, -21.0809536 ], [ -49.4606916, -21.0818614 ], [ -49.4596987, -21.0838317 ], [ -49.4646705, -21.0848708 ], [ -49.4667441, -21.0844314 ], [ -49.4706629, -21.0794095 ], [ -49.4752675, -21.0761709 ], [ -49.479106, -21.0699643 ], [ -49.4778256, -21.0624655 ], [ -49.4787098, -21.0603201 ], [ -49.4917654, -21.06188 ], [ -49.497551, -21.0607901 ], [ -49.5010789, -21.0616454 ], [ -49.5090467, -21.0581155 ], [ -49.5126736, -21.0582046 ], [ -49.514693, -21.0603886 ], [ -49.5245315, -21.0590705 ], [ -49.5269016, -21.0559112 ], [ -49.5249081, -21.0493913 ] ] ] ] } }
]
}
