{
"type": "FeatureCollection",
"name": "ER_REGIAO_Teodoro Sampaio_Teodoro Sampaio",
"crs": { "type": "name", "properties": { "name": "urn:ogc:def:crs:EPSG::4674" } },
"xy_coordinate_resolution": 1e-15,
"features": [
{ "type": "Feature", "properties": { "fid": 993, "NM_REGIAO": "Sudeste", "NM_UF": "São Paulo", "NM_MUN": "Teodoro Sampaio", "NM_DIST": "Teodoro Sampaio", "CD_SUBDIST": "35543000500", "ER_REGIAO": "Teodoro Sampaio_Teodoro Sampaio", "ER_REGIAO_CIDADE": "Teodoro Sampaio_Teodoro Sampaio_Presidente Prudente" }, "geometry": { "type": "MultiPolygon", "coordinates": [ [ [ [ -52.4120827, -22.3167764 ], [ -52.4113428, -22.3177486 ], [ -52.4074143, -22.3183799 ], [ -52.4000143, -22.3181049 ], [ -52.3969093, -22.3214074 ], [ -52.3897921, -22.3260883 ], [ -52.3880232, -22.3285571 ], [ -52.3793159, -22.3282238 ], [ -52.3762063, -22.3297672 ], [ -52.3730438, -22.3291658 ], [ -52.3662741, -22.3308275 ], [ -52.3640929, -22.3383908 ], [ -52.3542043, -22.3471697 ], [ -52.353557, -22.3563995 ], [ -52.3525531, -22.3587095 ], [ -52.3432087, -22.3667597 ], [ -52.3387717, -22.3717322 ], [ -52.3358168, -22.3721425 ], [ -52.3294603, -22.3704702 ], [ -52.3258596, -22.3726611 ], [ -52.3210993, -22.3777516 ], [ -52.3143578, -22.3790235 ], [ -52.310329, -22.3815824 ], [ -52.3025349, -22.3812778 ], [ -52.2934613, -22.3796613 ], [ -52.2860033, -22.3796736 ], [ -52.2819934, -22.3803317 ], [ -52.2789745, -22.3821268 ], [ -52.2739264, -22.3834173 ], [ -52.2701492, -22.3862919 ], [ -52.2653841, -22.3868223 ], [ -52.2613658, -22.3863332 ], [ -52.2596644, -22.3878153 ], [ -52.2549688, -22.3891478 ], [ -52.251854, -22.3922079 ], [ -52.2481818, -22.3933887 ], [ -52.2466582, -22.3936006 ], [ -52.2454053, -22.3921372 ], [ -52.2431093, -22.391381 ], [ -52.2387728, -22.3930979 ], [ -52.2345976, -22.3922597 ], [ -52.2317493, -22.3936261 ], [ -52.2244023, -22.399594 ], [ -52.219981, -22.4003046 ], [ -52.2175636, -22.4027461 ], [ -52.2176487, -22.4050589 ], [ -52.21315, -22.4081544 ], [ -52.2095312, -22.4126118 ], [ -52.2060937, -22.4181319 ], [ -52.2048412, -22.4251213 ], [ -52.2030623, -22.429293 ], [ -52.1991276, -22.4339145 ], [ -52.1989066, -22.4384663 ], [ -52.193801, -22.4444982 ], [ -52.1920711, -22.4514316 ], [ -52.1881875, -22.4589944 ], [ -52.1877923, -22.4618173 ], [ -52.1856198, -22.4640488 ], [ -52.1845353, -22.4673351 ], [ -52.182871, -22.4688059 ], [ -52.183943, -22.4744555 ], [ -52.1812304, -22.4804406 ], [ -52.1793026, -22.481392 ], [ -52.1792835, -22.4822602 ], [ -52.175558, -22.48401 ], [ -52.1756029, -22.4848843 ], [ -52.1736022, -22.4870788 ], [ -52.1729152, -22.4902576 ], [ -52.1696636, -22.4932664 ], [ -52.1670525, -22.497299 ], [ -52.1655275, -22.497989 ], [ -52.1621624, -22.5035787 ], [ -52.1578625, -22.5051674 ], [ -52.1561018, -22.5082918 ], [ -52.1554648, -22.5078759 ], [ -52.1527895, -22.5098806 ], [ -52.1521759, -22.5094425 ], [ -52.1491638, -22.5107036 ], [ -52.1486812, -22.5113543 ], [ -52.1493069, -22.5118252 ], [ -52.1465851, -22.5134401 ], [ -52.1454869, -22.5153408 ], [ -52.1413771, -22.5161891 ], [ -52.1415718, -22.5168934 ], [ -52.1402467, -22.5183293 ], [ -52.1399297, -22.5220572 ], [ -52.1383751, -22.5224328 ], [ -52.1355542, -22.5269146 ], [ -52.1420979, -22.5364762 ], [ -52.1446088, -22.542611 ], [ -52.1487619, -22.5492535 ], [ -52.1519563, -22.5685566 ], [ -52.1568725, -22.5773141 ], [ -52.1609654, -22.5894509 ], [ -52.1625557, -22.6056265 ], [ -52.1596527, -22.621608 ], [ -52.156854, -22.6286819 ], [ -52.1557117, -22.6413778 ], [ -52.156678, -22.6447189 ], [ -52.1668496, -22.6503257 ], [ -52.1827711, -22.6553815 ], [ -52.1971818, -22.6589303 ], [ -52.2054645, -22.663924 ], [ -52.2135732, -22.6719584 ], [ -52.2185191, -22.6747857 ], [ -52.2225772, -22.6755354 ], [ -52.2243781, -22.6745131 ], [ -52.2273763, -22.670884 ], [ -52.2285462, -22.6646141 ], [ -52.228791, -22.6489907 ], [ -52.2280991, -22.6425169 ], [ -52.2308583, -22.6335202 ], [ -52.2350775, -22.6256796 ], [ -52.240132, -22.6198836 ], [ -52.2504131, -22.6154264 ], [ -52.2606524, -22.6164052 ], [ -52.2786947, -22.6203902 ], [ -52.3004356, -22.635445 ], [ -52.3053745, -22.636817 ], [ -52.3131364, -22.6365124 ], [ -52.3269348, -22.6331345 ], [ -52.3354125, -22.6328254 ], [ -52.3419092, -22.6311169 ], [ -52.3587419, -22.6294186 ], [ -52.3686111, -22.6293368 ], [ -52.3804908, -22.6265448 ], [ -52.4053767, -22.6170656 ], [ -52.4127006, -22.6134477 ], [ -52.4265043, -22.6089108 ], [ -52.4330458, -22.6071665 ], [ -52.4376297, -22.6068487 ], [ -52.4456925, -22.6082796 ], [ -52.4448247, -22.605609 ], [ -52.4459724, -22.6023231 ], [ -52.445216, -22.600215 ], [ -52.4461448, -22.5985737 ], [ -52.4452914, -22.5960999 ], [ -52.4473215, -22.5915595 ], [ -52.450217, -22.5899787 ], [ -52.4514121, -22.5881621 ], [ -52.4515995, -22.5813234 ], [ -52.4523216, -22.5794408 ], [ -52.4516746, -22.5754695 ], [ -52.4554911, -22.5699982 ], [ -52.4513841, -22.5623048 ], [ -52.4506874, -22.5553889 ], [ -52.4515562, -22.5513284 ], [ -52.4526383, -22.5481961 ], [ -52.4572194, -22.5420803 ], [ -52.4633652, -22.5373822 ], [ -52.4659955, -22.5333636 ], [ -52.4655522, -22.5279155 ], [ -52.4605387, -22.5149602 ], [ -52.4594005, -22.5092635 ], [ -52.4597986, -22.5077217 ], [ -52.462869, -22.5045532 ], [ -52.4652591, -22.5029268 ], [ -52.4679916, -22.5027801 ], [ -52.4684707, -22.4981117 ], [ -52.4708226, -22.4914434 ], [ -52.4681906, -22.4744283 ], [ -52.4683625, -22.4666586 ], [ -52.470587, -22.4592739 ], [ -52.4744259, -22.4506666 ], [ -52.4790497, -22.4439707 ], [ -52.4790394, -22.4426886 ], [ -52.4682123, -22.4279688 ], [ -52.4651187, -22.4202519 ], [ -52.4652964, -22.4178747 ], [ -52.4682331, -22.4157105 ], [ -52.4861607, -22.4113174 ], [ -52.4931773, -22.4051011 ], [ -52.5027542, -22.4005206 ], [ -52.5080702, -22.3917283 ], [ -52.5119049, -22.3877496 ], [ -52.5135353, -22.3873059 ], [ -52.5164492, -22.3877082 ], [ -52.5269189, -22.3941554 ], [ -52.5289364, -22.3918101 ], [ -52.5337277, -22.3910979 ], [ -52.5441262, -22.396273 ], [ -52.5495109, -22.3937979 ], [ -52.5563214, -22.3924026 ], [ -52.5625896, -22.3961438 ], [ -52.5818028, -22.4130415 ], [ -52.585172, -22.4128661 ], [ -52.5953981, -22.406935 ], [ -52.5982999, -22.4061918 ], [ -52.6030591, -22.402683 ], [ -52.6190084, -22.4002296 ], [ -52.6238661, -22.3980825 ], [ -52.629557, -22.3969147 ], [ -52.6372035, -22.3889988 ], [ -52.6423664, -22.3853558 ], [ -52.6449321, -22.3818317 ], [ -52.6458949, -22.378482 ], [ -52.6477528, -22.3757365 ], [ -52.6481757, -22.372468 ], [ -52.6506298, -22.3681917 ], [ -52.6518886, -22.3602813 ], [ -52.6538883, -22.3566927 ], [ -52.6538108, -22.3509288 ], [ -52.6556021, -22.3450363 ], [ -52.6544647, -22.3395102 ], [ -52.6525957, -22.3172216 ], [ -52.6515448, -22.3134524 ], [ -52.6553386, -22.3031441 ], [ -52.6458005, -22.2982831 ], [ -52.6400356, -22.2929882 ], [ -52.6333804, -22.2849861 ], [ -52.6233564, -22.2790156 ], [ -52.6019914, -22.2719514 ], [ -52.5975207, -22.268788 ], [ -52.5869392, -22.2567505 ], [ -52.5791872, -22.2519528 ], [ -52.5710191, -22.2484277 ], [ -52.5420795, -22.2402663 ], [ -52.5232339, -22.2290219 ], [ -52.5123885, -22.2255807 ], [ -52.5034356, -22.2253849 ], [ -52.49877, -22.223548 ], [ -52.4898423, -22.2182948 ], [ -52.4881896, -22.2229476 ], [ -52.4890003, -22.2265096 ], [ -52.4909718, -22.229611 ], [ -52.496179, -22.2341251 ], [ -52.4961906, -22.2352686 ], [ -52.4923096, -22.2374748 ], [ -52.4910188, -22.2371586 ], [ -52.4895439, -22.2345207 ], [ -52.4864223, -22.2344457 ], [ -52.4803214, -22.2363429 ], [ -52.4794211, -22.23823 ], [ -52.4754527, -22.2407191 ], [ -52.4710813, -22.2420151 ], [ -52.4663473, -22.2454789 ], [ -52.465729, -22.2470242 ], [ -52.4641644, -22.24718 ], [ -52.4630554, -22.2487893 ], [ -52.4591688, -22.2511071 ], [ -52.4566615, -22.2539714 ], [ -52.4534737, -22.255271 ], [ -52.4502184, -22.2585534 ], [ -52.4460429, -22.2609855 ], [ -52.441293, -22.2679523 ], [ -52.4359088, -22.272318 ], [ -52.4297351, -22.2821877 ], [ -52.4266924, -22.2837039 ], [ -52.4261423, -22.2862039 ], [ -52.4233991, -22.2900847 ], [ -52.4223032, -22.295119 ], [ -52.4195946, -22.3010684 ], [ -52.4157281, -22.3042483 ], [ -52.4148713, -22.3073294 ], [ -52.4118868, -22.3104176 ], [ -52.4120827, -22.3167764 ] ] ] ] } }
]
}
