{
"type": "FeatureCollection",
"name": "ER_REGIAO_Capital Leste II_Cidade Lider",
"crs": { "type": "name", "properties": { "name": "urn:ogc:def:crs:EPSG::4674" } },
"xy_coordinate_resolution": 1e-15,
"features": [
{ "type": "Feature", "properties": { "fid": 858, "NM_REGIAO": "Sudeste", "NM_UF": "São Paulo", "NM_MUN": "São Paulo", "NM_DIST": "Cidade Lider", "CD_SUBDIST": "35503082400", "ER_REGIAO": "Capital Leste II_Cidade Lider", "ER_REGIAO_CIDADE": "Capital Leste II_Cidade Lider" }, "geometry": { "type": "MultiPolygon", "coordinates": [ [ [ [ -46.494504, -23.57893 ], [ -46.498898, -23.578397 ], [ -46.502044, -23.576209 ], [ -46.503916, -23.573411 ], [ -46.504727, -23.568577 ], [ -46.50877, -23.563247 ], [ -46.517149, -23.555133 ], [ -46.514083, -23.553893 ], [ -46.511178, -23.550466 ], [ -46.508377, -23.550195 ], [ -46.505764, -23.548842 ], [ -46.498788, -23.549909 ], [ -46.492518, -23.553351 ], [ -46.484426, -23.554778 ], [ -46.47958, -23.553238 ], [ -46.477552, -23.548743 ], [ -46.473089, -23.548785 ], [ -46.471742, -23.550335 ], [ -46.463568, -23.548801 ], [ -46.46283, -23.549561 ], [ -46.466296, -23.557366 ], [ -46.468533, -23.557658 ], [ -46.471771, -23.560577 ], [ -46.474381, -23.560823 ], [ -46.475024, -23.568405 ], [ -46.479659499999968, -23.570026299999938 ], [ -46.481868, -23.569005 ], [ -46.484542, -23.5727 ], [ -46.485029, -23.576131 ], [ -46.486662, -23.577629 ], [ -46.487877, -23.580399 ], [ -46.490973, -23.582254 ], [ -46.494504, -23.57893 ] ] ] ] } }
]
}
