{
"type": "FeatureCollection",
"name": "ER_REGIAO_Cândido Mota_Cândido Mota",
"crs": { "type": "name", "properties": { "name": "urn:ogc:def:crs:EPSG::4674" } },
"xy_coordinate_resolution": 1e-15,
"features": [
{ "type": "Feature", "properties": { "fid": 166, "NM_REGIAO": "Sudeste", "NM_UF": "São Paulo", "NM_MUN": "Cândido Mota", "NM_DIST": "Cândido Mota", "CD_SUBDIST": "35100050500", "ER_REGIAO": "Cândido Mota_Cândido Mota", "ER_REGIAO_CIDADE": "Cândido Mota_Cândido Mota_Marília" }, "geometry": { "type": "MultiPolygon", "coordinates": [ [ [ [ -50.3695096, -22.8512518 ], [ -50.3752807, -22.8463597 ], [ -50.3781261, -22.8453243 ], [ -50.3853686, -22.8456712 ], [ -50.3877137, -22.8473455 ], [ -50.3898732, -22.8472142 ], [ -50.4009401, -22.8364246 ], [ -50.4020622, -22.8364099 ], [ -50.4036759, -22.8369598 ], [ -50.4307083, -22.8614584 ], [ -50.4351823, -22.8596576 ], [ -50.4351325, -22.8560422 ], [ -50.437679, -22.8508201 ], [ -50.4379233, -22.8484431 ], [ -50.4406263, -22.8462932 ], [ -50.4431254, -22.842502 ], [ -50.4467558, -22.8395727 ], [ -50.4501158, -22.846539 ], [ -50.4548132, -22.8473942 ], [ -50.4566547, -22.851116 ], [ -50.4598255, -22.8522907 ], [ -50.4627325, -22.8553477 ], [ -50.465322, -22.856728 ], [ -50.468056, -22.8561195 ], [ -50.4787918, -22.8583861 ], [ -50.4766479, -22.855786 ], [ -50.4761205, -22.8504822 ], [ -50.4825958, -22.8324593 ], [ -50.4885422, -22.8279396 ], [ -50.4966589, -22.8171981 ], [ -50.4996058, -22.8144706 ], [ -50.5060758, -22.7977383 ], [ -50.5083229, -22.7940484 ], [ -50.5143461, -22.7898088 ], [ -50.5220222, -22.7862146 ], [ -50.5214131, -22.7823117 ], [ -50.5186061, -22.7767367 ], [ -50.5191179, -22.7699679 ], [ -50.5181246, -22.7661612 ], [ -50.5078415, -22.7543647 ], [ -50.507197, -22.7480405 ], [ -50.5031692, -22.7372911 ], [ -50.5034649, -22.7343982 ], [ -50.5090512, -22.7226818 ], [ -50.5071155, -22.7124895 ], [ -50.5087678, -22.704317 ], [ -50.5064405, -22.6964753 ], [ -50.5046136, -22.6942783 ], [ -50.5014742, -22.6934703 ], [ -50.4985487, -22.6941649 ], [ -50.4949874, -22.6989542 ], [ -50.4934706, -22.699757 ], [ -50.4906144, -22.6984148 ], [ -50.4892702, -22.6967666 ], [ -50.4872717, -22.6962656 ], [ -50.4815599, -22.6960492 ], [ -50.4726801, -22.6984963 ], [ -50.4657364, -22.6982532 ], [ -50.4603315, -22.6968488 ], [ -50.4539486, -22.6970946 ], [ -50.4511074, -22.6982076 ], [ -50.4492808, -22.7022541 ], [ -50.4479166, -22.7033214 ], [ -50.4445046, -22.7035721 ], [ -50.4403184, -22.7051078 ], [ -50.4359379, -22.705198 ], [ -50.4334818, -22.7062417 ], [ -50.4350163, -22.7088667 ], [ -50.4349748, -22.7103167 ], [ -50.4337126, -22.7115349 ], [ -50.4318797, -22.7117782 ], [ -50.4261952, -22.7094773 ], [ -50.4199067, -22.7047972 ], [ -50.4120069, -22.7035385 ], [ -50.4107212, -22.702479 ], [ -50.4057547, -22.70264 ], [ -50.4020974, -22.7046365 ], [ -50.3678771, -22.6880742 ], [ -50.3704025, -22.7029249 ], [ -50.3681923, -22.7056292 ], [ -50.3682646, -22.70652 ], [ -50.3658886, -22.7081162 ], [ -50.3598063, -22.7079393 ], [ -50.358088, -22.7096623 ], [ -50.354065, -22.7112777 ], [ -50.351009, -22.7148066 ], [ -50.3475431, -22.7154764 ], [ -50.3458319, -22.7172405 ], [ -50.3456215, -22.7192657 ], [ -50.343863, -22.7207667 ], [ -50.3414983, -22.7204981 ], [ -50.34042, -22.7214978 ], [ -50.3394365, -22.7241317 ], [ -50.3397748, -22.7258365 ], [ -50.339055, -22.7263539 ], [ -50.3391284, -22.7271103 ], [ -50.3402652, -22.7274582 ], [ -50.3403707, -22.7292619 ], [ -50.3389316, -22.7308758 ], [ -50.3422897, -22.7320644 ], [ -50.3423022, -22.7339349 ], [ -50.3401529, -22.7347575 ], [ -50.3417972, -22.7378287 ], [ -50.3415689, -22.7421598 ], [ -50.3392082, -22.7443214 ], [ -50.3388422, -22.7456989 ], [ -50.3367037, -22.7468995 ], [ -50.3374052, -22.7495109 ], [ -50.3322367, -22.7548677 ], [ -50.3318569, -22.7585091 ], [ -50.3311213, -22.7587375 ], [ -50.3310842, -22.759907 ], [ -50.3300365, -22.7600029 ], [ -50.3290468, -22.7632092 ], [ -50.3276332, -22.763294 ], [ -50.3280583, -22.764953 ], [ -50.3274625, -22.7660556 ], [ -50.3259885, -22.7655339 ], [ -50.3251667, -22.766506 ], [ -50.3232925, -22.7660743 ], [ -50.3241065, -22.7680953 ], [ -50.3230315, -22.7690556 ], [ -50.3229291, -22.771618 ], [ -50.3249232, -22.7717877 ], [ -50.3242126, -22.7728113 ], [ -50.3255963, -22.7729046 ], [ -50.3247806, -22.7753852 ], [ -50.3256017, -22.7758272 ], [ -50.3262701, -22.7751255 ], [ -50.3275458, -22.7776405 ], [ -50.3268156, -22.7783444 ], [ -50.3271326, -22.7828901 ], [ -50.3294357, -22.7831712 ], [ -50.3295621, -22.7843942 ], [ -50.3242711, -22.787946 ], [ -50.3237485, -22.7872533 ], [ -50.3200614, -22.7895191 ], [ -50.3188188, -22.7891326 ], [ -50.31716, -22.7929353 ], [ -50.3154882, -22.7936254 ], [ -50.3289683, -22.8053666 ], [ -50.3395625, -22.8418936 ], [ -50.3381022, -22.844778 ], [ -50.3372912, -22.8493283 ], [ -50.3345016, -22.855293 ], [ -50.3330161, -22.865816 ], [ -50.3319092, -22.8676525 ], [ -50.3287889, -22.870045 ], [ -50.3280831, -22.8721486 ], [ -50.3283838, -22.8745595 ], [ -50.3256429, -22.8795782 ], [ -50.3254647, -22.8816697 ], [ -50.3264658, -22.8833744 ], [ -50.3281945, -22.8836154 ], [ -50.3327004, -22.8803293 ], [ -50.3346424, -22.8815798 ], [ -50.333026, -22.8831077 ], [ -50.3338341, -22.8839661 ], [ -50.3367631, -22.8833864 ], [ -50.337032, -22.8848564 ], [ -50.3398344, -22.8859862 ], [ -50.3390122, -22.886392 ], [ -50.3397809, -22.8872576 ], [ -50.3369227, -22.8878742 ], [ -50.3365822, -22.8895973 ], [ -50.3357382, -22.8897766 ], [ -50.3375042, -22.8899374 ], [ -50.3411714, -22.8949513 ], [ -50.3411302, -22.8985685 ], [ -50.3441357, -22.9001888 ], [ -50.3432104, -22.9023335 ], [ -50.3422193, -22.9017375 ], [ -50.3416522, -22.9031894 ], [ -50.341517, -22.9017857 ], [ -50.3407631, -22.9027253 ], [ -50.3416332, -22.903869 ], [ -50.3414308, -22.9049424 ], [ -50.3429461, -22.9064249 ], [ -50.3439498, -22.9060344 ], [ -50.3441965, -22.9085192 ], [ -50.3463945, -22.9094865 ], [ -50.3462481, -22.9103994 ], [ -50.3450938, -22.9109281 ], [ -50.3462261, -22.9117075 ], [ -50.3445372, -22.9148261 ], [ -50.3448355, -22.9170658 ], [ -50.343968, -22.918648 ], [ -50.3454547, -22.9220914 ], [ -50.3459757, -22.9269474 ], [ -50.3470275, -22.9285973 ], [ -50.3541305, -22.9238739 ], [ -50.358605, -22.9164949 ], [ -50.3646293, -22.9139672 ], [ -50.3790746, -22.9054056 ], [ -50.3816954, -22.9054792 ], [ -50.3871428, -22.9078316 ], [ -50.3960439, -22.907314 ], [ -50.3952478, -22.9033979 ], [ -50.3935391, -22.8999421 ], [ -50.3794044, -22.8950711 ], [ -50.3765015, -22.8921015 ], [ -50.3694838, -22.8892924 ], [ -50.3667151, -22.8848279 ], [ -50.3646254, -22.8798379 ], [ -50.3645123, -22.8737694 ], [ -50.3670844, -22.8647423 ], [ -50.3702743, -22.8580124 ], [ -50.3695096, -22.8512518 ] ] ] ] } }
]
}
