{
"type": "FeatureCollection",
"name": "ER_REGIAO_Nova Campina_Itaoca de Cima",
"crs": { "type": "name", "properties": { "name": "urn:ogc:def:crs:EPSG::4674" } },
"xy_coordinate_resolution": 1e-15,
"features": [
{ "type": "Feature", "properties": { "fid": 553, "NM_REGIAO": "Sudeste", "NM_UF": "São Paulo", "NM_MUN": "Nova Campina", "NM_DIST": "Itaoca de Cima", "CD_SUBDIST": "35328271500", "ER_REGIAO": "Nova Campina_Itaoca de Cima", "ER_REGIAO_CIDADE": "Nova Campina_Itaoca de Cima_Sudoeste Paulista" }, "geometry": { "type": "MultiPolygon", "coordinates": [ [ [ [ -48.9775081, -24.2179192 ], [ -48.9759429, -24.2242884 ], [ -48.9776755, -24.2270391 ], [ -48.9776821, -24.2287358 ], [ -48.9761161, -24.2346412 ], [ -48.9736362, -24.2395468 ], [ -48.9711889, -24.2423407 ], [ -48.9678968, -24.2445769 ], [ -48.9625038, -24.2431692 ], [ -48.9611827, -24.2444253 ], [ -48.9581505, -24.2438622 ], [ -48.9539704, -24.2478419 ], [ -48.9499153, -24.2498756 ], [ -48.9497298, -24.2509017 ], [ -48.9458782, -24.2523253 ], [ -48.9434479, -24.2520598 ], [ -48.940087, -24.2535316 ], [ -48.9426467, -24.2563656 ], [ -48.9461455, -24.262839 ], [ -48.9457285, -24.2678131 ], [ -48.9465173, -24.2692692 ], [ -48.9537084, -24.2751202 ], [ -48.958257, -24.2842245 ], [ -48.9628451, -24.2888068 ], [ -48.9645952, -24.2919327 ], [ -48.9705592, -24.2955588 ], [ -48.9794014, -24.2971688 ], [ -48.9812614, -24.2989429 ], [ -48.9827324, -24.301385 ], [ -48.9823405, -24.3055514 ], [ -48.9770362, -24.307845 ], [ -48.9793459, -24.3107929 ], [ -48.9809868, -24.3119276 ], [ -48.9841446, -24.3113473 ], [ -48.9935905, -24.313153 ], [ -48.9985781, -24.3099362 ], [ -48.9999278, -24.3015793 ], [ -49.0059234, -24.2947103 ], [ -49.0103243, -24.2941601 ], [ -49.011469, -24.2932691 ], [ -49.0119062, -24.2910915 ], [ -49.017576, -24.2896722 ], [ -49.0191116, -24.2879582 ], [ -49.0194093, -24.2814289 ], [ -49.0223062, -24.2798052 ], [ -49.02214, -24.2756356 ], [ -49.0247946, -24.2756196 ], [ -49.0247123, -24.2706844 ], [ -49.0258793, -24.2696941 ], [ -49.0271273, -24.2665521 ], [ -49.0322331, -24.2650309 ], [ -49.0364652, -24.26185 ], [ -49.0369253, -24.2590174 ], [ -49.0380252, -24.2577707 ], [ -49.0413448, -24.2571897 ], [ -49.0454884, -24.2577458 ], [ -49.048059, -24.2553158 ], [ -49.0487036, -24.2525953 ], [ -49.0503285, -24.2505361 ], [ -49.0537419, -24.2496643 ], [ -49.0556029, -24.2454649 ], [ -49.0522461, -24.242406 ], [ -49.0517312, -24.2404031 ], [ -49.0505385, -24.2394641 ], [ -49.0493605, -24.2349566 ], [ -49.0474195, -24.2349903 ], [ -49.0449414, -24.230964 ], [ -49.0389073, -24.2302614 ], [ -49.0389851, -24.2314318 ], [ -49.0362958, -24.2330025 ], [ -49.0358661, -24.2344887 ], [ -49.0334991, -24.2339213 ], [ -49.0314766, -24.2321344 ], [ -49.0296468, -24.2270575 ], [ -49.0275983, -24.2263109 ], [ -49.0221161, -24.2196173 ], [ -49.0172636, -24.2186545 ], [ -49.0150744, -24.2161479 ], [ -49.0128334, -24.2166343 ], [ -49.0115406, -24.2153303 ], [ -49.0076364, -24.2138692 ], [ -49.0040804, -24.2140077 ], [ -49.0011652, -24.2128591 ], [ -48.9966622, -24.2077952 ], [ -48.9775081, -24.2179192 ] ] ] ] } }
]
}
