{
"type": "FeatureCollection",
"name": "ER_REGIAO_Potim",
"crs": { "type": "name", "properties": { "name": "urn:ogc:def:crs:EPSG::4674" } },
"xy_coordinate_resolution": 1e-15,
"features": [
{ "type": "Feature", "properties": { "fid": 680, "NM_REGIAO": "Sudeste", "NM_UF": "São Paulo", "NM_MUN": "Potim", "NM_DIST": "Potim", "CD_SUBDIST": "35407540500", "ER_REGIAO": "Potim", "ER_REGIAO_CIDADE": "Potim_Guaratinguetá" }, "geometry": { "type": "MultiPolygon", "coordinates": [ [ [ [ -45.237455699999941, -22.824305799999934 ], [ -45.252132199999949, -22.846064099999978 ], [ -45.248606799999948, -22.849010799999974 ], [ -45.247396399999957, -22.852276899999936 ], [ -45.248827699999936, -22.854589499999975 ], [ -45.252108199999952, -22.85725519999994 ], [ -45.253943, -22.857773899999927 ], [ -45.259305599999948, -22.856270599999959 ], [ -45.26620029999998, -22.849913799999968 ], [ -45.269749799999943, -22.849044399999968 ], [ -45.276149799999985, -22.850576599999954 ], [ -45.27973, -22.852743499999974 ], [ -45.286957799999982, -22.852011599999969 ], [ -45.295057399999962, -22.845136299999979 ], [ -45.298650399999985, -22.839450899999974 ], [ -45.302932299999952, -22.838037499999928 ], [ -45.311722, -22.838081699999975 ], [ -45.314508299999943, -22.840917 ], [ -45.316309699999977, -22.844437599999935 ], [ -45.321160099999986, -22.848164499999939 ], [ -45.321910399999979, -22.850142699999935 ], [ -45.321452399999941, -22.850911399999973 ], [ -45.318188499999962, -22.852210599999978 ], [ -45.316088599999944, -22.854222 ], [ -45.315790299999946, -22.855851499999972 ], [ -45.316506199999935, -22.856950499999982 ], [ -45.321491299999934, -22.855142499999943 ], [ -45.324716499999965, -22.855196099999944 ], [ -45.326316799999972, -22.849421099999972 ], [ -45.328740399999958, -22.84709909999998 ], [ -45.33163159999998, -22.845758799999942 ], [ -45.333855399999948, -22.845879699999955 ], [ -45.342257599999982, -22.851340499999935 ], [ -45.346144199999969, -22.851940099999979 ], [ -45.346037899999942, -22.849669899999981 ], [ -45.343022599999983, -22.840737099999956 ], [ -45.341098699999975, -22.839639499999976 ], [ -45.332369699999958, -22.838071499999955 ], [ -45.331353899999954, -22.836106 ], [ -45.335048, -22.833494599999938 ], [ -45.337634899999955, -22.828041199999973 ], [ -45.340205499999968, -22.829285199999958 ], [ -45.341759799999977, -22.828630699999962 ], [ -45.34041069999995, -22.823531199999934 ], [ -45.341787499999953, -22.820475699999974 ], [ -45.338912599999958, -22.818170299999963 ], [ -45.340949299999977, -22.816914299999951 ], [ -45.340668199999982, -22.815472899999975 ], [ -45.342183499999976, -22.812966899999935 ], [ -45.341430399999979, -22.811580399999968 ], [ -45.345223899999951, -22.812921499999959 ], [ -45.345579599999951, -22.815454199999976 ], [ -45.349258499999962, -22.815021799999954 ], [ -45.349899799999946, -22.814165899999978 ], [ -45.349878, -22.810145099999943 ], [ -45.351768399999969, -22.808064699999932 ], [ -45.351890499999968, -22.806292299999939 ], [ -45.353783299999975, -22.804619499999944 ], [ -45.356383899999969, -22.805389499999933 ], [ -45.360361699999942, -22.80353759999997 ], [ -45.36093569999997, -22.800738399999943 ], [ -45.364352699999984, -22.80053369999996 ], [ -45.363999, -22.798244199999942 ], [ -45.358004799999946, -22.794933199999946 ], [ -45.356477299999938, -22.793264299999976 ], [ -45.353369799999939, -22.79306639999993 ], [ -45.35042859999993, -22.790741699999955 ], [ -45.34676589999998, -22.790074899999979 ], [ -45.345994, -22.788641599999949 ], [ -45.343908899999974, -22.788692499999968 ], [ -45.342341199999964, -22.78978079999996 ], [ -45.338607699999955, -22.789167799999973 ], [ -45.335100899999929, -22.79163049999994 ], [ -45.333228899999938, -22.791934599999934 ], [ -45.331979299999944, -22.794474899999955 ], [ -45.329272799999956, -22.796942099999967 ], [ -45.321580599999947, -22.794117699999958 ], [ -45.316088599999944, -22.796721799999943 ], [ -45.311548399999936, -22.797067899999945 ], [ -45.305990599999973, -22.800879099999975 ], [ -45.301022899999964, -22.80274959999997 ], [ -45.29793959999995, -22.805648899999937 ], [ -45.298911499999974, -22.810817099999952 ], [ -45.29752579999996, -22.814446799999928 ], [ -45.302133799999979, -22.820874099999969 ], [ -45.301736, -22.822500799999943 ], [ -45.300383199999942, -22.823541 ], [ -45.299817899999937, -22.823149399999977 ], [ -45.299413199999947, -22.824242699999957 ], [ -45.295999299999949, -22.824721599999975 ], [ -45.294363399999952, -22.828231099999982 ], [ -45.291187199999968, -22.826537199999962 ], [ -45.269350899999949, -22.826211499999943 ], [ -45.266221499999972, -22.822915599999931 ], [ -45.258426699999973, -22.818983499999945 ], [ -45.25694969999995, -22.816278 ], [ -45.247621199999969, -22.817381799999964 ], [ -45.243563499999937, -22.81961309999997 ], [ -45.241896599999961, -22.819358399999942 ], [ -45.240868399999954, -22.819898899999941 ], [ -45.240352599999937, -22.822344599999951 ], [ -45.237455699999941, -22.824305799999934 ] ] ] ] } }
]
}
