{
"type": "FeatureCollection",
"name": "ER_REGIAO_Pradópolis",
"crs": { "type": "name", "properties": { "name": "urn:ogc:def:crs:EPSG::4674" } },
"xy_coordinate_resolution": 1e-15,
"features": [
{ "type": "Feature", "properties": { "fid": 683, "NM_REGIAO": "Sudeste", "NM_UF": "São Paulo", "NM_MUN": "Pradópolis", "NM_DIST": "Pradópolis", "CD_SUBDIST": "35409030500", "ER_REGIAO": "Pradópolis", "ER_REGIAO_CIDADE": "Pradópolis_Ribeirão Preto" }, "geometry": { "type": "MultiPolygon", "coordinates": [ [ [ [ -48.032294, -21.3661409 ], [ -48.0299092, -21.3796955 ], [ -48.0288506, -21.3805737 ], [ -48.0153566, -21.380946 ], [ -48.0152589, -21.3821344 ], [ -48.019131, -21.3865456 ], [ -48.0258673, -21.3907723 ], [ -48.0297184, -21.3953779 ], [ -48.0341722, -21.3971792 ], [ -48.0365685, -21.4003343 ], [ -48.0451581, -21.4182753 ], [ -48.0502238, -21.3888979 ], [ -48.0576721, -21.3964385 ], [ -48.0632727, -21.3967412 ], [ -48.0669968, -21.3989137 ], [ -48.068124, -21.4022756 ], [ -48.0771665, -21.4073736 ], [ -48.0849217, -21.4160649 ], [ -48.0916021, -21.4217262 ], [ -48.1004265, -21.4261013 ], [ -48.1043668, -21.4300531 ], [ -48.1089469, -21.4293382 ], [ -48.109369, -21.4270526 ], [ -48.112401, -21.4215062 ], [ -48.1162538, -21.4183707 ], [ -48.1188594, -21.4147534 ], [ -48.1240265, -21.4114216 ], [ -48.1256887, -21.4078783 ], [ -48.1258242, -21.3996609 ], [ -48.130127, -21.3893118 ], [ -48.1347775, -21.3825274 ], [ -48.1384017, -21.381519 ], [ -48.1400946, -21.3802293 ], [ -48.1464075, -21.3679835 ], [ -48.1463069, -21.3664658 ], [ -48.1443123, -21.3648517 ], [ -48.1413165, -21.3587314 ], [ -48.1439476, -21.3500662 ], [ -48.1426721, -21.3412103 ], [ -48.143955, -21.3344829 ], [ -48.1438635, -21.323965 ], [ -48.1404643, -21.3130868 ], [ -48.1409396, -21.3057979 ], [ -48.1393296, -21.2988028 ], [ -48.1383893, -21.2847387 ], [ -48.1356149, -21.2729817 ], [ -48.1360305, -21.268298 ], [ -48.1286265, -21.2722922 ], [ -48.1168467, -21.2740746 ], [ -48.1118725, -21.2721562 ], [ -48.1025485, -21.2653729 ], [ -48.0953389, -21.2622706 ], [ -48.0914634, -21.2625231 ], [ -48.0895066, -21.2647021 ], [ -48.0839062, -21.2668985 ], [ -48.0816991, -21.269109 ], [ -48.0799813, -21.2728939 ], [ -48.0784965, -21.2831695 ], [ -48.0767188, -21.2876916 ], [ -48.0746792, -21.2915776 ], [ -48.0697693, -21.2969731 ], [ -48.0681105, -21.3036088 ], [ -48.0667917, -21.3049578 ], [ -48.0613062, -21.3017919 ], [ -48.0566279, -21.3006856 ], [ -48.0464265, -21.3022247 ], [ -48.0394466, -21.3041826 ], [ -48.0257509, -21.3048774 ], [ -48.0209423, -21.3064858 ], [ -48.0095702, -21.306764 ], [ -48.0009959, -21.3036641 ], [ -47.99466, -21.3047 ], [ -48.002534, -21.308496 ], [ -48.004656, -21.311093 ], [ -48.007056, -21.318271 ], [ -48.009118, -21.321281 ], [ -48.015053, -21.326 ], [ -48.017546, -21.326417 ], [ -48.022206, -21.331666 ], [ -48.02519, -21.342156 ], [ -48.027864, -21.347026 ], [ -48.02842, -21.3538 ], [ -48.032822, -21.358409 ], [ -48.031754, -21.365126 ], [ -48.032294, -21.3661409 ] ] ] ] } }
]
}
