{
"type": "FeatureCollection",
"name": "ER_REGIAO_Pirajuí_Corredeira",
"crs": { "type": "name", "properties": { "name": "urn:ogc:def:crs:EPSG::4674" } },
"xy_coordinate_resolution": 1e-15,
"features": [
{ "type": "Feature", "properties": { "fid": 651, "NM_REGIAO": "Sudeste", "NM_UF": "São Paulo", "NM_MUN": "Pirajuí", "NM_DIST": "Corredeira", "CD_SUBDIST": "35389071000", "ER_REGIAO": "Pirajuí_Corredeira", "ER_REGIAO_CIDADE": "Pirajuí_Corredeira_Bauru" }, "geometry": { "type": "MultiPolygon", "coordinates": [ [ [ [ -49.6102407, -22.1090025 ], [ -49.6114497, -22.1106913 ], [ -49.6176673, -22.1135803 ], [ -49.6201321, -22.1136715 ], [ -49.6227178, -22.1126745 ], [ -49.6233492, -22.1075222 ], [ -49.6203001, -22.1009728 ], [ -49.6212727, -22.0965713 ], [ -49.6252502, -22.0912398 ], [ -49.6270629, -22.0858712 ], [ -49.6289533, -22.0849258 ], [ -49.6330446, -22.0807235 ], [ -49.6339, -22.0779085 ], [ -49.6336292, -22.0759691 ], [ -49.6371247, -22.0748635 ], [ -49.6399044, -22.069542 ], [ -49.6443232, -22.0685059 ], [ -49.6484846, -22.0685893 ], [ -49.6506914, -22.06768 ], [ -49.6515958, -22.0702697 ], [ -49.6548185, -22.0735689 ], [ -49.6562291, -22.0772198 ], [ -49.6617383, -22.0767879 ], [ -49.6636887, -22.0688156 ], [ -49.665015, -22.0673698 ], [ -49.6647409, -22.0659284 ], [ -49.665769, -22.0655311 ], [ -49.6647107, -22.0647446 ], [ -49.664861, -22.0630445 ], [ -49.6661296, -22.0617439 ], [ -49.6740717, -22.0606868 ], [ -49.6763057, -22.0589782 ], [ -49.6793944, -22.0588875 ], [ -49.6845033, -22.0573945 ], [ -49.686127, -22.0561956 ], [ -49.6879176, -22.0487606 ], [ -49.692548, -22.047601 ], [ -49.6955179, -22.0445012 ], [ -49.6929301, -22.040356 ], [ -49.6930722, -22.0362104 ], [ -49.6908732, -22.0311381 ], [ -49.6851215, -22.0310952 ], [ -49.6808226, -22.0325431 ], [ -49.6779565, -22.0289637 ], [ -49.6767382, -22.024384 ], [ -49.669398, -22.0201256 ], [ -49.6636554, -22.0194496 ], [ -49.6594236, -22.0175971 ], [ -49.6597985, -22.0149433 ], [ -49.6574106, -22.0110665 ], [ -49.6554751, -22.0095707 ], [ -49.6511413, -22.009302 ], [ -49.6445805, -22.013245 ], [ -49.641548, -22.0132964 ], [ -49.6293248, -22.0097184 ], [ -49.6255721, -22.00727 ], [ -49.6226234, -22.0026549 ], [ -49.6203211, -22.001942 ], [ -49.6152388, -22.0074416 ], [ -49.612429, -22.0077504 ], [ -49.613335, -22.0102605 ], [ -49.611036, -22.0125618 ], [ -49.611133, -22.0155817 ], [ -49.6088063, -22.0160048 ], [ -49.6090779, -22.0189495 ], [ -49.6078563, -22.0189325 ], [ -49.6085238, -22.0197628 ], [ -49.6038309, -22.021506 ], [ -49.6038497, -22.0224521 ], [ -49.6021212, -22.0226401 ], [ -49.6018372, -22.023721 ], [ -49.5974104, -22.0266735 ], [ -49.5969682, -22.0284323 ], [ -49.5960557, -22.0278093 ], [ -49.5956715, -22.030723 ], [ -49.5945956, -22.0307789 ], [ -49.5945975, -22.032042 ], [ -49.5938866, -22.0316858 ], [ -49.5922987, -22.0334352 ], [ -49.5906826, -22.0327678 ], [ -49.5891359, -22.033664 ], [ -49.5885264, -22.0332144 ], [ -49.5875219, -22.0346874 ], [ -49.5862712, -22.0345082 ], [ -49.5859706, -22.0360301 ], [ -49.5845303, -22.0368496 ], [ -49.5837458, -22.0356596 ], [ -49.5805523, -22.0397518 ], [ -49.5777071, -22.0404509 ], [ -49.5738606, -22.038629 ], [ -49.5709529, -22.0388937 ], [ -49.5708368, -22.0382629 ], [ -49.5676548, -22.0375295 ], [ -49.5655368, -22.0360017 ], [ -49.561742, -22.0378424 ], [ -49.5616532, -22.0387516 ], [ -49.5610482, -22.0383958 ], [ -49.5607545, -22.040186 ], [ -49.5591778, -22.0417664 ], [ -49.5563261, -22.0430384 ], [ -49.5527236, -22.0466423 ], [ -49.5492287, -22.0480107 ], [ -49.5455946, -22.0477971 ], [ -49.5417202, -22.0497836 ], [ -49.5403941, -22.0491122 ], [ -49.5400794, -22.0504738 ], [ -49.537628, -22.0496378 ], [ -49.5382616, -22.0503669 ], [ -49.5378469, -22.0510489 ], [ -49.536325, -22.0509674 ], [ -49.5345427, -22.0491824 ], [ -49.5277015, -22.0494599 ], [ -49.5225248, -22.0526595 ], [ -49.5211785, -22.0518897 ], [ -49.5187443, -22.0525614 ], [ -49.5174489, -22.0517372 ], [ -49.5151987, -22.0528872 ], [ -49.5131712, -22.0528894 ], [ -49.5107519, -22.0515456 ], [ -49.5084452, -22.0531795 ], [ -49.5087264, -22.0543286 ], [ -49.5076018, -22.0551862 ], [ -49.5039554, -22.0538505 ], [ -49.5008178, -22.0551879 ], [ -49.4995159, -22.0573169 ], [ -49.4973777, -22.0574064 ], [ -49.4969968, -22.060044 ], [ -49.4959866, -22.0601208 ], [ -49.4953341, -22.061772 ], [ -49.4939947, -22.0617124 ], [ -49.4946914, -22.0629014 ], [ -49.4942144, -22.0643631 ], [ -49.4924648, -22.065303 ], [ -49.4922554, -22.0674759 ], [ -49.4901116, -22.0688683 ], [ -49.490165, -22.0695429 ], [ -49.490941, -22.0694148 ], [ -49.4905366, -22.0722472 ], [ -49.487836, -22.076858 ], [ -49.4884011, -22.0792809 ], [ -49.4871325, -22.0813984 ], [ -49.4868808, -22.0839637 ], [ -49.4902971, -22.0854468 ], [ -49.491883, -22.0880702 ], [ -49.4960087, -22.0848127 ], [ -49.4997958, -22.0841054 ], [ -49.5035809, -22.0863055 ], [ -49.5074793, -22.0867837 ], [ -49.5101712, -22.090551 ], [ -49.5118354, -22.0955814 ], [ -49.5155418, -22.0979681 ], [ -49.5172869, -22.1009399 ], [ -49.5187631, -22.1015948 ], [ -49.5265265, -22.1013971 ], [ -49.5286187, -22.1020723 ], [ -49.5361568, -22.1081298 ], [ -49.5391246, -22.1124693 ], [ -49.5451149, -22.1112627 ], [ -49.5473674, -22.1146779 ], [ -49.5540502, -22.1169844 ], [ -49.5583777, -22.1219553 ], [ -49.5579769, -22.12811 ], [ -49.5564119, -22.1301761 ], [ -49.5624397, -22.1385463 ], [ -49.566189, -22.1396843 ], [ -49.5693832, -22.1394044 ], [ -49.5755911, -22.1314024 ], [ -49.5790283, -22.1286038 ], [ -49.5821017, -22.1264609 ], [ -49.5881058, -22.1249163 ], [ -49.5879443, -22.1217129 ], [ -49.5860951, -22.1183833 ], [ -49.584994, -22.1127457 ], [ -49.5923926, -22.1128468 ], [ -49.5960542, -22.109748 ], [ -49.6000909, -22.10828 ], [ -49.6102407, -22.1090025 ] ] ] ] } }
]
}
