{
"type": "FeatureCollection",
"name": "ER_REGIAO_Cotia_Cotia",
"crs": { "type": "name", "properties": { "name": "urn:ogc:def:crs:EPSG::4674" } },
"xy_coordinate_resolution": 1e-15,
"features": [
{ "type": "Feature", "properties": { "fid": 212, "NM_REGIAO": "Sudeste", "NM_UF": "São Paulo", "NM_MUN": "Cotia", "NM_DIST": "Cotia", "CD_SUBDIST": "35130090500", "ER_REGIAO": "Cotia_Cotia", "ER_REGIAO_CIDADE": "Cotia_Cotia_Osasco" }, "geometry": { "type": "MultiPolygon", "coordinates": [ [ [ [ -46.914997, -23.652422 ], [ -46.918319, -23.657028 ], [ -46.917695, -23.659948 ], [ -46.915905, -23.660154 ], [ -46.914931, -23.6619078 ], [ -46.913069, -23.661869 ], [ -46.911483, -23.663221 ], [ -46.90336, -23.664815 ], [ -46.901559, -23.669276 ], [ -46.898375, -23.668758 ], [ -46.893846, -23.669634 ], [ -46.890628, -23.667474 ], [ -46.887452, -23.667848 ], [ -46.8898159, -23.6685367 ], [ -46.891749, -23.671058 ], [ -46.893522, -23.671134 ], [ -46.895291, -23.675062 ], [ -46.897467, -23.677338 ], [ -46.897263, -23.678537 ], [ -46.895468, -23.679923 ], [ -46.897912, -23.682343 ], [ -46.898507, -23.684039 ], [ -46.898533, -23.687353 ], [ -46.897265, -23.688155 ], [ -46.898919, -23.690171 ], [ -46.899979, -23.690048 ], [ -46.899447, -23.691496 ], [ -46.90099, -23.696646 ], [ -46.900245, -23.700017 ], [ -46.901955, -23.702149 ], [ -46.903741, -23.711669 ], [ -46.909744, -23.719947 ], [ -46.915493, -23.725144 ], [ -46.921444, -23.726069 ], [ -46.922767, -23.727265 ], [ -46.923107, -23.731984 ], [ -46.925959, -23.730259 ], [ -46.927649, -23.730238 ], [ -46.931385, -23.7329 ], [ -46.9334176, -23.7362934 ], [ -46.933703, -23.739755 ], [ -46.93071, -23.743926 ], [ -46.93076, -23.746397 ], [ -46.92749, -23.749763 ], [ -46.930214, -23.751359 ], [ -46.931699, -23.754931 ], [ -46.935105, -23.750963 ], [ -46.940548, -23.747393 ], [ -46.943414, -23.742718 ], [ -46.954782, -23.736232 ], [ -46.961078, -23.71801 ], [ -46.958389, -23.715542 ], [ -46.958481, -23.712047 ], [ -46.95529, -23.714529 ], [ -46.950916, -23.711692 ], [ -46.950654, -23.710034 ], [ -46.952155, -23.708942 ], [ -46.953027, -23.704251 ], [ -46.953187, -23.699206 ], [ -46.949475, -23.696224 ], [ -46.949365, -23.695031 ], [ -46.950871, -23.694577 ], [ -46.949318, -23.692309 ], [ -46.947131, -23.692256 ], [ -46.946511, -23.69156 ], [ -46.947182, -23.687873 ], [ -46.946595, -23.684978 ], [ -46.944656, -23.683131 ], [ -46.944154, -23.681443 ], [ -46.943302, -23.681761 ], [ -46.942667, -23.680153 ], [ -46.941529, -23.680252 ], [ -46.941718, -23.678392 ], [ -46.940367, -23.678313 ], [ -46.941934, -23.676281 ], [ -46.940786, -23.674885 ], [ -46.944298, -23.673853 ], [ -46.943981, -23.673205 ], [ -46.945042, -23.67236 ], [ -46.948316, -23.672011 ], [ -46.951016, -23.66963 ], [ -46.952928, -23.670837 ], [ -46.955769, -23.674692 ], [ -46.963311, -23.667899 ], [ -46.966527, -23.666511 ], [ -46.964323, -23.665509 ], [ -46.963504, -23.662889 ], [ -46.96442, -23.662592 ], [ -46.96722, -23.65848 ], [ -46.965839, -23.655137 ], [ -46.967482, -23.654534 ], [ -46.9857753, -23.6541618 ], [ -46.9911295, -23.6484536 ], [ -46.9921105, -23.6455978 ], [ -46.991841, -23.644002 ], [ -46.9898298, -23.6412699 ], [ -46.988943, -23.634461 ], [ -46.987193, -23.632984 ], [ -46.988387, -23.630621 ], [ -46.988431, -23.628557 ], [ -46.987439, -23.627344 ], [ -46.988483, -23.624779 ], [ -46.988139, -23.622094 ], [ -46.9893641, -23.6178108 ], [ -46.988027, -23.615493 ], [ -46.988101, -23.6126545 ], [ -46.990653, -23.609757 ], [ -46.985457, -23.607313 ], [ -46.98364, -23.60566 ], [ -46.983458, -23.603584 ], [ -46.981456, -23.602158 ], [ -46.977504, -23.60156 ], [ -46.974023, -23.603795 ], [ -46.970553, -23.601848 ], [ -46.966516, -23.601192 ], [ -46.961653, -23.602515 ], [ -46.957676, -23.597522 ], [ -46.957719, -23.593585 ], [ -46.956657, -23.590544 ], [ -46.950928, -23.586459 ], [ -46.948763, -23.586196 ], [ -46.947042, -23.580008 ], [ -46.940161, -23.57529 ], [ -46.940323, -23.571397 ], [ -46.9339215, -23.5688747 ], [ -46.9295517, -23.5658136 ], [ -46.9290957, -23.5632274 ], [ -46.925887, -23.564441 ], [ -46.921401, -23.564033 ], [ -46.918914, -23.565407 ], [ -46.911119, -23.563057 ], [ -46.908381, -23.566793 ], [ -46.904446, -23.568249 ], [ -46.899359, -23.568652 ], [ -46.889524, -23.567615 ], [ -46.8861817, -23.5694063 ], [ -46.875956, -23.56528 ], [ -46.876762, -23.566518 ], [ -46.875688, -23.570858 ], [ -46.87327, -23.569599 ], [ -46.870705, -23.572968 ], [ -46.869525, -23.572378 ], [ -46.867464, -23.573108 ], [ -46.867455, -23.576354 ], [ -46.865899, -23.576232 ], [ -46.8647488, -23.577807 ], [ -46.860559, -23.577177 ], [ -46.860655, -23.578591 ], [ -46.859111, -23.580028 ], [ -46.85702, -23.580489 ], [ -46.85602, -23.581836 ], [ -46.854488, -23.581845 ], [ -46.8535421, -23.582857 ], [ -46.8513373, -23.5816947 ], [ -46.848962, -23.581718 ], [ -46.848106, -23.582792 ], [ -46.843922, -23.582658 ], [ -46.843111, -23.581587 ], [ -46.843771, -23.578408 ], [ -46.8432242, -23.5772358 ], [ -46.83808, -23.57743 ], [ -46.834606, -23.576629 ], [ -46.831641, -23.578934 ], [ -46.830397, -23.581017 ], [ -46.826519, -23.582007 ], [ -46.8248147, -23.5838546 ], [ -46.8212473, -23.5842548 ], [ -46.8173323, -23.5818559 ], [ -46.816314, -23.585108 ], [ -46.8167, -23.588057 ], [ -46.813285, -23.58879 ], [ -46.813256, -23.593244 ], [ -46.817955, -23.600231 ], [ -46.815962, -23.603136 ], [ -46.813028, -23.604668 ], [ -46.810367, -23.604942 ], [ -46.8078672, -23.6092199 ], [ -46.809181, -23.60915 ], [ -46.810173, -23.61011 ], [ -46.814457, -23.611249 ], [ -46.815643, -23.612608 ], [ -46.818735, -23.613443 ], [ -46.822562, -23.619055 ], [ -46.829695, -23.622791 ], [ -46.833354, -23.623473 ], [ -46.836832, -23.626406 ], [ -46.8395243, -23.6272935 ], [ -46.841477, -23.62443 ], [ -46.845833, -23.622585 ], [ -46.846386, -23.620914 ], [ -46.8487926, -23.6194759 ], [ -46.854078, -23.61977 ], [ -46.856056, -23.613113 ], [ -46.856961, -23.61238 ], [ -46.858648, -23.61263 ], [ -46.86456, -23.616756 ], [ -46.8680001, -23.6202695 ], [ -46.869781, -23.624179 ], [ -46.872514, -23.621813 ], [ -46.8778242, -23.6214431 ], [ -46.880162, -23.61919 ], [ -46.885622, -23.619859 ], [ -46.885934, -23.621919 ], [ -46.887784, -23.624463 ], [ -46.893407, -23.626314 ], [ -46.895883, -23.628605 ], [ -46.900272, -23.627965 ], [ -46.902066, -23.630279 ], [ -46.907902, -23.630781 ], [ -46.906958, -23.632777 ], [ -46.909217, -23.638975 ], [ -46.908669, -23.64241 ], [ -46.910036, -23.644557 ], [ -46.912339, -23.645578 ], [ -46.915567, -23.649559 ], [ -46.914997, -23.652422 ] ] ] ] } }
]
}
