{
"type": "FeatureCollection",
"name": "ER_REGIAO_Monte Alegre do Sul_Monte Alegre do Sul",
"crs": { "type": "name", "properties": { "name": "urn:ogc:def:crs:EPSG::4674" } },
"xy_coordinate_resolution": 1e-15,
"features": [
{ "type": "Feature", "properties": { "fid": 522, "NM_REGIAO": "Sudeste", "NM_UF": "São Paulo", "NM_MUN": "Monte Alegre do Sul", "NM_DIST": "Monte Alegre do Sul", "CD_SUBDIST": "35312090500", "ER_REGIAO": "Monte Alegre do Sul_Monte Alegre do Sul", "ER_REGIAO_CIDADE": "Monte Alegre do Sul_Monte Alegre do Sul_Campinas" }, "geometry": { "type": "MultiPolygon", "coordinates": [ [ [ [ -46.6900388, -22.7290691 ], [ -46.6921121, -22.7247027 ], [ -46.6961188, -22.7226391 ], [ -46.6965505, -22.7234435 ], [ -46.6977737, -22.7230025 ], [ -46.6982759, -22.7241862 ], [ -46.700421, -22.7242405 ], [ -46.6988833, -22.7224279 ], [ -46.6980479, -22.7189602 ], [ -46.6992628, -22.7171944 ], [ -46.6987501, -22.7164098 ], [ -46.7002985, -22.7150793 ], [ -46.7017584, -22.7154984 ], [ -46.7019382, -22.7139901 ], [ -46.7060432, -22.7148451 ], [ -46.7104195, -22.7134793 ], [ -46.7091221, -22.7131017 ], [ -46.7094841, -22.7102925 ], [ -46.7121372, -22.7058882 ], [ -46.7097248, -22.7024748 ], [ -46.7107531, -22.7016082 ], [ -46.7109394, -22.6989122 ], [ -46.7132903, -22.6995789 ], [ -46.7142337, -22.6986608 ], [ -46.7164546, -22.7003793 ], [ -46.7173583, -22.7001526 ], [ -46.7184291, -22.6980273 ], [ -46.7208272, -22.6959341 ], [ -46.7197809, -22.6934988 ], [ -46.720899, -22.6922523 ], [ -46.7167368, -22.6912569 ], [ -46.7189444, -22.6859613 ], [ -46.7255584, -22.68423 ], [ -46.728049, -22.6822216 ], [ -46.7282043, -22.6807075 ], [ -46.7242915, -22.6750887 ], [ -46.7239293, -22.6734858 ], [ -46.7271245, -22.6718557 ], [ -46.7279348, -22.670206 ], [ -46.7268622, -22.6666765 ], [ -46.7271822, -22.6623486 ], [ -46.726204, -22.6615242 ], [ -46.7265372, -22.656485 ], [ -46.7276796, -22.6549445 ], [ -46.7188097, -22.6549752 ], [ -46.7147445, -22.6539512 ], [ -46.7133477, -22.6548856 ], [ -46.7120859, -22.6582684 ], [ -46.7105447, -22.6582526 ], [ -46.7090701, -22.6560113 ], [ -46.7061414, -22.6537464 ], [ -46.7031506, -22.6536775 ], [ -46.7011041, -22.6514767 ], [ -46.6974479, -22.6503128 ], [ -46.6957151, -22.6482967 ], [ -46.6876325, -22.6493356 ], [ -46.6799443, -22.646754 ], [ -46.6786546, -22.6453658 ], [ -46.67759, -22.6406855 ], [ -46.673153, -22.6370759 ], [ -46.6720361, -22.6348785 ], [ -46.669654, -22.6374665 ], [ -46.6690745, -22.6395662 ], [ -46.6682136, -22.6397234 ], [ -46.6687098, -22.6412905 ], [ -46.667786, -22.6437427 ], [ -46.6633168, -22.6473049 ], [ -46.6604967, -22.6573147 ], [ -46.6578211, -22.6641922 ], [ -46.6562846, -22.6656153 ], [ -46.6534365, -22.6658976 ], [ -46.6516647, -22.664638 ], [ -46.6482557, -22.6569295 ], [ -46.6430172, -22.6516315 ], [ -46.6384383, -22.6526059 ], [ -46.635015, -22.6522647 ], [ -46.6319692, -22.6555101 ], [ -46.6290308, -22.653575 ], [ -46.6298179, -22.6549719 ], [ -46.6294266, -22.65571 ], [ -46.6259291, -22.6588907 ], [ -46.6265152, -22.6644288 ], [ -46.6300691, -22.6677847 ], [ -46.6291258, -22.6706728 ], [ -46.6321245, -22.6751174 ], [ -46.6295886, -22.6773078 ], [ -46.6249863, -22.6787527 ], [ -46.6295476, -22.6816233 ], [ -46.6311069, -22.6881253 ], [ -46.6326342, -22.6890597 ], [ -46.6338484, -22.6932271 ], [ -46.6378926, -22.6969367 ], [ -46.6385451, -22.6997011 ], [ -46.6406248, -22.7008498 ], [ -46.6411624, -22.7038917 ], [ -46.6415491, -22.7031065 ], [ -46.6434188, -22.7028415 ], [ -46.6442858, -22.7002906 ], [ -46.6455646, -22.7004135 ], [ -46.645312, -22.6990948 ], [ -46.6468104, -22.7001363 ], [ -46.6481062, -22.6995786 ], [ -46.6481267, -22.6985615 ], [ -46.6514942, -22.6989271 ], [ -46.6512278, -22.7001153 ], [ -46.6522924, -22.7017593 ], [ -46.6544069, -22.7106282 ], [ -46.6552856, -22.7117061 ], [ -46.6575689, -22.7124334 ], [ -46.6593319, -22.7174311 ], [ -46.6547452, -22.7237749 ], [ -46.6565395, -22.7268977 ], [ -46.6606789, -22.7298393 ], [ -46.662536, -22.7336314 ], [ -46.6671915, -22.7352225 ], [ -46.6687223, -22.737123 ], [ -46.6724711, -22.7354291 ], [ -46.6745333, -22.7369263 ], [ -46.6771953, -22.7355787 ], [ -46.6783894, -22.7358504 ], [ -46.679362, -22.7380189 ], [ -46.6830314, -22.7370062 ], [ -46.6870514, -22.7324798 ], [ -46.6870142, -22.7295475 ], [ -46.6900388, -22.7290691 ] ] ] ] } }
]
}
