{
"type": "FeatureCollection",
"name": "ER_REGIAO_Estrela d'Oeste",
"crs": { "type": "name", "properties": { "name": "urn:ogc:def:crs:EPSG::4674" } },
"xy_coordinate_resolution": 1e-15,
"features": [
{ "type": "Feature", "properties": { "fid": 251, "NM_REGIAO": "Sudeste", "NM_UF": "São Paulo", "NM_MUN": "Estrela d'Oeste", "NM_DIST": "Estrela d'Oeste", "CD_SUBDIST": "35152020500", "ER_REGIAO": "Estrela d'Oeste", "ER_REGIAO_CIDADE": "Estrela d'Oeste_Votuporanga" }, "geometry": { "type": "MultiPolygon", "coordinates": [ [ [ [ -50.342072799999983, -20.283189899999968 ], [ -50.338546299999962, -20.286808599999972 ], [ -50.340017099999955, -20.291658899999959 ], [ -50.338744299999973, -20.293292699999938 ], [ -50.33329649999996, -20.296906299999932 ], [ -50.330908199999953, -20.301943699999981 ], [ -50.335073699999953, -20.309394599999962 ], [ -50.337407699999972, -20.319109599999933 ], [ -50.337709399999937, -20.32537039999994 ], [ -50.336277499999937, -20.328173199999981 ], [ -50.335910599999977, -20.334344199999975 ], [ -50.337356499999942, -20.337982799999963 ], [ -50.339392, -20.338469099999941 ], [ -50.341935499999977, -20.336707699999977 ], [ -50.348502199999984, -20.336037599999941 ], [ -50.353741699999944, -20.33334739999998 ], [ -50.357183799999973, -20.335042399999963 ], [ -50.359083599999963, -20.338991599999929 ], [ -50.364418499999942, -20.342819099999929 ], [ -50.368759499999953, -20.343693 ], [ -50.374976499999946, -20.341026899999974 ], [ -50.384070899999983, -20.342221599999959 ], [ -50.386996799999963, -20.341223 ], [ -50.38808819999997, -20.341570399999966 ], [ -50.389916899999946, -20.343660299999954 ], [ -50.389914199999964, -20.345999399999982 ], [ -50.391288599999939, -20.347663699999941 ], [ -50.391515099999936, -20.353078099999948 ], [ -50.392373899999939, -20.355036699999971 ], [ -50.398672399999953, -20.359423499999934 ], [ -50.401853499999959, -20.363621899999941 ], [ -50.405033299999957, -20.366213199999947 ], [ -50.409578299999964, -20.368240299999968 ], [ -50.419913699999938, -20.380363099999954 ], [ -50.420336299999974, -20.381894199999977 ], [ -50.418238899999949, -20.383386299999927 ], [ -50.419240399999978, -20.387810899999977 ], [ -50.42120639999996, -20.390020299999946 ], [ -50.423398599999985, -20.390895799999953 ], [ -50.423456699999974, -20.393484699999931 ], [ -50.42435949999998, -20.393936099999962 ], [ -50.424733499999945, -20.396659499999942 ], [ -50.426051799999982, -20.398831299999927 ], [ -50.42358269999994, -20.402671599999962 ], [ -50.426405099999954, -20.404981599999928 ], [ -50.428927099999953, -20.409022399999969 ], [ -50.428728399999954, -20.411403899999982 ], [ -50.430178599999977, -20.412345499999958 ], [ -50.436188099999981, -20.40778 ], [ -50.437555799999984, -20.40582569999998 ], [ -50.442058499999973, -20.403215799999941 ], [ -50.446930399999985, -20.402485699999943 ], [ -50.448891099999969, -20.403036699999973 ], [ -50.449481699999978, -20.400198299999943 ], [ -50.453110899999956, -20.397830699999929 ], [ -50.456220499999972, -20.39440419999994 ], [ -50.463399799999934, -20.393326199999933 ], [ -50.468155799999977, -20.390124299999968 ], [ -50.468659699999932, -20.390465699999936 ], [ -50.469533399999932, -20.387193899999943 ], [ -50.468964699999958, -20.382214399999953 ], [ -50.470739799999933, -20.379538 ], [ -50.470453199999952, -20.371672499999931 ], [ -50.469782599999974, -20.371376699999928 ], [ -50.470478699999944, -20.37101819999998 ], [ -50.470966899999951, -20.366995399999951 ], [ -50.470449699999961, -20.364377399999967 ], [ -50.471910899999955, -20.361758699999939 ], [ -50.471124399999951, -20.35560849999996 ], [ -50.471932, -20.353461 ], [ -50.471283599999936, -20.352020099999947 ], [ -50.471626499999957, -20.345827799999938 ], [ -50.471161799999948, -20.343348899999967 ], [ -50.467431699999963, -20.339053299999932 ], [ -50.464900899999975, -20.331607 ], [ -50.46537619999998, -20.329536699999949 ], [ -50.467931, -20.327079899999944 ], [ -50.468611399999986, -20.322931 ], [ -50.467704399999946, -20.318084499999941 ], [ -50.468020199999955, -20.31531549999994 ], [ -50.470217899999966, -20.312963299999979 ], [ -50.471922199999938, -20.312814499999945 ], [ -50.472304, -20.311564 ], [ -50.479227799999933, -20.30498259999996 ], [ -50.480896899999948, -20.300074199999926 ], [ -50.479506399999934, -20.29554539999998 ], [ -50.477272599999935, -20.291637399999956 ], [ -50.476261199999954, -20.287120699999946 ], [ -50.472273, -20.284707199999957 ], [ -50.46852279999996, -20.280887599999971 ], [ -50.462265599999967, -20.277502799999979 ], [ -50.458279399999981, -20.273759499999983 ], [ -50.458230699999945, -20.265328799999963 ], [ -50.460217199999931, -20.261748399999931 ], [ -50.461508099999946, -20.256923599999936 ], [ -50.46264739999998, -20.255827199999942 ], [ -50.463955599999963, -20.249937599999953 ], [ -50.46319479999994, -20.246462299999962 ], [ -50.463566499999956, -20.241925699999967 ], [ -50.465809699999966, -20.236926099999948 ], [ -50.462355199999934, -20.228337499999952 ], [ -50.458028699999943, -20.223859699999934 ], [ -50.454704, -20.221896699999945 ], [ -50.452526, -20.218668899999955 ], [ -50.451076799999953, -20.214375199999949 ], [ -50.452077899999949, -20.2083 ], [ -50.453186099999982, -20.206109799999979 ], [ -50.45494309999998, -20.204344899999967 ], [ -50.458718599999941, -20.202741399999979 ], [ -50.463199399999951, -20.197369199999969 ], [ -50.466424099999983, -20.195608299999947 ], [ -50.466642499999978, -20.194494299999974 ], [ -50.46482229999998, -20.190852499999949 ], [ -50.465529099999969, -20.186122399999931 ], [ -50.461723099999972, -20.185457 ], [ -50.458290499999976, -20.187659099999962 ], [ -50.457479, -20.187194499999976 ], [ -50.460112799999933, -20.17939309999997 ], [ -50.459870099999932, -20.168619599999943 ], [ -50.455635599999937, -20.164836499999979 ], [ -50.45186039999993, -20.159621199999947 ], [ -50.447302899999954, -20.157014699999934 ], [ -50.440497299999947, -20.156686299999933 ], [ -50.436500299999977, -20.155534 ], [ -50.428978299999983, -20.15158109999993 ], [ -50.418817899999965, -20.147551799999974 ], [ -50.414187599999934, -20.144324399999959 ], [ -50.407443499999943, -20.134726799999953 ], [ -50.402840199999957, -20.124284399999965 ], [ -50.397565699999973, -20.115980099999945 ], [ -50.39745389999996, -20.113974699999972 ], [ -50.394791399999974, -20.110078199999975 ], [ -50.393951, -20.103596899999957 ], [ -50.388964599999952, -20.106031299999927 ], [ -50.383630799999935, -20.11595159999996 ], [ -50.383601599999963, -20.117718699999955 ], [ -50.382296799999949, -20.119053 ], [ -50.382707799999935, -20.12027269999993 ], [ -50.381990599999938, -20.122836599999971 ], [ -50.379654, -20.127098899999964 ], [ -50.380018299999961, -20.128641499999958 ], [ -50.378183099999944, -20.136959099999956 ], [ -50.374017399999957, -20.142526699999962 ], [ -50.374433099999976, -20.148837799999967 ], [ -50.37601879999994, -20.153129199999967 ], [ -50.372423899999944, -20.161458299999936 ], [ -50.372370299999943, -20.173278499999981 ], [ -50.369427099999939, -20.179052299999967 ], [ -50.365846799999986, -20.181226099999947 ], [ -50.363383799999951, -20.185581799999966 ], [ -50.361963499999945, -20.19395 ], [ -50.358823799999982, -20.196943499999975 ], [ -50.357157499999971, -20.19986629999994 ], [ -50.359544099999937, -20.20172759999997 ], [ -50.360213699999974, -20.211609899999928 ], [ -50.358826599999986, -20.216920399999935 ], [ -50.352050099999985, -20.221101 ], [ -50.349495699999977, -20.223466799999983 ], [ -50.348430899999983, -20.225940199999968 ], [ -50.354207499999973, -20.234270799999933 ], [ -50.356326, -20.246199799999943 ], [ -50.358070299999952, -20.252144199999975 ], [ -50.361576899999932, -20.259414899999967 ], [ -50.361412199999961, -20.262000799999953 ], [ -50.358270299999958, -20.268707 ], [ -50.35254539999994, -20.27518189999995 ], [ -50.345932599999969, -20.280338299999983 ], [ -50.342471299999943, -20.281511699999953 ], [ -50.342072799999983, -20.283189899999968 ] ] ] ] } }
]
}
