{
"type": "FeatureCollection",
"name": "ER_REGIAO_Floreal",
"crs": { "type": "name", "properties": { "name": "urn:ogc:def:crs:EPSG::4674" } },
"xy_coordinate_resolution": 1e-15,
"features": [
{ "type": "Feature", "properties": { "fid": 264, "NM_REGIAO": "Sudeste", "NM_UF": "São Paulo", "NM_MUN": "Floreal", "NM_DIST": "Floreal", "CD_SUBDIST": "35159050500", "ER_REGIAO": "Floreal", "ER_REGIAO_CIDADE": "Floreal_Votuporanga" }, "geometry": { "type": "MultiPolygon", "coordinates": [ [ [ [ -50.1907468, -20.6583654 ], [ -50.1901517, -20.6561909 ], [ -50.1927301, -20.6532233 ], [ -50.1940027, -20.6484171 ], [ -50.1893706, -20.6426829 ], [ -50.1889485, -20.6400928 ], [ -50.1840765, -20.6361026 ], [ -50.1827867, -20.6337495 ], [ -50.1847784, -20.6288609 ], [ -50.1837112, -20.6247472 ], [ -50.182354, -20.6227533 ], [ -50.1752246, -20.620255 ], [ -50.1716451, -20.6166853 ], [ -50.1657306, -20.6062361 ], [ -50.164623, -20.6014235 ], [ -50.1635084, -20.6002582 ], [ -50.1602817, -20.5992895 ], [ -50.1590381, -20.5978742 ], [ -50.1587637, -20.5957328 ], [ -50.1604602, -20.5908309 ], [ -50.1623554, -20.589174 ], [ -50.1581944, -20.5795201 ], [ -50.1596613, -20.57665 ], [ -50.1564514, -20.5731208 ], [ -50.1574913, -20.571821 ], [ -50.1605952, -20.5705814 ], [ -50.1591283, -20.5657959 ], [ -50.1601294, -20.5633988 ], [ -50.1595729, -20.560758 ], [ -50.1515828, -20.5526505 ], [ -50.1523729, -20.5488772 ], [ -50.1515091, -20.5461394 ], [ -50.1471587, -20.5422576 ], [ -50.1422252, -20.5415466 ], [ -50.1391841, -20.5379399 ], [ -50.138193, -20.5327232 ], [ -50.139646, -20.5292929 ], [ -50.1400434, -20.5245831 ], [ -50.1382522, -20.5210916 ], [ -50.136617, -20.5207118 ], [ -50.1353451, -20.5159478 ], [ -50.132011, -20.5159826 ], [ -50.128553, -20.5128075 ], [ -50.1261178, -20.5126198 ], [ -50.1239781, -20.5137669 ], [ -50.12171, -20.5128058 ], [ -50.1213561, -20.5151755 ], [ -50.1231826, -20.5167164 ], [ -50.1197421, -20.5199644 ], [ -50.1201685, -20.521651 ], [ -50.1215515, -20.5225024 ], [ -50.1216542, -20.524309 ], [ -50.1233848, -20.5259283 ], [ -50.1208962, -20.5330619 ], [ -50.1216641, -20.5358219 ], [ -50.1231391, -20.5368487 ], [ -50.1250852, -20.5401715 ], [ -50.1255161, -20.5438689 ], [ -50.1268063, -20.5467948 ], [ -50.1243608, -20.5517527 ], [ -50.1281203, -20.5528483 ], [ -50.1287242, -20.5568571 ], [ -50.1261759, -20.5594981 ], [ -50.1242578, -20.5652495 ], [ -50.1250593, -20.5666077 ], [ -50.1250561, -20.5696658 ], [ -50.1209601, -20.5774766 ], [ -50.1191219, -20.579448 ], [ -50.1193197, -20.5823595 ], [ -50.1172944, -20.5859533 ], [ -50.1171818, -20.5894872 ], [ -50.1180259, -20.5912364 ], [ -50.1148233, -20.5955941 ], [ -50.1140089, -20.6002966 ], [ -50.1110623, -20.6042528 ], [ -50.1070557, -20.6070599 ], [ -50.1043762, -20.6110283 ], [ -50.0918859, -20.6168457 ], [ -50.088639, -20.6227883 ], [ -50.088086, -20.6259847 ], [ -50.0884906, -20.6307054 ], [ -50.0930721, -20.6365505 ], [ -50.0943915, -20.6472331 ], [ -50.0980501, -20.6561493 ], [ -50.1015679, -20.6610814 ], [ -50.1004648, -20.6694636 ], [ -50.1016646, -20.6721009 ], [ -50.1038146, -20.672456 ], [ -50.1083794, -20.6709143 ], [ -50.1122025, -20.6740615 ], [ -50.117944, -20.6762266 ], [ -50.1229904, -20.6829654 ], [ -50.1215708, -20.6909486 ], [ -50.1218126, -20.6942 ], [ -50.1258504, -20.6987531 ], [ -50.1246391, -20.7016789 ], [ -50.1225211, -20.714565 ], [ -50.1179914, -20.7216431 ], [ -50.1215316, -20.7251654 ], [ -50.1204292, -20.7333286 ], [ -50.1211054, -20.7354718 ], [ -50.1240531, -20.7392314 ], [ -50.1234024, -20.744671 ], [ -50.1247677, -20.7472886 ], [ -50.1222338, -20.7524508 ], [ -50.1190482, -20.7559218 ], [ -50.1190467, -20.7586445 ], [ -50.1171755, -20.7616526 ], [ -50.1140653, -20.7634542 ], [ -50.1165439, -20.7646814 ], [ -50.1226014, -20.7723884 ], [ -50.1259612, -20.7730493 ], [ -50.1343201, -20.7711877 ], [ -50.1388901, -20.7738971 ], [ -50.1428556, -20.7799796 ], [ -50.145536, -20.7819061 ], [ -50.149291, -20.7794213 ], [ -50.1567055, -20.777377 ], [ -50.1608997, -20.7742309 ], [ -50.1654906, -20.7733946 ], [ -50.1687523, -20.7718991 ], [ -50.1691501, -20.7674427 ], [ -50.1660193, -20.7612134 ], [ -50.1657281, -20.7541448 ], [ -50.170895, -20.7480749 ], [ -50.1774637, -20.7445256 ], [ -50.1793701, -20.7442252 ], [ -50.1880123, -20.7457152 ], [ -50.1924812, -20.7494398 ], [ -50.1977119, -20.7488313 ], [ -50.2008753, -20.7469633 ], [ -50.2044713, -20.7471968 ], [ -50.2090721, -20.749538 ], [ -50.211195, -20.7491059 ], [ -50.2136186, -20.753484 ], [ -50.215987, -20.7550356 ], [ -50.2185689, -20.7547244 ], [ -50.2185362, -20.7516406 ], [ -50.219891, -20.7469506 ], [ -50.2222753, -20.7455439 ], [ -50.226699, -20.7390914 ], [ -50.2314279, -20.7461466 ], [ -50.2337907, -20.7525755 ], [ -50.2356768, -20.7536718 ], [ -50.2385604, -20.7454034 ], [ -50.2428055, -20.7423408 ], [ -50.2465717, -20.7380096 ], [ -50.2505033, -20.7367371 ], [ -50.2465215, -20.7333923 ], [ -50.2437025, -20.7326627 ], [ -50.2396975, -20.7302668 ], [ -50.2306422, -20.7187988 ], [ -50.225292, -20.7157583 ], [ -50.2185738, -20.7146444 ], [ -50.2161396, -20.7117442 ], [ -50.2129956, -20.703491 ], [ -50.2125031, -20.6963825 ], [ -50.2132811, -20.6935113 ], [ -50.2098644, -20.6912207 ], [ -50.2091491, -20.689406 ], [ -50.2118788, -20.6800138 ], [ -50.2092473, -20.6784709 ], [ -50.2072439, -20.6756044 ], [ -50.1985907, -20.6721995 ], [ -50.196201, -20.667668 ], [ -50.1955345, -20.6616333 ], [ -50.1907468, -20.6583654 ] ] ] ] } }
]
}
