{
"type": "FeatureCollection",
"name": "ER_REGIAO_Lavínia_Lavínia",
"crs": { "type": "name", "properties": { "name": "urn:ogc:def:crs:EPSG::4674" } },
"xy_coordinate_resolution": 1e-15,
"features": [
{ "type": "Feature", "properties": { "fid": 435, "NM_REGIAO": "Sudeste", "NM_UF": "São Paulo", "NM_MUN": "Lavínia", "NM_DIST": "Lavínia", "CD_SUBDIST": "35265060500", "ER_REGIAO": "Lavínia_Lavínia", "ER_REGIAO_CIDADE": "Lavínia_Lavínia_Araçatuba" }, "geometry": { "type": "MultiPolygon", "coordinates": [ [ [ [ -51.116008, -21.254697599999929 ], [ -51.126741199999969, -21.196365599999979 ], [ -51.125644899999941, -21.193549099999927 ], [ -51.119536799999935, -21.190355899999929 ], [ -51.117239699999971, -21.187521299999958 ], [ -51.116772399999945, -21.18153529999995 ], [ -51.115863899999965, -21.17973939999996 ], [ -51.116678299999933, -21.177196599999945 ], [ -51.117643699999974, -21.176895699999932 ], [ -51.116094799999985, -21.17478 ], [ -51.116179199999976, -21.171294599999953 ], [ -51.112119, -21.166400599999974 ], [ -51.112600199999974, -21.164218399999982 ], [ -51.10908349999994, -21.162812 ], [ -51.107465399999967, -21.160576099999957 ], [ -51.106089099999963, -21.160782199999971 ], [ -51.103938199999959, -21.159362299999941 ], [ -51.102456399999937, -21.153493199999957 ], [ -51.095343399999933, -21.150175799999943 ], [ -51.082015399999932, -21.150362899999948 ], [ -51.070955599999934, -21.147200199999929 ], [ -51.062394599999948, -21.148759899999959 ], [ -51.061279599999978, -21.148445099999947 ], [ -51.058118699999966, -21.144916699999953 ], [ -51.055553799999984, -21.144850499999961 ], [ -51.053998599999943, -21.143443899999966 ], [ -51.051456, -21.129953599999965 ], [ -51.049108699999977, -21.12237319999997 ], [ -51.050114399999984, -21.115760799999975 ], [ -51.046747799999935, -21.111232899999948 ], [ -51.046864099999937, -21.108105199999954 ], [ -51.045621299999937, -21.107339899999943 ], [ -51.043764099999976, -21.102661299999966 ], [ -51.043731499999978, -21.100644599999953 ], [ -51.042387099999985, -21.098543099999972 ], [ -51.043390799999941, -21.093904499999951 ], [ -51.050573, -21.084153499999957 ], [ -51.050295199999937, -21.079881 ], [ -51.052168299999948, -21.076440799999943 ], [ -51.051749199999961, -21.071459699999934 ], [ -51.05286609999996, -21.06981049999996 ], [ -51.049567699999955, -21.0672 ], [ -51.047600699999975, -21.06689259999996 ], [ -51.04789, -21.064487399999962 ], [ -51.04453019999994, -21.058646199999941 ], [ -51.043312499999956, -21.05795459999996 ], [ -51.040797599999962, -21.058123699999953 ], [ -51.031279499999982, -21.050184599999966 ], [ -51.030454299999974, -21.046674499999938 ], [ -51.032469599999956, -21.045223899999939 ], [ -51.031010899999956, -21.043098699999973 ], [ -51.024885199999972, -21.038729399999966 ], [ -51.019200699999942, -21.038216599999942 ], [ -51.017725699999971, -21.035644099999956 ], [ -51.017504699999961, -21.032177399999966 ], [ -51.015569099999936, -21.030175 ], [ -51.015019299999949, -21.026116499999944 ], [ -51.010932099999934, -21.024557899999934 ], [ -51.008841799999971, -21.018344199999945 ], [ -51.002212399999962, -21.017744799999946 ], [ -50.999708299999952, -21.014429399999983 ], [ -50.999379499999975, -21.010549899999944 ], [ -50.997285199999965, -21.010857899999962 ], [ -50.996066499999984, -21.010230299999932 ], [ -50.994228699999951, -21.005565 ], [ -50.984024499999975, -21.003182299999935 ], [ -50.98107269999997, -21.001583899999957 ], [ -50.979872599999965, -20.999649799999929 ], [ -50.980404599999986, -20.99616119999996 ], [ -50.979377599999964, -20.995329099999935 ], [ -50.976226599999961, -20.99540589999998 ], [ -50.974678799999936, -20.994644 ], [ -50.971786299999962, -20.98782209999996 ], [ -50.964055599999938, -20.981011499999966 ], [ -50.957739799999956, -20.979884899999945 ], [ -50.951788499999964, -20.977480599999978 ], [ -50.943574, -20.967759 ], [ -50.943738, -20.963385099999982 ], [ -50.940818899999954, -20.958147599999961 ], [ -50.936734699999931, -20.954645 ], [ -50.932421099999942, -20.952777499999968 ], [ -50.927925899999934, -20.948554499999943 ], [ -50.92677, -20.945494099999962 ], [ -50.923617399999955, -20.941841899999929 ], [ -50.921915099999978, -20.934238799999946 ], [ -50.917027299999972, -20.92607019999997 ], [ -50.903522799999962, -20.914943599999958 ], [ -50.899600799999973, -20.909771399999954 ], [ -50.850189, -20.93591269999996 ], [ -50.852852, -20.936724099999935 ], [ -50.855293099999983, -20.939916799999935 ], [ -50.858108899999934, -20.941239799999948 ], [ -50.862872599999946, -20.941667499999937 ], [ -50.865712299999984, -20.943787399999962 ], [ -50.867971199999943, -20.94360329999995 ], [ -50.871271499999978, -20.945127199999945 ], [ -50.875763799999959, -20.945109199999933 ], [ -50.87759189999997, -20.948302199999944 ], [ -50.87713279999997, -20.951192599999956 ], [ -50.878144899999938, -20.953581199999974 ], [ -50.879035299999941, -20.960306299999957 ], [ -50.878745399999957, -20.962178399999971 ], [ -50.877214299999935, -20.962639399999944 ], [ -50.875622399999941, -20.964594199999965 ], [ -50.875503099999946, -20.965887599999974 ], [ -50.877987299999972, -20.970290699999964 ], [ -50.875207699999976, -20.974080499999957 ], [ -50.8746, -20.97758529999993 ], [ -50.879754, -20.986081899999931 ], [ -50.88373809999996, -20.988541 ], [ -50.885451199999977, -20.990725899999973 ], [ -50.885154899999975, -21.000226099999963 ], [ -50.887766699999986, -21.00147469999996 ], [ -50.889072599999963, -21.003726099999938 ], [ -50.892282299999977, -21.00551779999995 ], [ -50.893132299999934, -21.007582199999945 ], [ -50.898207399999933, -21.009613499999944 ], [ -50.898267, -21.014355699999953 ], [ -50.895972299999983, -21.018634599999928 ], [ -50.895992499999977, -21.021793599999967 ], [ -50.896911299999942, -21.024210299999936 ], [ -50.903777499999933, -21.02945619999997 ], [ -50.905423, -21.032243299999948 ], [ -50.90452339999996, -21.034518599999956 ], [ -50.907277499999964, -21.036138499999936 ], [ -50.908389899999975, -21.039864099999932 ], [ -50.915233599999965, -21.043731599999944 ], [ -50.91636619999997, -21.048119799999938 ], [ -50.919447799999944, -21.054272 ], [ -50.91726, -21.05816509999994 ], [ -50.917212, -21.063623599999971 ], [ -50.917960499999936, -21.065453299999945 ], [ -50.922021599999937, -21.06962569999996 ], [ -50.920848599999943, -21.074473799999964 ], [ -50.922946799999977, -21.079192499999976 ], [ -50.919236, -21.084762399999931 ], [ -50.91904089999997, -21.088761099999942 ], [ -50.926064899999972, -21.093659299999956 ], [ -50.926026599999943, -21.10061479999996 ], [ -50.929567899999938, -21.103573199999971 ], [ -50.927736399999958, -21.106449699999928 ], [ -50.929934799999955, -21.107776099999967 ], [ -50.931494799999939, -21.11056149999996 ], [ -50.933622399999933, -21.111730399999942 ], [ -50.933902399999965, -21.113191699999959 ], [ -50.933055299999978, -21.114260899999977 ], [ -50.937172699999962, -21.117831399999943 ], [ -50.936331899999971, -21.12173729999995 ], [ -50.937601399999949, -21.124097 ], [ -50.938122899999939, -21.128471399999967 ], [ -50.943535399999973, -21.131360499999971 ], [ -50.94782639999994, -21.131331299999943 ], [ -50.952641799999981, -21.133859399999949 ], [ -50.948594199999945, -21.136809099999937 ], [ -50.947778299999982, -21.138279499999953 ], [ -50.947456399999965, -21.142756899999938 ], [ -50.946231699999942, -21.145852099999956 ], [ -50.947796599999947, -21.149506299999928 ], [ -50.946721599999933, -21.154640499999971 ], [ -50.947622399999943, -21.156122 ], [ -50.952146399999947, -21.159137499999929 ], [ -50.949871799999983, -21.165849799999933 ], [ -50.949592, -21.169816399999945 ], [ -50.950169599999981, -21.17100419999997 ], [ -50.954967299999964, -21.171966599999962 ], [ -50.956097799999952, -21.179355499999929 ], [ -50.961331199999961, -21.183566499999927 ], [ -50.963254599999971, -21.184229899999934 ], [ -50.96780149999995, -21.179758699999979 ], [ -50.969195299999967, -21.184862399999929 ], [ -50.974082799999962, -21.187407 ], [ -50.980973, -21.19402359999998 ], [ -50.987375499999985, -21.193817499999966 ], [ -50.992187, -21.19538179999995 ], [ -50.995752499999981, -21.193287599999962 ], [ -51.001076099999977, -21.19290019999994 ], [ -51.002666199999965, -21.19174419999996 ], [ -51.003674699999976, -21.191889299999957 ], [ -51.012447699999939, -21.200736399999982 ], [ -51.018152399999963, -21.202617399999951 ], [ -51.019568499999934, -21.20578519999998 ], [ -51.023057299999948, -21.207561 ], [ -51.028170699999976, -21.213074899999981 ], [ -51.033691099999942, -21.216348 ], [ -51.033728, -21.217585699999972 ], [ -51.036091399999975, -21.21747709999994 ], [ -51.038387899999975, -21.22372189999993 ], [ -51.041713099999981, -21.224576799999966 ], [ -51.043132399999934, -21.223285399999952 ], [ -51.044546699999955, -21.22332 ], [ -51.045423099999937, -21.226847799999973 ], [ -51.04803389999995, -21.229509299999961 ], [ -51.053856699999983, -21.229097199999956 ], [ -51.056927199999961, -21.23331479999996 ], [ -51.056511499999942, -21.234856199999967 ], [ -51.060622499999965, -21.237677099999928 ], [ -51.061018299999944, -21.239708699999937 ], [ -51.06007169999998, -21.243149099999982 ], [ -51.061842099999978, -21.24403209999997 ], [ -51.061875099999952, -21.246263899999974 ], [ -51.068236099999979, -21.251979099999971 ], [ -51.069335199999955, -21.255040599999973 ], [ -51.07060649999994, -21.255205799999942 ], [ -51.071755899999971, -21.258683299999973 ], [ -51.074345499999936, -21.259776799999941 ], [ -51.074613899999974, -21.262710399999946 ], [ -51.073652599999946, -21.265364599999941 ], [ -51.075100499999962, -21.268227299999978 ], [ -51.079767799999956, -21.269990699999937 ], [ -51.082025199999975, -21.273261099999957 ], [ -51.08423149999993, -21.272838399999955 ], [ -51.086095, -21.271008599999959 ], [ -51.092200799999944, -21.268226199999958 ], [ -51.094174, -21.269367799999941 ], [ -51.100237099999958, -21.26522209999996 ], [ -51.103808599999979, -21.261183699999947 ], [ -51.110874399999943, -21.259287699999959 ], [ -51.111258899999939, -21.257417399999952 ], [ -51.116008, -21.254697599999929 ] ] ] ] } }
]
}
