{
"type": "FeatureCollection",
"name": "ER_REGIAO_Paulicéia",
"crs": { "type": "name", "properties": { "name": "urn:ogc:def:crs:EPSG::4674" } },
"xy_coordinate_resolution": 1e-15,
"features": [
{ "type": "Feature", "properties": { "fid": 609, "NM_REGIAO": "Sudeste", "NM_UF": "São Paulo", "NM_MUN": "Paulicéia", "NM_DIST": "Paulicéia", "CD_SUBDIST": "35364060500", "ER_REGIAO": "Paulicéia", "ER_REGIAO_CIDADE": "Paulicéia_Araçatuba" }, "geometry": { "type": "MultiPolygon", "coordinates": [ [ [ [ -51.8331242, -21.3365743 ], [ -51.8610618, -21.336671 ], [ -51.8613733, -21.3171125 ], [ -51.8569297, -21.2895262 ], [ -51.8558805, -21.2859111 ], [ -51.8514416, -21.2811957 ], [ -51.849373, -21.2761909 ], [ -51.8485145, -21.2666384 ], [ -51.8505189, -21.2636453 ], [ -51.8534511, -21.2624532 ], [ -51.8543614, -21.2609455 ], [ -51.8543145, -21.2543425 ], [ -51.8552002, -21.2502654 ], [ -51.860926, -21.2389486 ], [ -51.8636776, -21.2267111 ], [ -51.873817, -21.2112491 ], [ -51.8795737, -21.1994307 ], [ -51.8757603, -21.1810441 ], [ -51.8789848, -21.1481377 ], [ -51.8769246, -21.139471 ], [ -51.8758619, -21.1361474 ], [ -51.8654739, -21.1305401 ], [ -51.8445932, -21.1314629 ], [ -51.82359, -21.1268398 ], [ -51.8144547, -21.1213892 ], [ -51.8080062, -21.1100231 ], [ -51.7896709, -21.1021195 ], [ -51.7756445, -21.0730936 ], [ -51.7724764, -21.0511213 ], [ -51.7669071, -21.050757 ], [ -51.765968, -21.0519617 ], [ -51.7677318, -21.0569193 ], [ -51.7665033, -21.0587709 ], [ -51.7640065, -21.059826 ], [ -51.7655435, -21.0559305 ], [ -51.7643972, -21.054683 ], [ -51.7622023, -21.0549538 ], [ -51.7608195, -21.0563954 ], [ -51.762266, -21.0615567 ], [ -51.7624969, -21.0636692 ], [ -51.7618578, -21.0642675 ], [ -51.7592471, -21.0643101 ], [ -51.7570027, -21.0659493 ], [ -51.7556684, -21.065919 ], [ -51.7545917, -21.0618776 ], [ -51.7521675, -21.0608184 ], [ -51.7515615, -21.0619433 ], [ -51.7537103, -21.0635257 ], [ -51.7531345, -21.0641957 ], [ -51.7514348, -21.064397 ], [ -51.7490301, -21.066396 ], [ -51.7466872, -21.065762 ], [ -51.7456899, -21.0664841 ], [ -51.7477724, -21.0687194 ], [ -51.7476826, -21.0702073 ], [ -51.7449759, -21.0698124 ], [ -51.7445833, -21.0675981 ], [ -51.7434233, -21.0691821 ], [ -51.7408913, -21.0688148 ], [ -51.7398786, -21.0692498 ], [ -51.741288, -21.0703137 ], [ -51.7413205, -21.0712661 ], [ -51.7387051, -21.0709121 ], [ -51.7375125, -21.0743361 ], [ -51.7363405, -21.073493 ], [ -51.7366931, -21.0716908 ], [ -51.7342349, -21.0714731 ], [ -51.7314829, -21.069508 ], [ -51.7299576, -21.0703106 ], [ -51.7295265, -21.073144 ], [ -51.7286138, -21.0741397 ], [ -51.7278196, -21.0737908 ], [ -51.725821, -21.0687494 ], [ -51.7241782, -21.0711443 ], [ -51.7222232, -21.0722227 ], [ -51.7209303, -21.0718385 ], [ -51.7206963, -21.0698282 ], [ -51.719458, -21.0696246 ], [ -51.7167911, -21.0730156 ], [ -51.7184723, -21.0757096 ], [ -51.7146269, -21.0769003 ], [ -51.7142765, -21.0792245 ], [ -51.711108, -21.0795118 ], [ -51.7136442, -21.0807278 ], [ -51.7137121, -21.0832982 ], [ -51.7102425, -21.0846437 ], [ -51.7082336, -21.0832037 ], [ -51.7068448, -21.0835357 ], [ -51.7064269, -21.0863038 ], [ -51.7084349, -21.0875351 ], [ -51.7060659, -21.0893588 ], [ -51.7032891, -21.0872694 ], [ -51.7019579, -21.0909809 ], [ -51.700953, -21.090176 ], [ -51.7006665, -21.0883894 ], [ -51.699138, -21.0885915 ], [ -51.6979846, -21.0917019 ], [ -51.697849, -21.0954084 ], [ -51.6967534, -21.0960262 ], [ -51.6951933, -21.0954454 ], [ -51.6944604, -21.0963096 ], [ -51.697598, -21.098241 ], [ -51.6986946, -21.1008072 ], [ -51.6978453, -21.103564 ], [ -51.7015148, -21.1061848 ], [ -51.7014535, -21.1078185 ], [ -51.7000812, -21.1096052 ], [ -51.6907559, -21.116094 ], [ -51.6913138, -21.1194453 ], [ -51.6879207, -21.1225256 ], [ -51.6886193, -21.1232275 ], [ -51.6919248, -21.1222614 ], [ -51.6928116, -21.123044 ], [ -51.6911906, -21.1273829 ], [ -51.6948905, -21.131859 ], [ -51.6904961, -21.1335709 ], [ -51.6900549, -21.1344079 ], [ -51.691929, -21.1366446 ], [ -51.6906346, -21.1394685 ], [ -51.6910432, -21.1435903 ], [ -51.6900506, -21.1454995 ], [ -51.6875221, -21.1461622 ], [ -51.6855359, -21.1497979 ], [ -51.6819997, -21.1491336 ], [ -51.6836723, -21.1525444 ], [ -51.6886471, -21.1551154 ], [ -51.6909794, -21.1574065 ], [ -51.6925021, -21.1658282 ], [ -51.693925, -21.1674109 ], [ -51.6991713, -21.1687821 ], [ -51.7028148, -21.1720595 ], [ -51.7033127, -21.1774848 ], [ -51.7077005, -21.1883418 ], [ -51.7083648, -21.1932287 ], [ -51.7123458, -21.1969004 ], [ -51.7171224, -21.1987694 ], [ -51.7218911, -21.202354 ], [ -51.7220065, -21.2039352 ], [ -51.72473, -21.2076728 ], [ -51.7247879, -21.2096152 ], [ -51.7225659, -21.2150012 ], [ -51.7262318, -21.2165995 ], [ -51.7295091, -21.220747 ], [ -51.731538, -21.2216833 ], [ -51.7317465, -21.225117 ], [ -51.73462, -21.2261404 ], [ -51.7424537, -21.2240148 ], [ -51.7499512, -21.2238441 ], [ -51.7531414, -21.2282654 ], [ -51.7580386, -21.2318066 ], [ -51.7729856, -21.2374024 ], [ -51.7742333, -21.2389417 ], [ -51.7716236, -21.2434693 ], [ -51.7712059, -21.2470908 ], [ -51.7811718, -21.2513735 ], [ -51.7845345, -21.2536301 ], [ -51.7893738, -21.2599961 ], [ -51.7939526, -21.2625276 ], [ -51.7952181, -21.2641897 ], [ -51.79576, -21.2674022 ], [ -51.7949023, -21.2703771 ], [ -51.7931831, -21.2721302 ], [ -51.786285, -21.2751034 ], [ -51.7792361, -21.2768079 ], [ -51.7724043, -21.2767521 ], [ -51.7717307, -21.2778363 ], [ -51.7718124, -21.2808604 ], [ -51.7696513, -21.2828023 ], [ -51.7609797, -21.285853 ], [ -51.7573117, -21.2881394 ], [ -51.757644, -21.2895465 ], [ -51.7602883, -21.2910341 ], [ -51.7607335, -21.2958702 ], [ -51.7652357, -21.3010228 ], [ -51.7697551, -21.3039622 ], [ -51.7752023, -21.3046472 ], [ -51.7809763, -21.3076336 ], [ -51.7789803, -21.3099253 ], [ -51.7762857, -21.3101506 ], [ -51.7748448, -21.3110974 ], [ -51.7796517, -21.3229696 ], [ -51.7871452, -21.3291126 ], [ -51.7891453, -21.3389085 ], [ -51.7907386, -21.3427938 ], [ -51.7967856, -21.3503364 ], [ -51.7964576, -21.3516428 ], [ -51.7925927, -21.3541195 ], [ -51.7919845, -21.3555206 ], [ -51.7919531, -21.3587689 ], [ -51.7927417, -21.3600647 ], [ -51.7960134, -21.361161 ], [ -51.8013413, -21.3654554 ], [ -51.8069811, -21.3714272 ], [ -51.808676, -21.3747577 ], [ -51.8118709, -21.3739065 ], [ -51.8148413, -21.3719139 ], [ -51.815239, -21.3726818 ], [ -51.8174754, -21.3715227 ], [ -51.8189479, -21.3720374 ], [ -51.8207954, -21.3692067 ], [ -51.8240326, -21.3701858 ], [ -51.8265834, -21.3679778 ], [ -51.8289591, -21.3680803 ], [ -51.8298135, -21.3652055 ], [ -51.831144, -21.365238 ], [ -51.8321042, -21.3638306 ], [ -51.8322749, -21.3644658 ], [ -51.8336817, -21.3636459 ], [ -51.8331242, -21.3365743 ] ] ] ] } }
]
}
