{
"type": "FeatureCollection",
"name": "ER_REGIAO_Caçapava",
"crs": { "type": "name", "properties": { "name": "urn:ogc:def:crs:EPSG::4674" } },
"xy_coordinate_resolution": 1e-15,
"features": [
{ "type": "Feature", "properties": { "fid": 130, "NM_REGIAO": "Sudeste", "NM_UF": "São Paulo", "NM_MUN": "Caçapava", "NM_DIST": "Caçapava", "CD_SUBDIST": "35085040500", "ER_REGIAO": "Caçapava", "ER_REGIAO_CIDADE": "Caçapava_São José dos Campos" }, "geometry": { "type": "MultiPolygon", "coordinates": [ [ [ [ -45.7321875, -23.2233462 ], [ -45.734149, -23.220906 ], [ -45.734437, -23.21929 ], [ -45.737665, -23.216522 ], [ -45.737735, -23.210242 ], [ -45.739592, -23.206771 ], [ -45.738635, -23.204649 ], [ -45.741279, -23.201821 ], [ -45.740892, -23.200914 ], [ -45.741639, -23.199183 ], [ -45.747566, -23.199051 ], [ -45.750269, -23.19406 ], [ -45.75104, -23.191584 ], [ -45.7507301, -23.184453 ], [ -45.7520865, -23.1780764 ], [ -45.759925, -23.166657 ], [ -45.759158, -23.161474 ], [ -45.756614, -23.157954 ], [ -45.759364, -23.153486 ], [ -45.760372, -23.148325 ], [ -45.760185, -23.14335 ], [ -45.756344, -23.137041 ], [ -45.756092, -23.134944 ], [ -45.756994, -23.131867 ], [ -45.760415, -23.12869 ], [ -45.759239, -23.126114 ], [ -45.759156, -23.122996 ], [ -45.756493, -23.118983 ], [ -45.752873, -23.118774 ], [ -45.75224, -23.117958 ], [ -45.754925, -23.115928 ], [ -45.75481, -23.112561 ], [ -45.756262, -23.111429 ], [ -45.757881, -23.111506 ], [ -45.759988, -23.114377 ], [ -45.761308, -23.114469 ], [ -45.762979, -23.111238 ], [ -45.765193, -23.110791 ], [ -45.76578, -23.111806 ], [ -45.765313, -23.115416 ], [ -45.76663, -23.116361 ], [ -45.768234, -23.116324 ], [ -45.771749, -23.113943 ], [ -45.772575, -23.10716 ], [ -45.774692, -23.105149 ], [ -45.776043, -23.104996 ], [ -45.776646, -23.105939 ], [ -45.77576, -23.109109 ], [ -45.777047, -23.11448 ], [ -45.778926, -23.11524 ], [ -45.779875, -23.114324 ], [ -45.778685, -23.112134 ], [ -45.779152, -23.110114 ], [ -45.781636, -23.110088 ], [ -45.784442, -23.111717 ], [ -45.787221, -23.111465 ], [ -45.78601, -23.109434 ], [ -45.788281, -23.106897 ], [ -45.787137, -23.103679 ], [ -45.788074, -23.102395 ], [ -45.79024, -23.10322 ], [ -45.790299, -23.106791 ], [ -45.791609, -23.107599 ], [ -45.793459, -23.107007 ], [ -45.795457, -23.103047 ], [ -45.799614, -23.101779 ], [ -45.798615, -23.100114 ], [ -45.799007, -23.098823 ], [ -45.800615, -23.098152 ], [ -45.800316, -23.096272 ], [ -45.801038, -23.09495 ], [ -45.802809, -23.093368 ], [ -45.802493, -23.091291 ], [ -45.841785, -23.041192 ], [ -45.836677, -23.03929 ], [ -45.8354245, -23.0367166 ], [ -45.8320612, -23.0361031 ], [ -45.8280918, -23.0319842 ], [ -45.8202757, -23.0293275 ], [ -45.8139499, -23.0205337 ], [ -45.8166509, -23.0198672 ], [ -45.8118843, -23.0170628 ], [ -45.8101159, -23.0123196 ], [ -45.8035622, -23.0146961 ], [ -45.7993916, -23.0121059 ], [ -45.7928508, -23.0111375 ], [ -45.7900564, -23.0091836 ], [ -45.7881708, -23.0065377 ], [ -45.7836024, -23.0068279 ], [ -45.7805017, -23.0036837 ], [ -45.7772148, -23.0025533 ], [ -45.7743266, -22.9972746 ], [ -45.7687583, -22.9965841 ], [ -45.7656567, -22.9953188 ], [ -45.7621833, -22.9907063 ], [ -45.7554988, -22.9906545 ], [ -45.7485858, -22.9894664 ], [ -45.7437181, -22.9844384 ], [ -45.7434804, -22.9798944 ], [ -45.7399589, -22.974295 ], [ -45.7363392, -22.9730796 ], [ -45.7301297, -22.9725109 ], [ -45.7276597, -22.9696542 ], [ -45.725088, -22.9694458 ], [ -45.7196717, -22.9785115 ], [ -45.7185413, -22.9827648 ], [ -45.7194853, -22.9854322 ], [ -45.7185428, -22.9873555 ], [ -45.7162091, -22.9891376 ], [ -45.7112303, -22.9900061 ], [ -45.7125585, -22.9934608 ], [ -45.711263, -23.0005982 ], [ -45.7135411, -23.0035259 ], [ -45.7133764, -23.0097789 ], [ -45.7120164, -23.0096043 ], [ -45.7100188, -23.0073581 ], [ -45.7066944, -23.0062871 ], [ -45.7027147, -23.0072304 ], [ -45.7010987, -23.0147964 ], [ -45.7015897, -23.0177057 ], [ -45.6971746, -23.0232157 ], [ -45.6974137, -23.0265009 ], [ -45.6910102, -23.0309363 ], [ -45.6885014, -23.0317172 ], [ -45.6832538, -23.036035 ], [ -45.6783434, -23.0364116 ], [ -45.67481, -23.0422499 ], [ -45.6741198, -23.0460594 ], [ -45.6731876, -23.0456467 ], [ -45.6712229, -23.0417211 ], [ -45.6716029, -23.0394498 ], [ -45.6733771, -23.0367897 ], [ -45.672867, -23.0355583 ], [ -45.6714619, -23.0349238 ], [ -45.6693413, -23.03554 ], [ -45.6665017, -23.0395759 ], [ -45.6649255, -23.0385156 ], [ -45.6670819, -23.0335835 ], [ -45.6666214, -23.0304616 ], [ -45.6659253, -23.0305776 ], [ -45.6450522, -23.0604386 ], [ -45.6411524, -23.061773 ], [ -45.6398373, -23.0631157 ], [ -45.6382965, -23.0663091 ], [ -45.6374899, -23.0745246 ], [ -45.6340296, -23.0798579 ], [ -45.6309596, -23.0813073 ], [ -45.6318336, -23.0871873 ], [ -45.6361724, -23.0899465 ], [ -45.6347656, -23.0937411 ], [ -45.6291232, -23.1012979 ], [ -45.6302682, -23.1056981 ], [ -45.6296509, -23.1154615 ], [ -45.6240255, -23.1208882 ], [ -45.619472, -23.122492 ], [ -45.6115562, -23.1233626 ], [ -45.6036082, -23.1272721 ], [ -45.5990381, -23.1319216 ], [ -45.5941546, -23.1333323 ], [ -45.5937633, -23.1340815 ], [ -45.5947091, -23.1369182 ], [ -45.5930042, -23.1399596 ], [ -45.595171, -23.1453881 ], [ -45.5978078, -23.1475227 ], [ -45.6000129, -23.1513319 ], [ -45.6054739, -23.1559908 ], [ -45.604199, -23.1572589 ], [ -45.605359, -23.1597222 ], [ -45.6091334, -23.1624878 ], [ -45.6102661, -23.1652139 ], [ -45.6134649, -23.1688318 ], [ -45.6204188, -23.1740498 ], [ -45.6161431, -23.1809514 ], [ -45.6246222, -23.1848069 ], [ -45.6246385, -23.1896801 ], [ -45.6282244, -23.1933462 ], [ -45.6310149, -23.1939703 ], [ -45.6338337, -23.1962334 ], [ -45.6389758, -23.1971329 ], [ -45.6414793, -23.1960279 ], [ -45.6428816, -23.1985112 ], [ -45.646666, -23.1969035 ], [ -45.6493376, -23.1974117 ], [ -45.6514899, -23.2006389 ], [ -45.6552212, -23.2035746 ], [ -45.6636088, -23.2056875 ], [ -45.6657496, -23.2078833 ], [ -45.6696553, -23.2100238 ], [ -45.6726971, -23.2132287 ], [ -45.6793274, -23.2148184 ], [ -45.6831398, -23.2187735 ], [ -45.6895715, -23.223602 ], [ -45.6961424, -23.2245686 ], [ -45.7044745, -23.227932 ], [ -45.7110588, -23.2327965 ], [ -45.7185257, -23.2344404 ], [ -45.72128, -23.237949 ], [ -45.723001, -23.236839 ], [ -45.726973, -23.231034 ], [ -45.730514, -23.229166 ], [ -45.731807, -23.227299 ], [ -45.7321875, -23.2233462 ] ] ] ] } }
]
}
