{
"type": "FeatureCollection",
"name": "ER_REGIAO_Campina do Monte Alegre_Salto",
"crs": { "type": "name", "properties": { "name": "urn:ogc:def:crs:EPSG::4674" } },
"xy_coordinate_resolution": 1e-15,
"features": [
{ "type": "Feature", "properties": { "fid": 151, "NM_REGIAO": "Sudeste", "NM_UF": "São Paulo", "NM_MUN": "Campina do Monte Alegre", "NM_DIST": "Salto", "CD_SUBDIST": "35094521500", "ER_REGIAO": "Campina do Monte Alegre_Salto", "ER_REGIAO_CIDADE": "Campina do Monte Alegre_Salto_Sorocaba" }, "geometry": { "type": "MultiPolygon", "coordinates": [ [ [ [ -48.5010399, -23.5567881 ], [ -48.5063855, -23.5486443 ], [ -48.5118845, -23.5477197 ], [ -48.5120925, -23.5510421 ], [ -48.5135966, -23.5542805 ], [ -48.5128799, -23.5582975 ], [ -48.51334, -23.5593504 ], [ -48.5169323, -23.5604564 ], [ -48.5226658, -23.5594654 ], [ -48.520675, -23.5531391 ], [ -48.5218783, -23.5515199 ], [ -48.5204734, -23.5499635 ], [ -48.5204014, -23.5457013 ], [ -48.5216527, -23.5443066 ], [ -48.5247569, -23.543414 ], [ -48.5289081, -23.5405904 ], [ -48.5349234, -23.5411392 ], [ -48.5330689, -23.5399392 ], [ -48.5326998, -23.5378731 ], [ -48.5311321, -23.536991 ], [ -48.5308295, -23.5357788 ], [ -48.5325766, -23.5333034 ], [ -48.5325167, -23.5264488 ], [ -48.536452, -23.5234937 ], [ -48.5392628, -23.5178006 ], [ -48.5389561, -23.5150283 ], [ -48.5377745, -23.5132984 ], [ -48.5337955, -23.5121808 ], [ -48.5278627, -23.512416 ], [ -48.5236971, -23.509847 ], [ -48.5201364, -23.5093271 ], [ -48.5181941, -23.5100898 ], [ -48.5120336, -23.5157547 ], [ -48.5054296, -23.5175595 ], [ -48.5021967, -23.5223882 ], [ -48.4966362, -23.5255947 ], [ -48.4937547, -23.5305587 ], [ -48.4872869, -23.5251147 ], [ -48.4819993, -23.526657 ], [ -48.4767486, -23.5257235 ], [ -48.4760728, -23.5284997 ], [ -48.4766674, -23.5333738 ], [ -48.4728593, -23.5483513 ], [ -48.4767955, -23.5485987 ], [ -48.4839287, -23.5506047 ], [ -48.4867935, -23.5498085 ], [ -48.4887282, -23.5511469 ], [ -48.4924151, -23.5518864 ], [ -48.4943175, -23.551652 ], [ -48.4960697, -23.5496886 ], [ -48.4990089, -23.5498822 ], [ -48.4997666, -23.5511727 ], [ -48.4986669, -23.5552328 ], [ -48.4976429, -23.555672 ], [ -48.4984859, -23.5565856 ], [ -48.4976782, -23.5575022 ], [ -48.4981243, -23.5587681 ], [ -48.4971338, -23.5592021 ], [ -48.4978491, -23.5606153 ], [ -48.4974548, -23.5616788 ], [ -48.4988365, -23.5616645 ], [ -48.4986309, -23.5633017 ], [ -48.5043228, -23.5596258 ], [ -48.5041027, -23.5580763 ], [ -48.5010399, -23.5567881 ] ] ] ] } }
]
}
