{
"type": "FeatureCollection",
"name": "ER_REGIAO_Cristais Paulista",
"crs": { "type": "name", "properties": { "name": "urn:ogc:def:crs:EPSG::4674" } },
"xy_coordinate_resolution": 1e-15,
"features": [
{ "type": "Feature", "properties": { "fid": 215, "NM_REGIAO": "Sudeste", "NM_UF": "São Paulo", "NM_MUN": "Cristais Paulista", "NM_DIST": "Cristais Paulista", "CD_SUBDIST": "35132070500", "ER_REGIAO": "Cristais Paulista", "ER_REGIAO_CIDADE": "Cristais Paulista_Franca" }, "geometry": { "type": "MultiPolygon", "coordinates": [ [ [ [ -47.421305, -20.3186837 ], [ -47.3895868, -20.2941225 ], [ -47.3807473, -20.291238 ], [ -47.3773974, -20.2914446 ], [ -47.3721464, -20.2932951 ], [ -47.3708916, -20.292971 ], [ -47.3701734, -20.2920651 ], [ -47.3703083, -20.2902296 ], [ -47.3733267, -20.2818076 ], [ -47.3703414, -20.2796301 ], [ -47.3664709, -20.2785291 ], [ -47.3681624, -20.2752182 ], [ -47.3680874, -20.2732051 ], [ -47.3669386, -20.2715011 ], [ -47.3629133, -20.2747231 ], [ -47.3582344, -20.2767143 ], [ -47.3516731, -20.277175 ], [ -47.3463292, -20.2698128 ], [ -47.345059, -20.2697882 ], [ -47.3451414, -20.2715545 ], [ -47.3435291, -20.2725153 ], [ -47.3364064, -20.2682876 ], [ -47.3349974, -20.2712304 ], [ -47.3323673, -20.2714607 ], [ -47.3261282, -20.2759539 ], [ -47.3243284, -20.276167 ], [ -47.3195971, -20.2743072 ], [ -47.3142512, -20.273772 ], [ -47.3073478, -20.2741228 ], [ -47.3049553, -20.2721278 ], [ -47.3016513, -20.2734992 ], [ -47.2971857, -20.2771421 ], [ -47.2940121, -20.2778857 ], [ -47.2908607, -20.2803105 ], [ -47.2878413, -20.2847512 ], [ -47.2861051, -20.2859053 ], [ -47.2847951, -20.2875069 ], [ -47.2843804, -20.2896054 ], [ -47.282467, -20.2897822 ], [ -47.2793906, -20.2927648 ], [ -47.2767287, -20.291638 ], [ -47.2766552, -20.2930036 ], [ -47.2777046, -20.2943906 ], [ -47.2784582, -20.2982508 ], [ -47.279621, -20.2994121 ], [ -47.2798519, -20.3018893 ], [ -47.2815939, -20.3034815 ], [ -47.2823134, -20.3083504 ], [ -47.2818234, -20.3125828 ], [ -47.2828782, -20.3152406 ], [ -47.2835959, -20.3152222 ], [ -47.2839345, -20.3134676 ], [ -47.28582, -20.3162865 ], [ -47.2846552, -20.3159644 ], [ -47.2849001, -20.3174114 ], [ -47.2839855, -20.3177737 ], [ -47.2851533, -20.3201707 ], [ -47.2840378, -20.3205253 ], [ -47.2851488, -20.3216244 ], [ -47.283816, -20.3225466 ], [ -47.2839871, -20.3241697 ], [ -47.2848459, -20.3251172 ], [ -47.2859568, -20.3250707 ], [ -47.285376, -20.3269714 ], [ -47.2840721, -20.3270942 ], [ -47.2841206, -20.3287817 ], [ -47.2853387, -20.3297124 ], [ -47.2846648, -20.3302447 ], [ -47.28496, -20.3319902 ], [ -47.2858418, -20.3335586 ], [ -47.2881846, -20.3318896 ], [ -47.2878227, -20.3331643 ], [ -47.288706, -20.333039 ], [ -47.2889053, -20.3339686 ], [ -47.2902892, -20.3337284 ], [ -47.2907064, -20.3353798 ], [ -47.2899904, -20.3361782 ], [ -47.2909985, -20.3370434 ], [ -47.2894355, -20.3375256 ], [ -47.2933472, -20.339641 ], [ -47.292515, -20.340532 ], [ -47.2939279, -20.3409939 ], [ -47.2933703, -20.3424714 ], [ -47.2982081, -20.3484357 ], [ -47.2955696, -20.3507531 ], [ -47.2971505, -20.3516752 ], [ -47.2955934, -20.3555533 ], [ -47.2965359, -20.3573388 ], [ -47.2957194, -20.3594571 ], [ -47.2946246, -20.360188 ], [ -47.2933515, -20.3643456 ], [ -47.29398, -20.3675129 ], [ -47.2949901, -20.3672316 ], [ -47.2954892, -20.3692059 ], [ -47.2925354, -20.3703152 ], [ -47.2930454, -20.3711541 ], [ -47.2944618, -20.3712101 ], [ -47.293482, -20.3733103 ], [ -47.2950963, -20.3749239 ], [ -47.2937686, -20.3761599 ], [ -47.2947885, -20.3778424 ], [ -47.2928757, -20.3792807 ], [ -47.2944313, -20.380768 ], [ -47.2942342, -20.3815332 ], [ -47.290625, -20.3832229 ], [ -47.2937612, -20.3856908 ], [ -47.2925418, -20.3867261 ], [ -47.2922891, -20.3881712 ], [ -47.2896376, -20.3866186 ], [ -47.2872378, -20.3879204 ], [ -47.2893468, -20.3905073 ], [ -47.2880312, -20.3931778 ], [ -47.2889376, -20.3952864 ], [ -47.2917543, -20.3980279 ], [ -47.2914556, -20.4000463 ], [ -47.2897948, -20.3996952 ], [ -47.2892612, -20.4012922 ], [ -47.2874026, -20.402028 ], [ -47.2854557, -20.40574 ], [ -47.2867669, -20.409034 ], [ -47.2888915, -20.4090849 ], [ -47.2895896, -20.4098116 ], [ -47.2880902, -20.4150027 ], [ -47.2884254, -20.41673 ], [ -47.2903682, -20.4179411 ], [ -47.2934821, -20.4180244 ], [ -47.2934566, -20.4186552 ], [ -47.2956164, -20.4174358 ], [ -47.2993455, -20.4196254 ], [ -47.3002078, -20.4189378 ], [ -47.3011868, -20.419491 ], [ -47.3021975, -20.4182114 ], [ -47.3042818, -20.4187952 ], [ -47.3086072, -20.4171947 ], [ -47.3115922, -20.4195175 ], [ -47.3119577, -20.4205083 ], [ -47.3106417, -20.4219524 ], [ -47.3128971, -20.4245402 ], [ -47.3142576, -20.4237735 ], [ -47.3170101, -20.4244312 ], [ -47.3179118, -20.423895 ], [ -47.318557, -20.4250923 ], [ -47.3201213, -20.4252643 ], [ -47.3220391, -20.4238089 ], [ -47.3254956, -20.4237134 ], [ -47.3289888, -20.4247397 ], [ -47.3322, -20.4233101 ], [ -47.3324881, -20.4246079 ], [ -47.3384633, -20.4257213 ], [ -47.339363, -20.4290437 ], [ -47.3439203, -20.4303727 ], [ -47.3444818, -20.4326047 ], [ -47.3462949, -20.4323699 ], [ -47.3495352, -20.434417 ], [ -47.3501023, -20.4360103 ], [ -47.3515136, -20.4367298 ], [ -47.3542738, -20.437018 ], [ -47.3559321, -20.4359936 ], [ -47.3623941, -20.4372408 ], [ -47.3640231, -20.4366043 ], [ -47.3658999, -20.4387666 ], [ -47.3675881, -20.4390499 ], [ -47.3723466, -20.4365629 ], [ -47.3740477, -20.4364332 ], [ -47.3754482, -20.4368052 ], [ -47.3780584, -20.4393332 ], [ -47.3845071, -20.4393128 ], [ -47.3903249, -20.4367395 ], [ -47.3934547, -20.4364829 ], [ -47.3981369, -20.4418919 ], [ -47.4060042, -20.4452039 ], [ -47.4126883, -20.4496375 ], [ -47.4134737, -20.4509397 ], [ -47.4128224, -20.4570779 ], [ -47.4140678, -20.4593761 ], [ -47.4481409, -20.4618912 ], [ -47.4583751, -20.4611537 ], [ -47.4629244, -20.4631188 ], [ -47.4820266, -20.4592283 ], [ -47.4868863, -20.4641292 ], [ -47.4914561, -20.4654832 ], [ -47.4986744, -20.4564666 ], [ -47.506068, -20.4568403 ], [ -47.5122435, -20.4521644 ], [ -47.520879, -20.4509429 ], [ -47.5225956, -20.4454307 ], [ -47.5227199, -20.4368455 ], [ -47.5244171, -20.4355959 ], [ -47.5246278, -20.4300827 ], [ -47.5271985, -20.4273966 ], [ -47.5279149, -20.4248145 ], [ -47.5251076, -20.4208985 ], [ -47.5219821, -20.4118946 ], [ -47.5197543, -20.4099183 ], [ -47.5197793, -20.4079542 ], [ -47.5188247, -20.4068268 ], [ -47.5195687, -20.4011203 ], [ -47.5171081, -20.3952405 ], [ -47.5218839, -20.3915321 ], [ -47.5240021, -20.3927124 ], [ -47.5294886, -20.3913239 ], [ -47.5291845, -20.3902538 ], [ -47.5266706, -20.3897322 ], [ -47.5249312, -20.387338 ], [ -47.5239392, -20.3824393 ], [ -47.5224326, -20.381927 ], [ -47.5200994, -20.3781042 ], [ -47.5146028, -20.372914 ], [ -47.5143795, -20.3713138 ], [ -47.5101619, -20.3679498 ], [ -47.5093307, -20.3647784 ], [ -47.5074895, -20.3624452 ], [ -47.5038539, -20.3597956 ], [ -47.5026019, -20.3440956 ], [ -47.5007231, -20.3397205 ], [ -47.4966439, -20.3336542 ], [ -47.5017294, -20.3249436 ], [ -47.5000731, -20.3220726 ], [ -47.5000002, -20.3183944 ], [ -47.4991445, -20.3169786 ], [ -47.4982951, -20.3161643 ], [ -47.4972938, -20.3169398 ], [ -47.4959998, -20.316651 ], [ -47.4946368, -20.3144443 ], [ -47.4899001, -20.3142852 ], [ -47.4860362, -20.3126033 ], [ -47.4817304, -20.3136158 ], [ -47.4720341, -20.3116967 ], [ -47.4646005, -20.3075944 ], [ -47.4623341, -20.3089169 ], [ -47.4604991, -20.3142792 ], [ -47.4574068, -20.3100783 ], [ -47.453363, -20.309216 ], [ -47.4487783, -20.3111556 ], [ -47.4444288, -20.3109756 ], [ -47.4413656, -20.3154524 ], [ -47.4398551, -20.3163649 ], [ -47.4355953, -20.3168917 ], [ -47.4280077, -20.3203238 ], [ -47.4248894, -20.3201659 ], [ -47.421305, -20.3186837 ] ] ] ] } }
]
}
