{
"type": "FeatureCollection",
"name": "ER_REGIAO_São Paulo_Tatuapé",
"crs": { "type": "name", "properties": { "name": "urn:ogc:def:crs:EPSG::4674" } },
"xy_coordinate_resolution": 1e-15,
"features": [
{ "type": "Feature", "properties": { "fid": 914, "NM_REGIAO": "Sudeste", "NM_UF": "São Paulo", "NM_MUN": "São Paulo", "NM_DIST": "Tatuapé", "CD_SUBDIST": "35503088000", "ER_REGIAO": "São Paulo_Tatuapé", "ER_REGIAO_CIDADE": "São Paulo_Tatuapé" }, "geometry": { "type": "MultiPolygon", "coordinates": [ [ [ [ -46.55871, -23.555002 ], [ -46.56172, -23.553266 ], [ -46.567213, -23.552756 ], [ -46.568922799999939, -23.553625499999953 ], [ -46.571166299999959, -23.552167099999963 ], [ -46.574487, -23.552617 ], [ -46.577407, -23.552019 ], [ -46.578858, -23.549261 ], [ -46.581121, -23.539757 ], [ -46.585013, -23.528335 ], [ -46.576338, -23.526198 ], [ -46.570705, -23.526245 ], [ -46.564956, -23.523718 ], [ -46.558226, -23.522932 ], [ -46.552238, -23.531706 ], [ -46.549022, -23.533451 ], [ -46.548245, -23.534897 ], [ -46.558187399999952, -23.536908899999958 ], [ -46.553811, -23.552877 ], [ -46.554074, -23.556088 ], [ -46.55871, -23.555002 ] ] ] ] } }
]
}
