{
"type": "FeatureCollection",
"name": "ER_REGIAO_José Bonifácio",
"crs": { "type": "name", "properties": { "name": "urn:ogc:def:crs:EPSG::4674" } },
"xy_coordinate_resolution": 1e-15,
"features": [
{ "type": "Feature", "properties": { "fid": 423, "NM_REGIAO": "Sudeste", "NM_UF": "São Paulo", "NM_MUN": "José Bonifácio", "NM_DIST": "José Bonifácio", "CD_SUBDIST": "35257060500", "ER_REGIAO": "José Bonifácio", "ER_REGIAO_CIDADE": "José Bonifácio_Araçatuba" }, "geometry": { "type": "MultiPolygon", "coordinates": [ [ [ [ -49.5730849, -21.0713613 ], [ -49.5738995, -21.0746971 ], [ -49.5704242, -21.0777157 ], [ -49.5706588, -21.0799955 ], [ -49.5690641, -21.0819889 ], [ -49.5703346, -21.0847544 ], [ -49.5717153, -21.0854977 ], [ -49.5712378, -21.0933085 ], [ -49.5737255, -21.0985037 ], [ -49.5731776, -21.1007749 ], [ -49.5755367, -21.1026837 ], [ -49.5748157, -21.1034229 ], [ -49.5758384, -21.1071786 ], [ -49.5745858, -21.1085041 ], [ -49.5745434, -21.1108398 ], [ -49.5764948, -21.113474 ], [ -49.5759824, -21.1147517 ], [ -49.5773792, -21.1157016 ], [ -49.5774645, -21.1166872 ], [ -49.5821964, -21.1181292 ], [ -49.5861525, -21.1177616 ], [ -49.58893, -21.1158172 ], [ -49.592867, -21.118924 ], [ -49.6002712, -21.1173637 ], [ -49.6028208, -21.1199832 ], [ -49.6043199, -21.1194862 ], [ -49.6047343, -21.1208346 ], [ -49.6054485, -21.1194668 ], [ -49.6088128, -21.1204274 ], [ -49.6094506, -21.1196832 ], [ -49.6114333, -21.1201391 ], [ -49.6191865, -21.1280096 ], [ -49.6207659, -21.1318382 ], [ -49.6203235, -21.133485 ], [ -49.6210918, -21.1341483 ], [ -49.6230219, -21.1337941 ], [ -49.6243872, -21.1381976 ], [ -49.6255051, -21.137112 ], [ -49.6264022, -21.1376131 ], [ -49.6270304, -21.1397419 ], [ -49.6276653, -21.1395502 ], [ -49.6280409, -21.1423261 ], [ -49.6321177, -21.1452907 ], [ -49.6340161, -21.1445878 ], [ -49.6373974, -21.1457408 ], [ -49.6383054, -21.147081 ], [ -49.6369351, -21.1496989 ], [ -49.641963, -21.1507402 ], [ -49.6429707, -21.1538862 ], [ -49.6455994, -21.1564781 ], [ -49.6465537, -21.1564512 ], [ -49.6466063, -21.157188 ], [ -49.6479224, -21.156417 ], [ -49.6513639, -21.1570072 ], [ -49.6544801, -21.1605569 ], [ -49.6538211, -21.1629653 ], [ -49.6549484, -21.1641406 ], [ -49.6607664, -21.1612668 ], [ -49.659624, -21.158604 ], [ -49.661805, -21.155751 ], [ -49.6628096, -21.1515237 ], [ -49.66254, -21.149705 ], [ -49.659923, -21.147493 ], [ -49.661555, -21.145526 ], [ -49.66086, -21.14314 ], [ -49.661278, -21.141525 ], [ -49.659908, -21.13906 ], [ -49.661119, -21.137508 ], [ -49.6599853, -21.1348469 ], [ -49.6630553, -21.131734 ], [ -49.661608, -21.127085 ], [ -49.6627149, -21.1257798 ], [ -49.6662384, -21.1283616 ], [ -49.671263, -21.129972 ], [ -49.675376, -21.134944 ], [ -49.681343, -21.133936 ], [ -49.689337, -21.130893 ], [ -49.7068293, -21.1358189 ], [ -49.7127157, -21.1367771 ], [ -49.718134, -21.136511 ], [ -49.719644, -21.137181 ], [ -49.721316, -21.136957 ], [ -49.726984, -21.133202 ], [ -49.733327, -21.133445 ], [ -49.7374306, -21.1356719 ], [ -49.7436098, -21.1425364 ], [ -49.74729, -21.145169 ], [ -49.749628, -21.150969 ], [ -49.752683, -21.152517 ], [ -49.759666, -21.151625 ], [ -49.762855, -21.152549 ], [ -49.764582, -21.155073 ], [ -49.766211, -21.161747 ], [ -49.771526, -21.170295 ], [ -49.773307, -21.177797 ], [ -49.783884, -21.192615 ], [ -49.785613, -21.200191 ], [ -49.783782, -21.208333 ], [ -49.789298, -21.208932 ], [ -49.802819, -21.203357 ], [ -49.811328, -21.202583 ], [ -49.8150572, -21.2033156 ], [ -49.8160624, -21.2043543 ], [ -49.8162997, -21.2066744 ], [ -49.8158438, -21.2082968 ], [ -49.8151927, -21.2083713 ], [ -49.815181, -21.211096 ], [ -49.817255, -21.213732 ], [ -49.819881, -21.220831 ], [ -49.820205, -21.227753 ], [ -49.822843, -21.231162 ], [ -49.824508, -21.237428 ], [ -49.8283261, -21.241746 ], [ -49.835198, -21.24563 ], [ -49.840961, -21.250374 ], [ -49.8441113, -21.2567716 ], [ -49.848634, -21.258983 ], [ -49.853599, -21.259158 ], [ -49.8636667, -21.261837 ], [ -49.8689121, -21.2607268 ], [ -49.8740323, -21.2576023 ], [ -49.8846692, -21.2481684 ], [ -49.9127403, -21.2395726 ], [ -49.9150931, -21.2375651 ], [ -49.9190632, -21.22733 ], [ -49.9211211, -21.22594 ], [ -49.9248617, -21.2258039 ], [ -49.9282596, -21.2267755 ], [ -49.9306386, -21.2281472 ], [ -49.9330434, -21.2313548 ], [ -49.9366518, -21.2327001 ], [ -49.9391122, -21.2320263 ], [ -49.9438292, -21.2322323 ], [ -49.9526572, -21.22923 ], [ -49.9620609, -21.2277122 ], [ -49.9697548, -21.228012 ], [ -49.9731025, -21.2292809 ], [ -49.9779859, -21.2297469 ], [ -49.9882191, -21.2266976 ], [ -49.9915675, -21.2266661 ], [ -49.9895111, -21.2249621 ], [ -49.9833493, -21.2234209 ], [ -49.9819015, -21.2217894 ], [ -49.982081, -21.2147959 ], [ -49.9796138, -21.2062557 ], [ -49.9791173, -21.1989847 ], [ -49.9799047, -21.1961636 ], [ -49.9782271, -21.1945558 ], [ -49.97801, -21.1928512 ], [ -49.9791212, -21.1865022 ], [ -49.9770121, -21.1839927 ], [ -49.978148, -21.1790116 ], [ -49.9742268, -21.17534 ], [ -49.9733471, -21.1722769 ], [ -49.9737808, -21.1695168 ], [ -49.9718743, -21.1684879 ], [ -49.9683552, -21.1685061 ], [ -49.9654355, -21.1647183 ], [ -49.9646254, -21.161964 ], [ -49.9632302, -21.1611106 ], [ -49.9644361, -21.1604072 ], [ -49.9638174, -21.159327 ], [ -49.9655424, -21.1596227 ], [ -49.9646123, -21.1556338 ], [ -49.9626674, -21.1539698 ], [ -49.964694, -21.1521072 ], [ -49.9646448, -21.1509535 ], [ -49.9631566, -21.1490936 ], [ -49.9625864, -21.1447583 ], [ -49.9599395, -21.1418227 ], [ -49.9601672, -21.1401738 ], [ -49.9612291, -21.1395139 ], [ -49.9597896, -21.1378745 ], [ -49.9591947, -21.139461 ], [ -49.958495, -21.1390333 ], [ -49.9596138, -21.1343865 ], [ -49.9608357, -21.1354535 ], [ -49.9620449, -21.1342405 ], [ -49.9616146, -21.1334264 ], [ -49.9595733, -21.1330317 ], [ -49.9583041, -21.1315755 ], [ -49.9561475, -21.1313141 ], [ -49.9565206, -21.1290566 ], [ -49.954873, -21.128577 ], [ -49.9559947, -21.1276183 ], [ -49.9545738, -21.1263958 ], [ -49.954802, -21.125445 ], [ -49.9502437, -21.1262685 ], [ -49.9504191, -21.124082 ], [ -49.9468829, -21.1225733 ], [ -49.9471471, -21.1218881 ], [ -49.9461343, -21.1213852 ], [ -49.9472235, -21.1199273 ], [ -49.94565, -21.1179867 ], [ -49.9461956, -21.1167962 ], [ -49.9456267, -21.1153772 ], [ -49.9467743, -21.1152414 ], [ -49.945815, -21.114189 ], [ -49.9475305, -21.1100217 ], [ -49.9469315, -21.1077617 ], [ -49.9476708, -21.10727 ], [ -49.9464944, -21.1060258 ], [ -49.9468651, -21.1051385 ], [ -49.9457442, -21.1032709 ], [ -49.9460623, -21.1004928 ], [ -49.9453369, -21.0989871 ], [ -49.9409126, -21.0962455 ], [ -49.9408984, -21.0942537 ], [ -49.939292, -21.0942758 ], [ -49.9396167, -21.0937011 ], [ -49.938378, -21.0932632 ], [ -49.9376632, -21.0914061 ], [ -49.9352344, -21.0899516 ], [ -49.9356392, -21.0892636 ], [ -49.9345857, -21.0887795 ], [ -49.9356177, -21.0874032 ], [ -49.9338101, -21.0856616 ], [ -49.9339609, -21.0835512 ], [ -49.929238, -21.0821806 ], [ -49.9285176, -21.0804631 ], [ -49.9276535, -21.0804839 ], [ -49.9281886, -21.079606 ], [ -49.9272925, -21.0781215 ], [ -49.9265209, -21.0783869 ], [ -49.9255619, -21.0758903 ], [ -49.9207429, -21.0769539 ], [ -49.9216977, -21.0744545 ], [ -49.9203085, -21.0728778 ], [ -49.9190179, -21.0732543 ], [ -49.9169112, -21.0725006 ], [ -49.9114967, -21.069191 ], [ -49.9093284, -21.0706182 ], [ -49.9078056, -21.0705492 ], [ -49.9066085, -21.0723945 ], [ -49.902164, -21.0737723 ], [ -49.9023553, -21.0754635 ], [ -49.9000709, -21.0753274 ], [ -49.8994277, -21.06822 ], [ -49.898556, -21.0668377 ], [ -49.8976874, -21.0668511 ], [ -49.8978371, -21.0659198 ], [ -49.8961711, -21.0660915 ], [ -49.8925579, -21.063603 ], [ -49.8887707, -21.0626721 ], [ -49.8891841, -21.0585264 ], [ -49.8867145, -21.0568525 ], [ -49.8863113, -21.0548466 ], [ -49.8835184, -21.0534116 ], [ -49.8828651, -21.0506337 ], [ -49.8782201, -21.0471517 ], [ -49.8782107, -21.0461292 ], [ -49.8766414, -21.0444749 ], [ -49.8771074, -21.0438407 ], [ -49.8754565, -21.0425834 ], [ -49.8756274, -21.0406489 ], [ -49.874647, -21.0416456 ], [ -49.872452, -21.0416031 ], [ -49.8693315, -21.0365793 ], [ -49.8697456, -21.033471 ], [ -49.868998, -21.0326907 ], [ -49.8658576, -21.0327873 ], [ -49.8624113, -21.0296548 ], [ -49.862004, -21.0241529 ], [ -49.8595376, -21.0232826 ], [ -49.8548884, -21.0181639 ], [ -49.8568314, -21.0136538 ], [ -49.8566537, -21.0116346 ], [ -49.8590186, -21.0081914 ], [ -49.8592139, -21.0069925 ], [ -49.8585484, -21.0067638 ], [ -49.859282, -21.0054201 ], [ -49.8578086, -21.0043089 ], [ -49.8569855, -21.0047287 ], [ -49.8550942, -21.0022388 ], [ -49.8537699, -21.0029949 ], [ -49.8511206, -20.9975903 ], [ -49.8486703, -20.9947709 ], [ -49.8490231, -20.9908774 ], [ -49.8484669, -20.9895855 ], [ -49.8472072, -20.9891307 ], [ -49.8479555, -20.9879277 ], [ -49.84674, -20.9860787 ], [ -49.8479776, -20.9833853 ], [ -49.8432279, -20.9772005 ], [ -49.8420627, -20.9777065 ], [ -49.8412053, -20.9766743 ], [ -49.8420048, -20.9738948 ], [ -49.8413276, -20.9720898 ], [ -49.8377034, -20.9699646 ], [ -49.8362988, -20.9672809 ], [ -49.8347781, -20.9662459 ], [ -49.8348156, -20.965066 ], [ -49.8327182, -20.9639746 ], [ -49.8330633, -20.963288 ], [ -49.830974, -20.9622171 ], [ -49.8313889, -20.9614566 ], [ -49.8280623, -20.9591366 ], [ -49.8297668, -20.9565224 ], [ -49.8275409, -20.9547661 ], [ -49.8272982, -20.9536901 ], [ -49.8278686, -20.9485138 ], [ -49.8266715, -20.9462732 ], [ -49.8276231, -20.9459065 ], [ -49.8264973, -20.9442023 ], [ -49.8270207, -20.9421943 ], [ -49.8222793, -20.9404851 ], [ -49.8217484, -20.9381254 ], [ -49.8208134, -20.9374034 ], [ -49.8194823, -20.938738 ], [ -49.8168498, -20.939427 ], [ -49.8072089, -20.9360933 ], [ -49.8024773, -20.9372326 ], [ -49.7996624, -20.9357037 ], [ -49.7924276, -20.9340847 ], [ -49.7779957, -20.9369604 ], [ -49.7723692, -20.9372101 ], [ -49.7712266, -20.9378713 ], [ -49.7705352, -20.9408735 ], [ -49.7663851, -20.9414634 ], [ -49.7625575, -20.9385891 ], [ -49.7595503, -20.9390316 ], [ -49.7574471, -20.9385075 ], [ -49.7556908, -20.9368515 ], [ -49.7516596, -20.9360078 ], [ -49.7476758, -20.9374198 ], [ -49.7444893, -20.9368513 ], [ -49.7411447, -20.9378157 ], [ -49.7358184, -20.9365957 ], [ -49.7296063, -20.9371867 ], [ -49.7271767, -20.935656 ], [ -49.7264361, -20.9320796 ], [ -49.7055256, -20.9506206 ], [ -49.7125508, -20.9531286 ], [ -49.7180317, -20.95941 ], [ -49.7202425, -20.9700627 ], [ -49.7214646, -20.9720471 ], [ -49.7207382, -20.9759697 ], [ -49.7144287, -20.9727643 ], [ -49.7062405, -20.9724431 ], [ -49.7024043, -20.9687088 ], [ -49.6959502, -20.9657277 ], [ -49.6920437, -20.9659671 ], [ -49.6867771, -20.9701511 ], [ -49.6858889, -20.9698628 ], [ -49.6850243, -20.9677139 ], [ -49.6803835, -20.9668873 ], [ -49.6759299, -20.9672469 ], [ -49.6721262, -20.9651507 ], [ -49.6680672, -20.9652037 ], [ -49.6665032, -20.9657643 ], [ -49.6648928, -20.9679677 ], [ -49.6617833, -20.9677166 ], [ -49.6596379, -20.9691528 ], [ -49.657676, -20.9766511 ], [ -49.6546497, -20.9797646 ], [ -49.6537297, -20.9946129 ], [ -49.6528245, -20.9943402 ], [ -49.6511359, -20.9912582 ], [ -49.6495272, -20.986448 ], [ -49.64257, -20.9771416 ], [ -49.6400722, -20.9723741 ], [ -49.6391142, -20.971418 ], [ -49.635344, -20.9712048 ], [ -49.6336226, -20.9727139 ], [ -49.6342933, -20.9730456 ], [ -49.6334716, -20.9734499 ], [ -49.6340119, -20.9738652 ], [ -49.6302845, -20.9757095 ], [ -49.6282105, -20.9777716 ], [ -49.6286936, -20.9844608 ], [ -49.6276051, -20.9860819 ], [ -49.6258748, -20.9875287 ], [ -49.622496, -20.988149 ], [ -49.6196469, -20.991865 ], [ -49.6130822, -20.9923132 ], [ -49.613038, -20.993839 ], [ -49.6112236, -20.9960839 ], [ -49.6125683, -20.9990574 ], [ -49.6118914, -21.0025279 ], [ -49.6068658, -21.0019973 ], [ -49.6034822, -21.0029201 ], [ -49.6042429, -21.0076369 ], [ -49.6032145, -21.0094142 ], [ -49.6046686, -21.0129805 ], [ -49.603695, -21.0154222 ], [ -49.6044785, -21.0163845 ], [ -49.6039888, -21.0172533 ], [ -49.6045543, -21.0187861 ], [ -49.6038856, -21.0191785 ], [ -49.6042274, -21.0217455 ], [ -49.6032369, -21.0223898 ], [ -49.6027771, -21.0252936 ], [ -49.5996597, -21.0240798 ], [ -49.5902396, -21.025345 ], [ -49.5842951, -21.0247622 ], [ -49.5735742, -21.0169025 ], [ -49.5697737, -21.0171022 ], [ -49.5663571, -21.0186932 ], [ -49.565569, -21.020147 ], [ -49.5625118, -21.0223982 ], [ -49.5596239, -21.0228717 ], [ -49.557438, -21.0246665 ], [ -49.5588856, -21.0271572 ], [ -49.5580609, -21.0319989 ], [ -49.5604243, -21.0348772 ], [ -49.5599837, -21.0386966 ], [ -49.5612458, -21.0393405 ], [ -49.563231, -21.0389338 ], [ -49.5639806, -21.044571 ], [ -49.5672319, -21.0489515 ], [ -49.5666233, -21.0528883 ], [ -49.5637875, -21.0534462 ], [ -49.5622739, -21.0567663 ], [ -49.5625579, -21.0577064 ], [ -49.5635976, -21.057916 ], [ -49.5618957, -21.0611697 ], [ -49.5632967, -21.0632249 ], [ -49.5627838, -21.064974 ], [ -49.5649356, -21.0671765 ], [ -49.5678678, -21.0666232 ], [ -49.5692587, -21.0684607 ], [ -49.5691611, -21.0704851 ], [ -49.5730849, -21.0713613 ] ] ] ] } }
]
}
