{
"type": "FeatureCollection",
"name": "ER_REGIAO_São Vicente",
"crs": { "type": "name", "properties": { "name": "urn:ogc:def:crs:EPSG::4674" } },
"xy_coordinate_resolution": 1e-15,
"features": [
{ "type": "Feature", "properties": { "fid": 942, "NM_REGIAO": "Sudeste", "NM_UF": "São Paulo", "NM_MUN": "São Vicente", "NM_DIST": "São Vicente", "CD_SUBDIST": "35510090500", "ER_REGIAO": "São Vicente", "ER_REGIAO_CIDADE": "São Vicente_Baixada Santista" }, "geometry": { "type": "MultiPolygon", "coordinates": [ [ [ [ -46.388745, -23.9762894 ], [ -46.3840177, -23.9783782 ], [ -46.3809778, -23.9772579 ], [ -46.3804323, -23.9792033 ], [ -46.3785016, -23.9798683 ], [ -46.3793566, -23.982139 ], [ -46.3788045, -23.9841744 ], [ -46.3745755, -23.9854018 ], [ -46.3752179, -23.9888663 ], [ -46.3782711, -23.9923495 ], [ -46.377996, -23.9937819 ], [ -46.3813239, -23.9942214 ], [ -46.3841631, -23.9955738 ], [ -46.386915, -23.9951535 ], [ -46.3920941, -23.9986285 ], [ -46.39284, -23.995339 ], [ -46.396405, -23.993594 ], [ -46.398821, -23.986982 ], [ -46.400763, -23.984621 ], [ -46.404512, -23.986864 ], [ -46.408499, -23.987981 ], [ -46.41346, -23.986205 ], [ -46.417863, -23.983242 ], [ -46.42232, -23.977626 ], [ -46.4259367, -23.9785934 ], [ -46.4322979, -23.9775286 ], [ -46.4335081, -23.9782521 ], [ -46.4332502, -23.9814179 ], [ -46.4346156, -23.9843912 ], [ -46.4398019, -23.9850411 ], [ -46.4460314, -23.9820177 ], [ -46.4533146, -23.9898385 ], [ -46.4646147, -23.9938824 ], [ -46.4632963, -23.9974211 ], [ -46.4637089, -23.9985445 ], [ -46.4651511, -23.9988241 ], [ -46.4694704, -23.9950601 ], [ -46.4702974, -23.9951732 ], [ -46.4706814, -23.9960285 ], [ -46.4681313, -24.0014776 ], [ -46.4684619, -24.0024048 ], [ -46.4734958, -24.0022088 ], [ -46.4763576, -24.0053421 ], [ -46.4817962, -24.0045058 ], [ -46.4833116, -24.0065482 ], [ -46.4845467, -24.0046963 ], [ -46.483666, -24.0024541 ], [ -46.4857108, -24.00192 ], [ -46.4857644, -23.9995195 ], [ -46.4894588, -24.0023233 ], [ -46.4894103, -24.0007078 ], [ -46.4901869, -24.0007744 ], [ -46.4922181, -24.003595 ], [ -46.4960125, -24.0021377 ], [ -46.4949594, -24.0009231 ], [ -46.4963562, -23.999587 ], [ -46.4950128, -23.9991653 ], [ -46.4954614, -23.9966692 ], [ -46.5092663, -23.9877704 ], [ -46.508991, -23.9858898 ], [ -46.5102455, -23.9849955 ], [ -46.5103925, -23.9828742 ], [ -46.5087533, -23.9799274 ], [ -46.5105822, -23.9774631 ], [ -46.5124421, -23.9768684 ], [ -46.5134586, -23.9749211 ], [ -46.5137163, -23.972552 ], [ -46.5126435, -23.9706938 ], [ -46.5142056, -23.9651113 ], [ -46.5219053, -23.9584686 ], [ -46.5214098, -23.956783 ], [ -46.5175407, -23.9537598 ], [ -46.5177203, -23.9515457 ], [ -46.5195576, -23.9484819 ], [ -46.5240857, -23.9478078 ], [ -46.5268249, -23.946424 ], [ -46.5342414, -23.9495017 ], [ -46.5414481, -23.9547837 ], [ -46.5484947, -23.9566472 ], [ -46.5576453, -23.9660543 ], [ -46.564105, -23.9671555 ], [ -46.5657968, -23.9687164 ], [ -46.5681332, -23.9694403 ], [ -46.5734243, -23.9768044 ], [ -46.5733453, -23.9796268 ], [ -46.5757052, -23.979928 ], [ -46.5758779, -23.9827374 ], [ -46.578804, -23.9852366 ], [ -46.5840618, -23.9857299 ], [ -46.588285, -23.9890177 ], [ -46.5902554, -23.9922969 ], [ -46.592493, -23.9941731 ], [ -46.5930656, -23.9975 ], [ -46.6032804, -23.9961728 ], [ -46.6082461, -23.9987272 ], [ -46.6100235, -24.0012796 ], [ -46.6153239, -24.0021071 ], [ -46.6203611, -24.0080388 ], [ -46.6241167, -24.009225 ], [ -46.6272427, -24.0084496 ], [ -46.6316946, -24.0100227 ], [ -46.6368081, -24.0090862 ], [ -46.6425363, -24.0102009 ], [ -46.6462957, -24.0076569 ], [ -46.6502954, -24.0029029 ], [ -46.649593, -24.001182 ], [ -46.647587, -23.999895 ], [ -46.642252, -23.997692 ], [ -46.639695, -23.99742 ], [ -46.637901, -23.994343 ], [ -46.634929, -23.994748 ], [ -46.633723, -23.992732 ], [ -46.631151, -23.992286 ], [ -46.629209, -23.990858 ], [ -46.629217, -23.990129 ], [ -46.633264, -23.987839 ], [ -46.633279, -23.983759 ], [ -46.635757, -23.977462 ], [ -46.631398, -23.975166 ], [ -46.629422, -23.973764 ], [ -46.629636, -23.973185 ], [ -46.627933, -23.973374 ], [ -46.627472, -23.972291 ], [ -46.625113, -23.972355 ], [ -46.624339, -23.971183 ], [ -46.620545, -23.970807 ], [ -46.6179828, -23.9677768 ], [ -46.6166789, -23.9681068 ], [ -46.6158197, -23.9672882 ], [ -46.613278, -23.9684775 ], [ -46.6132316, -23.9697861 ], [ -46.6125394, -23.9699316 ], [ -46.6119465, -23.9677628 ], [ -46.609372, -23.967638 ], [ -46.606972, -23.965613 ], [ -46.600287, -23.963557 ], [ -46.597297, -23.963444 ], [ -46.59586, -23.965304 ], [ -46.59493, -23.965226 ], [ -46.592237, -23.962947 ], [ -46.589305, -23.962587 ], [ -46.588256, -23.961357 ], [ -46.585299, -23.960838 ], [ -46.584798, -23.959583 ], [ -46.582449, -23.958522 ], [ -46.580286, -23.95577 ], [ -46.577193, -23.956873 ], [ -46.575312, -23.953939 ], [ -46.571346, -23.952489 ], [ -46.569671, -23.946789 ], [ -46.567629, -23.947577 ], [ -46.567384, -23.949498 ], [ -46.566202, -23.949607 ], [ -46.567644, -23.951051 ], [ -46.567761, -23.953416 ], [ -46.567108, -23.954204 ], [ -46.565787, -23.953836 ], [ -46.564313, -23.952707 ], [ -46.563484, -23.948588 ], [ -46.560971, -23.946498 ], [ -46.560408, -23.947326 ], [ -46.558728, -23.946285 ], [ -46.556447, -23.94152 ], [ -46.552174, -23.940403 ], [ -46.552213, -23.936982 ], [ -46.550725, -23.936363 ], [ -46.550295, -23.934603 ], [ -46.548384, -23.933243 ], [ -46.548273, -23.929731 ], [ -46.545684, -23.930149 ], [ -46.543752, -23.928367 ], [ -46.544269, -23.926686 ], [ -46.540724, -23.92363 ], [ -46.537364, -23.924046 ], [ -46.535346, -23.923256 ], [ -46.534054, -23.921263 ], [ -46.534745, -23.920207 ], [ -46.533586, -23.919813 ], [ -46.532262, -23.917576 ], [ -46.526049, -23.91576 ], [ -46.52436, -23.913357 ], [ -46.521284, -23.912255 ], [ -46.520878, -23.910961 ], [ -46.522692, -23.911176 ], [ -46.521641, -23.909107 ], [ -46.522419, -23.907748 ], [ -46.519947, -23.905342 ], [ -46.517153, -23.904958 ], [ -46.515007, -23.905875 ], [ -46.512483, -23.904378 ], [ -46.509062, -23.904148 ], [ -46.503532, -23.90472 ], [ -46.50086, -23.902379 ], [ -46.497604, -23.901607 ], [ -46.496213, -23.899565 ], [ -46.4923476, -23.9003444 ], [ -46.4931312, -23.9021248 ], [ -46.4928356, -23.9064363 ], [ -46.481041, -23.9163888 ], [ -46.4774664, -23.918153 ], [ -46.4717109, -23.9185355 ], [ -46.4687732, -23.9167993 ], [ -46.4632019, -23.9152833 ], [ -46.457006, -23.9084893 ], [ -46.4560864, -23.9083548 ], [ -46.4557997, -23.907032 ], [ -46.4532969, -23.9083435 ], [ -46.4506453, -23.9078569 ], [ -46.4474946, -23.9091959 ], [ -46.4471221, -23.9131802 ], [ -46.4494793, -23.9117549 ], [ -46.450774, -23.9126735 ], [ -46.4503287, -23.9192834 ], [ -46.4532385, -23.9272373 ], [ -46.4541489, -23.932917 ], [ -46.450793, -23.9393327 ], [ -46.4481374, -23.9411239 ], [ -46.4452176, -23.9414606 ], [ -46.4394073, -23.9378222 ], [ -46.4290385, -23.9374585 ], [ -46.4224037, -23.934754 ], [ -46.406681, -23.934151 ], [ -46.398035, -23.936218 ], [ -46.391642, -23.935139 ], [ -46.386333, -23.932998 ], [ -46.386227, -23.935597 ], [ -46.391617, -23.94043 ], [ -46.39154, -23.941424 ], [ -46.388185, -23.943783 ], [ -46.385563, -23.943804 ], [ -46.384452, -23.945665 ], [ -46.382558, -23.946859 ], [ -46.3837535, -23.9492597 ], [ -46.3829397, -23.9496182 ], [ -46.362389, -23.952633 ], [ -46.3551256, -23.97107 ], [ -46.363388, -23.9720148 ], [ -46.367905, -23.9741233 ], [ -46.3698327, -23.9776026 ], [ -46.3677293, -23.9786766 ], [ -46.3672633, -23.9811328 ], [ -46.3680014, -23.9817821 ], [ -46.372408, -23.9803275 ], [ -46.3727467, -23.9787109 ], [ -46.3716764, -23.9765199 ], [ -46.3726862, -23.9760503 ], [ -46.3717254, -23.9749121 ], [ -46.3756827, -23.9695843 ], [ -46.3774845, -23.9694125 ], [ -46.3825277, -23.9710862 ], [ -46.3858217, -23.9743664 ], [ -46.3886359, -23.9747757 ], [ -46.388745, -23.9762894 ] ] ], [ [ [ -46.3676497, -23.9821012 ], [ -46.3683223, -23.9823554 ], [ -46.3682983, -23.9821447 ], [ -46.3676497, -23.9821012 ] ] ] ] } }
]
}
