{
"type": "FeatureCollection",
"name": "ER_REGIAO_Iaras",
"crs": { "type": "name", "properties": { "name": "urn:ogc:def:crs:EPSG::4674" } },
"xy_coordinate_resolution": 1e-15,
"features": [
{ "type": "Feature", "properties": { "fid": 316, "NM_REGIAO": "Sudeste", "NM_UF": "São Paulo", "NM_MUN": "Iaras", "NM_DIST": "Iaras", "CD_SUBDIST": "35192530500", "ER_REGIAO": "Iaras", "ER_REGIAO_CIDADE": "Iaras_Bauru" }, "geometry": { "type": "MultiPolygon", "coordinates": [ [ [ [ -49.173647, -22.769650599999977 ], [ -49.175169, -22.766934699999979 ], [ -49.177592599999969, -22.758752299999969 ], [ -49.178677499999935, -22.752503 ], [ -49.183051699999965, -22.746866199999943 ], [ -49.183388899999954, -22.743619099999933 ], [ -49.186318899999947, -22.736708199999953 ], [ -49.185891499999968, -22.730929499999945 ], [ -49.182991199999947, -22.724177599999962 ], [ -49.181955, -22.729391699999951 ], [ -49.177067399999942, -22.729314 ], [ -49.174687899999981, -22.730311599999936 ], [ -49.172971199999949, -22.728196299999979 ], [ -49.172030499999948, -22.723623599999939 ], [ -49.168371899999954, -22.72203079999997 ], [ -49.165587399999936, -22.719294099999956 ], [ -49.163351, -22.71338529999997 ], [ -49.16225449999996, -22.705586 ], [ -49.158392299999946, -22.701165799999956 ], [ -49.156116199999985, -22.696505099999968 ], [ -49.154678299999944, -22.691939 ], [ -49.154488799999967, -22.687617 ], [ -49.153170099999954, -22.685249599999963 ], [ -49.14456, -22.681799099999978 ], [ -49.135227399999962, -22.675636699999927 ], [ -49.133285699999931, -22.672783799999934 ], [ -49.126790599999936, -22.673450599999967 ], [ -49.119684399999983, -22.672377399999959 ], [ -49.115388799999948, -22.674081499999943 ], [ -49.111433899999952, -22.67386659999994 ], [ -49.108866599999942, -22.675891599999943 ], [ -49.106815899999958, -22.671819199999959 ], [ -49.104599099999973, -22.669382 ], [ -49.100881499999957, -22.667564499999969 ], [ -49.095332799999937, -22.666890799999976 ], [ -49.096035499999971, -22.66809939999996 ], [ -49.095570599999974, -22.673549599999944 ], [ -49.096806499999957, -22.68044969999994 ], [ -49.09455319999995, -22.685782299999971 ], [ -49.094625699999938, -22.69935959999998 ], [ -49.092179899999962, -22.705620199999942 ], [ -49.085437899999931, -22.713736099999949 ], [ -49.079642299999932, -22.718409399999928 ], [ -49.076542599999982, -22.721986299999969 ], [ -49.0718, -22.72503439999997 ], [ -49.066615, -22.730901199999948 ], [ -49.061846099999968, -22.732880799999975 ], [ -49.056966299999942, -22.736905799999931 ], [ -49.051630499999931, -22.755606899999975 ], [ -49.041809699999931, -22.76112489999997 ], [ -49.038266799999974, -22.761114199999952 ], [ -49.037149499999941, -22.763396 ], [ -49.032511399999976, -22.762740599999972 ], [ -49.030492699999968, -22.763226499999973 ], [ -49.030064599999946, -22.765787199999977 ], [ -49.026589899999976, -22.771916099999942 ], [ -49.025404799999933, -22.783697099999927 ], [ -49.023834599999986, -22.786574399999949 ], [ -49.023218799999938, -22.789976699999954 ], [ -49.027858799999933, -22.795079799999939 ], [ -49.028948499999956, -22.797618199999931 ], [ -49.029978599999936, -22.807029299999954 ], [ -49.029342, -22.816921699999966 ], [ -49.029604599999971, -22.818757299999959 ], [ -49.032781799999952, -22.823157399999957 ], [ -49.032940399999973, -22.830910399999937 ], [ -49.03086559999997, -22.833844 ], [ -49.028411499999947, -22.835495099999946 ], [ -49.025540699999965, -22.836138799999958 ], [ -49.024736899999937, -22.837306199999944 ], [ -49.019823499999973, -22.839242499999955 ], [ -49.013769199999956, -22.840624199999979 ], [ -49.013119299999971, -22.837387899999953 ], [ -49.01042769999998, -22.832647699999939 ], [ -49.003238399999987, -22.827039299999967 ], [ -48.995991699999934, -22.819235799999944 ], [ -48.995514499999956, -22.824039899999946 ], [ -48.993410499999982, -22.826022899999941 ], [ -48.993219599999975, -22.828067499999975 ], [ -48.990573799999936, -22.831292399999938 ], [ -48.988972399999966, -22.834901299999956 ], [ -48.983266599999979, -22.840693 ], [ -48.983315199999936, -22.842448799999943 ], [ -48.98474159999995, -22.843686899999966 ], [ -48.984349899999984, -22.846998599999949 ], [ -48.986796899999945, -22.850098699999933 ], [ -48.986909599999933, -22.851885399999958 ], [ -48.988403199999937, -22.853529 ], [ -48.99064379999993, -22.853203899999983 ], [ -48.991580099999965, -22.857281399999977 ], [ -48.99089209999994, -22.859953499999961 ], [ -48.991528699999947, -22.860802899999953 ], [ -48.990038499999969, -22.862911199999928 ], [ -48.990815899999973, -22.863487699999951 ], [ -48.990319299999953, -22.864982399999974 ], [ -48.991339599999947, -22.865579899999943 ], [ -48.992377199999964, -22.870563 ], [ -48.991758399999981, -22.871111 ], [ -48.993612199999973, -22.872110199999952 ], [ -48.993642699999953, -22.873854699999981 ], [ -48.996418799999958, -22.875390899999957 ], [ -48.995956, -22.879284899999959 ], [ -48.996931699999948, -22.882028099999957 ], [ -49.000009299999931, -22.883908599999927 ], [ -49.000772199999972, -22.886316399999941 ], [ -49.002371099999948, -22.886672699999963 ], [ -49.002410899999973, -22.885614 ], [ -49.003400599999964, -22.887290399999927 ], [ -49.006715399999962, -22.887653599999965 ], [ -49.008914, -22.890110799999945 ], [ -49.010242499999947, -22.889012199999968 ], [ -49.010322199999962, -22.885533 ], [ -49.011285399999963, -22.884714799999983 ], [ -49.014635599999963, -22.885389599999939 ], [ -49.016692299999931, -22.884879299999966 ], [ -49.018155699999966, -22.888432 ], [ -49.023287499999981, -22.886255199999937 ], [ -49.027192099999979, -22.890175799999952 ], [ -49.028681099999972, -22.888176899999962 ], [ -49.030508, -22.887256699999966 ], [ -49.030223899999953, -22.885447499999941 ], [ -49.031560599999978, -22.885211799999979 ], [ -49.034792299999935, -22.887776499999973 ], [ -49.039751299999978, -22.883161199999961 ], [ -49.041424099999972, -22.885424199999932 ], [ -49.039413599999932, -22.887078299999928 ], [ -49.042066899999952, -22.891097499999944 ], [ -49.045471499999962, -22.901722699999937 ], [ -49.048678199999983, -22.905768 ], [ -49.050389199999984, -22.912244499999929 ], [ -49.052170099999955, -22.913906599999962 ], [ -49.055926699999986, -22.913379199999952 ], [ -49.058569799999987, -22.917112499999973 ], [ -49.063812799999937, -22.918870099999936 ], [ -49.064954399999976, -22.919020699999976 ], [ -49.069375199999968, -22.916398 ], [ -49.075941199999932, -22.914030699999955 ], [ -49.094620199999952, -22.908604799999978 ], [ -49.095205, -22.913592799999947 ], [ -49.092812599999945, -22.918103599999938 ], [ -49.093246099999931, -22.92484769999993 ], [ -49.095527899999979, -22.925404299999968 ], [ -49.096613, -22.924554199999932 ], [ -49.097105799999952, -22.925899699999945 ], [ -49.098360699999944, -22.925182599999971 ], [ -49.101663599999938, -22.925502199999983 ], [ -49.102979299999959, -22.927075699999932 ], [ -49.105264399999953, -22.927787199999955 ], [ -49.107835, -22.925718099999983 ], [ -49.108579899999938, -22.926213799999971 ], [ -49.109147099999973, -22.924655 ], [ -49.109765799999934, -22.925433299999952 ], [ -49.111793899999952, -22.924966899999959 ], [ -49.112495799999976, -22.923185199999978 ], [ -49.115610699999934, -22.924095899999941 ], [ -49.117484699999977, -22.923572399999955 ], [ -49.120757499999968, -22.928994099999954 ], [ -49.122222299999976, -22.942424299999971 ], [ -49.149554799999976, -22.959173899999939 ], [ -49.15178979999996, -22.951998299999957 ], [ -49.154104199999949, -22.950431299999934 ], [ -49.154363899999964, -22.948621499999945 ], [ -49.159019899999976, -22.942664399999956 ], [ -49.164749099999938, -22.940335399999981 ], [ -49.172145299999954, -22.939706099999967 ], [ -49.172271699999953, -22.937932699999976 ], [ -49.173916099999985, -22.936676499999976 ], [ -49.17352139999997, -22.930734 ], [ -49.175280599999951, -22.926435799999979 ], [ -49.174131, -22.925435299999947 ], [ -49.172362, -22.92531409999998 ], [ -49.171743499999934, -22.922186899999929 ], [ -49.172910699999932, -22.920850399999949 ], [ -49.171183599999949, -22.919964899999968 ], [ -49.171449299999949, -22.918359699999939 ], [ -49.170531199999971, -22.915705299999956 ], [ -49.167694799999936, -22.91282689999997 ], [ -49.167954, -22.911736799999971 ], [ -49.171603699999935, -22.912225799999931 ], [ -49.171119199999964, -22.910296099999982 ], [ -49.173114199999986, -22.907780399999979 ], [ -49.176422899999977, -22.908724599999971 ], [ -49.182919699999957, -22.906890899999951 ], [ -49.183229499999982, -22.905935499999941 ], [ -49.181838, -22.904114499999935 ], [ -49.185671799999966, -22.903172899999959 ], [ -49.186270099999945, -22.901562 ], [ -49.185729199999969, -22.899140199999977 ], [ -49.18910939999995, -22.898401699999965 ], [ -49.188987599999962, -22.896814 ], [ -49.191761299999939, -22.89276289999998 ], [ -49.192761299999972, -22.894232399999964 ], [ -49.196819399999981, -22.889673499999958 ], [ -49.196680699999945, -22.888792799999976 ], [ -49.198385599999938, -22.889525899999967 ], [ -49.201944599999933, -22.888238699999931 ], [ -49.202756, -22.885845299999971 ], [ -49.201640199999986, -22.883857199999966 ], [ -49.201998499999945, -22.881654 ], [ -49.203287299999943, -22.878669699999932 ], [ -49.207204899999965, -22.874731299999951 ], [ -49.205820699999947, -22.871617 ], [ -49.206811, -22.871230299999979 ], [ -49.208528699999931, -22.872877499999959 ], [ -49.209761, -22.871667899999977 ], [ -49.20959339999996, -22.869957399999976 ], [ -49.205917699999986, -22.86959 ], [ -49.201423399999953, -22.86725679999995 ], [ -49.199623499999973, -22.865534399999945 ], [ -49.199761399999943, -22.863084 ], [ -49.198888499999953, -22.862037199999975 ], [ -49.194503499999939, -22.861583199999927 ], [ -49.193384099999946, -22.857899099999941 ], [ -49.189499099999978, -22.857952699999942 ], [ -49.187674699999945, -22.854384399999958 ], [ -49.185500399999967, -22.855448699999954 ], [ -49.184557699999971, -22.854903199999967 ], [ -49.184975299999962, -22.853655799999956 ], [ -49.183863199999962, -22.850392099999965 ], [ -49.182102199999974, -22.848969799999963 ], [ -49.181978699999945, -22.846308799999974 ], [ -49.180137199999933, -22.84335909999993 ], [ -49.180027299999949, -22.840923699999962 ], [ -49.178819499999975, -22.839929699999971 ], [ -49.178955499999972, -22.838562899999943 ], [ -49.177985899999953, -22.837230199999965 ], [ -49.178485399999943, -22.835011399999928 ], [ -49.175701899999979, -22.826889899999969 ], [ -49.176735, -22.818831399999965 ], [ -49.176386399999956, -22.815674499999943 ], [ -49.174643699999933, -22.812558399999944 ], [ -49.175450799999965, -22.80910229999995 ], [ -49.174328899999978, -22.804939399999967 ], [ -49.175202399999932, -22.795346499999937 ], [ -49.179860599999984, -22.786265 ], [ -49.178299599999946, -22.779183899999964 ], [ -49.173544799999945, -22.771723699999939 ], [ -49.173647, -22.769650599999977 ] ] ] ] } }
]
}
