{
"type": "FeatureCollection",
"name": "ER_REGIAO_Auriflama",
"crs": { "type": "name", "properties": { "name": "urn:ogc:def:crs:EPSG::4674" } },
"xy_coordinate_resolution": 1e-15,
"features": [
{ "type": "Feature", "properties": { "fid": 66, "NM_REGIAO": "Sudeste", "NM_UF": "São Paulo", "NM_MUN": "Auriflama", "NM_DIST": "Auriflama", "CD_SUBDIST": "35042060500", "ER_REGIAO": "Auriflama", "ER_REGIAO_CIDADE": "Auriflama_Araçatuba" }, "geometry": { "type": "MultiPolygon", "coordinates": [ [ [ [ -50.4801922, -20.6526247 ], [ -50.4800228, -20.6564156 ], [ -50.4832499, -20.6602876 ], [ -50.4802459, -20.6670957 ], [ -50.4798293, -20.67109 ], [ -50.4805135, -20.6742202 ], [ -50.4776268, -20.6804615 ], [ -50.4765075, -20.6877661 ], [ -50.4785582, -20.6886828 ], [ -50.4784602, -20.6900987 ], [ -50.4810445, -20.6967591 ], [ -50.483317, -20.6968857 ], [ -50.4852509, -20.700247 ], [ -50.4892711, -20.7015366 ], [ -50.4923158, -20.7052839 ], [ -50.4933287, -20.7043701 ], [ -50.4942447, -20.7045781 ], [ -50.4941501, -20.7068095 ], [ -50.4965997, -20.710348 ], [ -50.4981628, -20.7149464 ], [ -50.4982134, -20.7197152 ], [ -50.5014552, -20.7229325 ], [ -50.5022872, -20.7250446 ], [ -50.5000253, -20.7294057 ], [ -50.5012594, -20.7324911 ], [ -50.5001929, -20.7335572 ], [ -50.4997632, -20.7364952 ], [ -50.5008685, -20.7391271 ], [ -50.5029321, -20.7407239 ], [ -50.5021293, -20.7443083 ], [ -50.5029244, -20.747236 ], [ -50.5057387, -20.7512329 ], [ -50.5058511, -20.7546563 ], [ -50.5049138, -20.7568228 ], [ -50.5059183, -20.7591269 ], [ -50.5055827, -20.7616059 ], [ -50.602395, -20.7728914 ], [ -50.6043734, -20.7726084 ], [ -50.6132774, -20.7679815 ], [ -50.6220626, -20.76745 ], [ -50.6254878, -20.7652499 ], [ -50.6273523, -20.7615876 ], [ -50.6298857, -20.7616197 ], [ -50.6323905, -20.7592767 ], [ -50.6333731, -20.7592788 ], [ -50.6353926, -20.7612378 ], [ -50.638675, -20.7620903 ], [ -50.6429764, -20.7518568 ], [ -50.6418002, -20.7492772 ], [ -50.638565, -20.7460095 ], [ -50.6394756, -20.7426378 ], [ -50.6422077, -20.7401472 ], [ -50.645379, -20.7403578 ], [ -50.6518477, -20.7357883 ], [ -50.6588767, -20.7335921 ], [ -50.6595766, -20.7317204 ], [ -50.6579432, -20.7282202 ], [ -50.6624505, -20.7313413 ], [ -50.6680611, -20.7318468 ], [ -50.6716955, -20.7365601 ], [ -50.6746861, -20.7387485 ], [ -50.6769446, -20.7381931 ], [ -50.68218, -20.7342924 ], [ -50.682615, -20.7280412 ], [ -50.6848338, -20.7208328 ], [ -50.6835119, -20.7117838 ], [ -50.6855468, -20.7077971 ], [ -50.6784576, -20.7087157 ], [ -50.6718852, -20.7070127 ], [ -50.6700002, -20.7074065 ], [ -50.6673042, -20.7055419 ], [ -50.6641572, -20.7057011 ], [ -50.658222, -20.7016551 ], [ -50.6503211, -20.6944787 ], [ -50.6490521, -20.6894615 ], [ -50.6463678, -20.6862169 ], [ -50.6396474, -20.6801169 ], [ -50.636608, -20.679036 ], [ -50.6330313, -20.6757045 ], [ -50.6324064, -20.6715717 ], [ -50.6295713, -20.6684575 ], [ -50.6254382, -20.6664933 ], [ -50.6192697, -20.6653299 ], [ -50.6171178, -20.6589536 ], [ -50.6208999, -20.6538669 ], [ -50.6224368, -20.6507298 ], [ -50.6223684, -20.6479222 ], [ -50.6235451, -20.6444885 ], [ -50.6276683, -20.6386614 ], [ -50.6262169, -20.6370662 ], [ -50.6324691, -20.6309801 ], [ -50.6349191, -20.6271922 ], [ -50.6300639, -20.6267342 ], [ -50.6305686, -20.6259688 ], [ -50.6345135, -20.625053 ], [ -50.6370755, -20.6216697 ], [ -50.6388087, -20.6211023 ], [ -50.6409429, -20.6163055 ], [ -50.6448383, -20.6125341 ], [ -50.6468526, -20.6111332 ], [ -50.6519435, -20.611429 ], [ -50.6549503, -20.6087226 ], [ -50.6564247, -20.6024741 ], [ -50.6597326, -20.6005871 ], [ -50.6607234, -20.5985945 ], [ -50.6600442, -20.595379 ], [ -50.6612177, -20.5929861 ], [ -50.6608905, -20.5903112 ], [ -50.6616894, -20.5882112 ], [ -50.6648333, -20.584999 ], [ -50.6678926, -20.5837721 ], [ -50.6690248, -20.5804532 ], [ -50.6711409, -20.5787406 ], [ -50.6717197, -20.5757509 ], [ -50.6744917, -20.5737054 ], [ -50.6771751, -20.5696234 ], [ -50.677868, -20.5653987 ], [ -50.6771877, -20.5635499 ], [ -50.6794651, -20.5575444 ], [ -50.6784211, -20.5494125 ], [ -50.6799963, -20.5416799 ], [ -50.6792345, -20.5380756 ], [ -50.6795902, -20.5357921 ], [ -50.6781567, -20.5346924 ], [ -50.6776266, -20.532222 ], [ -50.6800128, -20.5282114 ], [ -50.6783389, -20.5276823 ], [ -50.6770035, -20.5293179 ], [ -50.6744405, -20.5305604 ], [ -50.6696439, -20.5318662 ], [ -50.666421, -20.5320554 ], [ -50.6640305, -20.5309613 ], [ -50.6613902, -20.5273871 ], [ -50.6625732, -20.5225805 ], [ -50.6614156, -20.5194675 ], [ -50.6579913, -20.517109 ], [ -50.6540286, -20.5165676 ], [ -50.6497662, -20.514598 ], [ -50.6499307, -20.5124043 ], [ -50.6474615, -20.5110167 ], [ -50.6484527, -20.5092636 ], [ -50.6480926, -20.5070657 ], [ -50.646257, -20.507618 ], [ -50.6446167, -20.5065402 ], [ -50.6407711, -20.507201 ], [ -50.639371, -20.5091216 ], [ -50.6380896, -20.508037 ], [ -50.6371876, -20.5083432 ], [ -50.6361248, -20.5108422 ], [ -50.6368723, -20.5135496 ], [ -50.634077, -20.5151893 ], [ -50.633583, -20.5149929 ], [ -50.6342875, -20.5138748 ], [ -50.6318285, -20.5149516 ], [ -50.6293191, -20.5104379 ], [ -50.6279703, -20.5103749 ], [ -50.6273553, -20.5079241 ], [ -50.6249217, -20.5080616 ], [ -50.6206816, -20.5127237 ], [ -50.6167125, -20.5143452 ], [ -50.6171053, -20.5155303 ], [ -50.6154278, -20.5161334 ], [ -50.6132706, -20.51925 ], [ -50.6096136, -20.5201118 ], [ -50.6042405, -20.5184182 ], [ -50.6027568, -20.5190582 ], [ -50.6032339, -20.5205871 ], [ -50.6045899, -20.5213651 ], [ -50.6007306, -20.5224089 ], [ -50.6006466, -20.5242853 ], [ -50.5973634, -20.5221891 ], [ -50.5946141, -20.5230746 ], [ -50.5917283, -20.5227754 ], [ -50.5893509, -20.5180254 ], [ -50.5870149, -20.5152859 ], [ -50.5860686, -20.5151301 ], [ -50.585843, -20.5164314 ], [ -50.5866218, -20.5171783 ], [ -50.5861163, -20.5176157 ], [ -50.5844455, -20.5156452 ], [ -50.5833514, -20.5156572 ], [ -50.5838701, -20.516119 ], [ -50.5833507, -20.5187933 ], [ -50.5817209, -20.5188918 ], [ -50.5802812, -20.5175724 ], [ -50.5773539, -20.518289 ], [ -50.5733435, -20.5178406 ], [ -50.5738836, -20.5189531 ], [ -50.5706321, -20.5190328 ], [ -50.5714123, -20.5202848 ], [ -50.5698264, -20.5213335 ], [ -50.5684558, -20.5203213 ], [ -50.5656909, -20.5211917 ], [ -50.5598367, -20.5251025 ], [ -50.5568163, -20.5284063 ], [ -50.554147, -20.528341 ], [ -50.55094, -20.530813 ], [ -50.5483819, -20.5294994 ], [ -50.5452551, -20.530792 ], [ -50.5439855, -20.5322758 ], [ -50.5422365, -20.5322203 ], [ -50.5405027, -20.5333168 ], [ -50.5341373, -20.5333171 ], [ -50.5314023, -20.5342385 ], [ -50.5274131, -20.5374375 ], [ -50.5250851, -20.5378735 ], [ -50.5225992, -20.5368956 ], [ -50.5184507, -20.5369937 ], [ -50.5173563, -20.538139 ], [ -50.5172487, -20.5410241 ], [ -50.5102527, -20.5455459 ], [ -50.5083027, -20.5504406 ], [ -50.5140108, -20.5629035 ], [ -50.5152827, -20.5698743 ], [ -50.5149394, -20.5725283 ], [ -50.5118903, -20.5742736 ], [ -50.5119664, -20.5773807 ], [ -50.5132616, -20.5796139 ], [ -50.5065846, -20.5878958 ], [ -50.5088531, -20.5915837 ], [ -50.5084494, -20.5964986 ], [ -50.5101418, -20.6019815 ], [ -50.5087121, -20.606146 ], [ -50.510625, -20.6101235 ], [ -50.5090547, -20.6128771 ], [ -50.5091353, -20.6144347 ], [ -50.5106134, -20.6171136 ], [ -50.5114954, -20.6233334 ], [ -50.5051541, -20.6328214 ], [ -50.4906916, -20.6464359 ], [ -50.489573, -20.646746 ], [ -50.4841262, -20.644826 ], [ -50.4826579, -20.6451082 ], [ -50.4818346, -20.65102 ], [ -50.4801922, -20.6526247 ] ] ] ] } }
]
}
