{
"type": "FeatureCollection",
"name": "ER_REGIAO_Piracicaba_Tupi",
"crs": { "type": "name", "properties": { "name": "urn:ogc:def:crs:EPSG::4674" } },
"xy_coordinate_resolution": 1e-15,
"features": [
{ "type": "Feature", "properties": { "fid": 645, "NM_REGIAO": "Sudeste", "NM_UF": "São Paulo", "NM_MUN": "Piracicaba", "NM_DIST": "Tupi", "CD_SUBDIST": "35387092500", "ER_REGIAO": "Piracicaba_Tupi", "ER_REGIAO_CIDADE": "Piracicaba_Tupi_Piracicaba" }, "geometry": { "type": "MultiPolygon", "coordinates": [ [ [ [ -47.5032803, -22.7442563 ], [ -47.4929628, -22.7534659 ], [ -47.4949125, -22.7565698 ], [ -47.4954119, -22.7590612 ], [ -47.4979629, -22.7615944 ], [ -47.4950566, -22.7674302 ], [ -47.5028386, -22.7692935 ], [ -47.5064659, -22.7684426 ], [ -47.5096659, -22.7686449 ], [ -47.5177647, -22.7653936 ], [ -47.5175175, -22.7728674 ], [ -47.5211062, -22.7761606 ], [ -47.5222082, -22.7792957 ], [ -47.5257964, -22.7791269 ], [ -47.5267455, -22.7769726 ], [ -47.5289396, -22.7754718 ], [ -47.5352086, -22.7752122 ], [ -47.5373781, -22.7727438 ], [ -47.5380442, -22.7701996 ], [ -47.5410354, -22.7679522 ], [ -47.5433521, -22.7677892 ], [ -47.5449768, -22.7665726 ], [ -47.5745318, -22.7827244 ], [ -47.5722625, -22.7801565 ], [ -47.570293, -22.7726515 ], [ -47.5662596, -22.765708 ], [ -47.5665533, -22.7627588 ], [ -47.56562, -22.7614337 ], [ -47.564978, -22.75702 ], [ -47.5629733, -22.7541935 ], [ -47.5625176, -22.7519309 ], [ -47.5575766, -22.7463296 ], [ -47.5573576, -22.7444248 ], [ -47.559523, -22.7426769 ], [ -47.5597885, -22.74056 ], [ -47.5580928, -22.7380648 ], [ -47.5570162, -22.7329038 ], [ -47.5575805, -22.7254477 ], [ -47.5585163, -22.7211816 ], [ -47.5600931, -22.7196246 ], [ -47.5609496, -22.7158298 ], [ -47.558725, -22.7140974 ], [ -47.5603366, -22.7097124 ], [ -47.5590699, -22.7063348 ], [ -47.5610396, -22.7041479 ], [ -47.5647201, -22.6955813 ], [ -47.5672383, -22.6924476 ], [ -47.569159, -22.685237 ], [ -47.5652286, -22.6861282 ], [ -47.561334, -22.6838006 ], [ -47.5580682, -22.6829601 ], [ -47.5542811, -22.6827971 ], [ -47.5522335, -22.684182 ], [ -47.5502411, -22.6887131 ], [ -47.5460454, -22.6918054 ], [ -47.545048, -22.6934816 ], [ -47.5455834, -22.6962845 ], [ -47.5500532, -22.7028449 ], [ -47.5500058, -22.7054258 ], [ -47.5472569, -22.7075513 ], [ -47.5422468, -22.7092182 ], [ -47.5406419, -22.7164417 ], [ -47.5397144, -22.717103 ], [ -47.5377562, -22.7161495 ], [ -47.5354012, -22.7100568 ], [ -47.5276176, -22.7045305 ], [ -47.5201693, -22.6967035 ], [ -47.5164185, -22.6954934 ], [ -47.5098832, -22.6905643 ], [ -47.5061992, -22.689861 ], [ -47.5025276, -22.6905649 ], [ -47.5018172, -22.6929345 ], [ -47.5033241, -22.6989239 ], [ -47.4989571, -22.7056593 ], [ -47.4916443, -22.7119651 ], [ -47.4912696, -22.7145415 ], [ -47.492108, -22.7208085 ], [ -47.49046, -22.7242852 ], [ -47.4916615, -22.7257363 ], [ -47.4931598, -22.7257224 ], [ -47.4981698, -22.7288081 ], [ -47.5033198, -22.7299307 ], [ -47.5057657, -22.7331129 ], [ -47.5104169, -22.7366441 ], [ -47.5032803, -22.7442563 ] ] ] ] } }
]
}
