{
"type": "FeatureCollection",
"name": "ER_REGIAO_Capital Norte_Pirituba",
"crs": { "type": "name", "properties": { "name": "urn:ogc:def:crs:EPSG::4674" } },
"xy_coordinate_resolution": 1e-15,
"features": [
{ "type": "Feature", "properties": { "fid": 897, "NM_REGIAO": "Sudeste", "NM_UF": "São Paulo", "NM_MUN": "São Paulo", "NM_DIST": "Pirituba", "CD_SUBDIST": "35503086300", "ER_REGIAO": "Capital Norte_Pirituba", "ER_REGIAO_CIDADE": "Capital Norte_Pirituba" }, "geometry": { "type": "MultiPolygon", "coordinates": [ [ [ [ -46.718944, -23.458192 ], [ -46.720477, -23.456751 ], [ -46.720021, -23.454358 ], [ -46.718672, -23.452764 ], [ -46.716021, -23.451525 ], [ -46.715861, -23.450565 ], [ -46.714177, -23.450924 ], [ -46.711854, -23.453838 ], [ -46.7148334, -23.4579948 ], [ -46.715358, -23.46047 ], [ -46.712029, -23.46685 ], [ -46.711691, -23.469392 ], [ -46.710627, -23.469923 ], [ -46.710388, -23.475904 ], [ -46.707157, -23.478218 ], [ -46.70826, -23.48295 ], [ -46.71071, -23.486794 ], [ -46.709673, -23.493046 ], [ -46.706909, -23.497754 ], [ -46.705641, -23.50873 ], [ -46.717088, -23.508067 ], [ -46.72043, -23.50926 ], [ -46.735865, -23.489661 ], [ -46.7372, -23.486773 ], [ -46.741962, -23.484272 ], [ -46.743754, -23.484199 ], [ -46.745697, -23.485396 ], [ -46.7472862, -23.4847731 ], [ -46.748192, -23.485218 ], [ -46.753563, -23.483854 ], [ -46.755447, -23.482469 ], [ -46.753773, -23.480722 ], [ -46.752443, -23.477421 ], [ -46.753362, -23.472656 ], [ -46.753108, -23.469009 ], [ -46.75176, -23.469317 ], [ -46.750197, -23.467342 ], [ -46.750532, -23.466514 ], [ -46.745598, -23.465788 ], [ -46.745037, -23.469153 ], [ -46.736162, -23.462626 ], [ -46.718944, -23.458192 ] ] ] ] } }
]
}
