{
"type": "FeatureCollection",
"name": "ER_REGIAO_Uru",
"crs": { "type": "name", "properties": { "name": "urn:ogc:def:crs:EPSG::4674" } },
"xy_coordinate_resolution": 1e-15,
"features": [
{ "type": "Feature", "properties": { "fid": 1021, "NM_REGIAO": "Sudeste", "NM_UF": "São Paulo", "NM_MUN": "Uru", "NM_DIST": "Uru", "CD_SUBDIST": "35559010500", "ER_REGIAO": "Uru", "ER_REGIAO_CIDADE": "Uru_Bauru" }, "geometry": { "type": "MultiPolygon", "coordinates": [ [ [ [ -49.3139075, -21.6962409 ], [ -49.3138006, -21.6925314 ], [ -49.3100659, -21.6892531 ], [ -49.3071666, -21.6900885 ], [ -49.304699, -21.689653 ], [ -49.3034841, -21.6805663 ], [ -49.2975817, -21.6785041 ], [ -49.2960169, -21.676922 ], [ -49.2887521, -21.6763615 ], [ -49.2841059, -21.6738533 ], [ -49.2759218, -21.6609808 ], [ -49.2733223, -21.659008 ], [ -49.2654256, -21.6643529 ], [ -49.2535647, -21.6650511 ], [ -49.2434526, -21.6695911 ], [ -49.2386356, -21.6708038 ], [ -49.2391458, -21.6733065 ], [ -49.2428437, -21.6737348 ], [ -49.2427112, -21.6750895 ], [ -49.2443538, -21.6779066 ], [ -49.2440619, -21.6811675 ], [ -49.2409194, -21.6839784 ], [ -49.2412478, -21.6865147 ], [ -49.2404154, -21.6886277 ], [ -49.2417946, -21.69651 ], [ -49.2413929, -21.7006938 ], [ -49.24022, -21.7028412 ], [ -49.2406002, -21.7077933 ], [ -49.2426889, -21.7110457 ], [ -49.2488636, -21.7141907 ], [ -49.2509695, -21.7140473 ], [ -49.2533467, -21.7151494 ], [ -49.258779, -21.7200656 ], [ -49.2599855, -21.7230495 ], [ -49.264097, -21.7283585 ], [ -49.265262, -21.7344952 ], [ -49.267002, -21.7382582 ], [ -49.2663487, -21.7405422 ], [ -49.2631622, -21.745044 ], [ -49.2580702, -21.7482165 ], [ -49.2585971, -21.7504882 ], [ -49.260218, -21.7526381 ], [ -49.2587897, -21.7535405 ], [ -49.258189, -21.7550989 ], [ -49.2598563, -21.7585465 ], [ -49.2603064, -21.7616502 ], [ -49.2625902, -21.7626776 ], [ -49.2635811, -21.7641356 ], [ -49.2637632, -21.773509 ], [ -49.2670747, -21.7821475 ], [ -49.2657767, -21.7858724 ], [ -49.2600569, -21.7937222 ], [ -49.2586444, -21.7985339 ], [ -49.2563473, -21.8022373 ], [ -49.2587979, -21.8058768 ], [ -49.2586462, -21.8160153 ], [ -49.2619762, -21.8192619 ], [ -49.2673967, -21.8286617 ], [ -49.2733149, -21.8341659 ], [ -49.2731738, -21.8356303 ], [ -49.2694343, -21.840008 ], [ -49.2701328, -21.8409523 ], [ -49.2748014, -21.8427451 ], [ -49.275666, -21.8507868 ], [ -49.2773336, -21.8562821 ], [ -49.2794115, -21.8588135 ], [ -49.2820796, -21.8598248 ], [ -49.2850391, -21.8602507 ], [ -49.2864355, -21.8574941 ], [ -49.2897149, -21.854748 ], [ -49.2894152, -21.8525881 ], [ -49.2926437, -21.850208 ], [ -49.2934465, -21.8485741 ], [ -49.2962016, -21.848612 ], [ -49.2977195, -21.8471578 ], [ -49.3004798, -21.8471841 ], [ -49.3054838, -21.8453415 ], [ -49.3077512, -21.8453473 ], [ -49.3149541, -21.8400586 ], [ -49.320813, -21.8377757 ], [ -49.3298637, -21.8387478 ], [ -49.3336294, -21.8377918 ], [ -49.3407544, -21.8381107 ], [ -49.345931, -21.8348563 ], [ -49.3509915, -21.8346679 ], [ -49.3619647, -21.8372122 ], [ -49.3666887, -21.8407358 ], [ -49.3716886, -21.8428534 ], [ -49.3775277, -21.8428384 ], [ -49.3822551, -21.8376736 ], [ -49.3865837, -21.8353284 ], [ -49.3874555, -21.8336471 ], [ -49.3911669, -21.8306286 ], [ -49.3857646, -21.8284184 ], [ -49.3841773, -21.8238529 ], [ -49.3810182, -21.8221583 ], [ -49.3772707, -21.8165307 ], [ -49.3761308, -21.8163826 ], [ -49.3676778, -21.8202223 ], [ -49.3660302, -21.8198852 ], [ -49.3627692, -21.81578 ], [ -49.3599666, -21.8143545 ], [ -49.3584294, -21.8126086 ], [ -49.3542796, -21.810839 ], [ -49.3521441, -21.8078798 ], [ -49.3511861, -21.8049824 ], [ -49.3481934, -21.8025046 ], [ -49.3471402, -21.8006379 ], [ -49.3396108, -21.7964369 ], [ -49.3391412, -21.7950758 ], [ -49.3399268, -21.7919987 ], [ -49.3306353, -21.7901559 ], [ -49.3267938, -21.7864871 ], [ -49.3208614, -21.7780447 ], [ -49.3199254, -21.7668738 ], [ -49.322081, -21.7538144 ], [ -49.318528, -21.7417282 ], [ -49.3147447, -21.7362974 ], [ -49.3150558, -21.727727 ], [ -49.3140211, -21.7256163 ], [ -49.3138282, -21.7221069 ], [ -49.316139, -21.7124839 ], [ -49.3181964, -21.7083224 ], [ -49.3190103, -21.7003316 ], [ -49.3183067, -21.6983549 ], [ -49.3159245, -21.6980536 ], [ -49.3139075, -21.6962409 ] ] ] ] } }
]
}
