{
"type": "FeatureCollection",
"name": "ER_REGIAO_Brotas_Brotas",
"crs": { "type": "name", "properties": { "name": "urn:ogc:def:crs:EPSG::4674" } },
"xy_coordinate_resolution": 1e-15,
"features": [
{ "type": "Feature", "properties": { "fid": 120, "NM_REGIAO": "Sudeste", "NM_UF": "São Paulo", "NM_MUN": "Brotas", "NM_DIST": "Brotas", "CD_SUBDIST": "35079020500", "ER_REGIAO": "Brotas_Brotas", "ER_REGIAO_CIDADE": "Brotas_Brotas_Bauru" }, "geometry": { "type": "MultiPolygon", "coordinates": [ [ [ [ -48.1405424, -22.3707861 ], [ -48.1470099, -22.3714348 ], [ -48.1461662, -22.3691039 ], [ -48.1485256, -22.3677079 ], [ -48.1498729, -22.3678572 ], [ -48.1498375, -22.3665451 ], [ -48.1516998, -22.3656278 ], [ -48.155085, -22.361637 ], [ -48.159687, -22.3621857 ], [ -48.1618459, -22.3638593 ], [ -48.1681392, -22.3638127 ], [ -48.1692694, -22.3627834 ], [ -48.2393482, -22.3675426 ], [ -48.2407669, -22.360004 ], [ -48.2441754, -22.3500045 ], [ -48.2485911, -22.3447637 ], [ -48.2509183, -22.3438544 ], [ -48.250475, -22.3406975 ], [ -48.2526674, -22.339095 ], [ -48.2535454, -22.3369025 ], [ -48.256388, -22.3357378 ], [ -48.2564235, -22.33362 ], [ -48.2576453, -22.3330107 ], [ -48.2579958, -22.3312648 ], [ -48.2589605, -22.3306483 ], [ -48.2583638, -22.3296131 ], [ -48.2589199, -22.3264546 ], [ -48.2620059, -22.322264 ], [ -48.2638475, -22.3218619 ], [ -48.2653125, -22.3202453 ], [ -48.2659025, -22.317437 ], [ -48.2654213, -22.3146746 ], [ -48.2688513, -22.3107489 ], [ -48.2684933, -22.3084867 ], [ -48.2704915, -22.3060086 ], [ -48.2715146, -22.3061418 ], [ -48.2718387, -22.303918 ], [ -48.2747096, -22.3032271 ], [ -48.2755547, -22.3049332 ], [ -48.2761622, -22.304825 ], [ -48.2755689, -22.3026139 ], [ -48.2768624, -22.3001929 ], [ -48.2787149, -22.2982072 ], [ -48.2809934, -22.2972038 ], [ -48.2795606, -22.2943613 ], [ -48.2809716, -22.2938844 ], [ -48.2805463, -22.2918376 ], [ -48.2823812, -22.2892565 ], [ -48.2845663, -22.2889192 ], [ -48.2838887, -22.2861293 ], [ -48.2862033, -22.283662 ], [ -48.2859821, -22.2824422 ], [ -48.2876993, -22.2808358 ], [ -48.2913172, -22.2815781 ], [ -48.2958928, -22.2860127 ], [ -48.2991565, -22.2863968 ], [ -48.2974977, -22.284971 ], [ -48.2967889, -22.2825813 ], [ -48.2990625, -22.2770088 ], [ -48.2949924, -22.2759998 ], [ -48.2937412, -22.2748663 ], [ -48.2940025, -22.2721201 ], [ -48.2914901, -22.2694369 ], [ -48.2930849, -22.2683283 ], [ -48.2932304, -22.2671141 ], [ -48.2976113, -22.2686648 ], [ -48.3000153, -22.2667071 ], [ -48.3019952, -22.2674656 ], [ -48.3042428, -22.2660827 ], [ -48.306596, -22.2667345 ], [ -48.3085757, -22.2653476 ], [ -48.3113393, -22.2659606 ], [ -48.3120655, -22.2675175 ], [ -48.3110164, -22.2713603 ], [ -48.3127364, -22.2732183 ], [ -48.3129416, -22.2757712 ], [ -48.3145143, -22.2764002 ], [ -48.3137187, -22.270183 ], [ -48.3171393, -22.2667828 ], [ -48.3186452, -22.2671178 ], [ -48.3208983, -22.2702443 ], [ -48.3215987, -22.2699726 ], [ -48.3212347, -22.2679316 ], [ -48.322555, -22.2647199 ], [ -48.3246495, -22.2652194 ], [ -48.3261304, -22.2675161 ], [ -48.3283951, -22.2671198 ], [ -48.3299784, -22.267704 ], [ -48.3266601, -22.2612137 ], [ -48.326777, -22.2548131 ], [ -48.3248228, -22.2503933 ], [ -48.3269161, -22.2475531 ], [ -48.3257019, -22.2466569 ], [ -48.3257308, -22.243924 ], [ -48.3209093, -22.2340014 ], [ -48.3223164, -22.2269718 ], [ -48.3243829, -22.2235097 ], [ -48.3245127, -22.2217117 ], [ -48.3265488, -22.2199367 ], [ -48.3264691, -22.2174152 ], [ -48.3257149, -22.2152265 ], [ -48.3205592, -22.2140278 ], [ -48.3180712, -22.2103858 ], [ -48.3171699, -22.2068458 ], [ -48.3128715, -22.200676 ], [ -48.3143382, -22.1990334 ], [ -48.3139005, -22.1962718 ], [ -48.3125749, -22.1942297 ], [ -48.3085713, -22.1921565 ], [ -48.298743, -22.1921813 ], [ -48.2898768, -22.189301 ], [ -48.2839713, -22.189316 ], [ -48.2788491, -22.1918122 ], [ -48.2742852, -22.1922895 ], [ -48.2728272, -22.1898683 ], [ -48.2709217, -22.1824885 ], [ -48.269511, -22.181578 ], [ -48.2554989, -22.1772074 ], [ -48.2447856, -22.177898 ], [ -48.2448177, -22.1755902 ], [ -48.2493245, -22.1708429 ], [ -48.2500566, -22.167641 ], [ -48.2550345, -22.1630342 ], [ -48.2559536, -22.1546405 ], [ -48.2444883, -22.1590627 ], [ -48.2343128, -22.1594937 ], [ -48.2265873, -22.1576631 ], [ -48.2158414, -22.1588242 ], [ -48.2087779, -22.1561181 ], [ -48.2052482, -22.1503382 ], [ -48.2003844, -22.1493104 ], [ -48.1986225, -22.1480414 ], [ -48.188983, -22.1510864 ], [ -48.1818987, -22.1550681 ], [ -48.1758824, -22.1664176 ], [ -48.1699461, -22.1673147 ], [ -48.1665931, -22.170077 ], [ -48.1639669, -22.1715426 ], [ -48.1602257, -22.1723341 ], [ -48.1570588, -22.1748554 ], [ -48.1515303, -22.1754307 ], [ -48.1435485, -22.1786496 ], [ -48.1385466, -22.179085 ], [ -48.1347001, -22.183235 ], [ -48.1303191, -22.1838093 ], [ -48.1278685, -22.1823521 ], [ -48.1240979, -22.1815536 ], [ -48.1195979, -22.1827244 ], [ -48.1183982, -22.1819417 ], [ -48.1166988, -22.1786481 ], [ -48.1115089, -22.1790525 ], [ -48.1076288, -22.1802497 ], [ -48.1047199, -22.1800811 ], [ -48.0998848, -22.1747014 ], [ -48.0899442, -22.1687201 ], [ -48.0802878, -22.1570296 ], [ -48.077698, -22.1562721 ], [ -48.0713851, -22.1517903 ], [ -48.0655426, -22.1498542 ], [ -48.063032, -22.1495023 ], [ -48.0606564, -22.1513144 ], [ -48.0578181, -22.1507292 ], [ -48.0543192, -22.1466882 ], [ -48.0524888, -22.140258 ], [ -48.0474289, -22.1352166 ], [ -48.045156, -22.1301108 ], [ -48.0437203, -22.1288703 ], [ -48.0425926, -22.1220762 ], [ -48.0444632, -22.1163139 ], [ -48.0460382, -22.1032175 ], [ -48.0436928, -22.0884153 ], [ -48.0451066, -22.0844553 ], [ -48.047039, -22.082755 ], [ -48.0469012, -22.0790231 ], [ -48.0479766, -22.0779394 ], [ -48.0448721, -22.0732246 ], [ -48.0440256, -22.0748401 ], [ -48.0362303, -22.0781358 ], [ -48.0298053, -22.078201 ], [ -48.0265796, -22.0769278 ], [ -48.0224662, -22.0799139 ], [ -48.018473, -22.0855347 ], [ -48.0181374, -22.0873485 ], [ -48.0157426, -22.0881617 ], [ -48.0155129, -22.0899686 ], [ -48.0144964, -22.0902266 ], [ -48.0141267, -22.0920176 ], [ -48.0113686, -22.094746 ], [ -48.0105902, -22.0968657 ], [ -48.0097833, -22.0964783 ], [ -48.0074184, -22.0974057 ], [ -48.006338, -22.099213 ], [ -48.0033087, -22.0993623 ], [ -48.003379, -22.1011118 ], [ -48.0012781, -22.1011618 ], [ -48.0010067, -22.102575 ], [ -47.9987561, -22.1041865 ], [ -47.9991975, -22.10736 ], [ -47.9985231, -22.1101328 ], [ -47.9963231, -22.111428 ], [ -47.9931125, -22.1160056 ], [ -47.9912334, -22.1155572 ], [ -47.9881249, -22.1166921 ], [ -47.9874988, -22.1177394 ], [ -47.9867103, -22.1168244 ], [ -47.9828443, -22.1169765 ], [ -47.9818539, -22.1161996 ], [ -47.9840771, -22.1147538 ], [ -47.9807466, -22.1125019 ], [ -47.9778557, -22.1158971 ], [ -47.9770265, -22.1145774 ], [ -47.9751978, -22.114725 ], [ -47.9754127, -22.1180523 ], [ -47.9745688, -22.118999 ], [ -47.9734998, -22.1189559 ], [ -47.9714179, -22.1170597 ], [ -47.971413, -22.1182003 ], [ -47.9704161, -22.1189432 ], [ -47.9692024, -22.1155227 ], [ -47.9674413, -22.114184 ], [ -47.9662241, -22.1147632 ], [ -47.9637889, -22.1133115 ], [ -47.962484, -22.1148343 ], [ -47.9627399, -22.1160512 ], [ -47.9620776, -22.1161217 ], [ -47.956027, -22.1134773 ], [ -47.9535153, -22.1142953 ], [ -47.9532964, -22.1126708 ], [ -47.9494766, -22.1125454 ], [ -47.9476196, -22.1110317 ], [ -47.9468346, -22.112689 ], [ -47.9413046, -22.1155304 ], [ -47.9378115, -22.1194768 ], [ -47.9345942, -22.1200369 ], [ -47.9337029, -22.1217498 ], [ -47.933903, -22.1237764 ], [ -47.9312689, -22.1248249 ], [ -47.9321805, -22.1277815 ], [ -47.9310273, -22.1272451 ], [ -47.9275407, -22.1311259 ], [ -47.9275883, -22.1333358 ], [ -47.9292399, -22.1365486 ], [ -47.9285365, -22.1396625 ], [ -47.9279186, -22.1403601 ], [ -47.9268221, -22.1395531 ], [ -47.9254738, -22.1443269 ], [ -47.9234571, -22.1453557 ], [ -47.9227053, -22.1474037 ], [ -47.921654, -22.1470553 ], [ -47.92136, -22.1486553 ], [ -47.9200858, -22.1483481 ], [ -47.9204878, -22.1493074 ], [ -47.9197894, -22.1506999 ], [ -47.9190784, -22.1497282 ], [ -47.9143312, -22.1496599 ], [ -47.908452, -22.1527755 ], [ -47.9067868, -22.1557455 ], [ -47.903321, -22.1561068 ], [ -47.9021835, -22.1576486 ], [ -47.899928, -22.1575758 ], [ -47.9014363, -22.1604914 ], [ -47.9003716, -22.1659237 ], [ -47.900874, -22.1663845 ], [ -47.9018651, -22.1648353 ], [ -47.9023764, -22.1653837 ], [ -47.9031489, -22.1694611 ], [ -47.902645, -22.1722026 ], [ -47.8941387, -22.1851419 ], [ -47.8914261, -22.1908031 ], [ -47.8828539, -22.1993256 ], [ -47.8800501, -22.2059922 ], [ -47.8794698, -22.2107381 ], [ -47.879913, -22.2127324 ], [ -47.8810018, -22.2135853 ], [ -47.8863986, -22.2142169 ], [ -47.8979719, -22.2179882 ], [ -47.8993659, -22.2225031 ], [ -47.9009578, -22.2243397 ], [ -47.9012112, -22.2269107 ], [ -47.9055317, -22.2306543 ], [ -47.9043445, -22.2355523 ], [ -47.906359, -22.2408521 ], [ -47.9079754, -22.2420835 ], [ -47.9084244, -22.2452275 ], [ -47.9073185, -22.2470408 ], [ -47.9080864, -22.2508858 ], [ -47.9073888, -22.2529416 ], [ -47.9110243, -22.2601156 ], [ -47.9108691, -22.2642623 ], [ -47.9113683, -22.2652235 ], [ -47.9150237, -22.2666757 ], [ -47.9153392, -22.2697875 ], [ -47.9170183, -22.2739348 ], [ -47.9224731, -22.2758317 ], [ -47.9244793, -22.27888 ], [ -47.9265312, -22.2883331 ], [ -47.9261341, -22.2984065 ], [ -47.9268179, -22.3054116 ], [ -47.9288194, -22.3076584 ], [ -47.9314542, -22.3080479 ], [ -47.9344254, -22.3098855 ], [ -47.9400195, -22.3148797 ], [ -47.9407238, -22.3182636 ], [ -47.9402301, -22.3204201 ], [ -47.9374538, -22.3220806 ], [ -47.9342377, -22.3277182 ], [ -47.9319835, -22.329586 ], [ -47.945654, -22.320675 ], [ -47.9494306, -22.3206561 ], [ -47.9500805, -22.3280424 ], [ -47.9526063, -22.331431 ], [ -47.9516838, -22.3345197 ], [ -47.9546038, -22.3365693 ], [ -47.9541419, -22.3576088 ], [ -47.9598785, -22.3666126 ], [ -47.9547377, -22.3671375 ], [ -47.9535669, -22.3726725 ], [ -47.9514939, -22.3765731 ], [ -47.9453022, -22.3808864 ], [ -47.9433226, -22.3838168 ], [ -47.9474385, -22.3842598 ], [ -47.9491115, -22.3856156 ], [ -47.9506308, -22.3912291 ], [ -47.95345, -22.3942798 ], [ -47.9540448, -22.3981412 ], [ -47.9576358, -22.3982691 ], [ -47.9591969, -22.4003267 ], [ -47.9606861, -22.3989935 ], [ -47.9614793, -22.4002786 ], [ -47.9629213, -22.3991683 ], [ -47.966161, -22.3994758 ], [ -47.9666332, -22.4022161 ], [ -47.9773758, -22.4030859 ], [ -47.9811464, -22.4024187 ], [ -47.9818543, -22.4032467 ], [ -47.9800743, -22.4046076 ], [ -47.9827053, -22.4056159 ], [ -47.9833556, -22.405413 ], [ -47.9832125, -22.4044279 ], [ -47.9842409, -22.4047907 ], [ -47.9862281, -22.4032434 ], [ -47.9875213, -22.4055752 ], [ -47.9919763, -22.4066977 ], [ -47.9929298, -22.4090326 ], [ -47.9961696, -22.4124573 ], [ -48.0034146, -22.4102326 ], [ -48.0036452, -22.4091427 ], [ -48.0048049, -22.4085982 ], [ -48.0100314, -22.4085519 ], [ -48.0419201, -22.4017166 ], [ -48.0479311, -22.3998149 ], [ -48.0548723, -22.401505 ], [ -48.057731, -22.4017509 ], [ -48.0581293, -22.4008875 ], [ -48.0598113, -22.4019925 ], [ -48.0651581, -22.4023527 ], [ -48.0665434, -22.4041702 ], [ -48.0655063, -22.4096675 ], [ -48.0712633, -22.4041438 ], [ -48.0789741, -22.4016652 ], [ -48.0810332, -22.3983352 ], [ -48.0851279, -22.3945324 ], [ -48.0887285, -22.3944206 ], [ -48.0945964, -22.3898165 ], [ -48.1038169, -22.3882605 ], [ -48.1061431, -22.3870053 ], [ -48.1087991, -22.3824487 ], [ -48.1114304, -22.3751138 ], [ -48.118494, -22.3769323 ], [ -48.1214109, -22.3789686 ], [ -48.12527, -22.3787996 ], [ -48.1274134, -22.3770993 ], [ -48.1292763, -22.3770974 ], [ -48.131361, -22.3757035 ], [ -48.1336107, -22.3756768 ], [ -48.1370498, -22.3741464 ], [ -48.1404104, -22.3718232 ], [ -48.1405424, -22.3707861 ] ] ] ] } }
]
}
