{
"type": "FeatureCollection",
"name": "ER_REGIAO_Nazaré Paulista",
"crs": { "type": "name", "properties": { "name": "urn:ogc:def:crs:EPSG::4674" } },
"xy_coordinate_resolution": 1e-15,
"features": [
{ "type": "Feature", "properties": { "fid": 543, "NM_REGIAO": "Sudeste", "NM_UF": "São Paulo", "NM_MUN": "Nazaré Paulista", "NM_DIST": "Nazaré Paulista", "CD_SUBDIST": "35324050500", "ER_REGIAO": "Nazaré Paulista", "ER_REGIAO_CIDADE": "Nazaré Paulista_Guarulhos" }, "geometry": { "type": "MultiPolygon", "coordinates": [ [ [ [ -46.4254531, -23.2972647 ], [ -46.427635, -23.294938 ], [ -46.427253, -23.292 ], [ -46.428662, -23.290181 ], [ -46.43748, -23.284437 ], [ -46.434297, -23.279771 ], [ -46.436912, -23.276287 ], [ -46.440066, -23.273208 ], [ -46.443541, -23.271709 ], [ -46.446926, -23.271495 ], [ -46.447687, -23.270063 ], [ -46.454015, -23.273106 ], [ -46.455957, -23.27276 ], [ -46.458324, -23.270586 ], [ -46.459667, -23.270483 ], [ -46.46184, -23.272439 ], [ -46.460265, -23.275647 ], [ -46.460636, -23.278071 ], [ -46.462117, -23.27851 ], [ -46.462804, -23.280065 ], [ -46.467338, -23.280717 ], [ -46.469807, -23.282754 ], [ -46.470818, -23.28266 ], [ -46.472356, -23.280916 ], [ -46.472741, -23.276643 ], [ -46.476232, -23.274901 ], [ -46.476393, -23.272701 ], [ -46.478456, -23.269392 ], [ -46.483138, -23.266948 ], [ -46.482865, -23.265322 ], [ -46.487473, -23.261162 ], [ -46.488193, -23.259061 ], [ -46.49058, -23.257726 ], [ -46.491828, -23.255252 ], [ -46.494931, -23.254789 ], [ -46.495498, -23.253483 ], [ -46.499896, -23.252783 ], [ -46.502322, -23.250517 ], [ -46.503069, -23.247942 ], [ -46.510932, -23.250159 ], [ -46.514195, -23.250163 ], [ -46.513474, -23.247482 ], [ -46.515324, -23.244159 ], [ -46.51459, -23.241982 ], [ -46.51556, -23.238736 ], [ -46.513986, -23.2349999 ], [ -46.509011, -23.232397 ], [ -46.500479, -23.233918 ], [ -46.498905, -23.233469 ], [ -46.496695, -23.236427 ], [ -46.495429, -23.236866 ], [ -46.493367, -23.236057 ], [ -46.484058, -23.237234 ], [ -46.480443, -23.232814 ], [ -46.475076, -23.234 ], [ -46.472869, -23.233742 ], [ -46.46581, -23.222816 ], [ -46.462512, -23.221458 ], [ -46.458947, -23.221279 ], [ -46.455583, -23.219447 ], [ -46.450944, -23.21824 ], [ -46.449429, -23.216233 ], [ -46.448231, -23.215853 ], [ -46.448469, -23.211717 ], [ -46.44428, -23.204375 ], [ -46.444337, -23.202622 ], [ -46.442659, -23.200601 ], [ -46.440174, -23.199765 ], [ -46.439621, -23.198505 ], [ -46.440389, -23.19398 ], [ -46.443286, -23.190557 ], [ -46.444559, -23.185299 ], [ -46.446762, -23.181071 ], [ -46.448443, -23.178976 ], [ -46.451253, -23.177484 ], [ -46.452731, -23.175332 ], [ -46.451044, -23.168126 ], [ -46.451699, -23.16513 ], [ -46.446194, -23.162472 ], [ -46.443455, -23.160054 ], [ -46.439819, -23.160685 ], [ -46.436115, -23.159889 ], [ -46.43277, -23.160898 ], [ -46.430773, -23.159793 ], [ -46.430681, -23.15649 ], [ -46.428394, -23.154587 ], [ -46.428728, -23.150265 ], [ -46.427282, -23.149199 ], [ -46.425448, -23.149141 ], [ -46.427722, -23.146261 ], [ -46.427286, -23.143833 ], [ -46.42821, -23.140487 ], [ -46.421607, -23.141871 ], [ -46.418549, -23.143602 ], [ -46.416015, -23.141167 ], [ -46.416312, -23.138354 ], [ -46.411645, -23.135064 ], [ -46.411567, -23.133566 ], [ -46.414038, -23.132496 ], [ -46.415041, -23.131115 ], [ -46.415011, -23.127664 ], [ -46.416927, -23.123552 ], [ -46.416171, -23.121273 ], [ -46.415138, -23.120748 ], [ -46.414014, -23.121553 ], [ -46.410876, -23.121634 ], [ -46.408086, -23.120668 ], [ -46.407757, -23.122695 ], [ -46.404204, -23.121252 ], [ -46.396263, -23.122038 ], [ -46.393725, -23.118217 ], [ -46.39151, -23.117436 ], [ -46.390638, -23.118751 ], [ -46.387303, -23.117848 ], [ -46.385939, -23.118842 ], [ -46.382196, -23.119353 ], [ -46.380342, -23.118282 ], [ -46.377469, -23.118338 ], [ -46.375935, -23.1171 ], [ -46.37474, -23.11317 ], [ -46.37187, -23.112772 ], [ -46.3705746, -23.1114586 ], [ -46.371785, -23.108121 ], [ -46.3713306, -23.1041967 ], [ -46.3694742, -23.1051344 ], [ -46.36754, -23.108329 ], [ -46.361759, -23.10935 ], [ -46.359909, -23.107977 ], [ -46.356403, -23.106995 ], [ -46.353473, -23.102629 ], [ -46.352009, -23.1031 ], [ -46.351598, -23.105273 ], [ -46.346925, -23.105364 ], [ -46.344017, -23.102127 ], [ -46.34434, -23.099174 ], [ -46.341746, -23.098254 ], [ -46.338397, -23.095686 ], [ -46.335002, -23.100088 ], [ -46.331903, -23.099372 ], [ -46.330721, -23.099945 ], [ -46.328, -23.105626 ], [ -46.326443, -23.106384 ], [ -46.327343, -23.108989 ], [ -46.323624, -23.11308 ], [ -46.321897, -23.113219 ], [ -46.321164, -23.111343 ], [ -46.319394, -23.110509 ], [ -46.317237, -23.110309 ], [ -46.31498, -23.111244 ], [ -46.314498, -23.108651 ], [ -46.312108, -23.10536 ], [ -46.307541, -23.109387 ], [ -46.307014, -23.113474 ], [ -46.301289, -23.112002 ], [ -46.297526, -23.112407 ], [ -46.293759, -23.114561 ], [ -46.292476, -23.116245 ], [ -46.289133, -23.117527 ], [ -46.2835562, -23.114998 ], [ -46.281998, -23.115985 ], [ -46.280198, -23.115378 ], [ -46.278079, -23.109825 ], [ -46.2787941, -23.107317 ], [ -46.2770607, -23.1056208 ], [ -46.2772758, -23.1049204 ], [ -46.2735936, -23.1027 ], [ -46.2712699, -23.0999069 ], [ -46.2703395, -23.0995257 ], [ -46.2703302, -23.1002015 ], [ -46.2696034, -23.0997606 ], [ -46.268884, -23.1005074 ], [ -46.267433, -23.0998869 ], [ -46.2681394, -23.0989985 ], [ -46.2671215, -23.0974273 ], [ -46.2685926, -23.0970767 ], [ -46.2667951, -23.0963537 ], [ -46.2667558, -23.0951007 ], [ -46.2655223, -23.0961005 ], [ -46.2642035, -23.0944836 ], [ -46.2614865, -23.0932702 ], [ -46.2616223, -23.0942482 ], [ -46.260586, -23.09439 ], [ -46.2609006, -23.0951039 ], [ -46.2588322, -23.095726 ], [ -46.257533, -23.095158 ], [ -46.2570317, -23.0959651 ], [ -46.257831, -23.1063385 ], [ -46.256079, -23.1074485 ], [ -46.2560349, -23.109443 ], [ -46.2551517, -23.1098405 ], [ -46.2537514, -23.113359 ], [ -46.252673, -23.113443 ], [ -46.2504109, -23.1159717 ], [ -46.247862, -23.116245 ], [ -46.247619, -23.117021 ], [ -46.24311, -23.1153 ], [ -46.23835, -23.11694 ], [ -46.236405, -23.115112 ], [ -46.236225, -23.112073 ], [ -46.235203, -23.110801 ], [ -46.233325, -23.109683 ], [ -46.231913, -23.11018 ], [ -46.229831, -23.10937 ], [ -46.228959, -23.107917 ], [ -46.226387, -23.107785 ], [ -46.223985, -23.106218 ], [ -46.219634, -23.106017 ], [ -46.215061, -23.108424 ], [ -46.215642, -23.111094 ], [ -46.214259, -23.11442 ], [ -46.2182, -23.117261 ], [ -46.217689, -23.120065 ], [ -46.2184944, -23.1237989 ], [ -46.2199363, -23.1242231 ], [ -46.2215501, -23.1230164 ], [ -46.2236471, -23.1256977 ], [ -46.2267483, -23.1279248 ], [ -46.2262641, -23.1305093 ], [ -46.227228, -23.1326703 ], [ -46.2260462, -23.1368976 ], [ -46.2322157, -23.1350956 ], [ -46.2352344, -23.1354433 ], [ -46.2374953, -23.1412971 ], [ -46.2401634, -23.1427537 ], [ -46.2431873, -23.1492298 ], [ -46.2462119, -23.150868 ], [ -46.2471255, -23.1551028 ], [ -46.2505717, -23.1563515 ], [ -46.2536411, -23.1564583 ], [ -46.2569649, -23.1595547 ], [ -46.2563897, -23.1636145 ], [ -46.2575016, -23.1674365 ], [ -46.2556798, -23.1687177 ], [ -46.2560852, -23.1718348 ], [ -46.256893, -23.1728335 ], [ -46.261502, -23.174005 ], [ -46.260579, -23.176109 ], [ -46.261763, -23.178059 ], [ -46.259621, -23.180014 ], [ -46.261808, -23.181286 ], [ -46.263527, -23.183595 ], [ -46.263412, -23.185362 ], [ -46.262198, -23.186387 ], [ -46.263096, -23.188019 ], [ -46.266805, -23.190298 ], [ -46.268737, -23.190467 ], [ -46.270854, -23.187714 ], [ -46.273102, -23.187315 ], [ -46.27581, -23.184938 ], [ -46.282415, -23.183487 ], [ -46.283589, -23.184244 ], [ -46.286019, -23.190976 ], [ -46.294323, -23.194799 ], [ -46.296933, -23.197011 ], [ -46.298392, -23.196353 ], [ -46.301641, -23.198275 ], [ -46.304639, -23.197282 ], [ -46.307913, -23.198197 ], [ -46.309012, -23.19996 ], [ -46.307672, -23.203135 ], [ -46.309999, -23.204751 ], [ -46.308714, -23.208805 ], [ -46.305809, -23.211106 ], [ -46.305542, -23.213005 ], [ -46.307144, -23.217611 ], [ -46.309008, -23.21971 ], [ -46.308924, -23.222917 ], [ -46.310737, -23.22447 ], [ -46.311406, -23.227291 ], [ -46.314401, -23.22883 ], [ -46.317597, -23.23371 ], [ -46.323674, -23.239094 ], [ -46.326665, -23.240792 ], [ -46.329264, -23.244436 ], [ -46.329657, -23.246343 ], [ -46.33294, -23.246858 ], [ -46.337167, -23.250639 ], [ -46.348066, -23.252645 ], [ -46.348015, -23.254443 ], [ -46.350202, -23.258435 ], [ -46.353944, -23.262709 ], [ -46.35381, -23.264964 ], [ -46.357916, -23.265623 ], [ -46.359771, -23.267791 ], [ -46.359286, -23.271125 ], [ -46.356876, -23.272567 ], [ -46.36549, -23.27385 ], [ -46.367157, -23.275169 ], [ -46.371704, -23.275666 ], [ -46.376292, -23.278385 ], [ -46.381682, -23.278166 ], [ -46.384213, -23.281174 ], [ -46.384689, -23.283788 ], [ -46.387981, -23.287136 ], [ -46.390332, -23.287516 ], [ -46.396608, -23.286009 ], [ -46.400263, -23.289162 ], [ -46.400639, -23.295318 ], [ -46.403438, -23.296155 ], [ -46.402736, -23.299121 ], [ -46.404736, -23.300872 ], [ -46.4083, -23.300294 ], [ -46.412226, -23.301936 ], [ -46.41031, -23.304315 ], [ -46.410499, -23.30579 ], [ -46.413207, -23.30792 ], [ -46.414158, -23.310618 ], [ -46.418451, -23.316319 ], [ -46.418459, -23.314696 ], [ -46.420331, -23.312237 ], [ -46.42165, -23.307642 ], [ -46.423488, -23.306008 ], [ -46.425915, -23.30185 ], [ -46.4254531, -23.2972647 ] ] ] ] } }
]
}
