{
"type": "FeatureCollection",
"name": "ER_REGIAO_Charqueada_Charqueada",
"crs": { "type": "name", "properties": { "name": "urn:ogc:def:crs:EPSG::4674" } },
"xy_coordinate_resolution": 1e-15,
"features": [
{ "type": "Feature", "properties": { "fid": 196, "NM_REGIAO": "Sudeste", "NM_UF": "São Paulo", "NM_MUN": "Charqueada", "NM_DIST": "Charqueada", "CD_SUBDIST": "35117060500", "ER_REGIAO": "Charqueada_Charqueada", "ER_REGIAO_CIDADE": "Charqueada_Charqueada_Piracicaba" }, "geometry": { "type": "MultiPolygon", "coordinates": [ [ [ [ -47.746842099999981, -22.542757199999983 ], [ -47.746017699999982, -22.550716 ], [ -47.746848099999966, -22.554362599999934 ], [ -47.745517099999972, -22.558686699999953 ], [ -47.749077599999964, -22.559867599999961 ], [ -47.750651, -22.562593599999957 ], [ -47.752165799999943, -22.563468799999953 ], [ -47.752231699999982, -22.567830299999969 ], [ -47.755440399999941, -22.567553799999928 ], [ -47.757384599999966, -22.56826929999994 ], [ -47.757845699999962, -22.57001189999994 ], [ -47.760060899999985, -22.569737599999939 ], [ -47.761986099999945, -22.572843199999966 ], [ -47.765392, -22.57256 ], [ -47.769554599999935, -22.573338699999965 ], [ -47.768889099999967, -22.57525279999993 ], [ -47.770561899999961, -22.579289399999936 ], [ -47.772369899999944, -22.579298 ], [ -47.777225499999986, -22.581800899999962 ], [ -47.787298299999975, -22.579780699999958 ], [ -47.789627499999938, -22.58007809999998 ], [ -47.791227, -22.58132489999997 ], [ -47.799652799999933, -22.580710799999963 ], [ -47.803290199999935, -22.581831699999952 ], [ -47.808215799999971, -22.579882199999929 ], [ -47.810355899999934, -22.57391279999996 ], [ -47.812847599999941, -22.570909299999983 ], [ -47.812296699999933, -22.562331299999983 ], [ -47.814003099999979, -22.556624899999974 ], [ -47.81768459999995, -22.54958929999998 ], [ -47.819110399999943, -22.548255299999937 ], [ -47.830913, -22.543002799999954 ], [ -47.827829299999962, -22.54218179999998 ], [ -47.826827099999946, -22.540679399999931 ], [ -47.82404779999996, -22.53936 ], [ -47.821659299999965, -22.533434 ], [ -47.819571099999962, -22.531785699999944 ], [ -47.819707499999936, -22.52942749999994 ], [ -47.818978, -22.528465299999937 ], [ -47.819578, -22.526489899999945 ], [ -47.817545499999937, -22.525862699999948 ], [ -47.81777859999994, -22.521688899999958 ], [ -47.816520899999944, -22.52138 ], [ -47.815919, -22.520306599999969 ], [ -47.81434859999996, -22.520551399999931 ], [ -47.811856899999952, -22.518380499999978 ], [ -47.812725, -22.515955899999938 ], [ -47.811857299999986, -22.513691599999959 ], [ -47.813657099999944, -22.511249499999963 ], [ -47.809762199999966, -22.508265899999969 ], [ -47.809329899999966, -22.497347099999956 ], [ -47.807585099999983, -22.495404399999927 ], [ -47.805171199999961, -22.494223899999952 ], [ -47.799977199999944, -22.49296389999995 ], [ -47.797250099999985, -22.487526699999933 ], [ -47.791666799999973, -22.483520399999975 ], [ -47.790948799999967, -22.480027099999973 ], [ -47.787336899999957, -22.475355299999933 ], [ -47.789676099999951, -22.467417099999977 ], [ -47.794429799999932, -22.461993099999972 ], [ -47.794384799999932, -22.459018299999968 ], [ -47.793144499999983, -22.455612 ], [ -47.795131199999958, -22.450495599999954 ], [ -47.79292879999997, -22.448189199999945 ], [ -47.787608899999952, -22.449803799999927 ], [ -47.783967699999948, -22.448388099999931 ], [ -47.781836, -22.449721899999929 ], [ -47.774644699999953, -22.450391 ], [ -47.773273199999949, -22.448883399999943 ], [ -47.773150799999939, -22.446885 ], [ -47.774400199999945, -22.445149699999945 ], [ -47.776669799999979, -22.444123599999955 ], [ -47.773050299999966, -22.442597099999944 ], [ -47.768208, -22.443406599999946 ], [ -47.766607599999986, -22.444316299999969 ], [ -47.762090299999954, -22.450314099999957 ], [ -47.758559599999955, -22.452501 ], [ -47.757005199999981, -22.46030049999996 ], [ -47.756222799999932, -22.461200199999951 ], [ -47.754669299999932, -22.462487399999929 ], [ -47.749472099999934, -22.46394609999993 ], [ -47.744721199999958, -22.469157199999927 ], [ -47.745034899999951, -22.470245699999964 ], [ -47.743736, -22.471209 ], [ -47.742809199999954, -22.475996699999939 ], [ -47.746871499999941, -22.480050799999958 ], [ -47.748485, -22.483762099999979 ], [ -47.723821, -22.492788499999961 ], [ -47.722966099999951, -22.488296199999979 ], [ -47.720961599999953, -22.486320299999932 ], [ -47.718822899999964, -22.487519599999928 ], [ -47.713290899999947, -22.488392899999951 ], [ -47.712623899999983, -22.494756699999982 ], [ -47.717162899999948, -22.499418699999978 ], [ -47.718838299999959, -22.49982209999996 ], [ -47.722001399999954, -22.502703499999939 ], [ -47.726801199999954, -22.501791699999956 ], [ -47.729514799999947, -22.502593699999977 ], [ -47.730328899999961, -22.503586399999961 ], [ -47.73370929999993, -22.503559199999927 ], [ -47.734860599999934, -22.505168 ], [ -47.734623599999964, -22.506664399999977 ], [ -47.738634599999955, -22.509618799999942 ], [ -47.738498899999968, -22.512963699999943 ], [ -47.737436299999956, -22.513588699999957 ], [ -47.738561899999979, -22.51544 ], [ -47.737056299999949, -22.516964299999927 ], [ -47.735542599999974, -22.521835099999976 ], [ -47.733338, -22.52280159999998 ], [ -47.732919599999946, -22.525092899999947 ], [ -47.734973799999977, -22.526129699999956 ], [ -47.73472849999996, -22.527582 ], [ -47.733822499999974, -22.527786499999934 ], [ -47.735102599999948, -22.528811 ], [ -47.73350389999996, -22.529615899999953 ], [ -47.738145699999961, -22.53147649999994 ], [ -47.740690799999982, -22.534032 ], [ -47.744535399999961, -22.535918399999957 ], [ -47.744797799999958, -22.538340699999935 ], [ -47.746842099999981, -22.542757199999983 ] ] ] ] } }
]
}
