{
"type": "FeatureCollection",
"name": "ER_REGIAO_Santo Antônio do Aracanguá_Vicentinópolis",
"crs": { "type": "name", "properties": { "name": "urn:ogc:def:crs:EPSG::4674" } },
"xy_coordinate_resolution": 1e-15,
"features": [
{ "type": "Feature", "properties": { "fid": 798, "NM_REGIAO": "Sudeste", "NM_UF": "São Paulo", "NM_MUN": "Santo Antônio do Aracanguá", "NM_DIST": "Vicentinópolis", "CD_SUBDIST": "35480541500", "ER_REGIAO": "Santo Antônio do Aracanguá_Vicentinópolis", "ER_REGIAO_CIDADE": "Santo Antônio do Aracanguá_Vicentinópolis_Araçatuba" }, "geometry": { "type": "MultiPolygon", "coordinates": [ [ [ [ -50.394034, -20.89536 ], [ -50.392929, -20.892768 ], [ -50.393612, -20.885329 ], [ -50.392116, -20.876316 ], [ -50.396416, -20.871187 ], [ -50.398025, -20.865858 ], [ -50.395165, -20.855776 ], [ -50.394899, -20.851304 ], [ -50.396168, -20.84446 ], [ -50.399094, -20.839718 ], [ -50.400099, -20.839139 ], [ -50.403307, -20.839404 ], [ -50.407943, -20.834201 ], [ -50.413584, -20.83113 ], [ -50.414202, -20.828612 ], [ -50.413017, -20.82646 ], [ -50.406966, -20.824777 ], [ -50.404294, -20.82299 ], [ -50.39802, -20.820883 ], [ -50.397525, -20.817896 ], [ -50.398883, -20.8119035 ], [ -50.3926592, -20.8092152 ], [ -50.3870402, -20.808694 ], [ -50.3825218, -20.8101213 ], [ -50.3760257, -20.8157383 ], [ -50.374128, -20.8183019 ], [ -50.3711823, -20.825781 ], [ -50.3706871, -20.8291183 ], [ -50.3721089, -20.8363894 ], [ -50.3756125, -20.8387632 ], [ -50.3769642, -20.8415505 ], [ -50.3763222, -20.8458398 ], [ -50.3739066, -20.8507481 ], [ -50.3752471, -20.8522383 ], [ -50.3744128, -20.8536835 ], [ -50.3698214, -20.8534872 ], [ -50.3670764, -20.8518508 ], [ -50.3631082, -20.8518812 ], [ -50.3610933, -20.8490238 ], [ -50.3586703, -20.8480309 ], [ -50.3542429, -20.8484121 ], [ -50.3508745, -20.8460949 ], [ -50.3496875, -20.8467731 ], [ -50.3495735, -20.8487096 ], [ -50.3478796, -20.8515504 ], [ -50.3439663, -20.8551908 ], [ -50.3426865, -20.8544591 ], [ -50.3408014, -20.8493533 ], [ -50.3413754, -20.8479118 ], [ -50.3396596, -20.8457387 ], [ -50.3378243, -20.8457275 ], [ -50.3363324, -20.846134 ], [ -50.3376272, -20.8487048 ], [ -50.3371905, -20.850105 ], [ -50.3311558, -20.8547738 ], [ -50.3307722, -20.8587336 ], [ -50.3270536, -20.8634716 ], [ -50.3242758, -20.8717602 ], [ -50.3232394, -20.8727931 ], [ -50.3151281, -20.8731609 ], [ -50.311323, -20.8742785 ], [ -50.3083326, -20.8728623 ], [ -50.3039132, -20.8691508 ], [ -50.3020339, -20.8694682 ], [ -50.2970304, -20.8742597 ], [ -50.2920727, -20.8745132 ], [ -50.28719, -20.8764826 ], [ -50.2837704, -20.8755607 ], [ -50.2784676, -20.8723787 ], [ -50.2757153, -20.8728167 ], [ -50.2767161, -20.8836031 ], [ -50.2698254, -20.8902093 ], [ -50.2678259, -20.8952518 ], [ -50.2650726, -20.8977258 ], [ -50.2651565, -20.9009749 ], [ -50.262769, -20.9058311 ], [ -50.2649493, -20.9063864 ], [ -50.264674, -20.9096962 ], [ -50.2676909, -20.9116856 ], [ -50.2668736, -20.9142468 ], [ -50.2650749, -20.916058 ], [ -50.2675597, -20.9159734 ], [ -50.2684042, -20.9170865 ], [ -50.2680174, -20.9178717 ], [ -50.2724049, -20.9198944 ], [ -50.2723679, -20.9232113 ], [ -50.276217, -20.9269491 ], [ -50.2782758, -20.926443 ], [ -50.2812629, -20.9282592 ], [ -50.2810578, -20.929593 ], [ -50.2827085, -20.9320989 ], [ -50.2831502, -20.9349284 ], [ -50.2828946, -20.9367895 ], [ -50.2802809, -20.9415671 ], [ -50.2808245, -20.9468463 ], [ -50.2825074, -20.9482897 ], [ -50.2821499, -20.9499493 ], [ -50.2836695, -20.9513513 ], [ -50.284429, -20.9552518 ], [ -50.2853731, -20.95523 ], [ -50.2855277, -20.9597513 ], [ -50.2865459, -20.9599619 ], [ -50.2864097, -20.961501 ], [ -50.2871648, -20.9615373 ], [ -50.2922552, -20.9695863 ], [ -50.294799, -20.969757 ], [ -50.2952137, -20.9736112 ], [ -50.2973378, -20.9757071 ], [ -50.2974467, -20.9773002 ], [ -50.2945909, -20.9789697 ], [ -50.2957611, -20.9802739 ], [ -50.2943263, -20.9830238 ], [ -50.2951366, -20.9851147 ], [ -50.2976294, -20.9876749 ], [ -50.2966133, -20.9909949 ], [ -50.2992204, -20.9909937 ], [ -50.3001589, -20.9946754 ], [ -50.3024526, -20.9975946 ], [ -50.2992384, -20.9995449 ], [ -50.3004203, -21.0014743 ], [ -50.3042191, -21.0043387 ], [ -50.3076942, -21.0030861 ], [ -50.3130497, -21.0043468 ], [ -50.3232299, -21.0083903 ], [ -50.3280851, -21.0136552 ], [ -50.3277687, -21.0147475 ], [ -50.3305326, -21.019145 ], [ -50.3362869, -21.0245183 ], [ -50.3390509, -21.0283554 ], [ -50.3428327, -21.0371276 ], [ -50.3466817, -21.0427736 ], [ -50.3538889, -21.0415781 ], [ -50.3574812, -21.04261 ], [ -50.3581898, -21.0435477 ], [ -50.367487, -21.0417244 ], [ -50.3701208, -21.0418852 ], [ -50.3728063, -21.0431708 ], [ -50.3768704, -21.0480498 ], [ -50.3843933, -21.0623355 ], [ -50.3864876, -21.0644444 ], [ -50.3887471, -21.0653771 ], [ -50.3917576, -21.0649873 ], [ -50.3949713, -21.0630308 ], [ -50.4099541, -21.0463518 ], [ -50.4231502, -21.0367566 ], [ -50.4323557, -21.0319019 ], [ -50.431112, -21.028546 ], [ -50.430632, -21.029426 ], [ -50.429986, -21.029066 ], [ -50.430501, -21.027652 ], [ -50.429183, -21.028204 ], [ -50.43015, -21.027336 ], [ -50.429644, -21.026138 ], [ -50.430764, -21.02598 ], [ -50.427303, -21.023865 ], [ -50.428349, -21.023559 ], [ -50.428251, -21.020517 ], [ -50.426356, -21.019352 ], [ -50.426189, -21.020331 ], [ -50.42497, -21.019689 ], [ -50.42397, -21.020167 ], [ -50.423545, -21.019314 ], [ -50.424388, -21.019208 ], [ -50.423886, -21.017888 ], [ -50.42519, -21.018019 ], [ -50.425937, -21.015868 ], [ -50.426616, -21.015769 ], [ -50.426321, -21.017121 ], [ -50.426979, -21.016718 ], [ -50.427047, -21.014347 ], [ -50.425744, -21.014088 ], [ -50.430069, -21.012532 ], [ -50.427905, -21.009118 ], [ -50.429798, -21.006359 ], [ -50.425769, -21.006941 ], [ -50.424835, -21.005784 ], [ -50.425764, -21.003834 ], [ -50.422721, -21.005243 ], [ -50.420837, -21.004908 ], [ -50.41858, -21.001238 ], [ -50.420001, -21.000933 ], [ -50.420496, -20.998744 ], [ -50.41979, -20.997112 ], [ -50.421532, -20.993287 ], [ -50.422429, -20.993189 ], [ -50.422996, -20.994416 ], [ -50.426537, -20.992428 ], [ -50.426998, -20.991257 ], [ -50.42759, -20.991783 ], [ -50.429436, -20.990392 ], [ -50.428653, -20.989524 ], [ -50.429833, -20.988859 ], [ -50.428725, -20.986982 ], [ -50.429353, -20.986402 ], [ -50.426569, -20.985636 ], [ -50.422143, -20.981263 ], [ -50.425606, -20.981219 ], [ -50.427604, -20.98031 ], [ -50.427756, -20.979655 ], [ -50.4263989, -20.9792342 ], [ -50.427046, -20.978221 ], [ -50.426123, -20.978048 ], [ -50.425523, -20.975776 ], [ -50.426992, -20.974884 ], [ -50.425788, -20.97438 ], [ -50.425931, -20.973145 ], [ -50.423804, -20.972309 ], [ -50.418953, -20.97595 ], [ -50.418637, -20.974614 ], [ -50.417499, -20.97519 ], [ -50.417191, -20.974089 ], [ -50.416427, -20.974218 ], [ -50.415988, -20.970491 ], [ -50.41683, -20.969261 ], [ -50.415469, -20.96842 ], [ -50.415333, -20.969404 ], [ -50.414049, -20.96864 ], [ -50.414947, -20.968051 ], [ -50.41401, -20.966418 ], [ -50.412513, -20.965936 ], [ -50.413896, -20.964621 ], [ -50.412861, -20.963331 ], [ -50.416051, -20.96167 ], [ -50.41443, -20.960638 ], [ -50.414751, -20.957734 ], [ -50.413924, -20.958276 ], [ -50.413786, -20.957532 ], [ -50.414532, -20.956349 ], [ -50.413569, -20.956121 ], [ -50.415096, -20.953356 ], [ -50.413129, -20.953516 ], [ -50.413654, -20.951808 ], [ -50.41054, -20.950038 ], [ -50.409761, -20.94844 ], [ -50.408117, -20.948849 ], [ -50.407733, -20.946813 ], [ -50.406905, -20.946855 ], [ -50.406698, -20.945762 ], [ -50.407599, -20.942474 ], [ -50.408536, -20.941926 ], [ -50.413007, -20.943133 ], [ -50.412668, -20.94415 ], [ -50.414552, -20.94408 ], [ -50.415672, -20.945272 ], [ -50.417141, -20.944203 ], [ -50.417413, -20.942968 ], [ -50.416451, -20.941898 ], [ -50.417, -20.941368 ], [ -50.416021, -20.940995 ], [ -50.416968, -20.940794 ], [ -50.415308, -20.939772 ], [ -50.416131, -20.938219 ], [ -50.414986, -20.937009 ], [ -50.4156239, -20.936553 ], [ -50.415524, -20.932878 ], [ -50.416257, -20.931907 ], [ -50.415586, -20.931986 ], [ -50.415565, -20.929568 ], [ -50.416815, -20.928337 ], [ -50.415999, -20.928228 ], [ -50.415867, -20.92733 ], [ -50.416777, -20.926574 ], [ -50.41684, -20.924791 ], [ -50.418315, -20.92373 ], [ -50.416612, -20.923399 ], [ -50.417467, -20.922184 ], [ -50.417065, -20.921471 ], [ -50.415799, -20.922337 ], [ -50.415845, -20.919422 ], [ -50.414971, -20.919009 ], [ -50.414609, -20.916549 ], [ -50.412908, -20.915752 ], [ -50.413246, -20.91429 ], [ -50.413965, -20.914099 ], [ -50.411904, -20.913262 ], [ -50.412347, -20.912445 ], [ -50.410994, -20.91274 ], [ -50.408019, -20.911631 ], [ -50.405259, -20.912265 ], [ -50.404323, -20.908364 ], [ -50.403206, -20.908183 ], [ -50.402638, -20.90378 ], [ -50.401403, -20.902929 ], [ -50.402349, -20.902253 ], [ -50.401604, -20.901208 ], [ -50.402889, -20.900942 ], [ -50.402514, -20.899652 ], [ -50.401609, -20.900604 ], [ -50.401164, -20.899165 ], [ -50.400005, -20.899851 ], [ -50.397145, -20.896726 ], [ -50.394034, -20.89536 ] ] ] ] } }
]
}
