{
"type": "FeatureCollection",
"name": "ER_REGIAO_Boa Esperança do Sul",
"crs": { "type": "name", "properties": { "name": "urn:ogc:def:crs:EPSG::4674" } },
"xy_coordinate_resolution": 1e-15,
"features": [
{ "type": "Feature", "properties": { "fid": 102, "NM_REGIAO": "Sudeste", "NM_UF": "São Paulo", "NM_MUN": "Boa Esperança do Sul", "NM_DIST": "Boa Esperança do Sul", "CD_SUBDIST": "35067060500", "ER_REGIAO": "Boa Esperança do Sul", "ER_REGIAO_CIDADE": "Boa Esperança do Sul_Araraquara" }, "geometry": { "type": "MultiPolygon", "coordinates": [ [ [ [ -48.277965199999983, -21.866752099999928 ], [ -48.27557029999997, -21.867421499999978 ], [ -48.276277399999969, -21.868551899999943 ], [ -48.275092099999938, -21.869863399999929 ], [ -48.273573099999965, -21.869233099999974 ], [ -48.272781399999985, -21.870217099999934 ], [ -48.268398699999977, -21.867790499999956 ], [ -48.266346799999951, -21.86975579999995 ], [ -48.264936199999966, -21.870068599999968 ], [ -48.265068299999939, -21.871458 ], [ -48.26377169999995, -21.870884 ], [ -48.261852899999951, -21.872254399999974 ], [ -48.26148969999997, -21.87418729999996 ], [ -48.262375299999974, -21.876418099999967 ], [ -48.261561699999959, -21.877099799999939 ], [ -48.261402, -21.878859699999964 ], [ -48.260124299999973, -21.879573 ], [ -48.259839699999986, -21.880923699999983 ], [ -48.259056499999986, -21.880581599999971 ], [ -48.259289699999954, -21.882009599999947 ], [ -48.257534899999939, -21.882377899999938 ], [ -48.258359699999971, -21.882839299999944 ], [ -48.257890699999962, -21.885284099999978 ], [ -48.258491599999957, -21.886885 ], [ -48.257710599999939, -21.888393899999983 ], [ -48.25875179999997, -21.888605499999983 ], [ -48.25843679999997, -21.89005949999995 ], [ -48.257635099999959, -21.890154 ], [ -48.256659699999943, -21.888954 ], [ -48.255120699999964, -21.890841399999942 ], [ -48.253348799999969, -21.890837399999953 ], [ -48.25475629999994, -21.891476599999976 ], [ -48.254426799999976, -21.89314509999997 ], [ -48.255996, -21.89482019999997 ], [ -48.258990899999958, -21.909767799999941 ], [ -48.260775499999966, -21.913148399999955 ], [ -48.263676099999941, -21.91724709999994 ], [ -48.264796, -21.917771899999934 ], [ -48.266570199999933, -21.921077399999945 ], [ -48.270196, -21.923501499999929 ], [ -48.271275699999933, -21.929128699999978 ], [ -48.274729299999933, -21.933944799999949 ], [ -48.275489199999981, -21.936345899999935 ], [ -48.279271299999948, -21.93893989999998 ], [ -48.281970399999977, -21.945814799999937 ], [ -48.284545799999933, -21.949014799999929 ], [ -48.285239799999943, -21.951395599999955 ], [ -48.286709799999983, -21.952933099999939 ], [ -48.288996599999962, -21.953742899999952 ], [ -48.284981499999958, -21.958898599999941 ], [ -48.280807799999934, -21.962352399999929 ], [ -48.283256399999971, -21.966251799999952 ], [ -48.282212799999968, -21.970695099999944 ], [ -48.284245099999964, -21.976810799999953 ], [ -48.284161099999949, -21.980254299999956 ], [ -48.277945199999976, -21.980520799999965 ], [ -48.275648199999978, -21.982027499999958 ], [ -48.276065399999936, -21.983773299999939 ], [ -48.280490099999952, -21.989162299999975 ], [ -48.289469, -21.990442099999939 ], [ -48.29149689999997, -21.989747499999964 ], [ -48.293593099999953, -21.987639799999954 ], [ -48.300426799999968, -21.985916499999973 ], [ -48.304691299999945, -21.985820099999955 ], [ -48.309433599999977, -21.988967099999968 ], [ -48.315733899999941, -21.991224699999975 ], [ -48.319118599999968, -21.991106599999966 ], [ -48.321159399999942, -21.98928449999994 ], [ -48.323915, -21.989654 ], [ -48.326119099999971, -21.990904299999954 ], [ -48.327628399999981, -21.993344599999944 ], [ -48.330549, -21.994147099999964 ], [ -48.330782699999986, -21.995504099999948 ], [ -48.332434099999944, -21.997251 ], [ -48.343133399999942, -22.004972199999941 ], [ -48.348103299999934, -22.007644699999958 ], [ -48.349126499999954, -22.009014499999978 ], [ -48.353185599999961, -22.010126599999978 ], [ -48.355807499999969, -22.011996599999975 ], [ -48.367529499999932, -22.01524569999998 ], [ -48.373379, -22.019781799999976 ], [ -48.388978599999973, -22.024581399999931 ], [ -48.398856799999976, -22.026183499999945 ], [ -48.414216099999976, -22.03449089999998 ], [ -48.415666699999974, -22.036178099999972 ], [ -48.416131599999972, -22.044020299999943 ], [ -48.417830599999945, -22.046343399999955 ], [ -48.423041799999964, -22.049305799999956 ], [ -48.425625299999979, -22.054852899999958 ], [ -48.427728799999954, -22.056510099999969 ], [ -48.435764699999936, -22.059763399999952 ], [ -48.442244099999982, -22.061235599999975 ], [ -48.444863099999964, -22.063154 ], [ -48.447781299999974, -22.05990989999998 ], [ -48.450127099999975, -22.058604 ], [ -48.452612299999942, -22.051454399999955 ], [ -48.455111299999942, -22.049299399999938 ], [ -48.457584499999939, -22.048325299999931 ], [ -48.463433599999973, -22.049198399999966 ], [ -48.465647599999954, -22.047832 ], [ -48.465442699999983, -22.046575799999971 ], [ -48.466709099999946, -22.045596 ], [ -48.474783199999933, -22.043420399999945 ], [ -48.47685759999996, -22.041826799999967 ], [ -48.478190699999971, -22.037235399999929 ], [ -48.480911299999946, -22.03220529999993 ], [ -48.487368499999945, -22.027113299999939 ], [ -48.481482199999959, -22.014171699999963 ], [ -48.484568899999942, -22.014221199999952 ], [ -48.490957199999968, -22.011327299999948 ], [ -48.494967599999939, -22.011047499999961 ], [ -48.497739799999977, -22.012185199999976 ], [ -48.503311399999973, -22.019421 ], [ -48.507046099999968, -22.021613299999956 ], [ -48.517986299999961, -22.024701199999981 ], [ -48.521638499999938, -22.02705519999995 ], [ -48.530275199999949, -22.028841399999976 ], [ -48.533053799999948, -22.03068369999994 ], [ -48.536588199999983, -22.035077699999931 ], [ -48.538295599999969, -22.034760899999981 ], [ -48.539002799999935, -22.03537659999995 ], [ -48.539510099999973, -22.034737299999961 ], [ -48.541590399999961, -22.035510299999942 ], [ -48.542704699999945, -22.033580499999971 ], [ -48.54429319999997, -22.034539699999982 ], [ -48.544986299999948, -22.032949599999938 ], [ -48.545874399999946, -22.033118599999966 ], [ -48.546296299999938, -22.031673499999954 ], [ -48.545582599999932, -22.031227599999966 ], [ -48.546957099999986, -22.030947399999945 ], [ -48.54619189999994, -22.028411499999947 ], [ -48.547263599999951, -22.027106699999933 ], [ -48.547122399999978, -22.024598699999956 ], [ -48.549906, -22.022753 ], [ -48.550287599999933, -22.02382149999994 ], [ -48.551328099999978, -22.023351899999966 ], [ -48.552170599999954, -22.024050399999965 ], [ -48.552325499999938, -22.02281789999995 ], [ -48.551278199999956, -22.021947799999964 ], [ -48.55271769999996, -22.020524699999953 ], [ -48.553917599999977, -22.021030699999983 ], [ -48.553411099999948, -22.019527799999935 ], [ -48.55455749999993, -22.019253399999968 ], [ -48.553830599999969, -22.016373099999953 ], [ -48.556821199999945, -22.014021899999932 ], [ -48.557789699999944, -22.014090799999963 ], [ -48.557404499999961, -22.013166199999944 ], [ -48.558476199999973, -22.013018099999954 ], [ -48.558570199999963, -22.011852799999929 ], [ -48.563934, -22.007093599999962 ], [ -48.564189899999974, -22.006028199999946 ], [ -48.563263, -22.005965099999969 ], [ -48.564001, -22.005088499999943 ], [ -48.567344599999956, -22.004750599999966 ], [ -48.569002599999976, -22.002593599999955 ], [ -48.570478399999956, -22.003028499999971 ], [ -48.572234499999979, -22.002006199999983 ], [ -48.577412799999934, -22.002216499999975 ], [ -48.578285, -22.001223599999946 ], [ -48.581466099999943, -22.001304 ], [ -48.583406299999979, -22.000129299999969 ], [ -48.584527399999956, -22.000715299999968 ], [ -48.585454699999957, -22.000106599999981 ], [ -48.586066599999981, -22.000806399999931 ], [ -48.587409099999945, -22.000414 ], [ -48.586520399999984, -21.99955209999996 ], [ -48.58774029999995, -21.999783 ], [ -48.58874469999995, -21.998726799999929 ], [ -48.589339499999937, -21.999162299999966 ], [ -48.589107699999943, -21.998072599999944 ], [ -48.590125, -21.996677499999976 ], [ -48.593294199999946, -21.996889599999975 ], [ -48.592623399999979, -21.995367 ], [ -48.594375, -21.994101199999932 ], [ -48.593005099999971, -21.993023699999981 ], [ -48.596068399999979, -21.988421699999947 ], [ -48.598188899999968, -21.987082399999963 ], [ -48.598346, -21.988738499999954 ], [ -48.605860899999982, -21.987030599999969 ], [ -48.606931, -21.987736299999938 ], [ -48.606779199999949, -21.986192 ], [ -48.60838549999994, -21.987067399999944 ], [ -48.610163899999975, -21.985877899999934 ], [ -48.609793, -21.984874599999955 ], [ -48.610437799999943, -21.984760699999981 ], [ -48.611608299999943, -21.985909899999967 ], [ -48.613492599999972, -21.98404869999996 ], [ -48.612907899999982, -21.982192199999929 ], [ -48.611480099999937, -21.981748499999981 ], [ -48.612693499999978, -21.980815899999982 ], [ -48.613268499999947, -21.978831799999966 ], [ -48.612757, -21.978192099999944 ], [ -48.614984499999935, -21.977317899999946 ], [ -48.617154099999937, -21.979255899999941 ], [ -48.617979199999979, -21.978344799999945 ], [ -48.618400699999938, -21.979520799999932 ], [ -48.620181499999944, -21.978699399999982 ], [ -48.619632199999955, -21.977212299999962 ], [ -48.624654299999975, -21.974631399999964 ], [ -48.626488199999983, -21.971228799999949 ], [ -48.628948699999967, -21.969793699999968 ], [ -48.630794799999933, -21.969453499999929 ], [ -48.63155919999997, -21.97011219999996 ], [ -48.63363529999998, -21.967648799999949 ], [ -48.634484499999985, -21.968296099999975 ], [ -48.633351599999969, -21.968767699999944 ], [ -48.633890799999961, -21.969297899999958 ], [ -48.635872799999959, -21.968416399999967 ], [ -48.636314, -21.969472199999927 ], [ -48.63765989999996, -21.968254899999977 ], [ -48.638456299999973, -21.969930799999929 ], [ -48.642424399999982, -21.970061399999963 ], [ -48.642876899999976, -21.971304599999939 ], [ -48.644284, -21.969419699999946 ], [ -48.644948299999953, -21.970418499999937 ], [ -48.644866599999943, -21.968853199999955 ], [ -48.646708199999978, -21.969300699999962 ], [ -48.645923499999981, -21.96777869999994 ], [ -48.646791699999937, -21.968145499999935 ], [ -48.646901699999944, -21.967558799999949 ], [ -48.645837599999936, -21.966467299999977 ], [ -48.647242199999937, -21.966032899999959 ], [ -48.648552699999982, -21.963043599999935 ], [ -48.650158599999941, -21.962999799999977 ], [ -48.64984069999997, -21.964031299999931 ], [ -48.651180299999965, -21.964057199999957 ], [ -48.650432, -21.962502299999983 ], [ -48.652177599999959, -21.962859099999946 ], [ -48.652040899999974, -21.961843499999929 ], [ -48.65315929999997, -21.961812699999939 ], [ -48.653092299999969, -21.960220799999945 ], [ -48.654987699999936, -21.959131599999978 ], [ -48.655732199999932, -21.960051299999975 ], [ -48.657177199999978, -21.95933 ], [ -48.656015199999956, -21.957214399999941 ], [ -48.657372399999986, -21.956164199999932 ], [ -48.656909299999938, -21.955128199999933 ], [ -48.657921199999976, -21.955035599999974 ], [ -48.65663109999997, -21.954178299999967 ], [ -48.659828799999957, -21.95363569999995 ], [ -48.661555, -21.951928899999928 ], [ -48.662328499999944, -21.95326689999996 ], [ -48.663464499999975, -21.950622499999952 ], [ -48.66492, -21.94991129999994 ], [ -48.666102599999931, -21.950405799999942 ], [ -48.666612899999961, -21.949577699999963 ], [ -48.667339, -21.950313299999948 ], [ -48.669801, -21.949833499999954 ], [ -48.669417899999985, -21.948497799999927 ], [ -48.671626699999933, -21.946632399999942 ], [ -48.672119799999962, -21.94363119999997 ], [ -48.668480299999942, -21.941407099999935 ], [ -48.67037339999996, -21.940926199999979 ], [ -48.670726699999932, -21.938979 ], [ -48.671718399999975, -21.938799199999949 ], [ -48.670928199999935, -21.938046 ], [ -48.671691099999975, -21.937395 ], [ -48.67225069999995, -21.938231799999983 ], [ -48.674419899999975, -21.937460399999964 ], [ -48.676118599999938, -21.934335899999951 ], [ -48.675811599999975, -21.932947799999965 ], [ -48.678137599999957, -21.933107699999937 ], [ -48.677676399999939, -21.93018 ], [ -48.679396899999972, -21.928793799999937 ], [ -48.678904399999965, -21.92779749999994 ], [ -48.673781399999939, -21.927371099999959 ], [ -48.662704199999951, -21.921954399999947 ], [ -48.653987, -21.913113399999929 ], [ -48.644016799999974, -21.907790299999931 ], [ -48.642897099999971, -21.905748799999969 ], [ -48.65786479999997, -21.844637199999966 ], [ -48.657704299999978, -21.841568 ], [ -48.654409, -21.842864899999938 ], [ -48.654194199999949, -21.84220339999996 ], [ -48.655468599999949, -21.841553099999942 ], [ -48.652734799999962, -21.841248399999927 ], [ -48.653195299999936, -21.840016599999956 ], [ -48.65502209999994, -21.840173 ], [ -48.655022899999949, -21.83815089999996 ], [ -48.654057299999977, -21.838745399999937 ], [ -48.653226, -21.836163299999953 ], [ -48.651459599999953, -21.836772799999949 ], [ -48.650810899999954, -21.835644299999956 ], [ -48.648876099999939, -21.837277899999947 ], [ -48.650691699999982, -21.839259399999946 ], [ -48.650010499999951, -21.839493299999958 ], [ -48.648938699999974, -21.838261399999965 ], [ -48.647702699999968, -21.840503199999944 ], [ -48.647898599999962, -21.839156399999979 ], [ -48.64612649999998, -21.838765899999942 ], [ -48.647061699999938, -21.83767649999993 ], [ -48.64654059999998, -21.837179599999956 ], [ -48.64551119999993, -21.838351399999965 ], [ -48.643818499999952, -21.837660299999982 ], [ -48.643821099999968, -21.839685699999961 ], [ -48.642512499999953, -21.838273299999969 ], [ -48.642307399999936, -21.836589199999935 ], [ -48.640066899999965, -21.839359599999966 ], [ -48.639574499999981, -21.838856299999975 ], [ -48.640716899999973, -21.837527299999977 ], [ -48.636224299999981, -21.835987299999942 ], [ -48.63359, -21.837697599999956 ], [ -48.634731099999954, -21.837750699999958 ], [ -48.634962899999948, -21.838655199999948 ], [ -48.631672699999967, -21.839124 ], [ -48.631060299999945, -21.842106799999954 ], [ -48.632425099999978, -21.843870899999956 ], [ -48.628657699999962, -21.843617799999947 ], [ -48.627568, -21.844524 ], [ -48.626453799999979, -21.84250069999996 ], [ -48.624130499999978, -21.84357689999996 ], [ -48.62257139999997, -21.841736199999957 ], [ -48.620821099999944, -21.842105 ], [ -48.621253099999933, -21.840936099999965 ], [ -48.618385, -21.840190299999961 ], [ -48.616049699999962, -21.840983 ], [ -48.618233399999951, -21.842657299999928 ], [ -48.616439199999945, -21.84568859999996 ], [ -48.614644799999951, -21.843391299999951 ], [ -48.613539899999978, -21.844716499999947 ], [ -48.612319599999978, -21.843395799999939 ], [ -48.611174799999958, -21.844110199999932 ], [ -48.609034799999961, -21.843616499999939 ], [ -48.609324599999979, -21.84515 ], [ -48.608507699999961, -21.845920099999944 ], [ -48.605638099999965, -21.84426469999994 ], [ -48.605204399999934, -21.844907699999965 ], [ -48.606088299999954, -21.845934899999975 ], [ -48.605325, -21.848494499999958 ], [ -48.604168799999968, -21.846396199999958 ], [ -48.603401099999985, -21.846451299999956 ], [ -48.603754399999957, -21.848301899999967 ], [ -48.600788699999953, -21.846268899999927 ], [ -48.599749599999939, -21.847383599999944 ], [ -48.599852899999973, -21.848728299999948 ], [ -48.596843, -21.848071899999979 ], [ -48.595934299999954, -21.849091899999962 ], [ -48.595547699999941, -21.848126 ], [ -48.596369, -21.846985199999949 ], [ -48.594233199999962, -21.845843299999956 ], [ -48.593878299999972, -21.847320699999955 ], [ -48.589503799999932, -21.847712399999978 ], [ -48.589301099999943, -21.849183 ], [ -48.58826739999995, -21.848873699999956 ], [ -48.586237099999948, -21.850423199999966 ], [ -48.586290399999939, -21.851854399999979 ], [ -48.590617599999973, -21.856515799999954 ], [ -48.590439599999968, -21.858409399999971 ], [ -48.588215699999978, -21.857801 ], [ -48.588307199999974, -21.858915799999977 ], [ -48.585526899999934, -21.859379299999944 ], [ -48.58548, -21.860977399999967 ], [ -48.583220299999937, -21.860805299999981 ], [ -48.582048799999939, -21.861754399999938 ], [ -48.578618899999981, -21.858865899999955 ], [ -48.578422899999964, -21.859925299999929 ], [ -48.577703099999951, -21.859248199999968 ], [ -48.576718399999947, -21.859561499999927 ], [ -48.577197099999978, -21.860596199999975 ], [ -48.57298069999996, -21.86071 ], [ -48.574485, -21.862500299999965 ], [ -48.566830399999958, -21.865179099999978 ], [ -48.565935599999932, -21.864777899999979 ], [ -48.567239599999937, -21.863273399999969 ], [ -48.566486, -21.862596899999971 ], [ -48.568350399999986, -21.861247599999956 ], [ -48.568111199999976, -21.859055 ], [ -48.566651599999943, -21.856878199999983 ], [ -48.564037399999961, -21.857019099999945 ], [ -48.561928699999953, -21.858632199999931 ], [ -48.561049899999944, -21.860462199999972 ], [ -48.560021199999937, -21.860453599999971 ], [ -48.557830799999977, -21.86225289999993 ], [ -48.55503559999994, -21.866105399999981 ], [ -48.552518699999951, -21.864446399999963 ], [ -48.553224199999931, -21.866743399999962 ], [ -48.549716899999964, -21.868266099999971 ], [ -48.547496299999978, -21.867953499999942 ], [ -48.548547599999949, -21.866607299999941 ], [ -48.546333, -21.866697199999976 ], [ -48.542612199999951, -21.864192699999933 ], [ -48.540133599999933, -21.864070399999946 ], [ -48.536797599999943, -21.865972099999965 ], [ -48.534776099999931, -21.869423 ], [ -48.533788, -21.869008699999938 ], [ -48.534125899999935, -21.868144 ], [ -48.528173, -21.868444899999929 ], [ -48.530601699999977, -21.866782599999965 ], [ -48.530594899999983, -21.865870599999937 ], [ -48.529647599999976, -21.865477399999975 ], [ -48.525696399999958, -21.866853499999934 ], [ -48.523381099999938, -21.868765199999928 ], [ -48.518311099999949, -21.869115699999952 ], [ -48.51678979999997, -21.870970799999952 ], [ -48.517152399999986, -21.868177199999934 ], [ -48.515762699999982, -21.867353399999956 ], [ -48.516048599999976, -21.865905599999962 ], [ -48.512791, -21.86367869999998 ], [ -48.512469499999952, -21.865044299999965 ], [ -48.51054739999995, -21.864627699999971 ], [ -48.511149, -21.862923 ], [ -48.508931399999938, -21.862561399999947 ], [ -48.507959599999936, -21.863213199999961 ], [ -48.507586599999968, -21.865870499999971 ], [ -48.50627529999997, -21.865808099999981 ], [ -48.504386199999942, -21.863823599999932 ], [ -48.50390079999994, -21.86663109999995 ], [ -48.503309299999955, -21.866731199999947 ], [ -48.502093399999978, -21.864814 ], [ -48.498497199999974, -21.863368599999944 ], [ -48.500321499999984, -21.851158299999952 ], [ -48.498706299999981, -21.850061399999959 ], [ -48.496221299999945, -21.850166899999977 ], [ -48.493350699999951, -21.852242399999966 ], [ -48.489792799999975, -21.851924199999928 ], [ -48.48928479999995, -21.844922599999961 ], [ -48.488108799999964, -21.84396449999997 ], [ -48.484518699999967, -21.845696399999952 ], [ -48.482146899999975, -21.844921599999964 ], [ -48.480670099999941, -21.848030699999981 ], [ -48.477823699999931, -21.848443399999951 ], [ -48.477210699999944, -21.84980539999998 ], [ -48.479024599999946, -21.853151199999957 ], [ -48.478264599999932, -21.854007899999942 ], [ -48.475768499999958, -21.852464699999928 ], [ -48.47346559999994, -21.854494899999963 ], [ -48.471224, -21.854108599999961 ], [ -48.468741499999965, -21.850683699999934 ], [ -48.470321499999955, -21.845461199999932 ], [ -48.466890699999965, -21.844817299999931 ], [ -48.465722699999958, -21.845407399999942 ], [ -48.463618399999973, -21.848688899999956 ], [ -48.461944799999969, -21.849136 ], [ -48.46001549999994, -21.851966899999979 ], [ -48.457531899999935, -21.852030499999955 ], [ -48.454470399999934, -21.849645399999929 ], [ -48.452380499999947, -21.845319 ], [ -48.450877299999945, -21.844665599999928 ], [ -48.449787599999979, -21.845359 ], [ -48.448877799999934, -21.848753199999976 ], [ -48.445994499999983, -21.852315099999942 ], [ -48.443883799999981, -21.852274799999975 ], [ -48.445235399999945, -21.846675199999936 ], [ -48.443374699999936, -21.845308599999953 ], [ -48.442047099999968, -21.845819399999982 ], [ -48.441735199999982, -21.848319099999969 ], [ -48.434928299999967, -21.849535799999956 ], [ -48.432943099999932, -21.852669499999934 ], [ -48.431789, -21.851528099999939 ], [ -48.428837, -21.850743 ], [ -48.428220899999985, -21.848314699999946 ], [ -48.429277399999933, -21.846810299999959 ], [ -48.431739299999947, -21.847201899999959 ], [ -48.434248799999978, -21.846047 ], [ -48.434550099999967, -21.844221 ], [ -48.428322899999955, -21.841235899999958 ], [ -48.426704, -21.836366399999974 ], [ -48.425054599999953, -21.835147099999972 ], [ -48.423273299999948, -21.835604699999976 ], [ -48.422255399999983, -21.837186799999927 ], [ -48.423917299999971, -21.839502699999969 ], [ -48.42416389999994, -21.841622399999949 ], [ -48.421794, -21.845610599999929 ], [ -48.415273099999979, -21.84808 ], [ -48.412477799999976, -21.850875499999972 ], [ -48.411572299999932, -21.853889599999945 ], [ -48.409483899999941, -21.855210499999941 ], [ -48.403314399999942, -21.852384799999982 ], [ -48.401005099999963, -21.854206599999941 ], [ -48.397850499999947, -21.852441099999965 ], [ -48.394796499999984, -21.856789 ], [ -48.392489, -21.858361399999978 ], [ -48.385999499999969, -21.855578299999934 ], [ -48.377922699999942, -21.854521099999943 ], [ -48.376227, -21.85328 ], [ -48.374644599999954, -21.856423799999959 ], [ -48.373651399999972, -21.856275699999969 ], [ -48.374091, -21.85518819999993 ], [ -48.372649399999943, -21.854922299999942 ], [ -48.371167299999968, -21.856399199999942 ], [ -48.370989799999961, -21.858623199999954 ], [ -48.369135099999937, -21.858101099999942 ], [ -48.36696349999994, -21.859116099999937 ], [ -48.364378399999964, -21.855751399999974 ], [ -48.36352439999996, -21.856665499999963 ], [ -48.362539899999945, -21.855877799999973 ], [ -48.361268799999948, -21.856198099999972 ], [ -48.360894599999938, -21.854342199999962 ], [ -48.359215699999936, -21.85513549999996 ], [ -48.358382199999937, -21.85434749999996 ], [ -48.357305899999972, -21.855105499999979 ], [ -48.356202899999971, -21.85413189999997 ], [ -48.35482159999998, -21.854692299999954 ], [ -48.35480119999994, -21.853564899999981 ], [ -48.353418099999942, -21.853138799999954 ], [ -48.35102059999997, -21.854185499999971 ], [ -48.349667899999986, -21.851444899999933 ], [ -48.349029099999939, -21.853060099999936 ], [ -48.346270799999957, -21.853853199999946 ], [ -48.343829199999959, -21.853584399999932 ], [ -48.343601099999944, -21.854311 ], [ -48.344928699999969, -21.855208599999969 ], [ -48.343707, -21.85687489999998 ], [ -48.340529899999979, -21.855277799999953 ], [ -48.341607799999963, -21.85350219999998 ], [ -48.339952399999959, -21.852695099999949 ], [ -48.337327599999981, -21.855790099999979 ], [ -48.338395199999979, -21.858389599999953 ], [ -48.337678699999969, -21.859151599999961 ], [ -48.335491799999943, -21.859076699999946 ], [ -48.334534899999937, -21.857790399999942 ], [ -48.335883599999931, -21.856220299999961 ], [ -48.334459, -21.855500199999938 ], [ -48.334893199999954, -21.854238099999975 ], [ -48.333519099999933, -21.854664399999933 ], [ -48.333123899999975, -21.855943199999956 ], [ -48.33051, -21.85653039999994 ], [ -48.330535299999951, -21.857725399999936 ], [ -48.32937359999994, -21.858457699999974 ], [ -48.330329199999937, -21.859312099999954 ], [ -48.328694599999949, -21.861474299999941 ], [ -48.326500199999941, -21.860023199999944 ], [ -48.321180599999934, -21.85935829999994 ], [ -48.318862099999933, -21.861134299999947 ], [ -48.318384199999969, -21.862737699999968 ], [ -48.317065099999979, -21.862676199999953 ], [ -48.317073799999946, -21.863919299999964 ], [ -48.315280199999961, -21.86603 ], [ -48.316278899999986, -21.866822 ], [ -48.308557199999939, -21.86888179999994 ], [ -48.30772879999995, -21.870477599999958 ], [ -48.308526899999947, -21.871883699999955 ], [ -48.307527799999946, -21.872757299999932 ], [ -48.305267899999933, -21.872394299999939 ], [ -48.304492399999958, -21.870252799999946 ], [ -48.301580699999931, -21.870261399999947 ], [ -48.300961899999947, -21.869217899999967 ], [ -48.299753799999962, -21.87062409999993 ], [ -48.299855099999945, -21.869246299999929 ], [ -48.29725179999997, -21.869267299999933 ], [ -48.297442899999965, -21.867946599999982 ], [ -48.296348699999953, -21.867124199999978 ], [ -48.297079199999985, -21.86582379999993 ], [ -48.293283899999949, -21.866553199999942 ], [ -48.29357049999993, -21.867865199999983 ], [ -48.291633199999978, -21.868130399999927 ], [ -48.29207, -21.870190899999955 ], [ -48.290601799999934, -21.869473399999947 ], [ -48.290246199999956, -21.870497799999953 ], [ -48.28815, -21.870983399999943 ], [ -48.287129399999969, -21.872539099999983 ], [ -48.286890699999958, -21.870879599999967 ], [ -48.284605899999974, -21.869881899999939 ], [ -48.285207499999956, -21.869121599999971 ], [ -48.282669899999973, -21.868782 ], [ -48.28183359999997, -21.86756349999996 ], [ -48.281616799999938, -21.868531399999938 ], [ -48.280333799999937, -21.868511299999966 ], [ -48.280762299999935, -21.867213299999946 ], [ -48.279329099999984, -21.866687699999943 ], [ -48.280458899999985, -21.86586559999995 ], [ -48.28035269999998, -21.864475299999981 ], [ -48.278476599999976, -21.86510149999998 ], [ -48.277965199999983, -21.866752099999928 ] ] ] ] } }
]
}
