{
"type": "FeatureCollection",
"name": "ER_REGIAO_Guaíra",
"crs": { "type": "name", "properties": { "name": "urn:ogc:def:crs:EPSG::4674" } },
"xy_coordinate_resolution": 1e-15,
"features": [
{ "type": "Feature", "properties": { "fid": 288, "NM_REGIAO": "Sudeste", "NM_UF": "São Paulo", "NM_MUN": "Guaíra", "NM_DIST": "Guaíra", "CD_SUBDIST": "35174060500", "ER_REGIAO": "Guaíra", "ER_REGIAO_CIDADE": "Guaíra_Barretos" }, "geometry": { "type": "MultiPolygon", "coordinates": [ [ [ [ -48.1769059, -20.3228069 ], [ -48.1798295, -20.3319504 ], [ -48.182449, -20.3335398 ], [ -48.1855504, -20.3377885 ], [ -48.1890169, -20.3403317 ], [ -48.1899021, -20.3419203 ], [ -48.1863163, -20.3497579 ], [ -48.1788338, -20.3900236 ], [ -48.2008911, -20.4380034 ], [ -48.2017851, -20.4427352 ], [ -48.2046924, -20.4473529 ], [ -48.2095257, -20.4512481 ], [ -48.2116563, -20.4551571 ], [ -48.2117654, -20.4572023 ], [ -48.2138592, -20.4578826 ], [ -48.2150662, -20.4554428 ], [ -48.21726, -20.455681 ], [ -48.2191188, -20.454957 ], [ -48.2191873, -20.4539255 ], [ -48.2215333, -20.4532518 ], [ -48.2221387, -20.4515316 ], [ -48.2216558, -20.4501399 ], [ -48.2280766, -20.4499409 ], [ -48.228954, -20.4510434 ], [ -48.2274667, -20.4518616 ], [ -48.2271879, -20.4530302 ], [ -48.2288445, -20.4543483 ], [ -48.2293013, -20.4558507 ], [ -48.2309916, -20.4572185 ], [ -48.2334268, -20.4564918 ], [ -48.2361884, -20.4568061 ], [ -48.2367845, -20.4597636 ], [ -48.2388262, -20.4601729 ], [ -48.2388253, -20.461016 ], [ -48.242091, -20.4603687 ], [ -48.243954, -20.4612499 ], [ -48.2471954, -20.4607124 ], [ -48.2522742, -20.4621268 ], [ -48.2532841, -20.463409 ], [ -48.2567492, -20.4629939 ], [ -48.258967, -20.4640855 ], [ -48.2590278, -20.4655146 ], [ -48.2599113, -20.4650703 ], [ -48.2608359, -20.4662777 ], [ -48.2614976, -20.4656345 ], [ -48.263775, -20.4676251 ], [ -48.2645102, -20.4669924 ], [ -48.2653025, -20.467606 ], [ -48.2677676, -20.4671335 ], [ -48.2676544, -20.4679568 ], [ -48.2686565, -20.4687338 ], [ -48.2696474, -20.4682895 ], [ -48.2698423, -20.4689545 ], [ -48.2714136, -20.4681198 ], [ -48.2727895, -20.4689775 ], [ -48.278717, -20.4688596 ], [ -48.2807376, -20.4706697 ], [ -48.278783, -20.4744885 ], [ -48.2802133, -20.4754596 ], [ -48.2821032, -20.4742842 ], [ -48.2832632, -20.4744266 ], [ -48.2833687, -20.476569 ], [ -48.2825552, -20.4781747 ], [ -48.2808107, -20.4784046 ], [ -48.2819863, -20.4798307 ], [ -48.2813718, -20.4810847 ], [ -48.2840653, -20.4810011 ], [ -48.2852536, -20.4830926 ], [ -48.2866137, -20.4826539 ], [ -48.2885256, -20.4838045 ], [ -48.2848731, -20.4855637 ], [ -48.2850076, -20.4867182 ], [ -48.2818222, -20.490691 ], [ -48.281604, -20.4923531 ], [ -48.2840717, -20.4926715 ], [ -48.2830668, -20.493488 ], [ -48.2841834, -20.4939755 ], [ -48.2836022, -20.4984863 ], [ -48.286188, -20.5010988 ], [ -48.2873387, -20.5010069 ], [ -48.2872122, -20.5019305 ], [ -48.2885298, -20.5031039 ], [ -48.289876, -20.506527 ], [ -48.2946119, -20.5110464 ], [ -48.2945328, -20.5130721 ], [ -48.2932207, -20.5142782 ], [ -48.2982209, -20.5150223 ], [ -48.3010102, -20.5129935 ], [ -48.3028171, -20.5138067 ], [ -48.30345, -20.51534 ], [ -48.3065404, -20.5155607 ], [ -48.3077582, -20.5171537 ], [ -48.3121144, -20.5174706 ], [ -48.3156804, -20.5191006 ], [ -48.3155004, -20.5184153 ], [ -48.3169051, -20.5191892 ], [ -48.318734, -20.5186594 ], [ -48.3196075, -20.5203041 ], [ -48.3169143, -20.5210109 ], [ -48.3176725, -20.5221452 ], [ -48.3172019, -20.5241015 ], [ -48.3226193, -20.5260519 ], [ -48.3242321, -20.5277378 ], [ -48.3233978, -20.5285034 ], [ -48.3249695, -20.5295886 ], [ -48.3263375, -20.5324445 ], [ -48.3308064, -20.5305293 ], [ -48.3325955, -20.5324557 ], [ -48.334024, -20.5290043 ], [ -48.336078, -20.5295021 ], [ -48.3382597, -20.5272666 ], [ -48.3419274, -20.5279438 ], [ -48.3422647, -20.5267587 ], [ -48.341346, -20.5240156 ], [ -48.342105, -20.5222449 ], [ -48.3441604, -20.5219184 ], [ -48.3459284, -20.5222089 ], [ -48.3455915, -20.5233589 ], [ -48.3462937, -20.5241952 ], [ -48.345684, -20.5247541 ], [ -48.3472121, -20.5258278 ], [ -48.3488196, -20.5244338 ], [ -48.3524874, -20.5236753 ], [ -48.3539327, -20.5263734 ], [ -48.355765, -20.5277602 ], [ -48.3632196, -20.5280458 ], [ -48.3633723, -20.5271805 ], [ -48.3654523, -20.5267087 ], [ -48.367957, -20.5278652 ], [ -48.3690298, -20.5275732 ], [ -48.370154, -20.5294356 ], [ -48.3721981, -20.5301523 ], [ -48.3698847, -20.5314662 ], [ -48.3701015, -20.5326188 ], [ -48.3685224, -20.5354899 ], [ -48.3697885, -20.5373794 ], [ -48.3712906, -20.5379418 ], [ -48.3716087, -20.5421612 ], [ -48.3701635, -20.5435517 ], [ -48.369938, -20.5449114 ], [ -48.3715427, -20.5462323 ], [ -48.372907, -20.5445098 ], [ -48.3765878, -20.5433823 ], [ -48.3763865, -20.541989 ], [ -48.3789275, -20.5415122 ], [ -48.3792752, -20.5396695 ], [ -48.3805812, -20.538278 ], [ -48.3836549, -20.5371614 ], [ -48.3858713, -20.5322074 ], [ -48.3884699, -20.5293078 ], [ -48.3940904, -20.5274351 ], [ -48.4026832, -20.5261069 ], [ -48.4090774, -20.5216872 ], [ -48.4157694, -20.5115167 ], [ -48.4162683, -20.5020151 ], [ -48.4208394, -20.4934448 ], [ -48.4274411, -20.4869427 ], [ -48.433041, -20.4784749 ], [ -48.4375314, -20.4755842 ], [ -48.441256, -20.467391 ], [ -48.446584, -20.4595538 ], [ -48.4540519, -20.4526151 ], [ -48.4591059, -20.4459054 ], [ -48.468115, -20.4398517 ], [ -48.4779052, -20.4280815 ], [ -48.4838088, -20.4060141 ], [ -48.4861443, -20.3892434 ], [ -48.4851108, -20.374038 ], [ -48.4819063, -20.3513882 ], [ -48.4821857, -20.3473907 ], [ -48.4837447, -20.3444586 ], [ -48.4919687, -20.3365703 ], [ -48.50061, -20.3309916 ], [ -48.5061163, -20.3225059 ], [ -48.5081855, -20.3155812 ], [ -48.5102077, -20.2966735 ], [ -48.509746, -20.2900864 ], [ -48.5071943, -20.2804331 ], [ -48.5066712, -20.2748234 ], [ -48.511993, -20.2605831 ], [ -48.5186484, -20.2528034 ], [ -48.5206603, -20.2445518 ], [ -48.5226406, -20.2425098 ], [ -48.5269535, -20.2401397 ], [ -48.5357726, -20.2399518 ], [ -48.5416193, -20.2330695 ], [ -48.5533112, -20.2227761 ], [ -48.5565679, -20.2209827 ], [ -48.5625943, -20.2195754 ], [ -48.5649463, -20.2179664 ], [ -48.569604, -20.2113964 ], [ -48.5763522, -20.2054297 ], [ -48.585773, -20.190917 ], [ -48.5906359, -20.1821487 ], [ -48.5935263, -20.1750445 ], [ -48.5971217, -20.1717112 ], [ -48.610728, -20.1673872 ], [ -48.6130939, -20.167418 ], [ -48.6166939, -20.1681885 ], [ -48.6253744, -20.1726597 ], [ -48.6360726, -20.1744389 ], [ -48.6441002, -20.1698833 ], [ -48.6469257, -20.1670007 ], [ -48.6377118, -20.1653474 ], [ -48.6267977, -20.1600896 ], [ -48.6093609, -20.1455769 ], [ -48.6006412, -20.1397105 ], [ -48.5932474, -20.1358117 ], [ -48.5782332, -20.131249 ], [ -48.5546289, -20.130299 ], [ -48.5462212, -20.1326775 ], [ -48.5368741, -20.1336907 ], [ -48.5268392, -20.133709 ], [ -48.5092316, -20.1387963 ], [ -48.5002501, -20.1390285 ], [ -48.4911161, -20.1381232 ], [ -48.4841129, -20.1353037 ], [ -48.4762218, -20.1347649 ], [ -48.4652499, -20.1287381 ], [ -48.4565594, -20.12879 ], [ -48.4534417, -20.1276843 ], [ -48.4516159, -20.1258737 ], [ -48.4485925, -20.1287797 ], [ -48.4419912, -20.1317397 ], [ -48.4357706, -20.1384376 ], [ -48.430981, -20.14845 ], [ -48.4264774, -20.1529369 ], [ -48.424598, -20.1536552 ], [ -48.4219745, -20.1531207 ], [ -48.4209929, -20.1520115 ], [ -48.4184875, -20.1431734 ], [ -48.4170868, -20.1414984 ], [ -48.413115, -20.1430344 ], [ -48.410268, -20.149843 ], [ -48.4077432, -20.1500889 ], [ -48.4041534, -20.1474077 ], [ -48.4005957, -20.1423865 ], [ -48.3986868, -20.1358209 ], [ -48.3951643, -20.1340812 ], [ -48.3899434, -20.1340202 ], [ -48.3900659, -20.1373621 ], [ -48.3932864, -20.1411757 ], [ -48.394715, -20.1491787 ], [ -48.3984081, -20.1537543 ], [ -48.3975529, -20.1581821 ], [ -48.3950289, -20.1614186 ], [ -48.3918063, -20.15979 ], [ -48.3896233, -20.1537241 ], [ -48.3877221, -20.1515479 ], [ -48.3840696, -20.1511583 ], [ -48.3810545, -20.152741 ], [ -48.3794772, -20.152635 ], [ -48.3757354, -20.1490026 ], [ -48.3724148, -20.1496592 ], [ -48.3645253, -20.1477331 ], [ -48.3629551, -20.1480457 ], [ -48.3611146, -20.1508381 ], [ -48.3605633, -20.1543447 ], [ -48.3640416, -20.1595745 ], [ -48.3752757, -20.1605993 ], [ -48.3766428, -20.1629341 ], [ -48.376444, -20.1652695 ], [ -48.3738222, -20.1690253 ], [ -48.3685603, -20.1703903 ], [ -48.3660161, -20.1699663 ], [ -48.3646137, -20.1678462 ], [ -48.3629752, -20.1670164 ], [ -48.3601773, -20.1675796 ], [ -48.3560784, -20.1751207 ], [ -48.3551111, -20.178766 ], [ -48.3495459, -20.1851441 ], [ -48.3446017, -20.1864626 ], [ -48.3351148, -20.1850435 ], [ -48.3336988, -20.1826204 ], [ -48.3336189, -20.1770078 ], [ -48.3308229, -20.1746575 ], [ -48.3273484, -20.1741518 ], [ -48.3246687, -20.1719474 ], [ -48.3241919, -20.1687608 ], [ -48.3249124, -20.1639137 ], [ -48.3241874, -20.1616037 ], [ -48.325635, -20.1590315 ], [ -48.3252923, -20.1583213 ], [ -48.3219365, -20.1582198 ], [ -48.3185997, -20.1596784 ], [ -48.3159705, -20.1561464 ], [ -48.3119682, -20.1542953 ], [ -48.3100484, -20.1543982 ], [ -48.3086568, -20.156793 ], [ -48.3109476, -20.1630966 ], [ -48.3113726, -20.1704138 ], [ -48.3142142, -20.1745557 ], [ -48.3140627, -20.1782205 ], [ -48.3123044, -20.1823718 ], [ -48.3161787, -20.1862617 ], [ -48.3166948, -20.1882842 ], [ -48.3147989, -20.1961332 ], [ -48.3135046, -20.1971048 ], [ -48.3097619, -20.1972739 ], [ -48.3073756, -20.2006264 ], [ -48.3026708, -20.2026532 ], [ -48.2962795, -20.2040089 ], [ -48.2939849, -20.2041065 ], [ -48.2918315, -20.2022273 ], [ -48.2855863, -20.2034073 ], [ -48.2830601, -20.2046258 ], [ -48.2814541, -20.2064922 ], [ -48.276683, -20.2072328 ], [ -48.274413, -20.2100504 ], [ -48.2733662, -20.2170748 ], [ -48.2722154, -20.2178805 ], [ -48.2702184, -20.2171948 ], [ -48.2688477, -20.2119438 ], [ -48.2657573, -20.2077671 ], [ -48.2655373, -20.2000997 ], [ -48.2646604, -20.1974671 ], [ -48.2612184, -20.1946602 ], [ -48.2594087, -20.1946166 ], [ -48.2563426, -20.1961456 ], [ -48.2496249, -20.1958558 ], [ -48.2468769, -20.1985169 ], [ -48.2425917, -20.1968034 ], [ -48.2403785, -20.1988998 ], [ -48.2349845, -20.200561 ], [ -48.232817, -20.20051 ], [ -48.2293975, -20.1985339 ], [ -48.2278321, -20.200608 ], [ -48.2287971, -20.2082985 ], [ -48.2279842, -20.2141494 ], [ -48.2295006, -20.2157862 ], [ -48.2398452, -20.2202725 ], [ -48.2443493, -20.2262908 ], [ -48.2440985, -20.2274055 ], [ -48.2421375, -20.2288019 ], [ -48.2332086, -20.2288969 ], [ -48.2293938, -20.2277283 ], [ -48.2263124, -20.228116 ], [ -48.2224178, -20.2238827 ], [ -48.2187113, -20.2226158 ], [ -48.2171567, -20.2201237 ], [ -48.2133605, -20.2181268 ], [ -48.2046322, -20.217914 ], [ -48.2036898, -20.2188727 ], [ -48.2031712, -20.2215163 ], [ -48.2010879, -20.2226921 ], [ -48.1990145, -20.22283 ], [ -48.1953939, -20.2213684 ], [ -48.1925424, -20.2223983 ], [ -48.1862786, -20.222361 ], [ -48.1823251, -20.2243846 ], [ -48.1809957, -20.2242634 ], [ -48.1794758, -20.2228087 ], [ -48.1771929, -20.2231211 ], [ -48.1742584, -20.2271089 ], [ -48.1706824, -20.2277105 ], [ -48.1666715, -20.2299009 ], [ -48.1615033, -20.2304136 ], [ -48.1594508, -20.2336187 ], [ -48.1558954, -20.235707 ], [ -48.1557559, -20.2420299 ], [ -48.1583474, -20.2472622 ], [ -48.1582057, -20.2491756 ], [ -48.1564525, -20.2530438 ], [ -48.1535261, -20.2563727 ], [ -48.1494086, -20.2582099 ], [ -48.1459855, -20.2614187 ], [ -48.1486488, -20.2662144 ], [ -48.1507575, -20.2682881 ], [ -48.1546977, -20.2693151 ], [ -48.1583859, -20.2724641 ], [ -48.1573689, -20.2740894 ], [ -48.1521823, -20.2758146 ], [ -48.1494663, -20.2795408 ], [ -48.1490717, -20.2824922 ], [ -48.1511668, -20.2844215 ], [ -48.1516354, -20.2860206 ], [ -48.1515338, -20.2874234 ], [ -48.1497886, -20.2895543 ], [ -48.1497374, -20.2914492 ], [ -48.1529722, -20.2912535 ], [ -48.1596812, -20.296567 ], [ -48.1606345, -20.2996469 ], [ -48.1636693, -20.3036542 ], [ -48.1644795, -20.3092189 ], [ -48.1666323, -20.3103889 ], [ -48.1671995, -20.312352 ], [ -48.1708394, -20.3152826 ], [ -48.1769059, -20.3228069 ] ] ] ] } }
]
}
