{
"type": "FeatureCollection",
"name": "ER_REGIAO_Divinolândia_Divinolândia",
"crs": { "type": "name", "properties": { "name": "urn:ogc:def:crs:EPSG::4674" } },
"xy_coordinate_resolution": 1e-15,
"features": [
{ "type": "Feature", "properties": { "fid": 224, "NM_REGIAO": "Sudeste", "NM_UF": "São Paulo", "NM_MUN": "Divinolândia", "NM_DIST": "Divinolândia", "CD_SUBDIST": "35139000500", "ER_REGIAO": "Divinolândia_Divinolândia", "ER_REGIAO_CIDADE": "Divinolândia_Divinolândia_São João da Boa Vista" }, "geometry": { "type": "MultiPolygon", "coordinates": [ [ [ [ -46.615148799999986, -21.656962599999929 ], [ -46.614511499999935, -21.676516299999946 ], [ -46.621594699999946, -21.675543 ], [ -46.623558299999956, -21.679836299999977 ], [ -46.624837199999945, -21.686831 ], [ -46.623883299999932, -21.692728899999963 ], [ -46.624648599999944, -21.69408679999998 ], [ -46.628673599999956, -21.694817599999965 ], [ -46.629175799999985, -21.69606239999996 ], [ -46.63053009999993, -21.696123099999966 ], [ -46.634769499999948, -21.693283199999939 ], [ -46.638617099999976, -21.69248609999994 ], [ -46.641015, -21.688838399999952 ], [ -46.643763, -21.688580699999932 ], [ -46.644035, -21.683781799999963 ], [ -46.64623279999995, -21.681830899999966 ], [ -46.646272499999952, -21.679021899999952 ], [ -46.646998699999983, -21.678249499999936 ], [ -46.65020549999997, -21.67946349999994 ], [ -46.654770699999972, -21.678306899999939 ], [ -46.658694299999979, -21.678863199999967 ], [ -46.659480499999972, -21.680372299999931 ], [ -46.661473599999965, -21.680909499999927 ], [ -46.669207599999936, -21.677509399999963 ], [ -46.671367499999974, -21.678763699999934 ], [ -46.672424399999954, -21.68191429999996 ], [ -46.672689299999945, -21.687189899999964 ], [ -46.674073799999974, -21.692548299999942 ], [ -46.676463899999931, -21.693227099999945 ], [ -46.679449799999986, -21.689714899999956 ], [ -46.682443499999977, -21.687911499999927 ], [ -46.685767099999964, -21.688434199999961 ], [ -46.690120299999933, -21.690799299999981 ], [ -46.690351699999951, -21.693108 ], [ -46.689362099999983, -21.694442699999968 ], [ -46.693616199999951, -21.706049399999927 ], [ -46.698292, -21.710989299999937 ], [ -46.698159499999974, -21.709556899999939 ], [ -46.699100699999974, -21.708702099999982 ], [ -46.702505199999962, -21.709947299999953 ], [ -46.708365299999969, -21.707889899999941 ], [ -46.711942499999964, -21.708246499999973 ], [ -46.715062699999976, -21.711401299999977 ], [ -46.722958099999971, -21.71131859999997 ], [ -46.725278, -21.709123099999942 ], [ -46.72838239999993, -21.71031789999995 ], [ -46.730294199999946, -21.708996099999979 ], [ -46.734499199999959, -21.707938499999955 ], [ -46.735518699999943, -21.703877 ], [ -46.737642599999958, -21.699919299999976 ], [ -46.741695599999957, -21.695995099999948 ], [ -46.746462699999938, -21.696367599999974 ], [ -46.753128599999968, -21.692417399999954 ], [ -46.755662499999971, -21.69173909999995 ], [ -46.764620199999968, -21.692881 ], [ -46.769952399999966, -21.694907899999976 ], [ -46.771635599999968, -21.694716799999981 ], [ -46.773532399999965, -21.693218699999932 ], [ -46.776602099999934, -21.693838399999947 ], [ -46.776225799999963, -21.691731299999958 ], [ -46.777715499999942, -21.690412499999979 ], [ -46.777802399999985, -21.688983199999939 ], [ -46.781695899999931, -21.688957599999981 ], [ -46.784792, -21.68753449999997 ], [ -46.78780919999997, -21.684073099999978 ], [ -46.787961699999983, -21.681335699999977 ], [ -46.793180599999971, -21.684580799999935 ], [ -46.797114299999976, -21.685382699999934 ], [ -46.798281, -21.679262399999971 ], [ -46.801804299999958, -21.677664199999981 ], [ -46.801742599999955, -21.675546899999972 ], [ -46.800211099999956, -21.674043299999937 ], [ -46.800230099999965, -21.672691799999939 ], [ -46.803801799999974, -21.669849299999953 ], [ -46.805224099999975, -21.666737199999943 ], [ -46.805011299999933, -21.660179299999982 ], [ -46.800690199999963, -21.653523499999949 ], [ -46.798244499999953, -21.652899099999956 ], [ -46.792485699999986, -21.655564599999934 ], [ -46.788603599999931, -21.654772199999968 ], [ -46.777224599999954, -21.646585699999946 ], [ -46.772599199999945, -21.63945039999993 ], [ -46.775913, -21.634579699999961 ], [ -46.776616099999956, -21.630554199999949 ], [ -46.77316929999995, -21.623830899999973 ], [ -46.771685799999943, -21.618379399999981 ], [ -46.76450559999995, -21.611325099999931 ], [ -46.762921399999982, -21.607487299999946 ], [ -46.761054099999967, -21.605349499999932 ], [ -46.759969099999978, -21.59489439999993 ], [ -46.760596299999975, -21.59077869999993 ], [ -46.759180899999933, -21.584806699999945 ], [ -46.757503, -21.581900499999961 ], [ -46.759383899999932, -21.577183499999933 ], [ -46.759369699999979, -21.573151499999938 ], [ -46.760125199999948, -21.572234599999945 ], [ -46.757798099999945, -21.571980499999938 ], [ -46.757705499999986, -21.575827499999946 ], [ -46.756326799999954, -21.576808199999959 ], [ -46.747972699999934, -21.57754639999996 ], [ -46.746545099999935, -21.579059799999982 ], [ -46.747821299999941, -21.585428799999931 ], [ -46.746599699999933, -21.586774799999944 ], [ -46.745025099999964, -21.586792 ], [ -46.74303059999994, -21.586217199999965 ], [ -46.737359499999968, -21.582312699999932 ], [ -46.735068499999954, -21.578899499999977 ], [ -46.733569799999941, -21.578985299999943 ], [ -46.731638099999941, -21.580514099999959 ], [ -46.72893229999994, -21.57783969999997 ], [ -46.726635299999941, -21.577055 ], [ -46.720922299999984, -21.569533699999965 ], [ -46.719247499999938, -21.570604799999956 ], [ -46.71923, -21.57235929999996 ], [ -46.718416299999944, -21.573280199999942 ], [ -46.709465899999941, -21.57361839999993 ], [ -46.713788199999954, -21.579528099999948 ], [ -46.713401099999942, -21.584055099999944 ], [ -46.715309899999966, -21.586062099999936 ], [ -46.715344099999982, -21.591187399999967 ], [ -46.717148099999974, -21.593877599999928 ], [ -46.720711, -21.595908 ], [ -46.722851899999966, -21.599167699999953 ], [ -46.722816099999932, -21.600975199999937 ], [ -46.720923399999947, -21.604334299999948 ], [ -46.720410699999945, -21.606954299999927 ], [ -46.716056499999979, -21.605315 ], [ -46.71266739999993, -21.605014899999958 ], [ -46.710072299999979, -21.60284779999995 ], [ -46.706324, -21.601640399999951 ], [ -46.701613699999939, -21.603865499999927 ], [ -46.698783899999967, -21.604016899999976 ], [ -46.695650599999965, -21.607386099999928 ], [ -46.694184099999973, -21.611920599999962 ], [ -46.690423199999941, -21.61158949999998 ], [ -46.686961, -21.612486 ], [ -46.682732099999953, -21.61175529999997 ], [ -46.678920599999969, -21.613076299999932 ], [ -46.674534, -21.609311299999945 ], [ -46.668443399999944, -21.607581399999958 ], [ -46.660356899999954, -21.609557699999982 ], [ -46.657854599999951, -21.604642399999932 ], [ -46.655231199999946, -21.603240899999946 ], [ -46.649327299999982, -21.602165899999932 ], [ -46.640577899999982, -21.602253 ], [ -46.609417, -21.648577399999965 ], [ -46.605414399999972, -21.650042199999973 ], [ -46.606664299999977, -21.652680099999941 ], [ -46.611924, -21.653525699999932 ], [ -46.612767099999985, -21.653078199999982 ], [ -46.615148799999986, -21.656962599999929 ] ] ] ] } }
]
}
