{
"type": "FeatureCollection",
"name": "ER_REGIAO_Palmital_Palmital",
"crs": { "type": "name", "properties": { "name": "urn:ogc:def:crs:EPSG::4674" } },
"xy_coordinate_resolution": 1e-15,
"features": [
{ "type": "Feature", "properties": { "fid": 593, "NM_REGIAO": "Sudeste", "NM_UF": "São Paulo", "NM_MUN": "Palmital", "NM_DIST": "Palmital", "CD_SUBDIST": "35353090500", "ER_REGIAO": "Palmital_Palmital", "ER_REGIAO_CIDADE": "Palmital_Palmital_Marília" }, "geometry": { "type": "MultiPolygon", "coordinates": [ [ [ [ -50.289997, -22.937731 ], [ -50.2851992, -22.9309656 ], [ -50.2845805, -22.9288395 ], [ -50.2856077, -22.9255048 ], [ -50.2877554, -22.9232376 ], [ -50.289037, -22.9198331 ], [ -50.2888612, -22.9139772 ], [ -50.2873345, -22.9118587 ], [ -50.2839339, -22.9105918 ], [ -50.2819125, -22.9117727 ], [ -50.2761903, -22.909721 ], [ -50.2691564, -22.911493 ], [ -50.2650222, -22.9093205 ], [ -50.2589306, -22.9082352 ], [ -50.2574081, -22.9067621 ], [ -50.2570001, -22.9016682 ], [ -50.2594234, -22.8972872 ], [ -50.2602728, -22.8933012 ], [ -50.2579564, -22.886195 ], [ -50.2546319, -22.8811235 ], [ -50.2595118, -22.8669858 ], [ -50.2561658, -22.8596211 ], [ -50.2580532, -22.8543781 ], [ -50.2571317, -22.8495353 ], [ -50.2506082, -22.8365759 ], [ -50.2529947, -22.830216 ], [ -50.2564648, -22.8295446 ], [ -50.2736516, -22.8133915 ], [ -50.2682906, -22.7977036 ], [ -50.2696961, -22.7919253 ], [ -50.2690223, -22.7893732 ], [ -50.2678305, -22.789027 ], [ -50.2609788, -22.7919226 ], [ -50.2590392, -22.7906392 ], [ -50.2545367, -22.7832863 ], [ -50.2528883, -22.7775573 ], [ -50.2531655, -22.7752186 ], [ -50.2605219, -22.7705778 ], [ -50.2677758, -22.7678972 ], [ -50.2858332, -22.7643872 ], [ -50.2885912, -22.7584455 ], [ -50.2881089, -22.7572522 ], [ -50.2904596, -22.7582931 ], [ -50.2909747, -22.757718 ], [ -50.2902951, -22.7565676 ], [ -50.2912582, -22.754701 ], [ -50.287839, -22.7515434 ], [ -50.2903003, -22.7503337 ], [ -50.2889422, -22.7484862 ], [ -50.2879227, -22.7490882 ], [ -50.2875805, -22.7482098 ], [ -50.2872065, -22.7489243 ], [ -50.2868221, -22.7474316 ], [ -50.288875, -22.7447369 ], [ -50.2863086, -22.7443016 ], [ -50.2866134, -22.7417451 ], [ -50.2841878, -22.7415443 ], [ -50.282503, -22.740484 ], [ -50.2837258, -22.7375477 ], [ -50.2816742, -22.7360286 ], [ -50.2829263, -22.7351722 ], [ -50.2820807, -22.7331452 ], [ -50.2831194, -22.7316367 ], [ -50.2800282, -22.7294161 ], [ -50.2792254, -22.729614 ], [ -50.277957, -22.7276946 ], [ -50.2785704, -22.7270515 ], [ -50.2769903, -22.7254928 ], [ -50.2778572, -22.7250873 ], [ -50.2772663, -22.7242661 ], [ -50.2779861, -22.7237213 ], [ -50.2770828, -22.7232056 ], [ -50.2780402, -22.7224061 ], [ -50.2741854, -22.7199112 ], [ -50.2747801, -22.7193082 ], [ -50.2742024, -22.7176321 ], [ -50.271604, -22.7152481 ], [ -50.2734488, -22.713199 ], [ -50.2727619, -22.712012 ], [ -50.2689696, -22.711897 ], [ -50.2686392, -22.7096035 ], [ -50.2658759, -22.7074676 ], [ -50.2663784, -22.7051717 ], [ -50.2646478, -22.7047472 ], [ -50.2633608, -22.705326 ], [ -50.2628254, -22.7038034 ], [ -50.2642645, -22.7027723 ], [ -50.2629809, -22.701239 ], [ -50.2608967, -22.7018505 ], [ -50.2610477, -22.7024185 ], [ -50.2587305, -22.7038891 ], [ -50.2594831, -22.701419 ], [ -50.2578329, -22.6999144 ], [ -50.2586116, -22.6988812 ], [ -50.2578068, -22.6978336 ], [ -50.2557655, -22.6985758 ], [ -50.255672, -22.6964286 ], [ -50.2517847, -22.6935706 ], [ -50.2511706, -22.6924904 ], [ -50.2519031, -22.6907846 ], [ -50.2516097, -22.688008 ], [ -50.2507731, -22.6868951 ], [ -50.2496508, -22.6876667 ], [ -50.2474947, -22.6871097 ], [ -50.2472052, -22.6886876 ], [ -50.2449055, -22.6891981 ], [ -50.2425912, -22.6873677 ], [ -50.2397582, -22.6895264 ], [ -50.2355825, -22.6890416 ], [ -50.2338594, -22.6902526 ], [ -50.2309226, -22.6895669 ], [ -50.2280901, -22.6916507 ], [ -50.2282143, -22.6952863 ], [ -50.2258535, -22.6969195 ], [ -50.2216277, -22.6956649 ], [ -50.2166516, -22.6962788 ], [ -50.2148286, -22.6954811 ], [ -50.2111428, -22.6961514 ], [ -50.2043664, -22.6953591 ], [ -50.1941267, -22.6977175 ], [ -50.188683, -22.7001252 ], [ -50.1850659, -22.7028342 ], [ -50.1770228, -22.7023883 ], [ -50.1682465, -22.7066254 ], [ -50.1584967, -22.7045626 ], [ -50.1508806, -22.7053473 ], [ -50.1485715, -22.7031785 ], [ -50.1469174, -22.6995288 ], [ -50.1459304, -22.6993816 ], [ -50.1354572, -22.7062194 ], [ -50.1307769, -22.7058748 ], [ -50.1277833, -22.713573 ], [ -50.1262747, -22.7148276 ], [ -50.1228911, -22.7152786 ], [ -50.1191339, -22.7147161 ], [ -50.1149423, -22.7129863 ], [ -50.1104262, -22.7095852 ], [ -50.1077206, -22.7102308 ], [ -50.1070398, -22.712131 ], [ -50.107896, -22.7143524 ], [ -50.1120885, -22.7185626 ], [ -50.1131365, -22.7246095 ], [ -50.1153446, -22.7255195 ], [ -50.1154062, -22.7288162 ], [ -50.1182932, -22.7324437 ], [ -50.1186158, -22.7355033 ], [ -50.117536, -22.740524 ], [ -50.118911, -22.7431448 ], [ -50.1192377, -22.7490543 ], [ -50.1181686, -22.7505907 ], [ -50.1189564, -22.7516629 ], [ -50.1178887, -22.7562493 ], [ -50.1137959, -22.7643991 ], [ -50.1136876, -22.7667414 ], [ -50.1127938, -22.7681035 ], [ -50.1141468, -22.7738072 ], [ -50.1109339, -22.7755646 ], [ -50.1021008, -22.7773013 ], [ -50.0989202, -22.7815439 ], [ -50.1021408, -22.7869217 ], [ -50.1032872, -22.7922705 ], [ -50.1054928, -22.7949117 ], [ -50.1069527, -22.8030468 ], [ -50.1093861, -22.8085468 ], [ -50.1102288, -22.8143093 ], [ -50.1089834, -22.8164012 ], [ -50.1069191, -22.8170018 ], [ -50.108242, -22.8196503 ], [ -50.1091789, -22.8245306 ], [ -50.1111772, -22.8265303 ], [ -50.113034, -22.8272012 ], [ -50.1166001, -22.8269463 ], [ -50.1198281, -22.8279588 ], [ -50.1195993, -22.8306651 ], [ -50.1186431, -22.8309114 ], [ -50.1182703, -22.8325413 ], [ -50.1173241, -22.8325751 ], [ -50.1172681, -22.8339297 ], [ -50.1205914, -22.8360183 ], [ -50.1245925, -22.8410857 ], [ -50.125353, -22.8461592 ], [ -50.1271168, -22.8481936 ], [ -50.1333156, -22.8503265 ], [ -50.1354067, -22.8526888 ], [ -50.1337926, -22.8563019 ], [ -50.1337093, -22.8598962 ], [ -50.1302739, -22.8620442 ], [ -50.1291238, -22.864619 ], [ -50.1296987, -22.8729471 ], [ -50.1284497, -22.8768039 ], [ -50.1270459, -22.8774463 ], [ -50.1264995, -22.8791099 ], [ -50.1271664, -22.8862457 ], [ -50.1288763, -22.8872456 ], [ -50.1318722, -22.892981 ], [ -50.1307058, -22.8997225 ], [ -50.1318562, -22.9042582 ], [ -50.1312289, -22.9094539 ], [ -50.1295893, -22.9109097 ], [ -50.1299315, -22.9151986 ], [ -50.1323099, -22.9207901 ], [ -50.1342982, -22.9217193 ], [ -50.134551, -22.9241822 ], [ -50.1322409, -22.9274004 ], [ -50.1286805, -22.9261977 ], [ -50.1261769, -22.9284673 ], [ -50.1284385, -22.9298359 ], [ -50.1281843, -22.9370845 ], [ -50.1301494, -22.9374659 ], [ -50.1312906, -22.9392426 ], [ -50.1330955, -22.9399447 ], [ -50.1480536, -22.9351283 ], [ -50.1529931, -22.9356184 ], [ -50.1573054, -22.9388394 ], [ -50.1648922, -22.9464092 ], [ -50.1686845, -22.9481334 ], [ -50.1752627, -22.9492944 ], [ -50.1833934, -22.9537733 ], [ -50.1850821, -22.9540041 ], [ -50.1948373, -22.9515584 ], [ -50.2038919, -22.9527864 ], [ -50.2129942, -22.9484651 ], [ -50.2168821, -22.9478995 ], [ -50.2207047, -22.9490507 ], [ -50.2275322, -22.953474 ], [ -50.2375376, -22.9541462 ], [ -50.2409821, -22.9530394 ], [ -50.2441636, -22.94955 ], [ -50.2453353, -22.9464707 ], [ -50.2459685, -22.9401048 ], [ -50.2476111, -22.9377984 ], [ -50.2574081, -22.9365235 ], [ -50.2733879, -22.9310013 ], [ -50.275569, -22.9316032 ], [ -50.2840964, -22.937311 ], [ -50.289997, -22.937731 ] ] ] ] } }
]
}
