{
"type": "FeatureCollection",
"name": "ER_REGIAO_Tapiratiba",
"crs": { "type": "name", "properties": { "name": "urn:ogc:def:crs:EPSG::4674" } },
"xy_coordinate_resolution": 1e-15,
"features": [
{ "type": "Feature", "properties": { "fid": 978, "NM_REGIAO": "Sudeste", "NM_UF": "São Paulo", "NM_MUN": "Tapiratiba", "NM_DIST": "Tapiratiba", "CD_SUBDIST": "35536090500", "ER_REGIAO": "Tapiratiba", "ER_REGIAO_CIDADE": "Tapiratiba_São João da Boa Vista" }, "geometry": { "type": "MultiPolygon", "coordinates": [ [ [ [ -46.7257798, -21.3929047 ], [ -46.7224796, -21.3897503 ], [ -46.7204442, -21.3896418 ], [ -46.7147217, -21.3926621 ], [ -46.7122124, -21.3968713 ], [ -46.7101706, -21.3986523 ], [ -46.7074764, -21.4046085 ], [ -46.7059624, -21.4048439 ], [ -46.7006345, -21.4007889 ], [ -46.6986418, -21.3965926 ], [ -46.693892, -21.3905587 ], [ -46.6931699, -21.3842925 ], [ -46.6922065, -21.382747 ], [ -46.6874795, -21.3797845 ], [ -46.6840165, -21.376372 ], [ -46.6808952, -21.375146 ], [ -46.6739209, -21.3744918 ], [ -46.6729256, -21.3729889 ], [ -46.6722467, -21.3688262 ], [ -46.6667242, -21.3612917 ], [ -46.6646518, -21.3614109 ], [ -46.661394, -21.3637481 ], [ -46.6557624, -21.3643742 ], [ -46.6510805, -21.3629615 ], [ -46.6479372, -21.3635304 ], [ -46.6449226, -21.3723968 ], [ -46.6483084, -21.3758271 ], [ -46.6484144, -21.3777348 ], [ -46.646795, -21.3814167 ], [ -46.6468811, -21.3852375 ], [ -46.6487212, -21.3882908 ], [ -46.6487303, -21.3917213 ], [ -46.6468044, -21.3946968 ], [ -46.6428257, -21.3972345 ], [ -46.6406263, -21.4009395 ], [ -46.6388172, -21.4020096 ], [ -46.6394171, -21.4074704 ], [ -46.6373422, -21.4106896 ], [ -46.6311484, -21.4128519 ], [ -46.6277428, -21.411283 ], [ -46.6265671, -21.4114874 ], [ -46.6247039, -21.4134518 ], [ -46.6180587, -21.4223235 ], [ -46.6208128, -21.4245967 ], [ -46.6206696, -21.4259971 ], [ -46.6163134, -21.4278333 ], [ -46.6156224, -21.428838 ], [ -46.6160782, -21.4302511 ], [ -46.6226183, -21.4299531 ], [ -46.6261809, -21.4274052 ], [ -46.6375573, -21.4323459 ], [ -46.6399251, -21.4341271 ], [ -46.6430497, -21.4347483 ], [ -46.6475938, -21.4387654 ], [ -46.6505948, -21.4397339 ], [ -46.6564048, -21.4372142 ], [ -46.6623795, -21.4400024 ], [ -46.6661123, -21.4373452 ], [ -46.6689442, -21.4388168 ], [ -46.671794, -21.4352205 ], [ -46.6771618, -21.4341512 ], [ -46.6783964, -21.4369546 ], [ -46.6826192, -21.4366703 ], [ -46.6854441, -21.4384 ], [ -46.6865569, -21.4403982 ], [ -46.6905627, -21.4393376 ], [ -46.6930151, -21.4410456 ], [ -46.6967197, -21.4420088 ], [ -46.6976249, -21.4444532 ], [ -46.7001842, -21.4460347 ], [ -46.7016275, -21.4458126 ], [ -46.7023226, -21.4443901 ], [ -46.7065982, -21.4437278 ], [ -46.7067669, -21.44725 ], [ -46.7091354, -21.4488258 ], [ -46.710842, -21.452419 ], [ -46.7125905, -21.4536484 ], [ -46.7137392, -21.4533318 ], [ -46.7148642, -21.4544955 ], [ -46.7143469, -21.4569627 ], [ -46.7155367, -21.4595164 ], [ -46.7162722, -21.4651146 ], [ -46.7186355, -21.4709755 ], [ -46.7227403, -21.4731686 ], [ -46.7199768, -21.4744254 ], [ -46.7191178, -21.4807116 ], [ -46.717299, -21.4808645 ], [ -46.7158279, -21.4820209 ], [ -46.7103428, -21.4891273 ], [ -46.7061495, -21.4912995 ], [ -46.7032979, -21.4949376 ], [ -46.6976254, -21.4961628 ], [ -46.6976792, -21.499038 ], [ -46.6996886, -21.500542 ], [ -46.7015538, -21.5062126 ], [ -46.7118528, -21.5101116 ], [ -46.7166797, -21.5157284 ], [ -46.7173664, -21.5183574 ], [ -46.7186938, -21.519635 ], [ -46.7228656, -21.5205906 ], [ -46.7280283, -21.525069 ], [ -46.733232, -21.5281934 ], [ -46.7356667, -21.5273704 ], [ -46.7413803, -21.5293835 ], [ -46.7432609, -21.528839 ], [ -46.7431626, -21.5305748 ], [ -46.7461677, -21.5306157 ], [ -46.7462142, -21.5325481 ], [ -46.7485661, -21.5369837 ], [ -46.7520331, -21.536118 ], [ -46.754639, -21.5378879 ], [ -46.7540686, -21.5398494 ], [ -46.7550097, -21.5423888 ], [ -46.7568939, -21.543596 ], [ -46.7586787, -21.5463685 ], [ -46.7625694, -21.5478712 ], [ -46.7640843, -21.5475068 ], [ -46.7643061, -21.5449126 ], [ -46.7657426, -21.5429667 ], [ -46.7642131, -21.5409142 ], [ -46.7682849, -21.5417483 ], [ -46.772498, -21.5459488 ], [ -46.775087, -21.5471113 ], [ -46.7758162, -21.5507267 ], [ -46.7771753, -21.552245 ], [ -46.7800477, -21.5459437 ], [ -46.7817576, -21.5444762 ], [ -46.78491, -21.5434321 ], [ -46.7829972, -21.5412881 ], [ -46.7835959, -21.5390892 ], [ -46.7824968, -21.5373127 ], [ -46.7837019, -21.5365961 ], [ -46.7823231, -21.5358932 ], [ -46.7846028, -21.5353602 ], [ -46.7825412, -21.53322 ], [ -46.7814472, -21.5330737 ], [ -46.7820699, -21.5312184 ], [ -46.781355, -21.5303992 ], [ -46.7825306, -21.5307304 ], [ -46.7833311, -21.529607 ], [ -46.7843848, -21.5297072 ], [ -46.7843329, -21.5287138 ], [ -46.7826928, -21.5277466 ], [ -46.7844839, -21.5268495 ], [ -46.7852584, -21.5280745 ], [ -46.7869855, -21.5280351 ], [ -46.7878404, -21.5291337 ], [ -46.7916376, -21.5240729 ], [ -46.7935156, -21.5248052 ], [ -46.7944189, -21.5243914 ], [ -46.7931556, -21.5227746 ], [ -46.7925407, -21.5236382 ], [ -46.7919485, -21.5227109 ], [ -46.7911295, -21.5233259 ], [ -46.7910825, -21.5225321 ], [ -46.789758, -21.522609 ], [ -46.7896318, -21.5214259 ], [ -46.7948165, -21.5216002 ], [ -46.7949627, -21.5207695 ], [ -46.8002136, -21.5214136 ], [ -46.8065189, -21.5249558 ], [ -46.8116915, -21.5253219 ], [ -46.812364, -21.5213934 ], [ -46.8115074, -21.5155219 ], [ -46.8124205, -21.5096354 ], [ -46.8143862, -21.5095659 ], [ -46.8166194, -21.511416 ], [ -46.8224397, -21.5138792 ], [ -46.8234123, -21.5125935 ], [ -46.826475, -21.5114205 ], [ -46.8319566, -21.5059765 ], [ -46.8329481, -21.5020875 ], [ -46.8287567, -21.4977043 ], [ -46.8311871, -21.4929117 ], [ -46.8346432, -21.4894877 ], [ -46.8353462, -21.4878017 ], [ -46.8345443, -21.4827861 ], [ -46.8363001, -21.4796308 ], [ -46.83546, -21.4723366 ], [ -46.8364019, -21.470192 ], [ -46.8326429, -21.4674179 ], [ -46.8329335, -21.4634908 ], [ -46.8318484, -21.462165 ], [ -46.8269208, -21.4612499 ], [ -46.8181739, -21.4621514 ], [ -46.8169057, -21.4591708 ], [ -46.8170718, -21.4565038 ], [ -46.814825, -21.4537473 ], [ -46.8143394, -21.451215 ], [ -46.817946, -21.4458087 ], [ -46.8187585, -21.4413671 ], [ -46.8167002, -21.4386672 ], [ -46.8141335, -21.440077 ], [ -46.8122989, -21.4401326 ], [ -46.8077501, -21.4381802 ], [ -46.8046536, -21.4380355 ], [ -46.8083459, -21.4334161 ], [ -46.8080665, -21.4294828 ], [ -46.8059251, -21.4266527 ], [ -46.7993776, -21.4270978 ], [ -46.7949093, -21.4250903 ], [ -46.7906478, -21.4245696 ], [ -46.7879102, -21.4255309 ], [ -46.7838761, -21.4216382 ], [ -46.7812753, -21.417427 ], [ -46.77433, -21.4145185 ], [ -46.7756426, -21.4042122 ], [ -46.7784694, -21.3994752 ], [ -46.7787954, -21.3936981 ], [ -46.7778329, -21.390745 ], [ -46.7800097, -21.3841301 ], [ -46.7800281, -21.3807298 ], [ -46.7823591, -21.3717308 ], [ -46.7803679, -21.3698355 ], [ -46.7790641, -21.3663265 ], [ -46.776398, -21.3628248 ], [ -46.7647051, -21.3600636 ], [ -46.7636475, -21.3618769 ], [ -46.7588384, -21.3629046 ], [ -46.7582757, -21.3646618 ], [ -46.7596065, -21.3722053 ], [ -46.7616281, -21.3733317 ], [ -46.7621369, -21.3749687 ], [ -46.7586845, -21.3787884 ], [ -46.7538675, -21.3816013 ], [ -46.7505351, -21.3849177 ], [ -46.7449549, -21.3853971 ], [ -46.7407847, -21.3877498 ], [ -46.7392788, -21.3895588 ], [ -46.7389748, -21.3925723 ], [ -46.733615, -21.3941266 ], [ -46.7314811, -21.3921923 ], [ -46.7257798, -21.3929047 ] ] ] ] } }
]
}
