{
"type": "FeatureCollection",
"name": "ER_REGIAO_Bariri",
"crs": { "type": "name", "properties": { "name": "urn:ogc:def:crs:EPSG::4674" } },
"xy_coordinate_resolution": 1e-15,
"features": [
{ "type": "Feature", "properties": { "fid": 77, "NM_REGIAO": "Sudeste", "NM_UF": "São Paulo", "NM_MUN": "Bariri", "NM_DIST": "Bariri", "CD_SUBDIST": "35052030500", "ER_REGIAO": "Bariri", "ER_REGIAO_CIDADE": "Bariri_Araraquara" }, "geometry": { "type": "MultiPolygon", "coordinates": [ [ [ [ -48.6818829, -22.1895834 ], [ -48.6880557, -22.1910833 ], [ -48.6984687, -22.191299 ], [ -48.7070592, -22.1823258 ], [ -48.7144879, -22.1802406 ], [ -48.7150938, -22.1777456 ], [ -48.7208856, -22.1729359 ], [ -48.7429313, -22.1633975 ], [ -48.7472813, -22.1612323 ], [ -48.7503011, -22.158341 ], [ -48.7542342, -22.1537357 ], [ -48.7545691, -22.1521645 ], [ -48.7538939, -22.1394001 ], [ -48.7565432, -22.1218252 ], [ -48.7605772, -22.1134593 ], [ -48.7669543, -22.1048376 ], [ -48.7689898, -22.1034971 ], [ -48.7727556, -22.1033255 ], [ -48.7761817, -22.1052904 ], [ -48.7792832, -22.109902 ], [ -48.7799927, -22.1167441 ], [ -48.7814501, -22.120348 ], [ -48.7831743, -22.1221388 ], [ -48.7907586, -22.1254442 ], [ -48.7942657, -22.1253342 ], [ -48.8003444, -22.1219392 ], [ -48.8022018, -22.1196904 ], [ -48.8072801, -22.1082658 ], [ -48.8155724, -22.1071461 ], [ -48.8207614, -22.1084952 ], [ -48.8255291, -22.1118171 ], [ -48.8302063, -22.1187117 ], [ -48.8425253, -22.1284944 ], [ -48.8479624, -22.1293679 ], [ -48.8514342, -22.1285505 ], [ -48.8579232, -22.1253821 ], [ -48.8639016, -22.1185109 ], [ -48.8662497, -22.1129187 ], [ -48.8670299, -22.1087361 ], [ -48.8665015, -22.1053113 ], [ -48.860379, -22.0892072 ], [ -48.8543744, -22.0691322 ], [ -48.8535079, -22.0586308 ], [ -48.8545159, -22.0399489 ], [ -48.8562782, -22.0335504 ], [ -48.8576759, -22.0315384 ], [ -48.8632147, -22.0265546 ], [ -48.8672131, -22.0240663 ], [ -48.864474, -22.0197341 ], [ -48.8600168, -22.0174373 ], [ -48.8521472, -22.0171083 ], [ -48.8420571, -22.020529 ], [ -48.8378876, -22.0184594 ], [ -48.8327685, -22.0125781 ], [ -48.8260491, -22.0115943 ], [ -48.8016362, -22.0143946 ], [ -48.7895522, -22.0201502 ], [ -48.7816107, -22.0197173 ], [ -48.7754645, -22.0218028 ], [ -48.7740065, -22.0216043 ], [ -48.7720853, -22.020217 ], [ -48.7698736, -22.0148245 ], [ -48.7670731, -22.0114256 ], [ -48.7655912, -22.0073781 ], [ -48.7631588, -22.0046464 ], [ -48.7483266, -21.9968123 ], [ -48.7458703, -21.9936646 ], [ -48.7404978, -21.9911674 ], [ -48.735611, -21.9863861 ], [ -48.7219189, -21.9832953 ], [ -48.7180135, -21.9809697 ], [ -48.7143661, -21.9761827 ], [ -48.7131968, -21.968352 ], [ -48.7116472, -21.9652609 ], [ -48.7043314, -21.96163 ], [ -48.7000522, -21.9582 ], [ -48.6957523, -21.952911 ], [ -48.6907677, -21.9503576 ], [ -48.6873947, -21.9468764 ], [ -48.6847443, -21.9411137 ], [ -48.6853884, -21.933338 ], [ -48.6807364, -21.9286632 ], [ -48.6779258, -21.9298225 ], [ -48.6781376, -21.9331077 ], [ -48.6758116, -21.9329478 ], [ -48.6761186, -21.9343359 ], [ -48.6744199, -21.9374604 ], [ -48.6722507, -21.9382318 ], [ -48.6716911, -21.937395 ], [ -48.6709282, -21.938046 ], [ -48.6717184, -21.9387992 ], [ -48.6707267, -21.938979 ], [ -48.6703734, -21.9409262 ], [ -48.6684803, -21.9414071 ], [ -48.6721198, -21.9436312 ], [ -48.6716267, -21.9466324 ], [ -48.6694179, -21.9484978 ], [ -48.669801, -21.9498335 ], [ -48.667339, -21.9503133 ], [ -48.6666129, -21.9495777 ], [ -48.6661026, -21.9504058 ], [ -48.66492, -21.9499113 ], [ -48.6634645, -21.9506225 ], [ -48.6623285, -21.9532669 ], [ -48.661555, -21.9519289 ], [ -48.6598288, -21.9536357 ], [ -48.6566311, -21.9541783 ], [ -48.6579212, -21.9550356 ], [ -48.6569093, -21.9551282 ], [ -48.6573724, -21.9561642 ], [ -48.6560152, -21.9572144 ], [ -48.6571772, -21.95933 ], [ -48.6557322, -21.9600513 ], [ -48.6549877, -21.9591316 ], [ -48.6530923, -21.9602208 ], [ -48.6531593, -21.9618127 ], [ -48.6520409, -21.9618435 ], [ -48.6521776, -21.9628591 ], [ -48.650432, -21.9625023 ], [ -48.6511803, -21.9640572 ], [ -48.6498407, -21.9640313 ], [ -48.6501586, -21.9629998 ], [ -48.6485527, -21.9630436 ], [ -48.6472422, -21.9660329 ], [ -48.6458376, -21.9664673 ], [ -48.6469017, -21.9675588 ], [ -48.6467917, -21.9681455 ], [ -48.6459235, -21.9677787 ], [ -48.6467082, -21.9693007 ], [ -48.6448666, -21.9688532 ], [ -48.6449483, -21.9704185 ], [ -48.644284, -21.9694197 ], [ -48.6428769, -21.9713046 ], [ -48.6424244, -21.9700614 ], [ -48.6384563, -21.9699308 ], [ -48.6376599, -21.9682549 ], [ -48.636314, -21.9694722 ], [ -48.6358728, -21.9684164 ], [ -48.6338908, -21.9692979 ], [ -48.6333516, -21.9687677 ], [ -48.6344845, -21.9682961 ], [ -48.6336353, -21.9676488 ], [ -48.6315592, -21.9701122 ], [ -48.6307948, -21.9694535 ], [ -48.6289487, -21.9697937 ], [ -48.6264882, -21.9712288 ], [ -48.6246543, -21.9746314 ], [ -48.6196322, -21.9772123 ], [ -48.6201815, -21.9786994 ], [ -48.6184007, -21.9795208 ], [ -48.6179792, -21.9783448 ], [ -48.6171541, -21.9792559 ], [ -48.6149845, -21.9773179 ], [ -48.612757, -21.9781921 ], [ -48.6132685, -21.9788318 ], [ -48.6126935, -21.9808159 ], [ -48.6114801, -21.9817485 ], [ -48.6129079, -21.9821922 ], [ -48.6133848, -21.9843107 ], [ -48.6116083, -21.9859099 ], [ -48.609793, -21.9848746 ], [ -48.6101639, -21.9858779 ], [ -48.6083855, -21.9870674 ], [ -48.6067792, -21.986192 ], [ -48.6066907, -21.9888339 ], [ -48.6032781, -21.991952 ], [ -48.6027293, -21.9934931 ], [ -48.6035894, -21.9952389 ], [ -48.6067894, -21.9977834 ], [ -48.6064243, -22.0015073 ], [ -48.6071419, -22.00456 ], [ -48.6110886, -22.0156602 ], [ -48.6108423, -22.0203917 ], [ -48.6136438, -22.0264312 ], [ -48.6113267, -22.0384272 ], [ -48.6118303, -22.0404295 ], [ -48.6110608, -22.0461963 ], [ -48.6144066, -22.0603718 ], [ -48.6149626, -22.0723269 ], [ -48.6163911, -22.0813742 ], [ -48.6150955, -22.0888512 ], [ -48.6168978, -22.095256 ], [ -48.619362, -22.1002223 ], [ -48.6222401, -22.1034873 ], [ -48.6335968, -22.1073649 ], [ -48.6360607, -22.1103884 ], [ -48.643997, -22.1168984 ], [ -48.6436151, -22.1180184 ], [ -48.6361463, -22.1223707 ], [ -48.631774, -22.1239074 ], [ -48.6302606, -22.1252729 ], [ -48.6296251, -22.1273973 ], [ -48.6324185, -22.1324492 ], [ -48.6445704, -22.1412535 ], [ -48.646595, -22.1436504 ], [ -48.6468272, -22.1452524 ], [ -48.6396701, -22.1457231 ], [ -48.6368893, -22.1469958 ], [ -48.6313807, -22.1466352 ], [ -48.6245409, -22.1505131 ], [ -48.6240211, -22.152725 ], [ -48.6318203, -22.1619554 ], [ -48.6318508, -22.1671706 ], [ -48.632757, -22.1673722 ], [ -48.6366779, -22.1651413 ], [ -48.651038, -22.1654449 ], [ -48.6561022, -22.1689243 ], [ -48.6579993, -22.172626 ], [ -48.6587356, -22.1776726 ], [ -48.6605264, -22.1807029 ], [ -48.663937, -22.1847961 ], [ -48.6692475, -22.1841744 ], [ -48.6721651, -22.1883847 ], [ -48.6731981, -22.1922157 ], [ -48.6740999, -22.1928222 ], [ -48.6818829, -22.1895834 ] ] ] ] } }
]
}
