{
"type": "FeatureCollection",
"name": "ER_REGIAO_Capital Sul_Campo Grande",
"crs": { "type": "name", "properties": { "name": "urn:ogc:def:crs:EPSG::4674" } },
"xy_coordinate_resolution": 1e-15,
"features": [
{ "type": "Feature", "properties": { "fid": 850, "NM_REGIAO": "Sudeste", "NM_UF": "São Paulo", "NM_MUN": "São Paulo", "NM_DIST": "Campo Grande", "CD_SUBDIST": "35503081600", "ER_REGIAO": "Capital Sul_Campo Grande", "ER_REGIAO_CIDADE": "Capital Sul_Campo Grande" }, "geometry": { "type": "MultiPolygon", "coordinates": [ [ [ [ -46.670421, -23.687317 ], [ -46.669742, -23.687319 ], [ -46.671978, -23.690622 ], [ -46.675291, -23.692869 ], [ -46.677085, -23.692994 ], [ -46.679094, -23.695151 ], [ -46.683007, -23.695385 ], [ -46.683412, -23.697461 ], [ -46.684751, -23.697867 ], [ -46.685604, -23.699912 ], [ -46.686598, -23.699435 ], [ -46.689043, -23.697428 ], [ -46.698481, -23.682539 ], [ -46.702864, -23.677731 ], [ -46.710386, -23.665104 ], [ -46.704568, -23.660741 ], [ -46.693679, -23.656142 ], [ -46.686185, -23.651291 ], [ -46.679525, -23.652711 ], [ -46.679374, -23.661046 ], [ -46.67811, -23.6653 ], [ -46.668165, -23.671412 ], [ -46.670377, -23.67249 ], [ -46.669661, -23.673718799999961 ], [ -46.670649, -23.679705 ], [ -46.669665, -23.680641 ], [ -46.670421, -23.687317 ] ] ] ] } }
]
}
