{
"type": "FeatureCollection",
"name": "ER_REGIAO_Olímpia_Baguaçu",
"crs": { "type": "name", "properties": { "name": "urn:ogc:def:crs:EPSG::4674" } },
"xy_coordinate_resolution": 1e-15,
"features": [
{ "type": "Feature", "properties": { "fid": 573, "NM_REGIAO": "Sudeste", "NM_UF": "São Paulo", "NM_MUN": "Olímpia", "NM_DIST": "Baguaçu", "CD_SUBDIST": "35339081000", "ER_REGIAO": "Olímpia_Baguaçu", "ER_REGIAO_CIDADE": "Olímpia_Baguaçu_Barretos" }, "geometry": { "type": "MultiPolygon", "coordinates": [ [ [ [ -49.094839, -20.763153099999954 ], [ -49.095463799999948, -20.756488299999944 ], [ -49.09884059999996, -20.751406 ], [ -49.099351299999967, -20.747577899999953 ], [ -49.101920899999982, -20.746243899999968 ], [ -49.102260499999943, -20.744827699999973 ], [ -49.104934799999967, -20.745636799999943 ], [ -49.105649299999982, -20.744542 ], [ -49.104308799999956, -20.744227399999943 ], [ -49.104067, -20.74308469999994 ], [ -49.106028199999969, -20.741606399999966 ], [ -49.107962, -20.741394599999978 ], [ -49.109286199999985, -20.74311119999993 ], [ -49.110260399999959, -20.742896499999972 ], [ -49.110389699999985, -20.740911299999937 ], [ -49.108311399999934, -20.740211 ], [ -49.108185599999956, -20.739376899999968 ], [ -49.111792499999979, -20.737261499999931 ], [ -49.115338799999961, -20.737386299999969 ], [ -49.117329, -20.739989099999946 ], [ -49.118333699999937, -20.739841 ], [ -49.121381, -20.734479299999975 ], [ -49.121029599999986, -20.732621 ], [ -49.121786099999952, -20.730330599999945 ], [ -49.125788199999931, -20.729063199999928 ], [ -49.124975699999936, -20.726921499999946 ], [ -49.126392299999964, -20.726741299999958 ], [ -49.124885399999982, -20.720743699999957 ], [ -49.125244299999963, -20.720310599999948 ], [ -49.126314299999933, -20.721241899999939 ], [ -49.126435899999933, -20.718119 ], [ -49.125500799999941, -20.716934699999968 ], [ -49.126328699999931, -20.715567499999963 ], [ -49.123609599999952, -20.713444099999947 ], [ -49.125682499999982, -20.711744799999963 ], [ -49.126643499999943, -20.71210149999996 ], [ -49.127097299999946, -20.71056 ], [ -49.126274899999942, -20.708098599999971 ], [ -49.125012899999945, -20.707563099999959 ], [ -49.124903199999949, -20.705774699999949 ], [ -49.121952, -20.702892899999938 ], [ -49.122196299999985, -20.698179099999948 ], [ -49.124043799999981, -20.69725539999996 ], [ -49.124035599999957, -20.696288 ], [ -49.12298409999994, -20.695559099999969 ], [ -49.124246199999959, -20.692128899999943 ], [ -49.121076599999981, -20.683584499999938 ], [ -49.122132199999953, -20.683634099999949 ], [ -49.122384899999986, -20.681724799999927 ], [ -49.123576799999967, -20.681744299999934 ], [ -49.122377599999936, -20.680628899999931 ], [ -49.127507299999934, -20.677175599999941 ], [ -49.129686499999934, -20.674668499999939 ], [ -49.127980299999933, -20.672510599999953 ], [ -49.126527599999974, -20.672286099999951 ], [ -49.126423599999953, -20.670595599999956 ], [ -49.127898899999934, -20.671237799999972 ], [ -49.12735159999994, -20.670090399999935 ], [ -49.122560599999986, -20.667442299999948 ], [ -49.121726, -20.667651899999953 ], [ -49.121441399999981, -20.666824199999951 ], [ -49.122609099999977, -20.664625099999967 ], [ -49.128336, -20.662717499999928 ], [ -49.12833779999994, -20.660160899999937 ], [ -49.130019299999958, -20.658241699999962 ], [ -49.121988599999952, -20.657196 ], [ -49.120395899999949, -20.656053899999961 ], [ -49.111071799999934, -20.654012699999953 ], [ -49.106571199999962, -20.651645299999927 ], [ -49.109882499999969, -20.647239599999978 ], [ -49.116786899999965, -20.643488199999979 ], [ -49.117338099999984, -20.642284099999927 ], [ -49.120153799999969, -20.640360199999975 ], [ -49.123928599999942, -20.639451399999928 ], [ -49.124954399999979, -20.638079499999947 ], [ -49.123252799999932, -20.632927799999948 ], [ -49.123793199999966, -20.631577499999935 ], [ -49.120691399999941, -20.63035519999994 ], [ -49.119116399999939, -20.626505099999974 ], [ -49.116993, -20.625967799999955 ], [ -49.116009499999961, -20.624456499999951 ], [ -49.118620399999941, -20.622952899999973 ], [ -49.119709, -20.623610499999927 ], [ -49.121617299999969, -20.622941699999956 ], [ -49.123268799999948, -20.623859699999969 ], [ -49.124316599999986, -20.623166699999956 ], [ -49.124088299999983, -20.622003199999938 ], [ -49.122558599999934, -20.620760299999972 ], [ -49.124728299999958, -20.614737099999957 ], [ -49.123903399999961, -20.610514899999941 ], [ -49.122919399999944, -20.609975899999938 ], [ -49.123005099999943, -20.608072199999981 ], [ -49.118871599999977, -20.604417599999977 ], [ -49.117637299999956, -20.605861 ], [ -49.116349799999966, -20.605846399999962 ], [ -49.115608499999951, -20.603333099999929 ], [ -49.114395699999932, -20.602512499999932 ], [ -49.109709199999941, -20.604198199999928 ], [ -49.105997799999955, -20.606840799999929 ], [ -49.101395599999933, -20.607115299999975 ], [ -49.100258799999949, -20.608894599999928 ], [ -49.097930699999949, -20.603827799999976 ], [ -49.093792299999961, -20.604483699999946 ], [ -49.093300599999964, -20.60260969999996 ], [ -49.091751699999975, -20.602906399999938 ], [ -49.09047929999997, -20.601822799999979 ], [ -49.088428599999986, -20.601846699999953 ], [ -49.087376099999972, -20.604674899999964 ], [ -49.088402299999984, -20.605474099999981 ], [ -49.087898899999971, -20.606921799999952 ], [ -49.088698099999931, -20.60890349999994 ], [ -49.087212299999976, -20.612998499999946 ], [ -49.085564499999975, -20.61397779999993 ], [ -49.084940599999982, -20.616395699999941 ], [ -49.080355399999974, -20.617621199999974 ], [ -49.08195, -20.620982899999944 ], [ -49.081211499999938, -20.622127499999976 ], [ -49.081793699999935, -20.622796199999982 ], [ -49.077083799999969, -20.621419399999979 ], [ -49.076253699999938, -20.623887299999978 ], [ -49.075265099999967, -20.624361799999974 ], [ -49.074469199999953, -20.621239799999955 ], [ -49.073312099999953, -20.620303499999977 ], [ -49.074296899999979, -20.61872459999995 ], [ -49.072822599999938, -20.61780349999998 ], [ -49.07236649999993, -20.61584229999994 ], [ -49.07015709999996, -20.617980899999964 ], [ -49.066670099999953, -20.617861799999957 ], [ -49.061883, -20.616476199999966 ], [ -49.059297499999957, -20.614804699999979 ], [ -49.057188099999962, -20.615984 ], [ -49.056898, -20.617742 ], [ -49.049635299999977, -20.624928599999976 ], [ -49.04997179999998, -20.628436499999964 ], [ -49.048427, -20.628032099999928 ], [ -49.047712799999942, -20.630165199999965 ], [ -49.044310499999938, -20.630884899999955 ], [ -49.043854299999964, -20.631870699999979 ], [ -49.044519699999967, -20.634230599999967 ], [ -49.042397599999958, -20.635224599999958 ], [ -49.040001599999982, -20.633420399999977 ], [ -49.039007399999946, -20.633972899999947 ], [ -49.03852089999998, -20.633377099999962 ], [ -49.037588399999947, -20.635899299999949 ], [ -49.035148099999958, -20.635519599999952 ], [ -49.033452199999942, -20.637132699999938 ], [ -49.030100299999958, -20.635796299999981 ], [ -49.029373199999952, -20.638434299999972 ], [ -49.025886, -20.640012099999979 ], [ -49.024075599999946, -20.64298279999997 ], [ -49.02021469999994, -20.642269299999953 ], [ -49.020459199999948, -20.643279599999971 ], [ -49.019011099999943, -20.644203499999946 ], [ -49.019610799999953, -20.644682799999941 ], [ -49.018787499999974, -20.645258099999978 ], [ -49.018582699999968, -20.647914499999956 ], [ -49.017385499999932, -20.649033799999927 ], [ -49.015981099999976, -20.649000599999965 ], [ -49.01617049999993, -20.650137299999983 ], [ -49.014827499999967, -20.649811299999953 ], [ -49.013204899999948, -20.646465499999977 ], [ -49.011431799999968, -20.645466899999974 ], [ -49.009868099999949, -20.641586899999936 ], [ -49.00886909999997, -20.641341899999929 ], [ -49.008191599999975, -20.638751 ], [ -49.005512399999986, -20.636341099999981 ], [ -49.003242099999966, -20.63654669999994 ], [ -49.001264699999979, -20.63959239999997 ], [ -48.99781459999997, -20.641405799999973 ], [ -48.998588199999972, -20.641996399999982 ], [ -48.998163, -20.643572899999981 ], [ -48.999203799999975, -20.646791199999939 ], [ -48.995552, -20.647635899999955 ], [ -48.990272299999958, -20.646978899999965 ], [ -48.989317, -20.647478099999944 ], [ -48.989101699999935, -20.646754099999953 ], [ -48.987913899999967, -20.647256499999969 ], [ -48.985633, -20.646463599999947 ], [ -48.985782499999971, -20.647698199999979 ], [ -48.984425599999952, -20.645521699999961 ], [ -48.982183799999973, -20.644621 ], [ -48.981396399999937, -20.648418599999957 ], [ -48.981862899999953, -20.649559699999941 ], [ -48.98070869999998, -20.651493199999948 ], [ -48.981431399999963, -20.655468 ], [ -48.980588199999943, -20.656118099999958 ], [ -48.981308799999965, -20.656828899999937 ], [ -48.978196099999934, -20.656947499999944 ], [ -48.977623899999969, -20.658638499999938 ], [ -48.978586499999949, -20.662091499999974 ], [ -48.981568099999947, -20.66461419999996 ], [ -48.980310199999963, -20.665287399999954 ], [ -48.980056599999955, -20.666837199999975 ], [ -48.975560199999961, -20.667302 ], [ -48.973657799999955, -20.668414899999959 ], [ -48.97959, -20.674349899999982 ], [ -48.979641099999981, -20.682678899999928 ], [ -48.982284599999957, -20.68361479999993 ], [ -48.983290099999977, -20.685505599999942 ], [ -48.985902799999963, -20.686213599999974 ], [ -48.987805299999934, -20.688542 ], [ -48.991078, -20.689386199999944 ], [ -48.993505699999957, -20.690697599999964 ], [ -48.994084599999951, -20.692018499999961 ], [ -48.994857399999944, -20.69184649999994 ], [ -48.994521799999973, -20.692418399999951 ], [ -48.994981899999971, -20.692089499999952 ], [ -49.000327299999981, -20.697565699999927 ], [ -49.002027799999951, -20.703561 ], [ -49.006223599999942, -20.70776989999996 ], [ -49.012092899999971, -20.711099899999965 ], [ -49.016438, -20.711624299999983 ], [ -49.018222799999933, -20.713609499999961 ], [ -49.019315699999936, -20.715341499999965 ], [ -49.020590499999969, -20.72899179999996 ], [ -49.021937699999967, -20.731117599999948 ], [ -49.026090599999975, -20.732395599999961 ], [ -49.032824699999935, -20.736049099999946 ], [ -49.036327299999982, -20.739742699999965 ], [ -49.033908499999939, -20.740828599999929 ], [ -49.030661499999951, -20.743765 ], [ -49.027123499999959, -20.748895 ], [ -49.026044799999966, -20.75648179999996 ], [ -49.027036499999952, -20.759025099999974 ], [ -49.027703699999961, -20.766452399999935 ], [ -49.030577199999982, -20.77355149999994 ], [ -49.03525, -20.779933399999948 ], [ -49.03579579999996, -20.783188 ], [ -49.037835099999938, -20.78546689999996 ], [ -49.038423599999931, -20.78862179999993 ], [ -49.040316599999983, -20.789767099999949 ], [ -49.043082899999945, -20.793618899999956 ], [ -49.04817259999993, -20.797568099999978 ], [ -49.052642, -20.799805099999958 ], [ -49.054017399999964, -20.802093699999944 ], [ -49.055928699999981, -20.802744 ], [ -49.056843, -20.804087099999947 ], [ -49.06052, -20.805759899999941 ], [ -49.062132199999951, -20.807243699999958 ], [ -49.063726499999973, -20.810690499999964 ], [ -49.068073, -20.812648199999956 ], [ -49.068260199999941, -20.813510099999974 ], [ -49.074388799999952, -20.811272699999961 ], [ -49.077777699999956, -20.811413799999968 ], [ -49.084077199999967, -20.813844 ], [ -49.085689699999932, -20.812490299999979 ], [ -49.092656, -20.811673199999973 ], [ -49.093869099999949, -20.806393399999934 ], [ -49.091638499999931, -20.796617199999957 ], [ -49.09012869999998, -20.794724 ], [ -49.091366499999936, -20.789268399999969 ], [ -49.092905, -20.787100099999975 ], [ -49.094414, -20.786375599999928 ], [ -49.094913, -20.784794599999941 ], [ -49.1027, -20.781852 ], [ -49.105253599999969, -20.779661899999951 ], [ -49.101453899999967, -20.773466599999949 ], [ -49.099041899999975, -20.77273409999998 ], [ -49.09892149999996, -20.77173449999998 ], [ -49.097987099999955, -20.771333199999958 ], [ -49.098765499999956, -20.769546599999956 ], [ -49.097537699999975, -20.769006399999967 ], [ -49.096945399999981, -20.767386199999976 ], [ -49.095467199999973, -20.767047799999943 ], [ -49.095243499999981, -20.76597309999994 ], [ -49.096506599999941, -20.764349 ], [ -49.094839, -20.763153099999954 ] ] ] ] } }
]
}
