{
"type": "FeatureCollection",
"name": "ER_REGIAO_Macedônia",
"crs": { "type": "name", "properties": { "name": "urn:ogc:def:crs:EPSG::4674" } },
"xy_coordinate_resolution": 1e-15,
"features": [
{ "type": "Feature", "properties": { "fid": 458, "NM_REGIAO": "Sudeste", "NM_UF": "São Paulo", "NM_MUN": "Macedônia", "NM_DIST": "Macedônia", "CD_SUBDIST": "35282050500", "ER_REGIAO": "Macedônia", "ER_REGIAO_CIDADE": "Macedônia_Votuporanga" }, "geometry": { "type": "MultiPolygon", "coordinates": [ [ [ [ -50.2189192, -20.2055875 ], [ -50.2220342, -20.2053649 ], [ -50.2198352, -20.2021019 ], [ -50.2202109, -20.1972891 ], [ -50.2251932, -20.1758982 ], [ -50.2278753, -20.1739194 ], [ -50.2298236, -20.174035 ], [ -50.2326724, -20.172837 ], [ -50.23643, -20.1680602 ], [ -50.2363693, -20.166525 ], [ -50.2417601, -20.1637722 ], [ -50.2446417, -20.1592768 ], [ -50.2498336, -20.155744 ], [ -50.2576442, -20.1473859 ], [ -50.260178, -20.147574 ], [ -50.2665306, -20.1454035 ], [ -50.2674762, -20.1419316 ], [ -50.2693118, -20.1391648 ], [ -50.2701315, -20.1352673 ], [ -50.2667027, -20.1308102 ], [ -50.2641929, -20.1191308 ], [ -50.2586862, -20.1133335 ], [ -50.2538044, -20.1113684 ], [ -50.2526311, -20.1088541 ], [ -50.2545142, -20.109308 ], [ -50.2579566, -20.1072044 ], [ -50.2696333, -20.1057911 ], [ -50.2718987, -20.1045431 ], [ -50.2749744, -20.104958 ], [ -50.2776277, -20.1040257 ], [ -50.2828497, -20.0992807 ], [ -50.2876636, -20.1001043 ], [ -50.2929454, -20.0998445 ], [ -50.3014389, -20.097472 ], [ -50.3052272, -20.092343 ], [ -50.3082316, -20.090574 ], [ -50.3088099, -20.0885903 ], [ -50.303459, -20.0853725 ], [ -50.2966793, -20.0771258 ], [ -50.2920596, -20.0750477 ], [ -50.2887656, -20.0719476 ], [ -50.2849211, -20.0640957 ], [ -50.2854548, -20.0401819 ], [ -50.2837497, -20.0280155 ], [ -50.2840434, -20.0250825 ], [ -50.2855476, -20.0231931 ], [ -50.2895303, -20.0205845 ], [ -50.2955437, -20.0176718 ], [ -50.2820192, -20.0071431 ], [ -50.2740152, -20.01045 ], [ -50.2685967, -20.0159771 ], [ -50.2673775, -20.0210089 ], [ -50.2648582, -20.0246191 ], [ -50.2642155, -20.0314198 ], [ -50.2607665, -20.0349598 ], [ -50.2579283, -20.0359965 ], [ -50.2524828, -20.0349021 ], [ -50.2488459, -20.0392486 ], [ -50.2391126, -20.0455642 ], [ -50.235941, -20.0446924 ], [ -50.226425, -20.0454441 ], [ -50.2208987, -20.0448845 ], [ -50.2201094, -20.0452284 ], [ -50.2197871, -20.0470269 ], [ -50.2173483, -20.0473346 ], [ -50.2152129, -20.0460347 ], [ -50.214992, -20.0406012 ], [ -50.2127119, -20.0391763 ], [ -50.2128129, -20.0370241 ], [ -50.2096865, -20.0343746 ], [ -50.2095378, -20.0320078 ], [ -50.2061328, -20.0309963 ], [ -50.2048516, -20.0254752 ], [ -50.2013988, -20.0235166 ], [ -50.2029044, -20.0165185 ], [ -50.2001477, -20.0100316 ], [ -50.1983553, -19.9988653 ], [ -50.1937849, -19.9903863 ], [ -50.1901529, -19.9862992 ], [ -50.1905485, -19.9911475 ], [ -50.1867529, -19.9961898 ], [ -50.1857157, -20.0037632 ], [ -50.1847756, -20.0054861 ], [ -50.182189, -20.0082972 ], [ -50.1783611, -20.0103357 ], [ -50.1764946, -20.0126482 ], [ -50.1719766, -20.0198812 ], [ -50.1697991, -20.0249606 ], [ -50.1626993, -20.0305666 ], [ -50.159684, -20.0349289 ], [ -50.1569953, -20.0370601 ], [ -50.1555898, -20.0360025 ], [ -50.1556883, -20.0343563 ], [ -50.1541542, -20.0345746 ], [ -50.150031, -20.0404041 ], [ -50.1450374, -20.0400872 ], [ -50.1397923, -20.0412193 ], [ -50.1343769, -20.0445774 ], [ -50.1309262, -20.0485544 ], [ -50.1257119, -20.0453837 ], [ -50.1250641, -20.0424453 ], [ -50.1229712, -20.0401497 ], [ -50.1195142, -20.0387377 ], [ -50.1135039, -20.0389469 ], [ -50.1064952, -20.036793 ], [ -50.0998367, -20.0380155 ], [ -50.0902518, -20.043229 ], [ -50.0899022, -20.0473438 ], [ -50.0882041, -20.0491151 ], [ -50.0879286, -20.0505093 ], [ -50.0892399, -20.0608995 ], [ -50.0884282, -20.0633603 ], [ -50.0843716, -20.0672931 ], [ -50.0805495, -20.0672878 ], [ -50.0783052, -20.0689775 ], [ -50.0772446, -20.0709791 ], [ -50.0752996, -20.0717025 ], [ -50.0685487, -20.0678495 ], [ -50.0661169, -20.0680822 ], [ -50.0630492, -20.0702601 ], [ -50.0596792, -20.0673584 ], [ -50.0565784, -20.0627189 ], [ -50.0455715, -20.060076 ], [ -50.0432831, -20.0630361 ], [ -50.0440769, -20.0678842 ], [ -50.0418856, -20.0707936 ], [ -50.0440536, -20.0732647 ], [ -50.0431602, -20.0765105 ], [ -50.0384771, -20.0790151 ], [ -50.0302491, -20.0773737 ], [ -50.0283168, -20.0782248 ], [ -50.0280219, -20.0788088 ], [ -50.0291203, -20.0800777 ], [ -50.0323115, -20.081297 ], [ -50.0385587, -20.0863383 ], [ -50.0403292, -20.0910421 ], [ -50.0424898, -20.0935493 ], [ -50.0446491, -20.0942846 ], [ -50.0497976, -20.1003388 ], [ -50.0531455, -20.1000815 ], [ -50.0558774, -20.1011595 ], [ -50.0595994, -20.1040812 ], [ -50.0611609, -20.1064279 ], [ -50.0692741, -20.1089297 ], [ -50.0751352, -20.1098501 ], [ -50.0887747, -20.1166322 ], [ -50.0967676, -20.1182441 ], [ -50.1010844, -20.1212702 ], [ -50.1079049, -20.1293745 ], [ -50.1073365, -20.1345124 ], [ -50.1056287, -20.1367921 ], [ -50.1061686, -20.1426019 ], [ -50.1074095, -20.1456482 ], [ -50.112895, -20.1457041 ], [ -50.1192871, -20.1520377 ], [ -50.1210142, -20.1555536 ], [ -50.1232886, -20.1562077 ], [ -50.1265893, -20.1552099 ], [ -50.1326259, -20.159043 ], [ -50.1476958, -20.1618841 ], [ -50.1484367, -20.1650256 ], [ -50.1470397, -20.1703559 ], [ -50.147459, -20.1729557 ], [ -50.1485112, -20.1747623 ], [ -50.1547781, -20.1775637 ], [ -50.1574084, -20.1809314 ], [ -50.1581853, -20.1837437 ], [ -50.1581318, -20.1911467 ], [ -50.1626666, -20.19304 ], [ -50.1651263, -20.1952216 ], [ -50.1688198, -20.1959495 ], [ -50.1719154, -20.198117 ], [ -50.178341, -20.2001592 ], [ -50.1813608, -20.1983419 ], [ -50.1849694, -20.1979313 ], [ -50.1964392, -20.1904658 ], [ -50.2028211, -20.1897702 ], [ -50.2079069, -20.1935464 ], [ -50.2104206, -20.1990968 ], [ -50.2158795, -20.2024633 ], [ -50.2189192, -20.2055875 ] ] ] ] } }
]
}
