{
"type": "FeatureCollection",
"name": "ER_REGIAO_Lavínia_Tabajara",
"crs": { "type": "name", "properties": { "name": "urn:ogc:def:crs:EPSG::4674" } },
"xy_coordinate_resolution": 1e-15,
"features": [
{ "type": "Feature", "properties": { "fid": 436, "NM_REGIAO": "Sudeste", "NM_UF": "São Paulo", "NM_MUN": "Lavínia", "NM_DIST": "Tabajara", "CD_SUBDIST": "35265061000", "ER_REGIAO": "Lavínia_Tabajara", "ER_REGIAO_CIDADE": "Lavínia_Tabajara_Araçatuba" }, "geometry": { "type": "MultiPolygon", "coordinates": [ [ [ [ -51.1751072, -21.3810007 ], [ -51.1798628, -21.3796187 ], [ -51.1834425, -21.3762254 ], [ -51.1897265, -21.3770868 ], [ -51.1930921, -21.374828 ], [ -51.1954046, -21.3718397 ], [ -51.1961181, -21.3673425 ], [ -51.2001295, -21.3600082 ], [ -51.2018626, -21.359948 ], [ -51.2039258, -21.3610286 ], [ -51.2065002, -21.3591203 ], [ -51.2077507, -21.356809 ], [ -51.2102029, -21.3571974 ], [ -51.2110913, -21.3549779 ], [ -51.2141811, -21.3549673 ], [ -51.2143488, -21.3535514 ], [ -51.2119647, -21.3521321 ], [ -51.2172144, -21.3508857 ], [ -51.2178944, -21.3492145 ], [ -51.2240146, -21.3457587 ], [ -51.2256633, -21.3428919 ], [ -51.2254017, -21.3420412 ], [ -51.2237686, -21.3418762 ], [ -51.2203714, -21.3432269 ], [ -51.2185144, -21.3423588 ], [ -51.2173357, -21.338704 ], [ -51.2159165, -21.3390113 ], [ -51.2146487, -21.3378849 ], [ -51.2129765, -21.3344354 ], [ -51.2115992, -21.3342068 ], [ -51.205112, -21.3271166 ], [ -51.2028354, -21.322816 ], [ -51.2016541, -21.3234921 ], [ -51.2004079, -21.3228135 ], [ -51.2007229, -21.321661 ], [ -51.198585, -21.3217446 ], [ -51.1954725, -21.3186265 ], [ -51.1914697, -21.3166594 ], [ -51.1893364, -21.3181776 ], [ -51.1877463, -21.3178416 ], [ -51.1880387, -21.3141838 ], [ -51.1866589, -21.3131889 ], [ -51.1864897, -21.3115501 ], [ -51.1832649, -21.3087349 ], [ -51.1836988, -21.3066541 ], [ -51.1825585, -21.3062506 ], [ -51.1826221, -21.3041284 ], [ -51.1816289, -21.3031842 ], [ -51.1821471, -21.3016435 ], [ -51.1843262, -21.2997371 ], [ -51.1817257, -21.2958415 ], [ -51.1823103, -21.293691 ], [ -51.183129, -21.2940268 ], [ -51.1840267, -21.29234 ], [ -51.1817325, -21.2900755 ], [ -51.180197, -21.2897773 ], [ -51.1793762, -21.2866269 ], [ -51.1772012, -21.285348 ], [ -51.1764934, -21.2790611 ], [ -51.1738399, -21.2760966 ], [ -51.1741475, -21.2729625 ], [ -51.1730428, -21.2721201 ], [ -51.1723975, -21.268267 ], [ -51.173923, -21.2654908 ], [ -51.1748424, -21.2652373 ], [ -51.1736556, -21.2638494 ], [ -51.1714476, -21.2645704 ], [ -51.1702557, -21.2620896 ], [ -51.166796, -21.2600347 ], [ -51.1654734, -21.2575436 ], [ -51.1632281, -21.2559908 ], [ -51.1637359, -21.2529241 ], [ -51.161945, -21.252044 ], [ -51.1602449, -21.2530152 ], [ -51.1589756, -21.2524236 ], [ -51.1578198, -21.25064 ], [ -51.1585294, -21.2486135 ], [ -51.1576641, -21.2466057 ], [ -51.1529, -21.2452657 ], [ -51.1484187, -21.2417991 ], [ -51.1478728, -21.238746 ], [ -51.144711, -21.2365303 ], [ -51.1447118, -21.2332625 ], [ -51.1424893, -21.2315492 ], [ -51.142263, -21.2267449 ], [ -51.1407169, -21.2229416 ], [ -51.1378058, -21.2189779 ], [ -51.1384916, -21.2184373 ], [ -51.1399115, -21.219093 ], [ -51.1410774, -21.218334 ], [ -51.1416875, -21.2143658 ], [ -51.140682, -21.2137055 ], [ -51.1407057, -21.2116738 ], [ -51.138268, -21.2095021 ], [ -51.1365475, -21.2107994 ], [ -51.1350415, -21.2106647 ], [ -51.135401, -21.2092099 ], [ -51.131264, -21.2056513 ], [ -51.1303197, -21.2035698 ], [ -51.1319782, -21.2033832 ], [ -51.1330655, -21.2020499 ], [ -51.1326569, -21.2011145 ], [ -51.1333236, -21.1997118 ], [ -51.1315446, -21.1983056 ], [ -51.1286469, -21.1988691 ], [ -51.1266553, -21.1973527 ], [ -51.116008, -21.2546976 ], [ -51.1112589, -21.2574174 ], [ -51.1108744, -21.2592877 ], [ -51.1038086, -21.2611837 ], [ -51.1002371, -21.2652221 ], [ -51.094174, -21.2693678 ], [ -51.0922008, -21.2682262 ], [ -51.086095, -21.2710086 ], [ -51.0842315, -21.2728384 ], [ -51.0820252, -21.2732611 ], [ -51.0825503, -21.2751945 ], [ -51.0807103, -21.2765407 ], [ -51.0837847, -21.2782953 ], [ -51.0816288, -21.2830512 ], [ -51.0840964, -21.2869602 ], [ -51.083886, -21.2879205 ], [ -51.0849525, -21.2885787 ], [ -51.0851468, -21.2905435 ], [ -51.0858709, -21.2905129 ], [ -51.0854357, -21.2912159 ], [ -51.0866539, -21.2928132 ], [ -51.0872653, -21.2957967 ], [ -51.0884981, -21.2958584 ], [ -51.0900367, -21.2976852 ], [ -51.0893769, -21.299337 ], [ -51.0900746, -21.2996556 ], [ -51.0893309, -21.3005724 ], [ -51.0899365, -21.3030585 ], [ -51.0914149, -21.3028857 ], [ -51.0907548, -21.3041309 ], [ -51.0916511, -21.3069671 ], [ -51.0908303, -21.3074336 ], [ -51.0921859, -21.3082804 ], [ -51.0936809, -21.3079262 ], [ -51.0935145, -21.3086831 ], [ -51.0957982, -21.3099767 ], [ -51.0974963, -21.3139071 ], [ -51.099423, -21.315157 ], [ -51.1010519, -21.3152092 ], [ -51.1023818, -21.3173195 ], [ -51.1017114, -21.318033 ], [ -51.1035322, -21.3204433 ], [ -51.1029429, -21.3218186 ], [ -51.1072895, -21.3235811 ], [ -51.107407, -21.324438 ], [ -51.1082816, -21.3245531 ], [ -51.1077591, -21.3266521 ], [ -51.1086952, -21.3286844 ], [ -51.1133774, -21.3316525 ], [ -51.112608, -21.3338111 ], [ -51.1141111, -21.3350611 ], [ -51.1151183, -21.3381098 ], [ -51.1249003, -21.3471697 ], [ -51.1269728, -21.3502645 ], [ -51.1271343, -21.352767 ], [ -51.1292209, -21.3524751 ], [ -51.1288522, -21.3545189 ], [ -51.1315507, -21.3551894 ], [ -51.1333285, -21.3585258 ], [ -51.1346287, -21.3587059 ], [ -51.1336065, -21.3610878 ], [ -51.1327495, -21.3607736 ], [ -51.1324319, -21.3616344 ], [ -51.1343644, -21.364803 ], [ -51.1433073, -21.369244 ], [ -51.1444861, -21.3710642 ], [ -51.144971, -21.3744057 ], [ -51.1480784, -21.3745866 ], [ -51.154742, -21.3786259 ], [ -51.1574587, -21.3785712 ], [ -51.1641169, -21.3840223 ], [ -51.1718146, -21.383568 ], [ -51.1751072, -21.3810007 ] ] ] ] } }
]
}
