{
"type": "FeatureCollection",
"name": "ER_REGIAO_Capital Sul_Jardim Ângela",
"crs": { "type": "name", "properties": { "name": "urn:ogc:def:crs:EPSG::4674" } },
"xy_coordinate_resolution": 1e-15,
"features": [
{ "type": "Feature", "properties": { "fid": 877, "NM_REGIAO": "Sudeste", "NM_UF": "São Paulo", "NM_MUN": "São Paulo", "NM_DIST": "Jardim Ângela", "CD_SUBDIST": "35503084300", "ER_REGIAO": "Capital Sul_Jardim Ângela", "ER_REGIAO_CIDADE": "Capital Sul_Jardim Ângela" }, "geometry": { "type": "MultiPolygon", "coordinates": [ [ [ [ -46.7769886, -23.7506016 ], [ -46.780017, -23.749374 ], [ -46.7815286, -23.7506591 ], [ -46.7856581, -23.7471301 ], [ -46.787344, -23.746954 ], [ -46.790035, -23.744253 ], [ -46.790562, -23.742997 ], [ -46.79008, -23.741187 ], [ -46.796043, -23.739127 ], [ -46.795668, -23.735637 ], [ -46.7984845, -23.7311238 ], [ -46.798543, -23.729092 ], [ -46.794784, -23.726147 ], [ -46.792403, -23.721301 ], [ -46.792742, -23.720439 ], [ -46.791812, -23.718334 ], [ -46.792455, -23.718307 ], [ -46.79245, -23.714301 ], [ -46.793233, -23.713335 ], [ -46.792943, -23.709588 ], [ -46.79129, -23.704909 ], [ -46.791489, -23.7017511 ], [ -46.792714, -23.700474 ], [ -46.800804, -23.697719 ], [ -46.799346, -23.696782 ], [ -46.79721, -23.696693 ], [ -46.793587, -23.693771 ], [ -46.791038, -23.69459 ], [ -46.791828, -23.693739 ], [ -46.790523, -23.694035 ], [ -46.791052, -23.692589 ], [ -46.789356, -23.689873 ], [ -46.790955, -23.685916 ], [ -46.790474, -23.6849361 ], [ -46.789956, -23.686682 ], [ -46.789116, -23.685371 ], [ -46.78475, -23.687734 ], [ -46.784583, -23.688839 ], [ -46.781073, -23.688288 ], [ -46.775211, -23.676257 ], [ -46.773903, -23.675828 ], [ -46.773681, -23.677357 ], [ -46.768553, -23.681407 ], [ -46.762608, -23.672701 ], [ -46.7618296, -23.6698709 ], [ -46.759916, -23.671357 ], [ -46.758738, -23.6757529 ], [ -46.755793, -23.675364 ], [ -46.7494101, -23.67627 ], [ -46.750332, -23.6793311 ], [ -46.748852, -23.681438 ], [ -46.749234, -23.682771 ], [ -46.753579, -23.686703 ], [ -46.751567, -23.690705 ], [ -46.755531, -23.694388 ], [ -46.756441, -23.697212 ], [ -46.755247, -23.699403 ], [ -46.749331, -23.700973 ], [ -46.753882, -23.71126 ], [ -46.747924, -23.713452 ], [ -46.741335, -23.722106 ], [ -46.738749, -23.724193 ], [ -46.734565, -23.72581 ], [ -46.72831, -23.726584 ], [ -46.728334, -23.737588 ], [ -46.728925, -23.739325 ], [ -46.73078, -23.740647 ], [ -46.743558, -23.744339 ], [ -46.745259, -23.744024 ], [ -46.752224, -23.739341 ], [ -46.758448, -23.73866 ], [ -46.76124, -23.739221 ], [ -46.764556, -23.742165 ], [ -46.765397, -23.751828 ], [ -46.766964, -23.754234 ], [ -46.769149, -23.7552121 ], [ -46.76966, -23.753173 ], [ -46.772233, -23.751881 ], [ -46.775695, -23.752994 ], [ -46.7769886, -23.7506016 ] ] ] ] } }
]
}
