{
"type": "FeatureCollection",
"name": "ER_REGIAO_Juquitiba_Barnabés",
"crs": { "type": "name", "properties": { "name": "urn:ogc:def:crs:EPSG::4674" } },
"xy_coordinate_resolution": 1e-15,
"features": [
{ "type": "Feature", "properties": { "fid": 430, "NM_REGIAO": "Sudeste", "NM_UF": "São Paulo", "NM_MUN": "Juquitiba", "NM_DIST": "Barnabés", "CD_SUBDIST": "35262091000", "ER_REGIAO": "Juquitiba_Barnabés", "ER_REGIAO_CIDADE": "Juquitiba_Barnabés_Osasco" }, "geometry": { "type": "MultiPolygon", "coordinates": [ [ [ [ -47.1574545, -24.0064156 ], [ -47.1619549, -24.0031416 ], [ -47.1635863, -24.0037908 ], [ -47.1686408, -24.002163 ], [ -47.1716981, -24.0036068 ], [ -47.1781047, -24.0034403 ], [ -47.1825242, -24.0007721 ], [ -47.187459, -24.00257 ], [ -47.1902239, -23.9991284 ], [ -47.1934567, -23.9980365 ], [ -47.1934034, -23.9990442 ], [ -47.196822, -24.0012529 ], [ -47.1999532, -24.000595 ], [ -47.2005363, -23.9983661 ], [ -47.1970858, -23.9963331 ], [ -47.1949701, -23.9922589 ], [ -47.192813, -23.9913172 ], [ -47.1900162, -23.9919071 ], [ -47.1887141, -23.9910786 ], [ -47.1923189, -23.983872 ], [ -47.1946122, -23.9820637 ], [ -47.1934076, -23.9802817 ], [ -47.1947095, -23.9769586 ], [ -47.1939578, -23.974705 ], [ -47.1967638, -23.9760401 ], [ -47.1977907, -23.9728531 ], [ -47.1998063, -23.972295 ], [ -47.20109, -23.9733787 ], [ -47.199693, -23.9697047 ], [ -47.200828, -23.9689056 ], [ -47.2036574, -23.9714017 ], [ -47.2046673, -23.9714084 ], [ -47.2061421, -23.9694425 ], [ -47.2053979, -23.967697 ], [ -47.2058559, -23.9662111 ], [ -47.2085219, -23.964861 ], [ -47.2054645, -23.9607743 ], [ -47.2032319, -23.9593685 ], [ -47.195553, -23.9581882 ], [ -47.1955427, -23.9563689 ], [ -47.19373, -23.9534207 ], [ -47.1970188, -23.9533509 ], [ -47.1987087, -23.9486071 ], [ -47.1998926, -23.9498454 ], [ -47.2008669, -23.9490867 ], [ -47.2017382, -23.9452216 ], [ -47.2013014, -23.941767 ], [ -47.1999589, -23.9402737 ], [ -47.2004468, -23.9391512 ], [ -47.1984178, -23.9389469 ], [ -47.1942751, -23.9419589 ], [ -47.1889898, -23.9395908 ], [ -47.1893376, -23.9347286 ], [ -47.1918115, -23.9328895 ], [ -47.1921169, -23.9286787 ], [ -47.1913352, -23.9280988 ], [ -47.1900783, -23.9284558 ], [ -47.1880229, -23.9310897 ], [ -47.1864553, -23.9311841 ], [ -47.1838076, -23.9298479 ], [ -47.1827385, -23.9303174 ], [ -47.1818465, -23.9338032 ], [ -47.1794427, -23.9373471 ], [ -47.1780355, -23.9363208 ], [ -47.1789746, -23.9334535 ], [ -47.1753568, -23.931812 ], [ -47.171922, -23.9343568 ], [ -47.1626824, -23.9341188 ], [ -47.1608068, -23.935831 ], [ -47.1589653, -23.9339452 ], [ -47.1573764, -23.9334538 ], [ -47.1527986, -23.9371655 ], [ -47.1479604, -23.934609 ], [ -47.1448801, -23.9386047 ], [ -47.1435777, -23.9390996 ], [ -47.1354568, -23.9367237 ], [ -47.1359753, -23.9334146 ], [ -47.1338945, -23.9320993 ], [ -47.1314228, -23.9318013 ], [ -47.1287501, -23.9329849 ], [ -47.1255517, -23.9309769 ], [ -47.1238819, -23.9326437 ], [ -47.1219492, -23.9328933 ], [ -47.1211321, -23.9301675 ], [ -47.1158567, -23.9252009 ], [ -47.1124805, -23.9303683 ], [ -47.1136652, -23.933567 ], [ -47.1119027, -23.9334683 ], [ -47.1114334, -23.9315471 ], [ -47.1093584, -23.9299029 ], [ -47.1082268, -23.9331895 ], [ -47.1070143, -23.933829 ], [ -47.106269, -23.9370326 ], [ -47.1049037, -23.9373928 ], [ -47.1034475, -23.9366462 ], [ -47.1039077, -23.9387409 ], [ -47.1051698, -23.940164 ], [ -47.1049615, -23.941467 ], [ -47.1000213, -23.9409038 ], [ -47.0975732, -23.9429018 ], [ -47.0963468, -23.9416095 ], [ -47.0953316, -23.9420712 ], [ -47.0950558, -23.9459876 ], [ -47.0972424, -23.9480294 ], [ -47.0962405, -23.9492685 ], [ -47.0972235, -23.9523411 ], [ -47.096508, -23.9542589 ], [ -47.0993134, -23.9559316 ], [ -47.0971853, -23.9575517 ], [ -47.0954757, -23.9575586 ], [ -47.0985286, -23.9667317 ], [ -47.0961082, -23.9661783 ], [ -47.093642, -23.9678849 ], [ -47.0877934, -23.967437 ], [ -47.0858617, -23.9682418 ], [ -47.084091, -23.9731515 ], [ -47.0822398, -23.9748417 ], [ -47.0808715, -23.9781417 ], [ -47.0788594, -23.988605 ], [ -47.0785374, -23.9926293 ], [ -47.0791813, -23.9956073 ], [ -47.0824813, -24.0002755 ], [ -47.0877129, -24.0009194 ], [ -47.0901275, -24.0022072 ], [ -47.0923939, -24.0101764 ], [ -47.0944837, -24.0099071 ], [ -47.0957735, -24.0065174 ], [ -47.0993139, -24.0057847 ], [ -47.0989759, -24.0038109 ], [ -47.1000007, -24.0021326 ], [ -47.0986509, -23.9979958 ], [ -47.1010194, -23.9970011 ], [ -47.1039822, -23.9969989 ], [ -47.1049044, -23.995174 ], [ -47.10711, -23.9938027 ], [ -47.1143485, -23.9967875 ], [ -47.1164739, -23.9963613 ], [ -47.1183755, -23.9978964 ], [ -47.1218441, -23.9965291 ], [ -47.124603, -23.9975992 ], [ -47.1225485, -24.0006766 ], [ -47.1224165, -24.0079388 ], [ -47.1305998, -24.0092059 ], [ -47.1378028, -24.0140617 ], [ -47.1397772, -24.0141119 ], [ -47.1418223, -24.0127778 ], [ -47.142444, -24.0113589 ], [ -47.1467564, -24.0116667 ], [ -47.1491555, -24.0101676 ], [ -47.1503955, -24.0106649 ], [ -47.15293, -24.007841 ], [ -47.1529777, -24.0063516 ], [ -47.1574545, -24.0064156 ] ] ] ] } }
]
}
