{
"type": "FeatureCollection",
"name": "ER_REGIAO_Osvaldo Cruz_Osvaldo Cruz",
"crs": { "type": "name", "properties": { "name": "urn:ogc:def:crs:EPSG::4674" } },
"xy_coordinate_resolution": 1e-15,
"features": [
{ "type": "Feature", "properties": { "fid": 581, "NM_REGIAO": "Sudeste", "NM_UF": "São Paulo", "NM_MUN": "Osvaldo Cruz", "NM_DIST": "Osvaldo Cruz", "CD_SUBDIST": "35346090500", "ER_REGIAO": "Osvaldo Cruz_Osvaldo Cruz", "ER_REGIAO_CIDADE": "Osvaldo Cruz_Osvaldo Cruz_Marília" }, "geometry": { "type": "MultiPolygon", "coordinates": [ [ [ [ -50.856223, -21.7727658 ], [ -50.8571651, -21.7767341 ], [ -50.8563273, -21.7790625 ], [ -50.8541755, -21.7791968 ], [ -50.8534851, -21.7808115 ], [ -50.8518707, -21.7814204 ], [ -50.8474772, -21.7893086 ], [ -50.8406691, -21.7912847 ], [ -50.8331652, -21.7979167 ], [ -50.8236556, -21.800778 ], [ -50.8236611, -21.8061384 ], [ -50.8314387, -21.8072619 ], [ -50.8348832, -21.8128488 ], [ -50.8381434, -21.8275769 ], [ -50.840876, -21.8308091 ], [ -50.8466178, -21.8304836 ], [ -50.8515293, -21.832216 ], [ -50.8535008, -21.8321199 ], [ -50.8553807, -21.8330552 ], [ -50.858214, -21.8362553 ], [ -50.8589713, -21.8384018 ], [ -50.8613161, -21.837258 ], [ -50.8685233, -21.8369024 ], [ -50.8698873, -21.8412233 ], [ -50.8738461, -21.8425752 ], [ -50.8771219, -21.8487069 ], [ -50.8796213, -21.8505091 ], [ -50.8808581, -21.8499608 ], [ -50.8829379, -21.8533866 ], [ -50.8864388, -21.8540851 ], [ -50.887366, -21.8552282 ], [ -50.8873804, -21.8569286 ], [ -50.8900354, -21.8573122 ], [ -50.890412, -21.8584343 ], [ -50.892761, -21.8600012 ], [ -50.8938486, -21.8631215 ], [ -50.8972439, -21.8617568 ], [ -50.9018334, -21.8685548 ], [ -50.9038683, -21.869865 ], [ -50.9049663, -21.8701282 ], [ -50.9041556, -21.8689915 ], [ -50.9054346, -21.8664252 ], [ -50.9117812, -21.8643913 ], [ -50.9173402, -21.860576 ], [ -50.9214635, -21.8543036 ], [ -50.9612437, -21.8225842 ], [ -50.9595342, -21.8209063 ], [ -50.9586733, -21.8177842 ], [ -50.9573496, -21.8163419 ], [ -50.9557758, -21.8099861 ], [ -50.9540207, -21.8104643 ], [ -50.9519422, -21.8094534 ], [ -50.947519, -21.8043566 ], [ -50.944824, -21.8040159 ], [ -50.9430281, -21.8003371 ], [ -50.9396329, -21.7994932 ], [ -50.9349393, -21.7948276 ], [ -50.9352336, -21.7866715 ], [ -50.9307936, -21.7805847 ], [ -50.9314758, -21.777021 ], [ -50.9294575, -21.7740689 ], [ -50.9301027, -21.7702641 ], [ -50.9291663, -21.7670365 ], [ -50.9291824, -21.7631033 ], [ -50.9330571, -21.7568283 ], [ -50.9379512, -21.7515033 ], [ -50.9385977, -21.7449966 ], [ -50.9438736, -21.7399696 ], [ -50.9439644, -21.7284565 ], [ -50.9430724, -21.7252403 ], [ -50.9386523, -21.7167856 ], [ -50.9402992, -21.7150658 ], [ -50.9397312, -21.709409 ], [ -50.9377917, -21.7076829 ], [ -50.9380437, -21.7063258 ], [ -50.9325471, -21.7038934 ], [ -50.9328345, -21.6992083 ], [ -50.9299013, -21.6964717 ], [ -50.9295644, -21.6948093 ], [ -50.9273545, -21.6943805 ], [ -50.9262575, -21.6895194 ], [ -50.9238348, -21.6871301 ], [ -50.9209763, -21.6857856 ], [ -50.9201418, -21.6817453 ], [ -50.919009, -21.681131 ], [ -50.9188673, -21.6795879 ], [ -50.917738, -21.6793945 ], [ -50.9175105, -21.6771464 ], [ -50.9148231, -21.6724458 ], [ -50.9148061, -21.6693457 ], [ -50.9062259, -21.6691973 ], [ -50.8981386, -21.672517 ], [ -50.8953195, -21.6745809 ], [ -50.8916972, -21.6818063 ], [ -50.8883144, -21.684648 ], [ -50.8799675, -21.6894171 ], [ -50.8783598, -21.6885804 ], [ -50.8773083, -21.6859372 ], [ -50.8730197, -21.683888 ], [ -50.8690582, -21.6803519 ], [ -50.8674164, -21.679896 ], [ -50.8660035, -21.6807895 ], [ -50.8637316, -21.6872439 ], [ -50.8592192, -21.6883061 ], [ -50.8577923, -21.6879219 ], [ -50.8571917, -21.6866042 ], [ -50.8574808, -21.6823237 ], [ -50.8566562, -21.6866943 ], [ -50.8573825, -21.6890873 ], [ -50.8612618, -21.6897611 ], [ -50.8608657, -21.7204365 ], [ -50.8589494, -21.7245833 ], [ -50.8596937, -21.7271425 ], [ -50.8620955, -21.7305162 ], [ -50.861777, -21.7335614 ], [ -50.8611259, -21.7358696 ], [ -50.850761, -21.7368701 ], [ -50.8466721, -21.7358135 ], [ -50.8446495, -21.7366374 ], [ -50.8461568, -21.7369956 ], [ -50.8478432, -21.7391806 ], [ -50.8500135, -21.7448548 ], [ -50.8490195, -21.7485305 ], [ -50.8509411, -21.7517956 ], [ -50.8505757, -21.7544878 ], [ -50.8524567, -21.7615692 ], [ -50.8551449, -21.7650642 ], [ -50.8548566, -21.7661081 ], [ -50.8567673, -21.77132 ], [ -50.856223, -21.7727658 ] ] ] ] } }
]
}
