{
"type": "FeatureCollection",
"name": "ER_REGIAO_Lorena",
"crs": { "type": "name", "properties": { "name": "urn:ogc:def:crs:EPSG::4674" } },
"xy_coordinate_resolution": 1e-15,
"features": [
{ "type": "Feature", "properties": { "fid": 446, "NM_REGIAO": "Sudeste", "NM_UF": "São Paulo", "NM_MUN": "Lorena", "NM_DIST": "Lorena", "CD_SUBDIST": "35272070500", "ER_REGIAO": "Lorena", "ER_REGIAO_CIDADE": "Lorena_Guaratinguetá" }, "geometry": { "type": "MultiPolygon", "coordinates": [ [ [ [ -45.1358318, -22.771683 ], [ -45.1382003, -22.7699463 ], [ -45.141401, -22.7694662 ], [ -45.1482041, -22.766476 ], [ -45.154646, -22.7660352 ], [ -45.157874, -22.7622078 ], [ -45.1565854, -22.7596834 ], [ -45.1579389, -22.7587431 ], [ -45.1548385, -22.7501383 ], [ -45.1509477, -22.747421 ], [ -45.147386, -22.7461106 ], [ -45.1450489, -22.7427487 ], [ -45.15017, -22.7408126 ], [ -45.1545684, -22.7404388 ], [ -45.1561737, -22.7381233 ], [ -45.1554482, -22.7348267 ], [ -45.1567014, -22.7332772 ], [ -45.1614098, -22.7293319 ], [ -45.1664522, -22.7234014 ], [ -45.1715909, -22.7230907 ], [ -45.173615, -22.717875 ], [ -45.1761239, -22.7162767 ], [ -45.1768024, -22.7143176 ], [ -45.1794676, -22.7121081 ], [ -45.1797824, -22.7073692 ], [ -45.1811589, -22.7063913 ], [ -45.1827022, -22.7022531 ], [ -45.1824591, -22.6991449 ], [ -45.1791496, -22.6931245 ], [ -45.1796516, -22.6911764 ], [ -45.1812268, -22.6905146 ], [ -45.1855803, -22.6907174 ], [ -45.1887467, -22.6887686 ], [ -45.1928724, -22.6935215 ], [ -45.1943243, -22.6937153 ], [ -45.1979364, -22.6915193 ], [ -45.2019518, -22.6932355 ], [ -45.206498, -22.6893814 ], [ -45.2064239, -22.6884272 ], [ -45.2036183, -22.6873645 ], [ -45.1969457, -22.679996 ], [ -45.1954932, -22.6762836 ], [ -45.1912261, -22.6733062 ], [ -45.1895191, -22.6681149 ], [ -45.1898285, -22.6673365 ], [ -45.1927242, -22.6666893 ], [ -45.1993256, -22.6669091 ], [ -45.2014832, -22.6654898 ], [ -45.2038724, -22.6658204 ], [ -45.2057384, -22.6651473 ], [ -45.2063263, -22.663021 ], [ -45.204813, -22.6613598 ], [ -45.2037386, -22.6559172 ], [ -45.2028281, -22.6572549 ], [ -45.2003035, -22.6578197 ], [ -45.1974137, -22.656028 ], [ -45.1938019, -22.6567824 ], [ -45.1907644, -22.654319 ], [ -45.1891003, -22.6544003 ], [ -45.1876535, -22.6531958 ], [ -45.18806, -22.6516033 ], [ -45.1851593, -22.6485921 ], [ -45.1834362, -22.6493041 ], [ -45.1840477, -22.6507962 ], [ -45.1816498, -22.6508625 ], [ -45.1824186, -22.652485 ], [ -45.1820095, -22.6538293 ], [ -45.1778105, -22.6551039 ], [ -45.177837, -22.6575832 ], [ -45.1758624, -22.6579286 ], [ -45.1748303, -22.6594107 ], [ -45.173486, -22.6583389 ], [ -45.169104, -22.6585035 ], [ -45.1683933, -22.6595339 ], [ -45.1656051, -22.6581073 ], [ -45.16304, -22.6592664 ], [ -45.1604777, -22.6581763 ], [ -45.1587999, -22.6588457 ], [ -45.1577527, -22.6570252 ], [ -45.1561145, -22.6574747 ], [ -45.1551074, -22.6591837 ], [ -45.1518354, -22.6583528 ], [ -45.1514509, -22.6564755 ], [ -45.1531661, -22.6529167 ], [ -45.1506618, -22.6471902 ], [ -45.1529746, -22.6447592 ], [ -45.1530354, -22.6397703 ], [ -45.1568447, -22.6357259 ], [ -45.1628742, -22.6329122 ], [ -45.1620739, -22.6320527 ], [ -45.1600505, -22.6319673 ], [ -45.1581166, -22.6302381 ], [ -45.1547452, -22.6313506 ], [ -45.1513686, -22.6300664 ], [ -45.1490212, -22.6344422 ], [ -45.1448121, -22.6337508 ], [ -45.140709, -22.6352204 ], [ -45.1393042, -22.631337 ], [ -45.136416, -22.6311985 ], [ -45.1330411, -22.6295586 ], [ -45.1281564, -22.6299894 ], [ -45.1261289, -22.6307656 ], [ -45.1269725, -22.6339933 ], [ -45.1241268, -22.6379535 ], [ -45.1205537, -22.6369964 ], [ -45.1164053, -22.6377142 ], [ -45.113179, -22.6364743 ], [ -45.1122483, -22.6347013 ], [ -45.1017154, -22.6506119 ], [ -45.1006686, -22.6550232 ], [ -45.0996743, -22.6557295 ], [ -45.0988187, -22.6586802 ], [ -45.0961775, -22.6606407 ], [ -45.096161, -22.6631271 ], [ -45.0949533, -22.6652991 ], [ -45.0924644, -22.6665775 ], [ -45.0885363, -22.6660208 ], [ -45.08666, -22.6675004 ], [ -45.0872278, -22.6703512 ], [ -45.0865939, -22.6716727 ], [ -45.084594, -22.6724148 ], [ -45.0766029, -22.6691186 ], [ -45.0736955, -22.6693216 ], [ -45.0727367, -22.6700933 ], [ -45.0717676, -22.6733221 ], [ -45.0692091, -22.6763314 ], [ -45.0752162, -22.6784673 ], [ -45.075243, -22.7254369 ], [ -45.0721527, -22.7333938 ], [ -45.0700199, -22.7349411 ], [ -45.0696507, -22.7379747 ], [ -45.0676883, -22.7386002 ], [ -45.0652851, -22.745166 ], [ -45.0610032, -22.7502406 ], [ -45.0606103, -22.7648521 ], [ -45.0621268, -22.767222 ], [ -45.0617296, -22.7682064 ], [ -45.0589729, -22.769913 ], [ -45.0563179, -22.7696994 ], [ -45.0536022, -22.7682549 ], [ -45.0532699, -22.7647017 ], [ -45.0522694, -22.7637607 ], [ -45.0472076, -22.7643525 ], [ -45.0406567, -22.7624905 ], [ -45.0389977, -22.7639982 ], [ -45.0366074, -22.7643747 ], [ -45.0344234, -22.7609487 ], [ -45.0323011, -22.7607805 ], [ -45.0313035, -22.7619909 ], [ -45.0318226, -22.7651595 ], [ -45.0305147, -22.7675541 ], [ -45.0229029, -22.7694749 ], [ -45.0202518, -22.7718053 ], [ -45.0153894, -22.7718825 ], [ -45.0108691, -22.7735739 ], [ -45.0080821, -22.7769385 ], [ -45.0065917, -22.7824845 ], [ -45.0005875, -22.7863657 ], [ -44.9982882, -22.7898987 ], [ -44.996931, -22.7989926 ], [ -44.9906453, -22.802553 ], [ -44.9895559, -22.8100065 ], [ -44.9855442, -22.8089036 ], [ -44.978941, -22.8030612 ], [ -44.9759058, -22.8056393 ], [ -44.974184, -22.8110088 ], [ -44.9707813, -22.8115358 ], [ -44.9687944, -22.8098774 ], [ -44.9658756, -22.8094809 ], [ -44.9594975, -22.8035673 ], [ -44.9576525, -22.8035334 ], [ -44.9509369, -22.8097193 ], [ -44.9498966, -22.8145975 ], [ -44.9468479, -22.8186976 ], [ -44.9482014, -22.8240874 ], [ -44.9473096, -22.8280797 ], [ -44.9477906, -22.8310831 ], [ -44.9493441, -22.8324498 ], [ -44.9488478, -22.8336276 ], [ -44.9431808, -22.8344632 ], [ -44.9393617, -22.8312431 ], [ -44.9374742, -22.8330398 ], [ -44.9351006, -22.8287401 ], [ -44.9322793, -22.8301967 ], [ -44.9294163, -22.8330062 ], [ -44.9292713, -22.8355992 ], [ -44.9327991, -22.8382526 ], [ -44.9338942, -22.8416577 ], [ -44.933933, -22.8452242 ], [ -44.9353309, -22.8473413 ], [ -44.9319329, -22.8502611 ], [ -44.9269071, -22.8503856 ], [ -44.9234133, -22.8520054 ], [ -44.9224324, -22.8571792 ], [ -44.9201817, -22.8553495 ], [ -44.9127401, -22.8550425 ], [ -44.9109846, -22.8516108 ], [ -44.9077551, -22.8487026 ], [ -44.900412, -22.8465407 ], [ -44.8986335, -22.8450267 ], [ -44.8950565, -22.8445386 ], [ -44.8973433, -22.8466964 ], [ -44.8959193, -22.8472306 ], [ -44.8928268, -22.8506464 ], [ -44.8909491, -22.8513509 ], [ -44.8923403, -22.8529621 ], [ -44.8904234, -22.853975 ], [ -44.8892784, -22.8560358 ], [ -44.8896984, -22.8634107 ], [ -44.8922245, -22.8666723 ], [ -44.8923874, -22.8683589 ], [ -44.8897987, -22.8687142 ], [ -44.8890019, -22.8700367 ], [ -44.8962195, -22.8744585 ], [ -44.8963848, -22.8760665 ], [ -44.8977198, -22.8761645 ], [ -44.8997577, -22.8785875 ], [ -44.9067293, -22.8802706 ], [ -44.9080809, -22.8815027 ], [ -44.9074089, -22.882016 ], [ -44.9084275, -22.8826528 ], [ -44.9083567, -22.8839395 ], [ -44.9113012, -22.8858642 ], [ -44.9112509, -22.8867296 ], [ -44.9127946, -22.8867454 ], [ -44.9134766, -22.8885858 ], [ -44.912914, -22.8893444 ], [ -44.9141414, -22.890232 ], [ -44.9165352, -22.8902395 ], [ -44.916894, -22.8913393 ], [ -44.918958, -22.8909351 ], [ -44.9189089, -22.8918275 ], [ -44.9206212, -22.8926351 ], [ -44.9200765, -22.8931261 ], [ -44.9212923, -22.8930087 ], [ -44.9222303, -22.8913405 ], [ -44.9251196, -22.892783 ], [ -44.9277708, -22.8913987 ], [ -44.9302926, -22.8938972 ], [ -44.9304241, -22.8971504 ], [ -44.9321411, -22.8972778 ], [ -44.9321147, -22.8983263 ], [ -44.9326961, -22.8970675 ], [ -44.9337751, -22.898089 ], [ -44.9342255, -22.8973428 ], [ -44.9345666, -22.8989268 ], [ -44.9339454, -22.8995398 ], [ -44.9348672, -22.8996142 ], [ -44.9342225, -22.9003154 ], [ -44.9356765, -22.9011915 ], [ -44.936055, -22.9029611 ], [ -44.937044, -22.9024826 ], [ -44.9369998, -22.9035507 ], [ -44.9390826, -22.9032915 ], [ -44.9431716, -22.9059429 ], [ -44.9475189, -22.9045189 ], [ -44.9465459, -22.9073544 ], [ -44.9475407, -22.908833 ], [ -44.9467903, -22.9128931 ], [ -44.9475087, -22.9136722 ], [ -44.9529113, -22.9136146 ], [ -44.9582834, -22.9161895 ], [ -44.9597798, -22.9107677 ], [ -44.9629851, -22.9087059 ], [ -44.9623308, -22.9057972 ], [ -44.9667378, -22.9097346 ], [ -44.9658481, -22.9110649 ], [ -44.9671771, -22.9129373 ], [ -44.9726004, -22.9154064 ], [ -44.9755311, -22.9151319 ], [ -44.9769107, -22.9141272 ], [ -44.9790868, -22.9145048 ], [ -44.9827649, -22.9109446 ], [ -44.987664, -22.9100866 ], [ -44.9904716, -22.9108352 ], [ -44.9960086, -22.9162787 ], [ -44.99832, -22.9163709 ], [ -44.9999575, -22.9179749 ], [ -45.002462, -22.9177341 ], [ -45.0080284, -22.9195156 ], [ -45.0138931, -22.9201632 ], [ -45.0155498, -22.922744 ], [ -45.0198629, -22.9244182 ], [ -45.0232466, -22.9236166 ], [ -45.0248041, -22.9205309 ], [ -45.0277786, -22.9212284 ], [ -45.0296256, -22.9203281 ], [ -45.0301403, -22.9170756 ], [ -45.0314114, -22.9151977 ], [ -45.0346217, -22.9132652 ], [ -45.0354027, -22.9088359 ], [ -45.0373995, -22.9049634 ], [ -45.0402672, -22.9046885 ], [ -45.0401174, -22.901833 ], [ -45.0441894, -22.8976438 ], [ -45.0474581, -22.8970903 ], [ -45.0494753, -22.8935347 ], [ -45.0514463, -22.8930976 ], [ -45.0528265, -22.891126 ], [ -45.0580484, -22.8950863 ], [ -45.0592254, -22.8946666 ], [ -45.0603175, -22.8923978 ], [ -45.0621545, -22.8912251 ], [ -45.0597447, -22.884793 ], [ -45.0603237, -22.8768647 ], [ -45.0612999, -22.8749869 ], [ -45.064067, -22.8744802 ], [ -45.0657558, -22.8751785 ], [ -45.066211, -22.877736 ], [ -45.068352, -22.8794095 ], [ -45.0690048, -22.8814738 ], [ -45.0734773, -22.882541 ], [ -45.0750957, -22.8864292 ], [ -45.0771207, -22.8860574 ], [ -45.0804075, -22.8871498 ], [ -45.0817434, -22.8864944 ], [ -45.0792883, -22.8838642 ], [ -45.0790942, -22.8825122 ], [ -45.0798531, -22.8817369 ], [ -45.0828362, -22.8813457 ], [ -45.0859099, -22.8795466 ], [ -45.0917305, -22.8791051 ], [ -45.0946575, -22.8773075 ], [ -45.0986963, -22.8777115 ], [ -45.1015454, -22.8771433 ], [ -45.1035363, -22.8755784 ], [ -45.1043864, -22.8736627 ], [ -45.1079306, -22.8712624 ], [ -45.1095442, -22.8688105 ], [ -45.1115906, -22.8680328 ], [ -45.1124005, -22.8651344 ], [ -45.1154822, -22.8616524 ], [ -45.116722, -22.8579566 ], [ -45.1183483, -22.8573141 ], [ -45.1195579, -22.8550761 ], [ -45.1194285, -22.8519537 ], [ -45.1209872, -22.8498227 ], [ -45.120224, -22.8483012 ], [ -45.1214176, -22.843933 ], [ -45.1188404, -22.842493 ], [ -45.1185904, -22.8388258 ], [ -45.1203104, -22.8376726 ], [ -45.1218395, -22.8339756 ], [ -45.1241603, -22.8311255 ], [ -45.1287647, -22.8294545 ], [ -45.1279039, -22.8267806 ], [ -45.1299664, -22.8239063 ], [ -45.1299646, -22.8222146 ], [ -45.1319486, -22.8203308 ], [ -45.1311834, -22.8183436 ], [ -45.1328121, -22.8137977 ], [ -45.1316396, -22.8118481 ], [ -45.1318264, -22.8034348 ], [ -45.1339358, -22.8020001 ], [ -45.1347755, -22.7989534 ], [ -45.1371517, -22.7961329 ], [ -45.136776, -22.7940231 ], [ -45.1344621, -22.790004 ], [ -45.1353446, -22.7877494 ], [ -45.1335201, -22.7825995 ], [ -45.1335754, -22.7798042 ], [ -45.1358318, -22.771683 ] ] ] ] } }
]
}
