{
"type": "FeatureCollection",
"name": "ER_REGIAO_Luís Antônio",
"crs": { "type": "name", "properties": { "name": "urn:ogc:def:crs:EPSG::4674" } },
"xy_coordinate_resolution": 1e-15,
"features": [
{ "type": "Feature", "properties": { "fid": 451, "NM_REGIAO": "Sudeste", "NM_UF": "São Paulo", "NM_MUN": "Luís Antônio", "NM_DIST": "Luís Antônio", "CD_SUBDIST": "35276030500", "ER_REGIAO": "Luís Antônio", "ER_REGIAO_CIDADE": "Luís Antônio_Araraquara" }, "geometry": { "type": "MultiPolygon", "coordinates": [ [ [ [ -47.896484, -21.417042 ], [ -47.899289, -21.409068 ], [ -47.8963844, -21.4006276 ], [ -47.897513, -21.395306 ], [ -47.89707, -21.3932679 ], [ -47.897895, -21.392452 ], [ -47.897809, -21.389694 ], [ -47.899334, -21.385941 ], [ -47.898185, -21.383719 ], [ -47.894949, -21.380401 ], [ -47.893234, -21.381689 ], [ -47.892262, -21.381511 ], [ -47.89207, -21.38267 ], [ -47.889954, -21.384198 ], [ -47.889202, -21.383842 ], [ -47.888189, -21.385664 ], [ -47.887092, -21.385683 ], [ -47.88423, -21.382975 ], [ -47.878591, -21.386865 ], [ -47.878101, -21.385842 ], [ -47.875367, -21.386641 ], [ -47.875665, -21.387304 ], [ -47.874938, -21.386956 ], [ -47.873722, -21.388164 ], [ -47.872986, -21.386891 ], [ -47.871984, -21.387924 ], [ -47.87265, -21.388831 ], [ -47.870207, -21.390715 ], [ -47.869694, -21.389985 ], [ -47.867755, -21.390035 ], [ -47.866066, -21.392377 ], [ -47.863595, -21.392076 ], [ -47.863989, -21.394942 ], [ -47.865687, -21.396791 ], [ -47.863704, -21.398647 ], [ -47.864544, -21.402556 ], [ -47.862294, -21.402691 ], [ -47.861511, -21.403687 ], [ -47.862166, -21.40481 ], [ -47.859373, -21.40412 ], [ -47.857547, -21.406909 ], [ -47.853377, -21.407642 ], [ -47.851883, -21.408973 ], [ -47.850647, -21.407452 ], [ -47.849174, -21.408242 ], [ -47.848048, -21.410006 ], [ -47.848117, -21.412793 ], [ -47.84649, -21.415046 ], [ -47.844749, -21.415271 ], [ -47.844467, -21.416327 ], [ -47.84545, -21.417774 ], [ -47.844808, -21.418269 ], [ -47.848094, -21.421634 ], [ -47.848202, -21.422883 ], [ -47.843667, -21.424951 ], [ -47.843188, -21.426797 ], [ -47.837911, -21.428499 ], [ -47.835699, -21.427096 ], [ -47.835287, -21.425844 ], [ -47.832707, -21.423998 ], [ -47.830892, -21.423833 ], [ -47.83082, -21.423167 ], [ -47.8199172, -21.4214847 ], [ -47.8182222, -21.4229675 ], [ -47.8157038, -21.4282869 ], [ -47.8116438, -21.4328895 ], [ -47.8060202, -21.4343309 ], [ -47.8052315, -21.4362218 ], [ -47.8029497, -21.4384237 ], [ -47.7988094, -21.4464689 ], [ -47.7971715, -21.4471171 ], [ -47.7873891, -21.4463954 ], [ -47.7789533, -21.4479045 ], [ -47.7771126, -21.4487095 ], [ -47.7750801, -21.4517709 ], [ -47.7638534, -21.4522631 ], [ -47.7530562, -21.4569329 ], [ -47.7457073, -21.4584464 ], [ -47.737539, -21.4624692 ], [ -47.7354843, -21.4644688 ], [ -47.7315785, -21.4650965 ], [ -47.7276294, -21.4675406 ], [ -47.7221585, -21.4686779 ], [ -47.7193843, -21.4718409 ], [ -47.7126792, -21.4734901 ], [ -47.7100922, -21.4765358 ], [ -47.7109975, -21.4791683 ], [ -47.7125813, -21.4806455 ], [ -47.711514, -21.4815695 ], [ -47.7019784, -21.4801377 ], [ -47.7002621, -21.4812162 ], [ -47.6927532, -21.4815161 ], [ -47.6902972, -21.4844225 ], [ -47.6906386, -21.487603 ], [ -47.6868449, -21.489345 ], [ -47.6836293, -21.492656 ], [ -47.6796559, -21.4921909 ], [ -47.6692762, -21.4870588 ], [ -47.668411, -21.4909697 ], [ -47.661229, -21.4979715 ], [ -47.6605263, -21.5014704 ], [ -47.6623882, -21.5089799 ], [ -47.6617027, -21.5109922 ], [ -47.6575887, -21.5164067 ], [ -47.6566235, -21.5270721 ], [ -47.6555892, -21.5306536 ], [ -47.6522616, -21.5336313 ], [ -47.6457082, -21.5363824 ], [ -47.6396197, -21.5438943 ], [ -47.6395557, -21.5454895 ], [ -47.6417017, -21.5491304 ], [ -47.6404746, -21.5545619 ], [ -47.645314, -21.5637831 ], [ -47.6422207, -21.5750876 ], [ -47.6432655, -21.582827 ], [ -47.6432844, -21.5909302 ], [ -47.6426642, -21.5925547 ], [ -47.6437797, -21.5934341 ], [ -47.6472005, -21.593645 ], [ -47.6500067, -21.5962384 ], [ -47.6581162, -21.5975504 ], [ -47.6608718, -21.5993614 ], [ -47.6696839, -21.6018333 ], [ -47.6709514, -21.6031085 ], [ -47.6713941, -21.6070032 ], [ -47.672993, -21.6083503 ], [ -47.6760175, -21.6092785 ], [ -47.6780368, -21.6116692 ], [ -47.6790867, -21.6146994 ], [ -47.6761637, -21.6230451 ], [ -47.6774739, -21.6260033 ], [ -47.6772132, -21.6319717 ], [ -47.678608, -21.6368447 ], [ -47.6786768, -21.645603 ], [ -47.6794385, -21.6516461 ], [ -47.6802186, -21.6528661 ], [ -47.6789584, -21.6570757 ], [ -47.6848796, -21.6633187 ], [ -47.6858919, -21.6672584 ], [ -47.6940111, -21.6757757 ], [ -47.6968542, -21.677391 ], [ -47.697952, -21.6765226 ], [ -47.6998136, -21.6772313 ], [ -47.6991787, -21.6789715 ], [ -47.7042949, -21.680001 ], [ -47.708852, -21.6833003 ], [ -47.7119629, -21.6836595 ], [ -47.713996, -21.6884928 ], [ -47.7170865, -21.6918797 ], [ -47.717877, -21.6948246 ], [ -47.7214654, -21.6979298 ], [ -47.7241394, -21.7062482 ], [ -47.727532, -21.7095709 ], [ -47.7315988, -21.7106502 ], [ -47.7332735, -21.7140456 ], [ -47.7344216, -21.7141805 ], [ -47.7374304, -21.7116276 ], [ -47.7453391, -21.709301 ], [ -47.7478455, -21.7068413 ], [ -47.7489, -21.7027508 ], [ -47.7501621, -21.7014143 ], [ -47.7561062, -21.7000797 ], [ -47.7574494, -21.6990573 ], [ -47.7591231, -21.6956904 ], [ -47.7615372, -21.694592 ], [ -47.7647993, -21.6943697 ], [ -47.7681522, -21.6914638 ], [ -47.7788223, -21.6909713 ], [ -47.7814301, -21.6916109 ], [ -47.7836709, -21.693833 ], [ -47.7847518, -21.6985567 ], [ -47.7865442, -21.6998294 ], [ -47.7900934, -21.6990283 ], [ -47.7956533, -21.6946267 ], [ -47.8032613, -21.6954243 ], [ -47.8063669, -21.6982817 ], [ -47.8090995, -21.699288 ], [ -47.8118596, -21.6991117 ], [ -47.8165648, -21.6966066 ], [ -47.8166678, -21.6947893 ], [ -47.8121742, -21.6898346 ], [ -47.811438, -21.6845617 ], [ -47.8118267, -21.6801192 ], [ -47.8127704, -21.6786776 ], [ -47.8157438, -21.6777565 ], [ -47.8234193, -21.6726146 ], [ -47.8299893, -21.6707499 ], [ -47.830578, -21.6694623 ], [ -47.830145, -21.6685065 ], [ -47.822454, -21.6641632 ], [ -47.8169278, -21.662542 ], [ -47.8169472, -21.6614312 ], [ -47.8188381, -21.6599715 ], [ -47.8259741, -21.6567015 ], [ -47.8256114, -21.6533544 ], [ -47.82413, -21.6515927 ], [ -47.8206756, -21.6500969 ], [ -47.8181783, -21.6469522 ], [ -47.8160981, -21.646876 ], [ -47.8137515, -21.6488035 ], [ -47.8118218, -21.6483938 ], [ -47.8068276, -21.6355115 ], [ -47.8057675, -21.634938 ], [ -47.8022913, -21.6353864 ], [ -47.8016138, -21.6331256 ], [ -47.8023078, -21.6310947 ], [ -47.8037953, -21.63031 ], [ -47.8111445, -21.631409 ], [ -47.8140393, -21.626964 ], [ -47.8177635, -21.6249562 ], [ -47.8164401, -21.6209952 ], [ -47.818556, -21.6147668 ], [ -47.8258602, -21.6123479 ], [ -47.8278494, -21.6127775 ], [ -47.8309203, -21.6160007 ], [ -47.8339686, -21.6144414 ], [ -47.8346077, -21.6115962 ], [ -47.8327336, -21.6077795 ], [ -47.8326826, -21.6052065 ], [ -47.8298295, -21.6030697 ], [ -47.830075, -21.6014573 ], [ -47.8318497, -21.6009994 ], [ -47.8356529, -21.6041569 ], [ -47.8371443, -21.6045194 ], [ -47.838082, -21.6038561 ], [ -47.8392123, -21.6002969 ], [ -47.8404799, -21.6003301 ], [ -47.8412973, -21.6026328 ], [ -47.83917, -21.6062273 ], [ -47.8399135, -21.6067898 ], [ -47.8428842, -21.6037732 ], [ -47.8462563, -21.597968 ], [ -47.8499626, -21.5998159 ], [ -47.8535392, -21.5974283 ], [ -47.8559475, -21.6001465 ], [ -47.8582894, -21.6013289 ], [ -47.8576992, -21.6026913 ], [ -47.8549405, -21.6032006 ], [ -47.8539272, -21.6041454 ], [ -47.8561771, -21.6078183 ], [ -47.8592371, -21.6091206 ], [ -47.8628966, -21.6069248 ], [ -47.8644627, -21.6069157 ], [ -47.8625802, -21.6109495 ], [ -47.8649587, -21.6120954 ], [ -47.8689538, -21.610785 ], [ -47.8696473, -21.6118492 ], [ -47.8687342, -21.6147647 ], [ -47.8699038, -21.6158158 ], [ -47.871504, -21.6146604 ], [ -47.8714958, -21.6112884 ], [ -47.8723227, -21.6104184 ], [ -47.8747058, -21.609834 ], [ -47.8789973, -21.6125953 ], [ -47.8807243, -21.6110813 ], [ -47.879504, -21.6081343 ], [ -47.8712162, -21.6060516 ], [ -47.8713402, -21.6030018 ], [ -47.8767298, -21.5989733 ], [ -47.8809941, -21.5982369 ], [ -47.8809909, -21.5973625 ], [ -47.8784376, -21.5964924 ], [ -47.8781066, -21.5948021 ], [ -47.882519, -21.5915323 ], [ -47.8818509, -21.589278 ], [ -47.8846115, -21.5912927 ], [ -47.8861132, -21.5905954 ], [ -47.8850768, -21.586201 ], [ -47.8897108, -21.5819865 ], [ -47.892896, -21.5825804 ], [ -47.8948545, -21.5861951 ], [ -47.8967232, -21.5870502 ], [ -47.898313, -21.5856927 ], [ -47.8985198, -21.5818465 ], [ -47.8998308, -21.5815189 ], [ -47.9009724, -21.5838082 ], [ -47.8988531, -21.5879093 ], [ -47.9004992, -21.5894707 ], [ -47.9025118, -21.5887996 ], [ -47.9044903, -21.585002 ], [ -47.9044019, -21.5834135 ], [ -47.9024282, -21.5809353 ], [ -47.9036921, -21.57932 ], [ -47.9055506, -21.5796685 ], [ -47.9080779, -21.5819854 ], [ -47.910217, -21.5883383 ], [ -47.911968, -21.5894795 ], [ -47.9150612, -21.5882939 ], [ -47.9183009, -21.5833362 ], [ -47.9196749, -21.5832197 ], [ -47.9228535, -21.5847629 ], [ -47.9236535, -21.5840273 ], [ -47.9236979, -21.5819368 ], [ -47.922519, -21.5791694 ], [ -47.9253154, -21.5758183 ], [ -47.9240426, -21.5732892 ], [ -47.9252382, -21.5735107 ], [ -47.9271768, -21.5759673 ], [ -47.9281245, -21.572732 ], [ -47.926807, -21.5677075 ], [ -47.924818, -21.5650595 ], [ -47.92346, -21.5650461 ], [ -47.9223457, -21.5613108 ], [ -47.9191635, -21.5558518 ], [ -47.9212163, -21.549643 ], [ -47.9208881, -21.5448739 ], [ -47.9132761, -21.5402408 ], [ -47.9048615, -21.5365082 ], [ -47.90093, -21.5316397 ], [ -47.8992865, -21.5257616 ], [ -47.891067, -21.5143989 ], [ -47.8894942, -21.5061158 ], [ -47.887428, -21.5010337 ], [ -47.8884019, -21.4983081 ], [ -47.8880652, -21.4953777 ], [ -47.8905274, -21.4908577 ], [ -47.891729, -21.4857919 ], [ -47.8936583, -21.4817634 ], [ -47.8946767, -21.4750759 ], [ -47.9023547, -21.4606676 ], [ -47.9008047, -21.456466 ], [ -47.8997937, -21.4452066 ], [ -47.894577, -21.439601 ], [ -47.89635, -21.436443 ], [ -47.897945, -21.427581 ], [ -47.896484, -21.417042 ] ] ] ] } }
]
}
