{
"type": "FeatureCollection",
"name": "ER_REGIAO_Flórida Paulista_Indaiá do Aguapeí",
"crs": { "type": "name", "properties": { "name": "urn:ogc:def:crs:EPSG::4674" } },
"xy_coordinate_resolution": 1e-15,
"features": [
{ "type": "Feature", "properties": { "fid": 267, "NM_REGIAO": "Sudeste", "NM_UF": "São Paulo", "NM_MUN": "Flórida Paulista", "NM_DIST": "Indaiá do Aguapeí", "CD_SUBDIST": "35160021500", "ER_REGIAO": "Flórida Paulista_Indaiá do Aguapeí", "ER_REGIAO_CIDADE": "Flórida Paulista_Indaiá do Aguapeí_Araçatuba" }, "geometry": { "type": "MultiPolygon", "coordinates": [ [ [ [ -51.1751072, -21.3810007 ], [ -51.1718146, -21.383568 ], [ -51.1641169, -21.3840223 ], [ -51.1574587, -21.3785712 ], [ -51.154742, -21.3786259 ], [ -51.1480784, -21.3745866 ], [ -51.1430213, -21.3746693 ], [ -51.1396351, -21.3737848 ], [ -51.1330046, -21.3749516 ], [ -51.1317353, -21.3774349 ], [ -51.1295534, -21.3788883 ], [ -51.1216406, -21.3814787 ], [ -51.1201369, -21.3795491 ], [ -51.1150476, -21.3771702 ], [ -51.112207, -21.3760527 ], [ -51.107887, -21.3757886 ], [ -51.1055825, -21.3729351 ], [ -51.099945, -21.3699193 ], [ -51.0927426, -21.3709709 ], [ -51.0899257, -21.3722767 ], [ -51.0901054, -21.3793009 ], [ -51.0859298, -21.3823737 ], [ -51.0859856, -21.384099 ], [ -51.0811179, -21.3851386 ], [ -51.0779842, -21.3893198 ], [ -51.0771061, -21.3877079 ], [ -51.0756149, -21.3877394 ], [ -51.0748162, -21.3911595 ], [ -51.0679644, -21.3942021 ], [ -51.0634796, -21.3945223 ], [ -51.0594893, -21.3971014 ], [ -51.0587557, -21.3985509 ], [ -51.0604113, -21.3993398 ], [ -51.0596454, -21.4002347 ], [ -51.0608159, -21.4048005 ], [ -51.0640745, -21.4061086 ], [ -51.0684105, -21.4111899 ], [ -51.0735976, -21.4126943 ], [ -51.0737687, -21.4138786 ], [ -51.0723462, -21.4147965 ], [ -51.0729311, -21.4189039 ], [ -51.0794668, -21.4255951 ], [ -51.08088, -21.424619 ], [ -51.0824631, -21.4281192 ], [ -51.0865294, -21.4309533 ], [ -51.086121, -21.4324746 ], [ -51.0869933, -21.4343204 ], [ -51.0863516, -21.4345007 ], [ -51.0863492, -21.4356938 ], [ -51.0882787, -21.4372778 ], [ -51.0876566, -21.4391012 ], [ -51.0845481, -21.441637 ], [ -51.0839793, -21.444488 ], [ -51.0865417, -21.4466639 ], [ -51.0859875, -21.4479676 ], [ -51.0842761, -21.4484619 ], [ -51.0825925, -21.4504912 ], [ -51.0830009, -21.4525963 ], [ -51.0869643, -21.4585104 ], [ -51.0841972, -21.4622247 ], [ -51.0872373, -21.4640345 ], [ -51.0880469, -21.4694538 ], [ -51.0961147, -21.4764686 ], [ -51.0965199, -21.4795396 ], [ -51.0959046, -21.4817239 ], [ -51.0966146, -21.4829263 ], [ -51.0996708, -21.4841896 ], [ -51.1030059, -21.4806892 ], [ -51.1044103, -21.478391 ], [ -51.1047945, -21.4761373 ], [ -51.1039282, -21.4723173 ], [ -51.1047188, -21.4716741 ], [ -51.1193058, -21.47136 ], [ -51.1226283, -21.4726425 ], [ -51.1267897, -21.4718965 ], [ -51.1311947, -21.4721616 ], [ -51.1357449, -21.4734441 ], [ -51.1369032, -21.4742209 ], [ -51.1381328, -21.4784125 ], [ -51.1393992, -21.4791894 ], [ -51.1515941, -21.4831547 ], [ -51.158587, -21.4864959 ], [ -51.1624506, -21.4863909 ], [ -51.1661297, -21.4832482 ], [ -51.1677704, -21.4746703 ], [ -51.1692117, -21.4725029 ], [ -51.1746059, -21.4686201 ], [ -51.187321, -21.4638424 ], [ -51.1986186, -21.450288 ], [ -51.2078609, -21.4487892 ], [ -51.2089176, -21.4459418 ], [ -51.2111368, -21.4436578 ], [ -51.2105643, -21.4408888 ], [ -51.2080172, -21.4384019 ], [ -51.2087932, -21.4360055 ], [ -51.2110589, -21.4348205 ], [ -51.2113931, -21.4334816 ], [ -51.2094473, -21.4315966 ], [ -51.2106506, -21.4261023 ], [ -51.2102832, -21.4206948 ], [ -51.2067031, -21.4142824 ], [ -51.2097846, -21.4103505 ], [ -51.2097562, -21.4078453 ], [ -51.2106786, -21.4072733 ], [ -51.2097552, -21.4022635 ], [ -51.2106462, -21.4017111 ], [ -51.2100243, -21.4004069 ], [ -51.2113115, -21.3943766 ], [ -51.2099297, -21.3927178 ], [ -51.2125341, -21.3871295 ], [ -51.2128262, -21.381942 ], [ -51.2154776, -21.3800791 ], [ -51.2154462, -21.3777075 ], [ -51.2180636, -21.3761524 ], [ -51.218865, -21.374307 ], [ -51.2183464, -21.3722426 ], [ -51.2191858, -21.3699253 ], [ -51.2182614, -21.3688956 ], [ -51.2196772, -21.3654324 ], [ -51.220179, -21.3609624 ], [ -51.2173964, -21.3609726 ], [ -51.2157268, -21.3600156 ], [ -51.2150762, -21.3556873 ], [ -51.2141488, -21.354789 ], [ -51.2110913, -21.3549779 ], [ -51.2105925, -21.3569099 ], [ -51.2077507, -21.356809 ], [ -51.2065002, -21.3591203 ], [ -51.2039258, -21.3610286 ], [ -51.2018626, -21.359948 ], [ -51.2001295, -21.3600082 ], [ -51.1961181, -21.3673425 ], [ -51.1954046, -21.3718397 ], [ -51.1930921, -21.374828 ], [ -51.1897265, -21.3770868 ], [ -51.1834425, -21.3762254 ], [ -51.1798628, -21.3796187 ], [ -51.1751072, -21.3810007 ] ] ] ] } }
]
}
