{
"type": "FeatureCollection",
"name": "ER_REGIAO_Capital Sul_Parelheiros",
"crs": { "type": "name", "properties": { "name": "urn:ogc:def:crs:EPSG::4674" } },
"xy_coordinate_resolution": 1e-15,
"features": [
{ "type": "Feature", "properties": { "fid": 889, "NM_REGIAO": "Sudeste", "NM_UF": "São Paulo", "NM_MUN": "São Paulo", "NM_DIST": "Parelheiros", "CD_SUBDIST": "35503085500", "ER_REGIAO": "Capital Sul_Parelheiros", "ER_REGIAO_CIDADE": "Capital Sul_Parelheiros" }, "geometry": { "type": "MultiPolygon", "coordinates": [ [ [ [ -46.699139, -23.886124 ], [ -46.763287, -23.866804 ], [ -46.767227, -23.86704 ], [ -46.769236, -23.868409 ], [ -46.773521, -23.868003 ], [ -46.776193, -23.866252 ], [ -46.776046, -23.855449 ], [ -46.77954, -23.851286 ], [ -46.778829, -23.846196 ], [ -46.779887, -23.842175 ], [ -46.778429, -23.841597 ], [ -46.773514, -23.843816 ], [ -46.76739, -23.843619 ], [ -46.764295, -23.842569 ], [ -46.76304, -23.839995 ], [ -46.762556, -23.835924 ], [ -46.763552, -23.83433 ], [ -46.765427, -23.834915 ], [ -46.765562, -23.833421 ], [ -46.763639, -23.832041 ], [ -46.762762, -23.827177 ], [ -46.773799, -23.817739 ], [ -46.776964, -23.816819 ], [ -46.782306, -23.813274 ], [ -46.794459, -23.810632 ], [ -46.796832, -23.81103 ], [ -46.801146, -23.809761 ], [ -46.801729, -23.808781 ], [ -46.801766, -23.806136 ], [ -46.800378, -23.805179 ], [ -46.800471, -23.801561 ], [ -46.79625, -23.799461 ], [ -46.79646, -23.797516 ], [ -46.794405, -23.793917 ], [ -46.792338, -23.792919 ], [ -46.791451, -23.790855 ], [ -46.790593, -23.791222 ], [ -46.789167, -23.789946 ], [ -46.789513, -23.789169 ], [ -46.790043, -23.789576 ], [ -46.790271, -23.787479 ], [ -46.787949, -23.786994 ], [ -46.78974, -23.786067 ], [ -46.789797, -23.783523 ], [ -46.789134, -23.783325 ], [ -46.79022, -23.782615 ], [ -46.791018, -23.780014 ], [ -46.79008, -23.77608 ], [ -46.787589, -23.773553 ], [ -46.781492, -23.772055 ], [ -46.777216, -23.766968 ], [ -46.773204, -23.765508 ], [ -46.771152, -23.763626 ], [ -46.769582, -23.759658 ], [ -46.769149, -23.7552121 ], [ -46.766964, -23.754234 ], [ -46.765397, -23.751828 ], [ -46.764556, -23.742165 ], [ -46.76124, -23.739221 ], [ -46.758448, -23.73866 ], [ -46.752224, -23.739341 ], [ -46.745259, -23.744024 ], [ -46.743558, -23.744339 ], [ -46.729693, -23.740136 ], [ -46.727574, -23.747848 ], [ -46.726833, -23.753495 ], [ -46.727452, -23.755868 ], [ -46.72485, -23.758973 ], [ -46.725492, -23.760965 ], [ -46.724932, -23.76102 ], [ -46.725203, -23.762941 ], [ -46.724515, -23.764163 ], [ -46.725924, -23.765159 ], [ -46.725089, -23.766159 ], [ -46.718245, -23.765326 ], [ -46.714105, -23.766246 ], [ -46.71193, -23.768437 ], [ -46.711639, -23.776968 ], [ -46.700937, -23.806883 ], [ -46.703, -23.816119 ], [ -46.702854, -23.818502 ], [ -46.696775, -23.834056 ], [ -46.696055, -23.841982 ], [ -46.694029, -23.848737 ], [ -46.691451, -23.851496 ], [ -46.68952, -23.852054 ], [ -46.686796, -23.851412 ], [ -46.685966, -23.849339 ], [ -46.681868, -23.849684 ], [ -46.681284, -23.847162 ], [ -46.67926, -23.846286 ], [ -46.668959, -23.846437 ], [ -46.664772, -23.848872 ], [ -46.657823, -23.849627 ], [ -46.646081, -23.841565 ], [ -46.640727, -23.839391 ], [ -46.6351157, -23.8385032 ], [ -46.631846, -23.852649 ], [ -46.6186508, -23.8606888 ], [ -46.616541, -23.8631 ], [ -46.617009, -23.869512 ], [ -46.615596, -23.876341 ], [ -46.617116, -23.878656 ], [ -46.616759, -23.880768 ], [ -46.6180252, -23.8852327 ], [ -46.617706, -23.8888098 ], [ -46.6153593, -23.8958132 ], [ -46.6154436, -23.8994526 ], [ -46.6142021, -23.9011136 ], [ -46.6132656, -23.9055012 ], [ -46.640477, -23.911514 ], [ -46.640693, -23.908211 ], [ -46.643588, -23.90167 ], [ -46.648551, -23.896106 ], [ -46.651187, -23.891246 ], [ -46.651765, -23.88813 ], [ -46.699139, -23.886124 ] ] ] ] } }
]
}
