{
"type": "FeatureCollection",
"name": "ER_REGIAO_Porto Ferreira",
"crs": { "type": "name", "properties": { "name": "urn:ogc:def:crs:EPSG::4674" } },
"xy_coordinate_resolution": 1e-15,
"features": [
{ "type": "Feature", "properties": { "fid": 679, "NM_REGIAO": "Sudeste", "NM_UF": "São Paulo", "NM_MUN": "Porto Ferreira", "NM_DIST": "Porto Ferreira", "CD_SUBDIST": "35407050500", "ER_REGIAO": "Porto Ferreira", "ER_REGIAO_CIDADE": "Porto Ferreira_São Carlos" }, "geometry": { "type": "MultiPolygon", "coordinates": [ [ [ [ -47.3591863, -21.7859248 ], [ -47.3569281, -21.795422 ], [ -47.3547229, -21.7983741 ], [ -47.3533196, -21.7986828 ], [ -47.3517701, -21.8015398 ], [ -47.3514767, -21.80459 ], [ -47.3451581, -21.807272 ], [ -47.345465, -21.8092525 ], [ -47.3438123, -21.8103213 ], [ -47.3430254, -21.8092544 ], [ -47.3421084, -21.8118454 ], [ -47.3405812, -21.8120466 ], [ -47.338359, -21.8105168 ], [ -47.3351106, -21.8142571 ], [ -47.3349196, -21.8161169 ], [ -47.3364419, -21.8160441 ], [ -47.3360977, -21.8189268 ], [ -47.3376458, -21.8194239 ], [ -47.3378367, -21.8215444 ], [ -47.3365576, -21.8216943 ], [ -47.3348819, -21.8234621 ], [ -47.3355256, -21.8287696 ], [ -47.3382286, -21.8289186 ], [ -47.3390017, -21.8364214 ], [ -47.3430735, -21.8398669 ], [ -47.3694127, -21.846985 ], [ -47.3736439, -21.8469241 ], [ -47.3764959, -21.8482127 ], [ -47.3787609, -21.8479572 ], [ -47.3827379, -21.8497508 ], [ -47.3861722, -21.8496713 ], [ -47.3898606, -21.8533982 ], [ -47.3952101, -21.8557991 ], [ -47.3973809, -21.8576912 ], [ -47.399364, -21.8647204 ], [ -47.4013661, -21.8683611 ], [ -47.4013688, -21.8750149 ], [ -47.4040479, -21.8781118 ], [ -47.3998804, -21.8828324 ], [ -47.3952157, -21.8848726 ], [ -47.3933869, -21.8877449 ], [ -47.3953581, -21.8905873 ], [ -47.4014527, -21.8912915 ], [ -47.4023733, -21.8919959 ], [ -47.402827, -21.8944174 ], [ -47.3996556, -21.9032841 ], [ -47.4020267, -21.9065325 ], [ -47.4020863, -21.9105641 ], [ -47.4056191, -21.9148394 ], [ -47.4072242, -21.9132496 ], [ -47.4091997, -21.9135791 ], [ -47.413743, -21.9177948 ], [ -47.4146598, -21.9159393 ], [ -47.4169219, -21.9141545 ], [ -47.4193356, -21.9135954 ], [ -47.4331586, -21.9148046 ], [ -47.4713181, -21.9154411 ], [ -47.4784436, -21.919983 ], [ -47.4803695, -21.9194532 ], [ -47.4833543, -21.920298 ], [ -47.4840803, -21.9218359 ], [ -47.4864712, -21.922918 ], [ -47.4916516, -21.9212937 ], [ -47.4937094, -21.9186573 ], [ -47.4974733, -21.9175658 ], [ -47.4980327, -21.9181308 ], [ -47.4976802, -21.9205916 ], [ -47.499542, -21.9208922 ], [ -47.5002147, -21.9223704 ], [ -47.5013367, -21.9224101 ], [ -47.5027061, -21.9241395 ], [ -47.5028761, -21.9280636 ], [ -47.5033482, -21.9295869 ], [ -47.5047717, -21.9300681 ], [ -47.5052055, -21.9337725 ], [ -47.5061627, -21.9349211 ], [ -47.5075469, -21.9331175 ], [ -47.5119128, -21.9358967 ], [ -47.5272424, -21.9255382 ], [ -47.5238495, -21.9229844 ], [ -47.5145945, -21.9122812 ], [ -47.5160443, -21.9066182 ], [ -47.5158396, -21.904024 ], [ -47.514257, -21.9007384 ], [ -47.5151142, -21.8966666 ], [ -47.5126425, -21.8922522 ], [ -47.5101576, -21.8806046 ], [ -47.5106265, -21.8793213 ], [ -47.5422194, -21.8625551 ], [ -47.542858, -21.8628893 ], [ -47.5498335, -21.8553373 ], [ -47.5513525, -21.8548697 ], [ -47.5519838, -21.8531098 ], [ -47.5511931, -21.8519409 ], [ -47.5514031, -21.8502446 ], [ -47.5496939, -21.8484242 ], [ -47.5486235, -21.8442473 ], [ -47.5528238, -21.8413605 ], [ -47.5550202, -21.8374338 ], [ -47.5504471, -21.8308446 ], [ -47.5460208, -21.8278595 ], [ -47.5426167, -21.8213552 ], [ -47.540777, -21.8203325 ], [ -47.53656, -21.820144 ], [ -47.5327521, -21.8188917 ], [ -47.5300107, -21.8169366 ], [ -47.5266839, -21.8123436 ], [ -47.524066, -21.811089 ], [ -47.5242086, -21.8023138 ], [ -47.5226015, -21.8039294 ], [ -47.5107459, -21.8081911 ], [ -47.5084813, -21.8073699 ], [ -47.5015643, -21.8015126 ], [ -47.4991556, -21.8011172 ], [ -47.4944207, -21.7981883 ], [ -47.4915995, -21.7979698 ], [ -47.4871544, -21.795934 ], [ -47.4839408, -21.793487 ], [ -47.4826971, -21.789564 ], [ -47.4785678, -21.7901912 ], [ -47.4740613, -21.7926424 ], [ -47.4724043, -21.7920245 ], [ -47.4646275, -21.7854968 ], [ -47.4510961, -21.7811727 ], [ -47.4491885, -21.7814489 ], [ -47.44377, -21.7848557 ], [ -47.440525, -21.7851285 ], [ -47.4391959, -21.7838204 ], [ -47.4385429, -21.7808285 ], [ -47.4395292, -21.7788136 ], [ -47.4415938, -21.767276 ], [ -47.4437535, -21.7651608 ], [ -47.442184, -21.7650091 ], [ -47.4411007, -21.7632595 ], [ -47.438179, -21.7621636 ], [ -47.4375063, -21.7608517 ], [ -47.4311722, -21.7582854 ], [ -47.4297456, -21.758354 ], [ -47.428782, -21.7576732 ], [ -47.4286774, -21.7564252 ], [ -47.4264088, -21.7557153 ], [ -47.4217624, -21.7569805 ], [ -47.4177121, -21.7608423 ], [ -47.411402, -21.7626327 ], [ -47.4099721, -21.7647143 ], [ -47.4099181, -21.7703448 ], [ -47.4090264, -21.7709233 ], [ -47.4003567, -21.7731894 ], [ -47.3977845, -21.7729147 ], [ -47.3949036, -21.7715437 ], [ -47.3959101, -21.7687212 ], [ -47.3955026, -21.7676714 ], [ -47.394305, -21.7673236 ], [ -47.3899679, -21.7686657 ], [ -47.3876642, -21.7711364 ], [ -47.384305, -21.7725261 ], [ -47.3832549, -21.7741452 ], [ -47.3783944, -21.7750329 ], [ -47.376635, -21.7771108 ], [ -47.3751426, -21.7776561 ], [ -47.3703272, -21.7770831 ], [ -47.3680403, -21.7779831 ], [ -47.3591863, -21.7859248 ] ] ] ] } }
]
}
