{
"type": "FeatureCollection",
"name": "ER_REGIAO_Capela do Alto_Porto",
"crs": { "type": "name", "properties": { "name": "urn:ogc:def:crs:EPSG::4674" } },
"xy_coordinate_resolution": 1e-15,
"features": [
{ "type": "Feature", "properties": { "fid": 175, "NM_REGIAO": "Sudeste", "NM_UF": "São Paulo", "NM_MUN": "Capela do Alto", "NM_DIST": "Porto", "CD_SUBDIST": "35103022000", "ER_REGIAO": "Capela do Alto_Porto", "ER_REGIAO_CIDADE": "Capela do Alto_Porto_Sorocaba" }, "geometry": { "type": "MultiPolygon", "coordinates": [ [ [ [ -47.7688869, -23.5459061 ], [ -47.7767195, -23.5369206 ], [ -47.7788049, -23.5356861 ], [ -47.7782229, -23.534395 ], [ -47.7816217, -23.5310607 ], [ -47.7819823, -23.5299411 ], [ -47.7802224, -23.5295167 ], [ -47.7793698, -23.5283902 ], [ -47.7807129, -23.527699 ], [ -47.780919, -23.5224985 ], [ -47.7819748, -23.5210603 ], [ -47.7808928, -23.520519 ], [ -47.7815045, -23.5190613 ], [ -47.7823366, -23.5197905 ], [ -47.7841969, -23.5175631 ], [ -47.7875307, -23.5185931 ], [ -47.7891086, -23.5204049 ], [ -47.7903533, -23.5177834 ], [ -47.793199, -23.5177714 ], [ -47.7929274, -23.5125464 ], [ -47.790808, -23.5109128 ], [ -47.7883471, -23.5104149 ], [ -47.7887962, -23.5074534 ], [ -47.7869328, -23.5065664 ], [ -47.7896642, -23.5021478 ], [ -47.7945151, -23.5013348 ], [ -47.7952652, -23.500012 ], [ -47.7943306, -23.4985891 ], [ -47.7894064, -23.496838 ], [ -47.7917847, -23.4915869 ], [ -47.7909762, -23.4904415 ], [ -47.788485, -23.4906583 ], [ -47.7862148, -23.4896338 ], [ -47.7834537, -23.4911286 ], [ -47.7737786, -23.4896451 ], [ -47.7691353, -23.4918371 ], [ -47.7668161, -23.4917916 ], [ -47.764898, -23.4935641 ], [ -47.7623731, -23.4935992 ], [ -47.7602895, -23.4947464 ], [ -47.7563819, -23.4977847 ], [ -47.7545281, -23.5023977 ], [ -47.7499461, -23.5049939 ], [ -47.7491091, -23.5069429 ], [ -47.7379527, -23.5198639 ], [ -47.7212361, -23.5359371 ], [ -47.7198833, -23.5360519 ], [ -47.7213097, -23.5374679 ], [ -47.7278152, -23.5387749 ], [ -47.732012, -23.5414063 ], [ -47.7336269, -23.5433145 ], [ -47.7363416, -23.5439683 ], [ -47.737579, -23.5456949 ], [ -47.7371488, -23.5483296 ], [ -47.7376873, -23.5494986 ], [ -47.745657, -23.5561962 ], [ -47.7472982, -23.5567097 ], [ -47.7501369, -23.5561219 ], [ -47.7539169, -23.5582164 ], [ -47.7574728, -23.5580942 ], [ -47.7599054, -23.5605501 ], [ -47.7605116, -23.560792 ], [ -47.7613422, -23.559773 ], [ -47.7613328, -23.5618751 ], [ -47.7638797, -23.5608033 ], [ -47.7645361, -23.5580625 ], [ -47.7667017, -23.5564286 ], [ -47.7678972, -23.5526912 ], [ -47.7708973, -23.5501589 ], [ -47.7712555, -23.5484511 ], [ -47.7699657, -23.5488592 ], [ -47.76807, -23.5481496 ], [ -47.7688869, -23.5459061 ] ] ] ] } }
]
}
