{
"type": "FeatureCollection",
"name": "ER_REGIAO_Guaratinguetá",
"crs": { "type": "name", "properties": { "name": "urn:ogc:def:crs:EPSG::4674" } },
"xy_coordinate_resolution": 1e-15,
"features": [
{ "type": "Feature", "properties": { "fid": 300, "NM_REGIAO": "Sudeste", "NM_UF": "São Paulo", "NM_MUN": "Guaratinguetá", "NM_DIST": "Guaratinguetá", "CD_SUBDIST": "35184040500", "ER_REGIAO": "Guaratinguetá", "ER_REGIAO_CIDADE": "Guaratinguetá_Guaratinguetá" }, "geometry": { "type": "MultiPolygon", "coordinates": [ [ [ [ -45.2002188, -22.8410807 ], [ -45.2143216, -22.8290338 ], [ -45.2133072, -22.8249374 ], [ -45.2136667, -22.8230306 ], [ -45.2109096, -22.813666 ], [ -45.2117797, -22.8112561 ], [ -45.2136719, -22.8098638 ], [ -45.2181265, -22.8108863 ], [ -45.2172148, -22.8157847 ], [ -45.2205358, -22.8181504 ], [ -45.2226738, -22.8178337 ], [ -45.2266056, -22.8141568 ], [ -45.2303221, -22.8145243 ], [ -45.2328601, -22.8168543 ], [ -45.2336799, -22.8217077 ], [ -45.2374557, -22.8243058 ], [ -45.2403526, -22.8223446 ], [ -45.2408684, -22.8198989 ], [ -45.2418966, -22.8193584 ], [ -45.2435635, -22.8196131 ], [ -45.2476212, -22.8173818 ], [ -45.256607, -22.8162504 ], [ -45.2584267, -22.8189835 ], [ -45.2662215, -22.8229156 ], [ -45.2693509, -22.8262115 ], [ -45.2911872, -22.8265372 ], [ -45.2943634, -22.8282311 ], [ -45.2959993, -22.8247216 ], [ -45.2994132, -22.8242427 ], [ -45.2998179, -22.8231494 ], [ -45.3003832, -22.823541 ], [ -45.301736, -22.8225008 ], [ -45.3021338, -22.8208741 ], [ -45.2975258, -22.8144468 ], [ -45.2989115, -22.8108171 ], [ -45.2979396, -22.8056489 ], [ -45.3010229, -22.8027496 ], [ -45.3059906, -22.8008791 ], [ -45.3115484, -22.7970679 ], [ -45.3160886, -22.7967218 ], [ -45.3215806, -22.7941177 ], [ -45.3292728, -22.7969421 ], [ -45.3319793, -22.7944749 ], [ -45.3336017, -22.7916707 ], [ -45.3351009, -22.7916305 ], [ -45.3386077, -22.7891678 ], [ -45.3423412, -22.7897808 ], [ -45.3439089, -22.7886925 ], [ -45.3453154, -22.7890181 ], [ -45.3475469, -22.7879682 ], [ -45.3502959, -22.7851141 ], [ -45.3711985, -22.7837905 ], [ -45.3811115, -22.7857964 ], [ -45.3873321, -22.7852452 ], [ -45.398779, -22.7820132 ], [ -45.4024749, -22.7766086 ], [ -45.4056226, -22.7663886 ], [ -45.4018927, -22.7551636 ], [ -45.3997741, -22.7520278 ], [ -45.3968477, -22.7496112 ], [ -45.3986203, -22.7463534 ], [ -45.3984207, -22.7450805 ], [ -45.4038757, -22.7401171 ], [ -45.4093021, -22.7373371 ], [ -45.4122988, -22.7337563 ], [ -45.4216023, -22.7310443 ], [ -45.4249644, -22.7266521 ], [ -45.4259476, -22.7234002 ], [ -45.4292065, -22.7200085 ], [ -45.4290954, -22.7185162 ], [ -45.4270211, -22.71683 ], [ -45.4262771, -22.7145927 ], [ -45.4270983, -22.7124763 ], [ -45.4308754, -22.7091631 ], [ -45.4374523, -22.7111725 ], [ -45.4403259, -22.7112274 ], [ -45.4383469, -22.7085949 ], [ -45.4396217, -22.70499 ], [ -45.4388114, -22.7026569 ], [ -45.4265237, -22.6940137 ], [ -45.4251914, -22.69068 ], [ -45.4268836, -22.6870105 ], [ -45.4246502, -22.6851932 ], [ -45.4248001, -22.6820242 ], [ -45.4219558, -22.6780261 ], [ -45.4193458, -22.6763572 ], [ -45.413213, -22.6756559 ], [ -45.4103717, -22.6741645 ], [ -45.4083749, -22.672435 ], [ -45.4054204, -22.6677956 ], [ -45.4027604, -22.6659045 ], [ -45.4009545, -22.6611363 ], [ -45.3999859, -22.6536803 ], [ -45.3978765, -22.6534238 ], [ -45.3933045, -22.6497672 ], [ -45.3864322, -22.6486325 ], [ -45.3842404, -22.6470994 ], [ -45.3812515, -22.6423095 ], [ -45.3753521, -22.6407578 ], [ -45.3724882, -22.6393329 ], [ -45.3705979, -22.6373159 ], [ -45.3693217, -22.6370328 ], [ -45.364984, -22.6393455 ], [ -45.3609582, -22.6387614 ], [ -45.3550759, -22.6340675 ], [ -45.3538607, -22.6305761 ], [ -45.3489536, -22.6265112 ], [ -45.335797, -22.6227518 ], [ -45.332962, -22.6176392 ], [ -45.3275127, -22.616388 ], [ -45.3233261, -22.6165112 ], [ -45.3173271, -22.6143246 ], [ -45.3012657, -22.6156453 ], [ -45.2938527, -22.6136686 ], [ -45.2881811, -22.6153439 ], [ -45.2839556, -22.6151406 ], [ -45.2758652, -22.6169584 ], [ -45.27424, -22.6162385 ], [ -45.2731558, -22.6133685 ], [ -45.2711056, -22.6117784 ], [ -45.2691051, -22.6114457 ], [ -45.2651436, -22.6146302 ], [ -45.2670839, -22.6186202 ], [ -45.2659217, -22.6217254 ], [ -45.2614431, -22.6261062 ], [ -45.2565234, -22.6274338 ], [ -45.2533485, -22.6320369 ], [ -45.2457677, -22.6319216 ], [ -45.241903, -22.6332494 ], [ -45.2365348, -22.6370131 ], [ -45.2332588, -22.6370085 ], [ -45.2329753, -22.6390951 ], [ -45.2311952, -22.6385562 ], [ -45.2290442, -22.6396102 ], [ -45.2263561, -22.6468781 ], [ -45.2263382, -22.6496696 ], [ -45.2245799, -22.6505844 ], [ -45.2237969, -22.6533443 ], [ -45.2206593, -22.6508544 ], [ -45.2170989, -22.6510094 ], [ -45.2158369, -22.6517971 ], [ -45.2148541, -22.6511499 ], [ -45.2106851, -22.6514025 ], [ -45.2069963, -22.6539066 ], [ -45.2057997, -22.6572563 ], [ -45.203713, -22.6557833 ], [ -45.204813, -22.6613598 ], [ -45.2063263, -22.663021 ], [ -45.2057384, -22.6651473 ], [ -45.2038724, -22.6658204 ], [ -45.2014832, -22.6654898 ], [ -45.1993256, -22.6669091 ], [ -45.1927242, -22.6666893 ], [ -45.1894957, -22.6675548 ], [ -45.1912261, -22.6733062 ], [ -45.1954932, -22.6762836 ], [ -45.1969457, -22.679996 ], [ -45.2036183, -22.6873645 ], [ -45.2064239, -22.6884272 ], [ -45.206498, -22.6893814 ], [ -45.2019518, -22.6932355 ], [ -45.1979364, -22.6915193 ], [ -45.1943243, -22.6937153 ], [ -45.1928724, -22.6935215 ], [ -45.1887467, -22.6887686 ], [ -45.1855803, -22.6907174 ], [ -45.1812268, -22.6905146 ], [ -45.1796516, -22.6911764 ], [ -45.1791496, -22.6931245 ], [ -45.1824591, -22.6991449 ], [ -45.1827022, -22.7022531 ], [ -45.1811589, -22.7063913 ], [ -45.1797824, -22.7073692 ], [ -45.1794676, -22.7121081 ], [ -45.1768024, -22.7143176 ], [ -45.1761239, -22.7162767 ], [ -45.173615, -22.717875 ], [ -45.1715909, -22.7230907 ], [ -45.1664522, -22.7234014 ], [ -45.1614098, -22.7293319 ], [ -45.1567014, -22.7332772 ], [ -45.1554482, -22.7348267 ], [ -45.1561737, -22.7381233 ], [ -45.1545684, -22.7404388 ], [ -45.15017, -22.7408126 ], [ -45.1450489, -22.7427487 ], [ -45.147386, -22.7461106 ], [ -45.1509477, -22.747421 ], [ -45.1548385, -22.7501383 ], [ -45.1579389, -22.7587431 ], [ -45.1565854, -22.7596834 ], [ -45.157874, -22.7622078 ], [ -45.154646, -22.7660352 ], [ -45.1482041, -22.766476 ], [ -45.141401, -22.7694662 ], [ -45.1382003, -22.7699463 ], [ -45.1358318, -22.771683 ], [ -45.1335754, -22.7798042 ], [ -45.1335201, -22.7825995 ], [ -45.1353446, -22.7877494 ], [ -45.1344621, -22.790004 ], [ -45.136776, -22.7940231 ], [ -45.1371517, -22.7961329 ], [ -45.1347755, -22.7989534 ], [ -45.1339358, -22.8020001 ], [ -45.1318264, -22.8034348 ], [ -45.1316396, -22.8118481 ], [ -45.1328121, -22.8137977 ], [ -45.1311834, -22.8183436 ], [ -45.1319486, -22.8203308 ], [ -45.1299646, -22.8222146 ], [ -45.1299664, -22.8239063 ], [ -45.1279039, -22.8267806 ], [ -45.1287647, -22.8294545 ], [ -45.1241603, -22.8311255 ], [ -45.1218395, -22.8339756 ], [ -45.1203104, -22.8376726 ], [ -45.1185904, -22.8388258 ], [ -45.1188404, -22.842493 ], [ -45.1214176, -22.843933 ], [ -45.120224, -22.8483012 ], [ -45.1209872, -22.8498227 ], [ -45.1194285, -22.8519537 ], [ -45.1195579, -22.8550761 ], [ -45.1183483, -22.8573141 ], [ -45.116722, -22.8579566 ], [ -45.1154822, -22.8616524 ], [ -45.1124005, -22.8651344 ], [ -45.1115906, -22.8680328 ], [ -45.1095442, -22.8688105 ], [ -45.1079306, -22.8712624 ], [ -45.1043864, -22.8736627 ], [ -45.1035363, -22.8755784 ], [ -45.1015454, -22.8771433 ], [ -45.0986963, -22.8777115 ], [ -45.0946575, -22.8773075 ], [ -45.0917305, -22.8791051 ], [ -45.0859099, -22.8795466 ], [ -45.0828362, -22.8813457 ], [ -45.0798531, -22.8817369 ], [ -45.0790942, -22.8825122 ], [ -45.0792883, -22.8838642 ], [ -45.0817434, -22.8864944 ], [ -45.0804075, -22.8871498 ], [ -45.0771207, -22.8860574 ], [ -45.0750957, -22.8864292 ], [ -45.0734773, -22.882541 ], [ -45.0690048, -22.8814738 ], [ -45.068352, -22.8794095 ], [ -45.066211, -22.877736 ], [ -45.0657558, -22.8751785 ], [ -45.064067, -22.8744802 ], [ -45.0612999, -22.8749869 ], [ -45.0603237, -22.8768647 ], [ -45.0597447, -22.884793 ], [ -45.0621545, -22.8912251 ], [ -45.0603175, -22.8923978 ], [ -45.0592254, -22.8946666 ], [ -45.0580484, -22.8950863 ], [ -45.0528265, -22.891126 ], [ -45.0514463, -22.8930976 ], [ -45.0494753, -22.8935347 ], [ -45.0474581, -22.8970903 ], [ -45.0441894, -22.8976438 ], [ -45.0401174, -22.901833 ], [ -45.0402672, -22.9046885 ], [ -45.0373995, -22.9049634 ], [ -45.0354027, -22.9088359 ], [ -45.0346217, -22.9132652 ], [ -45.0314114, -22.9151977 ], [ -45.029681, -22.9185075 ], [ -45.0292809, -22.9206661 ], [ -45.0327787, -22.9236337 ], [ -45.0343236, -22.9290678 ], [ -45.0386276, -22.9307366 ], [ -45.0413157, -22.9331637 ], [ -45.0501093, -22.9298598 ], [ -45.0552178, -22.9307987 ], [ -45.0561076, -22.9296773 ], [ -45.0576865, -22.9298164 ], [ -45.0597935, -22.9285131 ], [ -45.0630588, -22.9293811 ], [ -45.064848, -22.9321285 ], [ -45.0632786, -22.9333365 ], [ -45.0612005, -22.9334346 ], [ -45.0608055, -22.9353751 ], [ -45.0573716, -22.9365203 ], [ -45.0560922, -22.9384956 ], [ -45.0570845, -22.9412398 ], [ -45.0563842, -22.9445869 ], [ -45.0601938, -22.9482145 ], [ -45.0612202, -22.9531748 ], [ -45.0637286, -22.9549918 ], [ -45.0649139, -22.9576277 ], [ -45.0674726, -22.9578905 ], [ -45.0685677, -22.9611373 ], [ -45.0698106, -22.9616499 ], [ -45.0722422, -22.9609412 ], [ -45.0747608, -22.9621355 ], [ -45.0791142, -22.9626943 ], [ -45.0822025, -22.9645973 ], [ -45.0820221, -22.968227 ], [ -45.0830244, -22.9720095 ], [ -45.0837099, -22.9729467 ], [ -45.0853613, -22.9731498 ], [ -45.0859162, -22.9757353 ], [ -45.0895815, -22.9786114 ], [ -45.0911243, -22.9811526 ], [ -45.090306, -22.9827868 ], [ -45.0903812, -22.9852543 ], [ -45.0926205, -22.987032 ], [ -45.092411, -22.988915 ], [ -45.0936044, -22.9895304 ], [ -45.0941514, -22.9921056 ], [ -45.0949406, -22.992746 ], [ -45.0981328, -22.9920534 ], [ -45.0987633, -22.9909549 ], [ -45.101623, -22.9909609 ], [ -45.1040418, -22.9973162 ], [ -45.10362, -22.9992635 ], [ -45.1049568, -23.0005951 ], [ -45.1068425, -23.0005855 ], [ -45.1074538, -23.0021301 ], [ -45.1109044, -23.0032838 ], [ -45.1107941, -23.0077361 ], [ -45.1158948, -23.0107509 ], [ -45.1182853, -23.0108077 ], [ -45.1229283, -23.0150605 ], [ -45.1245371, -23.0153684 ], [ -45.1270237, -23.0133484 ], [ -45.1281166, -23.0140557 ], [ -45.1299596, -23.0138356 ], [ -45.1292194, -23.011528 ], [ -45.1266267, -23.0097194 ], [ -45.126898, -23.0086285 ], [ -45.1254263, -23.0063743 ], [ -45.1292868, -23.0053144 ], [ -45.1297054, -23.0026396 ], [ -45.1304769, -23.0018747 ], [ -45.1314447, -23.0021809 ], [ -45.1332546, -22.9999083 ], [ -45.1360592, -22.9999671 ], [ -45.1381763, -23.0026618 ], [ -45.1401791, -23.0026528 ], [ -45.1407261, -23.0041715 ], [ -45.1401162, -23.005095 ], [ -45.1413791, -23.0068862 ], [ -45.1430448, -23.0068934 ], [ -45.143431, -23.0098315 ], [ -45.1458222, -23.0116915 ], [ -45.1459594, -23.0128283 ], [ -45.1478232, -23.010597 ], [ -45.1530346, -23.0127287 ], [ -45.153936, -23.0143879 ], [ -45.1559512, -23.0154281 ], [ -45.1576521, -23.0120449 ], [ -45.1589994, -23.0114102 ], [ -45.157328, -23.0098383 ], [ -45.1634846, -23.0086628 ], [ -45.1644623, -23.0056631 ], [ -45.1682738, -23.004852 ], [ -45.1737468, -23.0071685 ], [ -45.1744585, -23.0064322 ], [ -45.1752179, -23.0081605 ], [ -45.1784532, -23.0088667 ], [ -45.1815581, -23.00831 ], [ -45.1846786, -23.0067099 ], [ -45.1851349, -23.0042185 ], [ -45.1863318, -23.0044448 ], [ -45.1870166, -23.0032986 ], [ -45.1915639, -23.0047548 ], [ -45.1914782, -22.9995664 ], [ -45.1938613, -22.9996145 ], [ -45.1956021, -22.9984261 ], [ -45.2010531, -23.0001539 ], [ -45.2022357, -22.9997014 ], [ -45.2072831, -23.002014 ], [ -45.2100095, -23.0014592 ], [ -45.2119356, -23.0027303 ], [ -45.2155226, -23.0019836 ], [ -45.2163431, -22.9995164 ], [ -45.2190693, -23.0003416 ], [ -45.223099, -22.9989929 ], [ -45.2244148, -22.999719 ], [ -45.2256865, -22.9984973 ], [ -45.2296271, -23.0003303 ], [ -45.2346418, -23.0006314 ], [ -45.2338617, -22.995967 ], [ -45.2329155, -22.9934351 ], [ -45.2315219, -22.9922373 ], [ -45.2257027, -22.9922627 ], [ -45.2202377, -22.9907652 ], [ -45.2173335, -22.9911152 ], [ -45.2120569, -22.9884823 ], [ -45.2110812, -22.9821539 ], [ -45.2078741, -22.9827165 ], [ -45.2013638, -22.9791736 ], [ -45.1985273, -22.9791035 ], [ -45.1951047, -22.9773693 ], [ -45.1913324, -22.9720469 ], [ -45.1884215, -22.9698133 ], [ -45.1896225, -22.9659488 ], [ -45.1946219, -22.9668823 ], [ -45.1972742, -22.9646818 ], [ -45.2005068, -22.9633478 ], [ -45.2022124, -22.9606518 ], [ -45.2017783, -22.9564473 ], [ -45.2023674, -22.9550673 ], [ -45.1991709, -22.9525398 ], [ -45.1962178, -22.9464459 ], [ -45.1966926, -22.9450211 ], [ -45.2020426, -22.9418681 ], [ -45.2084494, -22.9444115 ], [ -45.2101902, -22.9439733 ], [ -45.2121385, -22.9419962 ], [ -45.2114769, -22.9402448 ], [ -45.213189, -22.9373035 ], [ -45.2123525, -22.9343209 ], [ -45.2128947, -22.9311049 ], [ -45.2105901, -22.9231258 ], [ -45.2087897, -22.9210916 ], [ -45.207796, -22.9149416 ], [ -45.2086227, -22.9107866 ], [ -45.2133433, -22.9083165 ], [ -45.2138455, -22.9011397 ], [ -45.2099112, -22.8964971 ], [ -45.2103854, -22.8951045 ], [ -45.2084998, -22.8922346 ], [ -45.2090453, -22.8903148 ], [ -45.2117713, -22.8893205 ], [ -45.20934, -22.885458 ], [ -45.2100335, -22.881241 ], [ -45.2085737, -22.8791083 ], [ -45.2080131, -22.8714677 ], [ -45.2065484, -22.8687508 ], [ -45.2069304, -22.8675564 ], [ -45.2080839, -22.8670052 ], [ -45.2083235, -22.8647409 ], [ -45.207788, -22.862958 ], [ -45.2064657, -22.8630584 ], [ -45.2053726, -22.8616847 ], [ -45.2053193, -22.8599184 ], [ -45.2038119, -22.8581306 ], [ -45.2027512, -22.8583967 ], [ -45.2018307, -22.8573745 ], [ -45.1996629, -22.8522262 ], [ -45.2005638, -22.8498646 ], [ -45.1998932, -22.8475325 ], [ -45.2002188, -22.8410807 ] ] ] ] } }
]
}
