{
"type": "FeatureCollection",
"name": "ER_REGIAO_Vargem Grande do Sul",
"crs": { "type": "name", "properties": { "name": "urn:ogc:def:crs:EPSG::4674" } },
"xy_coordinate_resolution": 1e-15,
"features": [
{ "type": "Feature", "properties": { "fid": 1028, "NM_REGIAO": "Sudeste", "NM_UF": "São Paulo", "NM_MUN": "Vargem Grande do Sul", "NM_DIST": "Vargem Grande do Sul", "CD_SUBDIST": "35564040500", "ER_REGIAO": "Vargem Grande do Sul", "ER_REGIAO_CIDADE": "Vargem Grande do Sul_São João da Boa Vista" }, "geometry": { "type": "MultiPolygon", "coordinates": [ [ [ [ -46.7822018, -21.8386579 ], [ -46.7849651, -21.8380543 ], [ -46.789885, -21.8398682 ], [ -46.7923978, -21.8427349 ], [ -46.7946969, -21.8479988 ], [ -46.8002942, -21.8517348 ], [ -46.8038638, -21.8584906 ], [ -46.8072975, -21.8576563 ], [ -46.8144443, -21.8616585 ], [ -46.820736, -21.8636408 ], [ -46.8313573, -21.8618598 ], [ -46.8337473, -21.8628314 ], [ -46.8352879, -21.8648655 ], [ -46.8369605, -21.8656598 ], [ -46.8382863, -21.8686383 ], [ -46.842067, -21.871703 ], [ -46.8424691, -21.8751589 ], [ -46.8437709, -21.8773254 ], [ -46.8496829, -21.8773534 ], [ -46.8498117, -21.8785731 ], [ -46.8513732, -21.8789584 ], [ -46.8526985, -21.8818183 ], [ -46.8563045, -21.883953 ], [ -46.8583091, -21.8841966 ], [ -46.8587807, -21.8853601 ], [ -46.8618345, -21.8841294 ], [ -46.862189, -21.8860494 ], [ -46.8641466, -21.8869806 ], [ -46.8648329, -21.8866231 ], [ -46.8646441, -21.8848961 ], [ -46.8690037, -21.8821903 ], [ -46.8702186, -21.8839695 ], [ -46.8731037, -21.8816877 ], [ -46.8761534, -21.8821329 ], [ -46.8780596, -21.8763286 ], [ -46.8795163, -21.8773779 ], [ -46.8798081, -21.8761673 ], [ -46.8807667, -21.8760773 ], [ -46.8836088, -21.8775312 ], [ -46.8845839, -21.8754877 ], [ -46.8886952, -21.8727932 ], [ -46.8907025, -21.8728166 ], [ -46.8916699, -21.8738505 ], [ -46.8957755, -21.8751348 ], [ -46.8932594, -21.8780356 ], [ -46.8945531, -21.8799095 ], [ -46.8930352, -21.8811578 ], [ -46.8934925, -21.8824995 ], [ -46.8980397, -21.8820369 ], [ -46.8988506, -21.8825229 ], [ -46.8988389, -21.8841409 ], [ -46.9033063, -21.8864116 ], [ -46.9010882, -21.8880164 ], [ -46.8995193, -21.8916805 ], [ -46.9002832, -21.8929877 ], [ -46.8998464, -21.8944558 ], [ -46.9023203, -21.89524 ], [ -46.9032052, -21.8937899 ], [ -46.9039706, -21.8952132 ], [ -46.9026573, -21.8968849 ], [ -46.9035314, -21.8972637 ], [ -46.9056114, -21.8944743 ], [ -46.9072344, -21.896143 ], [ -46.9086777, -21.8955224 ], [ -46.9089178, -21.8979813 ], [ -46.91171, -21.8996054 ], [ -46.9132861, -21.8977525 ], [ -46.914041, -21.9014826 ], [ -46.9155929, -21.9027805 ], [ -46.9151373, -21.9059286 ], [ -46.9178834, -21.9065778 ], [ -46.9169392, -21.9073087 ], [ -46.916365, -21.9096531 ], [ -46.9179261, -21.9079087 ], [ -46.9194158, -21.9095092 ], [ -46.9208752, -21.9082304 ], [ -46.9219591, -21.9086357 ], [ -46.9215138, -21.910073 ], [ -46.9199673, -21.9098047 ], [ -46.9188443, -21.9114356 ], [ -46.9229011, -21.9201044 ], [ -46.9244798, -21.919668 ], [ -46.9254343, -21.9166224 ], [ -46.9264393, -21.9167112 ], [ -46.9286716, -21.9192318 ], [ -46.9344768, -21.92154 ], [ -46.9352079, -21.9228474 ], [ -46.934452, -21.9246134 ], [ -46.9313008, -21.9265625 ], [ -46.9322044, -21.9283555 ], [ -46.9304986, -21.9285923 ], [ -46.9279619, -21.9324383 ], [ -46.9305338, -21.9330506 ], [ -46.9320496, -21.9353899 ], [ -46.931523, -21.9368784 ], [ -46.9302818, -21.937431 ], [ -46.9268406, -21.9363489 ], [ -46.9257543, -21.9450237 ], [ -46.9207096, -21.9445278 ], [ -46.9200864, -21.9434005 ], [ -46.9167942, -21.9445059 ], [ -46.9181474, -21.9507737 ], [ -46.9196533, -21.9506843 ], [ -46.9200495, -21.9516266 ], [ -46.9177577, -21.9542607 ], [ -46.9154381, -21.9555271 ], [ -46.9169458, -21.9580732 ], [ -46.9185007, -21.9583845 ], [ -46.9179267, -21.960056 ], [ -46.9184796, -21.9613456 ], [ -46.9168111, -21.9649412 ], [ -46.9183674, -21.9657019 ], [ -46.9179452, -21.9675309 ], [ -46.9199651, -21.9705837 ], [ -46.922111, -21.9702968 ], [ -46.9234675, -21.9680227 ], [ -46.9248492, -21.9693549 ], [ -46.9277139, -21.9687801 ], [ -46.9287798, -21.9720186 ], [ -46.932227, -21.9710944 ], [ -46.9332763, -21.972581 ], [ -46.934725, -21.9728083 ], [ -46.9334939, -21.9737872 ], [ -46.9373799, -21.9750352 ], [ -46.9378811, -21.9769776 ], [ -46.9397239, -21.9769384 ], [ -46.9399589, -21.9783975 ], [ -46.9410031, -21.9775997 ], [ -46.9413462, -21.9759941 ], [ -46.9428192, -21.9776611 ], [ -46.9439364, -21.9760464 ], [ -46.9452893, -21.9773067 ], [ -46.9466273, -21.9759294 ], [ -46.9475635, -21.9773343 ], [ -46.9488765, -21.9763609 ], [ -46.951619, -21.9781348 ], [ -46.9527481, -21.9767076 ], [ -46.9552191, -21.9789865 ], [ -46.9563324, -21.9776031 ], [ -46.9562704, -21.9799078 ], [ -46.9581806, -21.9786457 ], [ -46.9579518, -21.9810659 ], [ -46.9591881, -21.9804665 ], [ -46.960088, -21.9820782 ], [ -46.9621087, -21.981925 ], [ -46.9633645, -21.9789591 ], [ -46.9650137, -21.9781976 ], [ -46.9645228, -21.9764459 ], [ -46.965903, -21.9774936 ], [ -46.9671622, -21.9760273 ], [ -46.9670236, -21.9745801 ], [ -46.9660382, -21.9738372 ], [ -46.9671061, -21.9715332 ], [ -46.9688634, -21.9710864 ], [ -46.968184, -21.9696625 ], [ -46.9708841, -21.9695798 ], [ -46.9714105, -21.968335 ], [ -46.9723497, -21.9696435 ], [ -46.9736218, -21.9692179 ], [ -46.9744009, -21.9703464 ], [ -46.9750647, -21.9694367 ], [ -46.9739882, -21.9675067 ], [ -46.975987, -21.9683225 ], [ -46.9768602, -21.9671064 ], [ -46.978663, -21.968447 ], [ -46.9797319, -21.9673945 ], [ -46.9821562, -21.9676877 ], [ -46.9852718, -21.9647116 ], [ -46.987494, -21.9638512 ], [ -46.9910455, -21.9541869 ], [ -46.9952546, -21.9498123 ], [ -46.9947999, -21.9472771 ], [ -46.9962211, -21.9448231 ], [ -46.9952732, -21.9441578 ], [ -46.9961955, -21.942607 ], [ -46.9958315, -21.9399804 ], [ -46.9970009, -21.9391766 ], [ -46.9973028, -21.9373525 ], [ -46.9995416, -21.9366551 ], [ -46.9985386, -21.9351593 ], [ -46.9986659, -21.9330637 ], [ -47.0023426, -21.9290317 ], [ -47.0010609, -21.9272124 ], [ -47.0013448, -21.9248657 ], [ -47.0018258, -21.9232791 ], [ -47.0034191, -21.921929 ], [ -47.0042102, -21.9192534 ], [ -47.0003716, -21.9151289 ], [ -47.0002541, -21.9126879 ], [ -47.0026708, -21.9104286 ], [ -47.0027761, -21.9093103 ], [ -47.0024412, -21.9078625 ], [ -47.0002633, -21.9056739 ], [ -46.9993374, -21.9008732 ], [ -46.9942574, -21.8960567 ], [ -46.9939924, -21.8925963 ], [ -46.9948816, -21.8890248 ], [ -46.994167, -21.8777506 ], [ -46.9919286, -21.8763679 ], [ -46.9864729, -21.8762224 ], [ -46.9837452, -21.8728958 ], [ -46.9822784, -21.8696307 ], [ -46.9866221, -21.8557215 ], [ -46.988194, -21.8475423 ], [ -46.978067, -21.8457397 ], [ -46.9750441, -21.8438593 ], [ -46.9706292, -21.8389352 ], [ -46.9606688, -21.8346086 ], [ -46.9604826, -21.8285892 ], [ -46.9626861, -21.8205972 ], [ -46.9626714, -21.8167169 ], [ -46.9606893, -21.8150957 ], [ -46.9518927, -21.81778 ], [ -46.9485298, -21.8202248 ], [ -46.9415292, -21.8189101 ], [ -46.939095, -21.8194116 ], [ -46.9390992, -21.8186403 ], [ -46.9369411, -21.8186818 ], [ -46.9335319, -21.8168372 ], [ -46.9237407, -21.8147776 ], [ -46.9222961, -21.8133868 ], [ -46.9212532, -21.8080991 ], [ -46.9149001, -21.8037967 ], [ -46.9077481, -21.8004425 ], [ -46.9060452, -21.7960419 ], [ -46.9013757, -21.7932363 ], [ -46.8990118, -21.7898735 ], [ -46.8966246, -21.7887611 ], [ -46.8964939, -21.7863172 ], [ -46.8954721, -21.7851186 ], [ -46.8864613, -21.7843381 ], [ -46.884191, -21.7836867 ], [ -46.8835518, -21.7824742 ], [ -46.8791391, -21.7868727 ], [ -46.8721437, -21.784001 ], [ -46.8672382, -21.7793668 ], [ -46.8586675, -21.7789263 ], [ -46.8546166, -21.7798407 ], [ -46.8542211, -21.7781606 ], [ -46.855116, -21.7755463 ], [ -46.8467899, -21.7725142 ], [ -46.8474026, -21.7677747 ], [ -46.8431461, -21.7611296 ], [ -46.8430463, -21.7586846 ], [ -46.8410235, -21.757986 ], [ -46.8334947, -21.7601998 ], [ -46.8301419, -21.7549504 ], [ -46.82856, -21.7539133 ], [ -46.8234714, -21.7588134 ], [ -46.8187921, -21.7591783 ], [ -46.8164588, -21.7607999 ], [ -46.8187916, -21.7614133 ], [ -46.8193302, -21.7626829 ], [ -46.8188308, -21.766089 ], [ -46.8200977, -21.7683724 ], [ -46.8193471, -21.7701234 ], [ -46.8205661, -21.7710066 ], [ -46.8204894, -21.7720162 ], [ -46.8181972, -21.7774165 ], [ -46.8135433, -21.7833289 ], [ -46.8108288, -21.7828129 ], [ -46.8111304, -21.783864 ], [ -46.8095562, -21.7846212 ], [ -46.8099985, -21.7853183 ], [ -46.8079732, -21.7842025 ], [ -46.8058999, -21.7847594 ], [ -46.8054236, -21.7862078 ], [ -46.8037917, -21.7862611 ], [ -46.804453, -21.7875128 ], [ -46.8029539, -21.7899164 ], [ -46.8045796, -21.7923995 ], [ -46.8013377, -21.7950572 ], [ -46.8019162, -21.7965298 ], [ -46.799124, -21.796381 ], [ -46.7972585, -21.7973813 ], [ -46.7955419, -21.8009104 ], [ -46.7933475, -21.8026166 ], [ -46.7932813, -21.8042416 ], [ -46.7883631, -21.8053195 ], [ -46.7852677, -21.8098607 ], [ -46.7818186, -21.8126552 ], [ -46.7803975, -21.8129392 ], [ -46.7798152, -21.8152503 ], [ -46.7736523, -21.8172873 ], [ -46.7724121, -21.8168643 ], [ -46.7720072, -21.817864 ], [ -46.7703738, -21.8185921 ], [ -46.7715876, -21.8246411 ], [ -46.7700573, -21.8262976 ], [ -46.7671603, -21.8257189 ], [ -46.7652519, -21.827806 ], [ -46.7610827, -21.8300953 ], [ -46.7562118, -21.8301756 ], [ -46.7528029, -21.8319035 ], [ -46.750515, -21.8341713 ], [ -46.7558794, -21.8368558 ], [ -46.7573286, -21.8388917 ], [ -46.7586148, -21.8420258 ], [ -46.7579451, -21.8469889 ], [ -46.7585467, -21.847482 ], [ -46.7612238, -21.8472846 ], [ -46.7666415, -21.845232 ], [ -46.7742196, -21.8477208 ], [ -46.7810336, -21.8433472 ], [ -46.7822018, -21.8386579 ] ] ] ] } }
]
}
