{
"type": "FeatureCollection",
"name": "ER_REGIAO_Ibiúna_Paruru",
"crs": { "type": "name", "properties": { "name": "urn:ogc:def:crs:EPSG::4674" } },
"xy_coordinate_resolution": 1e-15,
"features": [
{ "type": "Feature", "properties": { "fid": 324, "NM_REGIAO": "Sudeste", "NM_UF": "São Paulo", "NM_MUN": "Ibiúna", "NM_DIST": "Paruru", "CD_SUBDIST": "35197091000", "ER_REGIAO": "Ibiúna_Paruru", "ER_REGIAO_CIDADE": "Ibiúna_Paruru_Sorocaba" }, "geometry": { "type": "MultiPolygon", "coordinates": [ [ [ [ -47.298893899999939, -23.748376899999982 ], [ -47.300588399999981, -23.746015399999976 ], [ -47.303012799999976, -23.745632799999953 ], [ -47.306239499999947, -23.742132899999945 ], [ -47.307577299999934, -23.736040599999967 ], [ -47.31110949999993, -23.731895799999961 ], [ -47.314025, -23.73081609999997 ], [ -47.318697499999985, -23.732177299999933 ], [ -47.32107689999998, -23.730309499999976 ], [ -47.321486, -23.728244699999948 ], [ -47.32027979999998, -23.724380399999973 ], [ -47.324514, -23.720891799999947 ], [ -47.32769559999997, -23.71171279999993 ], [ -47.332182699999976, -23.712679099999946 ], [ -47.340183799999977, -23.71196139999995 ], [ -47.346271799999954, -23.704684899999961 ], [ -47.348460599999953, -23.70085169999993 ], [ -47.359075699999948, -23.665500099999974 ], [ -47.35659389999995, -23.659697799999947 ], [ -47.357259599999963, -23.654739699999936 ], [ -47.361738, -23.646859499999948 ], [ -47.365991699999938, -23.643094899999937 ], [ -47.368573399999946, -23.638378199999977 ], [ -47.368432, -23.633766699999967 ], [ -47.365414699999974, -23.633076599999981 ], [ -47.361958499999957, -23.629373899999962 ], [ -47.360629099999983, -23.62483949999995 ], [ -47.359039899999971, -23.622456599999964 ], [ -47.352169699999934, -23.618665799999974 ], [ -47.345401299999935, -23.616610199999968 ], [ -47.337107199999934, -23.61156909999994 ], [ -47.335720499999979, -23.611447 ], [ -47.335232799999972, -23.614114299999983 ], [ -47.334081399999945, -23.615268599999979 ], [ -47.328796299999965, -23.617692199999965 ], [ -47.327134099999967, -23.620575299999928 ], [ -47.32664479999994, -23.623733199999947 ], [ -47.327643, -23.625195 ], [ -47.333891, -23.628262 ], [ -47.334731, -23.631319 ], [ -47.333579, -23.633257 ], [ -47.329662, -23.634776 ], [ -47.330146, -23.640204 ], [ -47.329282, -23.641856 ], [ -47.322851, -23.648033 ], [ -47.314174, -23.650789 ], [ -47.313892, -23.65424 ], [ -47.310385699999983, -23.657222399999966 ], [ -47.308844499999964, -23.660210099999972 ], [ -47.298473, -23.659892 ], [ -47.296122, -23.660855 ], [ -47.294233, -23.663882 ], [ -47.292016, -23.665308 ], [ -47.289497, -23.670475 ], [ -47.284295, -23.672674 ], [ -47.281399, -23.678814 ], [ -47.280141, -23.68551 ], [ -47.280745, -23.688693 ], [ -47.278662, -23.692234 ], [ -47.27781, -23.702814 ], [ -47.280089, -23.705007 ], [ -47.286227, -23.707025 ], [ -47.287705799999969, -23.712222699999927 ], [ -47.290300899999977, -23.714836199999979 ], [ -47.289502299999981, -23.717878299999938 ], [ -47.290886, -23.720983 ], [ -47.288246, -23.722932 ], [ -47.287694599999952, -23.724199 ], [ -47.291287, -23.730027 ], [ -47.289538, -23.734913 ], [ -47.290503, -23.743614 ], [ -47.294537, -23.748215 ], [ -47.297374, -23.747751 ], [ -47.298893899999939, -23.748376899999982 ] ] ] ] } }
]
}
