{
"type": "FeatureCollection",
"name": "ER_REGIAO_Valentim Gentil",
"crs": { "type": "name", "properties": { "name": "urn:ogc:def:crs:EPSG::4674" } },
"xy_coordinate_resolution": 1e-15,
"features": [
{ "type": "Feature", "properties": { "fid": 1024, "NM_REGIAO": "Sudeste", "NM_UF": "São Paulo", "NM_MUN": "Valentim Gentil", "NM_DIST": "Valentim Gentil", "CD_SUBDIST": "35561070500", "ER_REGIAO": "Valentim Gentil", "ER_REGIAO_CIDADE": "Valentim Gentil_Votuporanga" }, "geometry": { "type": "MultiPolygon", "coordinates": [ [ [ [ -50.0922148, -20.37467 ], [ -50.0892212, -20.3655942 ], [ -50.0896452, -20.3624243 ], [ -50.0862865, -20.3531183 ], [ -50.0848692, -20.3510855 ], [ -50.0846184, -20.344465 ], [ -50.0827506, -20.3411643 ], [ -50.0832302, -20.3375165 ], [ -50.0815335, -20.3346506 ], [ -50.0819741, -20.3322856 ], [ -50.0844929, -20.328342 ], [ -50.0823313, -20.3211547 ], [ -50.0801959, -20.3178911 ], [ -50.081306, -20.3141659 ], [ -50.0812825, -20.3083921 ], [ -50.0777527, -20.3045198 ], [ -50.072629, -20.3103957 ], [ -50.0692161, -20.3115861 ], [ -50.0678033, -20.3162096 ], [ -50.0648333, -20.3191906 ], [ -50.059408, -20.3311372 ], [ -50.0532316, -20.3362213 ], [ -50.0543017, -20.3367722 ], [ -50.055569, -20.3423387 ], [ -50.055463, -20.3539267 ], [ -50.0503069, -20.3634344 ], [ -50.047246, -20.3655707 ], [ -50.0415762, -20.3722467 ], [ -50.0379763, -20.3800764 ], [ -50.0368212, -20.389565 ], [ -50.0377237, -20.3942523 ], [ -50.0394958, -20.3982137 ], [ -50.0387006, -20.4193838 ], [ -50.0322251, -20.4255183 ], [ -50.0323107, -20.4270746 ], [ -50.0347226, -20.4310199 ], [ -50.0403465, -20.4326128 ], [ -50.0431243, -20.4358676 ], [ -50.0429225, -20.4397021 ], [ -50.0446363, -20.4434177 ], [ -50.0526219, -20.4499531 ], [ -50.0566019, -20.450699 ], [ -50.064658, -20.4504475 ], [ -50.0718393, -20.4536781 ], [ -50.0737715, -20.4559962 ], [ -50.0790548, -20.4564794 ], [ -50.0878345, -20.4613446 ], [ -50.0926948, -20.4691503 ], [ -50.0949248, -20.4711578 ], [ -50.1010285, -20.4731538 ], [ -50.1074131, -20.4730676 ], [ -50.113204, -20.4758821 ], [ -50.1188611, -20.475718 ], [ -50.1256464, -20.4770891 ], [ -50.1311356, -20.4791453 ], [ -50.1344827, -20.4838841 ], [ -50.1370503, -20.4849212 ], [ -50.1386464, -20.4881892 ], [ -50.1410862, -20.4902731 ], [ -50.1461939, -20.4918497 ], [ -50.1511925, -20.4955708 ], [ -50.1543265, -20.4997799 ], [ -50.1538442, -20.5019658 ], [ -50.1546736, -20.5037344 ], [ -50.1543785, -20.5049154 ], [ -50.1570661, -20.5029631 ], [ -50.1593676, -20.5048748 ], [ -50.1606881, -20.5131267 ], [ -50.1680967, -20.5130235 ], [ -50.1691361, -20.5119539 ], [ -50.1662279, -20.5073932 ], [ -50.1663136, -20.5035287 ], [ -50.1678074, -20.500822 ], [ -50.1709295, -20.4987682 ], [ -50.1724802, -20.4989291 ], [ -50.1749058, -20.5008924 ], [ -50.1768831, -20.4996226 ], [ -50.1776237, -20.4975135 ], [ -50.1767621, -20.4961425 ], [ -50.1768319, -20.4923083 ], [ -50.1789284, -20.4914306 ], [ -50.1839099, -20.4912275 ], [ -50.1860125, -20.4882476 ], [ -50.1881661, -20.4902971 ], [ -50.1897776, -20.4904867 ], [ -50.190843, -20.4887234 ], [ -50.1904598, -20.4848693 ], [ -50.1918237, -20.4836549 ], [ -50.1962443, -20.4853713 ], [ -50.1976183, -20.4866861 ], [ -50.2014206, -20.486477 ], [ -50.2023371, -20.4854156 ], [ -50.2028744, -20.4813521 ], [ -50.199105, -20.47825 ], [ -50.1955549, -20.4791798 ], [ -50.194094, -20.4785094 ], [ -50.1926283, -20.4737225 ], [ -50.1934042, -20.4718476 ], [ -50.1921625, -20.4702235 ], [ -50.1843677, -20.4688427 ], [ -50.1802095, -20.4637803 ], [ -50.1803516, -20.4615472 ], [ -50.1764961, -20.4602133 ], [ -50.1698467, -20.4563293 ], [ -50.1660758, -20.4522836 ], [ -50.1599965, -20.4519129 ], [ -50.1532787, -20.4532526 ], [ -50.1507189, -20.4497651 ], [ -50.1501316, -20.4484834 ], [ -50.1504343, -20.445032 ], [ -50.1490013, -20.4394963 ], [ -50.1439645, -20.4338359 ], [ -50.1438096, -20.4325566 ], [ -50.1370253, -20.4269196 ], [ -50.1356894, -20.4235402 ], [ -50.1403535, -20.413979 ], [ -50.1385296, -20.4067944 ], [ -50.1396102, -20.4007029 ], [ -50.1392166, -20.3967148 ], [ -50.1408201, -20.3920381 ], [ -50.1417857, -20.3843967 ], [ -50.1383864, -20.3871466 ], [ -50.1241241, -20.3855812 ], [ -50.1174746, -20.3814346 ], [ -50.1104896, -20.3789448 ], [ -50.107807, -20.3761254 ], [ -50.1044323, -20.3744359 ], [ -50.0969067, -20.3735377 ], [ -50.0922148, -20.37467 ] ] ] ] } }
]
}
