{
"type": "FeatureCollection",
"name": "ER_REGIAO_Monte Azul Paulista_Marcondésia",
"crs": { "type": "name", "properties": { "name": "urn:ogc:def:crs:EPSG::4674" } },
"xy_coordinate_resolution": 1e-15,
"features": [
{ "type": "Feature", "properties": { "fid": 531, "NM_REGIAO": "Sudeste", "NM_UF": "São Paulo", "NM_MUN": "Monte Azul Paulista", "NM_DIST": "Marcondésia", "CD_SUBDIST": "35315061000", "ER_REGIAO": "Monte Azul Paulista_Marcondésia", "ER_REGIAO_CIDADE": "Monte Azul Paulista_Marcondésia_Barretos" }, "geometry": { "type": "MultiPolygon", "coordinates": [ [ [ [ -48.7441101, -20.8674995 ], [ -48.7491349, -20.8581363 ], [ -48.7499012, -20.8542106 ], [ -48.749344, -20.8500005 ], [ -48.7442433, -20.8425642 ], [ -48.7469856, -20.8335668 ], [ -48.746752, -20.8300282 ], [ -48.7392222, -20.8218327 ], [ -48.7347445, -20.8206339 ], [ -48.7279897, -20.8208907 ], [ -48.7225867, -20.8149189 ], [ -48.7194019, -20.812958 ], [ -48.7143927, -20.8195703 ], [ -48.7130886, -20.8227952 ], [ -48.7099667, -20.8250716 ], [ -48.7053887, -20.8264091 ], [ -48.7035205, -20.8279596 ], [ -48.7020912, -20.8327384 ], [ -48.697465, -20.8369113 ], [ -48.6881943, -20.8412761 ], [ -48.6842333, -20.8459271 ], [ -48.6837949, -20.8477547 ], [ -48.6816683, -20.8483839 ], [ -48.682331, -20.8574579 ], [ -48.6847161, -20.8630281 ], [ -48.6842261, -20.8685552 ], [ -48.6851262, -20.8712777 ], [ -48.6872959, -20.8731716 ], [ -48.6888774, -20.8762329 ], [ -48.6860829, -20.8824027 ], [ -48.6868604, -20.8877026 ], [ -48.6888382, -20.891881 ], [ -48.689444, -20.8996244 ], [ -48.6886244, -20.9017012 ], [ -48.6921239, -20.9048409 ], [ -48.6982503, -20.90732 ], [ -48.7005343, -20.9094803 ], [ -48.703014, -20.9152065 ], [ -48.7063384, -20.9188826 ], [ -48.7108977, -20.9269373 ], [ -48.7122363, -20.9329884 ], [ -48.7107588, -20.9344103 ], [ -48.7108304, -20.935872 ], [ -48.7154591, -20.9385808 ], [ -48.7196943, -20.9381785 ], [ -48.7215315, -20.9386727 ], [ -48.722296, -20.9399117 ], [ -48.7262422, -20.9390834 ], [ -48.725042, -20.9413207 ], [ -48.7241582, -20.9513063 ], [ -48.7286428, -20.9556149 ], [ -48.7294961, -20.96082 ], [ -48.7324557, -20.9629514 ], [ -48.7357109, -20.9640348 ], [ -48.7370614, -20.9640148 ], [ -48.7376329, -20.9629619 ], [ -48.7402108, -20.9631043 ], [ -48.7416125, -20.9656263 ], [ -48.7434168, -20.9669335 ], [ -48.7453295, -20.966219 ], [ -48.7453385, -20.9642469 ], [ -48.7469496, -20.9617798 ], [ -48.7433108, -20.9581397 ], [ -48.7440241, -20.9556319 ], [ -48.748231, -20.9551827 ], [ -48.7491921, -20.9540702 ], [ -48.7509866, -20.9542165 ], [ -48.7528266, -20.9532267 ], [ -48.7548985, -20.9510311 ], [ -48.7592362, -20.9484989 ], [ -48.7585245, -20.9465926 ], [ -48.7589803, -20.9461284 ], [ -48.759814, -20.9469643 ], [ -48.7603131, -20.9449573 ], [ -48.7610496, -20.9456569 ], [ -48.7622839, -20.9452706 ], [ -48.7658825, -20.9502392 ], [ -48.7685318, -20.9501329 ], [ -48.770373, -20.9469018 ], [ -48.7750539, -20.9454682 ], [ -48.7746778, -20.9427303 ], [ -48.7756776, -20.9428058 ], [ -48.7757489, -20.9410045 ], [ -48.7777474, -20.9405738 ], [ -48.777196, -20.9391425 ], [ -48.7796485, -20.9387662 ], [ -48.7822746, -20.937022 ], [ -48.7833425, -20.9374858 ], [ -48.7831123, -20.9363587 ], [ -48.7856435, -20.9340209 ], [ -48.7809948, -20.9307746 ], [ -48.77238, -20.9264664 ], [ -48.7694295, -20.9233321 ], [ -48.7658796, -20.9173567 ], [ -48.7598085, -20.914163 ], [ -48.7566194, -20.9071208 ], [ -48.7525318, -20.9032672 ], [ -48.7505528, -20.9022424 ], [ -48.7485706, -20.9046703 ], [ -48.7461838, -20.9042235 ], [ -48.7440866, -20.894043 ], [ -48.7470966, -20.8898415 ], [ -48.7512031, -20.8867622 ], [ -48.7546227, -20.8775334 ], [ -48.7536592, -20.8757951 ], [ -48.7488602, -20.8736423 ], [ -48.7449548, -20.8697196 ], [ -48.7441101, -20.8674995 ] ] ] ] } }
]
}
