{
"type": "FeatureCollection",
"name": "ER_REGIAO_Itapira_Itapira",
"crs": { "type": "name", "properties": { "name": "urn:ogc:def:crs:EPSG::4674" } },
"xy_coordinate_resolution": 1e-15,
"features": [
{ "type": "Feature", "properties": { "fid": 374, "NM_REGIAO": "Sudeste", "NM_UF": "São Paulo", "NM_MUN": "Itapira", "NM_DIST": "Itapira", "CD_SUBDIST": "35226040500", "ER_REGIAO": "Itapira_Itapira", "ER_REGIAO_CIDADE": "Itapira_Itapira_Campinas" }, "geometry": { "type": "MultiPolygon", "coordinates": [ [ [ [ -46.7386665, -22.4267487 ], [ -46.7355538, -22.4275999 ], [ -46.7344348, -22.4307536 ], [ -46.7327877, -22.432122 ], [ -46.7267231, -22.4308037 ], [ -46.7234293, -22.4327035 ], [ -46.7199052, -22.4312599 ], [ -46.7159801, -22.4342634 ], [ -46.7119104, -22.4331852 ], [ -46.7087021, -22.4283828 ], [ -46.7048403, -22.4278647 ], [ -46.6977419, -22.4307702 ], [ -46.6953151, -22.4348441 ], [ -46.6913684, -22.4362666 ], [ -46.6905412, -22.4352239 ], [ -46.6905892, -22.4326828 ], [ -46.6895787, -22.4317227 ], [ -46.6860114, -22.4323741 ], [ -46.6787925, -22.431162 ], [ -46.6754437, -22.4292254 ], [ -46.6715824, -22.4244779 ], [ -46.668305, -22.4226019 ], [ -46.6677791, -22.4202026 ], [ -46.6684839, -22.4145551 ], [ -46.6679163, -22.413697 ], [ -46.6668258, -22.4137789 ], [ -46.6664003, -22.4152447 ], [ -46.6605093, -22.4196447 ], [ -46.6579543, -22.4201291 ], [ -46.655111, -22.4227021 ], [ -46.6507566, -22.423466 ], [ -46.6495875, -22.4268866 ], [ -46.6470315, -22.4288386 ], [ -46.645973, -22.4288823 ], [ -46.6403708, -22.4253133 ], [ -46.6369547, -22.4310111 ], [ -46.6316074, -22.4358357 ], [ -46.6235142, -22.4377273 ], [ -46.6183141, -22.4369875 ], [ -46.6163028, -22.4386342 ], [ -46.6177665, -22.4420528 ], [ -46.621402, -22.4450916 ], [ -46.6251942, -22.4467792 ], [ -46.6281407, -22.4514762 ], [ -46.6374525, -22.4604848 ], [ -46.6392584, -22.4609877 ], [ -46.6425664, -22.4602614 ], [ -46.6445467, -22.4650124 ], [ -46.6483655, -22.4668157 ], [ -46.6535738, -22.4714228 ], [ -46.6563821, -22.4714817 ], [ -46.6582591, -22.4731081 ], [ -46.6614722, -22.4730559 ], [ -46.6647612, -22.4759977 ], [ -46.6688027, -22.4735856 ], [ -46.6729396, -22.4761696 ], [ -46.6763428, -22.4770146 ], [ -46.6812498, -22.4739948 ], [ -46.6856318, -22.4756469 ], [ -46.6883051, -22.4755743 ], [ -46.6928331, -22.4788121 ], [ -46.6933582, -22.4802193 ], [ -46.6904664, -22.4852579 ], [ -46.6881581, -22.4872046 ], [ -46.6882586, -22.4899987 ], [ -46.6959641, -22.4947777 ], [ -46.6986681, -22.4954956 ], [ -46.7011465, -22.4944211 ], [ -46.7052043, -22.4947994 ], [ -46.7058526, -22.4952174 ], [ -46.705691, -22.4969358 ], [ -46.7074686, -22.4960883 ], [ -46.7090139, -22.4978745 ], [ -46.7105417, -22.4982224 ], [ -46.7117898, -22.499927 ], [ -46.7125907, -22.5037296 ], [ -46.715442, -22.5048688 ], [ -46.7162914, -22.5080872 ], [ -46.7192788, -22.5107831 ], [ -46.7198518, -22.5142055 ], [ -46.7217359, -22.516033 ], [ -46.7223707, -22.5212387 ], [ -46.7203722, -22.5264805 ], [ -46.7206202, -22.5283485 ], [ -46.7236384, -22.5308205 ], [ -46.728586, -22.5312124 ], [ -46.7329746, -22.5343338 ], [ -46.7343914, -22.5399438 ], [ -46.7338825, -22.5427718 ], [ -46.7358862, -22.5442203 ], [ -46.7378251, -22.548364 ], [ -46.7443532, -22.5504033 ], [ -46.7462713, -22.5476132 ], [ -46.7518436, -22.5492448 ], [ -46.7603189, -22.5469546 ], [ -46.763222, -22.5446581 ], [ -46.7615574, -22.5420632 ], [ -46.7658966, -22.5418908 ], [ -46.7672774, -22.5408184 ], [ -46.7687286, -22.53777 ], [ -46.7709525, -22.5362081 ], [ -46.7930033, -22.5383514 ], [ -46.7972176, -22.5405128 ], [ -46.7976692, -22.5431819 ], [ -46.8018548, -22.5475609 ], [ -46.803971, -22.5476308 ], [ -46.80904, -22.5450345 ], [ -46.8101187, -22.5455512 ], [ -46.8108158, -22.5487809 ], [ -46.8126943, -22.5505212 ], [ -46.8184734, -22.5528693 ], [ -46.8200945, -22.5612426 ], [ -46.8259131, -22.5687946 ], [ -46.8277156, -22.5745286 ], [ -46.8332804, -22.5793734 ], [ -46.8345755, -22.5795745 ], [ -46.8364681, -22.5783167 ], [ -46.8381055, -22.5790305 ], [ -46.8443012, -22.5788765 ], [ -46.8480942, -22.5805827 ], [ -46.8546318, -22.5800124 ], [ -46.8593074, -22.5817647 ], [ -46.861905, -22.5849392 ], [ -46.8644301, -22.5861679 ], [ -46.8676997, -22.585521 ], [ -46.8726829, -22.5805966 ], [ -46.8805512, -22.5835686 ], [ -46.8816112, -22.5805993 ], [ -46.881098, -22.5792781 ], [ -46.8774216, -22.5767056 ], [ -46.8756078, -22.574146 ], [ -46.8752969, -22.5622989 ], [ -46.8738171, -22.5581743 ], [ -46.8732403, -22.5496636 ], [ -46.8694755, -22.5453486 ], [ -46.8717701, -22.5425847 ], [ -46.8724889, -22.5368596 ], [ -46.872018, -22.5331028 ], [ -46.8686768, -22.5260547 ], [ -46.8701035, -22.5218255 ], [ -46.8701936, -22.518229 ], [ -46.8687823, -22.5161228 ], [ -46.8647793, -22.5128733 ], [ -46.8628152, -22.509507 ], [ -46.8635542, -22.5058763 ], [ -46.8667149, -22.5015843 ], [ -46.8671551, -22.4941747 ], [ -46.8727204, -22.4878382 ], [ -46.876631, -22.4861438 ], [ -46.8790816, -22.4838166 ], [ -46.8786884, -22.4817373 ], [ -46.8756393, -22.4768992 ], [ -46.8760887, -22.4741564 ], [ -46.8778926, -22.472275 ], [ -46.8797707, -22.4725272 ], [ -46.881417, -22.4670456 ], [ -46.8846385, -22.4655128 ], [ -46.8707081, -22.4493006 ], [ -46.8656323, -22.4476893 ], [ -46.864014, -22.4453999 ], [ -46.8659005, -22.4401455 ], [ -46.870717, -22.4333357 ], [ -46.8710657, -22.4292719 ], [ -46.8701518, -22.4274284 ], [ -46.866274, -22.4252465 ], [ -46.8623496, -22.4207545 ], [ -46.8618094, -22.4191932 ], [ -46.8625877, -22.4164398 ], [ -46.866108, -22.4144254 ], [ -46.8663195, -22.4133355 ], [ -46.8651984, -22.4099634 ], [ -46.860954, -22.4057061 ], [ -46.8601891, -22.4031822 ], [ -46.8602463, -22.3979211 ], [ -46.8614164, -22.3944241 ], [ -46.8631356, -22.3937164 ], [ -46.8663251, -22.3946143 ], [ -46.8678732, -22.3919718 ], [ -46.8707402, -22.3900354 ], [ -46.8721618, -22.3881318 ], [ -46.8707747, -22.3885093 ], [ -46.8709241, -22.3866927 ], [ -46.8747007, -22.3843048 ], [ -46.8749128, -22.3826491 ], [ -46.8745422, -22.3812085 ], [ -46.8736241, -22.3812554 ], [ -46.8722734, -22.3839597 ], [ -46.8705542, -22.3837981 ], [ -46.8700335, -22.382879 ], [ -46.870491, -22.3804383 ], [ -46.8718358, -22.378913 ], [ -46.8758448, -22.3779425 ], [ -46.872916, -22.3748623 ], [ -46.868351, -22.3738981 ], [ -46.86887, -22.3703681 ], [ -46.8675936, -22.368357 ], [ -46.8604967, -22.3675826 ], [ -46.8600577, -22.3663052 ], [ -46.8626691, -22.3658377 ], [ -46.8626175, -22.3649661 ], [ -46.8602811, -22.3640132 ], [ -46.8621925, -22.3623529 ], [ -46.8604524, -22.3610113 ], [ -46.8604931, -22.3595519 ], [ -46.8584408, -22.3577026 ], [ -46.8579853, -22.3558371 ], [ -46.8562852, -22.3571106 ], [ -46.8505788, -22.3542694 ], [ -46.850077, -22.3518495 ], [ -46.852351, -22.3493898 ], [ -46.8550084, -22.3496321 ], [ -46.8551498, -22.348522 ], [ -46.8519945, -22.3475655 ], [ -46.8462693, -22.3472784 ], [ -46.8432434, -22.3502204 ], [ -46.8412381, -22.3472532 ], [ -46.8416355, -22.3447947 ], [ -46.8445834, -22.3432188 ], [ -46.8426885, -22.3400876 ], [ -46.8318713, -22.3343319 ], [ -46.8269388, -22.3363861 ], [ -46.8248694, -22.3363552 ], [ -46.8243464, -22.3349986 ], [ -46.8258544, -22.3325828 ], [ -46.8237885, -22.3313532 ], [ -46.8231945, -22.3284283 ], [ -46.8197674, -22.3243783 ], [ -46.8169647, -22.3236649 ], [ -46.8164279, -22.3223328 ], [ -46.8174443, -22.3200473 ], [ -46.8159963, -22.320032 ], [ -46.81211, -22.3221354 ], [ -46.8118775, -22.3246701 ], [ -46.8060314, -22.3268962 ], [ -46.8034075, -22.3289913 ], [ -46.8014483, -22.3281838 ], [ -46.7986243, -22.3289391 ], [ -46.7953183, -22.3285066 ], [ -46.7945036, -22.3275709 ], [ -46.7899474, -22.3273004 ], [ -46.786289, -22.3285161 ], [ -46.7842317, -22.3284807 ], [ -46.7836163, -22.3272637 ], [ -46.7825233, -22.3281232 ], [ -46.7796082, -22.3284754 ], [ -46.7777191, -22.3275181 ], [ -46.7763881, -22.327812 ], [ -46.7757235, -22.3261573 ], [ -46.7715797, -22.3235735 ], [ -46.7700087, -22.3242618 ], [ -46.7676499, -22.3270432 ], [ -46.764998, -22.3278675 ], [ -46.7610176, -22.3277073 ], [ -46.7592313, -22.3267125 ], [ -46.7536789, -22.3283105 ], [ -46.7515707, -22.3317456 ], [ -46.7520268, -22.3375575 ], [ -46.7554615, -22.339031 ], [ -46.7566107, -22.3405941 ], [ -46.762143, -22.3424399 ], [ -46.7631288, -22.3484837 ], [ -46.7656198, -22.3500014 ], [ -46.7679873, -22.350172 ], [ -46.7695477, -22.35481 ], [ -46.7724835, -22.3584566 ], [ -46.7717383, -22.3638274 ], [ -46.7677552, -22.3683172 ], [ -46.7677831, -22.3732068 ], [ -46.7704086, -22.3770292 ], [ -46.7733434, -22.3786402 ], [ -46.7734354, -22.3812401 ], [ -46.7717914, -22.381118 ], [ -46.7709515, -22.3833076 ], [ -46.7738374, -22.3840973 ], [ -46.7717053, -22.3851885 ], [ -46.7734569, -22.3857485 ], [ -46.7722939, -22.3876724 ], [ -46.77434, -22.3888283 ], [ -46.7747563, -22.3918937 ], [ -46.7730047, -22.3955119 ], [ -46.7724447, -22.3951889 ], [ -46.773378, -22.3942556 ], [ -46.7724734, -22.3937674 ], [ -46.7725308, -22.3914486 ], [ -46.7717986, -22.3926116 ], [ -46.7697011, -22.3927445 ], [ -46.771375, -22.3943776 ], [ -46.76925, -22.3944853 ], [ -46.7693362, -22.3971272 ], [ -46.7680799, -22.3972349 ], [ -46.7687834, -22.3959929 ], [ -46.7661272, -22.3942628 ], [ -46.7652083, -22.3948873 ], [ -46.7669097, -22.3969477 ], [ -46.7653662, -22.3964093 ], [ -46.7643396, -22.3979384 ], [ -46.7622218, -22.3973928 ], [ -46.7615111, -22.3979025 ], [ -46.7627028, -22.4005087 ], [ -46.7603688, -22.4003666 ], [ -46.7607138, -22.4025383 ], [ -46.7555384, -22.4062118 ], [ -46.7582986, -22.4074702 ], [ -46.7579942, -22.4092156 ], [ -46.7561676, -22.4089517 ], [ -46.7568373, -22.4102304 ], [ -46.7556196, -22.4112249 ], [ -46.7566547, -22.4128282 ], [ -46.7554572, -22.4133559 ], [ -46.7557211, -22.4160756 ], [ -46.7546454, -22.4163597 ], [ -46.7531029, -22.4152434 ], [ -46.7531435, -22.4168062 ], [ -46.7519663, -22.4176383 ], [ -46.7516822, -22.4148375 ], [ -46.7507892, -22.4147766 ], [ -46.7500382, -22.4163394 ], [ -46.7484146, -22.416177 ], [ -46.7488874, -22.4141461 ], [ -46.7479477, -22.4136762 ], [ -46.7465968, -22.4164759 ], [ -46.7442866, -22.4176897 ], [ -46.7424313, -22.4158537 ], [ -46.7418198, -22.4161626 ], [ -46.7416631, -22.4171024 ], [ -46.7430532, -22.4177289 ], [ -46.7436405, -22.4195301 ], [ -46.7470397, -22.4190412 ], [ -46.7469492, -22.4221731 ], [ -46.7463423, -22.4225451 ], [ -46.744639, -22.4215857 ], [ -46.7440517, -22.4240134 ], [ -46.7405668, -22.4230541 ], [ -46.7386665, -22.4267487 ] ] ] ] } }
]
}
