{
"type": "FeatureCollection",
"name": "ER_REGIAO_Capital Oeste_Morumbi",
"crs": { "type": "name", "properties": { "name": "urn:ogc:def:crs:EPSG::4674" } },
"xy_coordinate_resolution": 1e-15,
"features": [
{ "type": "Feature", "properties": { "fid": 888, "NM_REGIAO": "Sudeste", "NM_UF": "São Paulo", "NM_MUN": "São Paulo", "NM_DIST": "Morumbi", "CD_SUBDIST": "35503085400", "ER_REGIAO": "Capital Oeste_Morumbi", "ER_REGIAO_CIDADE": "Capital Oeste_Morumbi" }, "geometry": { "type": "MultiPolygon", "coordinates": [ [ [ [ -46.712136, -23.616759 ], [ -46.714029, -23.613888 ], [ -46.715069, -23.613879 ], [ -46.718221, -23.611434 ], [ -46.721506, -23.612071 ], [ -46.727907, -23.61149 ], [ -46.725448, -23.607596 ], [ -46.725099, -23.602459 ], [ -46.720024, -23.597848 ], [ -46.72196, -23.590421 ], [ -46.724319, -23.586594 ], [ -46.712693, -23.58221 ], [ -46.708314, -23.577974 ], [ -46.70601, -23.57352 ], [ -46.703486, -23.572339 ], [ -46.700917, -23.57225 ], [ -46.696529, -23.576684 ], [ -46.692012, -23.584672 ], [ -46.691613, -23.587888 ], [ -46.698178, -23.606785 ], [ -46.701378, -23.620078 ], [ -46.702285, -23.617964 ], [ -46.712136, -23.616759 ] ] ] ] } }
]
}
