{
"type": "FeatureCollection",
"name": "ER_REGIAO_Miracatu_Miracatu",
"crs": { "type": "name", "properties": { "name": "urn:ogc:def:crs:EPSG::4674" } },
"xy_coordinate_resolution": 1e-15,
"features": [
{ "type": "Feature", "properties": { "fid": 490, "NM_REGIAO": "Sudeste", "NM_UF": "São Paulo", "NM_MUN": "Miracatu", "NM_DIST": "Miracatu", "CD_SUBDIST": "35299060500", "ER_REGIAO": "Miracatu_Miracatu", "ER_REGIAO_CIDADE": "Miracatu_Miracatu_Sorocaba" }, "geometry": { "type": "MultiPolygon", "coordinates": [ [ [ [ -47.4687043, -24.3716374 ], [ -47.4725162, -24.3684737 ], [ -47.4798905, -24.3693802 ], [ -47.4840206, -24.3681968 ], [ -47.4938334, -24.3723434 ], [ -47.4974468, -24.3755516 ], [ -47.5019045, -24.376809 ], [ -47.5057286, -24.376493 ], [ -47.5074878, -24.3754767 ], [ -47.5079484, -24.3741721 ], [ -47.5044286, -24.3682298 ], [ -47.5047318, -24.367012 ], [ -47.5135075, -24.3661031 ], [ -47.5187481, -24.3643394 ], [ -47.526939, -24.3639586 ], [ -47.5307697, -24.3622874 ], [ -47.5373743, -24.357392 ], [ -47.5333826, -24.3547018 ], [ -47.5274374, -24.3478658 ], [ -47.5298795, -24.3467352 ], [ -47.5298621, -24.3455528 ], [ -47.5191848, -24.3423919 ], [ -47.5184606, -24.3385509 ], [ -47.5196763, -24.3369223 ], [ -47.5249645, -24.333542 ], [ -47.5292616, -24.3290864 ], [ -47.5279792, -24.3273301 ], [ -47.5291018, -24.3257034 ], [ -47.5279515, -24.3212777 ], [ -47.5288275, -24.3188947 ], [ -47.5302767, -24.3174935 ], [ -47.5304735, -24.3157991 ], [ -47.5287246, -24.3122101 ], [ -47.5271183, -24.3115563 ], [ -47.5230452, -24.3073047 ], [ -47.524595, -24.3057289 ], [ -47.5225914, -24.2999563 ], [ -47.5234987, -24.3007956 ], [ -47.5241219, -24.2997981 ], [ -47.5232172, -24.2984643 ], [ -47.5247057, -24.2989223 ], [ -47.526142, -24.297722 ], [ -47.5257229, -24.2962396 ], [ -47.5276578, -24.2966556 ], [ -47.5281415, -24.2960384 ], [ -47.5263358, -24.2955971 ], [ -47.523817, -24.292316 ], [ -47.5257389, -24.2885635 ], [ -47.5249363, -24.2849336 ], [ -47.5276085, -24.2842308 ], [ -47.5281481, -24.2817941 ], [ -47.5247084, -24.2801632 ], [ -47.523428, -24.2786992 ], [ -47.5148782, -24.2756699 ], [ -47.5147491, -24.2749515 ], [ -47.516327, -24.2742481 ], [ -47.5170809, -24.2726682 ], [ -47.5180682, -24.2677062 ], [ -47.520142, -24.266381 ], [ -47.5201406, -24.2651115 ], [ -47.5179432, -24.2613917 ], [ -47.5176114, -24.2562524 ], [ -47.5128158, -24.2518156 ], [ -47.5124545, -24.246329 ], [ -47.5056178, -24.2396316 ], [ -47.5053636, -24.2361103 ], [ -47.5014686, -24.2340156 ], [ -47.4975817, -24.2339097 ], [ -47.4939351, -24.2314712 ], [ -47.4894474, -24.2331537 ], [ -47.4881451, -24.2327531 ], [ -47.4878179, -24.2314024 ], [ -47.4917397, -24.2253988 ], [ -47.4960747, -24.2246932 ], [ -47.4972461, -24.2232336 ], [ -47.4973011, -24.2212852 ], [ -47.4999055, -24.2176003 ], [ -47.5007182, -24.2119973 ], [ -47.5043684, -24.2099067 ], [ -47.5043457, -24.2071584 ], [ -47.5071354, -24.2035559 ], [ -47.5060322, -24.2014162 ], [ -47.5030384, -24.1993492 ], [ -47.5018544, -24.1953911 ], [ -47.5034136, -24.1925373 ], [ -47.5073589, -24.1913724 ], [ -47.5094438, -24.1894722 ], [ -47.5092585, -24.1871467 ], [ -47.5073621, -24.1844674 ], [ -47.5071726, -24.1794907 ], [ -47.511492, -24.1762863 ], [ -47.5184286, -24.1747324 ], [ -47.5218038, -24.1727706 ], [ -47.524719, -24.1685292 ], [ -47.5264651, -24.1630911 ], [ -47.5256398, -24.1622103 ], [ -47.525662, -24.1586404 ], [ -47.5232312, -24.1555791 ], [ -47.5166681, -24.1548773 ], [ -47.5169428, -24.1530127 ], [ -47.52011, -24.1501458 ], [ -47.5196062, -24.1473151 ], [ -47.5171114, -24.1457973 ], [ -47.5157101, -24.143692 ], [ -47.5137463, -24.1436889 ], [ -47.5115182, -24.1409337 ], [ -47.5031551, -24.1360074 ], [ -47.5008022, -24.1331947 ], [ -47.4962552, -24.1317964 ], [ -47.4948788, -24.1304112 ], [ -47.4901055, -24.1310259 ], [ -47.4874983, -24.1298896 ], [ -47.4861484, -24.1312589 ], [ -47.4842946, -24.1315739 ], [ -47.4822041, -24.1301169 ], [ -47.4832422, -24.121345 ], [ -47.4848602, -24.1183815 ], [ -47.4858651, -24.113879 ], [ -47.4859628, -24.1049214 ], [ -47.487594, -24.0995195 ], [ -47.4898953, -24.0973023 ], [ -47.4880087, -24.094511 ], [ -47.4884616, -24.0922819 ], [ -47.4781617, -24.0854346 ], [ -47.4765715, -24.0805002 ], [ -47.4732365, -24.0783243 ], [ -47.4650531, -24.076327 ], [ -47.4642342, -24.0719908 ], [ -47.4623212, -24.0692522 ], [ -47.4640081, -24.0660275 ], [ -47.4630673, -24.0601607 ], [ -47.4600283, -24.0578111 ], [ -47.4579836, -24.0587444 ], [ -47.4543615, -24.0561344 ], [ -47.4525886, -24.0518871 ], [ -47.4499713, -24.0514278 ], [ -47.4491059, -24.0504866 ], [ -47.4481778, -24.0534791 ], [ -47.4442138, -24.0536599 ], [ -47.4435874, -24.0546328 ], [ -47.4378451, -24.0574864 ], [ -47.4299001, -24.0642772 ], [ -47.4274548, -24.0686653 ], [ -47.4253738, -24.0690123 ], [ -47.4232112, -24.0671256 ], [ -47.4215415, -24.0686291 ], [ -47.417094, -24.0661142 ], [ -47.4161084, -24.0614904 ], [ -47.4103289, -24.0596195 ], [ -47.3979256, -24.0575676 ], [ -47.3926433, -24.0551251 ], [ -47.3892791, -24.055048 ], [ -47.3882576, -24.0545079 ], [ -47.3879853, -24.0517458 ], [ -47.3863759, -24.0510591 ], [ -47.3859879, -24.0497831 ], [ -47.3824517, -24.0486127 ], [ -47.3769459, -24.0484953 ], [ -47.3730134, -24.0453356 ], [ -47.3718749, -24.0416266 ], [ -47.3705862, -24.0419585 ], [ -47.370029, -24.0434687 ], [ -47.3683385, -24.042737 ], [ -47.3685903, -24.0391715 ], [ -47.3649455, -24.0354776 ], [ -47.3630375, -24.0317731 ], [ -47.3601218, -24.0315764 ], [ -47.355774, -24.0295561 ], [ -47.3553296, -24.0267462 ], [ -47.3562899, -24.0224626 ], [ -47.3476257, -24.0176557 ], [ -47.3426313, -24.0138609 ], [ -47.3344298, -24.0127189 ], [ -47.3340546, -24.0134855 ], [ -47.335131, -24.0151598 ], [ -47.3329793, -24.0180982 ], [ -47.3307764, -24.0178258 ], [ -47.3303789, -24.0152228 ], [ -47.3285745, -24.014573 ], [ -47.3251425, -24.0175098 ], [ -47.322626, -24.0178016 ], [ -47.3184437, -24.0160788 ], [ -47.3163907, -24.017053 ], [ -47.3154161, -24.0162845 ], [ -47.3145947, -24.012413 ], [ -47.3126329, -24.0099839 ], [ -47.3103628, -24.0089812 ], [ -47.3064325, -24.0092338 ], [ -47.3018344, -24.0116367 ], [ -47.2968529, -24.0103801 ], [ -47.2943528, -24.0107549 ], [ -47.2880605, -24.0068797 ], [ -47.2846619, -24.0066345 ], [ -47.2849616, -24.0111897 ], [ -47.2864957, -24.0121696 ], [ -47.2861637, -24.0140074 ], [ -47.2824437, -24.0150351 ], [ -47.277652, -24.011163 ], [ -47.2757879, -24.0130731 ], [ -47.2770258, -24.0148626 ], [ -47.2720924, -24.0175841 ], [ -47.2716438, -24.0196135 ], [ -47.2694082, -24.0218507 ], [ -47.2700453, -24.0243445 ], [ -47.2682429, -24.0257656 ], [ -47.2680844, -24.0280243 ], [ -47.2698248, -24.0317572 ], [ -47.2688212, -24.035327 ], [ -47.2715198, -24.0410438 ], [ -47.2695005, -24.0420915 ], [ -47.2696343, -24.0443665 ], [ -47.2680241, -24.0478819 ], [ -47.2647033, -24.0510896 ], [ -47.2647358, -24.053832 ], [ -47.2664923, -24.0565447 ], [ -47.2644667, -24.0580809 ], [ -47.2644809, -24.0588993 ], [ -47.2746837, -24.0635265 ], [ -47.2861724, -24.0703087 ], [ -47.2877643, -24.0728676 ], [ -47.2906634, -24.0751502 ], [ -47.2912039, -24.0818369 ], [ -47.2920165, -24.0800596 ], [ -47.2951232, -24.0797665 ], [ -47.2990468, -24.0825879 ], [ -47.3035396, -24.081166 ], [ -47.3063376, -24.0829029 ], [ -47.3078909, -24.0821159 ], [ -47.3105148, -24.077163 ], [ -47.3133592, -24.0764419 ], [ -47.3181152, -24.079335 ], [ -47.3346432, -24.0857769 ], [ -47.3458178, -24.0867061 ], [ -47.3511671, -24.091792 ], [ -47.3621303, -24.0862009 ], [ -47.3743591, -24.0843171 ], [ -47.3957476, -24.0933858 ], [ -47.402674, -24.0940394 ], [ -47.4048172, -24.0950222 ], [ -47.4105607, -24.1014538 ], [ -47.4165461, -24.1058498 ], [ -47.4171304, -24.1074919 ], [ -47.4159115, -24.1113228 ], [ -47.4193536, -24.1227036 ], [ -47.4174056, -24.1270543 ], [ -47.4165706, -24.1317268 ], [ -47.4258668, -24.140414 ], [ -47.425837, -24.1437179 ], [ -47.4239321, -24.1454421 ], [ -47.4174778, -24.1456282 ], [ -47.4173208, -24.1470722 ], [ -47.4195629, -24.1485608 ], [ -47.4272318, -24.1492016 ], [ -47.4308815, -24.1519387 ], [ -47.4312746, -24.1532032 ], [ -47.4310235, -24.1545633 ], [ -47.4285302, -24.1544331 ], [ -47.4239655, -24.1569619 ], [ -47.4162002, -24.1561379 ], [ -47.414831, -24.1569222 ], [ -47.4138507, -24.1587992 ], [ -47.4162892, -24.160877 ], [ -47.4170603, -24.1626431 ], [ -47.4195854, -24.1693745 ], [ -47.4203564, -24.1759658 ], [ -47.4244863, -24.1747993 ], [ -47.4265321, -24.1756134 ], [ -47.4291757, -24.1787884 ], [ -47.4293942, -24.1804778 ], [ -47.4293731, -24.1812904 ], [ -47.4258898, -24.1831563 ], [ -47.4252508, -24.1856547 ], [ -47.4233705, -24.1874419 ], [ -47.422859, -24.1890712 ], [ -47.421069, -24.1895435 ], [ -47.418846, -24.1931388 ], [ -47.4156677, -24.1958247 ], [ -47.4167041, -24.1987331 ], [ -47.4162923, -24.2020736 ], [ -47.4137035, -24.203929 ], [ -47.41244, -24.206662 ], [ -47.4126014, -24.210349 ], [ -47.4113599, -24.2112052 ], [ -47.4111641, -24.2134991 ], [ -47.4118675, -24.2145223 ], [ -47.4147431, -24.2159387 ], [ -47.4168962, -24.2157338 ], [ -47.4182987, -24.2173357 ], [ -47.4166122, -24.2203571 ], [ -47.416325, -24.2239537 ], [ -47.4147186, -24.2273769 ], [ -47.414178, -24.2310586 ], [ -47.4130814, -24.2319868 ], [ -47.4135036, -24.2331808 ], [ -47.4125371, -24.2337665 ], [ -47.4134555, -24.2355399 ], [ -47.4116993, -24.2384701 ], [ -47.4115208, -24.2477918 ], [ -47.4088494, -24.252856 ], [ -47.4087541, -24.2570972 ], [ -47.4114607, -24.2592984 ], [ -47.4131722, -24.2594297 ], [ -47.4116488, -24.2610351 ], [ -47.4078546, -24.2624544 ], [ -47.4071007, -24.2648263 ], [ -47.4063202, -24.265029 ], [ -47.4061713, -24.2669516 ], [ -47.404475, -24.2669045 ], [ -47.4045329, -24.2699712 ], [ -47.4031839, -24.2711704 ], [ -47.4020199, -24.2707555 ], [ -47.4033767, -24.2731788 ], [ -47.4028449, -24.2750866 ], [ -47.400764, -24.2753419 ], [ -47.3995336, -24.2766514 ], [ -47.3958957, -24.2814648 ], [ -47.3955466, -24.2837238 ], [ -47.3943137, -24.2838062 ], [ -47.3935456, -24.2854745 ], [ -47.3923353, -24.2850276 ], [ -47.3913836, -24.2859212 ], [ -47.3913634, -24.2872965 ], [ -47.3894383, -24.2880779 ], [ -47.3893455, -24.2902616 ], [ -47.3877485, -24.2912172 ], [ -47.3860429, -24.2902372 ], [ -47.3849967, -24.2906884 ], [ -47.3836823, -24.2923812 ], [ -47.3797096, -24.2939815 ], [ -47.3787945, -24.2962698 ], [ -47.3773631, -24.2974149 ], [ -47.3693063, -24.3000933 ], [ -47.3672933, -24.3041378 ], [ -47.3640116, -24.3062997 ], [ -47.3632002, -24.3080674 ], [ -47.3599358, -24.3088009 ], [ -47.3580227, -24.3126607 ], [ -47.3491586, -24.3117614 ], [ -47.3479778, -24.310955 ], [ -47.345012, -24.3121963 ], [ -47.3400473, -24.310273 ], [ -47.3332273, -24.3129915 ], [ -47.3306628, -24.3112154 ], [ -47.3266131, -24.3120157 ], [ -47.3272232, -24.3126994 ], [ -47.3294758, -24.3127206 ], [ -47.3317854, -24.3149247 ], [ -47.3341749, -24.3158892 ], [ -47.3406979, -24.313945 ], [ -47.3405184, -24.3162956 ], [ -47.3434018, -24.3162147 ], [ -47.3479387, -24.3182893 ], [ -47.350629, -24.3224584 ], [ -47.3491558, -24.3266841 ], [ -47.3470982, -24.3289412 ], [ -47.3453612, -24.3294469 ], [ -47.3438383, -24.3328274 ], [ -47.3359923, -24.3314313 ], [ -47.3329677, -24.3343982 ], [ -47.3293249, -24.3360625 ], [ -47.3286072, -24.3379275 ], [ -47.3263342, -24.3399177 ], [ -47.3223681, -24.3389666 ], [ -47.3195096, -24.33952 ], [ -47.3187927, -24.3407675 ], [ -47.3191852, -24.3424376 ], [ -47.322091, -24.344153 ], [ -47.3243317, -24.3471272 ], [ -47.328607, -24.3479066 ], [ -47.3295203, -24.3494485 ], [ -47.3345795, -24.3489427 ], [ -47.3367676, -24.3499785 ], [ -47.3380106, -24.3527022 ], [ -47.33713, -24.3563146 ], [ -47.3396714, -24.3597539 ], [ -47.3393628, -24.3625644 ], [ -47.3402683, -24.3647467 ], [ -47.3434466, -24.3653261 ], [ -47.3455234, -24.3681114 ], [ -47.3496452, -24.3700054 ], [ -47.3598874, -24.3707632 ], [ -47.3601511, -24.3724717 ], [ -47.3591463, -24.3749032 ], [ -47.3621497, -24.3753613 ], [ -47.3610989, -24.377994 ], [ -47.3656938, -24.3819792 ], [ -47.3666832, -24.3847736 ], [ -47.3714037, -24.3853872 ], [ -47.3747656, -24.3845844 ], [ -47.3807512, -24.3859746 ], [ -47.3885963, -24.3846993 ], [ -47.3982302, -24.3853583 ], [ -47.4002601, -24.3825214 ], [ -47.4036846, -24.3823651 ], [ -47.4052533, -24.3792663 ], [ -47.4140963, -24.3773649 ], [ -47.4147799, -24.374981 ], [ -47.4175487, -24.3761767 ], [ -47.4194436, -24.375108 ], [ -47.4248192, -24.374906 ], [ -47.4264406, -24.3755684 ], [ -47.4272246, -24.3771942 ], [ -47.4305371, -24.3787358 ], [ -47.429985, -24.3814258 ], [ -47.4336869, -24.3842921 ], [ -47.4342332, -24.386277 ], [ -47.4356612, -24.3874757 ], [ -47.4403488, -24.3889794 ], [ -47.4430503, -24.3881708 ], [ -47.4480306, -24.3888069 ], [ -47.4510802, -24.388041 ], [ -47.4517408, -24.3839146 ], [ -47.455576, -24.3843276 ], [ -47.4625475, -24.3825407 ], [ -47.4651495, -24.3807871 ], [ -47.4654356, -24.3791633 ], [ -47.4621644, -24.375819 ], [ -47.462857, -24.3733937 ], [ -47.4648723, -24.3733283 ], [ -47.4687043, -24.3716374 ] ] ] ] } }
]
}
