{
"type": "FeatureCollection",
"name": "ER_REGIAO_Guaraçaí",
"crs": { "type": "name", "properties": { "name": "urn:ogc:def:crs:EPSG::4674" } },
"xy_coordinate_resolution": 1e-15,
"features": [
{ "type": "Feature", "properties": { "fid": 293, "NM_REGIAO": "Sudeste", "NM_UF": "São Paulo", "NM_MUN": "Guaraçaí", "NM_DIST": "Guaraçaí", "CD_SUBDIST": "35178020500", "ER_REGIAO": "Guaraçaí", "ER_REGIAO_CIDADE": "Guaraçaí_Araçatuba" }, "geometry": { "type": "MultiPolygon", "coordinates": [ [ [ [ -51.2332899, -20.9820553 ], [ -51.2259832, -20.9813031 ], [ -51.221216, -20.9744601 ], [ -51.2260767, -20.9718663 ], [ -51.2255425, -20.9617271 ], [ -51.2234653, -20.9603704 ], [ -51.2145779, -20.9601281 ], [ -51.2060097, -20.9537795 ], [ -51.2016887, -20.952245 ], [ -51.1980978, -20.9526085 ], [ -51.1981649, -20.9501956 ], [ -51.2015665, -20.9452702 ], [ -51.2009884, -20.941606 ], [ -51.2064007, -20.9345899 ], [ -51.2081802, -20.9264107 ], [ -51.2112483, -20.9241299 ], [ -51.2102608, -20.9221555 ], [ -51.2116507, -20.9196307 ], [ -51.211978, -20.9165435 ], [ -51.2162132, -20.9126355 ], [ -51.2148036, -20.9080662 ], [ -51.2172851, -20.9059724 ], [ -51.2164507, -20.9012816 ], [ -51.2211889, -20.899256 ], [ -51.2222385, -20.8943098 ], [ -51.2247194, -20.8921246 ], [ -51.2304172, -20.8915789 ], [ -51.2322188, -20.8904665 ], [ -51.2345867, -20.8854647 ], [ -51.2348627, -20.8837293 ], [ -51.2334665, -20.8824948 ], [ -51.2372459, -20.877671 ], [ -51.2366986, -20.8745389 ], [ -51.2409203, -20.868946 ], [ -51.2405581, -20.8673031 ], [ -51.2416125, -20.8629316 ], [ -51.2425017, -20.8622384 ], [ -51.2424013, -20.8583139 ], [ -51.2397976, -20.8576394 ], [ -51.238523, -20.8584437 ], [ -51.2381135, -20.8575527 ], [ -51.2393407, -20.8533978 ], [ -51.2347648, -20.8530064 ], [ -51.2269242, -20.8489523 ], [ -51.2255142, -20.8490162 ], [ -51.2230152, -20.8543776 ], [ -51.2185675, -20.8566238 ], [ -51.2165308, -20.8564797 ], [ -51.2130617, -20.8619931 ], [ -51.2097585, -20.8625132 ], [ -51.2057148, -20.8613392 ], [ -51.2028496, -20.8626524 ], [ -51.1969459, -20.8620704 ], [ -51.1884875, -20.8640263 ], [ -51.1851669, -20.8634122 ], [ -51.1832224, -20.8620312 ], [ -51.1800056, -20.8574988 ], [ -51.1796113, -20.8544232 ], [ -51.1787789, -20.8536588 ], [ -51.1604135, -20.8539763 ], [ -51.1505946, -20.8550974 ], [ -51.1429699, -20.8545292 ], [ -51.1424312, -20.8554235 ], [ -51.1435029, -20.8569421 ], [ -51.1426801, -20.858521 ], [ -51.1447118, -20.861013 ], [ -51.1427741, -20.8643799 ], [ -51.1438954, -20.8687652 ], [ -51.1426035, -20.8701442 ], [ -51.1441923, -20.881324 ], [ -51.1437553, -20.8843 ], [ -51.1408324, -20.8855082 ], [ -51.1410419, -20.8871378 ], [ -51.1394029, -20.88912 ], [ -51.1393413, -20.89252 ], [ -51.1368924, -20.8929528 ], [ -51.1367717, -20.8965738 ], [ -51.1385831, -20.8986362 ], [ -51.1392367, -20.9047724 ], [ -51.1355193, -20.9085074 ], [ -51.1368307, -20.9097213 ], [ -51.1359701, -20.9116497 ], [ -51.1364289, -20.9151279 ], [ -51.1341216, -20.9210395 ], [ -51.1349185, -20.9231698 ], [ -51.1367221, -20.9240374 ], [ -51.1358074, -20.9254171 ], [ -51.1331874, -20.92678 ], [ -51.1318457, -20.9304833 ], [ -51.1304307, -20.9315253 ], [ -51.131571, -20.9333952 ], [ -51.1330976, -20.9340678 ], [ -51.1296751, -20.9379212 ], [ -51.1306572, -20.9419378 ], [ -51.1298134, -20.9445324 ], [ -51.1251117, -20.9483759 ], [ -51.1231831, -20.951775 ], [ -51.1207307, -20.9526857 ], [ -51.1189027, -20.959557 ], [ -51.1197726, -20.9608653 ], [ -51.1183889, -20.9636802 ], [ -51.1188947, -20.9660659 ], [ -51.1176124, -20.9689666 ], [ -51.1184752, -20.9713561 ], [ -51.1175175, -20.9748851 ], [ -51.1187646, -20.9786439 ], [ -51.1157475, -20.9824339 ], [ -51.1176046, -20.9920242 ], [ -51.1226591, -20.9994244 ], [ -51.123646, -21.005241 ], [ -51.1220591, -21.0077228 ], [ -51.122323, -21.0095112 ], [ -51.1256679, -21.0131807 ], [ -51.1255534, -21.0146866 ], [ -51.1277759, -21.0198982 ], [ -51.1277315, -21.0221677 ], [ -51.1312496, -21.0273615 ], [ -51.1317678, -21.0298417 ], [ -51.1339037, -21.0322112 ], [ -51.1348045, -21.0350165 ], [ -51.1373603, -21.037873 ], [ -51.1415178, -21.0404036 ], [ -51.142863, -21.0428725 ], [ -51.1464601, -21.0422552 ], [ -51.1516888, -21.0395807 ], [ -51.1611581, -21.0391208 ], [ -51.1681101, -21.0409015 ], [ -51.1693091, -21.0450183 ], [ -51.1720128, -21.0501202 ], [ -51.1724161, -21.0538338 ], [ -51.170958, -21.0556279 ], [ -51.1746431, -21.0580516 ], [ -51.185249, -21.0703708 ], [ -51.1880491, -21.0715741 ], [ -51.1917984, -21.0795301 ], [ -51.1944346, -21.0813469 ], [ -51.1953934, -21.0838271 ], [ -51.1987362, -21.0852699 ], [ -51.2071406, -21.0932504 ], [ -51.209246, -21.0937656 ], [ -51.2117747, -21.0958632 ], [ -51.2163486, -21.0961056 ], [ -51.2245402, -21.0920386 ], [ -51.2316728, -21.0921314 ], [ -51.2334673, -21.0926378 ], [ -51.2341376, -21.0944378 ], [ -51.2377421, -21.0962858 ], [ -51.2378644, -21.0977849 ], [ -51.2406983, -21.1014363 ], [ -51.2430496, -21.1021637 ], [ -51.2461965, -21.1046777 ], [ -51.2496879, -21.1052077 ], [ -51.2520354, -21.1084577 ], [ -51.2533164, -21.1088403 ], [ -51.2548526, -21.1109921 ], [ -51.2565883, -21.111568 ], [ -51.2569284, -21.1142771 ], [ -51.2662276, -21.1324604 ], [ -51.2671906, -21.1395356 ], [ -51.266746, -21.1471313 ], [ -51.2697512, -21.1506505 ], [ -51.2712662, -21.1538361 ], [ -51.2771083, -21.1569469 ], [ -51.2812461, -21.160162 ], [ -51.2873136, -21.1623403 ], [ -51.2885858, -21.161229 ], [ -51.2913132, -21.1614838 ], [ -51.2924843, -21.1640709 ], [ -51.2956374, -21.1652213 ], [ -51.2956082, -21.166829 ], [ -51.297459, -21.1683701 ], [ -51.301014, -21.1691434 ], [ -51.3067206, -21.1719326 ], [ -51.3095944, -21.1779425 ], [ -51.3098926, -21.1809966 ], [ -51.3076255, -21.1847671 ], [ -51.3071781, -21.1885674 ], [ -51.3060381, -21.189606 ], [ -51.307674, -21.1926669 ], [ -51.3072916, -21.1958004 ], [ -51.3088999, -21.1977311 ], [ -51.3100398, -21.2025475 ], [ -51.3085009, -21.2056572 ], [ -51.3085578, -21.207676 ], [ -51.3065217, -21.210257 ], [ -51.3065986, -21.2148851 ], [ -51.309207, -21.2184624 ], [ -51.3101785, -21.2232166 ], [ -51.3132023, -21.2265306 ], [ -51.3145384, -21.2303701 ], [ -51.3143019, -21.2393258 ], [ -51.3131847, -21.2401491 ], [ -51.3112023, -21.2447931 ], [ -51.3157011, -21.2503759 ], [ -51.315544, -21.252023 ], [ -51.31805, -21.2548036 ], [ -51.3176464, -21.2570813 ], [ -51.3206104, -21.2610251 ], [ -51.3211053, -21.2648314 ], [ -51.3227679, -21.2672104 ], [ -51.3245805, -21.2668945 ], [ -51.3250275, -21.2703155 ], [ -51.3267909, -21.2720301 ], [ -51.3266506, -21.275367 ], [ -51.329566, -21.279096 ], [ -51.3291831, -21.2803922 ], [ -51.330085, -21.2829649 ], [ -51.3291267, -21.2859657 ], [ -51.3302978, -21.2885797 ], [ -51.328833, -21.292511 ], [ -51.3346858, -21.2926561 ], [ -51.3388276, -21.2883613 ], [ -51.3391104, -21.2901621 ], [ -51.3376038, -21.2912917 ], [ -51.3372036, -21.2927455 ], [ -51.3378922, -21.293348 ], [ -51.3403975, -21.2929124 ], [ -51.3430923, -21.2901274 ], [ -51.3427397, -21.2881838 ], [ -51.343296, -21.2879086 ], [ -51.3449962, -21.2885707 ], [ -51.3467492, -21.2879929 ], [ -51.3472239, -21.288553 ], [ -51.3459222, -21.2916092 ], [ -51.3485686, -21.2919822 ], [ -51.349333, -21.2913804 ], [ -51.3488116, -21.2887324 ], [ -51.3497006, -21.2878693 ], [ -51.3527967, -21.2892424 ], [ -51.3552987, -21.2882491 ], [ -51.3580697, -21.2883476 ], [ -51.3589278, -21.2862318 ], [ -51.360542, -21.2858499 ], [ -51.362605, -21.2868242 ], [ -51.3621244, -21.2895656 ], [ -51.365339, -21.2888409 ], [ -51.3687268, -21.2902138 ], [ -51.3747977, -21.2852186 ], [ -51.3772065, -21.2852523 ], [ -51.3816001, -21.2828936 ], [ -51.3853483, -21.2843565 ], [ -51.3925495, -21.2799062 ], [ -51.3926952, -21.2771003 ], [ -51.3940418, -21.2756617 ], [ -51.3954888, -21.275306 ], [ -51.3975515, -21.2761363 ], [ -51.3980216, -21.2749347 ], [ -51.3955311, -21.2740462 ], [ -51.3953845, -21.2727486 ], [ -51.4017045, -21.272551 ], [ -51.4019788, -21.2710366 ], [ -51.3978695, -21.2701329 ], [ -51.3981292, -21.2683707 ], [ -51.3994479, -21.2669321 ], [ -51.4028973, -21.2658017 ], [ -51.404924, -21.268759 ], [ -51.4067149, -21.2669669 ], [ -51.4076672, -21.2639633 ], [ -51.4151947, -21.2626009 ], [ -51.4204063, -21.2595083 ], [ -51.4226378, -21.256123 ], [ -51.4252046, -21.2580217 ], [ -51.4277598, -21.2558882 ], [ -51.4309863, -21.2548491 ], [ -51.4313018, -21.2532563 ], [ -51.4292661, -21.2520871 ], [ -51.4291939, -21.2511738 ], [ -51.4328091, -21.2498336 ], [ -51.4339963, -21.2464475 ], [ -51.4353074, -21.2457343 ], [ -51.4405525, -21.2448067 ], [ -51.4435633, -21.2432777 ], [ -51.446585, -21.2436743 ], [ -51.448222, -21.2418822 ], [ -51.4517905, -21.2413585 ], [ -51.454504, -21.2388249 ], [ -51.459412, -21.2371413 ], [ -51.4632933, -21.2365044 ], [ -51.4673896, -21.2378008 ], [ -51.4712756, -21.2343422 ], [ -51.4717106, -21.2354502 ], [ -51.4699656, -21.2382084 ], [ -51.4714282, -21.2385697 ], [ -51.4744116, -21.2357297 ], [ -51.478948, -21.2354298 ], [ -51.4798269, -21.2317474 ], [ -51.4855079, -21.2325272 ], [ -51.4797475, -21.2172582 ], [ -51.4811413, -21.2148819 ], [ -51.4778468, -21.2068896 ], [ -51.470928, -21.2038115 ], [ -51.4699634, -21.2018015 ], [ -51.4672116, -21.2014535 ], [ -51.4667672, -21.1993836 ], [ -51.464846, -21.1978882 ], [ -51.4622585, -21.1935706 ], [ -51.4579417, -21.1906321 ], [ -51.4539255, -21.1862342 ], [ -51.4525227, -21.1861508 ], [ -51.4499601, -21.1881555 ], [ -51.4471487, -21.1879281 ], [ -51.4443449, -21.183226 ], [ -51.4429664, -21.1826276 ], [ -51.4386094, -21.1829534 ], [ -51.4310459, -21.1770554 ], [ -51.4260757, -21.1750368 ], [ -51.4241894, -21.1750208 ], [ -51.4221415, -21.1733795 ], [ -51.4224409, -21.1699383 ], [ -51.4216108, -21.1687723 ], [ -51.4222341, -21.1655923 ], [ -51.4185988, -21.1649223 ], [ -51.4171237, -21.1628538 ], [ -51.4129222, -21.1605831 ], [ -51.4129728, -21.1581164 ], [ -51.4116364, -21.1560013 ], [ -51.4119332, -21.154051 ], [ -51.4103764, -21.1514903 ], [ -51.4109268, -21.1476387 ], [ -51.4092169, -21.1410965 ], [ -51.4084599, -21.1408286 ], [ -51.4066892, -21.1362998 ], [ -51.4053921, -21.1354253 ], [ -51.3979647, -21.1351617 ], [ -51.3942222, -21.1359913 ], [ -51.3922894, -21.1344183 ], [ -51.390238, -21.1339635 ], [ -51.3895497, -21.1324151 ], [ -51.3858547, -21.1298257 ], [ -51.3840986, -21.1249956 ], [ -51.3797524, -21.1222247 ], [ -51.3789345, -21.1189134 ], [ -51.3754797, -21.1162157 ], [ -51.3679021, -21.1156299 ], [ -51.3623563, -21.1130033 ], [ -51.3575174, -21.1125418 ], [ -51.3548103, -21.1107551 ], [ -51.3530163, -21.110839 ], [ -51.3498594, -21.1141659 ], [ -51.3477078, -21.1143831 ], [ -51.3396941, -21.1076516 ], [ -51.3366331, -21.106675 ], [ -51.3347351, -21.1073536 ], [ -51.3317369, -21.1127113 ], [ -51.3308177, -21.1118964 ], [ -51.3290992, -21.1064753 ], [ -51.3285493, -21.1011106 ], [ -51.3267071, -21.0989527 ], [ -51.3261502, -21.092855 ], [ -51.3271092, -21.0878326 ], [ -51.3262178, -21.0833766 ], [ -51.3229242, -21.0772006 ], [ -51.3229157, -21.0732179 ], [ -51.3201992, -21.0650855 ], [ -51.3228551, -21.0642375 ], [ -51.3232882, -21.0607951 ], [ -51.3158741, -21.0582885 ], [ -51.3129911, -21.0551196 ], [ -51.3109469, -21.0540124 ], [ -51.3094556, -21.0541603 ], [ -51.3067172, -21.050666 ], [ -51.3070711, -21.049289 ], [ -51.3063192, -21.048723 ], [ -51.3056359, -21.045467 ], [ -51.2985646, -21.0409752 ], [ -51.2970292, -21.0406377 ], [ -51.2935753, -21.0416251 ], [ -51.2922809, -21.0429708 ], [ -51.284961, -21.0425058 ], [ -51.2806143, -21.0438478 ], [ -51.2717694, -21.0416288 ], [ -51.2662829, -21.0412601 ], [ -51.2627642, -21.0322496 ], [ -51.2613811, -21.0302781 ], [ -51.2588075, -21.0291655 ], [ -51.2589672, -21.0272179 ], [ -51.2568343, -21.024266 ], [ -51.2558605, -21.0231737 ], [ -51.2505964, -21.0217803 ], [ -51.2459449, -21.0137024 ], [ -51.244921, -21.0130929 ], [ -51.2442537, -21.0056399 ], [ -51.2425371, -21.0048766 ], [ -51.2422025, -21.0063295 ], [ -51.2400849, -21.0058729 ], [ -51.2377474, -21.0018987 ], [ -51.2399141, -20.9885969 ], [ -51.2396313, -20.9862939 ], [ -51.2378746, -20.9832802 ], [ -51.2332899, -20.9820553 ] ] ] ] } }
]
}
