{
"type": "FeatureCollection",
"name": "ER_REGIAO_Florínea",
"crs": { "type": "name", "properties": { "name": "urn:ogc:def:crs:EPSG::4674" } },
"xy_coordinate_resolution": 1e-15,
"features": [
{ "type": "Feature", "properties": { "fid": 268, "NM_REGIAO": "Sudeste", "NM_UF": "São Paulo", "NM_MUN": "Florínea", "NM_DIST": "Florínea", "CD_SUBDIST": "35161010500", "ER_REGIAO": "Florínea", "ER_REGIAO_CIDADE": "Florínea_Marília" }, "geometry": { "type": "MultiPolygon", "coordinates": [ [ [ [ -50.770329799999956, -22.88036169999998 ], [ -50.764823099999944, -22.879668099999947 ], [ -50.761681499999952, -22.881062799999938 ], [ -50.759410299999956, -22.880033399999945 ], [ -50.75022569999993, -22.869324699999936 ], [ -50.746454599999936, -22.867648499999973 ], [ -50.743892199999948, -22.862777199999982 ], [ -50.74262779999998, -22.861620199999948 ], [ -50.738957199999959, -22.860433599999965 ], [ -50.73200769999994, -22.852100299999961 ], [ -50.730368199999987, -22.851158599999962 ], [ -50.727774699999941, -22.851107199999944 ], [ -50.725894199999971, -22.849141499999973 ], [ -50.720964199999969, -22.837264299999958 ], [ -50.721626699999945, -22.835284299999955 ], [ -50.721239499999967, -22.831415 ], [ -50.719548499999974, -22.831092799999965 ], [ -50.716536, -22.828054599999973 ], [ -50.714782499999956, -22.818868299999963 ], [ -50.714587199999983, -22.816211499999952 ], [ -50.716106399999944, -22.810551299999929 ], [ -50.717496199999971, -22.79963349999997 ], [ -50.715486, -22.797132199999965 ], [ -50.713098599999967, -22.790996399999983 ], [ -50.709811699999932, -22.788934099999949 ], [ -50.70753389999993, -22.783859499999949 ], [ -50.708031399999982, -22.777488799999958 ], [ -50.706276399999979, -22.772774199999958 ], [ -50.704347499999983, -22.774976699999968 ], [ -50.703183, -22.778160899999932 ], [ -50.695586, -22.782539 ], [ -50.687782399999946, -22.781618899999955 ], [ -50.682814899999983, -22.779472899999973 ], [ -50.678781699999945, -22.780700599999932 ], [ -50.676442899999984, -22.798010699999963 ], [ -50.664768099999947, -22.808926799999938 ], [ -50.660646499999984, -22.815411199999971 ], [ -50.654221599999971, -22.81832959999997 ], [ -50.647661, -22.828002099999935 ], [ -50.644507499999975, -22.839207899999963 ], [ -50.639384499999949, -22.84832659999995 ], [ -50.636182, -22.850661699999932 ], [ -50.632231599999955, -22.851115 ], [ -50.629537499999969, -22.852512799999943 ], [ -50.62660539999996, -22.85529269999995 ], [ -50.624324599999966, -22.859009799999967 ], [ -50.615751899999964, -22.867016299999932 ], [ -50.613506099999938, -22.870790799999952 ], [ -50.61189319999994, -22.871643 ], [ -50.604712499999948, -22.872461499999929 ], [ -50.602922699999965, -22.871058799999958 ], [ -50.600371399999972, -22.864578399999971 ], [ -50.598208499999942, -22.862409 ], [ -50.593811499999958, -22.861228599999947 ], [ -50.589706299999932, -22.862282499999935 ], [ -50.589909399999954, -22.860043 ], [ -50.588400399999955, -22.858023 ], [ -50.584380199999941, -22.855913 ], [ -50.581953799999951, -22.85305349999993 ], [ -50.578211499999952, -22.850478599999974 ], [ -50.573304599999972, -22.848762499999964 ], [ -50.570668099999978, -22.845706199999938 ], [ -50.561046499999975, -22.844035299999973 ], [ -50.552267399999948, -22.840610699999957 ], [ -50.557206899999983, -22.852305399999977 ], [ -50.55993449999994, -22.854987799999947 ], [ -50.561175499999933, -22.858572399999957 ], [ -50.565165799999932, -22.863723299999947 ], [ -50.570544599999948, -22.868590199999971 ], [ -50.574248, -22.874551799999949 ], [ -50.578561, -22.877477299999953 ], [ -50.578071199999954, -22.883751 ], [ -50.573924199999965, -22.889807099999928 ], [ -50.573046499999975, -22.893927799999972 ], [ -50.573107599999958, -22.897083799999962 ], [ -50.577242799999965, -22.904007099999944 ], [ -50.580994, -22.905271899999946 ], [ -50.588808499999971, -22.910446399999955 ], [ -50.603808399999934, -22.923178499999949 ], [ -50.608524099999954, -22.924154 ], [ -50.611603499999944, -22.923602799999969 ], [ -50.617112899999938, -22.914382799999942 ], [ -50.620315499999947, -22.912160099999937 ], [ -50.637296699999979, -22.906937199999959 ], [ -50.644891799999982, -22.899137199999927 ], [ -50.648506599999962, -22.897084899999982 ], [ -50.661585399999979, -22.89547749999997 ], [ -50.672557199999972, -22.898220899999956 ], [ -50.677443899999957, -22.901042299999972 ], [ -50.682082899999955, -22.906197099999929 ], [ -50.682641899999965, -22.908584499999961 ], [ -50.687851499999965, -22.917111699999964 ], [ -50.69350339999994, -22.923553699999957 ], [ -50.702719, -22.942144699999972 ], [ -50.707132599999966, -22.948035799999957 ], [ -50.709838799999943, -22.953442199999927 ], [ -50.71308339999996, -22.95599059999995 ], [ -50.723631199999943, -22.959164 ], [ -50.729526799999974, -22.962498599999947 ], [ -50.732739, -22.963297099999977 ], [ -50.740617399999962, -22.962510599999973 ], [ -50.745223099999976, -22.959983499999964 ], [ -50.75032989999994, -22.951499099999978 ], [ -50.758662099999981, -22.947654399999976 ], [ -50.768169299999954, -22.946973799999967 ], [ -50.770906399999944, -22.947650899999928 ], [ -50.777947, -22.946323599999971 ], [ -50.789113599999951, -22.950407499999983 ], [ -50.795935, -22.951179399999944 ], [ -50.803992, -22.945736599999975 ], [ -50.805361, -22.943463099999974 ], [ -50.806146199999944, -22.940299299999936 ], [ -50.805172499999969, -22.936085399999968 ], [ -50.80049889999998, -22.928313499999945 ], [ -50.797528899999975, -22.914959099999976 ], [ -50.793138099999965, -22.905117299999972 ], [ -50.792364099999986, -22.898608099999933 ], [ -50.792951699999946, -22.894353499999966 ], [ -50.797817099999975, -22.88855239999998 ], [ -50.807024299999966, -22.884931699999981 ], [ -50.81701309999994, -22.879541 ], [ -50.820808, -22.874014399999965 ], [ -50.823622599999965, -22.866137799999933 ], [ -50.820205299999941, -22.866118699999959 ], [ -50.808573699999954, -22.870703699999979 ], [ -50.802678, -22.871607499999982 ], [ -50.798498399999971, -22.876139099999932 ], [ -50.795309, -22.876470899999958 ], [ -50.790228399999933, -22.878594699999951 ], [ -50.78564149999994, -22.878663699999947 ], [ -50.777634699999965, -22.882629399999928 ], [ -50.772798499999965, -22.88305639999993 ], [ -50.770329799999956, -22.88036169999998 ] ] ] ] } }
]
}
