{
"type": "FeatureCollection",
"name": "ER_REGIAO_Dirce Reis",
"crs": { "type": "name", "properties": { "name": "urn:ogc:def:crs:EPSG::4674" } },
"xy_coordinate_resolution": 1e-15,
"features": [
{ "type": "Feature", "properties": { "fid": 223, "NM_REGIAO": "Sudeste", "NM_UF": "São Paulo", "NM_MUN": "Dirce Reis", "NM_DIST": "Dirce Reis", "CD_SUBDIST": "35138500500", "ER_REGIAO": "Dirce Reis", "ER_REGIAO_CIDADE": "Dirce Reis_Votuporanga" }, "geometry": { "type": "MultiPolygon", "coordinates": [ [ [ [ -50.6671289, -20.4733909 ], [ -50.6687736, -20.4699953 ], [ -50.6671528, -20.4656154 ], [ -50.6680707, -20.4628597 ], [ -50.667516, -20.4598379 ], [ -50.6680143, -20.4546793 ], [ -50.6707298, -20.4425528 ], [ -50.6701605, -20.4418843 ], [ -50.670563, -20.4394392 ], [ -50.6720426, -20.4372275 ], [ -50.6686814, -20.4299763 ], [ -50.6661846, -20.4290481 ], [ -50.664569, -20.4271228 ], [ -50.663265, -20.4197791 ], [ -50.6580163, -20.415336 ], [ -50.6508621, -20.4150797 ], [ -50.6490407, -20.4118802 ], [ -50.6435545, -20.407719 ], [ -50.6425219, -20.4060682 ], [ -50.6381937, -20.4060083 ], [ -50.6322461, -20.4036087 ], [ -50.6298592, -20.3997315 ], [ -50.6275072, -20.398876 ], [ -50.6238173, -20.3947742 ], [ -50.6226441, -20.3897378 ], [ -50.6165094, -20.3828707 ], [ -50.6144551, -20.3798478 ], [ -50.6130693, -20.3757445 ], [ -50.6129467, -20.3853455 ], [ -50.6152096, -20.3916254 ], [ -50.6143594, -20.3939191 ], [ -50.6124878, -20.3944953 ], [ -50.6094944, -20.3938842 ], [ -50.6075285, -20.3955717 ], [ -50.6005578, -20.3969579 ], [ -50.5971341, -20.3939045 ], [ -50.5933958, -20.3934843 ], [ -50.5756709, -20.3976894 ], [ -50.576205, -20.3987525 ], [ -50.5803819, -20.4011851 ], [ -50.5801502, -20.4071629 ], [ -50.5812224, -20.4094661 ], [ -50.5854884, -20.4125624 ], [ -50.5878241, -20.4178959 ], [ -50.5888405, -20.4226979 ], [ -50.5871423, -20.4255668 ], [ -50.5868248, -20.4302984 ], [ -50.5859211, -20.4321173 ], [ -50.5857449, -20.4379645 ], [ -50.5867907, -20.4424285 ], [ -50.5849547, -20.4449606 ], [ -50.5849993, -20.4460656 ], [ -50.5864294, -20.4471968 ], [ -50.5872362, -20.4516326 ], [ -50.5900376, -20.4548645 ], [ -50.5908934, -20.4587366 ], [ -50.5931336, -20.4616038 ], [ -50.5928019, -20.4643404 ], [ -50.5952429, -20.4683184 ], [ -50.5958968, -20.4710518 ], [ -50.5993724, -20.4741668 ], [ -50.6029009, -20.4749267 ], [ -50.6039537, -20.4758818 ], [ -50.6099086, -20.4828833 ], [ -50.6107925, -20.4858502 ], [ -50.617103, -20.4883473 ], [ -50.6166211, -20.4922141 ], [ -50.6203212, -20.4947928 ], [ -50.6220736, -20.4976936 ], [ -50.6219764, -20.4998513 ], [ -50.6225912, -20.5000626 ], [ -50.6216615, -20.5017016 ], [ -50.6225603, -20.5050089 ], [ -50.6244563, -20.5062211 ], [ -50.6249217, -20.5080616 ], [ -50.6273553, -20.5079241 ], [ -50.6279703, -20.5103749 ], [ -50.6293191, -20.5104379 ], [ -50.6318285, -20.5149516 ], [ -50.6340003, -20.5139042 ], [ -50.6337182, -20.5151509 ], [ -50.636552, -20.5140899 ], [ -50.6361953, -20.5097988 ], [ -50.6371876, -20.5083432 ], [ -50.6380896, -20.508037 ], [ -50.639371, -20.5091216 ], [ -50.6407711, -20.507201 ], [ -50.6446167, -20.5065402 ], [ -50.646257, -20.507618 ], [ -50.6480926, -20.5070657 ], [ -50.6484527, -20.5092636 ], [ -50.6474615, -20.5110167 ], [ -50.6499307, -20.5124043 ], [ -50.6497662, -20.514598 ], [ -50.6555114, -20.5168561 ], [ -50.6536776, -20.5130655 ], [ -50.6574757, -20.5122615 ], [ -50.6580179, -20.5060186 ], [ -50.6599737, -20.5042341 ], [ -50.6591955, -20.5036484 ], [ -50.6625945, -20.4980854 ], [ -50.6641574, -20.4941444 ], [ -50.6643242, -20.4912681 ], [ -50.6685587, -20.4866495 ], [ -50.6676269, -20.484369 ], [ -50.6685082, -20.4817869 ], [ -50.6669522, -20.4770861 ], [ -50.6671289, -20.4733909 ] ] ] ] } }
]
}
