{
"type": "FeatureCollection",
"name": "ER_REGIAO_Monteiro Lobato",
"crs": { "type": "name", "properties": { "name": "urn:ogc:def:crs:EPSG::4674" } },
"xy_coordinate_resolution": 1e-15,
"features": [
{ "type": "Feature", "properties": { "fid": 533, "NM_REGIAO": "Sudeste", "NM_UF": "São Paulo", "NM_MUN": "Monteiro Lobato", "NM_DIST": "Monteiro Lobato", "CD_SUBDIST": "35317040500", "ER_REGIAO": "Monteiro Lobato", "ER_REGIAO_CIDADE": "Monteiro Lobato_Guaratinguetá" }, "geometry": { "type": "MultiPolygon", "coordinates": [ [ [ [ -45.7297442, -22.9722973 ], [ -45.7363392, -22.9730796 ], [ -45.7399589, -22.974295 ], [ -45.7434804, -22.9798944 ], [ -45.7437181, -22.9844384 ], [ -45.7485858, -22.9894664 ], [ -45.7554988, -22.9906545 ], [ -45.7621833, -22.9907063 ], [ -45.7656567, -22.9953188 ], [ -45.7687583, -22.9965841 ], [ -45.7743266, -22.9972746 ], [ -45.7772148, -23.0025533 ], [ -45.7805017, -23.0036837 ], [ -45.7836024, -23.0068279 ], [ -45.7881708, -23.0065377 ], [ -45.7900564, -23.0091836 ], [ -45.7928508, -23.0111375 ], [ -45.7993916, -23.0121059 ], [ -45.8035622, -23.0146961 ], [ -45.8101159, -23.0123196 ], [ -45.8118843, -23.0170628 ], [ -45.8166509, -23.0198672 ], [ -45.8139499, -23.0205337 ], [ -45.8202757, -23.0293275 ], [ -45.8280918, -23.0319842 ], [ -45.8320612, -23.0361031 ], [ -45.8354245, -23.0367166 ], [ -45.836564, -23.039214 ], [ -45.844005, -23.041709 ], [ -45.847729, -23.045382 ], [ -45.854646, -23.043813 ], [ -45.858125, -23.037595 ], [ -45.861409, -23.037817 ], [ -45.870229, -23.03183 ], [ -45.875599, -23.030616 ], [ -45.878943, -23.02845 ], [ -45.880486, -23.024335 ], [ -45.886258, -23.017098 ], [ -45.884109, -23.012055 ], [ -45.885344, -23.009478 ], [ -45.888013, -23.011776 ], [ -45.891008, -23.012996 ], [ -45.894875, -23.017933 ], [ -45.897622, -23.019412 ], [ -45.901096, -23.019799 ], [ -45.904938, -23.021393 ], [ -45.907354, -23.025521 ], [ -45.913038, -23.027884 ], [ -45.915114, -23.030036 ], [ -45.918336, -23.031008 ], [ -45.920574, -23.032743 ], [ -45.921329, -23.034795 ], [ -45.923327, -23.036075 ], [ -45.927079, -23.031269 ], [ -45.931901, -23.030083 ], [ -45.928914, -23.026997 ], [ -45.931372, -23.025831 ], [ -45.930325, -23.023034 ], [ -45.932357, -23.020413 ], [ -45.930397, -23.018488 ], [ -45.928443, -23.013317 ], [ -45.921262, -23.006903 ], [ -45.919457, -23.00615 ], [ -45.919713, -23.003265 ], [ -45.916961, -23.0004 ], [ -45.911123, -22.997844 ], [ -45.910127, -22.99528 ], [ -45.907769, -22.995125 ], [ -45.907447, -22.991399 ], [ -45.899747, -22.989704 ], [ -45.897659, -22.986916 ], [ -45.896406, -22.986923 ], [ -45.894729, -22.985563 ], [ -45.894405, -22.982005 ], [ -45.892884, -22.981001 ], [ -45.89294, -22.978557 ], [ -45.890742, -22.974757 ], [ -45.890468, -22.971493 ], [ -45.880611, -22.965668 ], [ -45.883058, -22.961906 ], [ -45.885544, -22.961183 ], [ -45.88762, -22.958189 ], [ -45.886015, -22.954415 ], [ -45.882582, -22.951217 ], [ -45.885209, -22.949981 ], [ -45.886835, -22.947776 ], [ -45.888661, -22.947317 ], [ -45.88884, -22.944776 ], [ -45.893665, -22.941871 ], [ -45.895645, -22.933866 ], [ -45.890776, -22.933831 ], [ -45.886618, -22.930725 ], [ -45.88425, -22.929924 ], [ -45.880999, -22.924381 ], [ -45.881127, -22.923078 ], [ -45.879324, -22.922946 ], [ -45.877448, -22.921204 ], [ -45.87602, -22.916435 ], [ -45.878103, -22.913247 ], [ -45.878253, -22.911772 ], [ -45.87649, -22.909458 ], [ -45.874097, -22.902453 ], [ -45.870021, -22.898217 ], [ -45.868692, -22.895393 ], [ -45.863815, -22.892441 ], [ -45.865456, -22.885466 ], [ -45.870006, -22.881849 ], [ -45.870162, -22.87807 ], [ -45.871349, -22.874636 ], [ -45.8703851, -22.869413 ], [ -45.8638522, -22.8687103 ], [ -45.8618003, -22.8661637 ], [ -45.8604069, -22.8621235 ], [ -45.8573023, -22.8587281 ], [ -45.8585536, -22.8553226 ], [ -45.8572787, -22.851179 ], [ -45.8500817, -22.846924 ], [ -45.8504731, -22.8434578 ], [ -45.8481273, -22.8378307 ], [ -45.8417401, -22.8331835 ], [ -45.8396742, -22.8325226 ], [ -45.8372455, -22.8320719 ], [ -45.8352992, -22.8326373 ], [ -45.833269, -22.8346957 ], [ -45.8294911, -22.834889 ], [ -45.8256047, -22.833643 ], [ -45.8245749, -22.8304704 ], [ -45.823366, -22.829887 ], [ -45.8165052, -22.8321536 ], [ -45.816136, -22.8343798 ], [ -45.8151872, -22.8344032 ], [ -45.8136022, -22.8322074 ], [ -45.809802, -22.8293866 ], [ -45.8083507, -22.8312572 ], [ -45.80285, -22.8337934 ], [ -45.80142, -22.8377163 ], [ -45.8005945, -22.8476294 ], [ -45.7966737, -22.8520721 ], [ -45.7923785, -22.8552279 ], [ -45.7922154, -22.8577164 ], [ -45.7908539, -22.858606 ], [ -45.7818841, -22.8552572 ], [ -45.7794691, -22.8506912 ], [ -45.7749576, -22.8493241 ], [ -45.7703197, -22.8468074 ], [ -45.7669649, -22.8423465 ], [ -45.7680281, -22.8359588 ], [ -45.7661861, -22.8359244 ], [ -45.762859, -22.837821 ], [ -45.7600434, -22.835593 ], [ -45.7587334, -22.8355213 ], [ -45.7578312, -22.8368188 ], [ -45.7592489, -22.8409222 ], [ -45.7589023, -22.8425512 ], [ -45.7540678, -22.8476701 ], [ -45.7545155, -22.849088 ], [ -45.7569528, -22.8498013 ], [ -45.7557303, -22.8543455 ], [ -45.756967, -22.8598857 ], [ -45.7553819, -22.8639388 ], [ -45.7567501, -22.8668313 ], [ -45.7565361, -22.8680404 ], [ -45.7514691, -22.8770413 ], [ -45.7483754, -22.8768597 ], [ -45.7442914, -22.8791882 ], [ -45.7403782, -22.8891722 ], [ -45.7368576, -22.8910875 ], [ -45.7355908, -22.8913879 ], [ -45.7341993, -22.8903551 ], [ -45.7307344, -22.891469 ], [ -45.726486, -22.8901273 ], [ -45.7253911, -22.8908265 ], [ -45.7249371, -22.8897408 ], [ -45.7234572, -22.8899647 ], [ -45.7225301, -22.8888097 ], [ -45.7201564, -22.8895566 ], [ -45.7192484, -22.8882179 ], [ -45.7156669, -22.8897521 ], [ -45.7118244, -22.8891034 ], [ -45.7078847, -22.8860078 ], [ -45.7037224, -22.8853711 ], [ -45.7009794, -22.8858028 ], [ -45.6915293, -22.8820001 ], [ -45.6801577, -22.8788807 ], [ -45.66996, -22.8764581 ], [ -45.6666124, -22.8777568 ], [ -45.6663554, -22.8816838 ], [ -45.6689456, -22.8832311 ], [ -45.6679912, -22.8848146 ], [ -45.6717183, -22.8874159 ], [ -45.6716309, -22.8895859 ], [ -45.6729549, -22.8925831 ], [ -45.6770484, -22.8967084 ], [ -45.6746872, -22.8984367 ], [ -45.6751323, -22.9004067 ], [ -45.6782152, -22.9026967 ], [ -45.6798026, -22.9058582 ], [ -45.6843291, -22.907202 ], [ -45.6833495, -22.9106892 ], [ -45.679605, -22.9133325 ], [ -45.6751672, -22.9149887 ], [ -45.6743779, -22.9196769 ], [ -45.6723778, -22.9230167 ], [ -45.6752026, -22.9277763 ], [ -45.6814712, -22.9313354 ], [ -45.6869477, -22.9326948 ], [ -45.6930838, -22.9391008 ], [ -45.6959874, -22.9394909 ], [ -45.7058253, -22.9486194 ], [ -45.7094592, -22.9569904 ], [ -45.7142913, -22.9584448 ], [ -45.716546, -22.9637071 ], [ -45.7190348, -22.9649297 ], [ -45.7206689, -22.9679556 ], [ -45.7276597, -22.9696542 ], [ -45.7297442, -22.9722973 ] ] ] ] } }
]
}
