{
"type": "FeatureCollection",
"name": "ER_REGIAO_Taiaçu",
"crs": { "type": "name", "properties": { "name": "urn:ogc:def:crs:EPSG::4674" } },
"xy_coordinate_resolution": 1e-15,
"features": [
{ "type": "Feature", "properties": { "fid": 971, "NM_REGIAO": "Sudeste", "NM_UF": "São Paulo", "NM_MUN": "Taiaçu", "NM_DIST": "Taiaçu", "CD_SUBDIST": "35531040500", "ER_REGIAO": "Taiaçu", "ER_REGIAO_CIDADE": "Taiaçu_Barretos" }, "geometry": { "type": "MultiPolygon", "coordinates": [ [ [ [ -48.530729, -21.1884652 ], [ -48.5354807, -21.1862644 ], [ -48.5387518, -21.1790255 ], [ -48.5381205, -21.1707617 ], [ -48.5387917, -21.1691747 ], [ -48.5467844, -21.1681318 ], [ -48.5543509, -21.1653898 ], [ -48.5586507, -21.1663378 ], [ -48.561178, -21.1647571 ], [ -48.5654459, -21.1649712 ], [ -48.5678057, -21.1629592 ], [ -48.5714883, -21.1621606 ], [ -48.5814047, -21.1656712 ], [ -48.583143, -21.1622069 ], [ -48.5863677, -21.1587414 ], [ -48.5883561, -21.1480114 ], [ -48.5954828, -21.1430585 ], [ -48.597695, -21.1431171 ], [ -48.5964827, -21.1394435 ], [ -48.5928981, -21.1352187 ], [ -48.5912408, -21.1304624 ], [ -48.5912021, -21.1262712 ], [ -48.5902096, -21.1250901 ], [ -48.5882459, -21.1238123 ], [ -48.5830293, -21.1233402 ], [ -48.579401, -21.1220471 ], [ -48.5738054, -21.1150912 ], [ -48.5717292, -21.11424 ], [ -48.571732, -21.1107843 ], [ -48.575246, -21.1092058 ], [ -48.5745177, -21.1070492 ], [ -48.5771769, -21.1037336 ], [ -48.5773541, -21.1008658 ], [ -48.5763749, -21.0970407 ], [ -48.5744843, -21.0944421 ], [ -48.5704618, -21.0913944 ], [ -48.5666409, -21.0822683 ], [ -48.5660747, -21.079025 ], [ -48.5668126, -21.0761703 ], [ -48.5677145, -21.0755291 ], [ -48.5670877, -21.0752699 ], [ -48.5626983, -21.0756949 ], [ -48.5617975, -21.0770299 ], [ -48.5598326, -21.07781 ], [ -48.5592948, -21.0806812 ], [ -48.5568853, -21.0817993 ], [ -48.5542519, -21.0861877 ], [ -48.5500308, -21.0852813 ], [ -48.5489531, -21.0833364 ], [ -48.5471052, -21.0836304 ], [ -48.5441162, -21.0886898 ], [ -48.5411002, -21.0884441 ], [ -48.5393088, -21.089435 ], [ -48.5387639, -21.0907902 ], [ -48.5347987, -21.0912726 ], [ -48.5324842, -21.0904798 ], [ -48.5288952, -21.0873909 ], [ -48.5264528, -21.0833582 ], [ -48.5213214, -21.0792397 ], [ -48.5199437, -21.0757183 ], [ -48.5183411, -21.0748118 ], [ -48.5106865, -21.075544 ], [ -48.5044965, -21.0780248 ], [ -48.4967871, -21.0776013 ], [ -48.4915927, -21.0817838 ], [ -48.4898167, -21.0874204 ], [ -48.4852702, -21.0953128 ], [ -48.4856237, -21.1006941 ], [ -48.4808983, -21.1066363 ], [ -48.4812675, -21.1085744 ], [ -48.4848225, -21.1121307 ], [ -48.4874524, -21.1226129 ], [ -48.4903686, -21.128314 ], [ -48.4931688, -21.1313282 ], [ -48.4931161, -21.1329854 ], [ -48.4911484, -21.1391116 ], [ -48.4851139, -21.1429905 ], [ -48.4815915, -21.1438096 ], [ -48.4803299, -21.1454608 ], [ -48.4787416, -21.1458169 ], [ -48.4783511, -21.1476926 ], [ -48.4794716, -21.1490881 ], [ -48.4793297, -21.1525929 ], [ -48.4774668, -21.1577132 ], [ -48.4782667, -21.1624988 ], [ -48.4766217, -21.1645542 ], [ -48.4766856, -21.1726713 ], [ -48.4778579, -21.1758111 ], [ -48.4770971, -21.17932 ], [ -48.4827886, -21.1820965 ], [ -48.4977461, -21.1841474 ], [ -48.5035941, -21.1839635 ], [ -48.5057168, -21.1830025 ], [ -48.5091415, -21.1833357 ], [ -48.5117847, -21.1841926 ], [ -48.5132838, -21.1856308 ], [ -48.5138401, -21.1892655 ], [ -48.5147727, -21.1901553 ], [ -48.520529, -21.1876634 ], [ -48.5265614, -21.1890914 ], [ -48.530729, -21.1884652 ] ] ] ] } }
]
}
