{
"type": "FeatureCollection",
"name": "ER_REGIAO_Amparo_Arcadas",
"crs": { "type": "name", "properties": { "name": "urn:ogc:def:crs:EPSG::4674" } },
"xy_coordinate_resolution": 1e-15,
"features": [
{ "type": "Feature", "properties": { "fid": 30, "NM_REGIAO": "Sudeste", "NM_UF": "São Paulo", "NM_MUN": "Amparo", "NM_DIST": "Arcadas", "CD_SUBDIST": "35019051000", "ER_REGIAO": "Amparo_Arcadas", "ER_REGIAO_CIDADE": "Amparo_Arcadas_Campinas" }, "geometry": { "type": "MultiPolygon", "coordinates": [ [ [ [ -46.808794, -22.709397 ], [ -46.80936, -22.711727 ], [ -46.806822, -22.713032 ], [ -46.805479, -22.717351 ], [ -46.806171, -22.718461 ], [ -46.805036, -22.719781 ], [ -46.80587, -22.721364 ], [ -46.806, -22.724941 ], [ -46.8035316, -22.7266045 ], [ -46.8025766, -22.7308997 ], [ -46.8031846, -22.7327184 ], [ -46.7868777, -22.762022 ], [ -46.7856462, -22.7658497 ], [ -46.7841813, -22.7672081 ], [ -46.784137, -22.771608 ], [ -46.7852599, -22.7748778 ], [ -46.7821751, -22.7773119 ], [ -46.7820153, -22.7784173 ], [ -46.7836847, -22.7800171 ], [ -46.7827034, -22.7826814 ], [ -46.7854953, -22.7883511 ], [ -46.7792352, -22.7887269 ], [ -46.7773426, -22.7898693 ], [ -46.7796507, -22.7953009 ], [ -46.7805343, -22.7956648 ], [ -46.7849576, -22.7948679 ], [ -46.7931606, -22.7959657 ], [ -46.7970368, -22.7924889 ], [ -46.800331, -22.7923157 ], [ -46.8030868, -22.7857302 ], [ -46.8095302, -22.7853518 ], [ -46.8204087, -22.7796189 ], [ -46.8225872, -22.7797029 ], [ -46.8270106, -22.7817263 ], [ -46.828586, -22.7814698 ], [ -46.8353091, -22.7768334 ], [ -46.836797, -22.7746744 ], [ -46.8442551, -22.7691318 ], [ -46.8446522, -22.7640457 ], [ -46.8497648, -22.7605347 ], [ -46.8497025, -22.754143 ], [ -46.8485289, -22.7499488 ], [ -46.8574906, -22.7478247 ], [ -46.8597498, -22.7461127 ], [ -46.8603576, -22.7439538 ], [ -46.8585629, -22.7392004 ], [ -46.8587321, -22.7374521 ], [ -46.8606117, -22.735893 ], [ -46.8606943, -22.7340861 ], [ -46.8636236, -22.7280965 ], [ -46.8666161, -22.726178 ], [ -46.869658, -22.7207294 ], [ -46.8735213, -22.7172983 ], [ -46.8807613, -22.7189608 ], [ -46.8845536, -22.7156188 ], [ -46.8826035, -22.7096817 ], [ -46.88281, -22.708317 ], [ -46.8810118, -22.7062463 ], [ -46.8784608, -22.69689 ], [ -46.8798998, -22.6932337 ], [ -46.8796116, -22.6909415 ], [ -46.8817422, -22.6899688 ], [ -46.880122, -22.6883362 ], [ -46.8784753, -22.6847212 ], [ -46.8800947, -22.6841991 ], [ -46.8788173, -22.6804748 ], [ -46.8706091, -22.6797677 ], [ -46.8676518, -22.6806768 ], [ -46.8667011, -22.6823599 ], [ -46.8654733, -22.6774379 ], [ -46.864481, -22.6770167 ], [ -46.8616201, -22.6822147 ], [ -46.8587327, -22.6822834 ], [ -46.8578596, -22.6812568 ], [ -46.8587788, -22.6858509 ], [ -46.858327, -22.6888385 ], [ -46.8568926, -22.6899289 ], [ -46.855389, -22.6896153 ], [ -46.8562481, -22.6922569 ], [ -46.8545845, -22.6937027 ], [ -46.8537256, -22.6967037 ], [ -46.8484373, -22.699868 ], [ -46.847593, -22.702751 ], [ -46.8457854, -22.7012598 ], [ -46.8430015, -22.7015214 ], [ -46.8416542, -22.70491 ], [ -46.8423373, -22.7079866 ], [ -46.8393696, -22.7083521 ], [ -46.8344237, -22.7060144 ], [ -46.8326193, -22.7096223 ], [ -46.8316053, -22.708292 ], [ -46.8304052, -22.708825 ], [ -46.827994, -22.707516 ], [ -46.827702, -22.708335 ], [ -46.828846, -22.70974 ], [ -46.827349, -22.710674 ], [ -46.826493, -22.709614 ], [ -46.824641, -22.709176 ], [ -46.825491, -22.706342 ], [ -46.823133, -22.70738 ], [ -46.822074, -22.708937 ], [ -46.82042, -22.708429 ], [ -46.81971, -22.705916 ], [ -46.814617, -22.704418 ], [ -46.809517, -22.707876 ], [ -46.808794, -22.709397 ] ] ] ] } }
]
}
