{
"type": "FeatureCollection",
"name": "ER_REGIAO_Tejupá_Ribeirão Bonito",
"crs": { "type": "name", "properties": { "name": "urn:ogc:def:crs:EPSG::4674" } },
"xy_coordinate_resolution": 1e-15,
"features": [
{ "type": "Feature", "properties": { "fid": 992, "NM_REGIAO": "Sudeste", "NM_UF": "São Paulo", "NM_MUN": "Tejupá", "NM_DIST": "Ribeirão Bonito", "CD_SUBDIST": "35542012000", "ER_REGIAO": "Tejupá_Ribeirão Bonito", "ER_REGIAO_CIDADE": "Tejupá_Ribeirão Bonito_Ourinhos" }, "geometry": { "type": "MultiPolygon", "coordinates": [ [ [ [ -49.2391384, -23.3467087 ], [ -49.2166987, -23.3529752 ], [ -49.2168077, -23.3512751 ], [ -49.2155624, -23.3578282 ], [ -49.2101675, -23.3619684 ], [ -49.2088074, -23.3647922 ], [ -49.2098472, -23.3674416 ], [ -49.2138048, -23.3716537 ], [ -49.2129972, -23.3732117 ], [ -49.2063248, -23.378127 ], [ -49.204826, -23.3809068 ], [ -49.2050994, -23.382932 ], [ -49.2073865, -23.385489 ], [ -49.2121154, -23.3868288 ], [ -49.2179367, -23.3867569 ], [ -49.2223357, -23.3848345 ], [ -49.2235862, -23.3857158 ], [ -49.2204135, -23.391666 ], [ -49.2153137, -23.3954828 ], [ -49.206904, -23.4049443 ], [ -49.2079001, -23.4132555 ], [ -49.2141133, -23.4187717 ], [ -49.2175612, -23.4176303 ], [ -49.2229877, -23.4174122 ], [ -49.225669, -23.4183119 ], [ -49.2282198, -23.4208559 ], [ -49.2291287, -23.4208998 ], [ -49.2299907, -23.4180796 ], [ -49.2319792, -23.4177753 ], [ -49.2335661, -23.4160842 ], [ -49.236653, -23.4146594 ], [ -49.2405773, -23.4167154 ], [ -49.2436379, -23.4140555 ], [ -49.2472834, -23.4151228 ], [ -49.2467822, -23.4137267 ], [ -49.248023, -23.4128374 ], [ -49.249868, -23.4140239 ], [ -49.2502545, -23.4116746 ], [ -49.251696, -23.4107004 ], [ -49.2518171, -23.4089016 ], [ -49.257082, -23.4075774 ], [ -49.2582593, -23.4079689 ], [ -49.2584208, -23.4090376 ], [ -49.2602403, -23.4090719 ], [ -49.2605914, -23.4102906 ], [ -49.2628236, -23.4122029 ], [ -49.2671286, -23.4134195 ], [ -49.267708, -23.4128712 ], [ -49.2672264, -23.4110307 ], [ -49.2701961, -23.4104367 ], [ -49.2708284, -23.4090352 ], [ -49.2741331, -23.409752 ], [ -49.2746518, -23.4107459 ], [ -49.2769365, -23.4112148 ], [ -49.2774666, -23.4123838 ], [ -49.2796506, -23.4131271 ], [ -49.2863749, -23.4106424 ], [ -49.2885737, -23.4151902 ], [ -49.290513, -23.4155476 ], [ -49.2921393, -23.4173883 ], [ -49.2935354, -23.4176068 ], [ -49.2952534, -23.4155906 ], [ -49.2984443, -23.4149961 ], [ -49.3007487, -23.412165 ], [ -49.3009184, -23.4082868 ], [ -49.3040206, -23.4060447 ], [ -49.3023535, -23.4043507 ], [ -49.3053413, -23.4005585 ], [ -49.305603, -23.3933153 ], [ -49.3072639, -23.3906301 ], [ -49.3112367, -23.3896283 ], [ -49.3192465, -23.3903857 ], [ -49.3203544, -23.3778183 ], [ -49.3180207, -23.3761658 ], [ -49.3168254, -23.3739816 ], [ -49.3165269, -23.3661423 ], [ -49.3167842, -23.363615 ], [ -49.318959, -23.3583693 ], [ -49.3160302, -23.3557036 ], [ -49.3028002, -23.3563081 ], [ -49.2980288, -23.3538482 ], [ -49.2939712, -23.3547842 ], [ -49.2931938, -23.3541889 ], [ -49.2934345, -23.3523349 ], [ -49.2920848, -23.3501036 ], [ -49.2918068, -23.3477279 ], [ -49.2887883, -23.3454879 ], [ -49.2733903, -23.3377352 ], [ -49.2656305, -23.335311 ], [ -49.2544114, -23.3444948 ], [ -49.2465362, -23.3436963 ], [ -49.2391384, -23.3467087 ] ] ] ] } }
]
}
