{
"type": "FeatureCollection",
"name": "ER_REGIAO_São João do Pau d'Alho",
"crs": { "type": "name", "properties": { "name": "urn:ogc:def:crs:EPSG::4674" } },
"xy_coordinate_resolution": 1e-15,
"features": [
{ "type": "Feature", "properties": { "fid": 817, "NM_REGIAO": "Sudeste", "NM_UF": "São Paulo", "NM_MUN": "São João do Pau d'Alho", "NM_DIST": "São João do Pau d'Alho", "CD_SUBDIST": "35493000500", "ER_REGIAO": "São João do Pau d'Alho", "ER_REGIAO_CIDADE": "São João do Pau d'Alho_Araçatuba" }, "geometry": { "type": "MultiPolygon", "coordinates": [ [ [ [ -51.708187099999975, -21.192778 ], [ -51.70770049999993, -21.188341799999932 ], [ -51.703312699999969, -21.177484799999945 ], [ -51.702814799999942, -21.172059499999932 ], [ -51.699171299999932, -21.16878209999993 ], [ -51.693925, -21.167410899999936 ], [ -51.692502099999956, -21.165828199999964 ], [ -51.690979399999947, -21.157406499999979 ], [ -51.688647099999969, -21.155115399999943 ], [ -51.683672299999955, -21.152544399999954 ], [ -51.681999699999949, -21.149133599999971 ], [ -51.679887, -21.149481399999956 ], [ -51.676779899999985, -21.151399 ], [ -51.673959799999977, -21.149113599999964 ], [ -51.672151699999972, -21.149173 ], [ -51.671424699999932, -21.150726499999962 ], [ -51.674396099999967, -21.153313699999956 ], [ -51.671200799999951, -21.154213699999957 ], [ -51.667456899999934, -21.156864399999961 ], [ -51.668159499999945, -21.158453599999973 ], [ -51.671889199999953, -21.158804199999963 ], [ -51.672314099999937, -21.160498899999936 ], [ -51.668341599999962, -21.161826099999928 ], [ -51.665583199999958, -21.164035699999943 ], [ -51.660852199999965, -21.166132299999958 ], [ -51.658759799999984, -21.16955269999994 ], [ -51.656776499999978, -21.169358199999976 ], [ -51.653784099999939, -21.167458099999976 ], [ -51.643773799999963, -21.16645589999996 ], [ -51.641490499999975, -21.165224899999941 ], [ -51.639612399999976, -21.162788599999942 ], [ -51.631022399999949, -21.162794699999949 ], [ -51.628900499999986, -21.164698399999963 ], [ -51.628788499999985, -21.167863199999942 ], [ -51.626979299999959, -21.173332899999934 ], [ -51.627618899999959, -21.177308799999935 ], [ -51.625421199999948, -21.179840499999955 ], [ -51.622347, -21.180629599999975 ], [ -51.620702699999981, -21.190029599999946 ], [ -51.62365, -21.199722599999973 ], [ -51.624539499999969, -21.201438399999972 ], [ -51.629178, -21.205744799999934 ], [ -51.629868099999953, -21.210305499999947 ], [ -51.633509, -21.215030199999944 ], [ -51.634755499999983, -21.221980599999938 ], [ -51.635675399999968, -21.222832899999958 ], [ -51.635983299999964, -21.227206699999954 ], [ -51.632647299999974, -21.232327399999974 ], [ -51.632755399999951, -21.235628899999938 ], [ -51.63417, -21.242978799999946 ], [ -51.636866199999986, -21.247303 ], [ -51.637441799999976, -21.25506919999998 ], [ -51.639771799999949, -21.256313099999943 ], [ -51.63895059999993, -21.257947299999955 ], [ -51.640209, -21.262035199999957 ], [ -51.642819199999963, -21.262486699999954 ], [ -51.644517, -21.265566199999967 ], [ -51.64417949999995, -21.267994599999952 ], [ -51.646246299999973, -21.27107929999994 ], [ -51.645706899999936, -21.273475799999972 ], [ -51.646212899999966, -21.274589599999956 ], [ -51.648624499999983, -21.276889899999958 ], [ -51.650755099999969, -21.281013599999937 ], [ -51.653117599999973, -21.282869799999958 ], [ -51.649466599999982, -21.289544099999944 ], [ -51.648339399999941, -21.294428699999969 ], [ -51.650604, -21.299646 ], [ -51.652789899999959, -21.30116419999996 ], [ -51.660088799999983, -21.300251799999955 ], [ -51.66481349999998, -21.304957799999954 ], [ -51.667799299999956, -21.306137299999932 ], [ -51.68164459999997, -21.303628799999956 ], [ -51.684535899999958, -21.291346799999928 ], [ -51.683230899999955, -21.283663799999943 ], [ -51.693061799999953, -21.280965299999934 ], [ -51.698368699999946, -21.277143899999942 ], [ -51.701893199999972, -21.271670499999971 ], [ -51.701595699999984, -21.262284499999964 ], [ -51.703532199999984, -21.257278699999972 ], [ -51.705756699999938, -21.254066599999931 ], [ -51.707872299999963, -21.25154 ], [ -51.71536889999993, -21.24583679999995 ], [ -51.724535299999957, -21.24171819999998 ], [ -51.726572, -21.23154569999997 ], [ -51.72922959999994, -21.227612499999964 ], [ -51.731678899999963, -21.225695599999938 ], [ -51.731538, -21.221683299999938 ], [ -51.729509099999973, -21.220747 ], [ -51.726231799999937, -21.216599499999973 ], [ -51.72256589999995, -21.215001199999961 ], [ -51.724787899999967, -21.209615199999973 ], [ -51.72473, -21.207672799999955 ], [ -51.722006499999964, -21.203935199999933 ], [ -51.721891099999937, -21.202354 ], [ -51.717122399999937, -21.198769399999946 ], [ -51.71234579999998, -21.196900399999947 ], [ -51.708187099999975, -21.192778 ] ] ] ] } }
]
}
