{
"type": "FeatureCollection",
"name": "ER_REGIAO_Francisco Morato",
"crs": { "type": "name", "properties": { "name": "urn:ogc:def:crs:EPSG::4674" } },
"xy_coordinate_resolution": 1e-15,
"features": [
{ "type": "Feature", "properties": { "fid": 270, "NM_REGIAO": "Sudeste", "NM_UF": "São Paulo", "NM_MUN": "Francisco Morato", "NM_DIST": "Francisco Morato", "CD_SUBDIST": "35163090500", "ER_REGIAO": "Francisco Morato", "ER_REGIAO_CIDADE": "Francisco Morato_Guarulhos" }, "geometry": { "type": "MultiPolygon", "coordinates": [ [ [ [ -46.717781, -23.302352 ], [ -46.751497, -23.301648 ], [ -46.750285, -23.300349 ], [ -46.751305, -23.298937 ], [ -46.750938, -23.297549 ], [ -46.753745, -23.2970251 ], [ -46.755614, -23.297555 ], [ -46.758286, -23.292407 ], [ -46.7599934, -23.2911757 ], [ -46.7622931, -23.2918718 ], [ -46.76484, -23.289972 ], [ -46.764962, -23.285675 ], [ -46.7679705, -23.2856242 ], [ -46.7700364, -23.2829945 ], [ -46.773819, -23.281399 ], [ -46.777814, -23.276481 ], [ -46.779147, -23.271227 ], [ -46.782107, -23.266503 ], [ -46.783686, -23.265378 ], [ -46.783886, -23.260757 ], [ -46.777982, -23.256418 ], [ -46.771508, -23.259853 ], [ -46.766154, -23.259221 ], [ -46.763431, -23.257768 ], [ -46.760845, -23.258396 ], [ -46.760075, -23.257859 ], [ -46.760068, -23.25623 ], [ -46.757163, -23.253483 ], [ -46.7525611, -23.2557441 ], [ -46.7511606, -23.253171 ], [ -46.745466, -23.2504049 ], [ -46.7429804, -23.2504475 ], [ -46.7388663, -23.2526911 ], [ -46.7349184, -23.25233 ], [ -46.7332634, -23.2533602 ], [ -46.7315717, -23.2532348 ], [ -46.7288035, -23.2518009 ], [ -46.7253636, -23.2484576 ], [ -46.7229292, -23.2490701 ], [ -46.7185235, -23.2532958 ], [ -46.7095646, -23.2533155 ], [ -46.7053349, -23.2516307 ], [ -46.7021117, -23.2518123 ], [ -46.6979398, -23.2535959 ], [ -46.6971794, -23.2549749 ], [ -46.6989502, -23.2560337 ], [ -46.6988037, -23.2569401 ], [ -46.6957401, -23.257225 ], [ -46.6942003, -23.259201 ], [ -46.693079, -23.2590746 ], [ -46.6909392, -23.2570353 ], [ -46.6865655, -23.2589582 ], [ -46.6843128, -23.2571066 ], [ -46.6783601, -23.2610006 ], [ -46.675775, -23.2616018 ], [ -46.67209, -23.2560258 ], [ -46.6690511, -23.2563759 ], [ -46.6666941, -23.2588102 ], [ -46.6636535, -23.2585496 ], [ -46.6563133, -23.2599065 ], [ -46.6513443, -23.2594797 ], [ -46.6492264, -23.2575334 ], [ -46.646295, -23.2566078 ], [ -46.6436501, -23.2546388 ], [ -46.6414205, -23.2553403 ], [ -46.638447, -23.257666 ], [ -46.638946, -23.259507 ], [ -46.640585, -23.261059 ], [ -46.647654, -23.263627 ], [ -46.651604, -23.267383 ], [ -46.657711, -23.268149 ], [ -46.66228, -23.267518 ], [ -46.6642765, -23.2693966 ], [ -46.6673352, -23.2696818 ], [ -46.670757, -23.271584 ], [ -46.673077, -23.271932 ], [ -46.672913, -23.273356 ], [ -46.675373, -23.273158 ], [ -46.676896, -23.273542 ], [ -46.67727, -23.27438 ], [ -46.678492, -23.274084 ], [ -46.679187, -23.276495 ], [ -46.681543, -23.278773 ], [ -46.683697, -23.278835 ], [ -46.684721, -23.277952 ], [ -46.687079, -23.278293 ], [ -46.687695, -23.278735 ], [ -46.687282, -23.281395 ], [ -46.683968, -23.282257 ], [ -46.682969, -23.283297 ], [ -46.68613, -23.287658 ], [ -46.687473, -23.287125 ], [ -46.689139, -23.29069 ], [ -46.697329, -23.289553 ], [ -46.698375, -23.290478 ], [ -46.698338, -23.291719 ], [ -46.70215, -23.293141 ], [ -46.703027, -23.295094 ], [ -46.704348, -23.295033 ], [ -46.7051744, -23.2958804 ], [ -46.711454, -23.294573 ], [ -46.71485, -23.298537 ], [ -46.717389, -23.300268 ], [ -46.717781, -23.302352 ] ] ] ] } }
]
}
