{
"type": "FeatureCollection",
"name": "ER_REGIAO_Paraibuna",
"crs": { "type": "name", "properties": { "name": "urn:ogc:def:crs:EPSG::4674" } },
"xy_coordinate_resolution": 1e-15,
"features": [
{ "type": "Feature", "properties": { "fid": 600, "NM_REGIAO": "Sudeste", "NM_UF": "São Paulo", "NM_MUN": "Paraibuna", "NM_DIST": "Paraibuna", "CD_SUBDIST": "35356060500", "ER_REGIAO": "Paraibuna", "ER_REGIAO_CIDADE": "Paraibuna_Alto Tietê" }, "geometry": { "type": "MultiPolygon", "coordinates": [ [ [ [ -45.7000371, -23.6174834 ], [ -45.7035437, -23.6111743 ], [ -45.7035097, -23.6102868 ], [ -45.7017785, -23.6092312 ], [ -45.7030226, -23.6042034 ], [ -45.7059471, -23.60159 ], [ -45.7131388, -23.6062778 ], [ -45.7128536, -23.6075116 ], [ -45.7153279, -23.608783 ], [ -45.721454, -23.6063361 ], [ -45.7222634, -23.6046953 ], [ -45.7214957, -23.5999336 ], [ -45.7239168, -23.598178 ], [ -45.7256126, -23.5984748 ], [ -45.7278652, -23.6004757 ], [ -45.7334344, -23.6031548 ], [ -45.7403546, -23.6039326 ], [ -45.7437527, -23.6020893 ], [ -45.7427237, -23.6005091 ], [ -45.740004, -23.5988002 ], [ -45.7392861, -23.5960081 ], [ -45.7340867, -23.5930682 ], [ -45.7339321, -23.5867135 ], [ -45.7381762, -23.5869025 ], [ -45.7398301, -23.5863353 ], [ -45.7403813, -23.5850474 ], [ -45.7356465, -23.5782923 ], [ -45.7316616, -23.5769855 ], [ -45.730937, -23.5744871 ], [ -45.7333736, -23.5720875 ], [ -45.7415361, -23.5721523 ], [ -45.7461274, -23.5661283 ], [ -45.7459848, -23.564793 ], [ -45.7431248, -23.5634983 ], [ -45.741247, -23.5613615 ], [ -45.7430319, -23.5581294 ], [ -45.7462764, -23.5561486 ], [ -45.7470908, -23.5546333 ], [ -45.7460907, -23.5398288 ], [ -45.7539806, -23.531966 ], [ -45.754198, -23.5261875 ], [ -45.7605365, -23.5240092 ], [ -45.7594071, -23.5226696 ], [ -45.7596921, -23.5205328 ], [ -45.7619432, -23.5184805 ], [ -45.7592762, -23.5130211 ], [ -45.7561191, -23.5121613 ], [ -45.756027, -23.5111595 ], [ -45.7636051, -23.511206 ], [ -45.7652374, -23.5100265 ], [ -45.7707247, -23.5084719 ], [ -45.7720752, -23.507153 ], [ -45.7738939, -23.5084166 ], [ -45.7834403, -23.5099666 ], [ -45.7884429, -23.5091507 ], [ -45.7891458, -23.5075682 ], [ -45.7911483, -23.5063271 ], [ -45.7901905, -23.5031003 ], [ -45.7886341, -23.5018605 ], [ -45.7899439, -23.4972281 ], [ -45.7876036, -23.4958056 ], [ -45.7887941, -23.4928822 ], [ -45.7881977, -23.4897873 ], [ -45.7806713, -23.487031 ], [ -45.7770214, -23.4829685 ], [ -45.7808007, -23.4819254 ], [ -45.7822479, -23.4795364 ], [ -45.7840368, -23.4789001 ], [ -45.7826725, -23.4772409 ], [ -45.7834791, -23.4755006 ], [ -45.7828436, -23.4737423 ], [ -45.7836222, -23.4721674 ], [ -45.7885692, -23.4687893 ], [ -45.7865534, -23.4649658 ], [ -45.7861346, -23.4602161 ], [ -45.7845922, -23.4588686 ], [ -45.7801368, -23.4572299 ], [ -45.7768124, -23.4531756 ], [ -45.7726268, -23.4525111 ], [ -45.7701185, -23.4466614 ], [ -45.7640921, -23.4407846 ], [ -45.7634811, -23.4392822 ], [ -45.7639216, -23.4341698 ], [ -45.7690819, -23.4340785 ], [ -45.7731917, -23.4327729 ], [ -45.7752827, -23.4301225 ], [ -45.7776246, -23.4237886 ], [ -45.7843639, -23.4223644 ], [ -45.7867339, -23.4200431 ], [ -45.778648, -23.4153747 ], [ -45.7747288, -23.4113936 ], [ -45.7740082, -23.4098551 ], [ -45.7747428, -23.4062866 ], [ -45.7739357, -23.4049408 ], [ -45.7703514, -23.405252 ], [ -45.7688242, -23.4025991 ], [ -45.767235, -23.4031777 ], [ -45.7623147, -23.4020463 ], [ -45.7612861, -23.3991629 ], [ -45.7578553, -23.3945599 ], [ -45.756929, -23.3914829 ], [ -45.7544877, -23.3891326 ], [ -45.7539849, -23.3855506 ], [ -45.7541042, -23.3843115 ], [ -45.7559876, -23.3833011 ], [ -45.7540335, -23.3808714 ], [ -45.7569701, -23.3743377 ], [ -45.7586767, -23.3738504 ], [ -45.7627095, -23.3762542 ], [ -45.7672899, -23.3770852 ], [ -45.7772651, -23.3732261 ], [ -45.7792856, -23.3709161 ], [ -45.7824096, -23.3697673 ], [ -45.7843066, -23.369824 ], [ -45.7867361, -23.3710892 ], [ -45.7861231, -23.3683361 ], [ -45.786537, -23.3656733 ], [ -45.7885418, -23.362663 ], [ -45.7827563, -23.3603882 ], [ -45.7823322, -23.3555694 ], [ -45.7788573, -23.3547222 ], [ -45.7776282, -23.3500139 ], [ -45.7746102, -23.3499202 ], [ -45.7709815, -23.3533684 ], [ -45.7661783, -23.3522095 ], [ -45.7639588, -23.3507255 ], [ -45.7642454, -23.3491392 ], [ -45.767051, -23.3453821 ], [ -45.7669069, -23.3439006 ], [ -45.7650339, -23.3424374 ], [ -45.7608648, -23.3431065 ], [ -45.7566584, -23.3462506 ], [ -45.7515956, -23.3460426 ], [ -45.7488391, -23.3480277 ], [ -45.7476201, -23.3524421 ], [ -45.7451945, -23.3527913 ], [ -45.7418358, -23.3515298 ], [ -45.7386298, -23.3457462 ], [ -45.7364124, -23.3437931 ], [ -45.7343599, -23.3431567 ], [ -45.7283541, -23.343449 ], [ -45.7248778, -23.3418019 ], [ -45.7210972, -23.3411867 ], [ -45.7203955, -23.3396402 ], [ -45.7216157, -23.3356432 ], [ -45.7231453, -23.3349398 ], [ -45.7224537, -23.3338753 ], [ -45.7194594, -23.3355892 ], [ -45.7166925, -23.3354468 ], [ -45.7142411, -23.3375315 ], [ -45.7112007, -23.3359824 ], [ -45.7069148, -23.3386896 ], [ -45.7057547, -23.3385399 ], [ -45.7042998, -23.3356808 ], [ -45.7036898, -23.3299921 ], [ -45.7021459, -23.3264435 ], [ -45.6994982, -23.3295818 ], [ -45.6984133, -23.3288112 ], [ -45.6976227, -23.3249005 ], [ -45.6950723, -23.3263738 ], [ -45.6888644, -23.3177507 ], [ -45.6825663, -23.3142987 ], [ -45.6786945, -23.3108247 ], [ -45.6768196, -23.3063031 ], [ -45.6737805, -23.3063429 ], [ -45.6727102, -23.3037649 ], [ -45.6677421, -23.3008542 ], [ -45.6634719, -23.3015397 ], [ -45.6600876, -23.2978465 ], [ -45.653687, -23.2965639 ], [ -45.6455546, -23.2911182 ], [ -45.644132, -23.2951341 ], [ -45.6408305, -23.2934653 ], [ -45.6394024, -23.2916831 ], [ -45.6346256, -23.2907591 ], [ -45.6328194, -23.2911897 ], [ -45.6321169, -23.2926584 ], [ -45.6322363, -23.295567 ], [ -45.6303245, -23.2968023 ], [ -45.5726126, -23.3251797 ], [ -45.5698159, -23.3226734 ], [ -45.5690915, -23.3230846 ], [ -45.5684145, -23.3248141 ], [ -45.5665731, -23.3264178 ], [ -45.5662138, -23.3285729 ], [ -45.5661078, -23.3324112 ], [ -45.5678118, -23.3342032 ], [ -45.5665223, -23.3351355 ], [ -45.5677955, -23.3362306 ], [ -45.5660108, -23.3389109 ], [ -45.5656199, -23.3414381 ], [ -45.5641178, -23.3420452 ], [ -45.5645707, -23.3441953 ], [ -45.5670177, -23.3447634 ], [ -45.5700628, -23.3435521 ], [ -45.571658, -23.3420034 ], [ -45.5753198, -23.3428164 ], [ -45.5751117, -23.3453659 ], [ -45.5768634, -23.3487218 ], [ -45.5752157, -23.3517591 ], [ -45.5771204, -23.3538334 ], [ -45.5775835, -23.3573052 ], [ -45.5765814, -23.3589832 ], [ -45.5775039, -23.3639646 ], [ -45.5762927, -23.3662939 ], [ -45.572879, -23.3694089 ], [ -45.568411, -23.3711069 ], [ -45.5649189, -23.3696502 ], [ -45.5637327, -23.372228 ], [ -45.5606685, -23.3726502 ], [ -45.5571974, -23.3744137 ], [ -45.5554022, -23.3739412 ], [ -45.5537839, -23.3720164 ], [ -45.5492919, -23.372197 ], [ -45.5452177, -23.3692702 ], [ -45.5414389, -23.368288 ], [ -45.5390989, -23.3661469 ], [ -45.5378329, -23.3661193 ], [ -45.5370064, -23.3675385 ], [ -45.5380585, -23.3701312 ], [ -45.537704, -23.3730105 ], [ -45.5435179, -23.3813837 ], [ -45.5475637, -23.3846353 ], [ -45.5497783, -23.3906924 ], [ -45.549129, -23.3928184 ], [ -45.5494302, -23.396017 ], [ -45.5529576, -23.3983239 ], [ -45.5533267, -23.4015038 ], [ -45.5568257, -23.4028475 ], [ -45.5581508, -23.4058985 ], [ -45.5649065, -23.4064754 ], [ -45.5669057, -23.4084888 ], [ -45.5658786, -23.4111763 ], [ -45.5622477, -23.4134743 ], [ -45.5631127, -23.4193122 ], [ -45.5642117, -23.420305 ], [ -45.5654727, -23.4182242 ], [ -45.5670431, -23.4178369 ], [ -45.5699666, -23.4193594 ], [ -45.5692432, -23.4202357 ], [ -45.569804, -23.4214927 ], [ -45.5688267, -23.423275 ], [ -45.567269, -23.4245064 ], [ -45.5657954, -23.4246049 ], [ -45.5637973, -23.4267753 ], [ -45.5634044, -23.4324938 ], [ -45.5608394, -23.4351122 ], [ -45.5621298, -23.4376972 ], [ -45.5601927, -23.4402265 ], [ -45.5619109, -23.4426059 ], [ -45.5594721, -23.4439978 ], [ -45.5593311, -23.4451589 ], [ -45.5583971, -23.4456923 ], [ -45.5592827, -23.4464057 ], [ -45.5569928, -23.4470473 ], [ -45.5557205, -23.4492188 ], [ -45.5560403, -23.4498579 ], [ -45.5536524, -23.4516459 ], [ -45.5542249, -23.4527172 ], [ -45.553303, -23.452095 ], [ -45.5524696, -23.4528317 ], [ -45.550006, -23.4528455 ], [ -45.5467232, -23.4549473 ], [ -45.5463769, -23.4540638 ], [ -45.5450103, -23.4541248 ], [ -45.5444695, -23.453385 ], [ -45.5416761, -23.4542601 ], [ -45.5392682, -23.4537256 ], [ -45.5388813, -23.454393 ], [ -45.5383303, -23.4528811 ], [ -45.537361, -23.4529069 ], [ -45.5345795, -23.4541768 ], [ -45.5343658, -23.4550006 ], [ -45.5321427, -23.4552681 ], [ -45.53076, -23.4545717 ], [ -45.5304853, -23.4552156 ], [ -45.5284608, -23.4552455 ], [ -45.5271334, -23.4567844 ], [ -45.5266691, -23.4561222 ], [ -45.5250482, -23.4576508 ], [ -45.5235949, -23.4575796 ], [ -45.5231551, -23.4586717 ], [ -45.521875, -23.4586654 ], [ -45.5223323, -23.4603668 ], [ -45.5247892, -23.4626098 ], [ -45.5247307, -23.4682302 ], [ -45.5240789, -23.4688198 ], [ -45.5237037, -23.4678549 ], [ -45.5229378, -23.4683594 ], [ -45.5231082, -23.4694306 ], [ -45.5219164, -23.468584 ], [ -45.5215319, -23.4699111 ], [ -45.5217131, -23.4769524 ], [ -45.5229695, -23.4783196 ], [ -45.520295, -23.4803513 ], [ -45.5201621, -23.4815925 ], [ -45.5191219, -23.4817112 ], [ -45.519589, -23.4828629 ], [ -45.5171401, -23.4834459 ], [ -45.5159276, -23.4853404 ], [ -45.5128752, -23.4825515 ], [ -45.5114795, -23.4837873 ], [ -45.5095803, -23.4840413 ], [ -45.5094006, -23.4901417 ], [ -45.5086046, -23.4896659 ], [ -45.507965, -23.4942439 ], [ -45.5086978, -23.4965051 ], [ -45.5075757, -23.4984976 ], [ -45.5060882, -23.4987676 ], [ -45.5058287, -23.4996569 ], [ -45.5075274, -23.5010688 ], [ -45.507562, -23.501991 ], [ -45.5062911, -23.5027333 ], [ -45.5048287, -23.5064701 ], [ -45.5007133, -23.5075164 ], [ -45.4990888, -23.5090371 ], [ -45.4999373, -23.5139366 ], [ -45.4984171, -23.5164675 ], [ -45.4978885, -23.5193012 ], [ -45.5007831, -23.5271426 ], [ -45.5039734, -23.5316143 ], [ -45.5042033, -23.5339899 ], [ -45.4984133, -23.5393248 ], [ -45.4907062, -23.5389751 ], [ -45.4881043, -23.5401727 ], [ -45.4829417, -23.5511696 ], [ -45.4849198, -23.556187 ], [ -45.4834262, -23.5598024 ], [ -45.4745939, -23.5614999 ], [ -45.465965, -23.5614678 ], [ -45.459257, -23.5647568 ], [ -45.456759, -23.5636986 ], [ -45.4570956, -23.5628692 ], [ -45.4563919, -23.5619527 ], [ -45.4529778, -23.560754 ], [ -45.4513455, -23.5616354 ], [ -45.4514686, -23.5637811 ], [ -45.4500325, -23.5646616 ], [ -45.4519735, -23.5681682 ], [ -45.454379, -23.5694419 ], [ -45.4549547, -23.5721114 ], [ -45.4566729, -23.5731818 ], [ -45.4569924, -23.5770282 ], [ -45.4624212, -23.5770741 ], [ -45.4655286, -23.57999 ], [ -45.4680927, -23.5788787 ], [ -45.4701532, -23.5822761 ], [ -45.4745298, -23.5796727 ], [ -45.4756035, -23.5746169 ], [ -45.4766374, -23.5733406 ], [ -45.4802952, -23.5734248 ], [ -45.4835496, -23.5758358 ], [ -45.4875329, -23.5724801 ], [ -45.4915271, -23.576814 ], [ -45.4932683, -23.5775206 ], [ -45.4937739, -23.5788179 ], [ -45.4979153, -23.580042 ], [ -45.4997854, -23.5826348 ], [ -45.5018603, -23.5833568 ], [ -45.5036329, -23.5881041 ], [ -45.5073994, -23.5918313 ], [ -45.509875, -23.5921734 ], [ -45.5123769, -23.5935942 ], [ -45.5131262, -23.5956172 ], [ -45.5147045, -23.5964331 ], [ -45.5170777, -23.6005238 ], [ -45.5207711, -23.6032969 ], [ -45.5219436, -23.6006216 ], [ -45.5239416, -23.6049008 ], [ -45.5252156, -23.6044016 ], [ -45.5267467, -23.6008243 ], [ -45.5310449, -23.6020194 ], [ -45.5343508, -23.5990417 ], [ -45.5378271, -23.5995756 ], [ -45.5399754, -23.5967682 ], [ -45.5440451, -23.5982643 ], [ -45.5465891, -23.6010779 ], [ -45.5488912, -23.6054647 ], [ -45.5524143, -23.6071759 ], [ -45.5521047, -23.6102701 ], [ -45.5534542, -23.6116721 ], [ -45.5535037, -23.6142963 ], [ -45.5553118, -23.6162886 ], [ -45.5585374, -23.617885 ], [ -45.5606329, -23.6239601 ], [ -45.5648828, -23.6261934 ], [ -45.5663069, -23.6303241 ], [ -45.5695874, -23.6312431 ], [ -45.569817, -23.6341684 ], [ -45.573067, -23.6387749 ], [ -45.5786613, -23.6413332 ], [ -45.5807986, -23.6467894 ], [ -45.5872267, -23.6458726 ], [ -45.5909741, -23.647676 ], [ -45.5951761, -23.6515868 ], [ -45.6008399, -23.6528782 ], [ -45.6029516, -23.6541202 ], [ -45.6079955, -23.6531587 ], [ -45.6118862, -23.6545562 ], [ -45.6163512, -23.652286 ], [ -45.6184349, -23.6521306 ], [ -45.6244051, -23.6537604 ], [ -45.6273351, -23.6562247 ], [ -45.6310561, -23.6572424 ], [ -45.6321404, -23.6568846 ], [ -45.6308989, -23.6505766 ], [ -45.633026, -23.6470296 ], [ -45.6329282, -23.6451527 ], [ -45.6314285, -23.6434742 ], [ -45.6266834, -23.6414685 ], [ -45.6256236, -23.6355145 ], [ -45.6217446, -23.6303856 ], [ -45.6229771, -23.6286159 ], [ -45.6246108, -23.628015 ], [ -45.63577, -23.6253351 ], [ -45.6370893, -23.6240619 ], [ -45.6362853, -23.6225273 ], [ -45.6372773, -23.621874 ], [ -45.6439198, -23.6216751 ], [ -45.6458239, -23.6232164 ], [ -45.6496171, -23.6240438 ], [ -45.6541797, -23.6233819 ], [ -45.6568498, -23.625813 ], [ -45.6612657, -23.6241893 ], [ -45.6650744, -23.620569 ], [ -45.6670258, -23.6203521 ], [ -45.6697314, -23.6230923 ], [ -45.6695158, -23.6293138 ], [ -45.6723155, -23.6294988 ], [ -45.6756319, -23.63122 ], [ -45.6776601, -23.6280881 ], [ -45.6795538, -23.62753 ], [ -45.6849731, -23.6309649 ], [ -45.6921729, -23.6370331 ], [ -45.697913, -23.6381601 ], [ -45.7025395, -23.6368513 ], [ -45.7000525, -23.6338254 ], [ -45.6948141, -23.6308281 ], [ -45.6977668, -23.6250323 ], [ -45.696842, -23.6222041 ], [ -45.6975231, -23.6201945 ], [ -45.7000371, -23.6174834 ] ] ] ] } }
]
}
