{
"type": "FeatureCollection",
"name": "ER_REGIAO_Itápolis_Itápolis",
"crs": { "type": "name", "properties": { "name": "urn:ogc:def:crs:EPSG::4674" } },
"xy_coordinate_resolution": 1e-15,
"features": [
{ "type": "Feature", "properties": { "fid": 378, "NM_REGIAO": "Sudeste", "NM_UF": "São Paulo", "NM_MUN": "Itápolis", "NM_DIST": "Itápolis", "CD_SUBDIST": "35227030500", "ER_REGIAO": "Itápolis_Itápolis", "ER_REGIAO_CIDADE": "Itápolis_Itápolis_Araraquara" }, "geometry": { "type": "MultiPolygon", "coordinates": [ [ [ [ -48.8384743, -21.6730941 ], [ -48.8458572, -21.6702563 ], [ -48.8510343, -21.670656 ], [ -48.8523882, -21.6690653 ], [ -48.8571583, -21.6667715 ], [ -48.8619926, -21.6628037 ], [ -48.868233, -21.6614526 ], [ -48.8750591, -21.6552414 ], [ -48.8774551, -21.6512322 ], [ -48.8784533, -21.6533971 ], [ -48.8801345, -21.653392 ], [ -48.8812092, -21.6551711 ], [ -48.8801239, -21.6563687 ], [ -48.8806284, -21.6578475 ], [ -48.8816271, -21.6579512 ], [ -48.8844064, -21.6560842 ], [ -48.8858385, -21.6572457 ], [ -48.8863762, -21.6598107 ], [ -48.887253, -21.6590713 ], [ -48.8886673, -21.6594253 ], [ -48.8886688, -21.6573551 ], [ -48.8901145, -21.6565728 ], [ -48.8940845, -21.6580228 ], [ -48.8967828, -21.6571329 ], [ -48.896918, -21.6559853 ], [ -48.8985747, -21.6566466 ], [ -48.8976372, -21.6590547 ], [ -48.8982933, -21.6599411 ], [ -48.8972312, -21.6607847 ], [ -48.8975376, -21.6619081 ], [ -48.8986367, -21.6620993 ], [ -48.8993588, -21.6611128 ], [ -48.8999814, -21.6615227 ], [ -48.8995621, -21.6640124 ], [ -48.8987179, -21.6647862 ], [ -48.8991717, -21.6670514 ], [ -48.8980346, -21.667964 ], [ -48.8994115, -21.670587 ], [ -48.9008181, -21.6709705 ], [ -48.900254, -21.6697483 ], [ -48.9018209, -21.6696153 ], [ -48.9060537, -21.6721547 ], [ -48.905707, -21.6709905 ], [ -48.9083002, -21.6707843 ], [ -48.9080463, -21.6675347 ], [ -48.9119299, -21.6681 ], [ -48.9113051, -21.6703899 ], [ -48.9116668, -21.6731341 ], [ -48.9110176, -21.6738094 ], [ -48.9115247, -21.674205 ], [ -48.9218851, -21.6715396 ], [ -48.9270353, -21.6660376 ], [ -48.9288755, -21.6628507 ], [ -48.933872, -21.6602849 ], [ -48.9410371, -21.6636222 ], [ -48.9495908, -21.6737107 ], [ -48.9528312, -21.6753741 ], [ -48.9602647, -21.6764189 ], [ -48.9718369, -21.6746867 ], [ -48.9699896, -21.6730728 ], [ -48.9701451, -21.6696841 ], [ -48.9655766, -21.6705412 ], [ -48.9638502, -21.6704827 ], [ -48.9632208, -21.6694865 ], [ -48.9637211, -21.6613063 ], [ -48.967844, -21.6611337 ], [ -48.9701935, -21.6618964 ], [ -48.9733205, -21.6601995 ], [ -48.9698293, -21.6567151 ], [ -48.9692991, -21.653003 ], [ -48.9661041, -21.6527931 ], [ -48.964573, -21.6505133 ], [ -48.9666613, -21.6498037 ], [ -48.9668113, -21.6463518 ], [ -48.9628297, -21.6439431 ], [ -48.9648094, -21.6411832 ], [ -48.9628855, -21.6374741 ], [ -48.9616486, -21.6365505 ], [ -48.9614593, -21.6350742 ], [ -48.9681604, -21.633805 ], [ -48.9671695, -21.6331456 ], [ -48.9678268, -21.6315263 ], [ -48.9667142, -21.630114 ], [ -48.9675531, -21.6279707 ], [ -48.9686951, -21.6281735 ], [ -48.9691526, -21.6273561 ], [ -48.9666315, -21.6228365 ], [ -48.9673072, -21.6198804 ], [ -48.9668289, -21.6180396 ], [ -48.9676797, -21.6166081 ], [ -48.9715642, -21.614019 ], [ -48.9708991, -21.6102633 ], [ -48.9731718, -21.6086747 ], [ -48.968237, -21.6064176 ], [ -48.9670483, -21.6050003 ], [ -48.9693109, -21.6010249 ], [ -48.9729728, -21.5975688 ], [ -48.9711214, -21.5923554 ], [ -48.9738607, -21.5875485 ], [ -48.9697847, -21.5838297 ], [ -48.9712705, -21.5813492 ], [ -48.9709999, -21.5799829 ], [ -48.967595, -21.5794085 ], [ -48.9686966, -21.5757727 ], [ -48.9665695, -21.5729501 ], [ -48.9626203, -21.5714712 ], [ -48.9641222, -21.5684941 ], [ -48.9639555, -21.564187 ], [ -48.9653857, -21.5642012 ], [ -48.9668251, -21.5590049 ], [ -48.9684721, -21.5590869 ], [ -48.9686966, -21.5577347 ], [ -48.9706626, -21.5570563 ], [ -48.970552, -21.5541359 ], [ -48.9688928, -21.5537636 ], [ -48.9688473, -21.5517278 ], [ -48.9677371, -21.5503966 ], [ -48.9635394, -21.5489158 ], [ -48.9626557, -21.5469025 ], [ -48.9640064, -21.5451321 ], [ -48.9639619, -21.5420057 ], [ -48.9649523, -21.5415212 ], [ -48.965252, -21.5394436 ], [ -48.9698426, -21.5377111 ], [ -48.9699356, -21.5367512 ], [ -48.9691757, -21.5370238 ], [ -48.9688821, -21.5361855 ], [ -48.9674282, -21.535804 ], [ -48.9665482, -21.5363963 ], [ -48.9662424, -21.5351299 ], [ -48.9703391, -21.5333726 ], [ -48.9740572, -21.527806 ], [ -48.9795586, -21.5229683 ], [ -48.9853174, -21.5203238 ], [ -48.9938234, -21.4960941 ], [ -48.9992268, -21.4918577 ], [ -49.000333, -21.4859727 ], [ -48.9937454, -21.4763439 ], [ -48.9946777, -21.4696747 ], [ -48.9913771, -21.4562038 ], [ -48.9899637, -21.4556473 ], [ -48.9860977, -21.4564974 ], [ -48.98375, -21.4561354 ], [ -48.9824537, -21.4535434 ], [ -48.9827715, -21.4497668 ], [ -48.9858896, -21.4424866 ], [ -48.9865484, -21.4382734 ], [ -48.984881, -21.4255808 ], [ -48.9810953, -21.4160501 ], [ -48.979189, -21.4160895 ], [ -48.9729241, -21.4230666 ], [ -48.9700415, -21.425148 ], [ -48.9662027, -21.4248314 ], [ -48.9644135, -21.4255045 ], [ -48.9555013, -21.4237891 ], [ -48.9492886, -21.425989 ], [ -48.94574, -21.4126159 ], [ -48.9459791, -21.4067163 ], [ -48.9483302, -21.3991662 ], [ -48.9317795, -21.3885731 ], [ -48.9280732, -21.3874654 ], [ -48.9264457, -21.3851721 ], [ -48.9224913, -21.38229 ], [ -48.9167978, -21.379231 ], [ -48.9147728, -21.3791194 ], [ -48.9105963, -21.3771128 ], [ -48.902234, -21.3709091 ], [ -48.8987952, -21.3711751 ], [ -48.8971286, -21.37352 ], [ -48.8963128, -21.3769515 ], [ -48.8938071, -21.3789278 ], [ -48.8924083, -21.3834168 ], [ -48.8901558, -21.3857375 ], [ -48.887101, -21.3877339 ], [ -48.8824975, -21.388019 ], [ -48.8812469, -21.3894353 ], [ -48.8796397, -21.3895115 ], [ -48.8767568, -21.3933212 ], [ -48.8748181, -21.3934116 ], [ -48.8716919, -21.3992362 ], [ -48.8713357, -21.4013388 ], [ -48.8697914, -21.402619 ], [ -48.8666875, -21.4091429 ], [ -48.8638327, -21.4115753 ], [ -48.8624573, -21.4138701 ], [ -48.8607967, -21.4282793 ], [ -48.8585783, -21.4310732 ], [ -48.8526044, -21.4355674 ], [ -48.8472428, -21.4433019 ], [ -48.8464402, -21.4462497 ], [ -48.8476045, -21.4672844 ], [ -48.8459017, -21.4708102 ], [ -48.844954, -21.4782184 ], [ -48.8484853, -21.4873398 ], [ -48.8478918, -21.4898203 ], [ -48.8451468, -21.4921726 ], [ -48.8382843, -21.4934967 ], [ -48.8339637, -21.4985899 ], [ -48.8269162, -21.4954784 ], [ -48.8200154, -21.4935496 ], [ -48.8125153, -21.4875841 ], [ -48.809099, -21.4899834 ], [ -48.8061296, -21.4906991 ], [ -48.8026687, -21.4902506 ], [ -48.7993146, -21.4878892 ], [ -48.7932643, -21.4923124 ], [ -48.7923638, -21.4966569 ], [ -48.7901933, -21.4980877 ], [ -48.7871581, -21.4977466 ], [ -48.7817592, -21.4907329 ], [ -48.7749777, -21.4876449 ], [ -48.7692998, -21.4885519 ], [ -48.7651021, -21.4870343 ], [ -48.7612695, -21.4923459 ], [ -48.7556724, -21.4929297 ], [ -48.7523804, -21.4981524 ], [ -48.7522528, -21.5044906 ], [ -48.7472661, -21.5057822 ], [ -48.7543117, -21.5224149 ], [ -48.7602032, -21.5300301 ], [ -48.7604679, -21.5324199 ], [ -48.7559932, -21.5415645 ], [ -48.750543, -21.546487 ], [ -48.7466452, -21.5563406 ], [ -48.7433058, -21.5599218 ], [ -48.7417559, -21.5598001 ], [ -48.7354904, -21.5620673 ], [ -48.7216671, -21.5617089 ], [ -48.7179861, -21.5606023 ], [ -48.7125938, -21.5573348 ], [ -48.7104336, -21.5607669 ], [ -48.7047622, -21.565433 ], [ -48.700881, -21.5666929 ], [ -48.6899565, -21.5668847 ], [ -48.6871166, -21.5774738 ], [ -48.6846067, -21.5804968 ], [ -48.6816796, -21.581977 ], [ -48.679265, -21.584908 ], [ -48.6775737, -21.5855816 ], [ -48.6757417, -21.5842394 ], [ -48.6723453, -21.5859326 ], [ -48.6713685, -21.5855108 ], [ -48.666987, -21.586662 ], [ -48.6653128, -21.5860251 ], [ -48.6645526, -21.5846 ], [ -48.6659269, -21.5815884 ], [ -48.6637524, -21.5798183 ], [ -48.6635009, -21.5779314 ], [ -48.6609915, -21.5771239 ], [ -48.6580054, -21.5772499 ], [ -48.6560822, -21.579341 ], [ -48.6498048, -21.5781417 ], [ -48.6459103, -21.5793449 ], [ -48.6458542, -21.5779846 ], [ -48.6475094, -21.5765099 ], [ -48.6449233, -21.5760832 ], [ -48.6437721, -21.5728747 ], [ -48.6452213, -21.5714843 ], [ -48.6426839, -21.5709187 ], [ -48.6414754, -21.5696052 ], [ -48.6407515, -21.5699547 ], [ -48.6371588, -21.5660671 ], [ -48.6355514, -21.5665888 ], [ -48.6329478, -21.5629797 ], [ -48.6322226, -21.562708 ], [ -48.6314947, -21.5635616 ], [ -48.6307076, -21.5599347 ], [ -48.6286893, -21.5585279 ], [ -48.6166863, -21.5650126 ], [ -48.6083267, -21.566478 ], [ -48.606922, -21.5674409 ], [ -48.6006877, -21.5681733 ], [ -48.5991735, -21.5669604 ], [ -48.5954391, -21.5659593 ], [ -48.5863318, -21.5655711 ], [ -48.5742289, -21.5786356 ], [ -48.5845211, -21.6280738 ], [ -48.5939794, -21.6217452 ], [ -48.596103, -21.6211416 ], [ -48.5980853, -21.6192451 ], [ -48.6071631, -21.6179948 ], [ -48.6111976, -21.6195916 ], [ -48.6167312, -21.6180598 ], [ -48.6200795, -21.6186178 ], [ -48.6237701, -21.6174747 ], [ -48.6318311, -21.619116 ], [ -48.634537, -21.6204517 ], [ -48.6363951, -21.6219248 ], [ -48.6374194, -21.6242794 ], [ -48.6402766, -21.6260573 ], [ -48.6405853, -21.6276082 ], [ -48.6438524, -21.6279704 ], [ -48.6439111, -21.6291365 ], [ -48.6464241, -21.6297965 ], [ -48.649047, -21.6279859 ], [ -48.6516665, -21.628542 ], [ -48.655834, -21.6274864 ], [ -48.6593613, -21.6288176 ], [ -48.6629148, -21.6270706 ], [ -48.6655117, -21.6270999 ], [ -48.6675892, -21.6282908 ], [ -48.6703556, -21.6267141 ], [ -48.6753238, -21.6275351 ], [ -48.6765494, -21.6266447 ], [ -48.6773853, -21.627063 ], [ -48.6765511, -21.6277954 ], [ -48.6779441, -21.6319953 ], [ -48.6745901, -21.639591 ], [ -48.6782818, -21.6451025 ], [ -48.6800831, -21.6519446 ], [ -48.6770145, -21.6569659 ], [ -48.6738778, -21.6691251 ], [ -48.6766905, -21.678871 ], [ -48.6767746, -21.6829682 ], [ -48.6787372, -21.6850719 ], [ -48.683129, -21.6847207 ], [ -48.6853693, -21.686374 ], [ -48.6901261, -21.6861423 ], [ -48.6925665, -21.6838505 ], [ -48.694642, -21.6790667 ], [ -48.6976039, -21.6815028 ], [ -48.7108072, -21.6845598 ], [ -48.7217755, -21.6885994 ], [ -48.7243866, -21.6884544 ], [ -48.7324844, -21.6825318 ], [ -48.7371142, -21.6827529 ], [ -48.7526354, -21.6884065 ], [ -48.7538309, -21.6899397 ], [ -48.7560763, -21.6969632 ], [ -48.7578921, -21.6993614 ], [ -48.7691748, -21.6996706 ], [ -48.7757694, -21.6982778 ], [ -48.7834611, -21.7071981 ], [ -48.788094, -21.7100068 ], [ -48.7938953, -21.7157638 ], [ -48.8013257, -21.7163646 ], [ -48.8055523, -21.7148688 ], [ -48.8076066, -21.7096727 ], [ -48.8094702, -21.7077049 ], [ -48.8125083, -21.7063905 ], [ -48.824578, -21.6974614 ], [ -48.8275751, -21.6894515 ], [ -48.8348303, -21.6816881 ], [ -48.8384743, -21.6730941 ] ] ] ] } }
]
}
