{
"type": "FeatureCollection",
"name": "ER_REGIAO_Cananéia_Ariri",
"crs": { "type": "name", "properties": { "name": "urn:ogc:def:crs:EPSG::4674" } },
"xy_coordinate_resolution": 1e-15,
"features": [
{ "type": "Feature", "properties": { "fid": 164, "NM_REGIAO": "Sudeste", "NM_UF": "São Paulo", "NM_MUN": "Cananéia", "NM_DIST": "Ariri", "CD_SUBDIST": "35099081000", "ER_REGIAO": "Cananéia_Ariri", "ER_REGIAO_CIDADE": "Cananéia_Ariri_Vale do Ribeira" }, "geometry": { "type": "MultiPolygon", "coordinates": [ [ [ [ -48.0621061, -25.2400852 ], [ -48.076802, -25.2410508 ], [ -48.0814112, -25.2441829 ], [ -48.0836675, -25.2433725 ], [ -48.0839178, -25.240625 ], [ -48.0855939, -25.2403167 ], [ -48.0897202, -25.241846 ], [ -48.0924114, -25.2400361 ], [ -48.0956963, -25.2413904 ], [ -48.0985821, -25.2412534 ], [ -48.0997754, -25.2420305 ], [ -48.1003557, -25.2437909 ], [ -48.1025015, -25.2432006 ], [ -48.1062852, -25.24393 ], [ -48.1087208, -25.2456871 ], [ -48.109359, -25.2484925 ], [ -48.1107177, -25.2497538 ], [ -48.1129996, -25.2508705 ], [ -48.1148836, -25.250702 ], [ -48.1159781, -25.2489434 ], [ -48.1222477, -25.245542 ], [ -48.1244668, -25.2426062 ], [ -48.1290458, -25.2418024 ], [ -48.1331291, -25.2398218 ], [ -48.1424819, -25.2333493 ], [ -48.1479464, -25.2308542 ], [ -48.1512382, -25.2281274 ], [ -48.1627203, -25.2098366 ], [ -48.1657234, -25.2090136 ], [ -48.1714596, -25.2104806 ], [ -48.1751961, -25.2093776 ], [ -48.1825203, -25.2049988 ], [ -48.1865021, -25.2003276 ], [ -48.1913613, -25.1962413 ], [ -48.1931653, -25.1933931 ], [ -48.1933632, -25.1898656 ], [ -48.191044, -25.1883236 ], [ -48.1849666, -25.1863852 ], [ -48.1783946, -25.1820587 ], [ -48.1787168, -25.17961 ], [ -48.1759989, -25.1779381 ], [ -48.1724439, -25.1716541 ], [ -48.1677195, -25.1679059 ], [ -48.1666386, -25.1660086 ], [ -48.1684776, -25.160529 ], [ -48.1687175, -25.1565427 ], [ -48.1674141, -25.1553327 ], [ -48.1637792, -25.1551532 ], [ -48.1621975, -25.1542012 ], [ -48.1609416, -25.1518117 ], [ -48.158502, -25.1499069 ], [ -48.1568858, -25.1446525 ], [ -48.1596911, -25.1445279 ], [ -48.1608884, -25.1458354 ], [ -48.1624463, -25.1460577 ], [ -48.1669939, -25.1437986 ], [ -48.1213667, -25.1325588 ], [ -48.1147244, -25.1289647 ], [ -48.1076646, -25.1303586 ], [ -48.1026822, -25.1384255 ], [ -48.0750485, -25.1683557 ], [ -48.0057333, -25.1520142 ], [ -47.9363127, -25.1589526 ], [ -47.9336808, -25.158409 ], [ -47.9302687, -25.1552007 ], [ -47.9289547, -25.1549312 ], [ -47.9223627, -25.1583344 ], [ -47.9219784, -25.1559018 ], [ -47.921067, -25.1561587 ], [ -47.9178337, -25.1593572 ], [ -47.9218012, -25.1601574 ], [ -47.922322, -25.16109 ], [ -47.9231792, -25.1603535 ], [ -47.9264866, -25.16169 ], [ -47.9308563, -25.1642674 ], [ -47.9317802, -25.1661999 ], [ -47.933627, -25.1663547 ], [ -47.9340194, -25.1674767 ], [ -47.9343345, -25.1665679 ], [ -47.9363456, -25.1673622 ], [ -47.9425858, -25.1716598 ], [ -47.9688375, -25.1938398 ], [ -47.9725972, -25.197777 ], [ -47.9721889, -25.199718 ], [ -47.9768708, -25.2022418 ], [ -47.9788851, -25.2025458 ], [ -48.0347693, -25.2479362 ], [ -48.0612443, -25.2720364 ], [ -48.0911577, -25.3043111 ], [ -48.0994745, -25.3123213 ], [ -48.1003852, -25.3072854 ], [ -48.0984588, -25.2996767 ], [ -48.0831092, -25.2819972 ], [ -48.0732505, -25.274064 ], [ -48.0574843, -25.263275 ], [ -48.0511582, -25.2523355 ], [ -48.0307015, -25.2387678 ], [ -48.0275682, -25.236107 ], [ -48.0235374, -25.2309317 ], [ -48.0239381, -25.2291433 ], [ -48.0276361, -25.2282406 ], [ -48.0299432, -25.2262018 ], [ -48.0290487, -25.2237617 ], [ -48.0269112, -25.2219935 ], [ -48.0290556, -25.2194656 ], [ -48.0322503, -25.2184678 ], [ -48.0402996, -25.2187445 ], [ -48.0441624, -25.220966 ], [ -48.0455229, -25.2263409 ], [ -48.0471619, -25.2267494 ], [ -48.0498037, -25.2255221 ], [ -48.0574466, -25.2183343 ], [ -48.0583904, -25.2222228 ], [ -48.0572041, -25.2260365 ], [ -48.0593311, -25.2275602 ], [ -48.0595252, -25.2294589 ], [ -48.0569955, -25.233082 ], [ -48.0586958, -25.2381422 ], [ -48.0621061, -25.2400852 ] ] ] ] } }
]
}
