{
"type": "FeatureCollection",
"name": "ER_REGIAO_Fartura",
"crs": { "type": "name", "properties": { "name": "urn:ogc:def:crs:EPSG::4674" } },
"xy_coordinate_resolution": 1e-15,
"features": [
{ "type": "Feature", "properties": { "fid": 254, "NM_REGIAO": "Sudeste", "NM_UF": "São Paulo", "NM_MUN": "Fartura", "NM_DIST": "Fartura", "CD_SUBDIST": "35154000500", "ER_REGIAO": "Fartura", "ER_REGIAO_CIDADE": "Fartura_Ourinhos" }, "geometry": { "type": "MultiPolygon", "coordinates": [ [ [ [ -49.396899599999983, -23.354378599999961 ], [ -49.394509899999946, -23.355941899999948 ], [ -49.397456699999964, -23.362491599999942 ], [ -49.39457729999998, -23.366665 ], [ -49.396858899999984, -23.369590599999981 ], [ -49.39644549999997, -23.371158699999967 ], [ -49.393653699999959, -23.374122799999952 ], [ -49.394608299999959, -23.37744639999994 ], [ -49.393490899999961, -23.380238899999938 ], [ -49.393903399999942, -23.385902599999952 ], [ -49.392430599999955, -23.39219559999998 ], [ -49.396050599999967, -23.396585 ], [ -49.397682, -23.400267299999939 ], [ -49.402911299999971, -23.404295699999977 ], [ -49.404610799999944, -23.404599599999983 ], [ -49.408029099999965, -23.402893499999948 ], [ -49.411132099999975, -23.405580899999961 ], [ -49.420765299999971, -23.408663899999965 ], [ -49.42728939999995, -23.412275399999942 ], [ -49.42987439999996, -23.416178199999933 ], [ -49.431767599999944, -23.417316399999947 ], [ -49.438358599999958, -23.417575199999931 ], [ -49.443321799999978, -23.415805099999943 ], [ -49.448394099999973, -23.421267499999942 ], [ -49.448358399999961, -23.422881899999936 ], [ -49.446638399999983, -23.425877199999945 ], [ -49.442627499999958, -23.429383299999927 ], [ -49.443012299999964, -23.43408409999995 ], [ -49.440399399999933, -23.435818 ], [ -49.43870279999993, -23.438148899999931 ], [ -49.440043299999957, -23.43956739999993 ], [ -49.44367079999995, -23.439482 ], [ -49.448287199999982, -23.441794 ], [ -49.449397, -23.444375199999968 ], [ -49.449225799999965, -23.45107349999995 ], [ -49.450292, -23.456013 ], [ -49.453039899999965, -23.458031 ], [ -49.456405199999949, -23.45886669999993 ], [ -49.456649599999935, -23.459707199999968 ], [ -49.455757699999936, -23.461442699999964 ], [ -49.453485499999942, -23.463164199999937 ], [ -49.449576399999955, -23.464218099999982 ], [ -49.44751279999997, -23.465992399999948 ], [ -49.450946699999974, -23.469140399999958 ], [ -49.452072299999941, -23.473635699999932 ], [ -49.446790699999951, -23.482149299999946 ], [ -49.444395899999961, -23.483806699999946 ], [ -49.44058119999994, -23.484827 ], [ -49.440016799999967, -23.489694699999973 ], [ -49.446599, -23.496857499999976 ], [ -49.448436, -23.497184899999979 ], [ -49.452649299999962, -23.49580659999998 ], [ -49.456218399999955, -23.499602699999969 ], [ -49.456246399999941, -23.501495599999942 ], [ -49.454163, -23.505083899999931 ], [ -49.461411199999986, -23.507897699999944 ], [ -49.463609, -23.511448399999949 ], [ -49.461128699999961, -23.516409199999941 ], [ -49.457765499999937, -23.51911709999996 ], [ -49.461243099999933, -23.521234599999957 ], [ -49.462053099999935, -23.525146799999959 ], [ -49.466681699999981, -23.529958399999941 ], [ -49.474725099999944, -23.531227199999933 ], [ -49.474913, -23.533406699999944 ], [ -49.477917599999955, -23.538395299999934 ], [ -49.47640789999997, -23.540875199999959 ], [ -49.479423299999951, -23.540804099999946 ], [ -49.480552, -23.539346499999965 ], [ -49.480732599999953, -23.533641199999977 ], [ -49.486035499999957, -23.526896699999952 ], [ -49.489943199999971, -23.525301299999967 ], [ -49.500911299999984, -23.518274699999949 ], [ -49.505322199999966, -23.513564199999962 ], [ -49.507962499999962, -23.512349 ], [ -49.509520299999963, -23.509889 ], [ -49.510525899999948, -23.510798199999954 ], [ -49.51195279999996, -23.510204 ], [ -49.513618799999961, -23.507728199999974 ], [ -49.51767179999996, -23.508405899999957 ], [ -49.518543, -23.507472199999938 ], [ -49.521122699999978, -23.508209399999942 ], [ -49.52198089999996, -23.51023159999994 ], [ -49.523784099999943, -23.509168799999941 ], [ -49.525442199999986, -23.510363299999938 ], [ -49.526853199999948, -23.51000369999997 ], [ -49.528331599999945, -23.510839899999951 ], [ -49.530309799999941, -23.508536699999979 ], [ -49.534375499999953, -23.508118699999955 ], [ -49.534205, -23.505916199999945 ], [ -49.53614, -23.506108499999982 ], [ -49.535859, -23.504826399999956 ], [ -49.533776399999965, -23.503351299999963 ], [ -49.533912899999962, -23.502556899999945 ], [ -49.536099099999944, -23.50201119999997 ], [ -49.538778199999967, -23.500089199999934 ], [ -49.543558499999961, -23.500053599999944 ], [ -49.548519699999986, -23.495660099999952 ], [ -49.550919399999941, -23.495106699999951 ], [ -49.554221899999959, -23.496162199999958 ], [ -49.559012399999972, -23.494095399999935 ], [ -49.564039599999944, -23.496121499999958 ], [ -49.566674399999954, -23.494164399999931 ], [ -49.565953599999943, -23.491561499999932 ], [ -49.567122199999972, -23.490797199999975 ], [ -49.570783, -23.491129 ], [ -49.575557499999945, -23.490287599999931 ], [ -49.577160299999946, -23.492147699999975 ], [ -49.580081299999961, -23.485456099999965 ], [ -49.577632199999982, -23.479667599999971 ], [ -49.582629, -23.480516299999977 ], [ -49.584869599999934, -23.47919909999996 ], [ -49.588575, -23.478711799999928 ], [ -49.594456799999932, -23.474065799999948 ], [ -49.592557799999952, -23.470215099999962 ], [ -49.591771699999981, -23.463204 ], [ -49.593397, -23.462975899999947 ], [ -49.594974799999932, -23.465411 ], [ -49.595967499999972, -23.464889299999982 ], [ -49.596074899999962, -23.463426199999958 ], [ -49.592079299999966, -23.460079599999972 ], [ -49.59374269999995, -23.458733299999949 ], [ -49.59613029999997, -23.459754 ], [ -49.598068699999942, -23.458232599999974 ], [ -49.60326079999993, -23.452525 ], [ -49.603186, -23.451292599999931 ], [ -49.598157899999933, -23.446172 ], [ -49.595640099999969, -23.440382399999976 ], [ -49.592428599999948, -23.436969 ], [ -49.590106599999956, -23.435871 ], [ -49.579130499999962, -23.436936299999957 ], [ -49.577910799999984, -23.437737899999945 ], [ -49.575619099999983, -23.443584399999963 ], [ -49.572951399999965, -23.443944 ], [ -49.56993209999996, -23.441987099999949 ], [ -49.569019099999934, -23.440304199999957 ], [ -49.569635199999937, -23.438741099999959 ], [ -49.571871, -23.437606899999935 ], [ -49.572375, -23.436234399999933 ], [ -49.56726249999997, -23.429305399999976 ], [ -49.566624099999956, -23.426420099999973 ], [ -49.569145799999944, -23.42545709999996 ], [ -49.575543, -23.431395899999927 ], [ -49.578507599999966, -23.432123099999956 ], [ -49.580804599999965, -23.431718099999955 ], [ -49.58179, -23.428954799999929 ], [ -49.578376499999933, -23.421545599999945 ], [ -49.580293, -23.414198599999963 ], [ -49.581017199999962, -23.413850499999967 ], [ -49.585905899999943, -23.415961799999934 ], [ -49.589327, -23.416142899999954 ], [ -49.590462799999955, -23.41574959999997 ], [ -49.592601199999933, -23.407505799999967 ], [ -49.593436099999963, -23.406706899999961 ], [ -49.602518699999962, -23.408473799999967 ], [ -49.603676, -23.407812 ], [ -49.604743, -23.402840799999979 ], [ -49.603739699999949, -23.401479 ], [ -49.599485699999946, -23.400482799999963 ], [ -49.598252199999934, -23.399429 ], [ -49.59851649999996, -23.398186599999974 ], [ -49.607850299999939, -23.393342799999971 ], [ -49.611631099999954, -23.394495899999981 ], [ -49.615297199999986, -23.39767489999997 ], [ -49.618323799999985, -23.398201099999937 ], [ -49.62101169999994, -23.397419299999967 ], [ -49.621682299999975, -23.39429309999997 ], [ -49.620606899999984, -23.388718399999959 ], [ -49.612805599999945, -23.387850599999979 ], [ -49.605063499999972, -23.384415499999932 ], [ -49.60110009999994, -23.383967599999949 ], [ -49.598014, -23.384925299999963 ], [ -49.594805, -23.388412499999959 ], [ -49.592473499999983, -23.389574299999936 ], [ -49.591071499999941, -23.387877699999933 ], [ -49.590402499999982, -23.382792499999937 ], [ -49.595989499999973, -23.37601959999995 ], [ -49.596442499999966, -23.372177399999941 ], [ -49.595412099999976, -23.367091399999936 ], [ -49.596761599999979, -23.365490199999954 ], [ -49.601657099999954, -23.362615199999937 ], [ -49.604156899999964, -23.358947499999942 ], [ -49.611806599999966, -23.354653499999927 ], [ -49.619404499999973, -23.355665899999963 ], [ -49.620930599999951, -23.356773199999964 ], [ -49.626992399999949, -23.356015499999955 ], [ -49.633436699999947, -23.356421099999977 ], [ -49.635857599999952, -23.354026599999941 ], [ -49.638178099999948, -23.348776199999975 ], [ -49.637901399999976, -23.342552099999978 ], [ -49.636213, -23.339772 ], [ -49.634802, -23.339988099999971 ], [ -49.631294299999979, -23.344178199999931 ], [ -49.629417599999954, -23.343757299999936 ], [ -49.62767, -23.34204879999993 ], [ -49.621694499999933, -23.331889599999954 ], [ -49.622887099999957, -23.326520099999982 ], [ -49.623278499999969, -23.318436599999927 ], [ -49.628736499999945, -23.311185799999976 ], [ -49.629225799999972, -23.308221199999934 ], [ -49.631397399999969, -23.304415699999936 ], [ -49.630880299999944, -23.299475699999959 ], [ -49.62580289999994, -23.286650099999974 ], [ -49.62714589999996, -23.281772799999942 ], [ -49.625225199999932, -23.280967699999962 ], [ -49.624145499999941, -23.279117399999961 ], [ -49.622640799999942, -23.280574099999967 ], [ -49.618517099999963, -23.280781899999965 ], [ -49.612698899999941, -23.277946899999961 ], [ -49.608292499999948, -23.279352299999971 ], [ -49.605393599999957, -23.278652199999954 ], [ -49.604021699999976, -23.276152899999943 ], [ -49.598720799999967, -23.270568299999979 ], [ -49.596339399999977, -23.269187799999941 ], [ -49.594074399999954, -23.269112699999937 ], [ -49.592487899999981, -23.267377799999963 ], [ -49.587869399999931, -23.266116599999975 ], [ -49.580265, -23.266715099999942 ], [ -49.576406, -23.265196399999979 ], [ -49.570473, -23.26475019999998 ], [ -49.566688799999952, -23.263077499999952 ], [ -49.564282, -23.260027099999945 ], [ -49.560501199999976, -23.258961699999929 ], [ -49.55651679999994, -23.262147199999959 ], [ -49.553565, -23.266352099999949 ], [ -49.546465699999942, -23.27341389999998 ], [ -49.545446299999981, -23.275690899999972 ], [ -49.545307199999968, -23.279452499999934 ], [ -49.539316, -23.280762299999935 ], [ -49.537775299999964, -23.28001839999996 ], [ -49.53580379999994, -23.275305799999956 ], [ -49.536970399999973, -23.270912 ], [ -49.536508499999968, -23.269341 ], [ -49.533844899999963, -23.269253699999979 ], [ -49.524480599999947, -23.272401699999932 ], [ -49.523549399999979, -23.276353299999982 ], [ -49.517878099999962, -23.285356299999933 ], [ -49.519044899999983, -23.288005299999952 ], [ -49.524416299999984, -23.291785 ], [ -49.525182599999937, -23.29401619999993 ], [ -49.524538, -23.297083 ], [ -49.522007499999972, -23.299864599999978 ], [ -49.521521399999983, -23.305174099999931 ], [ -49.520168799999965, -23.306743899999958 ], [ -49.51331319999997, -23.309804699999972 ], [ -49.499691, -23.309340299999974 ], [ -49.496573699999942, -23.311257599999976 ], [ -49.491978699999947, -23.316634699999952 ], [ -49.490233699999976, -23.317386499999941 ], [ -49.48428819999998, -23.317709499999978 ], [ -49.479087099999958, -23.321292799999981 ], [ -49.47790729999997, -23.317917 ], [ -49.472802199999933, -23.311518799999931 ], [ -49.467635899999948, -23.310618399999953 ], [ -49.461717299999975, -23.314786799999979 ], [ -49.459768099999962, -23.319550799999945 ], [ -49.458023299999979, -23.321006799999964 ], [ -49.457285699999943, -23.322876599999972 ], [ -49.452453199999979, -23.327038099999982 ], [ -49.449695499999962, -23.33208389999993 ], [ -49.44270389999997, -23.329156599999976 ], [ -49.442031199999974, -23.330349799999965 ], [ -49.44371179999996, -23.33324209999995 ], [ -49.441890899999976, -23.33576869999996 ], [ -49.432735199999968, -23.336014399999954 ], [ -49.430261099999939, -23.331644799999935 ], [ -49.426910499999963, -23.331244499999968 ], [ -49.425435199999981, -23.332300699999962 ], [ -49.423866699999962, -23.335815599999933 ], [ -49.421553199999948, -23.336776199999974 ], [ -49.418312399999934, -23.33673749999997 ], [ -49.417412, -23.339732099999935 ], [ -49.413453799999957, -23.342313099999956 ], [ -49.410809299999983, -23.345806299999936 ], [ -49.404567499999985, -23.347439899999983 ], [ -49.401948499999946, -23.351005699999973 ], [ -49.398036599999955, -23.351887499999975 ], [ -49.396899599999983, -23.354378599999961 ] ] ] ] } }
]
}
