{
"type": "FeatureCollection",
"name": "ER_REGIAO_Santa Adélia_Ururaí",
"crs": { "type": "name", "properties": { "name": "urn:ogc:def:crs:EPSG::4674" } },
"xy_coordinate_resolution": 1e-15,
"features": [
{ "type": "Feature", "properties": { "fid": 761, "NM_REGIAO": "Sudeste", "NM_UF": "São Paulo", "NM_MUN": "Santa Adélia", "NM_DIST": "Ururaí", "CD_SUBDIST": "35456051500", "ER_REGIAO": "Santa Adélia_Ururaí", "ER_REGIAO_CIDADE": "Santa Adélia_Ururaí_Araraquara" }, "geometry": { "type": "MultiPolygon", "coordinates": [ [ [ [ -48.797392, -21.3322286 ], [ -48.7996521, -21.3333297 ], [ -48.8020352, -21.3396953 ], [ -48.8015425, -21.3471663 ], [ -48.8053582, -21.3509135 ], [ -48.8153863, -21.3560811 ], [ -48.8196607, -21.3554778 ], [ -48.8256056, -21.356388 ], [ -48.8293435, -21.3611608 ], [ -48.8350452, -21.3620786 ], [ -48.8353156, -21.36328 ], [ -48.8370302, -21.364668 ], [ -48.8367052, -21.36881 ], [ -48.8374505, -21.371075 ], [ -48.8426089, -21.3808816 ], [ -48.8438789, -21.3847988 ], [ -48.849311, -21.3904878 ], [ -48.8505149, -21.390521 ], [ -48.8506972, -21.3915963 ], [ -48.8527412, -21.3928493 ], [ -48.8537644, -21.3917361 ], [ -48.8602987, -21.3922825 ], [ -48.8614553, -21.3931985 ], [ -48.8637903, -21.3925089 ], [ -48.8638606, -21.3918258 ], [ -48.8650119, -21.3923976 ], [ -48.8680594, -21.3918611 ], [ -48.8694839, -21.3927051 ], [ -48.8697115, -21.3937305 ], [ -48.8710238, -21.3930943 ], [ -48.8713613, -21.3939546 ], [ -48.8717417, -21.3933674 ], [ -48.8729608, -21.3942951 ], [ -48.8731999, -21.3935811 ], [ -48.8748531, -21.3940403 ], [ -48.8750129, -21.3932788 ], [ -48.8767568, -21.3933212 ], [ -48.8796397, -21.3895115 ], [ -48.8812469, -21.3894353 ], [ -48.8824975, -21.388019 ], [ -48.887101, -21.3877339 ], [ -48.889862, -21.3859735 ], [ -48.8924083, -21.3834168 ], [ -48.8938071, -21.3789278 ], [ -48.8963128, -21.3769515 ], [ -48.8971286, -21.37352 ], [ -48.8987952, -21.3711751 ], [ -48.9024588, -21.3685178 ], [ -48.9055424, -21.363832 ], [ -48.9073402, -21.3584417 ], [ -48.9146768, -21.3576737 ], [ -48.916924, -21.3533892 ], [ -48.921715, -21.3491209 ], [ -48.9232505, -21.3452102 ], [ -48.9217736, -21.3394895 ], [ -48.920318, -21.3377319 ], [ -48.9201703, -21.3311157 ], [ -48.9191313, -21.329195 ], [ -48.9166596, -21.328491 ], [ -48.9156548, -21.3266426 ], [ -48.912421, -21.3239677 ], [ -48.9091931, -21.3224601 ], [ -48.9034021, -21.3222042 ], [ -48.9004589, -21.3243998 ], [ -48.8966953, -21.3300323 ], [ -48.8911932, -21.332778 ], [ -48.8877833, -21.3334302 ], [ -48.8836012, -21.3281065 ], [ -48.8798131, -21.3263823 ], [ -48.8789584, -21.3252496 ], [ -48.8797918, -21.3193685 ], [ -48.8794193, -21.31649 ], [ -48.873711, -21.3172424 ], [ -48.8674615, -21.3148462 ], [ -48.8625072, -21.31812 ], [ -48.8572231, -21.309092 ], [ -48.8552476, -21.2994677 ], [ -48.8480932, -21.2994819 ], [ -48.8439686, -21.3029696 ], [ -48.8431814, -21.3004432 ], [ -48.8414023, -21.2998638 ], [ -48.8404623, -21.2983458 ], [ -48.8428112, -21.2944311 ], [ -48.8431194, -21.2923329 ], [ -48.797392, -21.3322286 ] ] ] ] } }
]
}
