{
"type": "FeatureCollection",
"name": "ER_REGIAO_Suzanápolis",
"crs": { "type": "name", "properties": { "name": "urn:ogc:def:crs:EPSG::4674" } },
"xy_coordinate_resolution": 1e-15,
"features": [
{ "type": "Feature", "properties": { "fid": 964, "NM_REGIAO": "Sudeste", "NM_UF": "São Paulo", "NM_MUN": "Suzanápolis", "NM_DIST": "Suzanápolis", "CD_SUBDIST": "35525510500", "ER_REGIAO": "Suzanápolis", "ER_REGIAO_CIDADE": "Suzanápolis_Araçatuba" }, "geometry": { "type": "MultiPolygon", "coordinates": [ [ [ [ -51.130717299999958, -20.417027099999927 ], [ -51.046512699999937, -20.375575599999934 ], [ -51.038566799999955, -20.370924799999955 ], [ -51.032484, -20.377376 ], [ -51.02925879999998, -20.379259199999979 ], [ -51.025188599999979, -20.383239299999957 ], [ -51.02440919999998, -20.382619199999965 ], [ -51.021000699999945, -20.385454599999946 ], [ -51.01735229999997, -20.393317199999956 ], [ -51.015580399999976, -20.404732499999966 ], [ -51.013556499999936, -20.407796599999926 ], [ -51.009589499999947, -20.407794299999978 ], [ -51.003318, -20.413141 ], [ -50.998684499999968, -20.41429 ], [ -50.998639, -20.419071 ], [ -50.994238, -20.424661 ], [ -50.994209, -20.429417 ], [ -50.990837, -20.431723 ], [ -50.990555899999947, -20.43493669999998 ], [ -50.986342399999955, -20.44031119999994 ], [ -50.986713699999939, -20.442503 ], [ -50.984838299999979, -20.445776699999954 ], [ -50.986103399999934, -20.451770899999929 ], [ -50.980371599999955, -20.45803559999996 ], [ -50.981113, -20.462865 ], [ -50.980110099999933, -20.46552029999998 ], [ -50.980894599999942, -20.467608299999938 ], [ -50.979061499999943, -20.471637699999974 ], [ -50.979345199999955, -20.474478599999941 ], [ -50.981678899999963, -20.477696099999946 ], [ -50.982571399999983, -20.483180499999946 ], [ -50.980127499999981, -20.491751499999964 ], [ -50.982288799999935, -20.494724199999951 ], [ -50.982419299999947, -20.496187299999974 ], [ -50.978446, -20.499023699999952 ], [ -50.97693959999998, -20.503085 ], [ -50.974211299999979, -20.504959399999962 ], [ -50.972038199999986, -20.508487399999979 ], [ -50.969178099999965, -20.510667099999978 ], [ -50.96758159999996, -20.520544699999959 ], [ -50.964438199999961, -20.522727499999974 ], [ -50.967821199999946, -20.526143099999956 ], [ -50.968177099999934, -20.527696699999979 ], [ -50.966284899999948, -20.549228 ], [ -50.972690899999975, -20.551802699999939 ], [ -50.975552299999947, -20.553770499999928 ], [ -50.976864399999954, -20.555952899999966 ], [ -50.976798499999973, -20.563247399999966 ], [ -50.978106199999957, -20.565108599999974 ], [ -50.980330699999968, -20.563278299999979 ], [ -50.986165199999959, -20.548567899999966 ], [ -50.988433599999951, -20.546736799999962 ], [ -50.992159799999968, -20.549590699999953 ], [ -50.995552799999984, -20.550592299999948 ], [ -50.996842, -20.551788299999942 ], [ -50.997943699999951, -20.555099899999959 ], [ -50.999816, -20.555965899999933 ], [ -51.004415599999959, -20.554896 ], [ -51.007822899999951, -20.551298499999973 ], [ -51.014216699999963, -20.554581499999927 ], [ -51.02206979999994, -20.55396 ], [ -51.026626699999952, -20.555712299999982 ], [ -51.030413799999963, -20.559056299999952 ], [ -51.032938199999933, -20.558935 ], [ -51.047119599999974, -20.552161699999942 ], [ -51.054694899999959, -20.55093329999994 ], [ -51.059590599999979, -20.553976099999943 ], [ -51.06699679999997, -20.555197899999939 ], [ -51.070607099999961, -20.551977 ], [ -51.071694, -20.548746 ], [ -51.071056299999952, -20.545468699999958 ], [ -51.072110899999984, -20.543527399999959 ], [ -51.074112299999967, -20.542785199999969 ], [ -51.077492399999983, -20.544756199999938 ], [ -51.082733799999971, -20.545841799999948 ], [ -51.095198799999935, -20.541806599999973 ], [ -51.101381699999934, -20.538175399999943 ], [ -51.106828899999982, -20.527118799999982 ], [ -51.11039889999995, -20.525073099999929 ], [ -51.112880299999972, -20.525595399999929 ], [ -51.119969599999934, -20.530133899999953 ], [ -51.125109499999951, -20.527230299999928 ], [ -51.134165, -20.527131899999972 ], [ -51.13578, -20.525170499999945 ], [ -51.136500699999942, -20.522721599999954 ], [ -51.138417899999979, -20.521001599999977 ], [ -51.148810799999978, -20.519555399999945 ], [ -51.149918, -20.518798499999946 ], [ -51.150498199999959, -20.512894499999959 ], [ -51.154032799999982, -20.50842229999995 ], [ -51.156755499999974, -20.507981399999949 ], [ -51.161138199999982, -20.50892749999997 ], [ -51.163672499999961, -20.504133799999977 ], [ -51.165416199999981, -20.502961099999936 ], [ -51.169418599999972, -20.502944199999945 ], [ -51.171364399999959, -20.50443869999998 ], [ -51.173613499999931, -20.503671199999928 ], [ -51.17464549999994, -20.502299199999982 ], [ -51.174700599999937, -20.499284799999941 ], [ -51.179060399999969, -20.496338799999933 ], [ -51.182362099999978, -20.496055099999978 ], [ -51.186433499999964, -20.497057599999948 ], [ -51.189366599999971, -20.496469599999955 ], [ -51.20058679999994, -20.49091059999995 ], [ -51.203168499999947, -20.489077799999961 ], [ -51.204524, -20.486817299999927 ], [ -51.206746399999986, -20.478396199999963 ], [ -51.208709, -20.475537699999961 ], [ -51.211037799999986, -20.473408499999948 ], [ -51.214778, -20.472136599999942 ], [ -51.216900499999952, -20.470530599999961 ], [ -51.221987799999965, -20.464711899999941 ], [ -51.231210399999952, -20.458338399999946 ], [ -51.231380599999966, -20.457213099999933 ], [ -51.230454, -20.456756 ], [ -51.226665, -20.456871 ], [ -51.219846, -20.45413 ], [ -51.212859, -20.44722 ], [ -51.204634, -20.44224 ], [ -51.202939, -20.439231 ], [ -51.197199499999954, -20.437550099999953 ], [ -51.193646899999976, -20.437970499999949 ], [ -51.187243399999943, -20.436099199999944 ], [ -51.183203, -20.436103 ], [ -51.178913199999954, -20.434229599999981 ], [ -51.172541799999976, -20.435476499999936 ], [ -51.166205799999943, -20.43488009999993 ], [ -51.165058299999941, -20.434119299999963 ], [ -51.156771, -20.435259 ], [ -51.134996, -20.422973 ], [ -51.130717299999958, -20.417027099999927 ] ] ] ] } }
]
}
