{
"type": "FeatureCollection",
"name": "ER_REGIAO_Monte Aprazível_Monte Aprazível",
"crs": { "type": "name", "properties": { "name": "urn:ogc:def:crs:EPSG::4674" } },
"xy_coordinate_resolution": 1e-15,
"features": [
{ "type": "Feature", "properties": { "fid": 526, "NM_REGIAO": "Sudeste", "NM_UF": "São Paulo", "NM_MUN": "Monte Aprazível", "NM_DIST": "Monte Aprazível", "CD_SUBDIST": "35314070500", "ER_REGIAO": "Monte Aprazível_Monte Aprazível", "ER_REGIAO_CIDADE": "Monte Aprazível_Monte Aprazível_São José do Rio Preto" }, "geometry": { "type": "MultiPolygon", "coordinates": [ [ [ [ -49.7484594, -20.8545128 ], [ -49.7516828, -20.8577836 ], [ -49.7544313, -20.8576269 ], [ -49.756653, -20.8552941 ], [ -49.7603237, -20.8545457 ], [ -49.7698034, -20.8473001 ], [ -49.7775494, -20.8587166 ], [ -49.779148, -20.8582322 ], [ -49.7803482, -20.8565626 ], [ -49.7855704, -20.8529863 ], [ -49.7874254, -20.8492 ], [ -49.7909616, -20.8454739 ], [ -49.7929612, -20.8394021 ], [ -49.7973224, -20.8361119 ], [ -49.800806, -20.8347469 ], [ -49.8038989, -20.8352763 ], [ -49.8082921, -20.8328173 ], [ -49.8084579, -20.8317501 ], [ -49.8070107, -20.8307459 ], [ -49.8047073, -20.8260095 ], [ -49.8054046, -20.8246421 ], [ -49.8019146, -20.8227977 ], [ -49.8012599, -20.8195323 ], [ -49.8000311, -20.8181057 ], [ -49.8003728, -20.8173454 ], [ -49.7957347, -20.8168787 ], [ -49.7935907, -20.8148192 ], [ -49.7888219, -20.8130731 ], [ -49.7814446, -20.8128955 ], [ -49.7771043, -20.811771 ], [ -49.7725845, -20.8084003 ], [ -49.7721628, -20.8020529 ], [ -49.770156, -20.7989184 ], [ -49.7699307, -20.7971768 ], [ -49.7739884, -20.7920107 ], [ -49.7746185, -20.7865044 ], [ -49.7702545, -20.778867 ], [ -49.7701535, -20.7753924 ], [ -49.7685985, -20.7722436 ], [ -49.7689161, -20.7673686 ], [ -49.7663384, -20.7644173 ], [ -49.7646511, -20.7608839 ], [ -49.7642966, -20.7563782 ], [ -49.7657088, -20.7524108 ], [ -49.7640036, -20.7474609 ], [ -49.7656376, -20.741634 ], [ -49.7667714, -20.7403089 ], [ -49.7675859, -20.7341374 ], [ -49.765027, -20.7289745 ], [ -49.7639346, -20.723854 ], [ -49.7616706, -20.7214957 ], [ -49.7613487, -20.7201245 ], [ -49.7622014, -20.7182878 ], [ -49.7652018, -20.717386 ], [ -49.7683967, -20.7175606 ], [ -49.7711386, -20.7161113 ], [ -49.7732568, -20.7111521 ], [ -49.772496, -20.7081394 ], [ -49.7796883, -20.7040786 ], [ -49.7816046, -20.7043741 ], [ -49.783293, -20.7007325 ], [ -49.7855891, -20.6997693 ], [ -49.7870905, -20.697813 ], [ -49.7877393, -20.6966387 ], [ -49.7870621, -20.6949934 ], [ -49.7928021, -20.6949843 ], [ -49.7943238, -20.6917766 ], [ -49.7932745, -20.6897512 ], [ -49.7958168, -20.6868573 ], [ -49.7989632, -20.6860087 ], [ -49.7980757, -20.6838988 ], [ -49.7985302, -20.6831402 ], [ -49.8011357, -20.6828847 ], [ -49.8023495, -20.6813664 ], [ -49.8024645, -20.6802985 ], [ -49.8010536, -20.6799526 ], [ -49.8004669, -20.6785867 ], [ -49.8026383, -20.6773751 ], [ -49.8066215, -20.6770202 ], [ -49.8069855, -20.6757268 ], [ -49.8081314, -20.6760357 ], [ -49.8098363, -20.6748801 ], [ -49.8101227, -20.6725178 ], [ -49.8117939, -20.6711872 ], [ -49.8101479, -20.6692831 ], [ -49.8106173, -20.6684026 ], [ -49.8137541, -20.6676714 ], [ -49.8136612, -20.6661011 ], [ -49.8146651, -20.6649605 ], [ -49.8194805, -20.6620521 ], [ -49.8212487, -20.6599143 ], [ -49.8232052, -20.655166 ], [ -49.8248317, -20.6544074 ], [ -49.8244539, -20.6522331 ], [ -49.8254261, -20.6506306 ], [ -49.8273853, -20.6491695 ], [ -49.8257059, -20.6472772 ], [ -49.8273013, -20.6453719 ], [ -49.8260153, -20.6446178 ], [ -49.8265958, -20.6430218 ], [ -49.8258515, -20.6423996 ], [ -49.8267168, -20.6420972 ], [ -49.82621, -20.6395645 ], [ -49.8275808, -20.6371548 ], [ -49.8295766, -20.6366603 ], [ -49.8296957, -20.6341829 ], [ -49.8285176, -20.6327948 ], [ -49.830327, -20.6299447 ], [ -49.8313168, -20.6299139 ], [ -49.8320101, -20.6263051 ], [ -49.8311289, -20.6243402 ], [ -49.832204, -20.6228738 ], [ -49.8349042, -20.621498 ], [ -49.8354965, -20.6186355 ], [ -49.8384223, -20.6167164 ], [ -49.8385558, -20.6143641 ], [ -49.8370238, -20.6140801 ], [ -49.8342931, -20.6109884 ], [ -49.8312535, -20.6098426 ], [ -49.8276884, -20.6099202 ], [ -49.8257083, -20.6057436 ], [ -49.8263719, -20.6045025 ], [ -49.823599, -20.602905 ], [ -49.8233078, -20.6017151 ], [ -49.8152588, -20.5972791 ], [ -49.8089308, -20.5997832 ], [ -49.8023737, -20.5961255 ], [ -49.8002657, -20.5962172 ], [ -49.7961699, -20.5944592 ], [ -49.7943123, -20.5947669 ], [ -49.7915366, -20.5925927 ], [ -49.7899224, -20.5941287 ], [ -49.7875733, -20.5943018 ], [ -49.7856818, -20.5969695 ], [ -49.7851426, -20.5987233 ], [ -49.7856372, -20.5999534 ], [ -49.7802404, -20.6030431 ], [ -49.7798139, -20.6080111 ], [ -49.7789773, -20.6088394 ], [ -49.7783375, -20.6082545 ], [ -49.7765921, -20.6101712 ], [ -49.7752128, -20.6162222 ], [ -49.7709203, -20.6204125 ], [ -49.7630672, -20.6243662 ], [ -49.7609858, -20.624598 ], [ -49.7574331, -20.6233419 ], [ -49.7550362, -20.6240909 ], [ -49.7535636, -20.6234241 ], [ -49.7482246, -20.6239079 ], [ -49.7462256, -20.6246255 ], [ -49.7417966, -20.6282557 ], [ -49.7402577, -20.6305457 ], [ -49.7430254, -20.6302632 ], [ -49.7451351, -20.6312958 ], [ -49.7448759, -20.6339502 ], [ -49.7437549, -20.6359796 ], [ -49.744215, -20.6406167 ], [ -49.7477503, -20.6416464 ], [ -49.7511394, -20.6411384 ], [ -49.7523559, -20.6415035 ], [ -49.7530036, -20.6429265 ], [ -49.7523206, -20.6460176 ], [ -49.7440507, -20.6496103 ], [ -49.7421975, -20.6543934 ], [ -49.7448005, -20.6584316 ], [ -49.7461337, -20.6586739 ], [ -49.7462795, -20.6604917 ], [ -49.7511382, -20.6669662 ], [ -49.7509764, -20.6761209 ], [ -49.7475405, -20.6787574 ], [ -49.7466816, -20.680467 ], [ -49.7433754, -20.6819707 ], [ -49.7429172, -20.6834333 ], [ -49.7409671, -20.6848778 ], [ -49.7378513, -20.6839788 ], [ -49.734412, -20.6869698 ], [ -49.7256444, -20.6866194 ], [ -49.7261972, -20.6901597 ], [ -49.7276492, -20.6916082 ], [ -49.7299735, -20.697572 ], [ -49.7305175, -20.7063598 ], [ -49.7328419, -20.7076615 ], [ -49.7232215, -20.7140947 ], [ -49.7200759, -20.7172525 ], [ -49.718165, -20.7176341 ], [ -49.7016832, -20.7081786 ], [ -49.6965285, -20.7084892 ], [ -49.6989939, -20.7305278 ], [ -49.6900528, -20.7313465 ], [ -49.6812054, -20.7279982 ], [ -49.6750374, -20.7293449 ], [ -49.6680663, -20.7270084 ], [ -49.6639559, -20.7246767 ], [ -49.6615059, -20.7254578 ], [ -49.6514332, -20.7224578 ], [ -49.6471149, -20.7226622 ], [ -49.6452929, -20.7219952 ], [ -49.6414954, -20.7174728 ], [ -49.6370361, -20.7098678 ], [ -49.6338514, -20.7099784 ], [ -49.6250939, -20.7148659 ], [ -49.621649, -20.7138674 ], [ -49.617399, -20.7093506 ], [ -49.6052274, -20.7074072 ], [ -49.6064525, -20.7081134 ], [ -49.6066811, -20.7104092 ], [ -49.6091744, -20.7138235 ], [ -49.6084157, -20.717018 ], [ -49.6093368, -20.7195757 ], [ -49.6117139, -20.7221678 ], [ -49.6164681, -20.7241729 ], [ -49.6177311, -20.7287827 ], [ -49.6174811, -20.7313629 ], [ -49.6205213, -20.7343994 ], [ -49.6200822, -20.7381953 ], [ -49.6188903, -20.7384732 ], [ -49.6181173, -20.73992 ], [ -49.6170232, -20.7439826 ], [ -49.6167498, -20.7472476 ], [ -49.6182623, -20.750558 ], [ -49.6194689, -20.7509407 ], [ -49.6225161, -20.7552467 ], [ -49.6259231, -20.7577369 ], [ -49.6289353, -20.7577558 ], [ -49.6304731, -20.7569962 ], [ -49.6354063, -20.7598663 ], [ -49.6389374, -20.7611427 ], [ -49.6416634, -20.7611383 ], [ -49.6428952, -20.7631941 ], [ -49.6453243, -20.7637624 ], [ -49.6479462, -20.7674297 ], [ -49.6529383, -20.7684065 ], [ -49.655826, -20.7716186 ], [ -49.6573161, -20.7718945 ], [ -49.658467, -20.7709044 ], [ -49.6611404, -20.7713545 ], [ -49.6577491, -20.7721413 ], [ -49.6557193, -20.774738 ], [ -49.6548342, -20.7744702 ], [ -49.6531291, -20.7766997 ], [ -49.6527123, -20.7789782 ], [ -49.648336, -20.7830463 ], [ -49.6479802, -20.7852678 ], [ -49.6450199, -20.7883192 ], [ -49.6429188, -20.7889112 ], [ -49.6401093, -20.7923232 ], [ -49.6360587, -20.7937019 ], [ -49.6336837, -20.7975427 ], [ -49.6338554, -20.7992793 ], [ -49.6322558, -20.8007325 ], [ -49.6374692, -20.8066169 ], [ -49.6412352, -20.8123757 ], [ -49.6425842, -20.8136761 ], [ -49.6459041, -20.8132932 ], [ -49.6477915, -20.816012 ], [ -49.6513492, -20.8168371 ], [ -49.6590159, -20.8218302 ], [ -49.6703958, -20.8223543 ], [ -49.6728869, -20.8267171 ], [ -49.6762719, -20.827599 ], [ -49.6784798, -20.8302639 ], [ -49.6808753, -20.8309172 ], [ -49.6840749, -20.8330994 ], [ -49.6896578, -20.8287881 ], [ -49.7025559, -20.8284957 ], [ -49.7025278, -20.8308384 ], [ -49.7007081, -20.8337924 ], [ -49.7030089, -20.8374867 ], [ -49.703231, -20.8398608 ], [ -49.6991762, -20.8514847 ], [ -49.7014337, -20.8585986 ], [ -49.7012861, -20.8607109 ], [ -49.7023783, -20.8596262 ], [ -49.7040779, -20.8593594 ], [ -49.7062603, -20.8561229 ], [ -49.7099147, -20.8540888 ], [ -49.7095063, -20.8463046 ], [ -49.7110734, -20.8460202 ], [ -49.7149049, -20.84818 ], [ -49.7169573, -20.8483402 ], [ -49.7249065, -20.8459236 ], [ -49.7355586, -20.8488178 ], [ -49.7392053, -20.8479719 ], [ -49.7448892, -20.8479981 ], [ -49.7484594, -20.8545128 ] ] ] ] } }
]
}
