{
"type": "FeatureCollection",
"name": "ER_REGIAO_Piracicaba_Artemis",
"crs": { "type": "name", "properties": { "name": "urn:ogc:def:crs:EPSG::4674" } },
"xy_coordinate_resolution": 1e-15,
"features": [
{ "type": "Feature", "properties": { "fid": 643, "NM_REGIAO": "Sudeste", "NM_UF": "São Paulo", "NM_MUN": "Piracicaba", "NM_DIST": "Artemis", "CD_SUBDIST": "35387091000", "ER_REGIAO": "Piracicaba_Artemis", "ER_REGIAO_CIDADE": "Piracicaba_Artemis_Piracicaba" }, "geometry": { "type": "MultiPolygon", "coordinates": [ [ [ [ -47.729670499999941, -22.686131799999941 ], [ -47.733898599999975, -22.691389399999935 ], [ -47.73613679999994, -22.701447599999938 ], [ -47.739580199999978, -22.703902699999958 ], [ -47.741996499999971, -22.70440149999996 ], [ -47.749468, -22.703677 ], [ -47.764538, -22.720193 ], [ -47.77249, -22.726936 ], [ -47.774684399999956, -22.731200799999954 ], [ -47.776242799999977, -22.731770399999959 ], [ -47.775510499999939, -22.733224199999938 ], [ -47.776750599999957, -22.736288599999966 ], [ -47.776853, -22.741220599999963 ], [ -47.77964309999993, -22.741648299999952 ], [ -47.780217899999968, -22.742592399999978 ], [ -47.77834409999997, -22.744912299999953 ], [ -47.77899709999997, -22.74739459999995 ], [ -47.777453099999946, -22.749598899999967 ], [ -47.777311299999951, -22.755396399999938 ], [ -47.776612899999975, -22.755948 ], [ -47.777271399999961, -22.75590619999997 ], [ -47.777240499999948, -22.756633 ], [ -47.776461899999958, -22.756619 ], [ -47.776848, -22.757292 ], [ -47.775610699999959, -22.75767419999994 ], [ -47.77405349999998, -22.759916899999951 ], [ -47.776065699999947, -22.761957199999927 ], [ -47.775347199999942, -22.764067699999941 ], [ -47.780924, -22.764795499999934 ], [ -47.788376099999937, -22.770920299999943 ], [ -47.79263, -22.77249009999997 ], [ -47.794102199999941, -22.770804899999973 ], [ -47.796737599999972, -22.770824399999981 ], [ -47.800326, -22.76797 ], [ -47.805528, -22.767181 ], [ -47.811116, -22.767942 ], [ -47.81566, -22.770897 ], [ -47.820416, -22.768753 ], [ -47.823348, -22.769937 ], [ -47.824497, -22.772356 ], [ -47.826288, -22.773331 ], [ -47.838791, -22.773839 ], [ -47.843371, -22.775321 ], [ -47.845359, -22.773544 ], [ -47.850667, -22.772188 ], [ -47.858786, -22.774951 ], [ -47.8622, -22.774854 ], [ -47.866502, -22.77636 ], [ -47.868866, -22.771841 ], [ -47.873008, -22.767732 ], [ -47.875236, -22.754407599999979 ], [ -47.877268799999968, -22.749459299999955 ], [ -47.880888399999947, -22.744657899999936 ], [ -47.883719799999938, -22.74293369999998 ], [ -47.884243499999968, -22.741805599999964 ], [ -47.886653799999976, -22.734061 ], [ -47.885436199999958, -22.731509899999935 ], [ -47.885526, -22.725702199999944 ], [ -47.892344599999944, -22.718666499999983 ], [ -47.892584699999986, -22.716501199999982 ], [ -47.897327599999983, -22.708721299999979 ], [ -47.900811099999942, -22.706312799999978 ], [ -47.903930599999967, -22.706501099999969 ], [ -47.90866909999994, -22.703719799999931 ], [ -47.913198799999975, -22.702787 ], [ -47.914119299999982, -22.700458799999979 ], [ -47.917770799999971, -22.698759499999937 ], [ -47.919842, -22.696405699999957 ], [ -47.915513, -22.6921 ], [ -47.912506699999938, -22.692403799999965 ], [ -47.907924, -22.690039 ], [ -47.906306, -22.687868699999967 ], [ -47.904158, -22.681558 ], [ -47.905453, -22.678747 ], [ -47.911114399999974, -22.675725499999942 ], [ -47.920118699999932, -22.668548 ], [ -47.920722199999943, -22.663266599999929 ], [ -47.919583, -22.659536 ], [ -47.917607, -22.65819 ], [ -47.914647199999933, -22.658801899999958 ], [ -47.908441399999958, -22.662541699999963 ], [ -47.905691499999932, -22.662494899999956 ], [ -47.89466479999993, -22.65904 ], [ -47.886769199999947, -22.654143599999941 ], [ -47.881077599999969, -22.648629699999958 ], [ -47.872613, -22.647725 ], [ -47.869498, -22.648575 ], [ -47.862121, -22.658155 ], [ -47.857959, -22.659023 ], [ -47.849538, -22.659173 ], [ -47.844882, -22.664088 ], [ -47.836516, -22.665729 ], [ -47.823335, -22.673123 ], [ -47.821361, -22.67371 ], [ -47.817837, -22.67336 ], [ -47.808098, -22.669805 ], [ -47.806144, -22.667445 ], [ -47.801957, -22.665548 ], [ -47.802045, -22.663592 ], [ -47.803614, -22.66186 ], [ -47.803357, -22.660644 ], [ -47.80169, -22.659495 ], [ -47.802007, -22.657832 ], [ -47.801119, -22.656521 ], [ -47.801041, -22.655062 ], [ -47.802407, -22.652744 ], [ -47.797616, -22.650222 ], [ -47.802395, -22.645843 ], [ -47.799808, -22.645421 ], [ -47.798932, -22.644304 ], [ -47.800896, -22.643197 ], [ -47.800345, -22.641955 ], [ -47.801494, -22.64078 ], [ -47.799359, -22.63781 ], [ -47.801442, -22.634914 ], [ -47.799526, -22.633626 ], [ -47.797979, -22.63071 ], [ -47.798831, -22.628267 ], [ -47.796674, -22.627327 ], [ -47.796343, -22.625534 ], [ -47.794241, -22.624586 ], [ -47.792621, -22.619408 ], [ -47.788071, -22.613289 ], [ -47.787908, -22.6111 ], [ -47.783802, -22.60725 ], [ -47.783571, -22.603682 ], [ -47.784493, -22.600747 ], [ -47.782426, -22.597526 ], [ -47.783021, -22.596153 ], [ -47.784776, -22.595049 ], [ -47.78564, -22.592375 ], [ -47.7898, -22.587824 ], [ -47.791989, -22.586889 ], [ -47.796609, -22.586631 ], [ -47.803290199999935, -22.581831699999952 ], [ -47.799652799999933, -22.580710799999963 ], [ -47.791227, -22.58132489999997 ], [ -47.789627499999938, -22.58007809999998 ], [ -47.787298299999975, -22.579780699999958 ], [ -47.777225499999986, -22.581800899999962 ], [ -47.772369899999944, -22.579298 ], [ -47.770237399999985, -22.579062 ], [ -47.768889099999967, -22.57525279999993 ], [ -47.766417399999966, -22.576583599999935 ], [ -47.763618699999938, -22.579506 ], [ -47.765594, -22.583004 ], [ -47.764810099999977, -22.586482599999954 ], [ -47.763519199999962, -22.587715899999978 ], [ -47.759234, -22.588569099999972 ], [ -47.755166499999973, -22.587686 ], [ -47.752371299999936, -22.587941099999966 ], [ -47.750767499999938, -22.589159599999959 ], [ -47.746523499999967, -22.590368299999966 ], [ -47.74783309999998, -22.591826399999945 ], [ -47.75108419999998, -22.601109899999983 ], [ -47.753262499999948, -22.603036399999951 ], [ -47.750997899999959, -22.607718099999943 ], [ -47.752488399999947, -22.613558 ], [ -47.748635199999967, -22.616697399999964 ], [ -47.747699899999986, -22.620641699999965 ], [ -47.74637, -22.622218 ], [ -47.744791499999963, -22.622782299999983 ], [ -47.739815299999975, -22.622001799999964 ], [ -47.741867799999966, -22.625318799999945 ], [ -47.744756699999982, -22.627106799999979 ], [ -47.746546, -22.631456 ], [ -47.749222199999963, -22.633091099999945 ], [ -47.749961199999973, -22.637388899999962 ], [ -47.74811, -22.640005 ], [ -47.747911299999942, -22.641980899999965 ], [ -47.749188199999935, -22.646122499999933 ], [ -47.74901, -22.649931299999935 ], [ -47.744939599999952, -22.647738699999934 ], [ -47.743090799999948, -22.64570329999998 ], [ -47.739666099999965, -22.64544159999997 ], [ -47.737338399999942, -22.646368799999948 ], [ -47.737366299999962, -22.647980899999936 ], [ -47.733782899999937, -22.651533699999959 ], [ -47.731221299999959, -22.652179599999954 ], [ -47.728850899999941, -22.65158189999994 ], [ -47.725000199999954, -22.652762499999938 ], [ -47.722018299999945, -22.651279799999941 ], [ -47.720122099999969, -22.652967099999955 ], [ -47.716998099999955, -22.654011199999957 ], [ -47.715447299999937, -22.656036799999981 ], [ -47.715955699999938, -22.662428299999931 ], [ -47.717479499999968, -22.66517 ], [ -47.716102199999966, -22.667473099999938 ], [ -47.71712789999998, -22.669770599999936 ], [ -47.716644799999983, -22.671409599999947 ], [ -47.718312599999933, -22.673059799999976 ], [ -47.720643099999961, -22.673538699999938 ], [ -47.721215799999982, -22.675559799999974 ], [ -47.722553099999971, -22.675584399999934 ], [ -47.723488499999974, -22.678078 ], [ -47.724958099999981, -22.678467799999964 ], [ -47.726984, -22.677650099999937 ], [ -47.729503799999975, -22.681333799999948 ], [ -47.729016199999933, -22.684100499999943 ], [ -47.729670499999941, -22.686131799999941 ] ] ] ] } }
]
}
