{
"type": "FeatureCollection",
"name": "ER_REGIAO_São Sebastião_São Francisco da Praia",
"crs": { "type": "name", "properties": { "name": "urn:ogc:def:crs:EPSG::4674" } },
"xy_coordinate_resolution": 1e-15,
"features": [
{ "type": "Feature", "properties": { "fid": 939, "NM_REGIAO": "Sudeste", "NM_UF": "São Paulo", "NM_MUN": "São Sebastião", "NM_DIST": "São Francisco da Praia", "CD_SUBDIST": "35507041500", "ER_REGIAO": "São Sebastião_São Francisco da Praia", "ER_REGIAO_CIDADE": "São Sebastião_São Francisco da Praia_São José dos Campos" }, "geometry": { "type": "MultiPolygon", "coordinates": [ [ [ [ -45.4099069, -23.7240165 ], [ -45.4066132, -23.726367 ], [ -45.4044633, -23.7248796 ], [ -45.4017509, -23.7253568 ], [ -45.3995639, -23.7247447 ], [ -45.3979387, -23.7229984 ], [ -45.397099, -23.7238182 ], [ -45.3979601, -23.7263989 ], [ -45.3970118, -23.7266818 ], [ -45.3972132, -23.7276542 ], [ -45.3994877, -23.7291189 ], [ -45.3980264, -23.7326376 ], [ -45.3989135, -23.733249 ], [ -45.3993591, -23.7358437 ], [ -45.398766, -23.7367442 ], [ -45.4012092, -23.7379018 ], [ -45.4021965, -23.7407843 ], [ -45.4045446, -23.7415883 ], [ -45.407255, -23.7444766 ], [ -45.4089345, -23.7483666 ], [ -45.4113294, -23.7494327 ], [ -45.4114365, -23.7520471 ], [ -45.4124771, -23.7535759 ], [ -45.4065192, -23.7641957 ], [ -45.4025613, -23.7681037 ], [ -45.4030277, -23.770887 ], [ -45.4002168, -23.7737562 ], [ -45.4071772, -23.7752827 ], [ -45.4070893, -23.7767619 ], [ -45.4141065, -23.7790839 ], [ -45.4186182, -23.7815019 ], [ -45.4225307, -23.7847125 ], [ -45.4259538, -23.7892748 ], [ -45.4281011, -23.7900571 ], [ -45.4331885, -23.7871919 ], [ -45.4428894, -23.7873851 ], [ -45.4447448, -23.7866304 ], [ -45.4438293, -23.7836103 ], [ -45.444625, -23.7792631 ], [ -45.4436661, -23.7774236 ], [ -45.4491964, -23.7680861 ], [ -45.4540063, -23.7674137 ], [ -45.4595326, -23.7680565 ], [ -45.4621029, -23.7671713 ], [ -45.4637752, -23.7685687 ], [ -45.4719062, -23.7714831 ], [ -45.4763004, -23.7746282 ], [ -45.4804016, -23.7757103 ], [ -45.487152, -23.7720503 ], [ -45.4924634, -23.7658657 ], [ -45.4929264, -23.7624425 ], [ -45.4947813, -23.7619093 ], [ -45.4979307, -23.7624702 ], [ -45.4954341, -23.7580465 ], [ -45.4941783, -23.7532855 ], [ -45.4927913, -23.7521514 ], [ -45.4941042, -23.7464893 ], [ -45.4911663, -23.735108 ], [ -45.4939454, -23.7346002 ], [ -45.4950836, -23.7331552 ], [ -45.493385, -23.7289665 ], [ -45.4960805, -23.7277054 ], [ -45.4950925, -23.7258593 ], [ -45.493954, -23.7269093 ], [ -45.4873483, -23.7242287 ], [ -45.4834523, -23.7242355 ], [ -45.4844477, -23.7266504 ], [ -45.4842862, -23.730064 ], [ -45.4858477, -23.7336488 ], [ -45.4826982, -23.7356813 ], [ -45.4797426, -23.7356229 ], [ -45.4784109, -23.7364382 ], [ -45.4773247, -23.7386192 ], [ -45.4779935, -23.7429421 ], [ -45.475511, -23.7448083 ], [ -45.4749873, -23.7499173 ], [ -45.4741118, -23.7509502 ], [ -45.4723515, -23.7513145 ], [ -45.4741356, -23.754183 ], [ -45.4772676, -23.755739 ], [ -45.4771922, -23.7600041 ], [ -45.4758955, -23.7591885 ], [ -45.4745729, -23.7563102 ], [ -45.4666004, -23.7523546 ], [ -45.4583199, -23.7441798 ], [ -45.4577037, -23.7430303 ], [ -45.4585534, -23.7411341 ], [ -45.4580859, -23.7393064 ], [ -45.4589028, -23.7335245 ], [ -45.4572701, -23.7327728 ], [ -45.4576147, -23.7314 ], [ -45.4561901, -23.7301426 ], [ -45.4558787, -23.72869 ], [ -45.4523081, -23.7252665 ], [ -45.445507, -23.724726 ], [ -45.438543, -23.721084 ], [ -45.433171, -23.713217 ], [ -45.430297, -23.712929 ], [ -45.427482, -23.711514 ], [ -45.4281396, -23.7090533 ], [ -45.427229, -23.708481 ], [ -45.4194757, -23.7260397 ], [ -45.4151996, -23.7259588 ], [ -45.4127892, -23.7234854 ], [ -45.411699, -23.7249567 ], [ -45.4099069, -23.7240165 ] ] ] ] } }
]
}
