{
"type": "FeatureCollection",
"name": "ER_REGIAO_Batatais",
"crs": { "type": "name", "properties": { "name": "urn:ogc:def:crs:EPSG::4674" } },
"xy_coordinate_resolution": 1e-15,
"features": [
{ "type": "Feature", "properties": { "fid": 90, "NM_REGIAO": "Sudeste", "NM_UF": "São Paulo", "NM_MUN": "Batatais", "NM_DIST": "Batatais", "CD_SUBDIST": "35059060500", "ER_REGIAO": "Batatais", "ER_REGIAO_CIDADE": "Batatais_Franca" }, "geometry": { "type": "MultiPolygon", "coordinates": [ [ [ [ -47.6452484, -20.9592216 ], [ -47.6547408, -20.952512 ], [ -47.6569682, -20.9479021 ], [ -47.6658065, -20.9443448 ], [ -47.6682009, -20.9413026 ], [ -47.6724903, -20.9390684 ], [ -47.6742786, -20.9364299 ], [ -47.676795, -20.9369929 ], [ -47.678461, -20.9364097 ], [ -47.6879809, -20.9398093 ], [ -47.6897667, -20.9417982 ], [ -47.6923698, -20.9417205 ], [ -47.6942527, -20.9429811 ], [ -47.6972643, -20.9426863 ], [ -47.6999462, -20.9436633 ], [ -47.7037456, -20.9427311 ], [ -47.7064173, -20.9431061 ], [ -47.7098028, -20.9410742 ], [ -47.7182453, -20.9399388 ], [ -47.7183502, -20.9385606 ], [ -47.7191277, -20.9382142 ], [ -47.7211115, -20.9410212 ], [ -47.7218576, -20.9403453 ], [ -47.7225894, -20.9414583 ], [ -47.724268, -20.9419748 ], [ -47.7267307, -20.9409517 ], [ -47.7294622, -20.9420128 ], [ -47.7335867, -20.9405235 ], [ -47.7345582, -20.9414528 ], [ -47.7358425, -20.9410879 ], [ -47.7395502, -20.9420227 ], [ -47.7425525, -20.943768 ], [ -47.744035, -20.9426891 ], [ -47.7465701, -20.9434569 ], [ -47.7474704, -20.9414566 ], [ -47.7489149, -20.9408493 ], [ -47.7490842, -20.9390481 ], [ -47.7500512, -20.9394412 ], [ -47.7516194, -20.9386117 ], [ -47.7534205, -20.9393068 ], [ -47.7543818, -20.934612 ], [ -47.7556613, -20.9352161 ], [ -47.7560658, -20.9337022 ], [ -47.7574883, -20.9330903 ], [ -47.7602867, -20.9333522 ], [ -47.7641273, -20.9318302 ], [ -47.7655914, -20.9320884 ], [ -47.7659128, -20.9296776 ], [ -47.7677992, -20.9283173 ], [ -47.7681861, -20.9273422 ], [ -47.7674628, -20.9262944 ], [ -47.7700306, -20.9216568 ], [ -47.7690505, -20.9202364 ], [ -47.7690729, -20.9166808 ], [ -47.7713934, -20.9160762 ], [ -47.7710021, -20.9148876 ], [ -47.7722069, -20.9137633 ], [ -47.7708082, -20.9126253 ], [ -47.7730699, -20.9115096 ], [ -47.7735242, -20.9093455 ], [ -47.7749091, -20.9087249 ], [ -47.7751526, -20.9053778 ], [ -47.7760989, -20.9051288 ], [ -47.7753962, -20.9038633 ], [ -47.7767997, -20.9020276 ], [ -47.7766165, -20.8999689 ], [ -47.7792675, -20.8975282 ], [ -47.7809432, -20.8914786 ], [ -47.7837597, -20.8878882 ], [ -47.7839199, -20.8859427 ], [ -47.7869128, -20.8798938 ], [ -47.7729836, -20.8557516 ], [ -47.7712424, -20.8546508 ], [ -47.7661965, -20.8543332 ], [ -47.7563204, -20.846963 ], [ -47.7497555, -20.8456025 ], [ -47.7464554, -20.8373251 ], [ -47.744079, -20.8342319 ], [ -47.7290019, -20.8293305 ], [ -47.7255349, -20.8260463 ], [ -47.7198732, -20.8161281 ], [ -47.7129564, -20.8139301 ], [ -47.7075004, -20.8100148 ], [ -47.702397, -20.8164596 ], [ -47.6925467, -20.8205796 ], [ -47.6884702, -20.821066 ], [ -47.6834596, -20.8178649 ], [ -47.6784456, -20.8166111 ], [ -47.6778473, -20.8157467 ], [ -47.6756533, -20.8169663 ], [ -47.6628951, -20.8203465 ], [ -47.6611053, -20.820224 ], [ -47.6593382, -20.8190118 ], [ -47.6590301, -20.8124758 ], [ -47.663472, -20.8044692 ], [ -47.6632349, -20.8030858 ], [ -47.6583269, -20.7989979 ], [ -47.6610034, -20.7839072 ], [ -47.6520735, -20.7794081 ], [ -47.6504689, -20.7763282 ], [ -47.6497113, -20.7707 ], [ -47.6502052, -20.7656168 ], [ -47.6524843, -20.7587059 ], [ -47.6526286, -20.7552408 ], [ -47.6496331, -20.7402942 ], [ -47.6491913, -20.7345078 ], [ -47.6511052, -20.730312 ], [ -47.6506448, -20.728915 ], [ -47.6517337, -20.728955 ], [ -47.6508801, -20.7279536 ], [ -47.6518414, -20.7274836 ], [ -47.6512363, -20.7266522 ], [ -47.6525003, -20.7258121 ], [ -47.6510522, -20.7239348 ], [ -47.6501198, -20.7202944 ], [ -47.6441319, -20.7168163 ], [ -47.6409135, -20.7129363 ], [ -47.6383216, -20.7123151 ], [ -47.6380281, -20.7110879 ], [ -47.6330636, -20.7081902 ], [ -47.6319645, -20.7044808 ], [ -47.6281072, -20.7026747 ], [ -47.6268106, -20.7044996 ], [ -47.6268115, -20.7064461 ], [ -47.624009, -20.7068625 ], [ -47.6238359, -20.7082164 ], [ -47.6221594, -20.7082409 ], [ -47.6187543, -20.7099854 ], [ -47.6179628, -20.7112858 ], [ -47.6152965, -20.7082099 ], [ -47.61519, -20.7064915 ], [ -47.616937, -20.706048 ], [ -47.615106, -20.7043308 ], [ -47.613458, -20.7044093 ], [ -47.6122075, -20.7020734 ], [ -47.6124934, -20.7002553 ], [ -47.6041309, -20.6947333 ], [ -47.5985383, -20.6929273 ], [ -47.5982137, -20.6951385 ], [ -47.6051216, -20.7033275 ], [ -47.6032711, -20.7075528 ], [ -47.6045348, -20.7103954 ], [ -47.6039344, -20.7185317 ], [ -47.6010337, -20.7189 ], [ -47.5957366, -20.7180207 ], [ -47.5930469, -20.7163929 ], [ -47.5943315, -20.7143656 ], [ -47.5938342, -20.7131955 ], [ -47.5881168, -20.7112874 ], [ -47.5865109, -20.7095477 ], [ -47.5809807, -20.7102812 ], [ -47.5770233, -20.7172776 ], [ -47.5789237, -20.721772 ], [ -47.5790659, -20.7243375 ], [ -47.5743043, -20.7267596 ], [ -47.5716944, -20.7240916 ], [ -47.5714542, -20.7215278 ], [ -47.5676425, -20.7273111 ], [ -47.5679513, -20.7291161 ], [ -47.5707819, -20.7313159 ], [ -47.5712962, -20.7325774 ], [ -47.5707319, -20.7341934 ], [ -47.5684291, -20.7350679 ], [ -47.568184, -20.7390313 ], [ -47.563289, -20.7396446 ], [ -47.5592972, -20.7416831 ], [ -47.5522931, -20.739918 ], [ -47.5489227, -20.7407865 ], [ -47.5482511, -20.7399488 ], [ -47.5512637, -20.7373267 ], [ -47.5517349, -20.7349701 ], [ -47.5495247, -20.7355142 ], [ -47.5458776, -20.7341277 ], [ -47.5414582, -20.7361417 ], [ -47.5400745, -20.7359597 ], [ -47.5382838, -20.7311042 ], [ -47.5408077, -20.7326449 ], [ -47.5411947, -20.7311392 ], [ -47.5399393, -20.7279488 ], [ -47.5424054, -20.7269199 ], [ -47.544791, -20.7271492 ], [ -47.5430868, -20.7244563 ], [ -47.5445411, -20.7229302 ], [ -47.5445388, -20.7218766 ], [ -47.5426931, -20.7225529 ], [ -47.5420387, -20.7188986 ], [ -47.5406841, -20.7190099 ], [ -47.5401762, -20.7209425 ], [ -47.5393212, -20.7211424 ], [ -47.5387088, -20.7208805 ], [ -47.5394173, -20.7198336 ], [ -47.5388343, -20.7190388 ], [ -47.5331304, -20.717498 ], [ -47.5329394, -20.7182819 ], [ -47.5345337, -20.7188377 ], [ -47.5331688, -20.720722 ], [ -47.534122, -20.7231991 ], [ -47.5323768, -20.7234332 ], [ -47.5305888, -20.7221905 ], [ -47.529561, -20.7236047 ], [ -47.5333642, -20.7275431 ], [ -47.530137, -20.729382 ], [ -47.5291823, -20.7276851 ], [ -47.5274104, -20.7278426 ], [ -47.5264605, -20.7290503 ], [ -47.5280647, -20.7291966 ], [ -47.5281403, -20.7322647 ], [ -47.5239103, -20.7297485 ], [ -47.5217637, -20.7299971 ], [ -47.5173992, -20.7267441 ], [ -47.5165678, -20.7291768 ], [ -47.5152282, -20.7296533 ], [ -47.5148782, -20.728806 ], [ -47.5159997, -20.7275878 ], [ -47.5140105, -20.7248058 ], [ -47.5115271, -20.7246183 ], [ -47.510843, -20.72554 ], [ -47.5084715, -20.7250492 ], [ -47.5090637, -20.7270391 ], [ -47.5067282, -20.7275249 ], [ -47.5087968, -20.7290084 ], [ -47.5071118, -20.7302584 ], [ -47.5085144, -20.7323965 ], [ -47.5052258, -20.7312177 ], [ -47.504732, -20.7328073 ], [ -47.5066662, -20.7340449 ], [ -47.5064318, -20.7347597 ], [ -47.5041897, -20.7355519 ], [ -47.5035013, -20.7379161 ], [ -47.5014532, -20.7398508 ], [ -47.4990746, -20.7393218 ], [ -47.4994132, -20.7425166 ], [ -47.4977402, -20.7413516 ], [ -47.4949349, -20.7429467 ], [ -47.4959425, -20.7440983 ], [ -47.4941191, -20.7448477 ], [ -47.4948504, -20.7480275 ], [ -47.4943652, -20.748696 ], [ -47.4920905, -20.7474203 ], [ -47.4913018, -20.7493168 ], [ -47.4896412, -20.7496965 ], [ -47.488519, -20.7512092 ], [ -47.4826518, -20.7518195 ], [ -47.47856, -20.7541342 ], [ -47.4764056, -20.7521653 ], [ -47.4706817, -20.7522125 ], [ -47.4722118, -20.7556652 ], [ -47.4727377, -20.7599393 ], [ -47.4720632, -20.7657292 ], [ -47.4701305, -20.7698924 ], [ -47.4668165, -20.7703593 ], [ -47.4617077, -20.7729928 ], [ -47.4555903, -20.7732275 ], [ -47.4550561, -20.7716918 ], [ -47.4600874, -20.763892 ], [ -47.455811, -20.7623917 ], [ -47.4535701, -20.7599609 ], [ -47.4511128, -20.7602902 ], [ -47.4479713, -20.7635919 ], [ -47.4423355, -20.7626374 ], [ -47.4400643, -20.7647685 ], [ -47.438095, -20.7654325 ], [ -47.4362692, -20.7652274 ], [ -47.4355708, -20.7630914 ], [ -47.4298246, -20.7641268 ], [ -47.4289065, -20.7678074 ], [ -47.4326771, -20.7711271 ], [ -47.4331314, -20.7726408 ], [ -47.4304759, -20.7746708 ], [ -47.4287687, -20.7738347 ], [ -47.428747, -20.775662 ], [ -47.427469, -20.7763171 ], [ -47.4276714, -20.777255 ], [ -47.4298607, -20.7789876 ], [ -47.4316411, -20.7778959 ], [ -47.4330831, -20.7784892 ], [ -47.4354824, -20.7777562 ], [ -47.4371773, -20.778724 ], [ -47.437538, -20.7798036 ], [ -47.4416476, -20.7808119 ], [ -47.4422545, -20.7831089 ], [ -47.4369483, -20.7880294 ], [ -47.435974, -20.7922238 ], [ -47.4339655, -20.7937373 ], [ -47.4315004, -20.7942753 ], [ -47.4269184, -20.7939337 ], [ -47.4250219, -20.7964912 ], [ -47.4233265, -20.7966378 ], [ -47.4239753, -20.7979648 ], [ -47.4215946, -20.8017954 ], [ -47.4200989, -20.8020772 ], [ -47.4196943, -20.8035537 ], [ -47.4181181, -20.8043599 ], [ -47.4183032, -20.8061349 ], [ -47.4159869, -20.8066064 ], [ -47.4155869, -20.8078853 ], [ -47.4137585, -20.8076178 ], [ -47.4120836, -20.8088111 ], [ -47.4136761, -20.8133181 ], [ -47.4137063, -20.817583 ], [ -47.4150864, -20.8185426 ], [ -47.4168738, -20.8248455 ], [ -47.4183131, -20.8270054 ], [ -47.4150919, -20.8331746 ], [ -47.4159982, -20.8346607 ], [ -47.4151642, -20.8372442 ], [ -47.4167679, -20.8390994 ], [ -47.4170816, -20.8416918 ], [ -47.411687, -20.8464214 ], [ -47.4122335, -20.847999 ], [ -47.4115898, -20.8500505 ], [ -47.4133442, -20.8558715 ], [ -47.4099646, -20.8602718 ], [ -47.410196, -20.8632474 ], [ -47.4077489, -20.8639581 ], [ -47.4103296, -20.8674884 ], [ -47.411784, -20.8678146 ], [ -47.4110748, -20.8689657 ], [ -47.4085605, -20.8690572 ], [ -47.4065413, -20.8716132 ], [ -47.4071343, -20.8755311 ], [ -47.4086619, -20.8772389 ], [ -47.4103745, -20.8776433 ], [ -47.4105089, -20.8796024 ], [ -47.4114605, -20.8805843 ], [ -47.4130481, -20.8803962 ], [ -47.4133639, -20.8818382 ], [ -47.4161858, -20.8843047 ], [ -47.4182962, -20.888678 ], [ -47.4203869, -20.8895894 ], [ -47.4276034, -20.8961857 ], [ -47.4279359, -20.9003507 ], [ -47.4319705, -20.9069062 ], [ -47.4347902, -20.9148945 ], [ -47.436791, -20.9182246 ], [ -47.4380191, -20.9277422 ], [ -47.437599, -20.9320026 ], [ -47.4400828, -20.941827 ], [ -47.4395321, -20.9604532 ], [ -47.4651411, -20.9861934 ], [ -47.4724766, -20.9846019 ], [ -47.4762968, -20.9870305 ], [ -47.4769872, -20.9891871 ], [ -47.4803369, -20.9924337 ], [ -47.4851253, -20.9943841 ], [ -47.4882515, -20.9974621 ], [ -47.4891691, -21.0076667 ], [ -47.4908906, -21.0102239 ], [ -47.4909823, -21.0121186 ], [ -47.4887085, -21.0139295 ], [ -47.483646, -21.0155533 ], [ -47.4836595, -21.0163251 ], [ -47.4910189, -21.0166053 ], [ -47.4938636, -21.018487 ], [ -47.4992462, -21.0180652 ], [ -47.5035313, -21.0237095 ], [ -47.5059493, -21.025049 ], [ -47.5082201, -21.0247029 ], [ -47.5105813, -21.0222765 ], [ -47.5149093, -21.0203822 ], [ -47.5178146, -21.0198982 ], [ -47.5201876, -21.021368 ], [ -47.5272806, -21.0198002 ], [ -47.5297676, -21.0254613 ], [ -47.5406385, -21.0345534 ], [ -47.5473489, -21.0342739 ], [ -47.5511494, -21.0371438 ], [ -47.5537313, -21.0380881 ], [ -47.5719239, -21.0384301 ], [ -47.5727212, -21.035925 ], [ -47.5704217, -21.0331164 ], [ -47.5706229, -21.0312622 ], [ -47.567945, -21.0290363 ], [ -47.5669494, -21.0248815 ], [ -47.5696242, -21.0229757 ], [ -47.5719145, -21.0120152 ], [ -47.5735935, -21.009438 ], [ -47.575947, -21.0081879 ], [ -47.5762034, -21.0066342 ], [ -47.586572, -20.9963998 ], [ -47.594123, -20.9920699 ], [ -47.6015788, -20.9903836 ], [ -47.6048979, -20.9878546 ], [ -47.6094154, -20.9796166 ], [ -47.6112789, -20.973206 ], [ -47.6121915, -20.9685093 ], [ -47.611085, -20.9643299 ], [ -47.6117304, -20.9623293 ], [ -47.61483, -20.9616528 ], [ -47.6222449, -20.9622158 ], [ -47.6277106, -20.964736 ], [ -47.6333618, -20.9624638 ], [ -47.6375631, -20.962289 ], [ -47.6430227, -20.9635301 ], [ -47.6452484, -20.9592216 ] ] ] ] } }
]
}
