{
"type": "FeatureCollection",
"name": "ER_REGIAO_Santo Antônio do Aracanguá_Santo Antônio do Aracanguá",
"crs": { "type": "name", "properties": { "name": "urn:ogc:def:crs:EPSG::4674" } },
"xy_coordinate_resolution": 1e-15,
"features": [
{ "type": "Feature", "properties": { "fid": 796, "NM_REGIAO": "Sudeste", "NM_UF": "São Paulo", "NM_MUN": "Santo Antônio do Aracanguá", "NM_DIST": "Santo Antônio do Aracanguá", "CD_SUBDIST": "35480540500", "ER_REGIAO": "Santo Antônio do Aracanguá_Santo Antônio do Aracanguá", "ER_REGIAO_CIDADE": "Santo Antônio do Aracanguá_Santo Antônio do Aracanguá_Araçatuba" }, "geometry": { "type": "MultiPolygon", "coordinates": [ [ [ [ -50.477394, -20.901129 ], [ -50.476126, -20.900755 ], [ -50.473335, -20.902183 ], [ -50.470764, -20.902357 ], [ -50.467458, -20.905647 ], [ -50.465683, -20.904065 ], [ -50.463106, -20.90339 ], [ -50.401164, -20.899165 ], [ -50.401567, -20.900591 ], [ -50.402281, -20.899506 ], [ -50.402885, -20.90063 ], [ -50.401604, -20.901208 ], [ -50.402349, -20.902253 ], [ -50.401403, -20.902929 ], [ -50.402638, -20.90378 ], [ -50.403206, -20.908183 ], [ -50.404323, -20.908364 ], [ -50.405259, -20.912265 ], [ -50.408019, -20.911631 ], [ -50.410994, -20.91274 ], [ -50.412347, -20.912445 ], [ -50.411904, -20.913262 ], [ -50.413965, -20.914099 ], [ -50.413246, -20.91429 ], [ -50.412908, -20.915752 ], [ -50.414609, -20.916549 ], [ -50.414971, -20.919009 ], [ -50.415845, -20.919422 ], [ -50.415799, -20.922337 ], [ -50.417065, -20.921471 ], [ -50.417467, -20.922184 ], [ -50.416612, -20.923399 ], [ -50.418315, -20.92373 ], [ -50.41684, -20.924791 ], [ -50.416777, -20.926574 ], [ -50.415867, -20.92733 ], [ -50.415999, -20.928228 ], [ -50.416815, -20.928337 ], [ -50.415565, -20.929568 ], [ -50.415586, -20.931986 ], [ -50.416257, -20.931907 ], [ -50.415524, -20.932878 ], [ -50.4156239, -20.936553 ], [ -50.414986, -20.937009 ], [ -50.416131, -20.938219 ], [ -50.415308, -20.939772 ], [ -50.416968, -20.940794 ], [ -50.416021, -20.940995 ], [ -50.417, -20.941368 ], [ -50.416451, -20.941898 ], [ -50.417413, -20.942968 ], [ -50.417141, -20.944203 ], [ -50.415672, -20.945272 ], [ -50.414552, -20.94408 ], [ -50.412668, -20.94415 ], [ -50.413007, -20.943133 ], [ -50.408536, -20.941926 ], [ -50.407599, -20.942474 ], [ -50.406693, -20.94572 ], [ -50.408117, -20.948849 ], [ -50.409761, -20.94844 ], [ -50.41054, -20.950038 ], [ -50.413654, -20.951808 ], [ -50.413129, -20.953516 ], [ -50.415096, -20.953356 ], [ -50.413569, -20.956121 ], [ -50.414532, -20.956349 ], [ -50.413786, -20.957532 ], [ -50.413924, -20.958276 ], [ -50.414751, -20.957734 ], [ -50.41443, -20.960638 ], [ -50.416051, -20.96167 ], [ -50.412861, -20.963331 ], [ -50.413896, -20.964621 ], [ -50.412513, -20.965936 ], [ -50.41401, -20.966418 ], [ -50.414947, -20.968051 ], [ -50.414049, -20.96864 ], [ -50.415333, -20.969404 ], [ -50.415469, -20.96842 ], [ -50.41683, -20.969261 ], [ -50.415988, -20.970491 ], [ -50.416427, -20.974218 ], [ -50.417191, -20.974089 ], [ -50.417499, -20.97519 ], [ -50.418637, -20.974614 ], [ -50.418953, -20.97595 ], [ -50.423804, -20.972309 ], [ -50.425931, -20.973145 ], [ -50.425788, -20.97438 ], [ -50.426992, -20.974884 ], [ -50.425523, -20.975776 ], [ -50.426123, -20.978048 ], [ -50.427046, -20.978221 ], [ -50.4263989, -20.9792342 ], [ -50.427756, -20.979655 ], [ -50.427604, -20.98031 ], [ -50.425606, -20.981219 ], [ -50.422143, -20.981263 ], [ -50.426569, -20.985636 ], [ -50.429353, -20.986402 ], [ -50.428725, -20.986982 ], [ -50.429833, -20.988859 ], [ -50.428653, -20.989524 ], [ -50.429436, -20.990392 ], [ -50.42759, -20.991783 ], [ -50.426998, -20.991257 ], [ -50.426537, -20.992428 ], [ -50.422996, -20.994416 ], [ -50.422429, -20.993189 ], [ -50.421532, -20.993287 ], [ -50.41979, -20.997112 ], [ -50.420496, -20.998744 ], [ -50.420001, -21.000933 ], [ -50.418575, -21.001076 ], [ -50.420837, -21.004908 ], [ -50.422721, -21.005243 ], [ -50.425764, -21.003834 ], [ -50.424835, -21.005784 ], [ -50.425769, -21.006941 ], [ -50.429798, -21.006359 ], [ -50.427905, -21.009118 ], [ -50.430069, -21.012532 ], [ -50.425744, -21.014088 ], [ -50.427047, -21.014347 ], [ -50.426979, -21.016718 ], [ -50.426321, -21.017121 ], [ -50.426616, -21.015769 ], [ -50.425937, -21.015868 ], [ -50.425238, -21.017964 ], [ -50.423971, -21.01779 ], [ -50.424403, -21.019171 ], [ -50.423553, -21.019382 ], [ -50.42397, -21.020167 ], [ -50.42497, -21.019689 ], [ -50.426189, -21.020331 ], [ -50.426398, -21.019357 ], [ -50.428251, -21.020517 ], [ -50.428349, -21.023559 ], [ -50.427303, -21.023865 ], [ -50.430764, -21.02598 ], [ -50.429644, -21.026138 ], [ -50.43015, -21.027336 ], [ -50.429183, -21.028204 ], [ -50.430501, -21.027652 ], [ -50.429986, -21.029066 ], [ -50.430632, -21.029426 ], [ -50.431112, -21.028546 ], [ -50.4323557, -21.0319019 ], [ -50.4349928, -21.0316775 ], [ -50.4386626, -21.0328645 ], [ -50.4520095, -21.0414136 ], [ -50.4550318, -21.0447992 ], [ -50.4581275, -21.04566 ], [ -50.4660862, -21.0454097 ], [ -50.4810204, -21.0401866 ], [ -50.4903743, -21.0406647 ], [ -50.4970322, -21.0400596 ], [ -50.5090846, -21.0362015 ], [ -50.5192858, -21.0363607 ], [ -50.5251219, -21.0343765 ], [ -50.5264295, -21.0333046 ], [ -50.5280807, -21.0296926 ], [ -50.5285838, -21.0218566 ], [ -50.5296031, -21.0191832 ], [ -50.5395969, -21.0106076 ], [ -50.5438227, -21.0036282 ], [ -50.5549727, -20.9975716 ], [ -50.5568699, -20.9950527 ], [ -50.5589194, -20.9881948 ], [ -50.5613304, -20.9856204 ], [ -50.5732669, -20.9769092 ], [ -50.5784221, -20.9744852 ], [ -50.6068071, -20.9702144 ], [ -50.6131419, -20.9685037 ], [ -50.6172439, -20.9659899 ], [ -50.6245214, -20.9586931 ], [ -50.6343589, -20.9504603 ], [ -50.6455226, -20.9322113 ], [ -50.6685609, -20.9044939 ], [ -50.6736413, -20.8960699 ], [ -50.6776213, -20.8923621 ], [ -50.6841948, -20.8894784 ], [ -50.6873661, -20.889133 ], [ -50.7031721, -20.8910167 ], [ -50.7085454, -20.8939464 ], [ -50.714369, -20.8951886 ], [ -50.7296906, -20.8932989 ], [ -50.734134, -20.8890752 ], [ -50.7373632, -20.8878215 ], [ -50.7462623, -20.8922588 ], [ -50.7548664, -20.8926043 ], [ -50.7650234, -20.8914542 ], [ -50.769975, -20.8890785 ], [ -50.7775528, -20.8826943 ], [ -50.7864155, -20.8797629 ], [ -50.794567, -20.873144 ], [ -50.8035413, -20.8717113 ], [ -50.8065245, -20.8702242 ], [ -50.8083371, -20.8680044 ], [ -50.8105697, -20.859912 ], [ -50.8170034, -20.8550245 ], [ -50.822455, -20.8529983 ], [ -50.8384891, -20.850526 ], [ -50.8548929, -20.8359829 ], [ -50.8729455, -20.8268135 ], [ -50.8646398, -20.8162695 ], [ -50.8579148, -20.8108136 ], [ -50.8514158, -20.8025937 ], [ -50.8510465, -20.7999778 ], [ -50.8480475, -20.7950157 ], [ -50.8420092, -20.7874663 ], [ -50.8419955, -20.783002 ], [ -50.8341121, -20.7774168 ], [ -50.8334991, -20.7753052 ], [ -50.8292998, -20.7690839 ], [ -50.8262234, -20.7687547 ], [ -50.8268607, -20.7630295 ], [ -50.8239132, -20.7580122 ], [ -50.8241916, -20.7525059 ], [ -50.82105, -20.7483781 ], [ -50.8208045, -20.7435379 ], [ -50.8157715, -20.7348101 ], [ -50.8134669, -20.732558 ], [ -50.8127154, -20.7267603 ], [ -50.8144956, -20.7255743 ], [ -50.8146329, -20.7226385 ], [ -50.8099691, -20.7111803 ], [ -50.8085534, -20.6971784 ], [ -50.8066066, -20.691622 ], [ -50.806138, -20.6852726 ], [ -50.8041847, -20.6776515 ], [ -50.8001346, -20.6728812 ], [ -50.7997726, -20.6713768 ], [ -50.7985291, -20.6709921 ], [ -50.7875155, -20.6705511 ], [ -50.7801116, -20.6716216 ], [ -50.7793672, -20.6718742 ], [ -50.7791384, -20.6748321 ], [ -50.7767777, -20.6792301 ], [ -50.7740741, -20.6799392 ], [ -50.7719719, -20.6828815 ], [ -50.7670164, -20.6787137 ], [ -50.7646116, -20.6787625 ], [ -50.7602479, -20.6807845 ], [ -50.7509765, -20.6814095 ], [ -50.7529907, -20.6872512 ], [ -50.7530562, -20.7059987 ], [ -50.7504689, -20.7111303 ], [ -50.750609, -20.7157247 ], [ -50.7465365, -20.7194051 ], [ -50.7458184, -20.7211074 ], [ -50.7438936, -20.7218918 ], [ -50.7419718, -20.7177902 ], [ -50.7386993, -20.7167709 ], [ -50.7354116, -20.7130128 ], [ -50.7304914, -20.7112469 ], [ -50.7293796, -20.7100129 ], [ -50.722885, -20.7068468 ], [ -50.717247, -20.7069429 ], [ -50.7128747, -20.704937 ], [ -50.7105965, -20.7059671 ], [ -50.7086104, -20.7047934 ], [ -50.7028526, -20.7038093 ], [ -50.6985608, -20.7048296 ], [ -50.6933402, -20.7084733 ], [ -50.6892054, -20.7088423 ], [ -50.6855468, -20.7077971 ], [ -50.6835119, -20.7117838 ], [ -50.6848338, -20.7208328 ], [ -50.682615, -20.7280412 ], [ -50.6826136, -20.7335222 ], [ -50.6811729, -20.7353357 ], [ -50.6769446, -20.7381931 ], [ -50.6746861, -20.7387485 ], [ -50.6716955, -20.7365601 ], [ -50.6680611, -20.7318468 ], [ -50.6624505, -20.7313413 ], [ -50.6579432, -20.7282202 ], [ -50.6595766, -20.7317204 ], [ -50.6588767, -20.7335921 ], [ -50.6518477, -20.7357883 ], [ -50.645379, -20.7403578 ], [ -50.6422077, -20.7401472 ], [ -50.6394756, -20.7426378 ], [ -50.638565, -20.7460095 ], [ -50.6418002, -20.7492772 ], [ -50.6429764, -20.7518568 ], [ -50.638675, -20.7620903 ], [ -50.6353926, -20.7612378 ], [ -50.6333731, -20.7592788 ], [ -50.6323905, -20.7592767 ], [ -50.6298857, -20.7616197 ], [ -50.6273523, -20.7615876 ], [ -50.6254878, -20.7652499 ], [ -50.6220626, -20.76745 ], [ -50.6143674, -20.7677107 ], [ -50.6091425, -20.7702084 ], [ -50.607579, -20.784325 ], [ -50.605168, -20.78938 ], [ -50.60454, -20.793042 ], [ -50.606347, -20.795015 ], [ -50.609844, -20.805461 ], [ -50.607499, -20.81055 ], [ -50.600585, -20.819904 ], [ -50.60098, -20.82379 ], [ -50.59978, -20.826243 ], [ -50.599461, -20.832107 ], [ -50.602929, -20.836191 ], [ -50.602506, -20.838508 ], [ -50.599438, -20.840756 ], [ -50.591819, -20.839437 ], [ -50.586151, -20.840853 ], [ -50.579937, -20.84466 ], [ -50.567526, -20.845435 ], [ -50.566436, -20.844871 ], [ -50.56543, -20.842042 ], [ -50.555234, -20.8395 ], [ -50.554924, -20.845364 ], [ -50.553488, -20.8472 ], [ -50.55597, -20.84967 ], [ -50.556322, -20.853514 ], [ -50.555189, -20.855843 ], [ -50.558408, -20.857412 ], [ -50.55655, -20.862248 ], [ -50.559517, -20.868006 ], [ -50.564001, -20.868218 ], [ -50.565098, -20.869671 ], [ -50.564631, -20.87157 ], [ -50.563412, -20.872391 ], [ -50.56295, -20.87638 ], [ -50.566852, -20.881585 ], [ -50.566562, -20.882492 ], [ -50.564492, -20.882577 ], [ -50.564236, -20.883482 ], [ -50.56674, -20.886145 ], [ -50.565646, -20.889665 ], [ -50.568558, -20.892543 ], [ -50.568393, -20.89528 ], [ -50.564505, -20.895715 ], [ -50.560284, -20.894938 ], [ -50.556638, -20.892711 ], [ -50.553012, -20.891659 ], [ -50.549423, -20.889059 ], [ -50.540319, -20.893895 ], [ -50.537589, -20.899064 ], [ -50.529745, -20.900273 ], [ -50.518616, -20.897755 ], [ -50.511495, -20.899461 ], [ -50.508584, -20.901618 ], [ -50.50139, -20.903937 ], [ -50.499771, -20.896022 ], [ -50.492269, -20.894682 ], [ -50.48891, -20.891898 ], [ -50.487468, -20.888602 ], [ -50.485893, -20.888142 ], [ -50.482709, -20.893899 ], [ -50.480502, -20.895858 ], [ -50.479031, -20.896049 ], [ -50.477394, -20.901129 ] ] ] ] } }
]
}
