{
"type": "FeatureCollection",
"name": "ER_REGIAO_Orlândia",
"crs": { "type": "name", "properties": { "name": "urn:ogc:def:crs:EPSG::4674" } },
"xy_coordinate_resolution": 1e-15,
"features": [
{ "type": "Feature", "properties": { "fid": 578, "NM_REGIAO": "Sudeste", "NM_UF": "São Paulo", "NM_MUN": "Orlândia", "NM_DIST": "Orlândia", "CD_SUBDIST": "35343020500", "ER_REGIAO": "Orlândia", "ER_REGIAO_CIDADE": "Orlândia_Franca" }, "geometry": { "type": "MultiPolygon", "coordinates": [ [ [ [ -47.8805452, -20.647473 ], [ -47.8651382, -20.6485691 ], [ -47.8629871, -20.6412038 ], [ -47.8593385, -20.6364539 ], [ -47.8553399, -20.6331503 ], [ -47.8498377, -20.6313995 ], [ -47.8433338, -20.6271355 ], [ -47.8193966, -20.6202362 ], [ -47.8065879, -20.6129983 ], [ -47.8069698, -20.6216377 ], [ -47.805925, -20.6271993 ], [ -47.8068168, -20.6329487 ], [ -47.8024165, -20.6384929 ], [ -47.8004837, -20.6432583 ], [ -47.8010054, -20.6447148 ], [ -47.8035863, -20.6466353 ], [ -47.8029696, -20.6511248 ], [ -47.8089222, -20.6613589 ], [ -47.8129302, -20.6656028 ], [ -47.8227669, -20.6718629 ], [ -47.8244648, -20.6778057 ], [ -47.8281284, -20.6778922 ], [ -47.8316434, -20.6835112 ], [ -47.8302769, -20.6880481 ], [ -47.8255665, -20.6961114 ], [ -47.8239434, -20.6962711 ], [ -47.8209839, -20.6981116 ], [ -47.8153525, -20.7035237 ], [ -47.810494, -20.7052133 ], [ -47.8078897, -20.7079699 ], [ -47.8106173, -20.7156448 ], [ -47.8200395, -20.7253766 ], [ -47.8215827, -20.7280621 ], [ -47.8223841, -20.7351592 ], [ -47.8249622, -20.7412901 ], [ -47.8246951, -20.7447078 ], [ -47.8260033, -20.7453813 ], [ -47.8285634, -20.7447866 ], [ -47.8318081, -20.7479547 ], [ -47.8352355, -20.7485025 ], [ -47.8375623, -20.7476646 ], [ -47.8394211, -20.7480574 ], [ -47.843505, -20.7435616 ], [ -47.8452573, -20.7444928 ], [ -47.8460817, -20.7439259 ], [ -47.8673047, -20.7575269 ], [ -47.8698115, -20.7659655 ], [ -47.876176, -20.7771609 ], [ -47.8971437, -20.7711135 ], [ -47.8961994, -20.7773704 ], [ -47.8941172, -20.7822403 ], [ -47.8939602, -20.7882124 ], [ -47.896442, -20.7943908 ], [ -47.8989247, -20.796085 ], [ -47.9383043, -20.8012555 ], [ -47.9619919, -20.8143594 ], [ -47.963947, -20.8113346 ], [ -47.9643468, -20.8077759 ], [ -47.9620811, -20.8034196 ], [ -47.9651148, -20.7991113 ], [ -47.9646081, -20.7800131 ], [ -47.9627323, -20.7760078 ], [ -47.9626149, -20.7667581 ], [ -47.9605838, -20.7628445 ], [ -47.9674544, -20.7618165 ], [ -47.9759979, -20.7582264 ], [ -47.9791134, -20.7554909 ], [ -47.981255, -20.7514325 ], [ -47.9785472, -20.7434756 ], [ -47.978682, -20.7362089 ], [ -47.9811144, -20.7274993 ], [ -47.9727848, -20.6918155 ], [ -47.9731585, -20.6871854 ], [ -47.9709585, -20.6816247 ], [ -47.9651944, -20.6762358 ], [ -47.96492, -20.6748491 ], [ -47.9779407, -20.6637943 ], [ -47.9806263, -20.6579744 ], [ -47.9819496, -20.6543182 ], [ -47.9828574, -20.6445999 ], [ -47.9849367, -20.6397835 ], [ -47.9872718, -20.6369624 ], [ -47.9892997, -20.6288061 ], [ -47.9900366, -20.620062 ], [ -47.9882636, -20.6125298 ], [ -47.9856969, -20.6094501 ], [ -47.9825357, -20.6074516 ], [ -47.9765624, -20.6051937 ], [ -47.9617336, -20.6017961 ], [ -47.9407892, -20.5916829 ], [ -47.9315938, -20.5861112 ], [ -47.9297946, -20.5886127 ], [ -47.928234, -20.5948667 ], [ -47.9288386, -20.6128367 ], [ -47.9235556, -20.6234935 ], [ -47.9230316, -20.6317551 ], [ -47.921603, -20.6322088 ], [ -47.9156338, -20.6303536 ], [ -47.910093, -20.630975 ], [ -47.9030456, -20.6340463 ], [ -47.8925165, -20.6409465 ], [ -47.8859333, -20.6430512 ], [ -47.8805452, -20.647473 ] ] ] ] } }
]
}
