{
"type": "FeatureCollection",
"name": "ER_REGIAO_Santa Rita do Passa Quatro_Santa Rita do Passa Quatro",
"crs": { "type": "name", "properties": { "name": "urn:ogc:def:crs:EPSG::4674" } },
"xy_coordinate_resolution": 1e-15,
"features": [
{ "type": "Feature", "properties": { "fid": 786, "NM_REGIAO": "Sudeste", "NM_UF": "São Paulo", "NM_MUN": "Santa Rita do Passa Quatro", "NM_DIST": "Santa Rita do Passa Quatro", "CD_SUBDIST": "35475020500", "ER_REGIAO": "Santa Rita do Passa Quatro_Santa Rita do Passa Quatro", "ER_REGIAO_CIDADE": "Santa Rita do Passa Quatro_Santa Rita do Passa Quatro_Ribeirão Preto" }, "geometry": { "type": "MultiPolygon", "coordinates": [ [ [ [ -47.4052433, -21.7224299 ], [ -47.4079892, -21.7318463 ], [ -47.40749, -21.7360499 ], [ -47.412132, -21.7454975 ], [ -47.4118961, -21.7464454 ], [ -47.4095029, -21.7468962 ], [ -47.40702, -21.7494726 ], [ -47.4072579, -21.7523671 ], [ -47.406085, -21.7540372 ], [ -47.406241, -21.755868 ], [ -47.4029016, -21.763776 ], [ -47.3993132, -21.7682029 ], [ -47.3990292, -21.7731636 ], [ -47.4096598, -21.7706599 ], [ -47.4099721, -21.7647143 ], [ -47.411402, -21.7626327 ], [ -47.4177121, -21.7608423 ], [ -47.4232577, -21.756148 ], [ -47.4277864, -21.7559765 ], [ -47.4286774, -21.7564252 ], [ -47.4289135, -21.757887 ], [ -47.4352383, -21.7597241 ], [ -47.4356468, -21.7605689 ], [ -47.4375063, -21.7608517 ], [ -47.438179, -21.7621636 ], [ -47.4411007, -21.7632595 ], [ -47.442184, -21.7650091 ], [ -47.4437535, -21.7651608 ], [ -47.4415938, -21.767276 ], [ -47.4395292, -21.7788136 ], [ -47.4385429, -21.7808285 ], [ -47.439947, -21.7848154 ], [ -47.44377, -21.7848557 ], [ -47.4491885, -21.7814489 ], [ -47.4510961, -21.7811727 ], [ -47.4646275, -21.7854968 ], [ -47.4724043, -21.7920245 ], [ -47.4740613, -21.7926424 ], [ -47.4785678, -21.7901912 ], [ -47.4826971, -21.789564 ], [ -47.4839408, -21.793487 ], [ -47.4871544, -21.795934 ], [ -47.4915995, -21.7979698 ], [ -47.4944207, -21.7981883 ], [ -47.4991556, -21.8011172 ], [ -47.5015643, -21.8015126 ], [ -47.5084813, -21.8073699 ], [ -47.511238, -21.8082049 ], [ -47.5226015, -21.8039294 ], [ -47.526505, -21.7995151 ], [ -47.5305229, -21.7979241 ], [ -47.5348359, -21.7976436 ], [ -47.5382466, -21.8021174 ], [ -47.5428346, -21.8020927 ], [ -47.5449429, -21.8005413 ], [ -47.5465112, -21.7973714 ], [ -47.5524919, -21.7944394 ], [ -47.5580577, -21.788065 ], [ -47.5650729, -21.7870838 ], [ -47.5698608, -21.7843349 ], [ -47.5708551, -21.7820791 ], [ -47.5714905, -21.7744137 ], [ -47.5743636, -21.7707796 ], [ -47.5790233, -21.7672451 ], [ -47.579615, -21.7609515 ], [ -47.5822035, -21.7523212 ], [ -47.5809609, -21.7452134 ], [ -47.5819739, -21.7418515 ], [ -47.5854946, -21.7386187 ], [ -47.5865884, -21.7354586 ], [ -47.5879147, -21.7345253 ], [ -47.5986362, -21.7383058 ], [ -47.6080866, -21.7457752 ], [ -47.6114127, -21.7454327 ], [ -47.6140177, -21.7433948 ], [ -47.6157357, -21.7434446 ], [ -47.6157767, -21.745683 ], [ -47.6134895, -21.7496499 ], [ -47.6145602, -21.7512275 ], [ -47.6182319, -21.7481993 ], [ -47.6235415, -21.7404543 ], [ -47.6241743, -21.7342715 ], [ -47.6258202, -21.7335865 ], [ -47.6299822, -21.7340875 ], [ -47.6310123, -21.7329339 ], [ -47.6315089, -21.7269103 ], [ -47.6363767, -21.7250528 ], [ -47.6397464, -21.7248706 ], [ -47.6449198, -21.7264509 ], [ -47.6448351, -21.7307813 ], [ -47.6473168, -21.7372218 ], [ -47.6541106, -21.7394078 ], [ -47.6601262, -21.7400912 ], [ -47.6640593, -21.7424358 ], [ -47.6671571, -21.7426131 ], [ -47.6699617, -21.7406798 ], [ -47.6733383, -21.7350637 ], [ -47.6776005, -21.7340794 ], [ -47.6786319, -21.7330648 ], [ -47.6768027, -21.7219981 ], [ -47.6804848, -21.7162333 ], [ -47.6819728, -21.7157629 ], [ -47.6861254, -21.71711 ], [ -47.6995533, -21.7185331 ], [ -47.7052003, -21.7206835 ], [ -47.7160087, -21.7119338 ], [ -47.7201868, -21.7066828 ], [ -47.7217836, -21.7059499 ], [ -47.7241394, -21.7062482 ], [ -47.7214654, -21.6979298 ], [ -47.717877, -21.6948246 ], [ -47.7170865, -21.6918797 ], [ -47.713996, -21.6884928 ], [ -47.7119629, -21.6836595 ], [ -47.708852, -21.6833003 ], [ -47.7042949, -21.680001 ], [ -47.6991787, -21.6789715 ], [ -47.6998136, -21.6772313 ], [ -47.697952, -21.6765226 ], [ -47.6968542, -21.677391 ], [ -47.6940111, -21.6757757 ], [ -47.6858919, -21.6672584 ], [ -47.6848796, -21.6633187 ], [ -47.6789584, -21.6570757 ], [ -47.6802186, -21.6528661 ], [ -47.6794385, -21.6516461 ], [ -47.6786768, -21.645603 ], [ -47.678608, -21.6368447 ], [ -47.6772132, -21.6319717 ], [ -47.6774739, -21.6260033 ], [ -47.6761637, -21.6230451 ], [ -47.6790867, -21.6146994 ], [ -47.6780368, -21.6116692 ], [ -47.6760175, -21.6092785 ], [ -47.672993, -21.6083503 ], [ -47.6713941, -21.6070032 ], [ -47.6709514, -21.6031085 ], [ -47.6672434, -21.6007266 ], [ -47.6608718, -21.5993614 ], [ -47.6581162, -21.5975504 ], [ -47.6500067, -21.5962384 ], [ -47.6472005, -21.593645 ], [ -47.6429891, -21.5929257 ], [ -47.6412611, -21.5904559 ], [ -47.6392354, -21.5891993 ], [ -47.631857, -21.5894518 ], [ -47.6287054, -21.5915633 ], [ -47.6258063, -21.5922593 ], [ -47.6135796, -21.5863915 ], [ -47.6078397, -21.5825348 ], [ -47.6040391, -21.5745015 ], [ -47.6052465, -21.5640056 ], [ -47.600073, -21.5566805 ], [ -47.5994881, -21.5467725 ], [ -47.592012, -21.5483675 ], [ -47.5870341, -21.5518918 ], [ -47.5848563, -21.551803 ], [ -47.5782159, -21.5537395 ], [ -47.5711549, -21.5589283 ], [ -47.5659535, -21.5567688 ], [ -47.5646753, -21.5584646 ], [ -47.5565715, -21.5580668 ], [ -47.5482491, -21.5551476 ], [ -47.5442632, -21.5513667 ], [ -47.5433416, -21.5519048 ], [ -47.544276, -21.556253 ], [ -47.5429354, -21.5585458 ], [ -47.5395711, -21.5615588 ], [ -47.5306829, -21.5654668 ], [ -47.5267376, -21.5659805 ], [ -47.5184547, -21.5646057 ], [ -47.5117296, -21.561912 ], [ -47.5077589, -21.5653942 ], [ -47.5017006, -21.5689436 ], [ -47.4921194, -21.5700583 ], [ -47.4709681, -21.5758658 ], [ -47.465159, -21.5751133 ], [ -47.4554493, -21.5773875 ], [ -47.450366, -21.5770431 ], [ -47.4443471, -21.588334 ], [ -47.4393219, -21.5926141 ], [ -47.4389822, -21.5938618 ], [ -47.4417115, -21.6010434 ], [ -47.4413457, -21.6095732 ], [ -47.4427336, -21.6117974 ], [ -47.4414823, -21.6131316 ], [ -47.4372078, -21.6131715 ], [ -47.4339509, -21.6106582 ], [ -47.432492, -21.6067846 ], [ -47.4300967, -21.6041837 ], [ -47.4247364, -21.6017423 ], [ -47.4219612, -21.6028304 ], [ -47.4128491, -21.6025509 ], [ -47.4037623, -21.6116739 ], [ -47.3992252, -21.6137409 ], [ -47.3997708, -21.6220886 ], [ -47.3907228, -21.633609 ], [ -47.3854729, -21.6365271 ], [ -47.3828874, -21.6393627 ], [ -47.3817208, -21.6423327 ], [ -47.3816091, -21.6478978 ], [ -47.3806019, -21.6498117 ], [ -47.3769105, -21.6492555 ], [ -47.3724105, -21.6498445 ], [ -47.3680439, -21.646513 ], [ -47.3578645, -21.6428435 ], [ -47.3513981, -21.6475911 ], [ -47.3459995, -21.6438155 ], [ -47.3421613, -21.6422103 ], [ -47.3338297, -21.6455832 ], [ -47.3288141, -21.64454 ], [ -47.3222221, -21.6499535 ], [ -47.3224399, -21.6546766 ], [ -47.3256201, -21.6575276 ], [ -47.323721, -21.6598691 ], [ -47.3268131, -21.6686891 ], [ -47.3328252, -21.6687785 ], [ -47.3365847, -21.6669866 ], [ -47.3373384, -21.6678389 ], [ -47.3383293, -21.681153 ], [ -47.3373185, -21.6874385 ], [ -47.3584678, -21.6908328 ], [ -47.3625756, -21.6877464 ], [ -47.3652082, -21.6915054 ], [ -47.3758074, -21.6987402 ], [ -47.3806203, -21.6997349 ], [ -47.3901835, -21.6976491 ], [ -47.3946294, -21.7029627 ], [ -47.3976085, -21.7037467 ], [ -47.3989999, -21.7076872 ], [ -47.4003903, -21.7077845 ], [ -47.4074447, -21.7143022 ], [ -47.4064184, -21.7171538 ], [ -47.4070908, -21.7196251 ], [ -47.4052433, -21.7224299 ] ] ] ] } }
]
}
