{
"type": "FeatureCollection",
"name": "ER_REGIAO_Sales",
"crs": { "type": "name", "properties": { "name": "urn:ogc:def:crs:EPSG::4674" } },
"xy_coordinate_resolution": 1e-15,
"features": [
{ "type": "Feature", "properties": { "fid": 749, "NM_REGIAO": "Sudeste", "NM_UF": "São Paulo", "NM_MUN": "Sales", "NM_DIST": "Sales", "CD_SUBDIST": "35448060500", "ER_REGIAO": "Sales", "ER_REGIAO_CIDADE": "Sales_Bauru" }, "geometry": { "type": "MultiPolygon", "coordinates": [ [ [ [ -49.5014997, -21.2471085 ], [ -49.4409843, -21.3031707 ], [ -49.4392144, -21.302566 ], [ -49.4374045, -21.3038812 ], [ -49.432383, -21.311789 ], [ -49.4231828, -21.3140391 ], [ -49.4164432, -21.3189812 ], [ -49.4129408, -21.3249327 ], [ -49.4103717, -21.3277551 ], [ -49.4097275, -21.3312516 ], [ -49.4081884, -21.3332901 ], [ -49.4068965, -21.3374528 ], [ -49.4067902, -21.3409846 ], [ -49.4045565, -21.344107 ], [ -49.4036605, -21.3529369 ], [ -49.4023995, -21.3545523 ], [ -49.3960324, -21.3712282 ], [ -49.3965991, -21.3728439 ], [ -49.3984752, -21.3732799 ], [ -49.398758, -21.3743536 ], [ -49.4025042, -21.3765571 ], [ -49.4046866, -21.3792306 ], [ -49.4081369, -21.3811566 ], [ -49.4104551, -21.3803206 ], [ -49.4110301, -21.3777252 ], [ -49.4122983, -21.3774903 ], [ -49.4166369, -21.382203 ], [ -49.4173048, -21.3846368 ], [ -49.420868, -21.3855169 ], [ -49.422201, -21.387321 ], [ -49.4222362, -21.3903044 ], [ -49.423334, -21.3904649 ], [ -49.4245718, -21.3935576 ], [ -49.4242952, -21.3972624 ], [ -49.4267965, -21.4027871 ], [ -49.4269856, -21.4049548 ], [ -49.4333668, -21.4121547 ], [ -49.4337638, -21.416322 ], [ -49.4384899, -21.4200798 ], [ -49.4406721, -21.4242533 ], [ -49.4421851, -21.4252774 ], [ -49.4419179, -21.4276642 ], [ -49.4425779, -21.4290617 ], [ -49.4511631, -21.431339 ], [ -49.4569078, -21.4285894 ], [ -49.4578933, -21.4292745 ], [ -49.4588234, -21.4323814 ], [ -49.460652, -21.4324689 ], [ -49.4619082, -21.4310468 ], [ -49.463903, -21.431353 ], [ -49.4652459, -21.4320533 ], [ -49.4658722, -21.4335805 ], [ -49.4676219, -21.4406876 ], [ -49.4716275, -21.4435965 ], [ -49.4726778, -21.4431282 ], [ -49.4745669, -21.43868 ], [ -49.4766725, -21.4372627 ], [ -49.4797125, -21.4366488 ], [ -49.4849535, -21.4369999 ], [ -49.4911396, -21.4353946 ], [ -49.4936383, -21.4361736 ], [ -49.4980453, -21.4395439 ], [ -49.5038429, -21.4423585 ], [ -49.5063324, -21.4424639 ], [ -49.5113707, -21.4402414 ], [ -49.5144192, -21.4401535 ], [ -49.5164863, -21.4461769 ], [ -49.5178931, -21.4473211 ], [ -49.5196525, -21.4470995 ], [ -49.5202555, -21.4482096 ], [ -49.5218719, -21.4474597 ], [ -49.5217587, -21.4463627 ], [ -49.5257981, -21.4429696 ], [ -49.5272187, -21.4430336 ], [ -49.5280317, -21.4410908 ], [ -49.5292545, -21.4410585 ], [ -49.5291935, -21.4398953 ], [ -49.5305849, -21.4388591 ], [ -49.5299833, -21.4380817 ], [ -49.5315134, -21.4372402 ], [ -49.5329789, -21.4334881 ], [ -49.5358564, -21.4330204 ], [ -49.5357918, -21.4319715 ], [ -49.5370587, -21.432199 ], [ -49.5369472, -21.4310137 ], [ -49.5380475, -21.4311015 ], [ -49.5401507, -21.4285162 ], [ -49.5402213, -21.42696 ], [ -49.5412767, -21.4270646 ], [ -49.5410783, -21.4262258 ], [ -49.5426103, -21.4259213 ], [ -49.5428639, -21.4248151 ], [ -49.5471205, -21.4226815 ], [ -49.5495357, -21.4178531 ], [ -49.5523774, -21.416674 ], [ -49.5572379, -21.4165053 ], [ -49.5608418, -21.4136051 ], [ -49.5696057, -21.4030657 ], [ -49.5806463, -21.3832159 ], [ -49.5843542, -21.378509 ], [ -49.5923113, -21.374274 ], [ -49.5996015, -21.3748956 ], [ -49.6030792, -21.3739231 ], [ -49.6099389, -21.367646 ], [ -49.6284218, -21.3544337 ], [ -49.6073292, -21.3605899 ], [ -49.6025618, -21.3602275 ], [ -49.6007191, -21.3613726 ], [ -49.5919786, -21.3616287 ], [ -49.5891022, -21.3624672 ], [ -49.5851768, -21.360661 ], [ -49.5850007, -21.3586873 ], [ -49.5863206, -21.3559715 ], [ -49.5907397, -21.3527294 ], [ -49.5877185, -21.3475973 ], [ -49.5883079, -21.3469197 ], [ -49.5909523, -21.3473738 ], [ -49.5898218, -21.3458663 ], [ -49.5903203, -21.3419411 ], [ -49.5879434, -21.3379388 ], [ -49.5842592, -21.3374007 ], [ -49.582365, -21.3359948 ], [ -49.5802095, -21.3294101 ], [ -49.5812891, -21.3283651 ], [ -49.581335, -21.3268352 ], [ -49.5800923, -21.3267909 ], [ -49.5795316, -21.3250711 ], [ -49.5816302, -21.3228435 ], [ -49.5821751, -21.3212329 ], [ -49.581147, -21.3210446 ], [ -49.5812691, -21.320317 ], [ -49.5826698, -21.3190425 ], [ -49.5824576, -21.3168245 ], [ -49.5843863, -21.314276 ], [ -49.5841362, -21.3128402 ], [ -49.5820467, -21.3130648 ], [ -49.5812242, -21.3124241 ], [ -49.580075, -21.3130627 ], [ -49.5798562, -21.3124811 ], [ -49.5815777, -21.3107292 ], [ -49.5806049, -21.3100846 ], [ -49.581174, -21.3092389 ], [ -49.5826608, -21.3091103 ], [ -49.5839215, -21.3043291 ], [ -49.5820487, -21.302667 ], [ -49.57834, -21.3040721 ], [ -49.5770883, -21.3018602 ], [ -49.5750552, -21.3025567 ], [ -49.574581, -21.300367 ], [ -49.5735302, -21.3004593 ], [ -49.5739602, -21.2978896 ], [ -49.5713973, -21.2978656 ], [ -49.5695719, -21.2946978 ], [ -49.569575, -21.2913824 ], [ -49.5686384, -21.2907585 ], [ -49.570335, -21.2896721 ], [ -49.567578, -21.2888608 ], [ -49.569428, -21.286067 ], [ -49.5691101, -21.2853846 ], [ -49.5703162, -21.2852847 ], [ -49.5695712, -21.2846055 ], [ -49.5705819, -21.2843662 ], [ -49.5696963, -21.2828136 ], [ -49.5710345, -21.2824207 ], [ -49.5712668, -21.2800459 ], [ -49.5726909, -21.2798417 ], [ -49.5696982, -21.2787638 ], [ -49.5711423, -21.2751952 ], [ -49.5724035, -21.2743802 ], [ -49.5736474, -21.2752689 ], [ -49.5746279, -21.2748143 ], [ -49.573364, -21.2738836 ], [ -49.5716935, -21.2679326 ], [ -49.5708828, -21.2672273 ], [ -49.5690306, -21.2674383 ], [ -49.5669195, -21.2683715 ], [ -49.5672232, -21.2695916 ], [ -49.564743, -21.2683702 ], [ -49.5646672, -21.2694506 ], [ -49.5633823, -21.2704144 ], [ -49.5620462, -21.269808 ], [ -49.5587941, -21.2701217 ], [ -49.5573755, -21.2671268 ], [ -49.560507, -21.2640568 ], [ -49.560785, -21.2623735 ], [ -49.5597244, -21.2612931 ], [ -49.5579473, -21.2613482 ], [ -49.5574937, -21.2605009 ], [ -49.5565321, -21.2615174 ], [ -49.5561365, -21.260631 ], [ -49.5527474, -21.2629759 ], [ -49.5493085, -21.2632521 ], [ -49.5482376, -21.2625498 ], [ -49.5480982, -21.261098 ], [ -49.5468637, -21.259875 ], [ -49.5487086, -21.2566705 ], [ -49.5476132, -21.2527171 ], [ -49.5450904, -21.2520288 ], [ -49.5427807, -21.2536071 ], [ -49.5394821, -21.253621 ], [ -49.5402164, -21.2498871 ], [ -49.5393315, -21.2466304 ], [ -49.5378527, -21.2455884 ], [ -49.5379779, -21.2416267 ], [ -49.5370931, -21.240959 ], [ -49.5363234, -21.2420345 ], [ -49.5343729, -21.2413918 ], [ -49.5327992, -21.2421216 ], [ -49.5332796, -21.2403185 ], [ -49.5309623, -21.2407484 ], [ -49.5305488, -21.2380376 ], [ -49.5296405, -21.2380533 ], [ -49.5285454, -21.2361166 ], [ -49.5270723, -21.2364841 ], [ -49.5264272, -21.2355722 ], [ -49.5282268, -21.2340959 ], [ -49.5294212, -21.2312745 ], [ -49.5285431, -21.2302898 ], [ -49.5261339, -21.23061 ], [ -49.5261351, -21.2291357 ], [ -49.528346, -21.2297971 ], [ -49.5282556, -21.2288656 ], [ -49.5228929, -21.2281272 ], [ -49.5219854, -21.2286285 ], [ -49.5216926, -21.2274448 ], [ -49.5194196, -21.226989 ], [ -49.5158504, -21.2291446 ], [ -49.5101726, -21.2355385 ], [ -49.5097475, -21.2374435 ], [ -49.5081848, -21.2392668 ], [ -49.505413, -21.2406579 ], [ -49.5014997, -21.2471085 ] ] ] ] } }
]
}
