{
"type": "FeatureCollection",
"name": "ER_REGIAO_Guarani d'Oeste",
"crs": { "type": "name", "properties": { "name": "urn:ogc:def:crs:EPSG::4674" } },
"xy_coordinate_resolution": 1e-15,
"features": [
{ "type": "Feature", "properties": { "fid": 295, "NM_REGIAO": "Sudeste", "NM_UF": "São Paulo", "NM_MUN": "Guarani d'Oeste", "NM_DIST": "Guarani d'Oeste", "CD_SUBDIST": "35180080500", "ER_REGIAO": "Guarani d'Oeste", "ER_REGIAO_CIDADE": "Guarani d'Oeste_Votuporanga" }, "geometry": { "type": "MultiPolygon", "coordinates": [ [ [ [ -50.3687598, -20.0477301 ], [ -50.3626265, -20.0320575 ], [ -50.3578077, -20.0351044 ], [ -50.3490765, -20.0387307 ], [ -50.33743, -20.0345191 ], [ -50.3341964, -20.0345801 ], [ -50.3315983, -20.0358716 ], [ -50.2955018, -20.0173788 ], [ -50.2947104, -20.0185563 ], [ -50.2895303, -20.0205845 ], [ -50.2855476, -20.0231931 ], [ -50.2840434, -20.0250825 ], [ -50.2837497, -20.0280155 ], [ -50.2852959, -20.0375894 ], [ -50.2855453, -20.0455128 ], [ -50.2846641, -20.0631524 ], [ -50.2865437, -20.0681538 ], [ -50.290858, -20.0741784 ], [ -50.2966793, -20.0771258 ], [ -50.303459, -20.0853725 ], [ -50.3105887, -20.089449 ], [ -50.3184088, -20.0986496 ], [ -50.3227038, -20.1005454 ], [ -50.3280181, -20.1053636 ], [ -50.3325412, -20.1037241 ], [ -50.3367144, -20.1036736 ], [ -50.3496861, -20.1062977 ], [ -50.3554818, -20.1040489 ], [ -50.3703454, -20.1009239 ], [ -50.3784416, -20.1033358 ], [ -50.3791287, -20.1046053 ], [ -50.3818498, -20.1043544 ], [ -50.3889646, -20.1060313 ], [ -50.393951, -20.1035969 ], [ -50.392844, -20.1028716 ], [ -50.3935188, -20.1014593 ], [ -50.394626, -20.1012218 ], [ -50.3964458, -20.0989728 ], [ -50.3976689, -20.0988601 ], [ -50.4014163, -20.0942745 ], [ -50.4034702, -20.0934115 ], [ -50.4045042, -20.0901107 ], [ -50.4033532, -20.0865101 ], [ -50.405349, -20.083589 ], [ -50.4052498, -20.0821923 ], [ -50.4068402, -20.0821209 ], [ -50.4089931, -20.0785424 ], [ -50.4123728, -20.0758561 ], [ -50.4119108, -20.0742206 ], [ -50.4150923, -20.0706856 ], [ -50.4143509, -20.0692759 ], [ -50.4167542, -20.0669408 ], [ -50.417811, -20.0646543 ], [ -50.417497, -20.0632515 ], [ -50.4182887, -20.0630786 ], [ -50.4190241, -20.0607348 ], [ -50.4196193, -20.0608757 ], [ -50.4197989, -20.0583359 ], [ -50.4229174, -20.0545298 ], [ -50.4149399, -20.0511792 ], [ -50.4117114, -20.0513357 ], [ -50.4094536, -20.0517734 ], [ -50.4080792, -20.053387 ], [ -50.4025082, -20.0542904 ], [ -50.3941963, -20.0584371 ], [ -50.3909884, -20.0588074 ], [ -50.3815625, -20.0577258 ], [ -50.3756403, -20.0550883 ], [ -50.3687598, -20.0477301 ] ] ] ] } }
]
}
