{
"type": "FeatureCollection",
"name": "ER_REGIAO_Laranjal Paulista_Maristela",
"crs": { "type": "name", "properties": { "name": "urn:ogc:def:crs:EPSG::4674" } },
"xy_coordinate_resolution": 1e-15,
"features": [
{ "type": "Feature", "properties": { "fid": 434, "NM_REGIAO": "Sudeste", "NM_UF": "São Paulo", "NM_MUN": "Laranjal Paulista", "NM_DIST": "Maristela", "CD_SUBDIST": "35264071500", "ER_REGIAO": "Laranjal Paulista_Maristela", "ER_REGIAO_CIDADE": "Laranjal Paulista_Maristela_Botucatu" }, "geometry": { "type": "MultiPolygon", "coordinates": [ [ [ [ -47.875774, -23.021826 ], [ -47.877279399999964, -23.053193199999953 ], [ -47.912274599999932, -23.080393099999981 ], [ -47.915211, -23.081255899999974 ], [ -47.918470599999978, -23.080652399999963 ], [ -47.926452899999958, -23.081243299999983 ], [ -47.929680399999938, -23.08050609999998 ], [ -47.929795499999955, -23.078773599999977 ], [ -47.92791079999995, -23.075749499999972 ], [ -47.92816449999998, -23.068709299999966 ], [ -47.929329099999961, -23.064798 ], [ -47.932629599999984, -23.06077769999996 ], [ -47.931618399999934, -23.058679299999937 ], [ -47.929183799999976, -23.058416199999954 ], [ -47.926705199999958, -23.059582499999976 ], [ -47.924356299999943, -23.057285299999933 ], [ -47.915128599999946, -23.054975699999943 ], [ -47.911839099999952, -23.055347899999958 ], [ -47.907932499999959, -23.057143499999938 ], [ -47.904421799999966, -23.060268199999939 ], [ -47.899458399999958, -23.060524599999951 ], [ -47.897971899999959, -23.05817129999997 ], [ -47.901083299999982, -23.055628499999955 ], [ -47.90668729999993, -23.047282 ], [ -47.908237099999951, -23.046007599999939 ], [ -47.912329599999964, -23.045170699999971 ], [ -47.915571899999975, -23.041745699999979 ], [ -47.915448899999944, -23.038602899999944 ], [ -47.909435199999962, -23.034604699999932 ], [ -47.908799199999976, -23.033269899999937 ], [ -47.916018, -23.030611599999929 ], [ -47.919769899999949, -23.030560899999955 ], [ -47.91871169999996, -23.026606899999933 ], [ -47.92124709999996, -23.024880699999983 ], [ -47.925128299999983, -23.018062899999961 ], [ -47.928405299999952, -23.016274099999976 ], [ -47.940289699999937, -23.013610899999946 ], [ -47.943928399999947, -23.008735099999967 ], [ -47.946451599999932, -23.002025299999957 ], [ -47.945442, -23.000570499999981 ], [ -47.9453, -22.997513599999934 ], [ -47.940990099999965, -22.994973899999934 ], [ -47.93923719999998, -22.989816799999971 ], [ -47.937593599999957, -22.98907829999996 ], [ -47.938104899999985, -22.985554799999932 ], [ -47.936370699999941, -22.983123499999977 ], [ -47.932999099999961, -22.981712399999935 ], [ -47.930482599999948, -22.981588099999954 ], [ -47.928466299999968, -22.979843399999936 ], [ -47.924965899999961, -22.985691799999927 ], [ -47.923018599999978, -22.986209199999962 ], [ -47.921931, -22.987761199999966 ], [ -47.916499199999976, -22.989868499999943 ], [ -47.913568899999973, -22.992736099999945 ], [ -47.913081799999986, -22.994583399999954 ], [ -47.911138499999936, -22.995294399999977 ], [ -47.91117289999994, -22.996581799999944 ], [ -47.90844119999997, -22.998958099999982 ], [ -47.906061799999975, -22.999495699999954 ], [ -47.905845499999941, -23.000437599999941 ], [ -47.908423, -23.003466599999967 ], [ -47.908837299999959, -23.00890759999993 ], [ -47.907611399999951, -23.010697199999981 ], [ -47.90500069999996, -23.011216899999965 ], [ -47.897140299999933, -23.015262299999961 ], [ -47.889302899999961, -23.016475 ], [ -47.881812399999944, -23.016017799999929 ], [ -47.878983299999959, -23.014846699999964 ], [ -47.875126299999977, -23.015371799999969 ], [ -47.87501089999995, -23.013997599999982 ], [ -47.871358499999985, -23.013240799999949 ], [ -47.870030099999951, -23.014135799999963 ], [ -47.870884899999965, -23.016492699999958 ], [ -47.869539399999951, -23.018989699999963 ], [ -47.865376799999979, -23.023166799999956 ], [ -47.863979799999981, -23.025864299999967 ], [ -47.875774, -23.021826 ] ] ] ] } }
]
}
