{
"type": "FeatureCollection",
"name": "ER_REGIAO_Platina",
"crs": { "type": "name", "properties": { "name": "urn:ogc:def:crs:EPSG::4674" } },
"xy_coordinate_resolution": 1e-15,
"features": [
{ "type": "Feature", "properties": { "fid": 664, "NM_REGIAO": "Sudeste", "NM_UF": "São Paulo", "NM_MUN": "Platina", "NM_DIST": "Platina", "CD_SUBDIST": "35397070500", "ER_REGIAO": "Platina", "ER_REGIAO_CIDADE": "Platina_Marília" }, "geometry": { "type": "MultiPolygon", "coordinates": [ [ [ [ -50.242591199999936, -22.687367699999982 ], [ -50.244905499999959, -22.689198099999942 ], [ -50.247205199999939, -22.68868759999998 ], [ -50.247494699999947, -22.687109699999951 ], [ -50.249650799999984, -22.687666699999966 ], [ -50.251262099999963, -22.687106899999947 ], [ -50.251903099999936, -22.690784599999972 ], [ -50.251170599999966, -22.69249039999994 ], [ -50.255672, -22.696428599999933 ], [ -50.255765499999939, -22.698575799999958 ], [ -50.258151299999952, -22.69797959999994 ], [ -50.258602799999949, -22.699208299999952 ], [ -50.257832899999983, -22.699914399999955 ], [ -50.259483099999954, -22.701419 ], [ -50.25889589999997, -22.703966 ], [ -50.262153499999954, -22.701301 ], [ -50.263715199999979, -22.69776319999994 ], [ -50.263752299999965, -22.68937139999997 ], [ -50.267043599999965, -22.680039099999931 ], [ -50.273262, -22.67326879999996 ], [ -50.276116699999932, -22.672989799999982 ], [ -50.298193899999944, -22.677075 ], [ -50.325030899999945, -22.677386499999955 ], [ -50.323578599999962, -22.666918599999974 ], [ -50.319957299999942, -22.656879899999979 ], [ -50.319867099999954, -22.647932899999944 ], [ -50.318529, -22.644177299999967 ], [ -50.317668, -22.634287499999971 ], [ -50.315061499999956, -22.627015899999947 ], [ -50.316471199999967, -22.625858799999946 ], [ -50.31635319999998, -22.621017599999959 ], [ -50.31270139999998, -22.613112499999943 ], [ -50.310244299999965, -22.600958 ], [ -50.310087099999976, -22.595840799999962 ], [ -50.313487, -22.588652799999977 ], [ -50.31448, -22.577742399999977 ], [ -50.31970739999997, -22.56753109999994 ], [ -50.327257399999951, -22.566045199999962 ], [ -50.332452499999931, -22.56401029999995 ], [ -50.334918099999982, -22.560552499999972 ], [ -50.340816899999936, -22.556532299999958 ], [ -50.346817, -22.556401599999958 ], [ -50.34785119999998, -22.55446829999994 ], [ -50.347582099999954, -22.552979799999946 ], [ -50.344083499999954, -22.552372 ], [ -50.338735699999972, -22.552814099999978 ], [ -50.329616499999986, -22.55556329999996 ], [ -50.321236599999963, -22.555838299999948 ], [ -50.317255199999977, -22.554919599999948 ], [ -50.312522499999943, -22.551826699999935 ], [ -50.305091699999934, -22.550798899999961 ], [ -50.300497, -22.545463599999948 ], [ -50.299462299999959, -22.546554299999968 ], [ -50.298665899999946, -22.550267299999973 ], [ -50.296255599999938, -22.552504899999974 ], [ -50.276249499999949, -22.55682349999995 ], [ -50.269256199999973, -22.559987099999944 ], [ -50.266444399999955, -22.562626899999941 ], [ -50.264350199999967, -22.562668499999972 ], [ -50.261897899999951, -22.559296199999949 ], [ -50.255494499999941, -22.556739099999959 ], [ -50.25208269999996, -22.553830299999959 ], [ -50.245501799999943, -22.545421499999975 ], [ -50.243345799999986, -22.544165699999951 ], [ -50.241810299999941, -22.541761299999962 ], [ -50.242859099999976, -22.540701899999931 ], [ -50.241943599999956, -22.539105399999983 ], [ -50.234354099999962, -22.532859199999962 ], [ -50.232852599999944, -22.525237699999934 ], [ -50.228808499999957, -22.525423599999954 ], [ -50.224392599999931, -22.526906199999928 ], [ -50.214345499999979, -22.532526799999971 ], [ -50.211790599999972, -22.536424 ], [ -50.20377469999994, -22.541049299999941 ], [ -50.200761399999976, -22.543625399999939 ], [ -50.196869099999958, -22.543607599999973 ], [ -50.193546499999968, -22.544870699999933 ], [ -50.187863899999968, -22.54312049999993 ], [ -50.18612, -22.544011199999943 ], [ -50.183023299999945, -22.554115099999933 ], [ -50.173594, -22.566701099999932 ], [ -50.169554, -22.579682399999967 ], [ -50.16959769999994, -22.584932199999969 ], [ -50.168363099999965, -22.587432699999965 ], [ -50.16920829999998, -22.592565799999932 ], [ -50.163630399999931, -22.59283679999993 ], [ -50.161284099999932, -22.590203199999962 ], [ -50.155102699999986, -22.588985399999956 ], [ -50.146694199999956, -22.582333399999982 ], [ -50.143300099999976, -22.577212299999928 ], [ -50.138773799999967, -22.573941 ], [ -50.130349499999966, -22.582247799999948 ], [ -50.126337599999943, -22.583647 ], [ -50.121572399999934, -22.586547099999962 ], [ -50.112601899999959, -22.595456199999944 ], [ -50.105536099999938, -22.606433 ], [ -50.101244599999973, -22.610429299999964 ], [ -50.100359199999957, -22.61587389999994 ], [ -50.102214599999968, -22.621290299999941 ], [ -50.101925299999948, -22.622958299999937 ], [ -50.096336, -22.625987099999975 ], [ -50.094797899999946, -22.629555899999957 ], [ -50.094686, -22.633027699999957 ], [ -50.092388599999936, -22.636011899999971 ], [ -50.092413399999941, -22.641595699999982 ], [ -50.098112699999945, -22.651144599999952 ], [ -50.10343869999997, -22.657536 ], [ -50.106324399999949, -22.663775299999941 ], [ -50.108977399999958, -22.672194299999944 ], [ -50.108799899999951, -22.67530759999994 ], [ -50.106324499999971, -22.680747 ], [ -50.109103399999981, -22.682102699999973 ], [ -50.11012889999995, -22.685633699999983 ], [ -50.114792399999942, -22.69254989999996 ], [ -50.119146799999953, -22.70273919999994 ], [ -50.122336299999972, -22.708055399999978 ], [ -50.122891099999947, -22.715278599999976 ], [ -50.127079499999979, -22.714532399999939 ], [ -50.130776899999944, -22.705874799999947 ], [ -50.135457199999962, -22.706219399999952 ], [ -50.145930399999941, -22.699381599999981 ], [ -50.14691739999995, -22.699528799999939 ], [ -50.148571499999946, -22.703178499999979 ], [ -50.150880599999937, -22.705347299999971 ], [ -50.158496699999944, -22.704562599999974 ], [ -50.168246499999952, -22.70662539999995 ], [ -50.177022799999975, -22.702388299999939 ], [ -50.185065899999984, -22.702834199999927 ], [ -50.188683, -22.700125199999945 ], [ -50.19412669999997, -22.697717499999953 ], [ -50.204366399999969, -22.695359099999962 ], [ -50.211142799999948, -22.696151399999962 ], [ -50.214828599999976, -22.695481099999938 ], [ -50.216651599999977, -22.696278799999959 ], [ -50.221627699999942, -22.69566489999994 ], [ -50.225853499999971, -22.696919499999979 ], [ -50.228214299999934, -22.695286299999964 ], [ -50.228090099999974, -22.691650699999968 ], [ -50.230418499999985, -22.689775 ], [ -50.233859399999972, -22.690252599999951 ], [ -50.235582499999964, -22.689041599999939 ], [ -50.239758199999983, -22.689526399999977 ], [ -50.242591199999936, -22.687367699999982 ] ] ] ] } }
]
}
