{
"type": "FeatureCollection",
"name": "ER_REGIAO_Jambeiro",
"crs": { "type": "name", "properties": { "name": "urn:ogc:def:crs:EPSG::4674" } },
"xy_coordinate_resolution": 1e-15,
"features": [
{ "type": "Feature", "properties": { "fid": 413, "NM_REGIAO": "Sudeste", "NM_UF": "São Paulo", "NM_MUN": "Jambeiro", "NM_DIST": "Jambeiro", "CD_SUBDIST": "35249070500", "ER_REGIAO": "Jambeiro", "ER_REGIAO_CIDADE": "Jambeiro_São José dos Campos" }, "geometry": { "type": "MultiPolygon", "coordinates": [ [ [ [ -45.730152, -23.239022 ], [ -45.722222, -23.239025 ], [ -45.7185257, -23.2344404 ], [ -45.7110588, -23.2327965 ], [ -45.7044745, -23.227932 ], [ -45.6961424, -23.2245686 ], [ -45.6895715, -23.223602 ], [ -45.6831398, -23.2187735 ], [ -45.6793274, -23.2148184 ], [ -45.6726971, -23.2132287 ], [ -45.6696553, -23.2100238 ], [ -45.6657496, -23.2078833 ], [ -45.6636088, -23.2056875 ], [ -45.6552212, -23.2035746 ], [ -45.6514899, -23.2006389 ], [ -45.6493376, -23.1974117 ], [ -45.646666, -23.1969035 ], [ -45.6428816, -23.1985112 ], [ -45.6418901, -23.1962647 ], [ -45.6407502, -23.1960316 ], [ -45.6378288, -23.2025267 ], [ -45.6354065, -23.2046586 ], [ -45.6297103, -23.2059759 ], [ -45.6231663, -23.2037418 ], [ -45.6216406, -23.2050711 ], [ -45.6221558, -23.2069017 ], [ -45.6208855, -23.2086971 ], [ -45.621482, -23.2109945 ], [ -45.625626, -23.2154082 ], [ -45.6261641, -23.218667 ], [ -45.6232632, -23.2204479 ], [ -45.6232381, -23.2233256 ], [ -45.6214652, -23.2266208 ], [ -45.6178189, -23.228174 ], [ -45.6157085, -23.2303264 ], [ -45.6158367, -23.233205 ], [ -45.6143303, -23.2377493 ], [ -45.6149909, -23.2398027 ], [ -45.6126905, -23.2410048 ], [ -45.6121589, -23.2471773 ], [ -45.6132067, -23.2497352 ], [ -45.6152289, -23.2517264 ], [ -45.619844, -23.2539847 ], [ -45.6214268, -23.2585886 ], [ -45.624144, -23.2597901 ], [ -45.6250284, -23.2611984 ], [ -45.624271, -23.2630917 ], [ -45.6267857, -23.2648364 ], [ -45.6276091, -23.2684294 ], [ -45.6291336, -23.2695767 ], [ -45.6327512, -23.2702888 ], [ -45.6337122, -23.2715237 ], [ -45.6353292, -23.2712784 ], [ -45.6357488, -23.2733398 ], [ -45.6384699, -23.2743764 ], [ -45.6404845, -23.2777599 ], [ -45.6425681, -23.2783792 ], [ -45.6437099, -23.2796379 ], [ -45.6442571, -23.2815088 ], [ -45.6425915, -23.2853603 ], [ -45.6426425, -23.2872113 ], [ -45.6455546, -23.2911182 ], [ -45.653687, -23.2965639 ], [ -45.6600876, -23.2978465 ], [ -45.6634719, -23.3015397 ], [ -45.6677421, -23.3008542 ], [ -45.6727102, -23.3037649 ], [ -45.6737805, -23.3063429 ], [ -45.6768196, -23.3063031 ], [ -45.6786945, -23.3108247 ], [ -45.6825663, -23.3142987 ], [ -45.6888644, -23.3177507 ], [ -45.6950723, -23.3263738 ], [ -45.6976227, -23.3249005 ], [ -45.6984133, -23.3288112 ], [ -45.6994982, -23.3295818 ], [ -45.7021459, -23.3264435 ], [ -45.7036898, -23.3299921 ], [ -45.7042998, -23.3356808 ], [ -45.7057547, -23.3385399 ], [ -45.7069148, -23.3386896 ], [ -45.7112007, -23.3359824 ], [ -45.7142411, -23.3375315 ], [ -45.7166925, -23.3354468 ], [ -45.7194594, -23.3355892 ], [ -45.7224537, -23.3338753 ], [ -45.7231453, -23.3349398 ], [ -45.7216157, -23.3356432 ], [ -45.7203955, -23.3396402 ], [ -45.7210972, -23.3411867 ], [ -45.7248778, -23.3418019 ], [ -45.7283541, -23.343449 ], [ -45.7343599, -23.3431567 ], [ -45.7364124, -23.3437931 ], [ -45.7386298, -23.3457462 ], [ -45.7418358, -23.3515298 ], [ -45.7451945, -23.3527913 ], [ -45.7476201, -23.3524421 ], [ -45.7488391, -23.3480277 ], [ -45.7515956, -23.3460426 ], [ -45.7566584, -23.3462506 ], [ -45.7608648, -23.3431065 ], [ -45.7650339, -23.3424374 ], [ -45.7670477, -23.3445831 ], [ -45.7666943, -23.3461569 ], [ -45.7638131, -23.3499648 ], [ -45.7653145, -23.3518282 ], [ -45.7709815, -23.3533684 ], [ -45.7738468, -23.3504148 ], [ -45.7766647, -23.3496131 ], [ -45.7781113, -23.3506729 ], [ -45.7780096, -23.3531189 ], [ -45.7788573, -23.3547222 ], [ -45.7849879, -23.3560565 ], [ -45.7864618, -23.3532965 ], [ -45.788972, -23.3535715 ], [ -45.7905265, -23.3521641 ], [ -45.7913242, -23.34928 ], [ -45.7972809, -23.3391408 ], [ -45.7970929, -23.3349744 ], [ -45.798097, -23.3327842 ], [ -45.8002774, -23.3307671 ], [ -45.805942, -23.328283 ], [ -45.807048, -23.32466 ], [ -45.808132, -23.324065 ], [ -45.808042, -23.320765 ], [ -45.809135, -23.32005 ], [ -45.807609, -23.318458 ], [ -45.807845, -23.315652 ], [ -45.804637, -23.312326 ], [ -45.806872, -23.308628 ], [ -45.806081, -23.303075 ], [ -45.80119, -23.301431 ], [ -45.79918, -23.29895 ], [ -45.797588, -23.299169 ], [ -45.79522, -23.297338 ], [ -45.795407, -23.295823 ], [ -45.794009, -23.294169 ], [ -45.79366, -23.291088 ], [ -45.790086, -23.282672 ], [ -45.784981, -23.277019 ], [ -45.78153, -23.275784 ], [ -45.780025, -23.273449 ], [ -45.778541, -23.267949 ], [ -45.776066, -23.267321 ], [ -45.776695, -23.26621 ], [ -45.776128, -23.263025 ], [ -45.773704, -23.26062 ], [ -45.770588, -23.261124 ], [ -45.766526, -23.258481 ], [ -45.765723, -23.25361 ], [ -45.763726, -23.251647 ], [ -45.762176, -23.251423 ], [ -45.759708, -23.254445 ], [ -45.757402, -23.255436 ], [ -45.753907, -23.253643 ], [ -45.750966, -23.254899 ], [ -45.749482, -23.253715 ], [ -45.748287, -23.255131 ], [ -45.747563, -23.252315 ], [ -45.746288, -23.252813 ], [ -45.744422, -23.251943 ], [ -45.743872, -23.248333 ], [ -45.742774, -23.246668 ], [ -45.740881, -23.245522 ], [ -45.735956, -23.244468 ], [ -45.730152, -23.239022 ] ] ] ] } }
]
}
