{
"type": "FeatureCollection",
"name": "ER_REGIAO_Santana da Ponte Pensa",
"crs": { "type": "name", "properties": { "name": "urn:ogc:def:crs:EPSG::4674" } },
"xy_coordinate_resolution": 1e-15,
"features": [
{ "type": "Feature", "properties": { "fid": 782, "NM_REGIAO": "Sudeste", "NM_UF": "São Paulo", "NM_MUN": "Santana da Ponte Pensa", "NM_DIST": "Santana da Ponte Pensa", "CD_SUBDIST": "35472050500", "ER_REGIAO": "Santana da Ponte Pensa", "ER_REGIAO_CIDADE": "Santana da Ponte Pensa_Votuporanga" }, "geometry": { "type": "MultiPolygon", "coordinates": [ [ [ [ -50.8253997, -20.2409845 ], [ -50.8225026, -20.2374848 ], [ -50.8224182, -20.2335406 ], [ -50.8246396, -20.2268134 ], [ -50.8228872, -20.2166865 ], [ -50.8179029, -20.216674 ], [ -50.812633, -20.2154165 ], [ -50.8097786, -20.2136063 ], [ -50.8067794, -20.2100333 ], [ -50.8079395, -20.2056163 ], [ -50.8075752, -20.2011613 ], [ -50.8093407, -20.1973311 ], [ -50.8098881, -20.1891775 ], [ -50.8117636, -20.1855654 ], [ -50.8115692, -20.1842169 ], [ -50.8082952, -20.1825478 ], [ -50.8059404, -20.1774184 ], [ -50.8025246, -20.1732883 ], [ -50.8016021, -20.170149 ], [ -50.7996328, -20.1677233 ], [ -50.8000221, -20.1650589 ], [ -50.79938, -20.1632808 ], [ -50.7961625, -20.1620115 ], [ -50.792023, -20.1619011 ], [ -50.7862491, -20.163483 ], [ -50.7797446, -20.1671806 ], [ -50.7752191, -20.1665746 ], [ -50.7692158, -20.1635785 ], [ -50.7595041, -20.1653146 ], [ -50.7581815, -20.1681069 ], [ -50.7574603, -20.1726731 ], [ -50.7579092, -20.176503 ], [ -50.760137, -20.1820888 ], [ -50.7638031, -20.1836539 ], [ -50.7643619, -20.1900904 ], [ -50.7661722, -20.1964444 ], [ -50.7681572, -20.2002357 ], [ -50.7687415, -20.2088723 ], [ -50.7668859, -20.2139617 ], [ -50.7670526, -20.2165928 ], [ -50.7724114, -20.2221053 ], [ -50.7754734, -20.2289162 ], [ -50.779817, -20.2308209 ], [ -50.7823734, -20.2332929 ], [ -50.7774265, -20.2368272 ], [ -50.7728445, -20.2384862 ], [ -50.7704275, -20.23784 ], [ -50.7648409, -20.2328122 ], [ -50.7631911, -20.2330245 ], [ -50.7603809, -20.2349557 ], [ -50.7511952, -20.2335475 ], [ -50.7485436, -20.2343384 ], [ -50.7486906, -20.23923 ], [ -50.749778, -20.24222 ], [ -50.7494935, -20.2471027 ], [ -50.7588015, -20.2593901 ], [ -50.7583818, -20.2750188 ], [ -50.7534684, -20.284795 ], [ -50.7541318, -20.2946374 ], [ -50.7570205, -20.3017729 ], [ -50.7596313, -20.3023544 ], [ -50.7613231, -20.3039374 ], [ -50.7617195, -20.3088155 ], [ -50.767805, -20.314046 ], [ -50.7690801, -20.3168834 ], [ -50.7716624, -20.319772 ], [ -50.7720817, -20.3217654 ], [ -50.7754115, -20.3247318 ], [ -50.7789172, -20.3315564 ], [ -50.782216, -20.335159 ], [ -50.7850794, -20.3358721 ], [ -50.7872052, -20.334707 ], [ -50.7922377, -20.3361605 ], [ -50.7983105, -20.3366729 ], [ -50.8035748, -20.3389278 ], [ -50.8113272, -20.3391094 ], [ -50.8134779, -20.3370767 ], [ -50.8168103, -20.3366142 ], [ -50.817842, -20.3351679 ], [ -50.8210076, -20.3333967 ], [ -50.8231664, -20.3296912 ], [ -50.8243855, -20.3297816 ], [ -50.8251512, -20.3310612 ], [ -50.8266963, -20.3310033 ], [ -50.8319534, -20.3290257 ], [ -50.8345758, -20.3238731 ], [ -50.8379812, -20.3236285 ], [ -50.8447749, -20.3190049 ], [ -50.8463969, -20.3154276 ], [ -50.8507775, -20.3166193 ], [ -50.8528259, -20.3161075 ], [ -50.8541638, -20.3146015 ], [ -50.8570125, -20.3149295 ], [ -50.8582457, -20.3132978 ], [ -50.859945, -20.3070144 ], [ -50.8590274, -20.3011397 ], [ -50.8561933, -20.2987981 ], [ -50.849329, -20.2958337 ], [ -50.8489434, -20.291275 ], [ -50.8459094, -20.2887971 ], [ -50.8421409, -20.2872198 ], [ -50.8374697, -20.2828546 ], [ -50.8370217, -20.2808679 ], [ -50.8397497, -20.2748152 ], [ -50.8412692, -20.2682884 ], [ -50.8342687, -20.2618777 ], [ -50.8344413, -20.2560633 ], [ -50.8336465, -20.2542435 ], [ -50.8280019, -20.250099 ], [ -50.8270039, -20.2467878 ], [ -50.82517, -20.2441391 ], [ -50.8253997, -20.2409845 ] ] ] ] } }
]
}
