{
"type": "FeatureCollection",
"name": "ER_REGIAO_São Roque_Canguera",
"crs": { "type": "name", "properties": { "name": "urn:ogc:def:crs:EPSG::4674" } },
"xy_coordinate_resolution": 1e-15,
"features": [
{ "type": "Feature", "properties": { "fid": 934, "NM_REGIAO": "Sudeste", "NM_UF": "São Paulo", "NM_MUN": "São Roque", "NM_DIST": "Canguera", "CD_SUBDIST": "35506051500", "ER_REGIAO": "São Roque_Canguera", "ER_REGIAO_CIDADE": "São Roque_Canguera_Osasco" }, "geometry": { "type": "MultiPolygon", "coordinates": [ [ [ [ -47.154613, -23.637644 ], [ -47.159374, -23.639313 ], [ -47.161703, -23.638948 ], [ -47.162673, -23.63959 ], [ -47.162034, -23.64011 ], [ -47.16246, -23.641125 ], [ -47.167025, -23.641818 ], [ -47.167401, -23.641146 ], [ -47.167922, -23.642202 ], [ -47.169837, -23.64068 ], [ -47.171882, -23.64192 ], [ -47.172273, -23.640482 ], [ -47.174443, -23.641038 ], [ -47.177022, -23.640267 ], [ -47.178822, -23.64117 ], [ -47.179765, -23.64046 ], [ -47.180221, -23.638102 ], [ -47.182238, -23.63785 ], [ -47.182478, -23.635909 ], [ -47.183632, -23.635655 ], [ -47.183563, -23.63486 ], [ -47.188274, -23.631192 ], [ -47.187798, -23.630644 ], [ -47.18918, -23.630179 ], [ -47.188624, -23.62931 ], [ -47.189567, -23.629052 ], [ -47.188404, -23.627889 ], [ -47.189497, -23.627558 ], [ -47.188686, -23.626576 ], [ -47.189945, -23.622728 ], [ -47.191677, -23.622615 ], [ -47.194351, -23.619377 ], [ -47.203791, -23.618496 ], [ -47.205492, -23.618969 ], [ -47.205374, -23.616315 ], [ -47.208892, -23.613096 ], [ -47.205037, -23.610925 ], [ -47.201457, -23.606446 ], [ -47.195865, -23.606019 ], [ -47.192696, -23.603851 ], [ -47.189507, -23.605365 ], [ -47.186641, -23.603042 ], [ -47.183294, -23.602157 ], [ -47.185499, -23.597614 ], [ -47.184375, -23.594482 ], [ -47.184707, -23.591924 ], [ -47.180822, -23.584821 ], [ -47.176754, -23.582042 ], [ -47.174323, -23.576257 ], [ -47.176399, -23.574036 ], [ -47.173585, -23.570452 ], [ -47.167793, -23.574707 ], [ -47.162494, -23.577109 ], [ -47.159853, -23.575707 ], [ -47.158806, -23.573436 ], [ -47.155939, -23.575063 ], [ -47.14987, -23.576015 ], [ -47.145058, -23.577966 ], [ -47.140417, -23.577839 ], [ -47.138196, -23.5763748 ], [ -47.1350797, -23.5769306 ], [ -47.1330815, -23.5760113 ], [ -47.1285782, -23.5766383 ], [ -47.1268007, -23.5776219 ], [ -47.11934, -23.575833 ], [ -47.117598, -23.578174 ], [ -47.1159809, -23.5787266 ], [ -47.1099599, -23.5773006 ], [ -47.1087724, -23.5783128 ], [ -47.109096, -23.582777 ], [ -47.107648, -23.586966 ], [ -47.102365, -23.588328 ], [ -47.10094, -23.588263 ], [ -47.098456, -23.58654 ], [ -47.094088, -23.58624 ], [ -47.091443, -23.584519 ], [ -47.091216, -23.588289 ], [ -47.089857, -23.590953 ], [ -47.093656, -23.593716 ], [ -47.095282, -23.597027 ], [ -47.097438, -23.599029 ], [ -47.096765, -23.601483 ], [ -47.0950599, -23.6020616 ], [ -47.0843398, -23.5977737 ], [ -47.078637, -23.598056 ], [ -47.076661, -23.600865 ], [ -47.077596, -23.60481 ], [ -47.074105, -23.607703 ], [ -47.0736499, -23.6117985 ], [ -47.070066, -23.609897 ], [ -47.068404, -23.612477 ], [ -47.0639143, -23.6154005 ], [ -47.0630759, -23.6187878 ], [ -47.058941, -23.619079 ], [ -47.0568193, -23.6207951 ], [ -47.0576119, -23.6262032 ], [ -47.059791, -23.629032 ], [ -47.058052, -23.635668 ], [ -47.059322, -23.637713 ], [ -47.058989, -23.639732 ], [ -47.060082, -23.640096 ], [ -47.060098, -23.641572 ], [ -47.062039, -23.643868 ], [ -47.064696, -23.645463 ], [ -47.069076, -23.646381 ], [ -47.072657, -23.645367 ], [ -47.074355, -23.64984 ], [ -47.0733568, -23.651382 ], [ -47.074503, -23.652491 ], [ -47.07565, -23.652384 ], [ -47.076519, -23.65368 ], [ -47.0780273, -23.6533062 ], [ -47.077933, -23.65263 ], [ -47.079133, -23.653929 ], [ -47.080159, -23.653745 ], [ -47.079784, -23.652995 ], [ -47.081149, -23.65334 ], [ -47.081598, -23.652423 ], [ -47.080542, -23.652054 ], [ -47.081359, -23.651426 ], [ -47.081952, -23.652127 ], [ -47.083369, -23.651235 ], [ -47.085479, -23.651577 ], [ -47.085647, -23.650703 ], [ -47.086581, -23.651626 ], [ -47.087675, -23.650762 ], [ -47.088348, -23.651495 ], [ -47.090332, -23.650952 ], [ -47.090432, -23.650209 ], [ -47.091611, -23.65052 ], [ -47.091967, -23.649323 ], [ -47.093004, -23.649857 ], [ -47.093029, -23.648835 ], [ -47.092292, -23.648573 ], [ -47.09326, -23.648177 ], [ -47.09265, -23.647559 ], [ -47.093044, -23.645404 ], [ -47.096323, -23.643897 ], [ -47.09613, -23.643182 ], [ -47.100238, -23.643367 ], [ -47.100671, -23.645125 ], [ -47.101622, -23.644841 ], [ -47.101346, -23.645636 ], [ -47.10282, -23.64644 ], [ -47.102603, -23.647013 ], [ -47.10417, -23.647247 ], [ -47.103932, -23.648563 ], [ -47.104974, -23.648361 ], [ -47.105568, -23.650127 ], [ -47.109128, -23.651683 ], [ -47.108915, -23.649646 ], [ -47.110559, -23.648513 ], [ -47.110808, -23.647358 ], [ -47.113753, -23.647749 ], [ -47.114686, -23.645857 ], [ -47.116477, -23.645845 ], [ -47.116792, -23.646776 ], [ -47.119132, -23.647746 ], [ -47.119407, -23.64682 ], [ -47.119902, -23.647477 ], [ -47.120792, -23.647187 ], [ -47.120259, -23.647834 ], [ -47.121592, -23.648747 ], [ -47.122454, -23.647395 ], [ -47.123823, -23.647221 ], [ -47.125768, -23.643722 ], [ -47.128386, -23.64227 ], [ -47.134295, -23.642536 ], [ -47.135563, -23.641308 ], [ -47.137119, -23.641289 ], [ -47.13732, -23.640116 ], [ -47.138995, -23.639291 ], [ -47.141103, -23.639893 ], [ -47.142633, -23.639309 ], [ -47.144047, -23.640537 ], [ -47.149235, -23.640279 ], [ -47.149506, -23.641031 ], [ -47.152484, -23.640171 ], [ -47.152816, -23.63938 ], [ -47.153297, -23.639928 ], [ -47.154613, -23.637644 ] ] ] ] } }
]
}
