{
"type": "FeatureCollection",
"name": "ER_REGIAO_Bom Sucesso de Itararé",
"crs": { "type": "name", "properties": { "name": "urn:ogc:def:crs:EPSG::4674" } },
"xy_coordinate_resolution": 1e-15,
"features": [
{ "type": "Feature", "properties": { "fid": 108, "NM_REGIAO": "Sudeste", "NM_UF": "São Paulo", "NM_MUN": "Bom Sucesso de Itararé", "NM_DIST": "Bom Sucesso de Itararé", "CD_SUBDIST": "35071590500", "ER_REGIAO": "Bom Sucesso de Itararé", "ER_REGIAO_CIDADE": "Bom Sucesso de Itararé_Sudoeste Paulista" }, "geometry": { "type": "MultiPolygon", "coordinates": [ [ [ [ -49.1594753, -24.2779264 ], [ -49.1568252, -24.2784055 ], [ -49.1553999, -24.2777658 ], [ -49.1536474, -24.2790143 ], [ -49.1519826, -24.2789694 ], [ -49.1480119, -24.2771084 ], [ -49.1457568, -24.2750713 ], [ -49.1461562, -24.2721135 ], [ -49.1451006, -24.2687537 ], [ -49.1473141, -24.2674813 ], [ -49.1468494, -24.2624461 ], [ -49.1484603, -24.2583857 ], [ -49.1454598, -24.2587766 ], [ -49.1407951, -24.2560863 ], [ -49.1328482, -24.2487294 ], [ -49.1314881, -24.2456129 ], [ -49.129627, -24.2453022 ], [ -49.1260732, -24.2475728 ], [ -49.1248404, -24.2475784 ], [ -49.1216993, -24.2503097 ], [ -49.1159244, -24.2501051 ], [ -49.1141516, -24.252145 ], [ -49.1125681, -24.2526365 ], [ -49.1078588, -24.250668 ], [ -49.1056495, -24.2515996 ], [ -49.1039763, -24.2536831 ], [ -49.1013441, -24.2540003 ], [ -49.0990074, -24.2610385 ], [ -49.0966623, -24.2627022 ], [ -49.095979, -24.2659658 ], [ -49.0939475, -24.26488 ], [ -49.090984, -24.2697237 ], [ -49.0882355, -24.2695992 ], [ -49.0876541, -24.2677044 ], [ -49.0867141, -24.2701824 ], [ -49.0845165, -24.2707465 ], [ -49.0845107, -24.2733491 ], [ -49.0859321, -24.2755375 ], [ -49.0856788, -24.2766624 ], [ -49.0870715, -24.2773233 ], [ -49.0885422, -24.2806409 ], [ -49.0867228, -24.2810497 ], [ -49.0847697, -24.2801248 ], [ -49.0832001, -24.2811621 ], [ -49.0811177, -24.2810841 ], [ -49.0795299, -24.2833565 ], [ -49.0770931, -24.2831391 ], [ -49.0748925, -24.2848944 ], [ -49.0754039, -24.2875228 ], [ -49.077, -24.289399 ], [ -49.0765133, -24.2915348 ], [ -49.077223, -24.2949756 ], [ -49.0800429, -24.2961258 ], [ -49.0782313, -24.2986242 ], [ -49.0804762, -24.3030998 ], [ -49.0845712, -24.3074037 ], [ -49.084939, -24.3109983 ], [ -49.0859991, -24.3123943 ], [ -49.0895744, -24.3126015 ], [ -49.0932882, -24.3184726 ], [ -49.1008246, -24.3223954 ], [ -49.1050402, -24.3201146 ], [ -49.109886, -24.3199002 ], [ -49.1148344, -24.3242264 ], [ -49.1248708, -24.335275 ], [ -49.1310754, -24.3402698 ], [ -49.1327623, -24.339242 ], [ -49.1355071, -24.33474 ], [ -49.1367421, -24.3340031 ], [ -49.1424741, -24.339375 ], [ -49.1527159, -24.3406582 ], [ -49.1528007, -24.3413572 ], [ -49.1502107, -24.3434182 ], [ -49.1522268, -24.3473014 ], [ -49.1524991, -24.3513785 ], [ -49.1590396, -24.3528577 ], [ -49.1606485, -24.3539303 ], [ -49.1616603, -24.355998 ], [ -49.1629312, -24.3549171 ], [ -49.1649504, -24.3554956 ], [ -49.1793663, -24.370063 ], [ -49.1872287, -24.376373 ], [ -49.1991488, -24.3809304 ], [ -49.2040445, -24.3811445 ], [ -49.221261, -24.391334 ], [ -49.2301624, -24.3980614 ], [ -49.2312376, -24.3950461 ], [ -49.2361707, -24.3955675 ], [ -49.2385171, -24.3984353 ], [ -49.2400351, -24.3968633 ], [ -49.2421769, -24.396435 ], [ -49.2475983, -24.4002448 ], [ -49.2502095, -24.4040602 ], [ -49.2535003, -24.4050385 ], [ -49.2492109, -24.3974371 ], [ -49.2476759, -24.3927177 ], [ -49.2394566, -24.3845021 ], [ -49.2378191, -24.3790201 ], [ -49.2316478, -24.3750614 ], [ -49.2234598, -24.3634854 ], [ -49.2161546, -24.3558903 ], [ -49.2138715, -24.3539359 ], [ -49.2114323, -24.353742 ], [ -49.2084608, -24.3522599 ], [ -49.2065661, -24.3483834 ], [ -49.2041824, -24.3475597 ], [ -49.2006785, -24.3444137 ], [ -49.2012106, -24.3427002 ], [ -49.2046826, -24.3405498 ], [ -49.2037931, -24.3395935 ], [ -49.2042673, -24.3389748 ], [ -49.2059465, -24.338254 ], [ -49.2087705, -24.3388754 ], [ -49.2099418, -24.3382754 ], [ -49.2119867, -24.3395819 ], [ -49.2242872, -24.3402284 ], [ -49.2312127, -24.3303952 ], [ -49.2360595, -24.3296043 ], [ -49.2395438, -24.3314301 ], [ -49.2447022, -24.3321752 ], [ -49.2457714, -24.3307917 ], [ -49.2488757, -24.3305126 ], [ -49.2504582, -24.3287898 ], [ -49.2504313, -24.3270018 ], [ -49.2494046, -24.3254573 ], [ -49.2504366, -24.3193643 ], [ -49.2530468, -24.3190521 ], [ -49.2542359, -24.3179175 ], [ -49.2499876, -24.3131449 ], [ -49.2474284, -24.3072371 ], [ -49.2405445, -24.3017994 ], [ -49.2365936, -24.3004112 ], [ -49.2342086, -24.2943457 ], [ -49.2315949, -24.2925524 ], [ -49.2270366, -24.2927069 ], [ -49.2241474, -24.2956366 ], [ -49.221456, -24.2967303 ], [ -49.2193706, -24.2989555 ], [ -49.2180641, -24.3030093 ], [ -49.2157351, -24.3048655 ], [ -49.2142127, -24.3051149 ], [ -49.2119817, -24.3035252 ], [ -49.21076, -24.3040885 ], [ -49.2071241, -24.3034508 ], [ -49.2051739, -24.3027057 ], [ -49.2051576, -24.3015685 ], [ -49.203185, -24.2991681 ], [ -49.1996794, -24.2981128 ], [ -49.199228, -24.2966727 ], [ -49.1968432, -24.2962183 ], [ -49.1960664, -24.2930323 ], [ -49.1940097, -24.2899959 ], [ -49.1879554, -24.284668 ], [ -49.1865075, -24.2820102 ], [ -49.1868717, -24.280223 ], [ -49.1845084, -24.278918 ], [ -49.1830097, -24.2802154 ], [ -49.1805728, -24.2808075 ], [ -49.1799054, -24.2854503 ], [ -49.1746228, -24.2827963 ], [ -49.1738963, -24.2867814 ], [ -49.1710392, -24.2878438 ], [ -49.1687885, -24.2848722 ], [ -49.1623243, -24.2812895 ], [ -49.1612935, -24.2785628 ], [ -49.1594753, -24.2779264 ] ] ] ] } }
]
}
