{
"type": "FeatureCollection",
"name": "ER_REGIAO_São Simão",
"crs": { "type": "name", "properties": { "name": "urn:ogc:def:crs:EPSG::4674" } },
"xy_coordinate_resolution": 1e-15,
"features": [
{ "type": "Feature", "properties": { "fid": 941, "NM_REGIAO": "Sudeste", "NM_UF": "São Paulo", "NM_MUN": "São Simão", "NM_DIST": "São Simão", "CD_SUBDIST": "35509020500", "ER_REGIAO": "São Simão", "ER_REGIAO_CIDADE": "São Simão_Ribeirão Preto" }, "geometry": { "type": "MultiPolygon", "coordinates": [ [ [ [ -47.44417, -21.4896347 ], [ -47.4446961, -21.4953942 ], [ -47.4422936, -21.4972257 ], [ -47.4405466, -21.4999222 ], [ -47.4409125, -21.5056107 ], [ -47.4373555, -21.5121975 ], [ -47.4375407, -21.5137894 ], [ -47.4367023, -21.5150077 ], [ -47.4324799, -21.5171902 ], [ -47.4266085, -21.5277944 ], [ -47.4289675, -21.5311765 ], [ -47.4345548, -21.534062 ], [ -47.4366574, -21.5367949 ], [ -47.4403478, -21.5470798 ], [ -47.4427571, -21.5518003 ], [ -47.4456022, -21.5545317 ], [ -47.4471791, -21.5606586 ], [ -47.4464629, -21.5619258 ], [ -47.4475164, -21.5644055 ], [ -47.446184, -21.5671829 ], [ -47.4460563, -21.5841747 ], [ -47.450366, -21.5770431 ], [ -47.4554493, -21.5773875 ], [ -47.465159, -21.5751133 ], [ -47.4709681, -21.5758658 ], [ -47.4921194, -21.5700583 ], [ -47.5017006, -21.5689436 ], [ -47.5077589, -21.5653942 ], [ -47.5117296, -21.561912 ], [ -47.5184547, -21.5646057 ], [ -47.5267376, -21.5659805 ], [ -47.5306829, -21.5654668 ], [ -47.5395711, -21.5615588 ], [ -47.5429354, -21.5585458 ], [ -47.544276, -21.556253 ], [ -47.5433589, -21.5529527 ], [ -47.5437451, -21.5514798 ], [ -47.5455452, -21.5520445 ], [ -47.5490021, -21.555555 ], [ -47.5565715, -21.5580668 ], [ -47.5646753, -21.5584646 ], [ -47.5659535, -21.5567688 ], [ -47.5711549, -21.5589283 ], [ -47.5782159, -21.5537395 ], [ -47.5848563, -21.551803 ], [ -47.5870341, -21.5518918 ], [ -47.592012, -21.5483675 ], [ -47.5994881, -21.5467725 ], [ -47.600073, -21.5566805 ], [ -47.6052465, -21.5640056 ], [ -47.6040391, -21.5745015 ], [ -47.6078397, -21.5825348 ], [ -47.6135796, -21.5863915 ], [ -47.6258063, -21.5922593 ], [ -47.6287054, -21.5915633 ], [ -47.631857, -21.5894518 ], [ -47.6392354, -21.5891993 ], [ -47.6425628, -21.592246 ], [ -47.6432844, -21.5909302 ], [ -47.6432655, -21.582827 ], [ -47.6422207, -21.5750876 ], [ -47.645314, -21.5637831 ], [ -47.6404746, -21.5545619 ], [ -47.6417017, -21.5491304 ], [ -47.6395557, -21.5454895 ], [ -47.6396197, -21.5438943 ], [ -47.6457082, -21.5363824 ], [ -47.6522616, -21.5336313 ], [ -47.6555892, -21.5306536 ], [ -47.6566235, -21.5270721 ], [ -47.6575887, -21.5164067 ], [ -47.6617027, -21.5109922 ], [ -47.6623882, -21.5089799 ], [ -47.6605263, -21.5014704 ], [ -47.6609015, -21.4986847 ], [ -47.668411, -21.4909697 ], [ -47.6688481, -21.4873754 ], [ -47.6698425, -21.4870289 ], [ -47.6796559, -21.4921909 ], [ -47.6836293, -21.492656 ], [ -47.6868449, -21.489345 ], [ -47.6906386, -21.487603 ], [ -47.6902972, -21.4844225 ], [ -47.6927532, -21.4815161 ], [ -47.7002621, -21.4812162 ], [ -47.7019784, -21.4801377 ], [ -47.711514, -21.4815695 ], [ -47.7125813, -21.4806455 ], [ -47.7109975, -21.4791683 ], [ -47.7100922, -21.4765358 ], [ -47.7126792, -21.4734901 ], [ -47.7193843, -21.4718409 ], [ -47.7221585, -21.4686779 ], [ -47.7276294, -21.4675406 ], [ -47.7315785, -21.4650965 ], [ -47.7354843, -21.4644688 ], [ -47.737539, -21.4624692 ], [ -47.7457073, -21.4584464 ], [ -47.7530562, -21.4569329 ], [ -47.7638534, -21.4522631 ], [ -47.7750801, -21.4517709 ], [ -47.7771126, -21.4487095 ], [ -47.7789533, -21.4479045 ], [ -47.7873891, -21.4463954 ], [ -47.7971715, -21.4471171 ], [ -47.7988094, -21.4464689 ], [ -47.8029497, -21.4384237 ], [ -47.8052315, -21.4362218 ], [ -47.8060202, -21.4343309 ], [ -47.8116438, -21.4328895 ], [ -47.8157038, -21.4282869 ], [ -47.8190302, -21.4219845 ], [ -47.8214443, -21.4213474 ], [ -47.8295712, -21.4231303 ], [ -47.829769, -21.422386 ], [ -47.827906, -21.421522 ], [ -47.827176, -21.420261 ], [ -47.825031, -21.419844 ], [ -47.824528, -21.417936 ], [ -47.820653, -21.41583 ], [ -47.820077, -21.414661 ], [ -47.8136001, -21.4124225 ], [ -47.8125506, -21.4111052 ], [ -47.8096963, -21.4109939 ], [ -47.8087877, -21.4117312 ], [ -47.8027788, -21.4117161 ], [ -47.7959623, -21.4126944 ], [ -47.7925267, -21.4143411 ], [ -47.7891659, -21.4143808 ], [ -47.7860212, -21.415334 ], [ -47.7833062, -21.4177346 ], [ -47.7766723, -21.4198806 ], [ -47.7673747, -21.4148462 ], [ -47.7625469, -21.4138599 ], [ -47.7561419, -21.4146656 ], [ -47.752996, -21.4164525 ], [ -47.7466073, -21.4169617 ], [ -47.7437622, -21.4197262 ], [ -47.738523, -21.4210915 ], [ -47.7304617, -21.4211359 ], [ -47.7246681, -21.4201395 ], [ -47.7198727, -21.4162417 ], [ -47.7123214, -21.4136778 ], [ -47.7104602, -21.4111661 ], [ -47.7101005, -21.4082826 ], [ -47.7088461, -21.4071487 ], [ -47.7045497, -21.4065251 ], [ -47.7029871, -21.4055109 ], [ -47.6994398, -21.3980663 ], [ -47.7021732, -21.3941152 ], [ -47.7027959, -21.388249 ], [ -47.7019038, -21.3854939 ], [ -47.6974163, -21.3814941 ], [ -47.684091, -21.3786199 ], [ -47.6791278, -21.3752394 ], [ -47.6777702, -21.3786141 ], [ -47.674666, -21.3809783 ], [ -47.6714717, -21.381781 ], [ -47.6682403, -21.3811193 ], [ -47.662546, -21.3816642 ], [ -47.6610262, -21.3795625 ], [ -47.6571729, -21.3777731 ], [ -47.6549238, -21.3754219 ], [ -47.647931, -21.3721513 ], [ -47.6435961, -21.3682766 ], [ -47.6416724, -21.365194 ], [ -47.6390897, -21.3641796 ], [ -47.6373896, -21.3619739 ], [ -47.631394, -21.3594488 ], [ -47.6307815, -21.3616203 ], [ -47.6278802, -21.3633709 ], [ -47.6274645, -21.3658312 ], [ -47.6256858, -21.3670577 ], [ -47.6247333, -21.3667053 ], [ -47.6240713, -21.3648848 ], [ -47.6196636, -21.3636798 ], [ -47.618444, -21.3642981 ], [ -47.5850138, -21.366345 ], [ -47.5818395, -21.3678785 ], [ -47.5786862, -21.3729187 ], [ -47.5784631, -21.3769988 ], [ -47.5739207, -21.3877808 ], [ -47.5647391, -21.3972348 ], [ -47.5622631, -21.3984482 ], [ -47.5594746, -21.4012139 ], [ -47.5570114, -21.4019593 ], [ -47.5562492, -21.4043871 ], [ -47.5510219, -21.4100069 ], [ -47.5456707, -21.412844 ], [ -47.540438, -21.4137788 ], [ -47.5299477, -21.4065775 ], [ -47.5209063, -21.402078 ], [ -47.5107092, -21.4010824 ], [ -47.5045954, -21.4015174 ], [ -47.5026032, -21.3998406 ], [ -47.4979949, -21.3996961 ], [ -47.4924359, -21.3978771 ], [ -47.4903014, -21.3983412 ], [ -47.4879811, -21.4003144 ], [ -47.4855838, -21.3991989 ], [ -47.4824593, -21.3928247 ], [ -47.4790073, -21.3901456 ], [ -47.4739041, -21.3879437 ], [ -47.471613, -21.3858604 ], [ -47.4671782, -21.3777168 ], [ -47.4643665, -21.3759288 ], [ -47.4595134, -21.3749704 ], [ -47.4569586, -21.373462 ], [ -47.4565672, -21.3725021 ], [ -47.458789, -21.3704194 ], [ -47.458761, -21.367001 ], [ -47.454334, -21.3672275 ], [ -47.4480186, -21.3692429 ], [ -47.4461145, -21.3685101 ], [ -47.4457427, -21.3667448 ], [ -47.4484406, -21.3598585 ], [ -47.4476856, -21.3545738 ], [ -47.4469097, -21.353386 ], [ -47.4435135, -21.3518646 ], [ -47.4410285, -21.3455439 ], [ -47.4321349, -21.3419482 ], [ -47.4287499, -21.3463725 ], [ -47.4256008, -21.3482183 ], [ -47.4225995, -21.3486164 ], [ -47.4177237, -21.3442274 ], [ -47.4126053, -21.3424774 ], [ -47.4099475, -21.3400397 ], [ -47.4081263, -21.3401367 ], [ -47.4047328, -21.3429522 ], [ -47.4053364, -21.3516389 ], [ -47.4064565, -21.3541992 ], [ -47.4107548, -21.3581239 ], [ -47.4112418, -21.3610755 ], [ -47.4060328, -21.3691003 ], [ -47.3974051, -21.3704769 ], [ -47.390799, -21.3737566 ], [ -47.3883794, -21.3781241 ], [ -47.3845322, -21.3815089 ], [ -47.3816703, -21.3935421 ], [ -47.3797489, -21.395327 ], [ -47.3806625, -21.3973671 ], [ -47.3873929, -21.3954698 ], [ -47.389085, -21.3961527 ], [ -47.3893481, -21.3996888 ], [ -47.3934784, -21.4048244 ], [ -47.3934632, -21.4095009 ], [ -47.3949046, -21.4152932 ], [ -47.3980584, -21.4156137 ], [ -47.4031541, -21.4208473 ], [ -47.4032626, -21.4228935 ], [ -47.405253, -21.4264102 ], [ -47.4107639, -21.4303684 ], [ -47.4121886, -21.4377447 ], [ -47.414284, -21.4397087 ], [ -47.4159914, -21.4396587 ], [ -47.4177153, -21.4414473 ], [ -47.4178955, -21.4440276 ], [ -47.420734, -21.4439247 ], [ -47.4226526, -21.4467122 ], [ -47.4253522, -21.4457706 ], [ -47.4265296, -21.4477778 ], [ -47.428443, -21.4483019 ], [ -47.4302485, -21.450215 ], [ -47.4300959, -21.4519545 ], [ -47.4321921, -21.4539319 ], [ -47.4307617, -21.4560629 ], [ -47.4328665, -21.4580002 ], [ -47.4337449, -21.4608855 ], [ -47.4344686, -21.4611978 ], [ -47.4348703, -21.4633661 ], [ -47.4341913, -21.4657718 ], [ -47.4363572, -21.4691891 ], [ -47.4365254, -21.4769551 ], [ -47.4357909, -21.4788975 ], [ -47.4373009, -21.479938 ], [ -47.4394849, -21.4838792 ], [ -47.4407901, -21.4840191 ], [ -47.4423901, -21.4858963 ], [ -47.44417, -21.4896347 ] ] ] ] } }
]
}
