{
"type": "FeatureCollection",
"name": "ER_REGIAO_Angatuba_Angatuba",
"crs": { "type": "name", "properties": { "name": "urn:ogc:def:crs:EPSG::4674" } },
"xy_coordinate_resolution": 1e-15,
"features": [
{ "type": "Feature", "properties": { "fid": 34, "NM_REGIAO": "Sudeste", "NM_UF": "São Paulo", "NM_MUN": "Angatuba", "NM_DIST": "Angatuba", "CD_SUBDIST": "35022000500", "ER_REGIAO": "Angatuba_Angatuba", "ER_REGIAO_CIDADE": "Angatuba_Angatuba_Botucatu" }, "geometry": { "type": "MultiPolygon", "coordinates": [ [ [ [ -48.3982291, -23.5761674 ], [ -48.4008698, -23.5731114 ], [ -48.4033939, -23.5665206 ], [ -48.4125289, -23.5646997 ], [ -48.4094566, -23.5609394 ], [ -48.4075912, -23.5529284 ], [ -48.4118676, -23.549532 ], [ -48.4124087, -23.5479836 ], [ -48.4119104, -23.5433227 ], [ -48.4137972, -23.5390856 ], [ -48.4138614, -23.5358128 ], [ -48.4147944, -23.534309 ], [ -48.4187193, -23.5340119 ], [ -48.4245084, -23.5358873 ], [ -48.4333971, -23.534408 ], [ -48.4369051, -23.535442 ], [ -48.4414876, -23.5286327 ], [ -48.4454012, -23.525665 ], [ -48.4493127, -23.5265844 ], [ -48.4531777, -23.526188 ], [ -48.4591974, -23.5289235 ], [ -48.4643526, -23.5282819 ], [ -48.4695225, -23.5291571 ], [ -48.47481, -23.5253534 ], [ -48.4819993, -23.526657 ], [ -48.4872869, -23.5251147 ], [ -48.4937547, -23.5305587 ], [ -48.4966362, -23.5255947 ], [ -48.5021967, -23.5223882 ], [ -48.5054296, -23.5175595 ], [ -48.5120336, -23.5157547 ], [ -48.5181941, -23.5100898 ], [ -48.5217775, -23.5093531 ], [ -48.5278627, -23.512416 ], [ -48.5364334, -23.5124864 ], [ -48.5389561, -23.5150283 ], [ -48.5392628, -23.5178006 ], [ -48.5372562, -23.522367 ], [ -48.5324155, -23.5267396 ], [ -48.5325766, -23.5333034 ], [ -48.5308295, -23.5357788 ], [ -48.5311321, -23.536991 ], [ -48.5326998, -23.5378731 ], [ -48.5330689, -23.5399392 ], [ -48.5349234, -23.5411392 ], [ -48.5404386, -23.5409865 ], [ -48.5479024, -23.5388827 ], [ -48.5495136, -23.5391919 ], [ -48.5502319, -23.5411612 ], [ -48.5503629, -23.5468591 ], [ -48.5496265, -23.5483843 ], [ -48.5486519, -23.5486537 ], [ -48.5464528, -23.5478666 ], [ -48.5424358, -23.5426711 ], [ -48.53971, -23.542583 ], [ -48.5384103, -23.5439336 ], [ -48.5363321, -23.5498323 ], [ -48.5327935, -23.5536455 ], [ -48.5337629, -23.5560071 ], [ -48.5399678, -23.5565178 ], [ -48.5455842, -23.5587413 ], [ -48.5474845, -23.5587726 ], [ -48.5532926, -23.5564839 ], [ -48.5561291, -23.5534477 ], [ -48.5582136, -23.5536212 ], [ -48.5623216, -23.5555161 ], [ -48.562585, -23.5602006 ], [ -48.5671691, -23.5651734 ], [ -48.5681529, -23.5673455 ], [ -48.5671345, -23.5700996 ], [ -48.5629404, -23.573554 ], [ -48.5634189, -23.5751199 ], [ -48.5667337, -23.5762499 ], [ -48.5707549, -23.5746571 ], [ -48.5762424, -23.5762568 ], [ -48.5830854, -23.5756017 ], [ -48.5880821, -23.5708288 ], [ -48.5963622, -23.571097 ], [ -48.6002794, -23.5729826 ], [ -48.6000783, -23.5743728 ], [ -48.5949026, -23.5810519 ], [ -48.5965494, -23.5845422 ], [ -48.5993991, -23.5854304 ], [ -48.601436, -23.585176 ], [ -48.6092457, -23.5823245 ], [ -48.6096512, -23.5783605 ], [ -48.6073967, -23.5761059 ], [ -48.6072718, -23.5749431 ], [ -48.610807, -23.5727563 ], [ -48.6127154, -23.5698867 ], [ -48.6155046, -23.5614609 ], [ -48.6198847, -23.5602932 ], [ -48.6267542, -23.5619649 ], [ -48.6296571, -23.5596172 ], [ -48.6286801, -23.5551869 ], [ -48.6303789, -23.5457743 ], [ -48.6284001, -23.543876 ], [ -48.6223958, -23.5423271 ], [ -48.6213461, -23.5399018 ], [ -48.6217687, -23.5382132 ], [ -48.6254309, -23.53735 ], [ -48.6341608, -23.5390834 ], [ -48.6432978, -23.5443835 ], [ -48.6448636, -23.5440051 ], [ -48.6513794, -23.5392584 ], [ -48.6523239, -23.5375002 ], [ -48.6521176, -23.5356503 ], [ -48.6483394, -23.5306092 ], [ -48.6482181, -23.5245393 ], [ -48.6473324, -23.5220963 ], [ -48.644623, -23.5206954 ], [ -48.6363998, -23.5264376 ], [ -48.6347957, -23.5258576 ], [ -48.6328761, -23.5223141 ], [ -48.632624, -23.5207796 ], [ -48.6341722, -23.5162237 ], [ -48.633913, -23.5109323 ], [ -48.6327064, -23.5084099 ], [ -48.6268229, -23.5014949 ], [ -48.6245379, -23.4971187 ], [ -48.625625, -23.494333 ], [ -48.6295018, -23.4902047 ], [ -48.629722, -23.4885459 ], [ -48.628224, -23.4877293 ], [ -48.62487, -23.4877482 ], [ -48.6184379, -23.4911124 ], [ -48.6165087, -23.491624 ], [ -48.6151731, -23.4908137 ], [ -48.6156259, -23.4884528 ], [ -48.6169261, -23.4866665 ], [ -48.624517, -23.4822619 ], [ -48.6313424, -23.4746222 ], [ -48.6326125, -23.4738087 ], [ -48.6406996, -23.473057 ], [ -48.6427411, -23.4718918 ], [ -48.6438862, -23.4691313 ], [ -48.6448046, -23.4609329 ], [ -48.6495963, -23.4387647 ], [ -48.6533732, -23.43049 ], [ -48.6496709, -23.4239855 ], [ -48.6493693, -23.4221657 ], [ -48.6563149, -23.4140575 ], [ -48.656098, -23.4096452 ], [ -48.6538455, -23.4081577 ], [ -48.6491525, -23.4091895 ], [ -48.6471624, -23.4082835 ], [ -48.6414746, -23.4097528 ], [ -48.6360088, -23.4053376 ], [ -48.634925, -23.3995004 ], [ -48.6331238, -23.3978751 ], [ -48.634972, -23.3861724 ], [ -48.6336558, -23.3829137 ], [ -48.634048, -23.3818801 ], [ -48.6330003, -23.3772586 ], [ -48.6314149, -23.3737376 ], [ -48.6318217, -23.3659404 ], [ -48.6279332, -23.3563704 ], [ -48.6283467, -23.3512903 ], [ -48.6323401, -23.3442863 ], [ -48.6438177, -23.3343362 ], [ -48.6474606, -23.3290778 ], [ -48.634773, -23.3263326 ], [ -48.6247878, -23.3256116 ], [ -48.6122915, -23.3195054 ], [ -48.6036526, -23.3162115 ], [ -48.5905088, -23.314921 ], [ -48.5881149, -23.3132057 ], [ -48.585305, -23.309593 ], [ -48.5790202, -23.2965978 ], [ -48.5762164, -23.2959278 ], [ -48.570759, -23.2974391 ], [ -48.5674959, -23.2965667 ], [ -48.5563229, -23.2838235 ], [ -48.5540976, -23.2793638 ], [ -48.55281, -23.2791825 ], [ -48.5499976, -23.2811068 ], [ -48.5483374, -23.2810449 ], [ -48.5370618, -23.2731957 ], [ -48.5295163, -23.272878 ], [ -48.5263732, -23.2715077 ], [ -48.5207837, -23.2724835 ], [ -48.5182105, -23.2701698 ], [ -48.5160731, -23.2703924 ], [ -48.5144933, -23.2718514 ], [ -48.5130044, -23.2712874 ], [ -48.5121924, -23.2719351 ], [ -48.5119291, -23.2706297 ], [ -48.510957, -23.2703898 ], [ -48.5113265, -23.2697996 ], [ -48.5095833, -23.2692825 ], [ -48.5097606, -23.2686829 ], [ -48.5079858, -23.2679361 ], [ -48.5078155, -23.2669643 ], [ -48.5059597, -23.2691858 ], [ -48.5044245, -23.2697722 ], [ -48.5003383, -23.2668718 ], [ -48.4992581, -23.2668836 ], [ -48.497833, -23.2651993 ], [ -48.4970371, -23.2653128 ], [ -48.4971955, -23.264745 ], [ -48.4952561, -23.2646502 ], [ -48.4956582, -23.2636967 ], [ -48.4934253, -23.2620129 ], [ -48.4925661, -23.2625958 ], [ -48.4915389, -23.2611333 ], [ -48.4866408, -23.2635353 ], [ -48.4794135, -23.2640509 ], [ -48.4707063, -23.2665285 ], [ -48.4652557, -23.2662453 ], [ -48.4594106, -23.2691792 ], [ -48.454397, -23.2699343 ], [ -48.4518634, -23.2725353 ], [ -48.4465398, -23.2702731 ], [ -48.4428673, -23.2700113 ], [ -48.4360667, -23.2733929 ], [ -48.4301991, -23.2679052 ], [ -48.4217548, -23.2658614 ], [ -48.4185853, -23.2625298 ], [ -48.4131505, -23.2664808 ], [ -48.409996, -23.2676793 ], [ -48.4060447, -23.2676308 ], [ -48.404759, -23.2707711 ], [ -48.4011228, -23.2750806 ], [ -48.4028636, -23.2852816 ], [ -48.4011878, -23.2875251 ], [ -48.3928757, -23.2911163 ], [ -48.3911906, -23.2895938 ], [ -48.3781796, -23.290117 ], [ -48.3716189, -23.292892 ], [ -48.3683777, -23.297022 ], [ -48.3629517, -23.2985836 ], [ -48.3610406, -23.3000765 ], [ -48.3601458, -23.3030053 ], [ -48.3638567, -23.3046465 ], [ -48.366999, -23.3085406 ], [ -48.3709095, -23.3090288 ], [ -48.3798023, -23.3155384 ], [ -48.3772081, -23.319212 ], [ -48.3769121, -23.3218454 ], [ -48.3785019, -23.3246552 ], [ -48.3836205, -23.3276235 ], [ -48.3853305, -23.3298382 ], [ -48.3842766, -23.3403949 ], [ -48.3870766, -23.3437545 ], [ -48.384295, -23.3443184 ], [ -48.3743485, -23.3424589 ], [ -48.3711752, -23.3439085 ], [ -48.3693502, -23.3432581 ], [ -48.368016, -23.3443749 ], [ -48.3633518, -23.3508672 ], [ -48.3613994, -23.3601475 ], [ -48.3589437, -23.3660303 ], [ -48.3588963, -23.3698228 ], [ -48.3560718, -23.3753215 ], [ -48.3576685, -23.3796041 ], [ -48.3614243, -23.3842693 ], [ -48.3629624, -23.3931898 ], [ -48.3679091, -23.3991253 ], [ -48.3687617, -23.4030041 ], [ -48.3706387, -23.4066712 ], [ -48.3704955, -23.4079701 ], [ -48.3641017, -23.4123769 ], [ -48.3628583, -23.412236 ], [ -48.3615784, -23.4109048 ], [ -48.3538186, -23.4118513 ], [ -48.3486605, -23.4158259 ], [ -48.3462458, -23.4189065 ], [ -48.3328778, -23.4233266 ], [ -48.3297707, -23.4291194 ], [ -48.3294311, -23.4323872 ], [ -48.3282757, -23.433482 ], [ -48.3263378, -23.4318082 ], [ -48.3250214, -23.4328665 ], [ -48.3247858, -23.4312544 ], [ -48.3257579, -23.4308513 ], [ -48.3248078, -23.430628 ], [ -48.3253906, -23.4300524 ], [ -48.3223585, -23.4248456 ], [ -48.3222862, -23.4231512 ], [ -48.3210788, -23.4225324 ], [ -48.3206153, -23.4233417 ], [ -48.3190029, -23.4225544 ], [ -48.3177803, -23.4235486 ], [ -48.3161713, -23.4231411 ], [ -48.3170288, -23.4223713 ], [ -48.3158053, -23.4221523 ], [ -48.3163421, -23.4218055 ], [ -48.3156571, -23.4211796 ], [ -48.3166289, -23.4208495 ], [ -48.3154359, -23.4206055 ], [ -48.315176, -23.419177 ], [ -48.3142189, -23.4196885 ], [ -48.3133278, -23.4190047 ], [ -48.3130153, -23.4198752 ], [ -48.3123812, -23.4186077 ], [ -48.3114531, -23.4189232 ], [ -48.3116794, -23.4174835 ], [ -48.3109387, -23.4181783 ], [ -48.3079028, -23.416613 ], [ -48.3059207, -23.4169838 ], [ -48.3057085, -23.4154031 ], [ -48.3037623, -23.4160541 ], [ -48.3018239, -23.4156822 ], [ -48.3012326, -23.4185484 ], [ -48.2994623, -23.4199122 ], [ -48.3008483, -23.4264173 ], [ -48.2985912, -23.4280333 ], [ -48.2972673, -23.4297597 ], [ -48.2975288, -23.4305566 ], [ -48.2956563, -23.4318544 ], [ -48.2954191, -23.4339308 ], [ -48.2938427, -23.4335818 ], [ -48.2937664, -23.4347624 ], [ -48.2927261, -23.4354048 ], [ -48.2931531, -23.437769 ], [ -48.2950127, -23.4381147 ], [ -48.2957116, -23.4392605 ], [ -48.2969003, -23.4388773 ], [ -48.297083, -23.4408447 ], [ -48.2950834, -23.4420902 ], [ -48.2943403, -23.4453108 ], [ -48.2902844, -23.4462914 ], [ -48.2898578, -23.4478281 ], [ -48.2886548, -23.4481955 ], [ -48.2859935, -23.4465894 ], [ -48.2849773, -23.4470328 ], [ -48.2838527, -23.4494365 ], [ -48.2841449, -23.4511209 ], [ -48.2830171, -23.4509598 ], [ -48.2817282, -23.4541015 ], [ -48.2842131, -23.4581797 ], [ -48.2906407, -23.4637102 ], [ -48.291613, -23.4684921 ], [ -48.2967624, -23.4715216 ], [ -48.2987342, -23.4752578 ], [ -48.3023942, -23.4768107 ], [ -48.3029122, -23.4782886 ], [ -48.3057189, -23.4804805 ], [ -48.3072051, -23.4896059 ], [ -48.3072711, -23.4967259 ], [ -48.3101714, -23.5012525 ], [ -48.3103984, -23.5055165 ], [ -48.315195, -23.5127919 ], [ -48.3195855, -23.515967 ], [ -48.3232005, -23.5173564 ], [ -48.3379189, -23.520672 ], [ -48.3510528, -23.5273549 ], [ -48.3523147, -23.5291113 ], [ -48.349945, -23.5299795 ], [ -48.3507408, -23.5327322 ], [ -48.3490165, -23.5374883 ], [ -48.3475313, -23.5381737 ], [ -48.3471886, -23.5397731 ], [ -48.3500653, -23.5430683 ], [ -48.3520074, -23.5436362 ], [ -48.3528519, -23.5472919 ], [ -48.352261, -23.5489327 ], [ -48.3479412, -23.5524641 ], [ -48.3483529, -23.5551632 ], [ -48.3465631, -23.5557344 ], [ -48.3443924, -23.5587428 ], [ -48.3441122, -23.560886 ], [ -48.3451609, -23.5606422 ], [ -48.3448494, -23.5618274 ], [ -48.3458014, -23.5640266 ], [ -48.3452683, -23.5655117 ], [ -48.3431738, -23.5662733 ], [ -48.33948, -23.5709859 ], [ -48.3400416, -23.5739139 ], [ -48.3443322, -23.5726683 ], [ -48.3456897, -23.573451 ], [ -48.3452325, -23.5750561 ], [ -48.343872, -23.5745955 ], [ -48.3433295, -23.5752192 ], [ -48.3432229, -23.5769009 ], [ -48.3441525, -23.5778993 ], [ -48.3434749, -23.58039 ], [ -48.3450684, -23.581363 ], [ -48.3465756, -23.579688 ], [ -48.3471143, -23.5808415 ], [ -48.3485262, -23.5809988 ], [ -48.3477456, -23.5823285 ], [ -48.3506853, -23.5816791 ], [ -48.3510321, -23.5774359 ], [ -48.3546707, -23.573815 ], [ -48.3567248, -23.5754561 ], [ -48.3573277, -23.5748155 ], [ -48.3567465, -23.5730747 ], [ -48.359509, -23.5736939 ], [ -48.362923, -23.5675241 ], [ -48.3645301, -23.5689356 ], [ -48.3661393, -23.5732757 ], [ -48.3641532, -23.5787007 ], [ -48.366073, -23.5792453 ], [ -48.3709175, -23.5780892 ], [ -48.371561, -23.578539 ], [ -48.3745713, -23.5766911 ], [ -48.3802477, -23.5783195 ], [ -48.3821247, -23.5803499 ], [ -48.3838471, -23.5883216 ], [ -48.3817774, -23.5938313 ], [ -48.3815084, -23.6042548 ], [ -48.3777363, -23.608767 ], [ -48.3780126, -23.6154204 ], [ -48.3730967, -23.6210485 ], [ -48.3739352, -23.6224665 ], [ -48.3744675, -23.6273931 ], [ -48.3709261, -23.6315318 ], [ -48.3713753, -23.6329276 ], [ -48.3753736, -23.6352932 ], [ -48.3806425, -23.6354304 ], [ -48.3854714, -23.6275788 ], [ -48.3966403, -23.6181714 ], [ -48.3990916, -23.6132116 ], [ -48.4021486, -23.6045008 ], [ -48.4032021, -23.5972372 ], [ -48.4006936, -23.5882409 ], [ -48.3989242, -23.586048 ], [ -48.397803, -23.5793821 ], [ -48.3982291, -23.5761674 ] ] ] ] } }
]
}
