{
"type": "FeatureCollection",
"name": "ER_REGIAO_Garça_Garça",
"crs": { "type": "name", "properties": { "name": "urn:ogc:def:crs:EPSG::4674" } },
"xy_coordinate_resolution": 1e-15,
"features": [
{ "type": "Feature", "properties": { "fid": 274, "NM_REGIAO": "Sudeste", "NM_UF": "São Paulo", "NM_MUN": "Garça", "NM_DIST": "Garça", "CD_SUBDIST": "35167050500", "ER_REGIAO": "Garça_Garça", "ER_REGIAO_CIDADE": "Garça_Garça_Bauru" }, "geometry": { "type": "MultiPolygon", "coordinates": [ [ [ [ -49.711762599999986, -22.254966299999978 ], [ -49.715629799999931, -22.249728499999947 ], [ -49.715260399999977, -22.243831199999931 ], [ -49.718424699999957, -22.240592299999946 ], [ -49.714011699999958, -22.227386399999943 ], [ -49.713590499999952, -22.217666099999974 ], [ -49.71419359999993, -22.214381499999945 ], [ -49.709752799999933, -22.205089099999952 ], [ -49.711794499999939, -22.197518 ], [ -49.710982399999978, -22.194428899999934 ], [ -49.709586599999966, -22.192668099999935 ], [ -49.709237899999948, -22.190401 ], [ -49.710076799999968, -22.187605 ], [ -49.709374, -22.187145 ], [ -49.708769, -22.18284019999993 ], [ -49.707854599999962, -22.181574399999931 ], [ -49.708604199999968, -22.180671399999937 ], [ -49.708125699999982, -22.179642099999967 ], [ -49.705876699999976, -22.177922899999942 ], [ -49.700697699999978, -22.171080099999983 ], [ -49.699076899999966, -22.168368599999951 ], [ -49.69867279999994, -22.165376299999934 ], [ -49.695343299999934, -22.162168399999928 ], [ -49.695863599999939, -22.160002199999951 ], [ -49.698179599999946, -22.159149599999978 ], [ -49.697893699999952, -22.158611299999961 ], [ -49.700656, -22.155813299999977 ], [ -49.700470499999938, -22.153880299999969 ], [ -49.702378399999986, -22.15010239999998 ], [ -49.700862899999947, -22.147922799999947 ], [ -49.7034, -22.144618299999934 ], [ -49.705338599999948, -22.144101199999966 ], [ -49.70559529999997, -22.142704899999956 ], [ -49.707099899999946, -22.141973899999982 ], [ -49.696638299999961, -22.137354699999946 ], [ -49.688494099999957, -22.138850899999966 ], [ -49.682612099999972, -22.138064899999961 ], [ -49.673659099999952, -22.13550859999998 ], [ -49.668867299999931, -22.135361 ], [ -49.66784279999996, -22.134364199999936 ], [ -49.667942099999948, -22.132422 ], [ -49.671252899999956, -22.130513399999927 ], [ -49.676317899999958, -22.119301699999937 ], [ -49.669716199999982, -22.123058299999968 ], [ -49.665341699999942, -22.12337 ], [ -49.661463799999979, -22.125959799999976 ], [ -49.658895599999937, -22.126578399999971 ], [ -49.654310799999962, -22.126775699999939 ], [ -49.64633079999993, -22.123911199999952 ], [ -49.645039299999951, -22.118316599999957 ], [ -49.645813299999986, -22.11761649999994 ], [ -49.64540919999996, -22.115149599999938 ], [ -49.646182299999964, -22.113022399999977 ], [ -49.648577, -22.11107869999995 ], [ -49.649329799999975, -22.10882289999995 ], [ -49.647046699999976, -22.107293399999946 ], [ -49.647247499999935, -22.103035699999964 ], [ -49.644819799999937, -22.095822 ], [ -49.645607199999972, -22.091718799999967 ], [ -49.644563799999958, -22.089679599999954 ], [ -49.641286599999944, -22.086541099999977 ], [ -49.641647199999966, -22.085198899999966 ], [ -49.639380899999935, -22.084224499999948 ], [ -49.634387, -22.079800599999942 ], [ -49.634203699999944, -22.07648359999996 ], [ -49.633629199999973, -22.075969099999952 ], [ -49.6339, -22.077908499999978 ], [ -49.633044599999948, -22.080723499999976 ], [ -49.628953299999978, -22.084925799999951 ], [ -49.627062899999942, -22.085871199999929 ], [ -49.625250199999982, -22.091239799999983 ], [ -49.621272699999963, -22.096571299999937 ], [ -49.620300099999952, -22.100972799999965 ], [ -49.62334919999995, -22.107522199999948 ], [ -49.622717799999975, -22.112674499999969 ], [ -49.620132099999978, -22.113671499999953 ], [ -49.617667299999937, -22.113580299999967 ], [ -49.611758899999984, -22.110881599999971 ], [ -49.61012089999997, -22.108956899999953 ], [ -49.601473899999974, -22.108163099999956 ], [ -49.596838099999957, -22.109299399999941 ], [ -49.592392599999982, -22.112846799999943 ], [ -49.584994, -22.112745699999948 ], [ -49.586095099999966, -22.118383299999948 ], [ -49.587944299999947, -22.121712899999977 ], [ -49.588105799999937, -22.124916299999938 ], [ -49.582101699999953, -22.126460899999927 ], [ -49.579028299999948, -22.128603799999951 ], [ -49.57559109999994, -22.131402399999956 ], [ -49.569383199999947, -22.139404399999933 ], [ -49.566189, -22.139684299999942 ], [ -49.56243969999997, -22.138546299999973 ], [ -49.558779399999935, -22.134250699999939 ], [ -49.556420699999933, -22.129803299999935 ], [ -49.555307099999936, -22.135243799999955 ], [ -49.55580109999994, -22.13689729999993 ], [ -49.558084299999962, -22.139662699999974 ], [ -49.560080699999958, -22.140694599999961 ], [ -49.56214209999996, -22.145276899999942 ], [ -49.559897599999942, -22.145225 ], [ -49.556195, -22.147843199999954 ], [ -49.553304299999979, -22.147979799999973 ], [ -49.551430899999957, -22.150049199999955 ], [ -49.548188899999957, -22.149891599999933 ], [ -49.543640399999958, -22.151327499999979 ], [ -49.543307299999981, -22.150569099999927 ], [ -49.541971399999966, -22.15054 ], [ -49.53776819999996, -22.151549599999953 ], [ -49.535534799999937, -22.150988799999936 ], [ -49.531749699999978, -22.15210929999995 ], [ -49.52869, -22.151691199999959 ], [ -49.523261499999933, -22.15311 ], [ -49.526226699999938, -22.155518899999947 ], [ -49.527020099999959, -22.160740899999951 ], [ -49.528797199999985, -22.165457199999935 ], [ -49.52885, -22.169391899999937 ], [ -49.53050449999995, -22.175725799999952 ], [ -49.529671199999939, -22.178748499999983 ], [ -49.530153899999959, -22.183735899999931 ], [ -49.532859599999938, -22.187683199999981 ], [ -49.538541899999984, -22.189030499999944 ], [ -49.545370299999945, -22.195461 ], [ -49.54583109999993, -22.199053299999946 ], [ -49.544988799999942, -22.202067399999976 ], [ -49.546892899999932, -22.204592099999957 ], [ -49.54816059999996, -22.209169 ], [ -49.555439099999944, -22.221120099999951 ], [ -49.55921479999995, -22.223822699999971 ], [ -49.567031199999974, -22.226435799999933 ], [ -49.57325979999996, -22.230473599999982 ], [ -49.576733099999956, -22.229834499999981 ], [ -49.578677699999957, -22.230830099999935 ], [ -49.58201779999996, -22.235144899999966 ], [ -49.585007299999972, -22.236642499999959 ], [ -49.588682499999948, -22.236699699999974 ], [ -49.589657599999953, -22.235466199999962 ], [ -49.61537839999994, -22.252228099999968 ], [ -49.652475199999969, -22.268011099999967 ], [ -49.657992699999966, -22.274182899999971 ], [ -49.657406699999967, -22.277878499999929 ], [ -49.651176499999963, -22.281862199999978 ], [ -49.648256699999934, -22.286271199999931 ], [ -49.649220299999968, -22.293952599999955 ], [ -49.64435839999993, -22.297860799999967 ], [ -49.635839399999952, -22.302501499999948 ], [ -49.632513, -22.306497299999933 ], [ -49.632345199999975, -22.311195199999929 ], [ -49.631177499999978, -22.314144899999974 ], [ -49.631904599999984, -22.31903989999995 ], [ -49.634375599999942, -22.325028 ], [ -49.632546, -22.328798899999981 ], [ -49.632481599999949, -22.330897799999946 ], [ -49.637878299999954, -22.336244499999964 ], [ -49.638786599999946, -22.338697599999932 ], [ -49.641224899999941, -22.340825 ], [ -49.641451399999937, -22.347179099999948 ], [ -49.644354, -22.350121899999976 ], [ -49.644336299999964, -22.356865899999946 ], [ -49.648110299999985, -22.361180199999978 ], [ -49.648673699999961, -22.366827799999953 ], [ -49.652040499999941, -22.370914 ], [ -49.656153099999983, -22.372761699999955 ], [ -49.663033, -22.370736 ], [ -49.671431199999972, -22.37510229999998 ], [ -49.674464199999932, -22.372642699999972 ], [ -49.679107299999941, -22.373491099999967 ], [ -49.690192099999933, -22.372026799999958 ], [ -49.694625799999983, -22.374409299999968 ], [ -49.70208759999997, -22.375399399999935 ], [ -49.705902299999934, -22.379127099999948 ], [ -49.713566799999967, -22.379852599999936 ], [ -49.717518299999938, -22.382488599999931 ], [ -49.719850199999939, -22.38304409999995 ], [ -49.72275819999993, -22.382296099999962 ], [ -49.728995299999951, -22.37656 ], [ -49.735467599999936, -22.38232 ], [ -49.73942349999993, -22.380717899999979 ], [ -49.741556, -22.381476899999939 ], [ -49.747109299999977, -22.378250699999967 ], [ -49.75003849999996, -22.375091699999928 ], [ -49.75050159999995, -22.371257799999967 ], [ -49.751392299999964, -22.370148699999959 ], [ -49.749865399999976, -22.366085099999964 ], [ -49.751339, -22.361820499999965 ], [ -49.750459299999932, -22.357129 ], [ -49.749632499999962, -22.356835799999942 ], [ -49.75057419999996, -22.354581399999972 ], [ -49.748574799999972, -22.351923299999953 ], [ -49.748802099999978, -22.35099729999996 ], [ -49.754603499999973, -22.35384259999995 ], [ -49.758031, -22.352218899999968 ], [ -49.761169199999983, -22.354052899999942 ], [ -49.766563, -22.355122699999981 ], [ -49.768885199999943, -22.354240299999958 ], [ -49.773977899999977, -22.35449159999996 ], [ -49.776111, -22.353137899999979 ], [ -49.777858, -22.353980299999932 ], [ -49.781459699999971, -22.35349309999998 ], [ -49.784362299999941, -22.351472499999943 ], [ -49.787864699999943, -22.350977899999975 ], [ -49.788814, -22.351860299999942 ], [ -49.789786699999979, -22.351678 ], [ -49.789570699999956, -22.350839 ], [ -49.791609799999947, -22.351314099999968 ], [ -49.792277699999943, -22.352159799999981 ], [ -49.791777499999966, -22.353039599999931 ], [ -49.796067499999936, -22.354832099999953 ], [ -49.797474, -22.353659 ], [ -49.799358499999983, -22.353369599999951 ], [ -49.802519399999937, -22.355208799999957 ], [ -49.810650499999952, -22.355370099999959 ], [ -49.812988799999971, -22.35676239999998 ], [ -49.812493399999937, -22.357483699999932 ], [ -49.813432899999952, -22.358494499999949 ], [ -49.819068399999935, -22.359775299999967 ], [ -49.821671899999956, -22.359763799999939 ], [ -49.822550699999965, -22.358533899999941 ], [ -49.824879199999941, -22.35770679999996 ], [ -49.82689339999996, -22.35860329999997 ], [ -49.829653199999939, -22.358177399999931 ], [ -49.83211069999993, -22.359943299999941 ], [ -49.834263199999953, -22.358549399999958 ], [ -49.836498399999982, -22.359129199999927 ], [ -49.837780699999939, -22.358380199999942 ], [ -49.837355699999932, -22.357478699999945 ], [ -49.838186599999972, -22.356236799999976 ], [ -49.842394499999955, -22.354433899999947 ], [ -49.842680599999937, -22.35369739999993 ], [ -49.844986699999936, -22.353410599999961 ], [ -49.845878, -22.355363699999941 ], [ -49.847846299999958, -22.356521799999939 ], [ -49.849533299999962, -22.356530499999963 ], [ -49.849666399999933, -22.355433599999969 ], [ -49.851966799999957, -22.354556399999979 ], [ -49.852667, -22.355997199999933 ], [ -49.854722299999935, -22.356918399999927 ], [ -49.854738899999973, -22.348819699999979 ], [ -49.852872699999978, -22.348186599999963 ], [ -49.853169699999967, -22.345669899999962 ], [ -49.851607099999967, -22.345190699999932 ], [ -49.852567599999986, -22.342705899999942 ], [ -49.850862499999948, -22.341447499999958 ], [ -49.848665399999959, -22.33452159999996 ], [ -49.844069499999932, -22.329734799999983 ], [ -49.844996699999967, -22.32263759999995 ], [ -49.837379899999974, -22.319414 ], [ -49.836040099999934, -22.317806 ], [ -49.835091099999943, -22.314553 ], [ -49.832038399999931, -22.312628699999948 ], [ -49.830929099999935, -22.310000799999955 ], [ -49.827819499999976, -22.309050299999967 ], [ -49.824067299999967, -22.309819199999936 ], [ -49.819314, -22.30532009999996 ], [ -49.811131399999965, -22.307402499999966 ], [ -49.808951699999966, -22.309872699999971 ], [ -49.807973, -22.310001599999964 ], [ -49.803473599999961, -22.307122099999958 ], [ -49.803490899999986, -22.302553699999976 ], [ -49.802135499999963, -22.299214399999983 ], [ -49.799554099999966, -22.297624499999927 ], [ -49.793437899999958, -22.298110899999983 ], [ -49.781144899999958, -22.294087099999956 ], [ -49.773205, -22.298172099999931 ], [ -49.767889699999955, -22.297589499999958 ], [ -49.760038599999973, -22.298684599999945 ], [ -49.755766599999959, -22.29657409999993 ], [ -49.751162699999952, -22.292993899999942 ], [ -49.743253699999968, -22.293598199999963 ], [ -49.739803799999947, -22.291008499999975 ], [ -49.736679399999957, -22.284994199999971 ], [ -49.734443099999964, -22.284248099999957 ], [ -49.725188599999967, -22.287246399999958 ], [ -49.723708, -22.290116 ], [ -49.721786499999951, -22.291249199999982 ], [ -49.719478399999957, -22.292376299999944 ], [ -49.715861599999982, -22.292353399999968 ], [ -49.71133089999995, -22.295006499999943 ], [ -49.701319699999942, -22.293995699999982 ], [ -49.696401, -22.295327899999961 ], [ -49.697419099999934, -22.290392399999973 ], [ -49.70189849999997, -22.286505399999953 ], [ -49.703701899999942, -22.283867599999951 ], [ -49.706045499999959, -22.275986799999941 ], [ -49.708837699999947, -22.272826699999939 ], [ -49.70764749999995, -22.266542799999968 ], [ -49.711762599999986, -22.254966299999978 ] ] ] ] } }
]
}
