{
"type": "FeatureCollection",
"name": "ER_REGIAO_Votorantim",
"crs": { "type": "name", "properties": { "name": "urn:ogc:def:crs:EPSG::4674" } },
"xy_coordinate_resolution": 1e-15,
"features": [
{ "type": "Feature", "properties": { "fid": 1036, "NM_REGIAO": "Sudeste", "NM_UF": "São Paulo", "NM_MUN": "Votorantim", "NM_DIST": "Votorantim", "CD_SUBDIST": "35570060500", "ER_REGIAO": "Votorantim", "ER_REGIAO_CIDADE": "Votorantim_Sorocaba" }, "geometry": { "type": "MultiPolygon", "coordinates": [ [ [ [ -47.4417498, -23.524896 ], [ -47.4338385, -23.525014 ], [ -47.4336233, -23.5238382 ], [ -47.4321741, -23.5232222 ], [ -47.430991, -23.5236314 ], [ -47.4309368, -23.5227157 ], [ -47.4288414, -23.5223334 ], [ -47.4241242, -23.5242999 ], [ -47.4206763, -23.5229115 ], [ -47.4176428, -23.5245321 ], [ -47.4161193, -23.524087 ], [ -47.4148978, -23.5259929 ], [ -47.4136509, -23.5258003 ], [ -47.4129845, -23.5245955 ], [ -47.4097596, -23.5254461 ], [ -47.4061285, -23.5235945 ], [ -47.4031803, -23.5240675 ], [ -47.400762, -23.5253135 ], [ -47.4000363, -23.526719 ], [ -47.3960947, -23.5245286 ], [ -47.3962487, -23.523375 ], [ -47.3948714, -23.5221871 ], [ -47.3924584, -23.5230947 ], [ -47.3897319, -23.5218349 ], [ -47.3880728, -23.5224814 ], [ -47.3879081, -23.5216091 ], [ -47.386505, -23.5211917 ], [ -47.3852431, -23.5219575 ], [ -47.3846043, -23.5208267 ], [ -47.3832578, -23.5219312 ], [ -47.3789393, -23.5223436 ], [ -47.3776998, -23.5205831 ], [ -47.3762902, -23.520518 ], [ -47.3749573, -23.518959 ], [ -47.3741516, -23.5197117 ], [ -47.3743809, -23.5222013 ], [ -47.373305, -23.5230567 ], [ -47.3718209, -23.5223319 ], [ -47.3664364, -23.5226477 ], [ -47.3646709, -23.5242391 ], [ -47.3655204, -23.5279195 ], [ -47.3625516, -23.5317565 ], [ -47.3648616, -23.5334471 ], [ -47.3651087, -23.5369216 ], [ -47.361133, -23.5384984 ], [ -47.3614516, -23.5400163 ], [ -47.3623673, -23.5405755 ], [ -47.3608314, -23.5429486 ], [ -47.3622916, -23.5452667 ], [ -47.3608644, -23.5460838 ], [ -47.3604188, -23.5476849 ], [ -47.3575918, -23.5491144 ], [ -47.3585811, -23.5527181 ], [ -47.3564782, -23.555971 ], [ -47.3565559, -23.5588002 ], [ -47.3553166, -23.560571 ], [ -47.3503615, -23.5612587 ], [ -47.3466738, -23.5595517 ], [ -47.3448175, -23.5598592 ], [ -47.3421851, -23.5567316 ], [ -47.3387296, -23.5582562 ], [ -47.3342662, -23.5572915 ], [ -47.3297402, -23.5578502 ], [ -47.3277049, -23.5605714 ], [ -47.3243144, -23.5605039 ], [ -47.322772, -23.5596599 ], [ -47.3209498, -23.5610271 ], [ -47.318578, -23.5605394 ], [ -47.3172701, -23.5613149 ], [ -47.3160909, -23.5601946 ], [ -47.3142553, -23.5598786 ], [ -47.3115936, -23.5614081 ], [ -47.3074633, -23.5610066 ], [ -47.3093961, -23.5649636 ], [ -47.3093119, -23.5670809 ], [ -47.311784, -23.5703584 ], [ -47.3129874, -23.5747687 ], [ -47.3123737, -23.5791022 ], [ -47.3133401, -23.5811945 ], [ -47.3100111, -23.5858834 ], [ -47.3094038, -23.5932243 ], [ -47.3099881, -23.5972918 ], [ -47.3035458, -23.5970659 ], [ -47.3002949, -23.598438 ], [ -47.2967451, -23.602301 ], [ -47.2968467, -23.6036544 ], [ -47.2997706, -23.6068283 ], [ -47.2989568, -23.6107576 ], [ -47.2993238, -23.6134641 ], [ -47.3068826, -23.6200482 ], [ -47.3112706, -23.6223188 ], [ -47.3165571, -23.6235358 ], [ -47.3203897, -23.6225208 ], [ -47.325838, -23.6240096 ], [ -47.3270471, -23.62323 ], [ -47.3271341, -23.6205753 ], [ -47.3287963, -23.6176922 ], [ -47.3340814, -23.6152686 ], [ -47.3352328, -23.6141143 ], [ -47.3357205, -23.611447 ], [ -47.3371072, -23.6115691 ], [ -47.3454013, -23.6166102 ], [ -47.3521697, -23.6186658 ], [ -47.3590399, -23.6224566 ], [ -47.3606291, -23.6248395 ], [ -47.3619585, -23.6293739 ], [ -47.3654147, -23.6330766 ], [ -47.3676575, -23.6337751 ], [ -47.3717256, -23.6325406 ], [ -47.3777025, -23.632791 ], [ -47.3830119, -23.6313357 ], [ -47.3900566, -23.6332892 ], [ -47.3920311, -23.633044 ], [ -47.394196, -23.6312383 ], [ -47.3985398, -23.6250882 ], [ -47.402337, -23.6232607 ], [ -47.4045153, -23.621183 ], [ -47.4083741, -23.6203305 ], [ -47.4110173, -23.6203801 ], [ -47.4135674, -23.621562 ], [ -47.4184046, -23.6203109 ], [ -47.4196889, -23.6209908 ], [ -47.4208828, -23.6231418 ], [ -47.4245658, -23.6243272 ], [ -47.427454, -23.6221901 ], [ -47.4360666, -23.6235902 ], [ -47.440183, -23.6214497 ], [ -47.4439556, -23.6213746 ], [ -47.4542336, -23.625535 ], [ -47.4576912, -23.6285719 ], [ -47.461632, -23.6306555 ], [ -47.4633849, -23.6333755 ], [ -47.4640069, -23.6386494 ], [ -47.4686028, -23.6387378 ], [ -47.4709208, -23.6371297 ], [ -47.4704086, -23.6387856 ], [ -47.472296, -23.6405637 ], [ -47.4726687, -23.6424751 ], [ -47.4759278, -23.6424794 ], [ -47.4772283, -23.6416403 ], [ -47.4770575, -23.6433771 ], [ -47.4816281, -23.6449456 ], [ -47.4831193, -23.6465262 ], [ -47.4846707, -23.6466397 ], [ -47.4874069, -23.6485403 ], [ -47.4941675, -23.6500129 ], [ -47.4931071, -23.6472628 ], [ -47.4886437, -23.6450933 ], [ -47.4864368, -23.6428687 ], [ -47.4852955, -23.6391039 ], [ -47.4813462, -23.6371786 ], [ -47.4800117, -23.634106 ], [ -47.4771248, -23.6306888 ], [ -47.4725422, -23.6264752 ], [ -47.4667506, -23.624166 ], [ -47.473242, -23.6168464 ], [ -47.4772438, -23.6150191 ], [ -47.4782263, -23.6127751 ], [ -47.4797405, -23.6124267 ], [ -47.4831078, -23.6085555 ], [ -47.4850856, -23.6097932 ], [ -47.4884832, -23.6075232 ], [ -47.4937352, -23.60682 ], [ -47.4950087, -23.5998226 ], [ -47.4945523, -23.5980093 ], [ -47.4954807, -23.5957584 ], [ -47.4948203, -23.5937469 ], [ -47.4920069, -23.592887 ], [ -47.4913728, -23.5918682 ], [ -47.4926384, -23.5812847 ], [ -47.4936221, -23.5802136 ], [ -47.4921919, -23.5768127 ], [ -47.4929232, -23.5761752 ], [ -47.492331, -23.5713376 ], [ -47.4910302, -23.5701532 ], [ -47.4918003, -23.5645422 ], [ -47.4937063, -23.5612804 ], [ -47.4934733, -23.5585072 ], [ -47.4939425, -23.5577532 ], [ -47.496871, -23.5586593 ], [ -47.4983563, -23.558161 ], [ -47.4981653, -23.5570899 ], [ -47.4995244, -23.5566272 ], [ -47.5009256, -23.5573488 ], [ -47.5016763, -23.5554493 ], [ -47.5014012, -23.5536275 ], [ -47.5027377, -23.5513138 ], [ -47.5017378, -23.5493593 ], [ -47.5039997, -23.5463499 ], [ -47.5048734, -23.5465635 ], [ -47.5052908, -23.5479808 ], [ -47.506213, -23.5478999 ], [ -47.5085429, -23.5468013 ], [ -47.5099861, -23.5437531 ], [ -47.5163705, -23.5428357 ], [ -47.5181988, -23.5437127 ], [ -47.5180016, -23.5416361 ], [ -47.5146292, -23.5400308 ], [ -47.511126, -23.5394449 ], [ -47.507779, -23.5405724 ], [ -47.5031276, -23.5359484 ], [ -47.5015678, -23.5359306 ], [ -47.498431, -23.5393725 ], [ -47.4941393, -23.5414764 ], [ -47.4924159, -23.5413034 ], [ -47.4903881, -23.5395541 ], [ -47.4879666, -23.5399135 ], [ -47.4871392, -23.5420136 ], [ -47.4841458, -23.5448707 ], [ -47.4834314, -23.5469932 ], [ -47.4806868, -23.5463949 ], [ -47.475663, -23.5495676 ], [ -47.4724798, -23.5492955 ], [ -47.4714112, -23.5472196 ], [ -47.4672893, -23.545896 ], [ -47.4665055, -23.5420807 ], [ -47.4669294, -23.5387389 ], [ -47.465376, -23.5359767 ], [ -47.4654014, -23.5339021 ], [ -47.4621974, -23.5331187 ], [ -47.4616846, -23.5309683 ], [ -47.4564545, -23.5298866 ], [ -47.4522772, -23.5314453 ], [ -47.4480937, -23.5283047 ], [ -47.4487987, -23.5262614 ], [ -47.4435985, -23.5217868 ], [ -47.4428051, -23.5220999 ], [ -47.4417498, -23.524896 ] ] ] ] } }
]
}
