{
"type": "FeatureCollection",
"name": "ER_REGIAO_Capital Leste II_Vila Curuçá",
"crs": { "type": "name", "properties": { "name": "urn:ogc:def:crs:EPSG::4674" } },
"xy_coordinate_resolution": 1e-15,
"features": [
{ "type": "Feature", "properties": { "fid": 918, "NM_REGIAO": "Sudeste", "NM_UF": "São Paulo", "NM_MUN": "São Paulo", "NM_DIST": "Vila Curuçá", "CD_SUBDIST": "35503088400", "ER_REGIAO": "Capital Leste II_Vila Curuçá", "ER_REGIAO_CIDADE": "Capital Leste II_Vila Curuçá" }, "geometry": { "type": "MultiPolygon", "coordinates": [ [ [ [ -46.399262, -23.519031 ], [ -46.397024, -23.525286 ], [ -46.397439, -23.526712 ], [ -46.398016, -23.525969 ], [ -46.406252, -23.529057 ], [ -46.412926, -23.524638 ], [ -46.418254, -23.52361 ], [ -46.419256, -23.520209 ], [ -46.4218002, -23.5214539 ], [ -46.426123, -23.519491 ], [ -46.428987, -23.519468 ], [ -46.430008, -23.520631 ], [ -46.430555, -23.524196 ], [ -46.430583, -23.518537 ], [ -46.429725, -23.516689 ], [ -46.432319, -23.509471 ], [ -46.429245, -23.504163 ], [ -46.428088, -23.498615 ], [ -46.429857, -23.493583 ], [ -46.435119, -23.492195 ], [ -46.435851, -23.491197 ], [ -46.405512, -23.494139 ], [ -46.407496, -23.500225 ], [ -46.403584, -23.510103 ], [ -46.401355, -23.511897 ], [ -46.402212, -23.515881 ], [ -46.399262, -23.519031 ] ] ] ] } }
]
}
