{
"type": "FeatureCollection",
"name": "ER_REGIAO_Natividade da Serra_Natividade da Serra",
"crs": { "type": "name", "properties": { "name": "urn:ogc:def:crs:EPSG::4674" } },
"xy_coordinate_resolution": 1e-15,
"features": [
{ "type": "Feature", "properties": { "fid": 541, "NM_REGIAO": "Sudeste", "NM_UF": "São Paulo", "NM_MUN": "Natividade da Serra", "NM_DIST": "Natividade da Serra", "CD_SUBDIST": "35323060500", "ER_REGIAO": "Natividade da Serra_Natividade da Serra", "ER_REGIAO_CIDADE": "Natividade da Serra_Natividade da Serra_São José dos Campos" }, "geometry": { "type": "MultiPolygon", "coordinates": [ [ [ [ -45.549430199999961, -23.396017 ], [ -45.549778299999957, -23.390692399999978 ], [ -45.547563699999955, -23.384635299999957 ], [ -45.545510599999943, -23.383612 ], [ -45.539081599999975, -23.3756 ], [ -45.537565499999971, -23.372648099999935 ], [ -45.538058499999977, -23.370131199999946 ], [ -45.537006399999939, -23.367538499999966 ], [ -45.538523299999952, -23.365894699999956 ], [ -45.541438899999946, -23.368288 ], [ -45.545217699999966, -23.36927019999996 ], [ -45.549291899999957, -23.372197 ], [ -45.553783899999985, -23.37201639999995 ], [ -45.555402199999946, -23.373941199999933 ], [ -45.55719739999995, -23.374413699999934 ], [ -45.560668499999963, -23.372650199999953 ], [ -45.563732699999946, -23.372228 ], [ -45.564918899999952, -23.369650199999967 ], [ -45.567804199999955, -23.371111199999973 ], [ -45.571008499999948, -23.370319 ], [ -45.576292699999954, -23.36629389999996 ], [ -45.577503899999954, -23.363964599999974 ], [ -45.576581399999952, -23.358983199999955 ], [ -45.577605299999959, -23.356807099999969 ], [ -45.577120399999956, -23.353833399999928 ], [ -45.575218, -23.351368399999956 ], [ -45.576843699999984, -23.348168599999951 ], [ -45.575111699999979, -23.345365899999933 ], [ -45.575445499999944, -23.343366199999934 ], [ -45.574638399999969, -23.342348 ], [ -45.570786299999952, -23.342218599999967 ], [ -45.57006279999996, -23.343552099999954 ], [ -45.567920299999969, -23.344634199999973 ], [ -45.564570699999933, -23.344195299999967 ], [ -45.564177199999961, -23.341542899999979 ], [ -45.565619899999945, -23.341438099999948 ], [ -45.566010799999958, -23.338910899999973 ], [ -45.567795499999932, -23.336230599999965 ], [ -45.566522299999974, -23.335135499999978 ], [ -45.567811799999959, -23.334203199999934 ], [ -45.566799, -23.332801199999949 ], [ -45.56351479999995, -23.33146249999993 ], [ -45.561191899999983, -23.333888199999933 ], [ -45.556425499999932, -23.332738 ], [ -45.550820399999964, -23.338342499999953 ], [ -45.54893809999993, -23.339043 ], [ -45.54015759999993, -23.334346299999936 ], [ -45.534139699999969, -23.326823799999943 ], [ -45.532588399999952, -23.327651199999934 ], [ -45.530255199999942, -23.330782899999974 ], [ -45.527615499999968, -23.330706699999951 ], [ -45.527646399999981, -23.332767799999942 ], [ -45.525625699999978, -23.334055599999942 ], [ -45.519053799999938, -23.333571099999972 ], [ -45.516847399999961, -23.331360899999936 ], [ -45.519410899999968, -23.329105799999979 ], [ -45.518687599999964, -23.326570299999958 ], [ -45.513528399999984, -23.325291299999947 ], [ -45.512785799999961, -23.324176 ], [ -45.513735099999963, -23.322411399999964 ], [ -45.512883599999952, -23.317840099999955 ], [ -45.508871499999941, -23.315429799999947 ], [ -45.507525899999962, -23.318183099999942 ], [ -45.50854929999997, -23.321291299999928 ], [ -45.503631199999973, -23.324417899999958 ], [ -45.502128899999946, -23.326785299999983 ], [ -45.496568799999977, -23.325712799999962 ], [ -45.494992799999977, -23.32088559999994 ], [ -45.495732099999941, -23.317892 ], [ -45.494345299999964, -23.316028699999947 ], [ -45.492661899999973, -23.315965 ], [ -45.490399, -23.317637199999979 ], [ -45.48656, -23.316046799999981 ], [ -45.482395299999951, -23.316541099999938 ], [ -45.479532499999948, -23.315718199999935 ], [ -45.47578649999997, -23.319039699999962 ], [ -45.471802299999979, -23.325925299999938 ], [ -45.467473, -23.329185399999972 ], [ -45.465298599999983, -23.329671 ], [ -45.461654, -23.325866499999961 ], [ -45.463803799999937, -23.323798899999929 ], [ -45.463613899999984, -23.321848599999953 ], [ -45.466900899999985, -23.318573499999957 ], [ -45.46689559999993, -23.316722 ], [ -45.467818, -23.31535329999997 ], [ -45.467506299999968, -23.313728 ], [ -45.468372599999952, -23.312561399999936 ], [ -45.467034099999978, -23.307361799999967 ], [ -45.468076899999971, -23.30649509999995 ], [ -45.467963899999972, -23.305038299999978 ], [ -45.465167799999961, -23.303913299999977 ], [ -45.463232799999957, -23.305618 ], [ -45.456860899999981, -23.304393 ], [ -45.457255499999974, -23.306251199999963 ], [ -45.455063699999982, -23.30771249999998 ], [ -45.452070399999968, -23.312496 ], [ -45.449524599999961, -23.312441699999965 ], [ -45.449159499999951, -23.311146 ], [ -45.450499599999944, -23.309467599999948 ], [ -45.451385099999982, -23.304841599999975 ], [ -45.452926599999955, -23.303273499999932 ], [ -45.452726299999938, -23.299599599999965 ], [ -45.453374199999985, -23.299256499999956 ], [ -45.455090699999971, -23.300308899999948 ], [ -45.455508499999951, -23.298928299999943 ], [ -45.45376349999998, -23.296934299999975 ], [ -45.444324799999947, -23.292519899999945 ], [ -45.440434499999981, -23.296849599999973 ], [ -45.439453299999968, -23.303123399999947 ], [ -45.436880899999949, -23.305002899999977 ], [ -45.436180699999966, -23.307447 ], [ -45.433730399999945, -23.307401199999958 ], [ -45.431267699999978, -23.305150399999945 ], [ -45.43194109999996, -23.301786499999935 ], [ -45.43115419999998, -23.30056559999997 ], [ -45.432060499999977, -23.298722299999952 ], [ -45.430250599999965, -23.295902099999978 ], [ -45.433396499999958, -23.294207899999947 ], [ -45.433200699999929, -23.293357699999945 ], [ -45.430046699999934, -23.293796099999952 ], [ -45.428006399999958, -23.292818199999942 ], [ -45.426140399999952, -23.293342499999937 ], [ -45.422041899999954, -23.291877499999941 ], [ -45.420979199999977, -23.290167699999927 ], [ -45.417487899999969, -23.289264199999934 ], [ -45.416514599999971, -23.287656799999979 ], [ -45.413923699999941, -23.28814159999996 ], [ -45.409867899999938, -23.287109699999974 ], [ -45.409380699999986, -23.284877299999948 ], [ -45.411131799999964, -23.284795899999949 ], [ -45.412833199999966, -23.283529899999962 ], [ -45.411584299999959, -23.280520599999932 ], [ -45.409386, -23.280113599999936 ], [ -45.40619449999997, -23.281090799999959 ], [ -45.403757699999971, -23.280571399999928 ], [ -45.401470099999983, -23.277957199999946 ], [ -45.398756799999944, -23.276990799999965 ], [ -45.396735199999966, -23.277348599999982 ], [ -45.39276, -23.279781799999967 ], [ -45.392484899999943, -23.283530799999937 ], [ -45.391203499999961, -23.284840799999927 ], [ -45.389383299999963, -23.28579179999997 ], [ -45.387304099999938, -23.285116899999935 ], [ -45.386146699999983, -23.286642399999948 ], [ -45.380148099999985, -23.289481099999932 ], [ -45.373073099999942, -23.301799699999947 ], [ -45.370077599999945, -23.299897299999941 ], [ -45.366227499999979, -23.301862399999948 ], [ -45.36462389999997, -23.299157899999955 ], [ -45.362872599999946, -23.298486199999957 ], [ -45.362235, -23.29985709999994 ], [ -45.360252399999979, -23.300526399999967 ], [ -45.357084, -23.300320199999931 ], [ -45.355486299999939, -23.301471 ], [ -45.34615539999993, -23.303601699999945 ], [ -45.344879, -23.301819 ], [ -45.34273879999995, -23.301359599999955 ], [ -45.339243299999964, -23.29809 ], [ -45.326143099999967, -23.292722699999956 ], [ -45.323349499999949, -23.292568599999981 ], [ -45.320663399999944, -23.29629929999993 ], [ -45.323359599999947, -23.297135299999979 ], [ -45.324105199999963, -23.300681599999962 ], [ -45.326933899999972, -23.30222 ], [ -45.332685499999968, -23.315733199999954 ], [ -45.335457099999985, -23.315511499999957 ], [ -45.337441799999965, -23.318071399999951 ], [ -45.339894199999947, -23.31960429999998 ], [ -45.341387199999986, -23.322181099999966 ], [ -45.341505299999938, -23.324947799999961 ], [ -45.335223699999972, -23.323463899999979 ], [ -45.329222699999946, -23.326140399999929 ], [ -45.314935399999968, -23.325945299999944 ], [ -45.312607899999932, -23.330388 ], [ -45.31310579999996, -23.333058899999969 ], [ -45.305591699999979, -23.334355799999969 ], [ -45.304490099999953, -23.33378179999994 ], [ -45.305092, -23.330861399999947 ], [ -45.303421799999967, -23.327831199999935 ], [ -45.295955, -23.322664299999929 ], [ -45.292865199999937, -23.321715599999948 ], [ -45.283991399999934, -23.322512 ], [ -45.281165499999986, -23.320098799999982 ], [ -45.273779499999932, -23.318738099999962 ], [ -45.269961099999932, -23.319875399999944 ], [ -45.265987399999972, -23.319188299999951 ], [ -45.264482699999974, -23.31999559999997 ], [ -45.264364699999931, -23.324240299999929 ], [ -45.265500599999939, -23.328573199999937 ], [ -45.25856639999995, -23.327634399999965 ], [ -45.254680399999984, -23.328763899999956 ], [ -45.258762899999965, -23.33644959999998 ], [ -45.259146899999962, -23.340103099999965 ], [ -45.264063799999974, -23.346759199999951 ], [ -45.263174699999979, -23.348237199999971 ], [ -45.259418699999969, -23.350445299999933 ], [ -45.257042899999931, -23.355490299999929 ], [ -45.25840089999997, -23.358220499999959 ], [ -45.258502799999974, -23.364156 ], [ -45.261237499999936, -23.367034099999955 ], [ -45.261309199999971, -23.369702099999927 ], [ -45.262257, -23.370189 ], [ -45.264561799999967, -23.369296299999974 ], [ -45.266327699999977, -23.366368199999954 ], [ -45.268948799999976, -23.369961899999964 ], [ -45.273314499999969, -23.36694 ], [ -45.282557699999984, -23.365701399999978 ], [ -45.294192399999986, -23.370479499999931 ], [ -45.295382899999936, -23.373220099999969 ], [ -45.294764199999975, -23.379554299999938 ], [ -45.297086199999967, -23.383492299999943 ], [ -45.297189399999979, -23.387315099999967 ], [ -45.29922629999993, -23.396107099999938 ], [ -45.298344499999985, -23.39786 ], [ -45.295791099999974, -23.399650399999928 ], [ -45.29583839999998, -23.401073799999949 ], [ -45.29725179999997, -23.401906099999962 ], [ -45.299752299999966, -23.401291599999979 ], [ -45.311408799999981, -23.402286599999968 ], [ -45.318704799999978, -23.405833099999938 ], [ -45.322116299999948, -23.41122409999997 ], [ -45.323624699999982, -23.415073399999983 ], [ -45.323453499999971, -23.416619199999957 ], [ -45.319398699999965, -23.418180399999983 ], [ -45.317951099999959, -23.424408399999948 ], [ -45.311021499999981, -23.425780299999929 ], [ -45.310019699999941, -23.428458299999932 ], [ -45.31097589999996, -23.431399299999953 ], [ -45.317620899999952, -23.437858499999948 ], [ -45.320975, -23.436646799999949 ], [ -45.323080199999936, -23.434823199999983 ], [ -45.326777799999945, -23.437823 ], [ -45.332405799999947, -23.434931899999981 ], [ -45.336965599999985, -23.434330899999964 ], [ -45.34660139999994, -23.436480499999959 ], [ -45.354058899999984, -23.440981 ], [ -45.361666799999966, -23.440737499999955 ], [ -45.365011799999934, -23.448657399999945 ], [ -45.369672199999968, -23.451017599999943 ], [ -45.369523499999957, -23.451850799999931 ], [ -45.367604399999948, -23.452799099999936 ], [ -45.367572, -23.453757799999948 ], [ -45.373894899999982, -23.457759099999976 ], [ -45.372720799999968, -23.465418799999952 ], [ -45.375236299999983, -23.470084899999961 ], [ -45.381545699999947, -23.473525499999937 ], [ -45.387274399999967, -23.474380499999938 ], [ -45.388721299999986, -23.47735739999996 ], [ -45.391932099999963, -23.478550699999971 ], [ -45.393936199999985, -23.482715 ], [ -45.39694819999994, -23.479541499999982 ], [ -45.399094899999966, -23.479255799999976 ], [ -45.402249899999958, -23.482494499999973 ], [ -45.404825699999947, -23.482891599999959 ], [ -45.406840899999963, -23.484920099999954 ], [ -45.408154799999977, -23.485163099999966 ], [ -45.408732499999985, -23.49019439999995 ], [ -45.410151, -23.491751299999976 ], [ -45.410751, -23.497612699999934 ], [ -45.416018899999983, -23.498858499999983 ], [ -45.417235499999947, -23.502578899999946 ], [ -45.421277, -23.504675099999929 ], [ -45.424104499999942, -23.509115299999962 ], [ -45.427875699999959, -23.510411699999963 ], [ -45.439378899999951, -23.517058 ], [ -45.440948799999944, -23.519160699999929 ], [ -45.442854199999942, -23.525057699999934 ], [ -45.446886199999938, -23.530659299999968 ], [ -45.444168899999966, -23.533082 ], [ -45.441959499999939, -23.53322049999997 ], [ -45.439145599999961, -23.529989 ], [ -45.435766, -23.527326099999982 ], [ -45.431743299999937, -23.52550169999995 ], [ -45.424802499999942, -23.519133499999953 ], [ -45.416618099999937, -23.520102 ], [ -45.411614199999974, -23.517088299999955 ], [ -45.409410099999945, -23.51671239999996 ], [ -45.405901599999936, -23.518013099999962 ], [ -45.400482899999986, -23.521791499999949 ], [ -45.393276899999933, -23.523001299999976 ], [ -45.385207899999955, -23.523114199999952 ], [ -45.382441, -23.521327199999973 ], [ -45.380619199999956, -23.517980199999954 ], [ -45.371341199999961, -23.517849599999977 ], [ -45.365819899999963, -23.513871799999947 ], [ -45.361396099999979, -23.512093799999946 ], [ -45.357690199999979, -23.513481099999979 ], [ -45.354471799999942, -23.513198199999977 ], [ -45.353521299999954, -23.513779299999953 ], [ -45.356400899999983, -23.518498099999931 ], [ -45.353185399999973, -23.520212399999934 ], [ -45.352489399999968, -23.525078399999927 ], [ -45.350232199999937, -23.527623 ], [ -45.351369, -23.529206 ], [ -45.353769399999976, -23.528821299999947 ], [ -45.355307299999936, -23.529616499999975 ], [ -45.355391699999984, -23.532254299999977 ], [ -45.354245599999956, -23.536221099999977 ], [ -45.355820699999981, -23.538672199999951 ], [ -45.355629199999953, -23.539881899999955 ], [ -45.362642, -23.541719599999965 ], [ -45.36405259999998, -23.544675 ], [ -45.366365799999983, -23.541936199999952 ], [ -45.371099899999933, -23.542173299999945 ], [ -45.371945899999957, -23.543258199999968 ], [ -45.372117299999957, -23.548083499999962 ], [ -45.376595799999961, -23.548583299999962 ], [ -45.377884299999948, -23.550999799999943 ], [ -45.380816, -23.551897399999973 ], [ -45.384392399999967, -23.555334699999946 ], [ -45.390137399999958, -23.555738 ], [ -45.393353599999955, -23.556833899999958 ], [ -45.397807299999954, -23.556102499999952 ], [ -45.402238399999931, -23.558108899999979 ], [ -45.409186899999952, -23.557848099999944 ], [ -45.412982599999964, -23.560047 ], [ -45.415631099999985, -23.559625799999935 ], [ -45.418361899999979, -23.556910599999981 ], [ -45.421299699999963, -23.556984499999942 ], [ -45.420948299999964, -23.554751099999976 ], [ -45.423544899999968, -23.551939799999957 ], [ -45.423600799999974, -23.549523499999964 ], [ -45.424406799999986, -23.548390199999972 ], [ -45.425798699999973, -23.548620399999947 ], [ -45.430794899999967, -23.552854 ], [ -45.433632699999976, -23.552415899999971 ], [ -45.436877199999969, -23.553426399999978 ], [ -45.439764499999967, -23.553129699999943 ], [ -45.441299299999969, -23.555352399999947 ], [ -45.443908299999975, -23.556060199999934 ], [ -45.444644199999971, -23.558678399999962 ], [ -45.445976799999983, -23.56008989999998 ], [ -45.446489499999984, -23.563437799999974 ], [ -45.445947199999978, -23.568817899999942 ], [ -45.450852299999951, -23.569546099999968 ], [ -45.45107459999997, -23.572939199999951 ], [ -45.455171299999961, -23.577700499999935 ], [ -45.457261299999971, -23.577102899999943 ], [ -45.457223599999963, -23.574399099999937 ], [ -45.454954699999973, -23.572111399999983 ], [ -45.454379, -23.569441899999958 ], [ -45.451973499999951, -23.568168199999946 ], [ -45.450084499999946, -23.564873199999965 ], [ -45.451468599999941, -23.563781099999972 ], [ -45.451345499999945, -23.561635399999943 ], [ -45.453387799999973, -23.560771799999941 ], [ -45.456391899999971, -23.561952699999949 ], [ -45.457095599999946, -23.562869199999966 ], [ -45.456759, -23.563698599999952 ], [ -45.459257, -23.564756799999941 ], [ -45.465965, -23.561467799999946 ], [ -45.474593899999945, -23.561499899999944 ], [ -45.482991599999934, -23.560254699999973 ], [ -45.484919799999943, -23.556187 ], [ -45.482941699999969, -23.55116959999998 ], [ -45.488104299999975, -23.540172699999971 ], [ -45.490706199999977, -23.538975099999959 ], [ -45.498413299999982, -23.539324799999974 ], [ -45.504203299999972, -23.533989899999938 ], [ -45.50397339999995, -23.531614299999944 ], [ -45.500783099999978, -23.527142599999934 ], [ -45.497888499999931, -23.519301199999973 ], [ -45.498417099999983, -23.516467499999976 ], [ -45.499937299999942, -23.513936599999965 ], [ -45.499088799999981, -23.509037099999944 ], [ -45.500713299999973, -23.507516399999929 ], [ -45.504828699999962, -23.506470099999945 ], [ -45.506291099999942, -23.502733299999932 ], [ -45.507562, -23.501991 ], [ -45.507527399999958, -23.501068799999928 ], [ -45.505828699999938, -23.499656899999934 ], [ -45.506088199999965, -23.498767599999951 ], [ -45.507575699999961, -23.498497599999951 ], [ -45.508697799999936, -23.496505099999979 ], [ -45.507965, -23.494243899999958 ], [ -45.508604599999956, -23.489665899999977 ], [ -45.509400599999935, -23.490141699999981 ], [ -45.509580299999982, -23.484041299999944 ], [ -45.51147949999995, -23.48378729999996 ], [ -45.512875199999939, -23.482551499999943 ], [ -45.515927599999941, -23.485340399999927 ], [ -45.517140099999949, -23.483445899999936 ], [ -45.519589, -23.48286289999993 ], [ -45.519121899999959, -23.48171119999995 ], [ -45.520162099999936, -23.481592499999977 ], [ -45.520295, -23.480351299999938 ], [ -45.522969499999931, -23.478319599999963 ], [ -45.521713099999943, -23.476952399999959 ], [ -45.521531899999957, -23.469911099999933 ], [ -45.521916399999952, -23.468584 ], [ -45.523108199999967, -23.469430599999953 ], [ -45.522937799999966, -23.46835939999994 ], [ -45.523703699999942, -23.467854899999963 ], [ -45.524078899999949, -23.468819799999949 ], [ -45.524730699999964, -23.468230199999937 ], [ -45.52478919999993, -23.462609799999939 ], [ -45.52233229999996, -23.460366799999974 ], [ -45.521875, -23.458665399999973 ], [ -45.52315509999994, -23.458671699999968 ], [ -45.523594899999978, -23.457579599999974 ], [ -45.525048199999958, -23.457650799999954 ], [ -45.526669099999935, -23.456122199999982 ], [ -45.527133399999968, -23.456784399999947 ], [ -45.528460799999948, -23.455245499999933 ], [ -45.530485299999953, -23.455215599999974 ], [ -45.53076, -23.454571699999974 ], [ -45.532142699999952, -23.455268099999955 ], [ -45.534365799999932, -23.455000599999948 ], [ -45.53457949999995, -23.454176799999971 ], [ -45.537361, -23.452906899999959 ], [ -45.538330299999984, -23.452881099999956 ], [ -45.538881299999957, -23.454393 ], [ -45.539268199999981, -23.453725599999927 ], [ -45.541676099999961, -23.454260099999942 ], [ -45.544469499999934, -23.453385 ], [ -45.545010299999944, -23.454124799999931 ], [ -45.546376899999984, -23.454063799999972 ], [ -45.546723199999974, -23.454947299999958 ], [ -45.550006, -23.452845499999967 ], [ -45.552469599999938, -23.452831699999933 ], [ -45.553303, -23.452095 ], [ -45.554224899999952, -23.452717199999938 ], [ -45.553652399999976, -23.45164589999996 ], [ -45.55604029999995, -23.449857899999927 ], [ -45.55572049999995, -23.449218799999983 ], [ -45.556992799999932, -23.447047299999952 ], [ -45.559282699999983, -23.446405699999957 ], [ -45.558397099999979, -23.445692299999962 ], [ -45.559331099999952, -23.445158899999967 ], [ -45.559472099999937, -23.443997799999977 ], [ -45.56191089999993, -23.442605899999933 ], [ -45.560192699999959, -23.440226499999937 ], [ -45.56212979999998, -23.437697199999945 ], [ -45.560839399999963, -23.435112199999935 ], [ -45.563404399999968, -23.432493799999975 ], [ -45.563797299999976, -23.426775299999974 ], [ -45.565795399999956, -23.424604899999963 ], [ -45.567269, -23.424506399999927 ], [ -45.568826699999931, -23.423275 ], [ -45.56996659999993, -23.419359399999962 ], [ -45.56617719999997, -23.417705399999932 ], [ -45.564523, -23.420187299999952 ], [ -45.563440599999979, -23.420071 ], [ -45.562247699999944, -23.413474299999962 ], [ -45.565878599999962, -23.411176299999966 ], [ -45.56690569999995, -23.40848879999993 ], [ -45.56490649999995, -23.406475399999977 ], [ -45.558150799999964, -23.405898499999978 ], [ -45.556825699999933, -23.40284749999995 ], [ -45.553326699999957, -23.401503799999944 ], [ -45.552957599999957, -23.39832389999998 ], [ -45.549430199999961, -23.396017 ] ] ] ] } }
]
}
