{
"type": "FeatureCollection",
"name": "ER_REGIAO_Vinhedo",
"crs": { "type": "name", "properties": { "name": "urn:ogc:def:crs:EPSG::4674" } },
"xy_coordinate_resolution": 1e-15,
"features": [
{ "type": "Feature", "properties": { "fid": 1032, "NM_REGIAO": "Sudeste", "NM_UF": "São Paulo", "NM_MUN": "Vinhedo", "NM_DIST": "Vinhedo", "CD_SUBDIST": "35567010500", "ER_REGIAO": "Vinhedo", "ER_REGIAO_CIDADE": "Vinhedo_Campinas" }, "geometry": { "type": "MultiPolygon", "coordinates": [ [ [ [ -46.984315599999945, -23.080879699999969 ], [ -46.986669799999959, -23.082210699999962 ], [ -46.989256299999965, -23.081672899999944 ], [ -46.989582799999937, -23.084612799999945 ], [ -46.99090579999995, -23.087116 ], [ -46.994344599999977, -23.086763799999972 ], [ -46.995258799999931, -23.090545499999962 ], [ -46.998201599999959, -23.09184149999993 ], [ -46.998380099999963, -23.093480399999976 ], [ -46.99709219999994, -23.094789099999957 ], [ -46.999396299999944, -23.095606199999963 ], [ -46.998591099999942, -23.096862499999929 ], [ -46.999098, -23.097957599999972 ], [ -46.996384899999953, -23.101038699999947 ], [ -46.996118599999932, -23.104624 ], [ -46.994928899999934, -23.104692399999976 ], [ -46.992939099999944, -23.107871899999964 ], [ -46.994634499999961, -23.108567899999969 ], [ -46.994353599999954, -23.109771399999943 ], [ -46.995664899999952, -23.111441699999943 ], [ -46.994734699999981, -23.114881899999943 ], [ -46.995391499999982, -23.115463699999964 ], [ -47.002867399999957, -23.108659799999941 ], [ -47.004963099999941, -23.102113399999951 ], [ -47.006959299999949, -23.10186669999996 ], [ -47.008426899999961, -23.100133099999937 ], [ -47.012322099999949, -23.099127099999976 ], [ -47.01448449999998, -23.09691179999993 ], [ -47.016294799999969, -23.09338379999997 ], [ -47.016001299999971, -23.086598399999957 ], [ -47.018393699999933, -23.084951799999942 ], [ -47.019686499999978, -23.085704 ], [ -47.022091099999955, -23.083974299999966 ], [ -47.023984399999961, -23.083847299999945 ], [ -47.024467299999969, -23.079755 ], [ -47.027225899999962, -23.076901799999973 ], [ -47.029466299999967, -23.07592029999995 ], [ -47.027723799999933, -23.071364699999947 ], [ -47.03043189999994, -23.068819899999937 ], [ -47.034737, -23.068868499999951 ], [ -47.035161099999982, -23.066882899999939 ], [ -47.038051, -23.065560499999947 ], [ -47.037152499999934, -23.060036699999955 ], [ -47.037742099999946, -23.057042299999978 ], [ -47.037293799999986, -23.053826299999969 ], [ -47.038724399999978, -23.052003299999967 ], [ -47.041577, -23.050582099999929 ], [ -47.036107699999945, -23.044168299999967 ], [ -47.03208879999994, -23.04458969999996 ], [ -47.032524599999931, -23.041129499999954 ], [ -47.031138899999974, -23.03911759999994 ], [ -47.033239299999934, -23.036087 ], [ -47.033515, -23.034306 ], [ -47.029416899999944, -23.034903499999928 ], [ -47.028044199999954, -23.033891099999948 ], [ -47.02724139999998, -23.03169639999993 ], [ -47.02384939999996, -23.029729499999974 ], [ -47.019441499999971, -23.032804299999952 ], [ -47.01858029999994, -23.029987899999981 ], [ -47.015313799999944, -23.029710699999953 ], [ -47.012934, -23.027552699999944 ], [ -47.011862599999972, -23.022328699999946 ], [ -47.010305199999948, -23.020077399999934 ], [ -47.007724499999938, -23.019633499999941 ], [ -47.004282499999931, -23.021370499999932 ], [ -47.002264299999979, -23.020532599999967 ], [ -47.001188599999978, -23.018524299999967 ], [ -47.001269299999933, -23.015989299999944 ], [ -47.003951599999937, -23.009892699999966 ], [ -47.001158099999941, -23.006114799999978 ], [ -46.956976099999963, -23.006667799999946 ], [ -46.955115099999944, -23.009449899999936 ], [ -46.954641899999956, -23.01183629999997 ], [ -46.952985499999954, -23.01271689999993 ], [ -46.951100199999985, -23.016184199999941 ], [ -46.949294599999973, -23.015732299999968 ], [ -46.945124599999986, -23.017501299999935 ], [ -46.944275599999969, -23.015863899999943 ], [ -46.942809099999977, -23.015519599999948 ], [ -46.941138399999943, -23.017567099999951 ], [ -46.938278099999934, -23.018306099999961 ], [ -46.929451699999959, -23.019579699999952 ], [ -46.927817199999936, -23.018247799999983 ], [ -46.924381099999948, -23.019835799999953 ], [ -46.917288699999972, -23.01782019999996 ], [ -46.914861199999962, -23.016156499999965 ], [ -46.910475499999961, -23.017485499999964 ], [ -46.912308899999971, -23.020662299999969 ], [ -46.911228599999959, -23.025328699999932 ], [ -46.907327699999939, -23.026477899999975 ], [ -46.906462699999963, -23.027547699999957 ], [ -46.905189, -23.031133 ], [ -46.905077899999981, -23.03437589999993 ], [ -46.903542799999968, -23.035778599999958 ], [ -46.903557599999942, -23.036760099999981 ], [ -46.90514109999998, -23.038669299999981 ], [ -46.910882899999933, -23.039206299999933 ], [ -46.915993699999945, -23.045748199999935 ], [ -46.917468, -23.04474 ], [ -46.918995699999982, -23.046446299999957 ], [ -46.920109199999956, -23.046371099999931 ], [ -46.921389799999986, -23.050789899999927 ], [ -46.921189499999969, -23.052821499999936 ], [ -46.92215559999994, -23.054241 ], [ -46.926414099999931, -23.055308 ], [ -46.930483599999945, -23.055279199999973 ], [ -46.933317799999941, -23.056618599999979 ], [ -46.935162599999956, -23.058829 ], [ -46.936746399999947, -23.062790099999972 ], [ -46.939317899999935, -23.063568699999962 ], [ -46.939499, -23.064834399999938 ], [ -46.94291149999998, -23.066833899999949 ], [ -46.945636799999932, -23.065161299999943 ], [ -46.947415899999953, -23.065226799999948 ], [ -46.94901079999994, -23.063595299999974 ], [ -46.952660199999968, -23.064255599999967 ], [ -46.953866599999969, -23.06370359999994 ], [ -46.954228199999932, -23.06545959999994 ], [ -46.956200799999976, -23.065607199999931 ], [ -46.959434499999986, -23.068096499999967 ], [ -46.964103699999953, -23.064391399999977 ], [ -46.966245199999946, -23.063961699999936 ], [ -46.967401199999983, -23.065074099999947 ], [ -46.969640899999945, -23.064193699999976 ], [ -46.970366099999978, -23.061412 ], [ -46.973431799999958, -23.064801299999942 ], [ -46.977212, -23.066287699999975 ], [ -46.980543199999943, -23.071903199999952 ], [ -46.98002589999993, -23.073374799999954 ], [ -46.98128939999998, -23.07415 ], [ -46.98114, -23.077473199999929 ], [ -46.983588399999974, -23.078289299999938 ], [ -46.984315599999945, -23.080879699999969 ] ] ] ] } }
]
}
