{
"type": "FeatureCollection",
"name": "ER_REGIAO_Martinópolis_Teçaindá",
"crs": { "type": "name", "properties": { "name": "urn:ogc:def:crs:EPSG::4674" } },
"xy_coordinate_resolution": 1e-15,
"features": [
{ "type": "Feature", "properties": { "fid": 481, "NM_REGIAO": "Sudeste", "NM_UF": "São Paulo", "NM_MUN": "Martinópolis", "NM_DIST": "Teçaindá", "CD_SUBDIST": "35292031500", "ER_REGIAO": "Martinópolis_Teçaindá", "ER_REGIAO_CIDADE": "Martinópolis_Teçaindá_Presidente Prudente" }, "geometry": { "type": "MultiPolygon", "coordinates": [ [ [ [ -51.1113274, -21.8888454 ], [ -51.1040091, -21.889302 ], [ -51.1012687, -21.8873665 ], [ -51.0958222, -21.8865909 ], [ -51.0947932, -21.8837555 ], [ -51.08942, -21.8801936 ], [ -51.0862113, -21.8818529 ], [ -51.0827234, -21.8817649 ], [ -51.0806458, -21.8829667 ], [ -51.0715336, -21.8844363 ], [ -51.0667718, -21.8829404 ], [ -51.0643223, -21.8841597 ], [ -51.0631356, -21.886367 ], [ -51.0597659, -21.8875965 ], [ -51.0583971, -21.8894743 ], [ -51.0524349, -21.8895451 ], [ -51.0509619, -21.8922828 ], [ -51.0491968, -21.8933218 ], [ -51.0493584, -21.8963974 ], [ -51.0480323, -21.8987345 ], [ -51.0456358, -21.8997637 ], [ -51.0440099, -21.9015715 ], [ -51.0400617, -21.9025711 ], [ -51.037337, -21.9052743 ], [ -51.0359331, -21.909632 ], [ -51.0364689, -21.9125877 ], [ -51.0351104, -21.9148447 ], [ -51.0364485, -21.9163423 ], [ -51.0371021, -21.9195676 ], [ -51.0404738, -21.9216538 ], [ -51.0427309, -21.9219919 ], [ -51.0426894, -21.9229713 ], [ -51.0441238, -21.9240095 ], [ -51.0435578, -21.9278841 ], [ -51.0451959, -21.9299008 ], [ -51.0449181, -21.9313587 ], [ -51.0467589, -21.9310686 ], [ -51.0476265, -21.9332253 ], [ -51.0446624, -21.9349537 ], [ -51.0441135, -21.9372313 ], [ -51.0470337, -21.9415498 ], [ -51.0512688, -21.9425609 ], [ -51.0525319, -21.9445281 ], [ -51.0521023, -21.9458531 ], [ -51.0550433, -21.9463791 ], [ -51.060063, -21.9456335 ], [ -51.0651821, -21.9474906 ], [ -51.071579, -21.9483063 ], [ -51.0741612, -21.9495677 ], [ -51.0772369, -21.952567 ], [ -51.0775765, -21.9567787 ], [ -51.0836584, -21.9618531 ], [ -51.081643, -21.9796629 ], [ -51.0847035, -21.9808663 ], [ -51.087315, -21.9847407 ], [ -51.0864, -21.9910761 ], [ -51.0896233, -21.9938211 ], [ -51.0926257, -22.0015595 ], [ -51.0876846, -22.0120394 ], [ -51.0892452, -22.0121075 ], [ -51.0908262, -22.0158991 ], [ -51.0926048, -22.0153937 ], [ -51.0973004, -22.0210394 ], [ -51.1023722, -22.0246375 ], [ -51.1071105, -22.0246975 ], [ -51.1157713, -22.0464503 ], [ -51.1135596, -22.0562548 ], [ -51.1128499, -22.0661542 ], [ -51.1168934, -22.069469 ], [ -51.1195125, -22.0701413 ], [ -51.1214, -22.0716051 ], [ -51.1220463, -22.0749896 ], [ -51.1252406, -22.0801931 ], [ -51.1256989, -22.0827338 ], [ -51.1269462, -22.083593 ], [ -51.1286857, -22.0830758 ], [ -51.1341543, -22.0782425 ], [ -51.1366995, -22.0769761 ], [ -51.1386816, -22.0727331 ], [ -51.1438137, -22.0684475 ], [ -51.1458335, -22.0644306 ], [ -51.1456768, -22.0610416 ], [ -51.1578975, -22.0539542 ], [ -51.1589755, -22.0545739 ], [ -51.1629372, -22.0526205 ], [ -51.1674611, -22.0522077 ], [ -51.1676986, -22.0507182 ], [ -51.1698835, -22.0482323 ], [ -51.1745245, -22.0471525 ], [ -51.1790852, -22.0387617 ], [ -51.1814062, -22.0388959 ], [ -51.1860631, -22.0360937 ], [ -51.1880979, -22.0344953 ], [ -51.1895359, -22.03147 ], [ -51.1912789, -22.0321566 ], [ -51.1918234, -22.0294421 ], [ -51.1943254, -22.0290275 ], [ -51.1943162, -22.0256488 ], [ -51.1953087, -22.0252563 ], [ -51.196235, -22.0224559 ], [ -51.1908384, -22.0113003 ], [ -51.187415, -22.0074358 ], [ -51.1804681, -22.0036604 ], [ -51.1720555, -22.004215 ], [ -51.1721528, -21.9947723 ], [ -51.1737784, -21.9916711 ], [ -51.1747773, -21.981781 ], [ -51.1801259, -21.9707702 ], [ -51.1814613, -21.9668004 ], [ -51.1811961, -21.9644768 ], [ -51.1834949, -21.9620008 ], [ -51.1850871, -21.9538992 ], [ -51.1843857, -21.9522827 ], [ -51.1790597, -21.9488013 ], [ -51.1765087, -21.9440421 ], [ -51.1769584, -21.9425602 ], [ -51.1730144, -21.9381126 ], [ -51.1717203, -21.9354581 ], [ -51.1719994, -21.9327959 ], [ -51.1693846, -21.9312475 ], [ -51.1662903, -21.9258281 ], [ -51.1667393, -21.9235988 ], [ -51.1648561, -21.9199313 ], [ -51.1648549, -21.9175928 ], [ -51.163274, -21.917164 ], [ -51.1615032, -21.9151764 ], [ -51.1636369, -21.9109085 ], [ -51.163023, -21.9089114 ], [ -51.1643747, -21.9065317 ], [ -51.1649872, -21.9009115 ], [ -51.1628155, -21.8993236 ], [ -51.162639, -21.8977676 ], [ -51.1605494, -21.8979803 ], [ -51.1608907, -21.8971238 ], [ -51.1596914, -21.895688 ], [ -51.1604364, -21.8945828 ], [ -51.1601292, -21.8933192 ], [ -51.1594506, -21.8919812 ], [ -51.1573747, -21.8912969 ], [ -51.1563677, -21.8892525 ], [ -51.1566792, -21.887832 ], [ -51.1550681, -21.8859581 ], [ -51.154936, -21.8849787 ], [ -51.1559764, -21.884238 ], [ -51.1554715, -21.8819145 ], [ -51.1525715, -21.8797496 ], [ -51.1515427, -21.8775557 ], [ -51.1529736, -21.8745033 ], [ -51.1519988, -21.8678186 ], [ -51.1548442, -21.8634094 ], [ -51.1513915, -21.861464 ], [ -51.1506135, -21.8558572 ], [ -51.1495302, -21.8548622 ], [ -51.1441416, -21.8533092 ], [ -51.1415858, -21.8535275 ], [ -51.1419477, -21.8561495 ], [ -51.1372071, -21.8595096 ], [ -51.1383727, -21.8617142 ], [ -51.1385634, -21.8642837 ], [ -51.1379594, -21.8671073 ], [ -51.1363363, -21.8689162 ], [ -51.1343947, -21.8701935 ], [ -51.125286, -21.871912 ], [ -51.123554, -21.8732114 ], [ -51.1205144, -21.8717558 ], [ -51.1191453, -21.8720364 ], [ -51.1172669, -21.8775299 ], [ -51.1183594, -21.8790469 ], [ -51.1184894, -21.881044 ], [ -51.1165453, -21.88484 ], [ -51.1113274, -21.8888454 ] ] ] ] } }
]
}
