{
"type": "FeatureCollection",
"name": "ER_REGIAO_Arco-Íris",
"crs": { "type": "name", "properties": { "name": "urn:ogc:def:crs:EPSG::4674" } },
"xy_coordinate_resolution": 1e-15,
"features": [
{ "type": "Feature", "properties": { "fid": 55, "NM_REGIAO": "Sudeste", "NM_UF": "São Paulo", "NM_MUN": "Arco-Íris", "NM_DIST": "Arco-Íris", "CD_SUBDIST": "35033560500", "ER_REGIAO": "Arco-Íris", "ER_REGIAO_CIDADE": "Arco-Íris_Araçatuba" }, "geometry": { "type": "MultiPolygon", "coordinates": [ [ [ [ -50.4257108, -21.6973062 ], [ -50.4228994, -21.7001981 ], [ -50.4243736, -21.7012119 ], [ -50.4225752, -21.7010814 ], [ -50.4210519, -21.7025891 ], [ -50.4210492, -21.7032615 ], [ -50.4224323, -21.703566 ], [ -50.4206468, -21.7041299 ], [ -50.4214229, -21.7056529 ], [ -50.4169142, -21.7045919 ], [ -50.4163401, -21.7060505 ], [ -50.4143143, -21.707309 ], [ -50.4134165, -21.7068965 ], [ -50.4146867, -21.7055955 ], [ -50.4143162, -21.7049262 ], [ -50.4123745, -21.7054237 ], [ -50.4114447, -21.7070942 ], [ -50.4099962, -21.7036318 ], [ -50.4099906, -21.7069428 ], [ -50.4042092, -21.712652 ], [ -50.4006149, -21.7139625 ], [ -50.399877, -21.7164814 ], [ -50.3969488, -21.7171505 ], [ -50.3965019, -21.715519 ], [ -50.3947875, -21.7158636 ], [ -50.394846, -21.7168359 ], [ -50.3908354, -21.7181953 ], [ -50.3911514, -21.7193221 ], [ -50.3878532, -21.718674 ], [ -50.3856446, -21.7193164 ], [ -50.3832489, -21.7179772 ], [ -50.3824704, -21.718961 ], [ -50.3795788, -21.7183436 ], [ -50.375054, -21.7210163 ], [ -50.375119, -21.7222591 ], [ -50.3719255, -21.7236081 ], [ -50.3701674, -21.7213998 ], [ -50.3689318, -21.7213147 ], [ -50.3683832, -21.7197704 ], [ -50.3653702, -21.720117 ], [ -50.3646981, -21.7217444 ], [ -50.3621777, -21.7221294 ], [ -50.3630594, -21.7243986 ], [ -50.3620764, -21.7255862 ], [ -50.3599341, -21.7253367 ], [ -50.3606922, -21.7237316 ], [ -50.3577086, -21.7191812 ], [ -50.3558661, -21.7201607 ], [ -50.3540882, -21.7189259 ], [ -50.3543102, -21.7182397 ], [ -50.3561324, -21.7183199 ], [ -50.3559372, -21.7164773 ], [ -50.355448, -21.7156714 ], [ -50.3544424, -21.7166761 ], [ -50.3545104, -21.7154558 ], [ -50.3530166, -21.7154207 ], [ -50.3535815, -21.7132667 ], [ -50.3523595, -21.7136713 ], [ -50.3522742, -21.7117633 ], [ -50.3512765, -21.7109992 ], [ -50.3505843, -21.7118663 ], [ -50.3487717, -21.7096665 ], [ -50.3476298, -21.7105863 ], [ -50.3434256, -21.710559 ], [ -50.3442667, -21.7121093 ], [ -50.3437094, -21.7135203 ], [ -50.3432844, -21.7123711 ], [ -50.3424253, -21.7125224 ], [ -50.3420732, -21.7155457 ], [ -50.3392321, -21.7142261 ], [ -50.3356905, -21.7155568 ], [ -50.335143, -21.7172576 ], [ -50.3323182, -21.7141107 ], [ -50.3323192, -21.7125095 ], [ -50.3303387, -21.7091545 ], [ -50.3295785, -21.7094949 ], [ -50.3297275, -21.7111035 ], [ -50.3281987, -21.7101764 ], [ -50.3267722, -21.7074517 ], [ -50.3259117, -21.7074993 ], [ -50.3264848, -21.708715 ], [ -50.3233427, -21.709253 ], [ -50.3212553, -21.7063986 ], [ -50.3212338, -21.7076337 ], [ -50.3171588, -21.7076462 ], [ -50.315676, -21.7086122 ], [ -50.3146025, -21.7106835 ], [ -50.3125992, -21.7109018 ], [ -50.3110508, -21.7132286 ], [ -50.3084773, -21.714515 ], [ -50.3060535, -21.718491 ], [ -50.3061464, -21.7196248 ], [ -50.3108509, -21.7252608 ], [ -50.3115999, -21.7275048 ], [ -50.317105, -21.7286506 ], [ -50.3191212, -21.7299263 ], [ -50.3228319, -21.7435197 ], [ -50.327638, -21.7511046 ], [ -50.3297683, -21.7529283 ], [ -50.3251591, -21.7625445 ], [ -50.3254215, -21.7657192 ], [ -50.3277631, -21.769921 ], [ -50.327211, -21.7756837 ], [ -50.3300502, -21.7815838 ], [ -50.3298571, -21.7863147 ], [ -50.3307286, -21.7898816 ], [ -50.3294357, -21.7934348 ], [ -50.3334699, -21.7952339 ], [ -50.3344655, -21.7964779 ], [ -50.3372133, -21.805836 ], [ -50.3415186, -21.8082507 ], [ -50.3444207, -21.8127083 ], [ -50.3452351, -21.8151485 ], [ -50.3448725, -21.8181885 ], [ -50.3456298, -21.8192594 ], [ -50.351652, -21.8229301 ], [ -50.3534545, -21.8230411 ], [ -50.3559631, -21.821824 ], [ -50.3582513, -21.8222757 ], [ -50.3624526, -21.8277618 ], [ -50.3681322, -21.826332 ], [ -50.3798735, -21.8254632 ], [ -50.3842159, -21.8236842 ], [ -50.3875919, -21.82047 ], [ -50.3882664, -21.8149558 ], [ -50.3991148, -21.8150075 ], [ -50.4030392, -21.8090696 ], [ -50.4153815, -21.8053244 ], [ -50.4218162, -21.8041254 ], [ -50.4257425, -21.8042896 ], [ -50.4281212, -21.8075994 ], [ -50.4283037, -21.8093682 ], [ -50.4310001, -21.8104068 ], [ -50.4324734, -21.8099441 ], [ -50.4349725, -21.811356 ], [ -50.4501512, -21.8230724 ], [ -50.460041, -21.8278127 ], [ -50.4615865, -21.8297613 ], [ -50.4665628, -21.8331686 ], [ -50.4681739, -21.8349734 ], [ -50.468917, -21.8387889 ], [ -50.472561, -21.8444971 ], [ -50.4726634, -21.8503307 ], [ -50.4819605, -21.8508077 ], [ -50.4868893, -21.851856 ], [ -50.4914697, -21.8514384 ], [ -50.495725, -21.8476128 ], [ -50.5029482, -21.8355805 ], [ -50.5032497, -21.8304704 ], [ -50.5070228, -21.8264556 ], [ -50.5130306, -21.8269477 ], [ -50.5178578, -21.825427 ], [ -50.5258892, -21.820714 ], [ -50.5315954, -21.8183914 ], [ -50.5343822, -21.8183262 ], [ -50.5359149, -21.8200666 ], [ -50.5399727, -21.8153922 ], [ -50.5392415, -21.8139753 ], [ -50.5374699, -21.8131851 ], [ -50.5368523, -21.8104312 ], [ -50.5382705, -21.8066891 ], [ -50.5344, -21.8038861 ], [ -50.5369249, -21.7992138 ], [ -50.5365916, -21.7982469 ], [ -50.5332169, -21.7962932 ], [ -50.5301585, -21.7913165 ], [ -50.5302569, -21.7900424 ], [ -50.5321886, -21.7879489 ], [ -50.530597, -21.7860459 ], [ -50.5313947, -21.7808757 ], [ -50.5296583, -21.7795234 ], [ -50.528408, -21.7756181 ], [ -50.5286243, -21.7721386 ], [ -50.526749, -21.7649164 ], [ -50.5282749, -21.7610287 ], [ -50.5273493, -21.7572582 ], [ -50.5250292, -21.7548601 ], [ -50.5208931, -21.7530245 ], [ -50.5214786, -21.7489151 ], [ -50.5201933, -21.7426677 ], [ -50.5119501, -21.7319909 ], [ -50.5123737, -21.7311051 ], [ -50.5118294, -21.7306274 ], [ -50.5140725, -21.7252955 ], [ -50.5114506, -21.7190867 ], [ -50.5146112, -21.7148258 ], [ -50.5176756, -21.7130665 ], [ -50.5175335, -21.7120236 ], [ -50.5168759, -21.712035 ], [ -50.5170625, -21.7099257 ], [ -50.515563, -21.7099917 ], [ -50.5150644, -21.7063018 ], [ -50.5107805, -21.703329 ], [ -50.5094204, -21.7054008 ], [ -50.5100149, -21.7076684 ], [ -50.5065764, -21.7090835 ], [ -50.5061143, -21.7132375 ], [ -50.5032025, -21.7157962 ], [ -50.4993941, -21.7142003 ], [ -50.4959667, -21.7152867 ], [ -50.4928228, -21.710687 ], [ -50.4918041, -21.7112101 ], [ -50.4919484, -21.7102165 ], [ -50.4899009, -21.7097132 ], [ -50.4896869, -21.70828 ], [ -50.4912666, -21.7083725 ], [ -50.4898651, -21.7065409 ], [ -50.4900107, -21.7051819 ], [ -50.486751, -21.7046784 ], [ -50.4865747, -21.703651 ], [ -50.4848274, -21.7023299 ], [ -50.4840911, -21.7026346 ], [ -50.4843214, -21.7038486 ], [ -50.483058, -21.702836 ], [ -50.4813482, -21.7041635 ], [ -50.4805382, -21.7032082 ], [ -50.481807, -21.7027298 ], [ -50.4808709, -21.7020398 ], [ -50.4749272, -21.7019041 ], [ -50.4697877, -21.7042998 ], [ -50.4694221, -21.705892 ], [ -50.4677852, -21.7043665 ], [ -50.4661437, -21.7040981 ], [ -50.4645538, -21.7067827 ], [ -50.4634359, -21.7045425 ], [ -50.4628418, -21.7002282 ], [ -50.4629424, -21.6978914 ], [ -50.4642559, -21.6964174 ], [ -50.4624193, -21.6939895 ], [ -50.4647355, -21.6925542 ], [ -50.4614535, -21.6899656 ], [ -50.4644573, -21.6884675 ], [ -50.4617786, -21.6886476 ], [ -50.4613171, -21.6874925 ], [ -50.4592651, -21.6883118 ], [ -50.4572668, -21.6872966 ], [ -50.454983, -21.6894453 ], [ -50.4536343, -21.6883225 ], [ -50.4506499, -21.690407 ], [ -50.4517622, -21.6911669 ], [ -50.4509969, -21.6929332 ], [ -50.4477025, -21.6935294 ], [ -50.4460851, -21.6930411 ], [ -50.4430708, -21.6938935 ], [ -50.4420543, -21.6952311 ], [ -50.4376297, -21.6953735 ], [ -50.4370923, -21.696797 ], [ -50.4339603, -21.6977365 ], [ -50.4320954, -21.6966192 ], [ -50.4334349, -21.6960756 ], [ -50.4333541, -21.694745 ], [ -50.4318515, -21.6949884 ], [ -50.4305023, -21.6940263 ], [ -50.4275047, -21.6945934 ], [ -50.4248629, -21.6961557 ], [ -50.4257108, -21.6973062 ] ] ] ] } }
]
}
