{
"type": "FeatureCollection",
"name": "ER_REGIAO_Serra Azul",
"crs": { "type": "name", "properties": { "name": "urn:ogc:def:crs:EPSG::4674" } },
"xy_coordinate_resolution": 1e-15,
"features": [
{ "type": "Feature", "properties": { "fid": 947, "NM_REGIAO": "Sudeste", "NM_UF": "São Paulo", "NM_MUN": "Serra Azul", "NM_DIST": "Serra Azul", "CD_SUBDIST": "35514050500", "ER_REGIAO": "Serra Azul", "ER_REGIAO_CIDADE": "Serra Azul_Ribeirão Preto" }, "geometry": { "type": "MultiPolygon", "coordinates": [ [ [ [ -47.5850138, -21.366345 ], [ -47.618444, -21.3642981 ], [ -47.6196636, -21.3636798 ], [ -47.6240713, -21.3648848 ], [ -47.6247333, -21.3667053 ], [ -47.6256858, -21.3670577 ], [ -47.6274645, -21.3658312 ], [ -47.6278802, -21.3633709 ], [ -47.6307815, -21.3616203 ], [ -47.6315793, -21.3585792 ], [ -47.630848, -21.3573325 ], [ -47.6315215, -21.3566656 ], [ -47.6312013, -21.3546379 ], [ -47.6302739, -21.3537506 ], [ -47.6309899, -21.3527724 ], [ -47.6306175, -21.3505026 ], [ -47.6327603, -21.3470798 ], [ -47.6347066, -21.3459395 ], [ -47.6353712, -21.3433833 ], [ -47.6374451, -21.3405863 ], [ -47.6427434, -21.3381893 ], [ -47.6516516, -21.3400124 ], [ -47.6511075, -21.3374224 ], [ -47.653938, -21.3328013 ], [ -47.6541252, -21.3300077 ], [ -47.6558259, -21.3274157 ], [ -47.6559068, -21.3227021 ], [ -47.6575681, -21.318964 ], [ -47.6572451, -21.3169038 ], [ -47.6586363, -21.3151991 ], [ -47.6584538, -21.312272 ], [ -47.6597671, -21.3069321 ], [ -47.6604756, -21.3069209 ], [ -47.6600794, -21.3058398 ], [ -47.6609155, -21.3036045 ], [ -47.6601377, -21.2998504 ], [ -47.6608388, -21.2993381 ], [ -47.6590065, -21.2949196 ], [ -47.6598139, -21.2944023 ], [ -47.6588436, -21.2924976 ], [ -47.6592195, -21.291003 ], [ -47.6542454, -21.2888179 ], [ -47.6522378, -21.2826747 ], [ -47.6529412, -21.2823315 ], [ -47.6515639, -21.2802956 ], [ -47.619665, -21.276948 ], [ -47.619025, -21.27386 ], [ -47.617177, -21.271112 ], [ -47.615691, -21.269836 ], [ -47.612411, -21.269051 ], [ -47.611636, -21.265499 ], [ -47.612373, -21.263582 ], [ -47.609348, -21.256676 ], [ -47.607524, -21.254648 ], [ -47.602309, -21.26276 ], [ -47.60052, -21.264638 ], [ -47.596333, -21.266411 ], [ -47.590102, -21.276274 ], [ -47.586724, -21.271061 ], [ -47.583082, -21.268709 ], [ -47.579484, -21.264882 ], [ -47.579205, -21.263412 ], [ -47.580289, -21.261079 ], [ -47.578061, -21.257235 ], [ -47.578057, -21.251593 ], [ -47.568592, -21.251996 ], [ -47.566067, -21.250818 ], [ -47.56247, -21.243447 ], [ -47.558075, -21.240311 ], [ -47.556275, -21.235754 ], [ -47.550866, -21.229617 ], [ -47.549711, -21.225416 ], [ -47.55074, -21.219617 ], [ -47.549459, -21.213476 ], [ -47.549666, -21.209357 ], [ -47.548252, -21.207218 ], [ -47.538414, -21.202191 ], [ -47.529141, -21.201403 ], [ -47.5277629, -21.2005448 ], [ -47.5236076, -21.2055507 ], [ -47.5200954, -21.2047479 ], [ -47.5183346, -21.2068983 ], [ -47.5173561, -21.20646 ], [ -47.5168497, -21.2026186 ], [ -47.5150612, -21.2019013 ], [ -47.5132912, -21.2024782 ], [ -47.5138605, -21.2065099 ], [ -47.5121428, -21.2075418 ], [ -47.5043849, -21.2042698 ], [ -47.5021999, -21.2045494 ], [ -47.5014477, -21.2060487 ], [ -47.5018573, -21.2078936 ], [ -47.5064216, -21.2082678 ], [ -47.5091552, -21.2136309 ], [ -47.5097093, -21.2155254 ], [ -47.5069166, -21.2180038 ], [ -47.5070561, -21.2200946 ], [ -47.5121297, -21.2213943 ], [ -47.5134863, -21.223323 ], [ -47.516346, -21.2248311 ], [ -47.5171316, -21.2266364 ], [ -47.5147823, -21.2273359 ], [ -47.5110716, -21.225753 ], [ -47.5045457, -21.2252714 ], [ -47.5038914, -21.2256805 ], [ -47.504051, -21.2268749 ], [ -47.5075659, -21.2279326 ], [ -47.5097799, -21.2303788 ], [ -47.5103319, -21.2321896 ], [ -47.5091681, -21.2332669 ], [ -47.5045939, -21.2337345 ], [ -47.503525, -21.2402374 ], [ -47.5016006, -21.2411974 ], [ -47.5003224, -21.2408617 ], [ -47.4959784, -21.2381342 ], [ -47.4918333, -21.2396276 ], [ -47.4905104, -21.2386768 ], [ -47.485439, -21.2415503 ], [ -47.484353, -21.2430707 ], [ -47.4846456, -21.2467642 ], [ -47.4878965, -21.2491551 ], [ -47.4907211, -21.2485796 ], [ -47.4935119, -21.2460144 ], [ -47.4952713, -21.2467866 ], [ -47.4963103, -21.2522656 ], [ -47.4943752, -21.2552367 ], [ -47.493546, -21.2591033 ], [ -47.4981405, -21.2684294 ], [ -47.4967009, -21.269825 ], [ -47.4954678, -21.2695772 ], [ -47.4928269, -21.264255 ], [ -47.49125, -21.2631688 ], [ -47.4904035, -21.2634051 ], [ -47.4877449, -21.2682287 ], [ -47.4824877, -21.2723815 ], [ -47.4822138, -21.280058 ], [ -47.4803212, -21.2827455 ], [ -47.4764863, -21.2858876 ], [ -47.4764343, -21.2869741 ], [ -47.4813158, -21.2920673 ], [ -47.4800386, -21.2947713 ], [ -47.476255, -21.2974416 ], [ -47.4750531, -21.3002949 ], [ -47.4758198, -21.3067378 ], [ -47.4766133, -21.3089203 ], [ -47.4797464, -21.3127076 ], [ -47.4799835, -21.3154996 ], [ -47.474524, -21.3196367 ], [ -47.4734973, -21.3288993 ], [ -47.4722907, -21.3317146 ], [ -47.4689174, -21.3363697 ], [ -47.465927, -21.3441648 ], [ -47.4582882, -21.3528458 ], [ -47.4588736, -21.3699077 ], [ -47.4565437, -21.3727466 ], [ -47.4595134, -21.3749704 ], [ -47.4643665, -21.3759288 ], [ -47.4671782, -21.3777168 ], [ -47.471613, -21.3858604 ], [ -47.4764158, -21.3895186 ], [ -47.4790073, -21.3901456 ], [ -47.4803726, -21.3918244 ], [ -47.4817861, -21.3921829 ], [ -47.4855838, -21.3991989 ], [ -47.48752, -21.4002427 ], [ -47.4903014, -21.3983412 ], [ -47.4924359, -21.3978771 ], [ -47.4979949, -21.3996961 ], [ -47.5026032, -21.3998406 ], [ -47.5045954, -21.4015174 ], [ -47.5107092, -21.4010824 ], [ -47.5209063, -21.402078 ], [ -47.5299477, -21.4065775 ], [ -47.5387144, -21.412784 ], [ -47.5415304, -21.4139825 ], [ -47.5456707, -21.412844 ], [ -47.5510219, -21.4100069 ], [ -47.5562492, -21.4043871 ], [ -47.5570114, -21.4019593 ], [ -47.5594746, -21.4012139 ], [ -47.5622631, -21.3984482 ], [ -47.5647391, -21.3972348 ], [ -47.5739207, -21.3877808 ], [ -47.5784631, -21.3769988 ], [ -47.5786862, -21.3729187 ], [ -47.5814289, -21.3682188 ], [ -47.5850138, -21.366345 ] ] ] ] } }
]
}
