{
"type": "FeatureCollection",
"name": "ER_REGIAO_Sumaré_Nova Veneza",
"crs": { "type": "name", "properties": { "name": "urn:ogc:def:crs:EPSG::4674" } },
"xy_coordinate_resolution": 1e-15,
"features": [
{ "type": "Feature", "properties": { "fid": 960, "NM_REGIAO": "Sudeste", "NM_UF": "São Paulo", "NM_MUN": "Sumaré", "NM_DIST": "Nova Veneza", "CD_SUBDIST": "35524031500", "ER_REGIAO": "Sumaré_Nova Veneza", "ER_REGIAO_CIDADE": "Sumaré_Nova Veneza_Campinas" }, "geometry": { "type": "MultiPolygon", "coordinates": [ [ [ [ -47.188593, -22.85872 ], [ -47.192931, -22.854437 ], [ -47.192273, -22.852184 ], [ -47.203664, -22.845195 ], [ -47.203254, -22.84243 ], [ -47.204405, -22.841013 ], [ -47.205064, -22.841131 ], [ -47.205327, -22.84265 ], [ -47.207023, -22.842256 ], [ -47.208442, -22.846707 ], [ -47.213135, -22.848249 ], [ -47.21355, -22.841458 ], [ -47.214522, -22.83938 ], [ -47.219627, -22.837351 ], [ -47.221726, -22.833691 ], [ -47.228394, -22.827009 ], [ -47.230791, -22.8256 ], [ -47.233556, -22.826039 ], [ -47.234774, -22.817603 ], [ -47.232642, -22.815585 ], [ -47.234079, -22.812267 ], [ -47.231639, -22.81017 ], [ -47.230035, -22.805709 ], [ -47.233199, -22.801201 ], [ -47.236795, -22.802349 ], [ -47.239307, -22.805718 ], [ -47.240486, -22.805168 ], [ -47.243174, -22.802047 ], [ -47.244182, -22.797248 ], [ -47.241439, -22.795739 ], [ -47.238433, -22.796136 ], [ -47.23523, -22.795359 ], [ -47.234933, -22.793531 ], [ -47.230625, -22.789489 ], [ -47.229869, -22.786752 ], [ -47.227437, -22.788069 ], [ -47.227212, -22.790238 ], [ -47.224382, -22.795759 ], [ -47.221893, -22.796529 ], [ -47.212666, -22.795523 ], [ -47.202735, -22.791089 ], [ -47.200946, -22.788014 ], [ -47.199383, -22.787348 ], [ -47.195241, -22.790132 ], [ -47.192244, -22.796968 ], [ -47.182545, -22.797219 ], [ -47.181143, -22.801945 ], [ -47.177133, -22.803933 ], [ -47.177217, -22.804763 ], [ -47.175943, -22.804879 ], [ -47.174001, -22.807023 ], [ -47.174175, -22.807746 ], [ -47.172821, -22.808476 ], [ -47.16794, -22.807723 ], [ -47.166305, -22.806433 ], [ -47.164619, -22.806625 ], [ -47.163878, -22.805409 ], [ -47.162594, -22.805938 ], [ -47.161661, -22.8092 ], [ -47.161908, -22.811401 ], [ -47.160348, -22.812082 ], [ -47.160217, -22.816555 ], [ -47.158125, -22.819352 ], [ -47.158156, -22.823438 ], [ -47.153444099999945, -22.831915699999968 ], [ -47.154065, -22.833998099999974 ], [ -47.156406299999958, -22.835151099999962 ], [ -47.158466, -22.841673 ], [ -47.156009, -22.843511 ], [ -47.156128, -22.844999 ], [ -47.162825299999952, -22.853531299999929 ], [ -47.158750299999951, -22.856257299999982 ], [ -47.158343199999933, -22.857950599999981 ], [ -47.156100899999956, -22.860552599999949 ], [ -47.157397699999933, -22.861042099999963 ], [ -47.159472, -22.859325 ], [ -47.166652, -22.858057 ], [ -47.177398, -22.857674 ], [ -47.181305, -22.860026 ], [ -47.188593, -22.85872 ] ] ] ] } }
]
}
