{
"type": "FeatureCollection",
"name": "ER_REGIAO_Capital Oeste_Raposo Tavares",
"crs": { "type": "name", "properties": { "name": "urn:ogc:def:crs:EPSG::4674" } },
"xy_coordinate_resolution": 1e-15,
"features": [
{ "type": "Feature", "properties": { "fid": 899, "NM_REGIAO": "Sudeste", "NM_UF": "São Paulo", "NM_MUN": "São Paulo", "NM_DIST": "Raposo Tavares", "CD_SUBDIST": "35503086500", "ER_REGIAO": "Capital Oeste_Raposo Tavares", "ER_REGIAO_CIDADE": "Capital Oeste_Raposo Tavares" }, "geometry": { "type": "MultiPolygon", "coordinates": [ [ [ [ -46.773696, -23.600322 ], [ -46.775523, -23.603005 ], [ -46.779168, -23.602197 ], [ -46.780691, -23.604046 ], [ -46.784259, -23.603651 ], [ -46.787681, -23.604977 ], [ -46.789322, -23.60647 ], [ -46.791413, -23.605267 ], [ -46.79445, -23.606483 ], [ -46.796227, -23.605035 ], [ -46.798234, -23.604793 ], [ -46.79986, -23.60772 ], [ -46.807775, -23.609067 ], [ -46.807517, -23.604881 ], [ -46.809173, -23.602781 ], [ -46.807588, -23.602055 ], [ -46.808999, -23.598647 ], [ -46.805082, -23.588785 ], [ -46.807378, -23.585647 ], [ -46.806408, -23.583973 ], [ -46.80264, -23.583575 ], [ -46.801989, -23.582485 ], [ -46.797978, -23.583699 ], [ -46.796855, -23.582658 ], [ -46.795043, -23.582464 ], [ -46.794579, -23.581229 ], [ -46.792682, -23.580324 ], [ -46.791305, -23.577755 ], [ -46.788013, -23.577349 ], [ -46.786257, -23.574735 ], [ -46.784712, -23.574174 ], [ -46.7822807, -23.5747375 ], [ -46.78148, -23.576859 ], [ -46.778744, -23.578233 ], [ -46.777852, -23.580184 ], [ -46.774438, -23.583136 ], [ -46.770419, -23.583168 ], [ -46.766215, -23.585074 ], [ -46.755405, -23.586502 ], [ -46.756113, -23.588377 ], [ -46.753865, -23.591259 ], [ -46.760105, -23.593956 ], [ -46.764123, -23.598539 ], [ -46.768838, -23.600259 ], [ -46.77224, -23.599702 ], [ -46.773696, -23.600322 ] ] ] ] } }
]
}
