{
"type": "FeatureCollection",
"name": "ER_REGIAO_Presidente Epitácio_Campinal",
"crs": { "type": "name", "properties": { "name": "urn:ogc:def:crs:EPSG::4674" } },
"xy_coordinate_resolution": 1e-15,
"features": [
{ "type": "Feature", "properties": { "fid": 693, "NM_REGIAO": "Sudeste", "NM_UF": "São Paulo", "NM_MUN": "Presidente Epitácio", "NM_DIST": "Campinal", "CD_SUBDIST": "35413071500", "ER_REGIAO": "Presidente Epitácio_Campinal", "ER_REGIAO_CIDADE": "Presidente Epitácio_Campinal_Presidente Prudente" }, "geometry": { "type": "MultiPolygon", "coordinates": [ [ [ [ -51.968377, -21.712040299999956 ], [ -52.001835, -21.69658469999996 ], [ -52.002990399999931, -21.701133899999945 ], [ -52.022038099999975, -21.69207229999995 ], [ -52.019149299999981, -21.690011399999946 ], [ -52.018746599999986, -21.688786899999968 ], [ -52.053766899999971, -21.672574 ], [ -52.050711199999967, -21.665766599999927 ], [ -52.04834029999995, -21.656342099999961 ], [ -52.048322799999937, -21.650605799999937 ], [ -52.049520399999949, -21.643089099999941 ], [ -52.05209229999997, -21.636594199999934 ], [ -52.06279, -21.620597699999962 ], [ -52.065314899999976, -21.613275899999962 ], [ -52.067274099999963, -21.602702 ], [ -52.068875599999956, -21.598107499999969 ], [ -52.072426499999949, -21.593101299999944 ], [ -52.082824599999981, -21.58423879999998 ], [ -52.091531399999951, -21.580694199999982 ], [ -52.098767299999963, -21.574985599999934 ], [ -52.102164099999982, -21.569813499999952 ], [ -52.103401899999938, -21.564557199999967 ], [ -52.103292799999963, -21.559065199999964 ], [ -52.102293399999951, -21.554840599999977 ], [ -52.095962399999962, -21.542063599999949 ], [ -52.093106899999952, -21.53775909999996 ], [ -52.087924699999974, -21.532899699999973 ], [ -52.08534439999994, -21.527959 ], [ -52.080322899999942, -21.521562099999983 ], [ -52.077789399999972, -21.515222499999936 ], [ -52.072204899999974, -21.509045499999957 ], [ -52.066452399999946, -21.504591599999969 ], [ -52.062041699999952, -21.503268499999933 ], [ -52.057066599999985, -21.50360969999997 ], [ -52.042509099999961, -21.506706899999926 ], [ -52.037592299999972, -21.508588399999951 ], [ -52.013884899999937, -21.512729899999954 ], [ -52.000367599999947, -21.516626499999973 ], [ -51.987153599999942, -21.511700399999938 ], [ -51.978930199999979, -21.506859 ], [ -51.967903299999932, -21.501762099999951 ], [ -51.962222499999939, -21.493307499999958 ], [ -51.964168599999937, -21.522242 ], [ -51.963559099999941, -21.522759 ], [ -51.965747499999964, -21.524482899999953 ], [ -51.965815299999974, -21.525576 ], [ -51.964914699999952, -21.526400899999942 ], [ -51.96246739999998, -21.525796899999932 ], [ -51.961247499999956, -21.52723 ], [ -51.95931859999996, -21.526480699999979 ], [ -51.959321599999953, -21.529171699999949 ], [ -51.957352899999933, -21.529749799999934 ], [ -51.955891899999983, -21.529367199999967 ], [ -51.957166799999982, -21.52794119999993 ], [ -51.954702899999972, -21.527138299999933 ], [ -51.956490499999973, -21.525977599999976 ], [ -51.954286399999944, -21.524412299999938 ], [ -51.952087399999982, -21.526827299999979 ], [ -51.951384, -21.52652889999996 ], [ -51.951915499999984, -21.525388 ], [ -51.949255199999982, -21.525377 ], [ -51.948491799999942, -21.527907899999946 ], [ -51.947496499999943, -21.526610199999936 ], [ -51.945435699999962, -21.527140899999949 ], [ -51.946536199999969, -21.528171799999939 ], [ -51.94697629999996, -21.531402699999944 ], [ -51.945923799999946, -21.531633499999941 ], [ -51.944454199999939, -21.529874 ], [ -51.942695199999946, -21.531182099999967 ], [ -51.94584, -21.534773 ], [ -51.943848199999934, -21.538350299999934 ], [ -51.942450199999939, -21.539185199999963 ], [ -51.944770499999947, -21.540588699999944 ], [ -51.94324359999996, -21.542755299999953 ], [ -51.944233799999949, -21.543533099999934 ], [ -51.946583799999985, -21.543456399999968 ], [ -51.944204199999945, -21.545014099999946 ], [ -51.94369949999998, -21.546437699999956 ], [ -51.941076599999974, -21.547039099999949 ], [ -51.968377, -21.712040299999956 ] ] ] ] } }
]
}
