{
"type": "FeatureCollection",
"name": "ER_REGIAO_Itaberá_Tomé",
"crs": { "type": "name", "properties": { "name": "urn:ogc:def:crs:EPSG::4674" } },
"xy_coordinate_resolution": 1e-15,
"features": [
{ "type": "Feature", "properties": { "fid": 351, "NM_REGIAO": "Sudeste", "NM_UF": "São Paulo", "NM_MUN": "Itaberá", "NM_DIST": "Tomé", "CD_SUBDIST": "35217050800", "ER_REGIAO": "Itaberá_Tomé", "ER_REGIAO_CIDADE": "Itaberá_Tomé_Sudoeste Paulista" }, "geometry": { "type": "MultiPolygon", "coordinates": [ [ [ [ -49.2797153, -23.810645 ], [ -49.2706297, -23.8120602 ], [ -49.2666616, -23.8116149 ], [ -49.2655438, -23.8108933 ], [ -49.2627275, -23.805141 ], [ -49.2631204, -23.8025989 ], [ -49.2606744, -23.7988957 ], [ -49.2554223, -23.7966231 ], [ -49.2514364, -23.796754 ], [ -49.2471813, -23.7934435 ], [ -49.243621, -23.7947429 ], [ -49.2379277, -23.7996311 ], [ -49.2343347, -23.798599 ], [ -49.2296532, -23.7987699 ], [ -49.2282152, -23.8093544 ], [ -49.2287747, -23.8116352 ], [ -49.2279539, -23.8137842 ], [ -49.2292911, -23.816369 ], [ -49.2282583, -23.8195536 ], [ -49.2306682, -23.8214471 ], [ -49.234197, -23.8211028 ], [ -49.2371234, -23.8222217 ], [ -49.2372094, -23.8240291 ], [ -49.2388448, -23.8255784 ], [ -49.235151, -23.8278189 ], [ -49.2349716, -23.8378863 ], [ -49.2252458, -23.8529484 ], [ -49.2241269, -23.8569936 ], [ -49.2251528, -23.8612623 ], [ -49.2292911, -23.8685269 ], [ -49.2308403, -23.8759288 ], [ -49.2332503, -23.879888 ], [ -49.2356602, -23.8817815 ], [ -49.2377259, -23.8819537 ], [ -49.2422014, -23.8812651 ], [ -49.2465049, -23.8791995 ], [ -49.2475377, -23.8826422 ], [ -49.2489148, -23.8838472 ], [ -49.2509805, -23.8840193 ], [ -49.2556282, -23.8893556 ], [ -49.2568332, -23.8941755 ], [ -49.2580382, -23.8958969 ], [ -49.2615909, -23.897661 ], [ -49.2615601, -23.8965897 ], [ -49.2622921, -23.8964741 ], [ -49.2659191, -23.9004991 ], [ -49.2674268, -23.9001901 ], [ -49.2666006, -23.8977942 ], [ -49.2676564, -23.8978648 ], [ -49.2695899, -23.9001948 ], [ -49.2726611, -23.9017748 ], [ -49.2732604, -23.9015011 ], [ -49.2723221, -23.9005972 ], [ -49.2729262, -23.8994368 ], [ -49.2710724, -23.8975055 ], [ -49.2735443, -23.8966856 ], [ -49.2748985, -23.8951097 ], [ -49.2726438, -23.8923979 ], [ -49.2755938, -23.8918768 ], [ -49.2774514, -23.8903066 ], [ -49.2757648, -23.8891466 ], [ -49.2796143, -23.8860207 ], [ -49.2799131, -23.8848764 ], [ -49.2815693, -23.8845819 ], [ -49.2818058, -23.8859995 ], [ -49.2827105, -23.8846207 ], [ -49.2840159, -23.8861872 ], [ -49.2850071, -23.8894238 ], [ -49.2857997, -23.889663 ], [ -49.2853675, -23.890708 ], [ -49.2875359, -23.8902953 ], [ -49.2886895, -23.8920883 ], [ -49.2904345, -23.8885455 ], [ -49.2926224, -23.8869791 ], [ -49.3031268, -23.8853814 ], [ -49.3081682, -23.8837115 ], [ -49.3138373, -23.8837009 ], [ -49.3192398, -23.8806993 ], [ -49.3214846, -23.875029 ], [ -49.3291257, -23.8684942 ], [ -49.3305924, -23.8654576 ], [ -49.3253092, -23.855909 ], [ -49.3200382, -23.8529729 ], [ -49.3140635, -23.8516333 ], [ -49.3099029, -23.8491017 ], [ -49.3080713, -23.8408467 ], [ -49.3104352, -23.8387762 ], [ -49.3098955, -23.8371032 ], [ -49.3029903, -23.8296228 ], [ -49.3014079, -23.8247624 ], [ -49.3030057, -23.820242 ], [ -49.3055401, -23.8165922 ], [ -49.3175425, -23.8117772 ], [ -49.319984, -23.8096593 ], [ -49.3204531, -23.8065232 ], [ -49.3198671, -23.8061756 ], [ -49.3146114, -23.8114327 ], [ -49.3122747, -23.8107159 ], [ -49.3146729, -23.8088642 ], [ -49.3154335, -23.8064989 ], [ -49.3145943, -23.8061702 ], [ -49.3125882, -23.808398 ], [ -49.3110309, -23.804964 ], [ -49.3082555, -23.806942 ], [ -49.3054952, -23.8050142 ], [ -49.3042056, -23.8065136 ], [ -49.3004994, -23.8072686 ], [ -49.2948663, -23.8077324 ], [ -49.2919022, -23.8069413 ], [ -49.2870956, -23.8070039 ], [ -49.2797153, -23.810645 ] ] ] ] } }
]
}
