{
"type": "FeatureCollection",
"name": "ER_REGIAO_Brodowski",
"crs": { "type": "name", "properties": { "name": "urn:ogc:def:crs:EPSG::4674" } },
"xy_coordinate_resolution": 1e-15,
"features": [
{ "type": "Feature", "properties": { "fid": 119, "NM_REGIAO": "Sudeste", "NM_UF": "São Paulo", "NM_MUN": "Brodowski", "NM_DIST": "Brodowski", "CD_SUBDIST": "35078030500", "ER_REGIAO": "Brodowski", "ER_REGIAO_CIDADE": "Brodowski_Franca" }, "geometry": { "type": "MultiPolygon", "coordinates": [ [ [ [ -47.688376, -21.018338 ], [ -47.687969, -21.005842 ], [ -47.686864, -21.002747 ], [ -47.726035, -20.974217 ], [ -47.723049, -20.966579 ], [ -47.718574, -20.96183 ], [ -47.711319, -20.957507 ], [ -47.709229, -20.95409 ], [ -47.710643, -20.949541 ], [ -47.71776, -20.944457 ], [ -47.718744, -20.942028 ], [ -47.7185028, -20.938363 ], [ -47.7182453, -20.9399388 ], [ -47.7098028, -20.9410742 ], [ -47.7064173, -20.9431061 ], [ -47.7037456, -20.9427311 ], [ -47.6999462, -20.9436633 ], [ -47.6972643, -20.9426863 ], [ -47.6942527, -20.9429811 ], [ -47.6923698, -20.9417205 ], [ -47.6897667, -20.9417982 ], [ -47.6879809, -20.9398093 ], [ -47.678461, -20.9364097 ], [ -47.676795, -20.9369929 ], [ -47.6742786, -20.9364299 ], [ -47.6724903, -20.9390684 ], [ -47.6682009, -20.9413026 ], [ -47.6658065, -20.9443448 ], [ -47.6569682, -20.9479021 ], [ -47.6537276, -20.9536945 ], [ -47.6452484, -20.9592216 ], [ -47.6430227, -20.9635301 ], [ -47.6375631, -20.962289 ], [ -47.6333618, -20.9624638 ], [ -47.6277106, -20.964736 ], [ -47.6222449, -20.9622158 ], [ -47.612129, -20.9619405 ], [ -47.611085, -20.9643299 ], [ -47.6121915, -20.9685093 ], [ -47.6112789, -20.973206 ], [ -47.6094154, -20.9796166 ], [ -47.6048979, -20.9878546 ], [ -47.6015788, -20.9903836 ], [ -47.594123, -20.9920699 ], [ -47.586572, -20.9963998 ], [ -47.5762034, -21.0066342 ], [ -47.575947, -21.0081879 ], [ -47.5735935, -21.009438 ], [ -47.5719145, -21.0120152 ], [ -47.5696242, -21.0229757 ], [ -47.5669494, -21.0248815 ], [ -47.567945, -21.0290363 ], [ -47.5706229, -21.0312622 ], [ -47.5704217, -21.0331164 ], [ -47.5727212, -21.035925 ], [ -47.5719239, -21.0384301 ], [ -47.5537313, -21.0380881 ], [ -47.5511494, -21.0371438 ], [ -47.5473489, -21.0342739 ], [ -47.5406385, -21.0345534 ], [ -47.541265, -21.037036 ], [ -47.539755, -21.04037 ], [ -47.540027, -21.042101 ], [ -47.538881, -21.043825 ], [ -47.539652, -21.047227 ], [ -47.538471, -21.050818 ], [ -47.535353, -21.052437 ], [ -47.532862, -21.052536 ], [ -47.531704, -21.054922 ], [ -47.527846, -21.057797 ], [ -47.52795, -21.058641 ], [ -47.525389, -21.059143 ], [ -47.524724, -21.060486 ], [ -47.524981, -21.063051 ], [ -47.522364, -21.067439 ], [ -47.523095, -21.070431 ], [ -47.521782, -21.071263 ], [ -47.522153, -21.071794 ], [ -47.521196, -21.072942 ], [ -47.521225, -21.074085 ], [ -47.522464, -21.075164 ], [ -47.521975, -21.077399 ], [ -47.520706, -21.077985 ], [ -47.520766, -21.079992 ], [ -47.520029, -21.080157 ], [ -47.520269, -21.083152 ], [ -47.519279, -21.084248 ], [ -47.520092, -21.085361 ], [ -47.518739, -21.087794 ], [ -47.519406, -21.090882 ], [ -47.517945, -21.092151 ], [ -47.51887, -21.093102 ], [ -47.518277, -21.095594 ], [ -47.519039, -21.095803 ], [ -47.518114, -21.097933 ], [ -47.519171, -21.097708 ], [ -47.522702, -21.099676 ], [ -47.527083, -21.100067 ], [ -47.530449, -21.102562 ], [ -47.540309, -21.104524 ], [ -47.542222, -21.107665 ], [ -47.546149, -21.109506 ], [ -47.550084, -21.107564 ], [ -47.554957, -21.108486 ], [ -47.558958, -21.107622 ], [ -47.561289, -21.110058 ], [ -47.566238, -21.110703 ], [ -47.567593, -21.112 ], [ -47.568129, -21.114433 ], [ -47.572532, -21.115662 ], [ -47.574676, -21.118488 ], [ -47.57713, -21.119086 ], [ -47.579094, -21.121211 ], [ -47.584187, -21.122562 ], [ -47.587778, -21.125449 ], [ -47.590154, -21.128706 ], [ -47.593228, -21.127372 ], [ -47.596117, -21.128122 ], [ -47.596066, -21.132845 ], [ -47.597711, -21.134085 ], [ -47.598338, -21.137252 ], [ -47.600724, -21.139099 ], [ -47.602453, -21.138529 ], [ -47.604575, -21.140637 ], [ -47.610229, -21.141152 ], [ -47.616674, -21.138113 ], [ -47.622921, -21.140997 ], [ -47.628204, -21.148317 ], [ -47.629926, -21.148702 ], [ -47.632982, -21.151019 ], [ -47.641916, -21.149777 ], [ -47.646682, -21.14815 ], [ -47.650154, -21.140696 ], [ -47.659147, -21.1333 ], [ -47.663279, -21.123949 ], [ -47.66725, -21.118562 ], [ -47.66968, -21.118654 ], [ -47.672937, -21.122665 ], [ -47.682381, -21.126709 ], [ -47.689741, -21.131773 ], [ -47.695805, -21.131835 ], [ -47.700589, -21.130497 ], [ -47.707842, -21.125405 ], [ -47.714618, -21.123004 ], [ -47.719053, -21.120072 ], [ -47.71405, -21.117481 ], [ -47.712629, -21.112233 ], [ -47.699786, -21.103993 ], [ -47.696146, -21.10023 ], [ -47.689747, -21.090169 ], [ -47.691261, -21.081337 ], [ -47.683963, -21.082118 ], [ -47.67787, -21.0794 ], [ -47.673984, -21.074751 ], [ -47.673276, -21.070563 ], [ -47.671786, -21.068163 ], [ -47.672472, -21.062809 ], [ -47.67684, -21.0514 ], [ -47.67972, -21.048249 ], [ -47.683065, -21.039172 ], [ -47.682973, -21.035807 ], [ -47.680215, -21.030207 ], [ -47.679509, -21.025721 ], [ -47.682876, -21.024332 ], [ -47.687565, -21.019672 ], [ -47.688376, -21.018338 ] ] ] ] } }
]
}
