{
"type": "FeatureCollection",
"name": "ER_REGIAO_Nhandeara_Nhandeara",
"crs": { "type": "name", "properties": { "name": "urn:ogc:def:crs:EPSG::4674" } },
"xy_coordinate_resolution": 1e-15,
"features": [
{ "type": "Feature", "properties": { "fid": 547, "NM_REGIAO": "Sudeste", "NM_UF": "São Paulo", "NM_MUN": "Nhandeara", "NM_DIST": "Nhandeara", "CD_SUBDIST": "35326030500", "ER_REGIAO": "Nhandeara_Nhandeara", "ER_REGIAO_CIDADE": "Nhandeara_Nhandeara_Votuporanga" }, "geometry": { "type": "MultiPolygon", "coordinates": [ [ [ [ -50.056140099999936, -20.544752299999971 ], [ -50.058895499999949, -20.540079599999956 ], [ -50.058588099999952, -20.539118899999949 ], [ -50.055067799999961, -20.539669799999956 ], [ -50.052979099999959, -20.538947499999949 ], [ -50.055108899999937, -20.535284099999956 ], [ -50.053980099999933, -20.533621499999981 ], [ -50.052654, -20.535089699999958 ], [ -50.046807399999977, -20.536519599999963 ], [ -50.044839599999932, -20.534677899999963 ], [ -50.043329099999937, -20.534877499999936 ], [ -50.043813, -20.536067199999934 ], [ -50.040976599999965, -20.537667699999929 ], [ -50.04078549999997, -20.538639099999955 ], [ -50.030622599999958, -20.536946199999932 ], [ -50.030980399999976, -20.53968029999993 ], [ -50.029396299999974, -20.541070399999967 ], [ -50.027391399999942, -20.540484499999934 ], [ -50.027832199999978, -20.541652299999953 ], [ -50.027192699999944, -20.542307499999936 ], [ -50.026240599999937, -20.541106399999933 ], [ -50.026868899999954, -20.537790299999926 ], [ -50.026124399999958, -20.53675 ], [ -50.023446599999943, -20.538545 ], [ -50.021124799999939, -20.537603699999977 ], [ -50.019716099999982, -20.539073599999938 ], [ -50.019768699999986, -20.538146 ], [ -50.018939399999965, -20.538137899999981 ], [ -50.01850589999998, -20.539128 ], [ -50.018425, -20.538416699999971 ], [ -50.017659099999946, -20.538509599999941 ], [ -50.017679, -20.539294299999938 ], [ -50.016342899999984, -20.538361299999963 ], [ -50.015633499999979, -20.539081499999952 ], [ -50.014600899999948, -20.538572699999975 ], [ -50.015228099999945, -20.540142099999969 ], [ -50.013193, -20.543852499999957 ], [ -50.012217499999963, -20.542757199999983 ], [ -50.011299599999973, -20.544348 ], [ -50.009207499999945, -20.544175099999961 ], [ -50.006323099999975, -20.541573399999947 ], [ -50.006552699999986, -20.542399599999953 ], [ -50.004946799999971, -20.543020699999943 ], [ -50.005543, -20.544958899999926 ], [ -50.004954099999964, -20.549599499999943 ], [ -50.004104899999959, -20.548793299999943 ], [ -50.00291859999993, -20.548930599999949 ], [ -50.002516199999945, -20.547852 ], [ -50.000302, -20.55004219999995 ], [ -50.000609699999984, -20.554919199999972 ], [ -49.996319799999981, -20.553152399999931 ], [ -49.994344299999966, -20.553975899999955 ], [ -49.993438399999945, -20.55821229999998 ], [ -49.991197399999976, -20.560490199999947 ], [ -49.991751499999964, -20.561422599999958 ], [ -49.990912199999968, -20.562959399999954 ], [ -49.990150599999936, -20.563653099999954 ], [ -49.986206, -20.56309669999996 ], [ -49.986472899999967, -20.564003599999978 ], [ -49.985061099999939, -20.563918599999965 ], [ -49.986082799999963, -20.565455099999951 ], [ -49.985223299999973, -20.569886299999951 ], [ -49.983201699999938, -20.571028599999977 ], [ -49.982833299999982, -20.57480019999997 ], [ -49.981116499999985, -20.575970299999938 ], [ -49.980551299999945, -20.586019499999964 ], [ -49.979483399999936, -20.589375 ], [ -49.985203199999944, -20.600642899999968 ], [ -49.98567689999993, -20.607531899999969 ], [ -49.981984799999964, -20.61434689999993 ], [ -49.981569499999978, -20.623611699999969 ], [ -49.978908399999966, -20.631776599999966 ], [ -49.977043499999979, -20.634841 ], [ -49.974285, -20.644643499999972 ], [ -49.973596399999963, -20.648258899999973 ], [ -49.973814499999946, -20.654147599999931 ], [ -49.972068, -20.658203599999979 ], [ -49.969101499999965, -20.660395499999936 ], [ -49.966487399999949, -20.661272199999928 ], [ -49.956352899999956, -20.661821599999939 ], [ -49.95492859999996, -20.663075599999956 ], [ -49.953243899999961, -20.669264899999973 ], [ -49.954290799999967, -20.676699199999973 ], [ -49.955354899999975, -20.680232 ], [ -49.959216, -20.677600599999948 ], [ -49.96961639999995, -20.677635299999963 ], [ -49.974869399999932, -20.674346299999968 ], [ -49.982849, -20.673991099999967 ], [ -49.98589579999998, -20.671670899999981 ], [ -49.988544199999978, -20.671391599999936 ], [ -49.991709499999956, -20.673648699999944 ], [ -49.994130799999937, -20.681978599999979 ], [ -49.999246699999958, -20.688501899999949 ], [ -49.999611899999934, -20.695654499999932 ], [ -49.997134199999948, -20.704219699999953 ], [ -49.998751499999969, -20.712173099999973 ], [ -49.997804199999962, -20.716169399999956 ], [ -49.997144099999957, -20.730013099999951 ], [ -49.992204299999969, -20.740413299999943 ], [ -49.998505399999942, -20.744599099999959 ], [ -50.002580499999965, -20.746084699999983 ], [ -50.003546299999982, -20.747753399999965 ], [ -50.00379259999994, -20.750805299999968 ], [ -50.009470599999986, -20.755981299999974 ], [ -50.014754099999948, -20.758489199999929 ], [ -50.018305799999951, -20.758032199999946 ], [ -50.018583299999932, -20.760159199999975 ], [ -50.021063599999934, -20.763453199999958 ], [ -50.021518899999933, -20.765543699999967 ], [ -50.024801499999967, -20.769936399999949 ], [ -50.024253699999974, -20.771741299999974 ], [ -50.027280699999949, -20.777685099999928 ], [ -50.027048599999944, -20.78536859999997 ], [ -50.02892989999998, -20.789177099999961 ], [ -50.028930299999956, -20.793670599999928 ], [ -50.026383199999941, -20.799280099999976 ], [ -50.026022399999931, -20.801166 ], [ -50.026735899999949, -20.803488799999968 ], [ -50.024662299999932, -20.80433249999993 ], [ -50.027541799999938, -20.807492399999944 ], [ -50.025621399999977, -20.810660399999961 ], [ -50.026613399999974, -20.811563299999932 ], [ -50.026145799999938, -20.812757899999951 ], [ -50.023497, -20.814753199999927 ], [ -50.025340899999946, -20.82017019999995 ], [ -50.024143099999947, -20.823956199999941 ], [ -50.025817199999949, -20.823477499999967 ], [ -50.028863899999976, -20.818664899999931 ], [ -50.030388399999936, -20.818060899999978 ], [ -50.042702299999974, -20.822603299999969 ], [ -50.051388799999984, -20.81902359999998 ], [ -50.061519199999964, -20.819386 ], [ -50.06344839999997, -20.818663 ], [ -50.066837899999939, -20.82427389999998 ], [ -50.068161199999963, -20.825198599999965 ], [ -50.075853699999982, -20.817644799999982 ], [ -50.078225099999941, -20.813941899999975 ], [ -50.080719899999963, -20.812225299999966 ], [ -50.08531279999994, -20.810711499999968 ], [ -50.092773399999942, -20.810961599999928 ], [ -50.102260499999943, -20.817331699999954 ], [ -50.109540199999969, -20.825419599999975 ], [ -50.111004799999932, -20.827994599999954 ], [ -50.115148499999975, -20.827588899999967 ], [ -50.121288099999958, -20.831116099999974 ], [ -50.121814799999981, -20.830252499999972 ], [ -50.120402199999944, -20.825004399999955 ], [ -50.124958899999967, -20.822911799999929 ], [ -50.125578499999961, -20.819992599999978 ], [ -50.127110899999934, -20.818765699999972 ], [ -50.124512299999935, -20.818400499999939 ], [ -50.124801199999979, -20.815560499999947 ], [ -50.122969499999954, -20.813842 ], [ -50.122990199999947, -20.812773099999959 ], [ -50.124520699999948, -20.811617399999932 ], [ -50.124936299999945, -20.809383499999967 ], [ -50.126759799999945, -20.807025199999941 ], [ -50.125280099999941, -20.804581699999972 ], [ -50.123633699999971, -20.804377799999941 ], [ -50.120406199999934, -20.798335899999927 ], [ -50.117104099999949, -20.795890899999961 ], [ -50.115541499999949, -20.792609599999935 ], [ -50.116591299999982, -20.790146499999935 ], [ -50.115412, -20.787802599999964 ], [ -50.116148399999986, -20.785232299999961 ], [ -50.113429599999961, -20.780885299999966 ], [ -50.113829, -20.780439499999943 ], [ -50.111464399999932, -20.779944399999977 ], [ -50.110180199999945, -20.778688399999965 ], [ -50.111345099999937, -20.775973799999974 ], [ -50.111259299999972, -20.773170299999947 ], [ -50.113082099999986, -20.771500099999969 ], [ -50.113382699999931, -20.769067899999982 ], [ -50.115087499999959, -20.766827 ], [ -50.114065299999936, -20.763454199999956 ], [ -50.117175499999973, -20.761652599999934 ], [ -50.119046699999956, -20.758644499999946 ], [ -50.119048199999952, -20.755921799999953 ], [ -50.122233799999947, -20.752450799999963 ], [ -50.12476769999995, -20.747288599999933 ], [ -50.123402399999975, -20.744671 ], [ -50.124053099999969, -20.739231399999937 ], [ -50.121105399999976, -20.735471799999971 ], [ -50.120429199999933, -20.733328599999936 ], [ -50.121531599999969, -20.72516539999998 ], [ -50.117991399999937, -20.721643099999937 ], [ -50.122521099999972, -20.714565 ], [ -50.125775099999942, -20.698241099999962 ], [ -50.121812599999942, -20.6942 ], [ -50.121570799999972, -20.690948599999956 ], [ -50.122990399999935, -20.682965399999944 ], [ -50.117944, -20.67622659999995 ], [ -50.112202499999967, -20.674061499999937 ], [ -50.107915, -20.670790199999942 ], [ -50.105243099999939, -20.672191599999962 ], [ -50.101664599999935, -20.672100899999975 ], [ -50.100464799999941, -20.669463599999972 ], [ -50.101567899999964, -20.661081399999944 ], [ -50.098050099999966, -20.656149299999981 ], [ -50.094391499999972, -20.647233099999937 ], [ -50.093072099999972, -20.636550499999942 ], [ -50.088490599999943, -20.630705399999954 ], [ -50.088086, -20.625984699999947 ], [ -50.088639, -20.622788299999968 ], [ -50.091885899999966, -20.616845699999942 ], [ -50.103761499999962, -20.611463499999957 ], [ -50.107055699999933, -20.607059899999967 ], [ -50.111062299999958, -20.604252799999927 ], [ -50.114008899999931, -20.600296599999979 ], [ -50.114823299999955, -20.595594099999971 ], [ -50.118025899999964, -20.591236399999957 ], [ -50.117181799999969, -20.589487199999951 ], [ -50.117294399999935, -20.585953299999971 ], [ -50.119319699999949, -20.582359499999939 ], [ -50.119121899999982, -20.579448 ], [ -50.120960099999934, -20.577476599999954 ], [ -50.124661599999968, -20.570605599999965 ], [ -50.124622899999963, -20.56397549999997 ], [ -50.126175899999964, -20.559498099999928 ], [ -50.128737299999955, -20.557134299999973 ], [ -50.128120299999978, -20.552848299999937 ], [ -50.124360799999977, -20.551752699999952 ], [ -50.126806299999942, -20.54679479999993 ], [ -50.12551609999997, -20.54386889999995 ], [ -50.125085199999944, -20.540171499999929 ], [ -50.123139099999946, -20.53684869999995 ], [ -50.121664099999975, -20.535821899999974 ], [ -50.120896199999947, -20.53306189999995 ], [ -50.123261899999932, -20.525301 ], [ -50.121654199999966, -20.524309 ], [ -50.121551499999953, -20.522502399999951 ], [ -50.120168499999977, -20.521651 ], [ -50.11687349999994, -20.52204949999998 ], [ -50.11498359999996, -20.518941499999983 ], [ -50.111930399999949, -20.522520499999928 ], [ -50.11031909999997, -20.522954899999945 ], [ -50.108643099999938, -20.522248799999943 ], [ -50.107969599999933, -20.515632899999957 ], [ -50.103801299999986, -20.515101699999946 ], [ -50.102356, -20.513927399999943 ], [ -50.099594599999932, -20.516246699999954 ], [ -50.100641, -20.517499699999973 ], [ -50.10083179999998, -20.520103899999981 ], [ -50.10184849999996, -20.520389699999953 ], [ -50.101580299999966, -20.522440399999937 ], [ -50.096740499999953, -20.52228109999993 ], [ -50.094767599999955, -20.523665799999947 ], [ -50.095072199999947, -20.525129299999946 ], [ -50.092681, -20.524996099999953 ], [ -50.092135299999939, -20.525798 ], [ -50.090433599999983, -20.524635599999954 ], [ -50.089137499999936, -20.524722699999927 ], [ -50.086662099999955, -20.522000399999968 ], [ -50.084739, -20.52216459999994 ], [ -50.084429399999976, -20.521559399999944 ], [ -50.083705, -20.524845699999958 ], [ -50.087334299999952, -20.527489699999933 ], [ -50.086784299999977, -20.528995699999939 ], [ -50.084496099999967, -20.530700399999944 ], [ -50.084724199999982, -20.533042099999932 ], [ -50.083689499999934, -20.533445799999981 ], [ -50.079379299999971, -20.530398399999967 ], [ -50.079431, -20.531277199999977 ], [ -50.078477099999986, -20.531258699999967 ], [ -50.076652099999933, -20.534058899999934 ], [ -50.075358699999981, -20.534850099999971 ], [ -50.074499499999945, -20.534483399999942 ], [ -50.075401499999941, -20.536030599999947 ], [ -50.073842899999931, -20.537115399999948 ], [ -50.073998499999959, -20.538470899999936 ], [ -50.072706499999981, -20.539027399999952 ], [ -50.070975699999963, -20.541519499999936 ], [ -50.067978499999981, -20.537969199999964 ], [ -50.067505899999958, -20.541936799999974 ], [ -50.065785, -20.541612399999963 ], [ -50.06425379999996, -20.542858199999955 ], [ -50.062813399999982, -20.542065799999932 ], [ -50.06131339999996, -20.542862399999933 ], [ -50.061249699999962, -20.543961899999942 ], [ -50.058712399999933, -20.543237199999965 ], [ -50.056714899999974, -20.546217399999932 ], [ -50.056140099999936, -20.544752299999971 ] ] ] ] } }
]
}
