{
"type": "FeatureCollection",
"name": "ER_REGIAO_Glicério_Juritis",
"crs": { "type": "name", "properties": { "name": "urn:ogc:def:crs:EPSG::4674" } },
"xy_coordinate_resolution": 1e-15,
"features": [
{ "type": "Feature", "properties": { "fid": 284, "NM_REGIAO": "Sudeste", "NM_UF": "São Paulo", "NM_MUN": "Glicério", "NM_DIST": "Juritis", "CD_SUBDIST": "35171091000", "ER_REGIAO": "Glicério_Juritis", "ER_REGIAO_CIDADE": "Glicério_Juritis_Araçatuba" }, "geometry": { "type": "MultiPolygon", "coordinates": [ [ [ [ -50.1760356, -21.1676216 ], [ -50.17465, -21.1600121 ], [ -50.1723386, -21.1556688 ], [ -50.1608357, -21.1493797 ], [ -50.1554465, -21.1442807 ], [ -50.1550944, -21.1419572 ], [ -50.1570237, -21.1386972 ], [ -50.1573043, -21.13637 ], [ -50.1495946, -21.1408407 ], [ -50.1476623, -21.1422016 ], [ -50.14635, -21.1446081 ], [ -50.1463565, -21.147481 ], [ -50.1484128, -21.1529404 ], [ -50.1483, -21.1555833 ], [ -50.1393973, -21.1698553 ], [ -50.134393, -21.1902295 ], [ -50.132862, -21.1927544 ], [ -50.1288873, -21.1955191 ], [ -50.129932, -21.197981 ], [ -50.1344532, -21.2011554 ], [ -50.1376779, -21.205108 ], [ -50.1408786, -21.2140451 ], [ -50.1423556, -21.2225993 ], [ -50.1416486, -21.2279528 ], [ -50.142976, -21.2535398 ], [ -50.1415185, -21.2579526 ], [ -50.1426724, -21.2620887 ], [ -50.1491161, -21.2694897 ], [ -50.148981, -21.2710492 ], [ -50.1502693, -21.2708785 ], [ -50.1566257, -21.2732955 ], [ -50.1609659, -21.2769685 ], [ -50.1617717, -21.2788272 ], [ -50.1660867, -21.2811434 ], [ -50.1817044, -21.295297 ], [ -50.1849449, -21.2924425 ], [ -50.1902541, -21.2898827 ], [ -50.1974003, -21.2906544 ], [ -50.200955, -21.2892467 ], [ -50.2086286, -21.2692066 ], [ -50.2091155, -21.2658524 ], [ -50.2086332, -21.2624502 ], [ -50.2051064, -21.2566758 ], [ -50.2023529, -21.2541631 ], [ -50.1951646, -21.2512727 ], [ -50.1915645, -21.2471763 ], [ -50.1909354, -21.2438728 ], [ -50.1872161, -21.2415725 ], [ -50.1856255, -21.2394266 ], [ -50.1850695, -21.22783 ], [ -50.1839932, -21.2240881 ], [ -50.1815078, -21.2207768 ], [ -50.1797305, -21.2107775 ], [ -50.1806326, -21.2041804 ], [ -50.1790193, -21.1997072 ], [ -50.1806589, -21.1935419 ], [ -50.181103, -21.1837306 ], [ -50.1784412, -21.1742335 ], [ -50.175797, -21.1703101 ], [ -50.1760356, -21.1676216 ] ] ] ] } }
]
}
