{
"type": "FeatureCollection",
"name": "ER_REGIAO_Teodoro Sampaio_Planalto do Sul",
"crs": { "type": "name", "properties": { "name": "urn:ogc:def:crs:EPSG::4674" } },
"xy_coordinate_resolution": 1e-15,
"features": [
{ "type": "Feature", "properties": { "fid": 994, "NM_REGIAO": "Sudeste", "NM_UF": "São Paulo", "NM_MUN": "Teodoro Sampaio", "NM_DIST": "Planalto do Sul", "CD_SUBDIST": "35543002500", "ER_REGIAO": "Teodoro Sampaio_Planalto do Sul", "ER_REGIAO_CIDADE": "Teodoro Sampaio_Planalto do Sul_Presidente Prudente" }, "geometry": { "type": "MultiPolygon", "coordinates": [ [ [ [ -52.3143578, -22.3790235 ], [ -52.3210993, -22.3777516 ], [ -52.3258596, -22.3726611 ], [ -52.3294603, -22.3704702 ], [ -52.3358168, -22.3721425 ], [ -52.3387717, -22.3717322 ], [ -52.3432087, -22.3667597 ], [ -52.3525531, -22.3587095 ], [ -52.353557, -22.3563995 ], [ -52.3542043, -22.3471697 ], [ -52.3640929, -22.3383908 ], [ -52.3651374, -22.3364008 ], [ -52.3654863, -22.3322821 ], [ -52.3665891, -22.3306185 ], [ -52.369725, -22.3304948 ], [ -52.3730438, -22.3291658 ], [ -52.3762063, -22.3297672 ], [ -52.3793159, -22.3282238 ], [ -52.3880232, -22.3285571 ], [ -52.3897921, -22.3260883 ], [ -52.3969093, -22.3214074 ], [ -52.4000143, -22.3181049 ], [ -52.4074143, -22.3183799 ], [ -52.411755, -22.3175206 ], [ -52.4118868, -22.3104176 ], [ -52.4148713, -22.3073294 ], [ -52.4157281, -22.3042483 ], [ -52.4195946, -22.3010684 ], [ -52.4223032, -22.295119 ], [ -52.4233991, -22.2900847 ], [ -52.4261423, -22.2862039 ], [ -52.4266924, -22.2837039 ], [ -52.4297351, -22.2821877 ], [ -52.4359088, -22.272318 ], [ -52.441293, -22.2679523 ], [ -52.4460429, -22.2609855 ], [ -52.4502184, -22.2585534 ], [ -52.4534737, -22.255271 ], [ -52.4566615, -22.2539714 ], [ -52.4591688, -22.2511071 ], [ -52.4630554, -22.2487893 ], [ -52.4641644, -22.24718 ], [ -52.465729, -22.2470242 ], [ -52.4663473, -22.2454789 ], [ -52.4710813, -22.2420151 ], [ -52.4754527, -22.2407191 ], [ -52.4794211, -22.23823 ], [ -52.4803214, -22.2363429 ], [ -52.4864223, -22.2344457 ], [ -52.4895439, -22.2345207 ], [ -52.4910188, -22.2371586 ], [ -52.4923096, -22.2374748 ], [ -52.4961906, -22.2352686 ], [ -52.496179, -22.2341251 ], [ -52.4909718, -22.229611 ], [ -52.4890003, -22.2265096 ], [ -52.4881896, -22.2229476 ], [ -52.4898423, -22.2182948 ], [ -52.4877143, -22.217206 ], [ -52.4842164, -22.2132543 ], [ -52.4799657, -22.2008818 ], [ -52.456185, -22.1853099 ], [ -52.4433924, -22.185041 ], [ -52.4409147, -22.1824145 ], [ -52.4324632, -22.1807119 ], [ -52.4299342, -22.1832462 ], [ -52.4275351, -22.1834226 ], [ -52.4234792, -22.185989 ], [ -52.4188099, -22.1862507 ], [ -52.4131583, -22.1920334 ], [ -52.4118151, -22.1967024 ], [ -52.4082698, -22.1995939 ], [ -52.4073313, -22.2015981 ], [ -52.4027589, -22.2023666 ], [ -52.3985531, -22.206565 ], [ -52.3939028, -22.208546 ], [ -52.3906769, -22.21132 ], [ -52.386617, -22.2118532 ], [ -52.3688087, -22.2203825 ], [ -52.3615888, -22.2213356 ], [ -52.3587958, -22.2208723 ], [ -52.3524543, -22.225677 ], [ -52.3510749, -22.2256775 ], [ -52.3499567, -22.2277264 ], [ -52.3409923, -22.2304032 ], [ -52.337841, -22.234208 ], [ -52.3360585, -22.2379742 ], [ -52.330439, -22.2392654 ], [ -52.3263643, -22.2385967 ], [ -52.3234113, -22.2398576 ], [ -52.3205933, -22.2395132 ], [ -52.3118752, -22.2456479 ], [ -52.3081366, -22.2469886 ], [ -52.307689, -22.2482297 ], [ -52.3032453, -22.2493905 ], [ -52.3013112, -22.2511171 ], [ -52.297782, -22.2524552 ], [ -52.2934891, -22.2570044 ], [ -52.290698, -22.2636927 ], [ -52.2882008, -22.266539 ], [ -52.2870102, -22.2709284 ], [ -52.2845824, -22.2733981 ], [ -52.273636, -22.2760807 ], [ -52.2695301, -22.2783102 ], [ -52.2653404, -22.2820563 ], [ -52.2643915, -22.2818096 ], [ -52.2600287, -22.2838339 ], [ -52.2532256, -22.284651 ], [ -52.2510603, -22.2870173 ], [ -52.2436703, -22.2890419 ], [ -52.2406186, -22.2909489 ], [ -52.2386066, -22.2908142 ], [ -52.2363832, -22.2890414 ], [ -52.2332233, -22.2879725 ], [ -52.2281497, -22.2885149 ], [ -52.2227821, -22.2866001 ], [ -52.2195142, -22.288239 ], [ -52.2140173, -22.2884891 ], [ -52.2093552, -22.2861322 ], [ -52.2109828, -22.2897828 ], [ -52.2151933, -22.2948511 ], [ -52.2156536, -22.2977278 ], [ -52.2174067, -22.300078 ], [ -52.2169417, -22.3022277 ], [ -52.2146856, -22.3049355 ], [ -52.2139203, -22.3084081 ], [ -52.2132607, -22.3227933 ], [ -52.2144573, -22.3240306 ], [ -52.2190539, -22.3256908 ], [ -52.2206767, -22.3290722 ], [ -52.2234189, -22.3309231 ], [ -52.228902, -22.3328193 ], [ -52.2320559, -22.3386711 ], [ -52.231499, -22.3455755 ], [ -52.2275589, -22.353279 ], [ -52.2255629, -22.3593958 ], [ -52.2250485, -22.3674291 ], [ -52.2258685, -22.3684234 ], [ -52.2253674, -22.3695889 ], [ -52.2271467, -22.3717426 ], [ -52.2271506, -22.3746911 ], [ -52.2245945, -22.3792537 ], [ -52.2233787, -22.3927869 ], [ -52.219981, -22.4003046 ], [ -52.2244023, -22.399594 ], [ -52.2317493, -22.3936261 ], [ -52.2345976, -22.3922597 ], [ -52.2387728, -22.3930979 ], [ -52.2431093, -22.391381 ], [ -52.2454053, -22.3921372 ], [ -52.2466582, -22.3936006 ], [ -52.2481818, -22.3933887 ], [ -52.251854, -22.3922079 ], [ -52.2549688, -22.3891478 ], [ -52.2596644, -22.3878153 ], [ -52.2613658, -22.3863332 ], [ -52.2653841, -22.3868223 ], [ -52.2701492, -22.3862919 ], [ -52.2734987, -22.3836041 ], [ -52.2789745, -22.3821268 ], [ -52.2819934, -22.3803317 ], [ -52.2934613, -22.3796613 ], [ -52.3025349, -22.3812778 ], [ -52.310329, -22.3815824 ], [ -52.3143578, -22.3790235 ] ] ] ] } }
]
}
