{
"type": "FeatureCollection",
"name": "ER_REGIAO_Pirajuí_Pradínia",
"crs": { "type": "name", "properties": { "name": "urn:ogc:def:crs:EPSG::4674" } },
"xy_coordinate_resolution": 1e-15,
"features": [
{ "type": "Feature", "properties": { "fid": 652, "NM_REGIAO": "Sudeste", "NM_UF": "São Paulo", "NM_MUN": "Pirajuí", "NM_DIST": "Pradínia", "CD_SUBDIST": "35389071500", "ER_REGIAO": "Pirajuí_Pradínia", "ER_REGIAO_CIDADE": "Pirajuí_Pradínia_Bauru" }, "geometry": { "type": "MultiPolygon", "coordinates": [ [ [ [ -49.267061799999965, -21.782243799999947 ], [ -49.263763199999971, -21.773509 ], [ -49.263581099999953, -21.764135599999975 ], [ -49.262590199999977, -21.762677599999961 ], [ -49.260306399999934, -21.761650199999963 ], [ -49.258162599999935, -21.754757599999948 ], [ -49.260218, -21.752638099999956 ], [ -49.258179799999937, -21.749325 ], [ -49.258386199999961, -21.747490399999947 ], [ -49.263162199999954, -21.745044 ], [ -49.267007399999954, -21.739008799999965 ], [ -49.264244399999939, -21.730906799999957 ], [ -49.264097, -21.728358499999956 ], [ -49.259985499999971, -21.723049499999945 ], [ -49.258779, -21.720065599999941 ], [ -49.253830599999958, -21.715430799999979 ], [ -49.25096949999994, -21.714047299999947 ], [ -49.248863599999936, -21.714190699999961 ], [ -49.242688899999962, -21.711045699999943 ], [ -49.240086799999972, -21.70588319999996 ], [ -49.241794599999935, -21.69651 ], [ -49.240415399999961, -21.688627699999927 ], [ -49.24124779999994, -21.686514699999975 ], [ -49.240919399999939, -21.683978399999944 ], [ -49.244242299999939, -21.680707799999936 ], [ -49.244353799999942, -21.677906599999972 ], [ -49.242711199999974, -21.675089499999956 ], [ -49.24284369999998, -21.673734799999977 ], [ -49.23914579999996, -21.673306499999967 ], [ -49.238635599999952, -21.670803799999931 ], [ -49.229413099999931, -21.67032439999997 ], [ -49.218249, -21.673284899999942 ], [ -49.216201, -21.672981899999968 ], [ -49.213293199999953, -21.671144399999946 ], [ -49.211623499999973, -21.672670099999948 ], [ -49.208176899999955, -21.673470899999927 ], [ -49.201116699999943, -21.682259399999964 ], [ -49.200564199999974, -21.686701599999935 ], [ -49.197204399999976, -21.692965299999969 ], [ -49.194284499999981, -21.694132199999956 ], [ -49.192646299999979, -21.696006199999943 ], [ -49.193393599999979, -21.700279699999953 ], [ -49.191682299999968, -21.702429099999961 ], [ -49.19144689999996, -21.706159699999944 ], [ -49.190062499999954, -21.707110599999965 ], [ -49.188591599999938, -21.711499899999978 ], [ -49.190309899999932, -21.713909799999954 ], [ -49.194025499999952, -21.716245 ], [ -49.194365, -21.719233799999927 ], [ -49.193647699999985, -21.722014599999966 ], [ -49.194706, -21.723628799999972 ], [ -49.194948299999965, -21.726430099999959 ], [ -49.195947799999942, -21.727514799999938 ], [ -49.195949199999973, -21.730146099999956 ], [ -49.199486, -21.736588299999937 ], [ -49.193566199999964, -21.742454299999963 ], [ -49.191477, -21.747041 ], [ -49.191645599999958, -21.750189699999964 ], [ -49.197870399999942, -21.753442599999971 ], [ -49.198065699999972, -21.755068799999947 ], [ -49.19411, -21.759411899999975 ], [ -49.191920499999981, -21.764790799999957 ], [ -49.19059, -21.765528699999948 ], [ -49.185848499999963, -21.765318199999967 ], [ -49.18439369999993, -21.76714149999998 ], [ -49.18434179999997, -21.768905299999972 ], [ -49.184983699999975, -21.771193299999936 ], [ -49.190299099999947, -21.778244899999947 ], [ -49.190395699999954, -21.781676499999946 ], [ -49.19622389999995, -21.784662 ], [ -49.196725899999933, -21.786010799999929 ], [ -49.196528299999954, -21.790608499999962 ], [ -49.192079599999943, -21.792862099999979 ], [ -49.19085119999994, -21.795733 ], [ -49.188819299999977, -21.795983 ], [ -49.187735, -21.797932599999967 ], [ -49.189073699999938, -21.80436 ], [ -49.190346599999941, -21.80477019999995 ], [ -49.190845499999966, -21.807857199999944 ], [ -49.194523499999946, -21.809180699999956 ], [ -49.193793399999947, -21.810040099999981 ], [ -49.194718799999976, -21.81115079999995 ], [ -49.19555639999993, -21.811191 ], [ -49.197540099999969, -21.808951199999967 ], [ -49.198846499999945, -21.810871499999962 ], [ -49.202552799999978, -21.810218899999938 ], [ -49.204369399999962, -21.811282199999937 ], [ -49.205834899999957, -21.813619899999935 ], [ -49.205161299999986, -21.814156499999967 ], [ -49.205299399999944, -21.817357699999945 ], [ -49.206870899999956, -21.819044399999939 ], [ -49.205944299999942, -21.822778 ], [ -49.206476099999975, -21.824410799999953 ], [ -49.205062099999964, -21.82630329999995 ], [ -49.209346, -21.827823799999976 ], [ -49.210268499999984, -21.830025199999966 ], [ -49.21377259999997, -21.832476299999939 ], [ -49.214571099999944, -21.835680699999955 ], [ -49.217001, -21.838015799999937 ], [ -49.217391599999985, -21.840315799999928 ], [ -49.221038699999951, -21.846146 ], [ -49.218534599999941, -21.847293599999944 ], [ -49.217712099999972, -21.849397799999963 ], [ -49.220610099999931, -21.85119009999994 ], [ -49.22100249999994, -21.852224799999931 ], [ -49.223923399999933, -21.852178 ], [ -49.22597, -21.853908799999942 ], [ -49.226391299999932, -21.856000399999971 ], [ -49.224350199999947, -21.856082799999967 ], [ -49.223986699999955, -21.857226699999956 ], [ -49.224840799999981, -21.857092499999965 ], [ -49.225024599999983, -21.860303299999941 ], [ -49.226341499999933, -21.860030499999937 ], [ -49.227695399999959, -21.862419 ], [ -49.229690799999958, -21.862649199999964 ], [ -49.231320699999969, -21.860788399999933 ], [ -49.234587799999986, -21.85987119999993 ], [ -49.236605599999962, -21.860558 ], [ -49.23688379999993, -21.859517499999981 ], [ -49.239070399999946, -21.858966899999928 ], [ -49.242598399999963, -21.859565499999974 ], [ -49.242631499999959, -21.861431099999947 ], [ -49.245822699999962, -21.863291299999958 ], [ -49.244861, -21.865368099999955 ], [ -49.245621299999982, -21.866574899999932 ], [ -49.254234599999961, -21.864286799999945 ], [ -49.25409529999996, -21.863432099999955 ], [ -49.254837699999939, -21.863797099999942 ], [ -49.254703699999936, -21.862759299999937 ], [ -49.256511199999977, -21.862132199999962 ], [ -49.256247099999939, -21.861580299999957 ], [ -49.258969, -21.861049 ], [ -49.260912699999949, -21.862610599999982 ], [ -49.260400599999969, -21.864473799999928 ], [ -49.263414, -21.865588899999977 ], [ -49.26575859999997, -21.865935899999954 ], [ -49.272624699999938, -21.864909499999953 ], [ -49.279675199999986, -21.866674899999964 ], [ -49.282199099999957, -21.865163299999949 ], [ -49.285039099999949, -21.860250699999938 ], [ -49.280405799999983, -21.859363499999972 ], [ -49.277852199999984, -21.857257299999958 ], [ -49.275666, -21.85078679999998 ], [ -49.274801399999944, -21.842745099999945 ], [ -49.270132799999942, -21.840952299999969 ], [ -49.269434299999944, -21.840008 ], [ -49.273173799999938, -21.835630299999934 ], [ -49.273314899999946, -21.834165899999959 ], [ -49.267396699999949, -21.828661699999941 ], [ -49.261976199999935, -21.819261899999958 ], [ -49.25864619999993, -21.816015299999947 ], [ -49.258797899999934, -21.805876799999965 ], [ -49.256347299999959, -21.802237299999945 ], [ -49.25864439999998, -21.798533899999939 ], [ -49.260056899999938, -21.793722199999934 ], [ -49.265776699999947, -21.78587239999996 ], [ -49.267061799999965, -21.782243799999947 ] ] ] ] } }
]
}
