{
"type": "FeatureCollection",
"name": "ER_REGIAO_Mirassol_Mirassol",
"crs": { "type": "name", "properties": { "name": "urn:ogc:def:crs:EPSG::4674" } },
"xy_coordinate_resolution": 1e-15,
"features": [
{ "type": "Feature", "properties": { "fid": 501, "NM_REGIAO": "Sudeste", "NM_UF": "São Paulo", "NM_MUN": "Mirassol", "NM_DIST": "Mirassol", "CD_SUBDIST": "35303000500", "ER_REGIAO": "Mirassol_Mirassol", "ER_REGIAO_CIDADE": "Mirassol_Mirassol_São José do Rio Preto" }, "geometry": { "type": "MultiPolygon", "coordinates": [ [ [ [ -49.5102013, -20.8939056 ], [ -49.5178377, -20.8897545 ], [ -49.5204931, -20.883096 ], [ -49.5223543, -20.8805754 ], [ -49.5331538, -20.8757782 ], [ -49.534856, -20.8714411 ], [ -49.5382676, -20.8674836 ], [ -49.5506479, -20.8676727 ], [ -49.5568495, -20.8660085 ], [ -49.5580839, -20.8649266 ], [ -49.5570985, -20.8618281 ], [ -49.5628762, -20.858973 ], [ -49.5657664, -20.859474 ], [ -49.5734484, -20.8638539 ], [ -49.5746712, -20.8630023 ], [ -49.5751567, -20.8578852 ], [ -49.5702815, -20.8493206 ], [ -49.5705457, -20.8371964 ], [ -49.5687416, -20.831128 ], [ -49.5648045, -20.8271132 ], [ -49.5631178, -20.8219672 ], [ -49.564357, -20.8198254 ], [ -49.5670925, -20.8184964 ], [ -49.5690993, -20.8155646 ], [ -49.5717571, -20.8145767 ], [ -49.5733519, -20.8128224 ], [ -49.5766209, -20.8122979 ], [ -49.5822765, -20.8097147 ], [ -49.5793497, -20.809248 ], [ -49.5765909, -20.8064833 ], [ -49.5761728, -20.8036932 ], [ -49.5739872, -20.7995299 ], [ -49.5735673, -20.7976151 ], [ -49.5745127, -20.7910887 ], [ -49.5762059, -20.7892019 ], [ -49.5649449, -20.7861516 ], [ -49.5567304, -20.781414 ], [ -49.5537756, -20.7727731 ], [ -49.5470292, -20.7638278 ], [ -49.542867, -20.7602651 ], [ -49.5397892, -20.759058 ], [ -49.5364614, -20.7563647 ], [ -49.5272432, -20.752945 ], [ -49.519809, -20.7474503 ], [ -49.5163186, -20.7475212 ], [ -49.5058185, -20.744369 ], [ -49.5021493, -20.7447882 ], [ -49.4949976, -20.739875 ], [ -49.4905078, -20.7301426 ], [ -49.4893148, -20.7290481 ], [ -49.4886866, -20.7245512 ], [ -49.4873908, -20.7225817 ], [ -49.4865937, -20.7137155 ], [ -49.4878644, -20.7082383 ], [ -49.4869899, -20.7040505 ], [ -49.4854291, -20.7012441 ], [ -49.4865178, -20.6956504 ], [ -49.4844794, -20.6948339 ], [ -49.481811, -20.691886 ], [ -49.4738407, -20.6886973 ], [ -49.466996, -20.6842899 ], [ -49.465277, -20.681651 ], [ -49.464865, -20.682634 ], [ -49.462657, -20.683185 ], [ -49.461152, -20.684982 ], [ -49.460757, -20.694242 ], [ -49.462373, -20.699935 ], [ -49.463267, -20.707904 ], [ -49.462023, -20.711779 ], [ -49.462369, -20.71785 ], [ -49.46012, -20.723449 ], [ -49.459055, -20.73131 ], [ -49.455611, -20.736153 ], [ -49.443385, -20.744913 ], [ -49.442303, -20.747471 ], [ -49.442495, -20.750352 ], [ -49.4452336, -20.7572734 ], [ -49.445634, -20.763699 ], [ -49.447724, -20.766943 ], [ -49.45057, -20.77443 ], [ -49.454576, -20.779043 ], [ -49.458436, -20.785199 ], [ -49.459595, -20.788891 ], [ -49.457996, -20.791533 ], [ -49.455762, -20.801172 ], [ -49.45366, -20.804552 ], [ -49.437745, -20.84585 ], [ -49.433388, -20.852163 ], [ -49.432469, -20.859344 ], [ -49.434306, -20.865121 ], [ -49.432239, -20.878027 ], [ -49.434105, -20.879736 ], [ -49.437775, -20.8789 ], [ -49.441508, -20.880766 ], [ -49.448399, -20.882256 ], [ -49.454839, -20.881516 ], [ -49.458906, -20.883689 ], [ -49.461986, -20.88687 ], [ -49.466124, -20.889286 ], [ -49.477406, -20.887888 ], [ -49.486121, -20.891357 ], [ -49.490915, -20.89501 ], [ -49.49703, -20.898146 ], [ -49.5000491, -20.8978204 ], [ -49.5057604, -20.8992269 ], [ -49.5087452, -20.9019125 ], [ -49.5089792, -20.899774 ], [ -49.5113783, -20.8979575 ], [ -49.5099048, -20.8949475 ], [ -49.5102013, -20.8939056 ] ] ] ] } }
]
}
