{
"type": "FeatureCollection",
"name": "ER_REGIAO_Mogi das Cruzes_Biritiba-Ussu",
"crs": { "type": "name", "properties": { "name": "urn:ogc:def:crs:EPSG::4674" } },
"xy_coordinate_resolution": 1e-15,
"features": [
{ "type": "Feature", "properties": { "fid": 508, "NM_REGIAO": "Sudeste", "NM_UF": "São Paulo", "NM_MUN": "Mogi das Cruzes", "NM_DIST": "Biritiba-Ussu", "CD_SUBDIST": "35306070700", "ER_REGIAO": "Mogi das Cruzes_Biritiba-Ussu", "ER_REGIAO_CIDADE": "Mogi das Cruzes_Biritiba-Ussu_Alto Tietê" }, "geometry": { "type": "MultiPolygon", "coordinates": [ [ [ [ -46.145543, -23.691958 ], [ -46.144584, -23.68813 ], [ -46.145239, -23.684092 ], [ -46.141, -23.679579 ], [ -46.140809, -23.67265 ], [ -46.142665, -23.671876 ], [ -46.142551, -23.669418 ], [ -46.143695, -23.669215 ], [ -46.146179, -23.665873 ], [ -46.154699, -23.662205 ], [ -46.158329, -23.65834 ], [ -46.156444, -23.655946 ], [ -46.1583668, -23.653193 ], [ -46.158383, -23.651807 ], [ -46.1566769, -23.650604 ], [ -46.1554319, -23.648266 ], [ -46.1560625, -23.6477368 ], [ -46.145826, -23.644332 ], [ -46.141992, -23.643943 ], [ -46.140573, -23.640329 ], [ -46.142196, -23.636455 ], [ -46.146754, -23.631599 ], [ -46.146126, -23.629944 ], [ -46.146905, -23.629495 ], [ -46.146478, -23.627219 ], [ -46.147647, -23.623526 ], [ -46.150369, -23.620994 ], [ -46.151747, -23.617715 ], [ -46.144274, -23.615841 ], [ -46.141568, -23.617307 ], [ -46.135287, -23.617843 ], [ -46.129521, -23.6203455 ], [ -46.12505, -23.620633 ], [ -46.123998, -23.622325 ], [ -46.121658, -23.623075 ], [ -46.117322, -23.618142 ], [ -46.112165, -23.614531 ], [ -46.107176, -23.614253 ], [ -46.100311, -23.612253 ], [ -46.098971, -23.610263 ], [ -46.096582, -23.609555 ], [ -46.09188, -23.609756 ], [ -46.0885405, -23.6109858 ], [ -46.088065, -23.612009 ], [ -46.088743, -23.614281 ], [ -46.091719, -23.619374 ], [ -46.094699, -23.622042 ], [ -46.094737, -23.623537 ], [ -46.093774, -23.623338 ], [ -46.094598, -23.625005 ], [ -46.088909, -23.636468 ], [ -46.088804, -23.640692 ], [ -46.090734, -23.64187 ], [ -46.090709, -23.64439 ], [ -46.091641, -23.645158 ], [ -46.09216, -23.648231 ], [ -46.09804, -23.652326 ], [ -46.098576, -23.654349 ], [ -46.097478, -23.657087 ], [ -46.098314, -23.658886 ], [ -46.097456, -23.660274 ], [ -46.100491, -23.661882 ], [ -46.103128, -23.665886 ], [ -46.100855, -23.667529 ], [ -46.099596, -23.666997 ], [ -46.096559, -23.667509 ], [ -46.091241, -23.665171 ], [ -46.088678, -23.665879 ], [ -46.084595, -23.664266 ], [ -46.082689, -23.664749 ], [ -46.081565, -23.668492 ], [ -46.082044, -23.672613 ], [ -46.081534, -23.673749 ], [ -46.082614, -23.675389 ], [ -46.08188, -23.679004 ], [ -46.083262, -23.681734 ], [ -46.082743, -23.683048 ], [ -46.083997, -23.683726 ], [ -46.084097, -23.685493 ], [ -46.086661, -23.688523 ], [ -46.087592, -23.690858 ], [ -46.08715, -23.691398 ], [ -46.089597, -23.69454 ], [ -46.089872, -23.697084 ], [ -46.092203, -23.700176 ], [ -46.093219, -23.704897 ], [ -46.099058, -23.712767 ], [ -46.099711, -23.717352 ], [ -46.100905, -23.71845 ], [ -46.103891, -23.715499 ], [ -46.103127, -23.712716 ], [ -46.104819, -23.711195 ], [ -46.106624, -23.711714 ], [ -46.108546, -23.715142 ], [ -46.111467, -23.714882 ], [ -46.113919, -23.717801 ], [ -46.11583, -23.717625 ], [ -46.11702, -23.715986 ], [ -46.118191, -23.715766 ], [ -46.122546, -23.71872 ], [ -46.12357, -23.717138 ], [ -46.122408, -23.714879 ], [ -46.124325, -23.714984 ], [ -46.12612, -23.712895 ], [ -46.12937, -23.720501 ], [ -46.131167, -23.721752 ], [ -46.131817, -23.724869 ], [ -46.136225, -23.724703 ], [ -46.137776, -23.726385 ], [ -46.139854, -23.725856 ], [ -46.145127, -23.72712 ], [ -46.147999, -23.728443 ], [ -46.150171, -23.731746 ], [ -46.150945, -23.731317 ], [ -46.150471, -23.730049 ], [ -46.151723, -23.73 ], [ -46.154773, -23.732101 ], [ -46.157997, -23.730936 ], [ -46.157428, -23.729347 ], [ -46.158365, -23.728446 ], [ -46.158161, -23.726713 ], [ -46.158963, -23.727124 ], [ -46.160505, -23.726215 ], [ -46.160379, -23.723327 ], [ -46.161623, -23.721915 ], [ -46.157934, -23.717021 ], [ -46.158477, -23.715662 ], [ -46.157796, -23.713812 ], [ -46.153372, -23.711417 ], [ -46.15149, -23.708743 ], [ -46.152494, -23.706719 ], [ -46.156024, -23.705519 ], [ -46.15711, -23.703717 ], [ -46.155064, -23.702874 ], [ -46.15288, -23.700692 ], [ -46.14733, -23.698576 ], [ -46.145798, -23.696317 ], [ -46.147232, -23.693241 ], [ -46.145543, -23.691958 ] ] ] ] } }
]
}
