{
"type": "FeatureCollection",
"name": "ER_REGIAO_Mendonça",
"crs": { "type": "name", "properties": { "name": "urn:ogc:def:crs:EPSG::4674" } },
"xy_coordinate_resolution": 1e-15,
"features": [
{ "type": "Feature", "properties": { "fid": 485, "NM_REGIAO": "Sudeste", "NM_UF": "São Paulo", "NM_MUN": "Mendonça", "NM_DIST": "Mendonça", "CD_SUBDIST": "35295000500", "ER_REGIAO": "Mendonça", "ER_REGIAO_CIDADE": "Mendonça_São José do Rio Preto" }, "geometry": { "type": "MultiPolygon", "coordinates": [ [ [ [ -49.534863099999939, -21.159876099999963 ], [ -49.513112799999931, -21.158010599999955 ], [ -49.511813399999937, -21.160431599999981 ], [ -49.508705499999962, -21.160656099999983 ], [ -49.507604, -21.162197399999968 ], [ -49.505024599999956, -21.162048699999957 ], [ -49.503941599999962, -21.161134799999957 ], [ -49.503960499999948, -21.155011099999967 ], [ -49.50309029999994, -21.151746799999955 ], [ -49.504205, -21.149495899999977 ], [ -49.502387, -21.148272199999951 ], [ -49.50343689999994, -21.146398499999975 ], [ -49.497370299999943, -21.142520699999977 ], [ -49.495524699999976, -21.140398299999958 ], [ -49.495679199999984, -21.138159499999972 ], [ -49.486655199999973, -21.144976399999962 ], [ -49.484445699999981, -21.149642099999937 ], [ -49.479530899999986, -21.150934099999972 ], [ -49.474776299999974, -21.154805499999952 ], [ -49.465772699999945, -21.159367 ], [ -49.460573499999953, -21.159894799999961 ], [ -49.459298299999944, -21.162410699999953 ], [ -49.462286399999982, -21.169945399999961 ], [ -49.46175089999997, -21.172840599999972 ], [ -49.462540599999954, -21.175115199999937 ], [ -49.46116909999995, -21.177060299999937 ], [ -49.460154699999975, -21.177282599999955 ], [ -49.460491699999977, -21.17835759999997 ], [ -49.458881399999939, -21.178282899999942 ], [ -49.458469599999944, -21.181412099999932 ], [ -49.456643299999939, -21.182694099999935 ], [ -49.454485399999953, -21.187537199999952 ], [ -49.456490599999938, -21.188028 ], [ -49.456338099999982, -21.189044799999976 ], [ -49.459019199999943, -21.18999249999996 ], [ -49.459478799999943, -21.191248299999927 ], [ -49.458549799999957, -21.193459 ], [ -49.459575399999949, -21.192751199999975 ], [ -49.459897499999954, -21.194190799999944 ], [ -49.461002299999961, -21.193727499999966 ], [ -49.461461299999939, -21.196171799999945 ], [ -49.462609, -21.195721399999968 ], [ -49.465414399999986, -21.196548899999982 ], [ -49.465743, -21.197776799999929 ], [ -49.46781249999998, -21.199006299999951 ], [ -49.470341699999949, -21.203894799999944 ], [ -49.474419099999977, -21.201691599999947 ], [ -49.477458799999965, -21.201760199999967 ], [ -49.479955599999982, -21.203172199999983 ], [ -49.480644299999938, -21.204126799999983 ], [ -49.479894899999977, -21.205541399999959 ], [ -49.481048599999951, -21.205246 ], [ -49.481372199999953, -21.206483699999978 ], [ -49.482506299999955, -21.206132799999978 ], [ -49.482781899999964, -21.207873 ], [ -49.486175, -21.208045499999969 ], [ -49.487929399999985, -21.20742 ], [ -49.488798299999985, -21.203912599999967 ], [ -49.491171899999983, -21.202344799999935 ], [ -49.492656, -21.204840799999943 ], [ -49.492334899999946, -21.206939 ], [ -49.493275499999982, -21.20763089999997 ], [ -49.500197699999944, -21.205913599999974 ], [ -49.502389199999982, -21.205867299999966 ], [ -49.502543799999955, -21.206708599999956 ], [ -49.505063199999938, -21.207194499999957 ], [ -49.505098699999962, -21.211552299999937 ], [ -49.506632199999956, -21.213412399999982 ], [ -49.507089099999973, -21.216647 ], [ -49.512615799999935, -21.21853909999993 ], [ -49.51307479999997, -21.219960599999979 ], [ -49.512264099999982, -21.223150699999962 ], [ -49.51339749999994, -21.222796899999935 ], [ -49.514436799999942, -21.223639099999957 ], [ -49.514778299999932, -21.222447799999941 ], [ -49.515551799999969, -21.22239529999996 ], [ -49.517321599999946, -21.223460499999931 ], [ -49.51771059999993, -21.228054 ], [ -49.518586199999959, -21.227207599999929 ], [ -49.52091779999995, -21.227030499999955 ], [ -49.521985399999949, -21.228628499999957 ], [ -49.522892899999931, -21.22812719999996 ], [ -49.528255599999966, -21.228865599999949 ], [ -49.528346, -21.229797099999928 ], [ -49.526135099999976, -21.229135699999972 ], [ -49.526133899999934, -21.23061 ], [ -49.528543099999979, -21.23028979999998 ], [ -49.529421199999945, -21.231274499999927 ], [ -49.52822679999997, -21.234095899999943 ], [ -49.526350199999968, -21.235220499999969 ], [ -49.527072299999986, -21.236484099999927 ], [ -49.528545399999985, -21.236116599999946 ], [ -49.529640499999971, -21.238053299999933 ], [ -49.530548799999963, -21.238037599999927 ], [ -49.530962299999942, -21.240748399999973 ], [ -49.533279599999958, -21.240318499999944 ], [ -49.532799199999943, -21.242121599999962 ], [ -49.534372899999937, -21.241391799999974 ], [ -49.536323399999958, -21.242034499999932 ], [ -49.537093099999936, -21.240959 ], [ -49.53797789999993, -21.241626699999927 ], [ -49.537852699999974, -21.245588399999974 ], [ -49.539331499999946, -21.246630399999958 ], [ -49.540216399999963, -21.249887099999967 ], [ -49.539482099999987, -21.253621 ], [ -49.54278069999998, -21.253607099999954 ], [ -49.545090399999935, -21.252028799999948 ], [ -49.547613199999944, -21.252717099999927 ], [ -49.548708599999941, -21.256670499999927 ], [ -49.54686369999996, -21.259875 ], [ -49.54809819999997, -21.261098 ], [ -49.548237599999936, -21.262549799999931 ], [ -49.549308499999938, -21.263252099999931 ], [ -49.55274739999993, -21.262975899999958 ], [ -49.555533499999967, -21.260844099999929 ], [ -49.557334399999945, -21.261344699999938 ], [ -49.557493699999952, -21.260500899999954 ], [ -49.557947299999967, -21.261348199999929 ], [ -49.559724399999936, -21.261293099999932 ], [ -49.560785, -21.262373499999967 ], [ -49.559910099999968, -21.264898099999982 ], [ -49.557375499999978, -21.267126799999971 ], [ -49.558794099999943, -21.270121699999947 ], [ -49.562046199999941, -21.269808 ], [ -49.563382299999944, -21.270414399999936 ], [ -49.564667199999974, -21.269450599999971 ], [ -49.564743, -21.268370199999936 ], [ -49.567223199999944, -21.269591599999956 ], [ -49.566919499999983, -21.268371499999944 ], [ -49.570882799999936, -21.267227299999945 ], [ -49.572434099999953, -21.271108799999979 ], [ -49.57477, -21.269584899999927 ], [ -49.578742799999986, -21.264963099999932 ], [ -49.582022799999947, -21.262841899999955 ], [ -49.584105399999942, -21.262693599999977 ], [ -49.584984799999972, -21.263744799999927 ], [ -49.587767499999984, -21.275562799999932 ], [ -49.590285899999969, -21.277578799999958 ], [ -49.597108599999956, -21.276588799999956 ], [ -49.602480599999978, -21.270443799999953 ], [ -49.612493699999959, -21.261358599999937 ], [ -49.612255, -21.255859499999929 ], [ -49.609518499999979, -21.248543299999938 ], [ -49.609511, -21.239038299999947 ], [ -49.60764469999998, -21.231195199999945 ], [ -49.606618799999978, -21.228323499999931 ], [ -49.602540799999986, -21.22341769999997 ], [ -49.601801799999976, -21.221432899999968 ], [ -49.606974699999967, -21.215967199999966 ], [ -49.606740399999978, -21.212625699999933 ], [ -49.608408699999984, -21.209198399999934 ], [ -49.618620599999986, -21.20380339999997 ], [ -49.62608709999995, -21.202845499999967 ], [ -49.636126499999932, -21.211358099999927 ], [ -49.638937399999975, -21.212005599999941 ], [ -49.642651199999932, -21.209306399999946 ], [ -49.650198399999965, -21.208425399999953 ], [ -49.655255099999977, -21.20654449999995 ], [ -49.658923, -21.201582499999972 ], [ -49.663738099999932, -21.197326499999974 ], [ -49.670042799999976, -21.197014799999977 ], [ -49.679762399999959, -21.203550399999983 ], [ -49.68396649999994, -21.204065899999932 ], [ -49.684690499999931, -21.201866299999949 ], [ -49.683928499999979, -21.201099699999929 ], [ -49.684926, -21.200923199999977 ], [ -49.68526879999996, -21.199672899999939 ], [ -49.68396359999997, -21.198272399999951 ], [ -49.685353799999973, -21.196651199999963 ], [ -49.686489799999947, -21.19654769999994 ], [ -49.686252899999943, -21.19502209999996 ], [ -49.687052599999959, -21.19445479999996 ], [ -49.687081299999932, -21.193105399999979 ], [ -49.685353, -21.192374599999937 ], [ -49.687681, -21.189143299999955 ], [ -49.685982199999955, -21.187929299999951 ], [ -49.685968, -21.186661699999945 ], [ -49.687956, -21.18488629999996 ], [ -49.687567299999955, -21.183905799999934 ], [ -49.683767099999955, -21.181511599999965 ], [ -49.680866099999946, -21.177387299999964 ], [ -49.681704099999934, -21.17616309999994 ], [ -49.680983899999944, -21.174959599999966 ], [ -49.68181, -21.172788699999955 ], [ -49.680076299999939, -21.172514699999965 ], [ -49.679816099999982, -21.171327399999939 ], [ -49.679288799999938, -21.172367599999973 ], [ -49.677820099999963, -21.172655499999962 ], [ -49.677004899999986, -21.174252499999966 ], [ -49.674658299999976, -21.174188099999981 ], [ -49.673894799999971, -21.172915899999964 ], [ -49.671855699999981, -21.172978299999954 ], [ -49.670034099999953, -21.171821399999942 ], [ -49.670784399999945, -21.170534599999939 ], [ -49.669240299999956, -21.168914399999949 ], [ -49.667948699999954, -21.169043599999952 ], [ -49.664082, -21.167103499999939 ], [ -49.663524, -21.16608789999998 ], [ -49.664181399999961, -21.164292199999977 ], [ -49.662165799999968, -21.161372899999947 ], [ -49.660501099999976, -21.161349199999961 ], [ -49.656381099999976, -21.16393039999997 ], [ -49.654555599999981, -21.163935 ], [ -49.653821099999959, -21.162965299999939 ], [ -49.654480099999944, -21.16055689999996 ], [ -49.651363899999978, -21.157007199999953 ], [ -49.64792239999997, -21.156417 ], [ -49.646606299999974, -21.157188 ], [ -49.64655369999997, -21.156451199999935 ], [ -49.645599399999981, -21.156478099999958 ], [ -49.642970699999978, -21.153886199999931 ], [ -49.641963, -21.150740199999973 ], [ -49.63693509999996, -21.149698899999976 ], [ -49.638305399999979, -21.147081 ], [ -49.637397399999941, -21.145740799999942 ], [ -49.63401609999994, -21.144587799999954 ], [ -49.632117699999981, -21.145290699999975 ], [ -49.628040899999974, -21.142326099999934 ], [ -49.627665299999933, -21.139550199999974 ], [ -49.627030399999967, -21.139741899999933 ], [ -49.626402199999973, -21.137613099999953 ], [ -49.625505099999941, -21.137112 ], [ -49.624387199999944, -21.138197599999955 ], [ -49.623021899999969, -21.133794099999932 ], [ -49.621091799999931, -21.134148299999936 ], [ -49.620323499999984, -21.133485 ], [ -49.620765899999981, -21.131838199999947 ], [ -49.618494, -21.127557299999978 ], [ -49.61046209999995, -21.133220499999936 ], [ -49.598973699999931, -21.138376299999948 ], [ -49.595559199999968, -21.141674399999943 ], [ -49.590043099999946, -21.138668099999961 ], [ -49.584716699999944, -21.139858899999979 ], [ -49.580495399999961, -21.137008499999979 ], [ -49.578728, -21.139604799999972 ], [ -49.574937199999965, -21.139222099999927 ], [ -49.571782499999983, -21.142509399999938 ], [ -49.56841929999996, -21.144586799999956 ], [ -49.569245499999965, -21.149401199999943 ], [ -49.568184299999984, -21.151785 ], [ -49.56131709999994, -21.155422899999962 ], [ -49.556866199999945, -21.155722399999945 ], [ -49.5503, -21.158868699999971 ], [ -49.545752799999946, -21.158095099999969 ], [ -49.542206, -21.159654599999953 ], [ -49.538496899999984, -21.159154299999955 ], [ -49.534863099999939, -21.159876099999963 ] ] ] ] } }
]
}
