{
"type": "FeatureCollection",
"name": "ER_REGIAO_São José dos Campos_Eugênio de Melo",
"crs": { "type": "name", "properties": { "name": "urn:ogc:def:crs:EPSG::4674" } },
"xy_coordinate_resolution": 1e-15,
"features": [
{ "type": "Feature", "properties": { "fid": 826, "NM_REGIAO": "Sudeste", "NM_UF": "São Paulo", "NM_MUN": "São José dos Campos", "NM_DIST": "Eugênio de Melo", "CD_SUBDIST": "35499041000", "ER_REGIAO": "São José dos Campos_Eugênio de Melo", "ER_REGIAO_CIDADE": "São José dos Campos_Eugênio de Melo_São José dos Campos" }, "geometry": { "type": "MultiPolygon", "coordinates": [ [ [ [ -45.7853754, -23.2049313 ], [ -45.7875932, -23.2047607 ], [ -45.78823285, -23.20262445 ], [ -45.7910542, -23.1989759 ], [ -45.7918228, -23.1960515 ], [ -45.795527, -23.190706 ], [ -45.799268, -23.1890472 ], [ -45.8015169, -23.1868604 ], [ -45.8016569, -23.1840511 ], [ -45.7988665, -23.1848622 ], [ -45.7987193, -23.1801697 ], [ -45.8039492, -23.1779224 ], [ -45.805388, -23.1760462 ], [ -45.8068661, -23.1772053 ], [ -45.8090281, -23.1752892 ], [ -45.8115073, -23.1706707 ], [ -45.8126503, -23.1729114 ], [ -45.8175434, -23.1740537 ], [ -45.8197906, -23.1693851 ], [ -45.8219505, -23.1573699 ], [ -45.820925, -23.1568961 ], [ -45.823997, -23.151979 ], [ -45.8335136, -23.131397 ], [ -45.8342178, -23.1278217 ], [ -45.835335, -23.126775 ], [ -45.8345527, -23.1238206 ], [ -45.8369621, -23.1199424 ], [ -45.8367218, -23.1189456 ], [ -45.8349975, -23.1180162 ], [ -45.8334633, -23.1184492 ], [ -45.830098, -23.12144 ], [ -45.828438, -23.121264 ], [ -45.8260218, -23.1194788 ], [ -45.8223975, -23.1206262 ], [ -45.8181314, -23.1177088 ], [ -45.8219348, -23.1130419 ], [ -45.8203585, -23.1084692 ], [ -45.8158116, -23.1084032 ], [ -45.8124722, -23.110956 ], [ -45.810272, -23.109887 ], [ -45.806932, -23.110127 ], [ -45.807835, -23.108211 ], [ -45.811602, -23.105677 ], [ -45.811028, -23.1035 ], [ -45.809039, -23.10304 ], [ -45.807401, -23.10354 ], [ -45.80606, -23.105071 ], [ -45.805122, -23.109692 ], [ -45.803585, -23.109964 ], [ -45.80069, -23.10899 ], [ -45.799695, -23.107968 ], [ -45.800069, -23.106521 ], [ -45.803416, -23.106694 ], [ -45.805147, -23.1058455 ], [ -45.8046397, -23.104391 ], [ -45.8010913, -23.10123 ], [ -45.795457, -23.103047 ], [ -45.793679, -23.10673 ], [ -45.792348, -23.107595 ], [ -45.790299, -23.106791 ], [ -45.79024, -23.10322 ], [ -45.788074, -23.102395 ], [ -45.787137, -23.103679 ], [ -45.788281, -23.106897 ], [ -45.78601, -23.109434 ], [ -45.787221, -23.111465 ], [ -45.784442, -23.111717 ], [ -45.781636, -23.110088 ], [ -45.779152, -23.110114 ], [ -45.778685, -23.112134 ], [ -45.779875, -23.114324 ], [ -45.778926, -23.11524 ], [ -45.777047, -23.11448 ], [ -45.77576, -23.109109 ], [ -45.776646, -23.105939 ], [ -45.776043, -23.104996 ], [ -45.774692, -23.105149 ], [ -45.772575, -23.10716 ], [ -45.771749, -23.113943 ], [ -45.768234, -23.116324 ], [ -45.76663, -23.116361 ], [ -45.765313, -23.115416 ], [ -45.76578, -23.111806 ], [ -45.765193, -23.110791 ], [ -45.762979, -23.111238 ], [ -45.761308, -23.114469 ], [ -45.759988, -23.114377 ], [ -45.757881, -23.111506 ], [ -45.756262, -23.111429 ], [ -45.75481, -23.112561 ], [ -45.754925, -23.115928 ], [ -45.75224, -23.117958 ], [ -45.752873, -23.118774 ], [ -45.756493, -23.118983 ], [ -45.759156, -23.122996 ], [ -45.759239, -23.126114 ], [ -45.760415, -23.12869 ], [ -45.756994, -23.131867 ], [ -45.756092, -23.134944 ], [ -45.756344, -23.137041 ], [ -45.760185, -23.14335 ], [ -45.760372, -23.148325 ], [ -45.759364, -23.153486 ], [ -45.756614, -23.157954 ], [ -45.759158, -23.161474 ], [ -45.759925, -23.166657 ], [ -45.7520865, -23.1780764 ], [ -45.750539, -23.186565 ], [ -45.750973, -23.192393 ], [ -45.747566, -23.199051 ], [ -45.741639, -23.199183 ], [ -45.740892, -23.200914 ], [ -45.741279, -23.201821 ], [ -45.738635, -23.204649 ], [ -45.739592, -23.206771 ], [ -45.737735, -23.210242 ], [ -45.738178, -23.213493 ], [ -45.73755, -23.216761 ], [ -45.734437, -23.21929 ], [ -45.734149, -23.220906 ], [ -45.731998, -23.223668 ], [ -45.731874, -23.227057 ], [ -45.730514, -23.229166 ], [ -45.726973, -23.231034 ], [ -45.723001, -23.236839 ], [ -45.72128, -23.237949 ], [ -45.723261, -23.239414 ], [ -45.727466, -23.238543 ], [ -45.730152, -23.239022 ], [ -45.735956, -23.244468 ], [ -45.740881, -23.245522 ], [ -45.742774, -23.246668 ], [ -45.743872, -23.248333 ], [ -45.744422, -23.251943 ], [ -45.746288, -23.252813 ], [ -45.747563, -23.252315 ], [ -45.748137, -23.25504 ], [ -45.749482, -23.253715 ], [ -45.750836, -23.2549 ], [ -45.752599, -23.254397 ], [ -45.753473, -23.25372 ], [ -45.752944, -23.25134 ], [ -45.754917, -23.247944 ], [ -45.755584, -23.240147 ], [ -45.758216, -23.237833 ], [ -45.759683, -23.234068 ], [ -45.760848, -23.233406 ], [ -45.766224, -23.234629 ], [ -45.767768, -23.234266 ], [ -45.768969, -23.231117 ], [ -45.767367, -23.227267 ], [ -45.774969, -23.222143 ], [ -45.7785678, -23.2230185 ], [ -45.781099, -23.2220643 ], [ -45.787432, -23.214292 ], [ -45.7878814, -23.2134425 ], [ -45.7861704, -23.2137453 ], [ -45.7843023, -23.210637 ], [ -45.7845966, -23.2101001 ], [ -45.7875573, -23.2109265 ], [ -45.7890291, -23.209629 ], [ -45.7853754, -23.2049313 ] ] ] ] } }
]
}
