{
"type": "FeatureCollection",
"name": "ER_REGIAO_Mogi das Cruzes_Cezar de Souza",
"crs": { "type": "name", "properties": { "name": "urn:ogc:def:crs:EPSG::4674" } },
"xy_coordinate_resolution": 1e-15,
"features": [
{ "type": "Feature", "properties": { "fid": 510, "NM_REGIAO": "Sudeste", "NM_UF": "São Paulo", "NM_MUN": "Mogi das Cruzes", "NM_DIST": "Cezar de Souza", "CD_SUBDIST": "35306071300", "ER_REGIAO": "Mogi das Cruzes_Cezar de Souza", "ER_REGIAO_CIDADE": "Mogi das Cruzes_Cezar de Souza_Alto Tietê" }, "geometry": { "type": "MultiPolygon", "coordinates": [ [ [ [ -46.154191, -23.53148 ], [ -46.156115, -23.530704 ], [ -46.157229, -23.531285 ], [ -46.157643, -23.530452 ], [ -46.158459, -23.531152 ], [ -46.158535, -23.530068 ], [ -46.159729, -23.530116 ], [ -46.159535, -23.52765 ], [ -46.161542, -23.524828 ], [ -46.160401, -23.522197 ], [ -46.161761, -23.520579 ], [ -46.164092, -23.520156 ], [ -46.164705, -23.516674 ], [ -46.167544, -23.512573 ], [ -46.166658, -23.510278 ], [ -46.168169, -23.510044 ], [ -46.168059, -23.511817 ], [ -46.168835, -23.512302 ], [ -46.17006, -23.511706 ], [ -46.170237, -23.513294 ], [ -46.17254, -23.51296 ], [ -46.174439, -23.511363 ], [ -46.174594, -23.508857 ], [ -46.17633879999994, -23.507334699999944 ], [ -46.176806, -23.505371 ], [ -46.174989, -23.503339 ], [ -46.174372, -23.501353 ], [ -46.171184, -23.499107 ], [ -46.170125, -23.496369 ], [ -46.167726, -23.495166 ], [ -46.166827, -23.49348 ], [ -46.164539, -23.492956 ], [ -46.163478, -23.490687 ], [ -46.157826, -23.486287 ], [ -46.150522, -23.495285 ], [ -46.141389, -23.503175 ], [ -46.14027, -23.505022 ], [ -46.132812, -23.509153 ], [ -46.130881, -23.507724 ], [ -46.121035499999948, -23.504475899999932 ], [ -46.120806, -23.503463 ], [ -46.122279, -23.500826 ], [ -46.121914, -23.499778 ], [ -46.120767, -23.498801 ], [ -46.11828, -23.49941 ], [ -46.114488, -23.505675 ], [ -46.109315, -23.508667 ], [ -46.107888, -23.511668 ], [ -46.099847, -23.522158 ], [ -46.09999, -23.525044 ], [ -46.101704, -23.526948 ], [ -46.108348, -23.531149 ], [ -46.110761, -23.535208 ], [ -46.112126, -23.540789 ], [ -46.108849, -23.544795 ], [ -46.108465, -23.547359 ], [ -46.10997, -23.548341 ], [ -46.10884, -23.551006 ], [ -46.111219, -23.552966 ], [ -46.111768, -23.552475 ], [ -46.112355, -23.553045 ], [ -46.112682399999983, -23.552125099999955 ], [ -46.113157399999977, -23.553072 ], [ -46.115165199999979, -23.553073199999972 ], [ -46.115827, -23.551053 ], [ -46.116848, -23.551687 ], [ -46.117208, -23.550901299999964 ], [ -46.119139, -23.550847 ], [ -46.119506, -23.551717 ], [ -46.120161, -23.550628 ], [ -46.122997, -23.550122 ], [ -46.122928299999955, -23.548996899999963 ], [ -46.12632739999998, -23.548681099999953 ], [ -46.12599229999995, -23.547908899999982 ], [ -46.127712899999949, -23.546989499999938 ], [ -46.128853799999945, -23.547706299999959 ], [ -46.128208699999959, -23.548402299999964 ], [ -46.130413499999975, -23.548156199999937 ], [ -46.13011309999996, -23.547246799999982 ], [ -46.13100929999996, -23.547028599999976 ], [ -46.130912099999932, -23.546163699999966 ], [ -46.132170199999962, -23.547204699999952 ], [ -46.132672, -23.54597 ], [ -46.138528, -23.546823 ], [ -46.140126, -23.546499 ], [ -46.139461, -23.545523 ], [ -46.141193, -23.545183 ], [ -46.14149169999996, -23.544383799999935 ], [ -46.142311, -23.545716 ], [ -46.143727, -23.54453 ], [ -46.144279, -23.545555 ], [ -46.146389, -23.546329 ], [ -46.148866, -23.543685 ], [ -46.149112699999932, -23.541715 ], [ -46.14734, -23.539849 ], [ -46.148311599999943, -23.53875069999998 ], [ -46.146759, -23.537258 ], [ -46.146881, -23.53576 ], [ -46.148133, -23.535132 ], [ -46.147182499999985, -23.534286 ], [ -46.152121, -23.533268 ], [ -46.154269, -23.533835 ], [ -46.155371, -23.532419 ], [ -46.154191, -23.53148 ] ] ] ] } }
]
}
