{
"type": "FeatureCollection",
"name": "ER_REGIAO_Mombuca",
"crs": { "type": "name", "properties": { "name": "urn:ogc:def:crs:EPSG::4674" } },
"xy_coordinate_resolution": 1e-15,
"features": [
{ "type": "Feature", "properties": { "fid": 519, "NM_REGIAO": "Sudeste", "NM_UF": "São Paulo", "NM_MUN": "Mombuca", "NM_DIST": "Mombuca", "CD_SUBDIST": "35309040500", "ER_REGIAO": "Mombuca", "ER_REGIAO_CIDADE": "Mombuca_Piracicaba" }, "geometry": { "type": "MultiPolygon", "coordinates": [ [ [ [ -47.5773388, -22.9079872 ], [ -47.5570948, -22.9084355 ], [ -47.5536811, -22.912069 ], [ -47.5515082, -22.9117817 ], [ -47.550631, -22.910591 ], [ -47.5501235, -22.9067336 ], [ -47.5413501, -22.899392 ], [ -47.5368679, -22.8982694 ], [ -47.5334815, -22.8931044 ], [ -47.5238353, -22.8900913 ], [ -47.519343, -22.8870612 ], [ -47.5157659, -22.8904921 ], [ -47.5073207, -22.8906714 ], [ -47.5073143, -22.8920501 ], [ -47.5100457, -22.8960581 ], [ -47.5096735, -22.9067881 ], [ -47.5116243, -22.912965 ], [ -47.51501, -22.914273 ], [ -47.5161165, -22.9176423 ], [ -47.5156667, -22.9236254 ], [ -47.5208335, -22.9355146 ], [ -47.5184396, -22.9485386 ], [ -47.525368, -22.9577505 ], [ -47.5259003, -22.9597435 ], [ -47.5250853, -22.9634196 ], [ -47.528845, -22.9649145 ], [ -47.5328245, -22.9651794 ], [ -47.5367839, -22.9671965 ], [ -47.5394028, -22.96689 ], [ -47.5426577, -22.9649327 ], [ -47.5464459, -22.9649747 ], [ -47.5510421, -22.9675396 ], [ -47.5554982, -22.9656081 ], [ -47.558286, -22.9670226 ], [ -47.560217, -22.9712424 ], [ -47.5616753, -22.9722912 ], [ -47.5722017, -22.968204 ], [ -47.5731306, -22.9708847 ], [ -47.5789571, -22.9720789 ], [ -47.5921277, -22.9710323 ], [ -47.5932288, -22.9725367 ], [ -47.5910811, -22.9747887 ], [ -47.5940641, -22.9786272 ], [ -47.5966768, -22.9769054 ], [ -47.5993092, -22.9791824 ], [ -47.6018245, -22.9791262 ], [ -47.6035275, -22.9819637 ], [ -47.6038319, -22.9846938 ], [ -47.6050983, -22.9854729 ], [ -47.6039362, -22.9880003 ], [ -47.6043248, -22.9888862 ], [ -47.6078991, -22.99039 ], [ -47.6112376, -22.9905186 ], [ -47.6131415, -22.992644 ], [ -47.6173977, -22.9924848 ], [ -47.6237842, -22.9942926 ], [ -47.6284627, -22.9912207 ], [ -47.6282577, -22.9904339 ], [ -47.623755, -22.9882217 ], [ -47.6249244, -22.986838 ], [ -47.6262209, -22.9871048 ], [ -47.6301277, -22.9895943 ], [ -47.6319571, -22.9939509 ], [ -47.6324998, -22.9979331 ], [ -47.6346687, -22.9967395 ], [ -47.6366095, -22.9935246 ], [ -47.6362397, -22.9878356 ], [ -47.6387378, -22.9884587 ], [ -47.6401562, -22.9924679 ], [ -47.6411746, -22.9928385 ], [ -47.6427791, -22.9907924 ], [ -47.6464582, -22.9887418 ], [ -47.646104, -22.9851429 ], [ -47.6470332, -22.9839194 ], [ -47.6521887, -22.9867874 ], [ -47.6524407, -22.9891352 ], [ -47.6515754, -22.9917639 ], [ -47.6568516, -22.9896913 ], [ -47.6589344, -22.9898462 ], [ -47.6572526, -22.9932139 ], [ -47.6582671, -22.9969579 ], [ -47.6616068, -22.9970855 ], [ -47.6682988, -22.9937805 ], [ -47.6638127, -22.9904703 ], [ -47.6657544, -22.9841951 ], [ -47.6699929, -22.9817993 ], [ -47.6717119, -22.9724464 ], [ -47.6747483, -22.9715105 ], [ -47.6772565, -22.9684666 ], [ -47.6762827, -22.9645104 ], [ -47.6778839, -22.958519 ], [ -47.6814467, -22.954597 ], [ -47.6841726, -22.9528177 ], [ -47.6868614, -22.9479761 ], [ -47.691333, -22.9433867 ], [ -47.69355, -22.9400755 ], [ -47.6948328, -22.9359514 ], [ -47.6985071, -22.9311979 ], [ -47.6983035, -22.9241519 ], [ -47.7011879, -22.918663 ], [ -47.6468236, -22.9189201 ], [ -47.642016, -22.9166121 ], [ -47.6391898, -22.9171855 ], [ -47.6320301, -22.9135661 ], [ -47.6302498, -22.9115818 ], [ -47.6293791, -22.9124632 ], [ -47.6301428, -22.9150481 ], [ -47.6296632, -22.9164522 ], [ -47.6227301, -22.9227377 ], [ -47.6210669, -22.9247832 ], [ -47.6209205, -22.926464 ], [ -47.6189485, -22.9243676 ], [ -47.6192175, -22.9227348 ], [ -47.6177294, -22.9185863 ], [ -47.6157078, -22.917298 ], [ -47.6149479, -22.9140174 ], [ -47.6155307, -22.9121428 ], [ -47.6144472, -22.9078791 ], [ -47.6089261, -22.902093 ], [ -47.6026683, -22.9016616 ], [ -47.5992513, -22.9046301 ], [ -47.5901115, -22.9068014 ], [ -47.5831132, -22.9051276 ], [ -47.5773388, -22.9079872 ] ] ] ] } }
]
}
