{
"type": "FeatureCollection",
"name": "ER_REGIAO_Rafard",
"crs": { "type": "name", "properties": { "name": "urn:ogc:def:crs:EPSG::4674" } },
"xy_coordinate_resolution": 1e-15,
"features": [
{ "type": "Feature", "properties": { "fid": 707, "NM_REGIAO": "Sudeste", "NM_UF": "São Paulo", "NM_MUN": "Rafard", "NM_DIST": "Rafard", "CD_SUBDIST": "35421070500", "ER_REGIAO": "Rafard", "ER_REGIAO_CIDADE": "Rafard_Piracicaba" }, "geometry": { "type": "MultiPolygon", "coordinates": [ [ [ [ -47.5200733, -23.0203211 ], [ -47.5244133, -23.0317261 ], [ -47.5268343, -23.0333171 ], [ -47.5286173, -23.0378361 ], [ -47.5304973, -23.0393981 ], [ -47.5341818, -23.0399549 ], [ -47.5347841, -23.040831 ], [ -47.5344494, -23.0480182 ], [ -47.5324758, -23.0501107 ], [ -47.5307132, -23.0504489 ], [ -47.5229872, -23.0655964 ], [ -47.5232419, -23.0683253 ], [ -47.5203232, -23.0706577 ], [ -47.5181762, -23.0755072 ], [ -47.5149987, -23.0774666 ], [ -47.5127446, -23.080618 ], [ -47.50945, -23.0829159 ], [ -47.5086145, -23.0916303 ], [ -47.5110398, -23.0914814 ], [ -47.5200048, -23.0945878 ], [ -47.5286261, -23.0948139 ], [ -47.5288762, -23.0992003 ], [ -47.5299514, -23.1012848 ], [ -47.5347773, -23.1008964 ], [ -47.5382735, -23.1016456 ], [ -47.5420163, -23.0983774 ], [ -47.5493757, -23.0973751 ], [ -47.5537505, -23.0983818 ], [ -47.5560057, -23.096074 ], [ -47.5584671, -23.095274 ], [ -47.5632346, -23.0906857 ], [ -47.5665659, -23.0939826 ], [ -47.5656685, -23.0969966 ], [ -47.5674278, -23.0986781 ], [ -47.5727765, -23.0983448 ], [ -47.5738563, -23.0999169 ], [ -47.5776057, -23.1011152 ], [ -47.5813895, -23.1037254 ], [ -47.5858224, -23.1022119 ], [ -47.5873036, -23.103258 ], [ -47.5895699, -23.101957 ], [ -47.5915314, -23.101905 ], [ -47.5921718, -23.1031464 ], [ -47.5950079, -23.1019843 ], [ -47.5970987, -23.0995451 ], [ -47.602791, -23.0997298 ], [ -47.6037681, -23.0983937 ], [ -47.6086872, -23.0992636 ], [ -47.60769, -23.0952036 ], [ -47.6058853, -23.0924921 ], [ -47.6046519, -23.0922338 ], [ -47.6047285, -23.0910753 ], [ -47.6035277, -23.0898024 ], [ -47.6041994, -23.0873228 ], [ -47.5942183, -23.0793241 ], [ -47.5927484, -23.0778793 ], [ -47.5929378, -23.0763828 ], [ -47.5943432, -23.074378 ], [ -47.5974853, -23.0739357 ], [ -47.6028489, -23.0705493 ], [ -47.6131208, -23.0688294 ], [ -47.6265803, -23.0758527 ], [ -47.6262806, -23.068229 ], [ -47.6290524, -23.0616455 ], [ -47.628946, -23.057991 ], [ -47.630639, -23.057044 ], [ -47.6315, -23.054841 ], [ -47.631546, -23.04998 ], [ -47.629137, -23.047149 ], [ -47.629074, -23.043669 ], [ -47.635992, -23.042575 ], [ -47.638962, -23.043057 ], [ -47.645315, -23.040406 ], [ -47.649537, -23.043066 ], [ -47.6519904, -23.0432957 ], [ -47.652206, -23.040392 ], [ -47.653992, -23.035938 ], [ -47.6600309, -23.0312357 ], [ -47.6598395, -23.03007 ], [ -47.6611885, -23.0287508 ], [ -47.6600018, -23.0249919 ], [ -47.6628681, -23.0185137 ], [ -47.6606644, -23.0138079 ], [ -47.6614629, -23.0088162 ], [ -47.658785, -23.0067925 ], [ -47.6584902, -23.0017762 ], [ -47.6596146, -23.0018867 ], [ -47.6591365, -23.0013191 ], [ -47.6602733, -23.0006235 ], [ -47.6602688, -22.997284 ], [ -47.6578736, -22.9966877 ], [ -47.6572526, -22.9932139 ], [ -47.6590595, -22.9900931 ], [ -47.6568516, -22.9896913 ], [ -47.6515754, -22.9917639 ], [ -47.6524407, -22.9891352 ], [ -47.6521887, -22.9867874 ], [ -47.6470332, -22.9839194 ], [ -47.646104, -22.9851429 ], [ -47.6464582, -22.9887418 ], [ -47.6427791, -22.9907924 ], [ -47.6411746, -22.9928385 ], [ -47.6401562, -22.9924679 ], [ -47.6387378, -22.9884587 ], [ -47.6362397, -22.9878356 ], [ -47.6366095, -22.9935246 ], [ -47.6332666, -22.9978613 ], [ -47.6320136, -22.9974138 ], [ -47.6319571, -22.9939509 ], [ -47.6301277, -22.9895943 ], [ -47.6249244, -22.986838 ], [ -47.6237767, -22.9878035 ], [ -47.6239435, -22.9885529 ], [ -47.6282577, -22.9904339 ], [ -47.6283157, -22.9915448 ], [ -47.620553, -22.9958372 ], [ -47.6173085, -22.9992783 ], [ -47.6145422, -22.9994298 ], [ -47.6131523, -22.9979751 ], [ -47.6115832, -22.9980002 ], [ -47.6094686, -22.9992783 ], [ -47.6087667, -23.0032214 ], [ -47.6078322, -23.0040289 ], [ -47.6065096, -23.0029491 ], [ -47.6045701, -22.9988109 ], [ -47.6029142, -22.9985232 ], [ -47.6015057, -22.9992587 ], [ -47.6010874, -23.0008359 ], [ -47.6034281, -23.0033224 ], [ -47.6018925, -23.0061656 ], [ -47.6037665, -23.0118933 ], [ -47.6033439, -23.0127134 ], [ -47.6001934, -23.0129328 ], [ -47.5977285, -23.0101391 ], [ -47.5949421, -23.0096593 ], [ -47.5927482, -23.0079895 ], [ -47.5882619, -23.0075957 ], [ -47.5860079, -23.0088597 ], [ -47.5814266, -23.0089231 ], [ -47.5799362, -23.0094257 ], [ -47.5798296, -23.0102305 ], [ -47.582328, -23.0126608 ], [ -47.5792611, -23.014754 ], [ -47.5774341, -23.0180211 ], [ -47.5760299, -23.0172011 ], [ -47.5757152, -23.0128757 ], [ -47.5746386, -23.0119018 ], [ -47.5719147, -23.015137 ], [ -47.5697149, -23.0148278 ], [ -47.5663574, -23.0119671 ], [ -47.5609848, -23.0142481 ], [ -47.5582392, -23.0126473 ], [ -47.5511818, -23.0119667 ], [ -47.5475746, -23.0094795 ], [ -47.5464341, -23.0114425 ], [ -47.5448722, -23.0117405 ], [ -47.5449316, -23.0090046 ], [ -47.5480495, -23.0072422 ], [ -47.548116, -23.0041101 ], [ -47.5496767, -23.0037742 ], [ -47.551447, -23.0063902 ], [ -47.5523465, -23.0066091 ], [ -47.5577419, -23.0029448 ], [ -47.5588676, -23.0003041 ], [ -47.5570336, -22.998039 ], [ -47.5561242, -22.9979869 ], [ -47.5537672, -23.0014497 ], [ -47.5498601, -23.0027955 ], [ -47.5466385, -23.0028482 ], [ -47.5455683, -23.0018681 ], [ -47.5457723, -23.0008281 ], [ -47.5488448, -22.998947 ], [ -47.5495783, -22.9971608 ], [ -47.5489835, -22.9959572 ], [ -47.5456345, -22.9994597 ], [ -47.5409094, -23.0008412 ], [ -47.5376159, -23.0006635 ], [ -47.5362331, -22.9992813 ], [ -47.5336292, -23.0002202 ], [ -47.528433, -22.9999775 ], [ -47.5279284, -23.0006456 ], [ -47.5304733, -23.0042721 ], [ -47.5270963, -23.0085851 ], [ -47.5243683, -23.0100978 ], [ -47.5233913, -23.0146561 ], [ -47.5203213, -23.0179371 ], [ -47.5200733, -23.0203211 ] ] ] ] } }
]
}
