{
"type": "FeatureCollection",
"name": "ER_REGIAO_Ibirarema",
"crs": { "type": "name", "properties": { "name": "urn:ogc:def:crs:EPSG::4674" } },
"xy_coordinate_resolution": 1e-15,
"features": [
{ "type": "Feature", "properties": { "fid": 320, "NM_REGIAO": "Sudeste", "NM_UF": "São Paulo", "NM_MUN": "Ibirarema", "NM_DIST": "Ibirarema", "CD_SUBDIST": "35195010500", "ER_REGIAO": "Ibirarema", "ER_REGIAO_CIDADE": "Ibirarema_Marília" }, "geometry": { "type": "MultiPolygon", "coordinates": [ [ [ [ -50.0146615, -22.8137945 ], [ -50.0322982, -22.8419669 ], [ -50.0323667, -22.848032 ], [ -50.0334798, -22.8516521 ], [ -50.0324736, -22.8531731 ], [ -50.0323957, -22.8557521 ], [ -50.0358585, -22.863014 ], [ -50.0371505, -22.8742074 ], [ -50.0390991, -22.8757189 ], [ -50.0444854, -22.8769904 ], [ -50.0424908, -22.8820631 ], [ -50.0438775, -22.8864166 ], [ -50.0466339, -22.8884575 ], [ -50.0519983, -22.8894244 ], [ -50.0565577, -22.8932137 ], [ -50.056572, -22.8949098 ], [ -50.0528432, -22.9055146 ], [ -50.0569778, -22.9153243 ], [ -50.0623872, -22.9236546 ], [ -50.0674704, -22.9275153 ], [ -50.0715498, -22.9281237 ], [ -50.0781027, -22.9227997 ], [ -50.080869, -22.9217941 ], [ -50.0928258, -22.9225047 ], [ -50.1051324, -22.9309915 ], [ -50.1097049, -22.9357463 ], [ -50.1154098, -22.9397912 ], [ -50.1210672, -22.9413412 ], [ -50.1271299, -22.9417621 ], [ -50.1330955, -22.9399447 ], [ -50.1312906, -22.9392426 ], [ -50.1301494, -22.9374659 ], [ -50.1281843, -22.9370845 ], [ -50.1284385, -22.9298359 ], [ -50.1261688, -22.928614 ], [ -50.1286805, -22.9261977 ], [ -50.1322409, -22.9274004 ], [ -50.134551, -22.9241822 ], [ -50.1342982, -22.9217193 ], [ -50.1323099, -22.9207901 ], [ -50.1299315, -22.9151986 ], [ -50.1295893, -22.9109097 ], [ -50.1312289, -22.9094539 ], [ -50.1318562, -22.9042582 ], [ -50.1307058, -22.8997225 ], [ -50.1318722, -22.892981 ], [ -50.1288763, -22.8872456 ], [ -50.1271664, -22.8862457 ], [ -50.1264995, -22.8791099 ], [ -50.1270459, -22.8774463 ], [ -50.1284497, -22.8768039 ], [ -50.1296987, -22.8729471 ], [ -50.1291238, -22.864619 ], [ -50.1302739, -22.8620442 ], [ -50.1337093, -22.8598962 ], [ -50.1337926, -22.8563019 ], [ -50.1353048, -22.8521535 ], [ -50.1333156, -22.8503265 ], [ -50.1271168, -22.8481936 ], [ -50.125353, -22.8461592 ], [ -50.1245925, -22.8410857 ], [ -50.1205914, -22.8360183 ], [ -50.1172681, -22.8339297 ], [ -50.1173241, -22.8325751 ], [ -50.1182703, -22.8325413 ], [ -50.1186431, -22.8309114 ], [ -50.1195993, -22.8306651 ], [ -50.1198281, -22.8279588 ], [ -50.1166001, -22.8269463 ], [ -50.113034, -22.8272012 ], [ -50.1111772, -22.8265303 ], [ -50.1091789, -22.8245306 ], [ -50.108242, -22.8196503 ], [ -50.1069191, -22.8170018 ], [ -50.1089834, -22.8164012 ], [ -50.1102288, -22.8143093 ], [ -50.1093861, -22.8085468 ], [ -50.1069527, -22.8030468 ], [ -50.1054928, -22.7949117 ], [ -50.1032872, -22.7922705 ], [ -50.1021408, -22.7869217 ], [ -50.0989202, -22.7815439 ], [ -50.1021008, -22.7773013 ], [ -50.1109339, -22.7755646 ], [ -50.1141468, -22.7738072 ], [ -50.1127938, -22.7681035 ], [ -50.1136876, -22.7667414 ], [ -50.1137959, -22.7643991 ], [ -50.1178887, -22.7562493 ], [ -50.1189564, -22.7516629 ], [ -50.1181686, -22.7505907 ], [ -50.1192377, -22.7490543 ], [ -50.118911, -22.7431448 ], [ -50.117536, -22.740524 ], [ -50.1186158, -22.7355033 ], [ -50.1182932, -22.7324437 ], [ -50.1154062, -22.7288162 ], [ -50.1153446, -22.7255195 ], [ -50.1131365, -22.7246095 ], [ -50.1120885, -22.7185626 ], [ -50.107896, -22.7143524 ], [ -50.1071117, -22.711517 ], [ -50.1085873, -22.7096091 ], [ -50.1104262, -22.7095852 ], [ -50.1166643, -22.7138304 ], [ -50.1228911, -22.7152786 ], [ -50.1223363, -22.7080554 ], [ -50.1191468, -22.7027392 ], [ -50.1147924, -22.6925499 ], [ -50.1101289, -22.6856337 ], [ -50.1088418, -22.6818845 ], [ -50.1063245, -22.680747 ], [ -50.1030355, -22.6826622 ], [ -50.0964827, -22.6844268 ], [ -50.0895798, -22.684869 ], [ -50.0844161, -22.6878217 ], [ -50.0831445, -22.6896776 ], [ -50.0781072, -22.6926927 ], [ -50.0747342, -22.6959232 ], [ -50.0701911, -22.70081 ], [ -50.0696773, -22.7022668 ], [ -50.0608475, -22.7092 ], [ -50.054137, -22.7204597 ], [ -50.0493921, -22.7239073 ], [ -50.0466252, -22.7240932 ], [ -50.0427422, -22.7226911 ], [ -50.0379901, -22.7246209 ], [ -50.0351274, -22.7321036 ], [ -50.0354183, -22.736731 ], [ -50.0331489, -22.745705 ], [ -50.0312647, -22.7465688 ], [ -50.0276181, -22.7462719 ], [ -50.026448, -22.7478664 ], [ -50.0241065, -22.7480048 ], [ -50.0223771, -22.7469873 ], [ -50.0209561, -22.7487351 ], [ -50.0225054, -22.7482878 ], [ -50.0223532, -22.7503787 ], [ -50.0231489, -22.7503031 ], [ -50.0229314, -22.751408 ], [ -50.0238001, -22.7522581 ], [ -50.0226502, -22.7523248 ], [ -50.0237243, -22.7527538 ], [ -50.022361, -22.7538534 ], [ -50.0225972, -22.7546895 ], [ -50.0238835, -22.7547661 ], [ -50.0237794, -22.7554175 ], [ -50.0215498, -22.7571218 ], [ -50.0208447, -22.7591842 ], [ -50.0239779, -22.7613169 ], [ -50.0231074, -22.7627464 ], [ -50.0242392, -22.7624432 ], [ -50.0245546, -22.7640877 ], [ -50.0236791, -22.7644428 ], [ -50.0239673, -22.7668665 ], [ -50.0230306, -22.7707427 ], [ -50.0256842, -22.77657 ], [ -50.0226043, -22.7766606 ], [ -50.0232538, -22.7774787 ], [ -50.022436, -22.7777274 ], [ -50.0234446, -22.7782861 ], [ -50.0217199, -22.7778933 ], [ -50.0219228, -22.7788399 ], [ -50.0195316, -22.7780509 ], [ -50.0192572, -22.7790213 ], [ -50.0160579, -22.7785055 ], [ -50.0149335, -22.7800339 ], [ -50.0125991, -22.7798988 ], [ -50.0132825, -22.7813914 ], [ -50.0110148, -22.7820277 ], [ -50.0086619, -22.7867011 ], [ -50.0047511, -22.812146 ], [ -50.0117692, -22.8125306 ], [ -50.0146615, -22.8137945 ] ] ] ] } }
]
}
