{
"type": "FeatureCollection",
"name": "ER_REGIAO_Espírito Santo do Turvo",
"crs": { "type": "name", "properties": { "name": "urn:ogc:def:crs:EPSG::4674" } },
"xy_coordinate_resolution": 1e-15,
"features": [
{ "type": "Feature", "properties": { "fid": 250, "NM_REGIAO": "Sudeste", "NM_UF": "São Paulo", "NM_MUN": "Espírito Santo do Turvo", "NM_DIST": "Espírito Santo do Turvo", "CD_SUBDIST": "35151940500", "ER_REGIAO": "Espírito Santo do Turvo", "ER_REGIAO_CIDADE": "Espírito Santo do Turvo_Bauru" }, "geometry": { "type": "MultiPolygon", "coordinates": [ [ [ [ -49.4173932, -22.7387543 ], [ -49.4666178, -22.7316223 ], [ -49.475071, -22.7287428 ], [ -49.4785196, -22.7264983 ], [ -49.4838767, -22.7250861 ], [ -49.4929278, -22.7274656 ], [ -49.4951441, -22.7272062 ], [ -49.4965406, -22.7251595 ], [ -49.4987917, -22.7241965 ], [ -49.498382, -22.7175604 ], [ -49.5000917, -22.7138862 ], [ -49.5000979, -22.7092658 ], [ -49.5024897, -22.7033093 ], [ -49.5000384, -22.6973134 ], [ -49.5042183, -22.6927893 ], [ -49.5051445, -22.686406 ], [ -49.5070281, -22.6842701 ], [ -49.5031979, -22.678642 ], [ -49.5026832, -22.6733609 ], [ -49.4997944, -22.6707201 ], [ -49.4996524, -22.6627634 ], [ -49.4980942, -22.6560546 ], [ -49.4997748, -22.6515379 ], [ -49.5024649, -22.6487136 ], [ -49.506697, -22.6461748 ], [ -49.5069031, -22.6430467 ], [ -49.5054151, -22.6380555 ], [ -49.4950538, -22.6262212 ], [ -49.4947547, -22.6250117 ], [ -49.4958002, -22.6174586 ], [ -49.4972695, -22.6135838 ], [ -49.4997912, -22.612137 ], [ -49.4995735, -22.6110235 ], [ -49.494305, -22.6095416 ], [ -49.4855134, -22.6106404 ], [ -49.479318, -22.6093275 ], [ -49.477601, -22.6082152 ], [ -49.4757292, -22.6030347 ], [ -49.47146, -22.6017749 ], [ -49.4704373, -22.6002026 ], [ -49.4733352, -22.5963944 ], [ -49.4732722, -22.5949618 ], [ -49.4711959, -22.5921985 ], [ -49.4682881, -22.5902011 ], [ -49.462352, -22.5898212 ], [ -49.4586254, -22.5884971 ], [ -49.4536091, -22.5839676 ], [ -49.4503063, -22.5864755 ], [ -49.4507093, -22.5902523 ], [ -49.4477545, -22.5936494 ], [ -49.4466181, -22.5974285 ], [ -49.444351, -22.6004981 ], [ -49.4398048, -22.6018037 ], [ -49.4394641, -22.6042845 ], [ -49.4327061, -22.6043784 ], [ -49.4293025, -22.6061117 ], [ -49.4251332, -22.6068375 ], [ -49.4236333, -22.6080841 ], [ -49.4206956, -22.6127488 ], [ -49.4203091, -22.6192357 ], [ -49.4189483, -22.6212088 ], [ -49.4091707, -22.6242592 ], [ -49.398017, -22.6253685 ], [ -49.39516, -22.6268147 ], [ -49.3869106, -22.627209 ], [ -49.38178, -22.6301673 ], [ -49.3639471, -22.6327822 ], [ -49.3556207, -22.6366889 ], [ -49.351007, -22.6425575 ], [ -49.3520535, -22.6426291 ], [ -49.3514277, -22.6432618 ], [ -49.3535048, -22.6452462 ], [ -49.3558473, -22.6444289 ], [ -49.3570218, -22.6449236 ], [ -49.356783, -22.6455016 ], [ -49.3557528, -22.6451563 ], [ -49.3538876, -22.6485045 ], [ -49.3547303, -22.6491327 ], [ -49.3572044, -22.6484733 ], [ -49.3569629, -22.649873 ], [ -49.3584361, -22.6500642 ], [ -49.3565981, -22.651591 ], [ -49.3578577, -22.6538017 ], [ -49.3610918, -22.6524587 ], [ -49.3617818, -22.6529354 ], [ -49.3610099, -22.6540296 ], [ -49.3616388, -22.6549165 ], [ -49.359937, -22.65621 ], [ -49.3580949, -22.655715 ], [ -49.352989, -22.6596278 ], [ -49.3496508, -22.6602456 ], [ -49.3480192, -22.6627071 ], [ -49.3435446, -22.6653644 ], [ -49.3396897, -22.6659058 ], [ -49.3376359, -22.6693777 ], [ -49.3356656, -22.6763548 ], [ -49.345886, -22.6794091 ], [ -49.353569, -22.6802326 ], [ -49.3589935, -22.6825815 ], [ -49.3585468, -22.683847 ], [ -49.3571031, -22.6840998 ], [ -49.3560235, -22.6857407 ], [ -49.3563068, -22.6874138 ], [ -49.3615773, -22.6925186 ], [ -49.3627178, -22.6950211 ], [ -49.368976, -22.7021237 ], [ -49.3713344, -22.7073299 ], [ -49.373862, -22.708092 ], [ -49.3839921, -22.7080983 ], [ -49.3823385, -22.7139834 ], [ -49.3837352, -22.7163499 ], [ -49.3812065, -22.7196692 ], [ -49.3769336, -22.7225795 ], [ -49.3775293, -22.72444 ], [ -49.3756666, -22.7263089 ], [ -49.3755693, -22.7285305 ], [ -49.3820407, -22.7362418 ], [ -49.3877559, -22.7397191 ], [ -49.390204, -22.7421466 ], [ -49.394226, -22.7425731 ], [ -49.3968048, -22.7389299 ], [ -49.4173932, -22.7387543 ] ] ] ] } }
]
}
