{
"type": "FeatureCollection",
"name": "ER_REGIAO_Murutinga do Sul",
"crs": { "type": "name", "properties": { "name": "urn:ogc:def:crs:EPSG::4674" } },
"xy_coordinate_resolution": 1e-15,
"features": [
{ "type": "Feature", "properties": { "fid": 538, "NM_REGIAO": "Sudeste", "NM_UF": "São Paulo", "NM_MUN": "Murutinga do Sul", "NM_DIST": "Murutinga do Sul", "CD_SUBDIST": "35321080500", "ER_REGIAO": "Murutinga do Sul", "ER_REGIAO_CIDADE": "Murutinga do Sul_Araçatuba" }, "geometry": { "type": "MultiPolygon", "coordinates": [ [ [ [ -51.3025166, -20.9733051 ], [ -51.303093, -20.9674527 ], [ -51.2994867, -20.966958 ], [ -51.2985749, -20.9661043 ], [ -51.3002933, -20.963332 ], [ -51.3001648, -20.9613302 ], [ -51.2939839, -20.9583372 ], [ -51.2927549, -20.956307 ], [ -51.2885822, -20.9542825 ], [ -51.2879231, -20.952811 ], [ -51.2886708, -20.9505423 ], [ -51.2928284, -20.9482728 ], [ -51.2919803, -20.9470942 ], [ -51.2884375, -20.9457168 ], [ -51.2862684, -20.942661 ], [ -51.2859723, -20.9353004 ], [ -51.2851869, -20.9343873 ], [ -51.2835735, -20.9264426 ], [ -51.2860722, -20.9219664 ], [ -51.2855311, -20.9207332 ], [ -51.2833743, -20.9197315 ], [ -51.2832456, -20.9182892 ], [ -51.285933, -20.9147536 ], [ -51.2917578, -20.9145049 ], [ -51.2929167, -20.9136794 ], [ -51.2917179, -20.909233 ], [ -51.2969407, -20.9058195 ], [ -51.2976258, -20.903696 ], [ -51.2954876, -20.9009692 ], [ -51.2961718, -20.8972312 ], [ -51.2925141, -20.8947647 ], [ -51.2928118, -20.8924826 ], [ -51.2896758, -20.8867746 ], [ -51.2871356, -20.8859528 ], [ -51.282367, -20.8861686 ], [ -51.2819602, -20.8854321 ], [ -51.2846124, -20.878417 ], [ -51.2902034, -20.87023 ], [ -51.2906461, -20.8678419 ], [ -51.2884132, -20.8660323 ], [ -51.2835155, -20.8660693 ], [ -51.2746491, -20.8615163 ], [ -51.2703363, -20.8605904 ], [ -51.2663878, -20.8620463 ], [ -51.2622605, -20.8613857 ], [ -51.2551219, -20.8576445 ], [ -51.2523396, -20.8579889 ], [ -51.2512893, -20.8572195 ], [ -51.2463043, -20.8583036 ], [ -51.2421349, -20.8580587 ], [ -51.2425017, -20.8622384 ], [ -51.2416125, -20.8629316 ], [ -51.2405581, -20.8673031 ], [ -51.2409203, -20.868946 ], [ -51.2391894, -20.8708358 ], [ -51.239323, -20.8717818 ], [ -51.236976, -20.8737709 ], [ -51.2367116, -20.8751401 ], [ -51.2375584, -20.876872 ], [ -51.2334665, -20.8824948 ], [ -51.2348627, -20.8837293 ], [ -51.2347605, -20.8850046 ], [ -51.2322188, -20.8904665 ], [ -51.2304172, -20.8915789 ], [ -51.2247194, -20.8921246 ], [ -51.2222385, -20.8943098 ], [ -51.2211889, -20.899256 ], [ -51.2161468, -20.901912 ], [ -51.2172851, -20.9059724 ], [ -51.2148036, -20.9080662 ], [ -51.2162132, -20.9126355 ], [ -51.2117679, -20.9169903 ], [ -51.2116507, -20.9196307 ], [ -51.2102608, -20.9221555 ], [ -51.2112483, -20.9241299 ], [ -51.2083153, -20.9261783 ], [ -51.2064007, -20.9345899 ], [ -51.2009884, -20.941606 ], [ -51.2015665, -20.9452702 ], [ -51.1981649, -20.9501956 ], [ -51.1980978, -20.9526085 ], [ -51.2016887, -20.952245 ], [ -51.2060097, -20.9537795 ], [ -51.2156157, -20.9605349 ], [ -51.2234653, -20.9603704 ], [ -51.2255425, -20.9617271 ], [ -51.2260767, -20.9718663 ], [ -51.2214079, -20.9739615 ], [ -51.2213365, -20.9749133 ], [ -51.2259832, -20.9813031 ], [ -51.2378746, -20.9832802 ], [ -51.2396313, -20.9862939 ], [ -51.2399141, -20.9885969 ], [ -51.2377474, -21.0018987 ], [ -51.2400849, -21.0058729 ], [ -51.2422025, -21.0063295 ], [ -51.2425371, -21.0048766 ], [ -51.2442537, -21.0056399 ], [ -51.244921, -21.0130929 ], [ -51.2459449, -21.0137024 ], [ -51.2505964, -21.0217803 ], [ -51.2558605, -21.0231737 ], [ -51.2568343, -21.024266 ], [ -51.2589672, -21.0272179 ], [ -51.2588075, -21.0291655 ], [ -51.2613811, -21.0302781 ], [ -51.2627642, -21.0322496 ], [ -51.2662829, -21.0412601 ], [ -51.2717694, -21.0416288 ], [ -51.2806143, -21.0438478 ], [ -51.284961, -21.0425058 ], [ -51.2922809, -21.0429708 ], [ -51.2935753, -21.0416251 ], [ -51.2970292, -21.0406377 ], [ -51.2985646, -21.0409752 ], [ -51.3056359, -21.045467 ], [ -51.3063192, -21.048723 ], [ -51.3070711, -21.049289 ], [ -51.3067172, -21.050666 ], [ -51.3094556, -21.0541603 ], [ -51.3109469, -21.0540124 ], [ -51.3129911, -21.0551196 ], [ -51.3158741, -21.0582885 ], [ -51.3232882, -21.0607951 ], [ -51.3228551, -21.0642375 ], [ -51.3201992, -21.0650855 ], [ -51.3229157, -21.0732179 ], [ -51.3229242, -21.0772006 ], [ -51.3262178, -21.0833766 ], [ -51.3271092, -21.0878326 ], [ -51.3261502, -21.092855 ], [ -51.3267071, -21.0989527 ], [ -51.3285493, -21.1011106 ], [ -51.330088, -21.1102876 ], [ -51.3317369, -21.1127113 ], [ -51.3347351, -21.1073536 ], [ -51.3366331, -21.106675 ], [ -51.3396941, -21.1076516 ], [ -51.3477078, -21.1143831 ], [ -51.3498594, -21.1141659 ], [ -51.3530163, -21.110839 ], [ -51.3548103, -21.1107551 ], [ -51.3575174, -21.1125418 ], [ -51.3623563, -21.1130033 ], [ -51.3679021, -21.1156299 ], [ -51.3754797, -21.1162157 ], [ -51.3789345, -21.1189134 ], [ -51.3797524, -21.1222247 ], [ -51.3840986, -21.1249956 ], [ -51.3858547, -21.1298257 ], [ -51.3895497, -21.1324151 ], [ -51.390238, -21.1339635 ], [ -51.3922894, -21.1344183 ], [ -51.3942222, -21.1359913 ], [ -51.3979647, -21.1351617 ], [ -51.4053921, -21.1354253 ], [ -51.4043407, -21.1334914 ], [ -51.4070519, -21.1292884 ], [ -51.4054062, -21.1226145 ], [ -51.4057829, -21.1207187 ], [ -51.4108533, -21.1114147 ], [ -51.4077638, -21.105226 ], [ -51.407686, -21.1007827 ], [ -51.4069614, -21.0991642 ], [ -51.4024103, -21.0951282 ], [ -51.4024112, -21.0904279 ], [ -51.4014486, -21.0869494 ], [ -51.4019722, -21.075381 ], [ -51.3958111, -21.0792848 ], [ -51.394271, -21.0813369 ], [ -51.3939301, -21.0809057 ], [ -51.3933803, -21.0775526 ], [ -51.3941581, -21.0741747 ], [ -51.3924494, -21.0707253 ], [ -51.392625, -21.0672227 ], [ -51.3890063, -21.0632079 ], [ -51.3866917, -21.057437 ], [ -51.3872019, -21.0546173 ], [ -51.385402, -21.049736 ], [ -51.3866593, -21.0471697 ], [ -51.3849024, -21.0437457 ], [ -51.3845972, -21.0394027 ], [ -51.3829413, -21.0365416 ], [ -51.3789576, -21.0331483 ], [ -51.3794026, -21.0318014 ], [ -51.377961, -21.0306068 ], [ -51.3775919, -21.0289378 ], [ -51.3760676, -21.0282438 ], [ -51.375184, -21.0255732 ], [ -51.371879, -21.0261305 ], [ -51.3720068, -21.0221886 ], [ -51.3703476, -21.0179438 ], [ -51.3694506, -21.012043 ], [ -51.3668555, -21.0087323 ], [ -51.3603279, -21.0037831 ], [ -51.3607103, -21.0004733 ], [ -51.3586342, -20.9953457 ], [ -51.3558705, -20.9915882 ], [ -51.3530998, -20.9887241 ], [ -51.3479369, -20.9857586 ], [ -51.3457051, -20.9823477 ], [ -51.3393541, -20.9824554 ], [ -51.3385109, -20.9808629 ], [ -51.3275269, -20.9805359 ], [ -51.3230065, -20.9787494 ], [ -51.3202706, -20.9748953 ], [ -51.3146291, -20.9757902 ], [ -51.3117399, -20.9748233 ], [ -51.3054704, -20.9756575 ], [ -51.3030567, -20.9747792 ], [ -51.3025166, -20.9733051 ] ] ] ] } }
]
}
