{
"type": "FeatureCollection",
"name": "ER_REGIAO_Penápolis",
"crs": { "type": "name", "properties": { "name": "urn:ogc:def:crs:EPSG::4674" } },
"xy_coordinate_resolution": 1e-15,
"features": [
{ "type": "Feature", "properties": { "fid": 626, "NM_REGIAO": "Sudeste", "NM_UF": "São Paulo", "NM_MUN": "Penápolis", "NM_DIST": "Penápolis", "CD_SUBDIST": "35373050500", "ER_REGIAO": "Penápolis", "ER_REGIAO_CIDADE": "Penápolis_Araçatuba" }, "geometry": { "type": "MultiPolygon", "coordinates": [ [ [ [ -50.1028927, -21.5575956 ], [ -50.1131416, -21.5564955 ], [ -50.123471, -21.5517109 ], [ -50.1447513, -21.5512666 ], [ -50.1463896, -21.5470153 ], [ -50.1474467, -21.5395362 ], [ -50.1468448, -21.5369526 ], [ -50.1471691, -21.5277488 ], [ -50.1824821, -21.5282894 ], [ -50.1830655, -21.5288699 ], [ -50.1890296, -21.5273718 ], [ -50.1895827, -21.5281208 ], [ -50.194375, -21.52888 ], [ -50.1976001, -21.530521 ], [ -50.2045449, -21.5293071 ], [ -50.2064332, -21.5296739 ], [ -50.2121393, -21.5332381 ], [ -50.2158772, -21.5310066 ], [ -50.2226984, -21.5298982 ], [ -50.2318321, -21.5350701 ], [ -50.234867, -21.5346903 ], [ -50.2401613, -21.5362243 ], [ -50.24159, -21.5447047 ], [ -50.2441528, -21.542719 ], [ -50.2471997, -21.5424782 ], [ -50.2497848, -21.5448005 ], [ -50.2552958, -21.5447239 ], [ -50.2581915, -21.5515004 ], [ -50.2621387, -21.5530649 ], [ -50.265891, -21.5515735 ], [ -50.2681476, -21.5580651 ], [ -50.2742315, -21.5591676 ], [ -50.2749922, -21.5521519 ], [ -50.2778793, -21.5486093 ], [ -50.2804777, -21.5368092 ], [ -50.2793159, -21.5308372 ], [ -50.2731063, -21.5204902 ], [ -50.2707928, -21.5120704 ], [ -50.2680414, -21.5086456 ], [ -50.2677545, -21.5066709 ], [ -50.2659563, -21.5055647 ], [ -50.2624379, -21.5000035 ], [ -50.2595037, -21.4979805 ], [ -50.2579494, -21.4953558 ], [ -50.258179, -21.4943055 ], [ -50.259036, -21.4941812 ], [ -50.257774, -21.4925495 ], [ -50.2562997, -21.4922067 ], [ -50.2555496, -21.4907415 ], [ -50.2524379, -21.4898871 ], [ -50.2517101, -21.487121 ], [ -50.2502281, -21.4867708 ], [ -50.2490701, -21.4826287 ], [ -50.2472121, -21.4815069 ], [ -50.2475302, -21.4798954 ], [ -50.24524, -21.4784638 ], [ -50.2433298, -21.475018 ], [ -50.2424552, -21.4699024 ], [ -50.2405144, -21.4671589 ], [ -50.2382003, -21.4669081 ], [ -50.2341531, -21.46393 ], [ -50.2311863, -21.4642333 ], [ -50.2288017, -21.462878 ], [ -50.2221311, -21.466553 ], [ -50.2201254, -21.4637834 ], [ -50.2155809, -21.4609457 ], [ -50.2143643, -21.4587011 ], [ -50.2118746, -21.4578807 ], [ -50.209436, -21.4521707 ], [ -50.2054632, -21.4511181 ], [ -50.2012646, -21.44769 ], [ -50.1944437, -21.4479282 ], [ -50.1923521, -21.4453016 ], [ -50.1920727, -21.4425 ], [ -50.1901735, -21.440097 ], [ -50.1894271, -21.4368322 ], [ -50.1884733, -21.4365465 ], [ -50.1859391, -21.4319056 ], [ -50.1807427, -21.426715 ], [ -50.1755717, -21.4269196 ], [ -50.1738239, -21.424161 ], [ -50.1692434, -21.4232438 ], [ -50.166286, -21.42396 ], [ -50.1629201, -21.4230286 ], [ -50.1609298, -21.4240969 ], [ -50.1588117, -21.4218553 ], [ -50.1577437, -21.4220337 ], [ -50.1563111, -21.4203422 ], [ -50.1535806, -21.4196365 ], [ -50.1518628, -21.4178497 ], [ -50.1506648, -21.4178763 ], [ -50.1504302, -21.4130592 ], [ -50.1516217, -21.4125478 ], [ -50.1527552, -21.4136206 ], [ -50.1537087, -21.4114758 ], [ -50.1546156, -21.4114088 ], [ -50.1535535, -21.4085247 ], [ -50.1546233, -21.4065051 ], [ -50.1534625, -21.4044119 ], [ -50.1505937, -21.4027115 ], [ -50.1496162, -21.4007325 ], [ -50.1460435, -21.3976237 ], [ -50.1465502, -21.395741 ], [ -50.1476268, -21.3967331 ], [ -50.1486968, -21.3961725 ], [ -50.1479872, -21.3929932 ], [ -50.1493916, -21.3921183 ], [ -50.1502973, -21.3901699 ], [ -50.1505727, -21.3863594 ], [ -50.1495718, -21.3849819 ], [ -50.1446769, -21.3830095 ], [ -50.1443436, -21.3802475 ], [ -50.145457, -21.3783517 ], [ -50.1489756, -21.3792818 ], [ -50.149638, -21.3754159 ], [ -50.1520636, -21.3711204 ], [ -50.1549578, -21.370372 ], [ -50.1582889, -21.3666343 ], [ -50.1583028, -21.3632556 ], [ -50.1607116, -21.3628382 ], [ -50.1620164, -21.3608154 ], [ -50.1644757, -21.3598427 ], [ -50.1628876, -21.356342 ], [ -50.1644526, -21.3536406 ], [ -50.1635712, -21.3503086 ], [ -50.1627076, -21.348643 ], [ -50.1607002, -21.3481485 ], [ -50.159944, -21.3469347 ], [ -50.160726, -21.3459012 ], [ -50.1634845, -21.3453856 ], [ -50.1629662, -21.3438631 ], [ -50.1606627, -21.3423364 ], [ -50.1620734, -21.3396419 ], [ -50.1612178, -21.3362475 ], [ -50.1633089, -21.3349928 ], [ -50.1627424, -21.3329044 ], [ -50.1638721, -21.3291847 ], [ -50.1627413, -21.3265459 ], [ -50.1580226, -21.3244057 ], [ -50.1537026, -21.3204685 ], [ -50.1440636, -21.3158171 ], [ -50.1406284, -21.3115773 ], [ -50.1401336, -21.3067107 ], [ -50.1412634, -21.3037926 ], [ -50.1386083, -21.2988821 ], [ -50.1401278, -21.287082 ], [ -50.1390967, -21.2787038 ], [ -50.1426681, -21.2767974 ], [ -50.1480742, -21.2683037 ], [ -50.1426724, -21.2620887 ], [ -50.1415185, -21.2579526 ], [ -50.142998, -21.2512546 ], [ -50.1416486, -21.2279528 ], [ -50.1423556, -21.2225993 ], [ -50.1405557, -21.2127322 ], [ -50.1376779, -21.205108 ], [ -50.1344532, -21.2011554 ], [ -50.129932, -21.197981 ], [ -50.1288873, -21.1955191 ], [ -50.1212724, -21.2007006 ], [ -50.1139664, -21.2088479 ], [ -50.09098, -21.2203344 ], [ -50.0859539, -21.2197655 ], [ -50.0706251, -21.2132963 ], [ -50.0605956, -21.215024 ], [ -50.0536765, -21.2129307 ], [ -50.0277253, -21.2107276 ], [ -50.0146545, -21.216723 ], [ -50.0011301, -21.2263074 ], [ -49.9915675, -21.2266661 ], [ -49.9922503, -21.2284962 ], [ -49.995473, -21.2293001 ], [ -49.9997618, -21.2339815 ], [ -49.9994505, -21.2405076 ], [ -50.0044094, -21.2444421 ], [ -50.0059289, -21.2509854 ], [ -50.0151596, -21.2576026 ], [ -50.020541, -21.2626683 ], [ -50.0250372, -21.2728104 ], [ -50.0287872, -21.275625 ], [ -50.0255534, -21.276052 ], [ -50.0241912, -21.2745215 ], [ -50.0217686, -21.2746754 ], [ -50.0212832, -21.2758071 ], [ -50.0220993, -21.2776096 ], [ -50.0187297, -21.2791482 ], [ -50.0173307, -21.2813529 ], [ -50.0182255, -21.2839733 ], [ -50.0164026, -21.2853508 ], [ -50.0137059, -21.2858077 ], [ -50.0158252, -21.2882643 ], [ -50.0132845, -21.2914957 ], [ -50.0153517, -21.294123 ], [ -50.0138389, -21.2964302 ], [ -50.011391, -21.298166 ], [ -50.0098341, -21.2982474 ], [ -50.0119093, -21.300905 ], [ -50.0057042, -21.3037965 ], [ -50.0044732, -21.3055019 ], [ -49.9968348, -21.3105749 ], [ -49.9919554, -21.3153245 ], [ -49.98714, -21.317819 ], [ -49.9843385, -21.3209905 ], [ -49.98267, -21.3275518 ], [ -49.9846705, -21.3309234 ], [ -49.9795591, -21.3358635 ], [ -49.9797714, -21.3418989 ], [ -49.9770604, -21.3568716 ], [ -49.9776128, -21.3649552 ], [ -49.9802728, -21.3730721 ], [ -49.9803067, -21.3779015 ], [ -49.9826835, -21.3805447 ], [ -49.9869352, -21.3826387 ], [ -49.9910698, -21.3860216 ], [ -49.9946282, -21.3915093 ], [ -49.9935682, -21.4005904 ], [ -49.9940268, -21.4025901 ], [ -49.9951436, -21.4044784 ], [ -50.0001955, -21.408214 ], [ -50.0013792, -21.4100245 ], [ -50.0060479, -21.4285154 ], [ -50.0010513, -21.4387821 ], [ -49.999307, -21.4473213 ], [ -50.0000389, -21.4516508 ], [ -50.0029802, -21.4566415 ], [ -50.0025188, -21.4613807 ], [ -50.004184, -21.4646552 ], [ -49.999028, -21.4684042 ], [ -49.9993743, -21.4811836 ], [ -49.9980056, -21.4826303 ], [ -49.9871618, -21.4867442 ], [ -49.9940473, -21.4971288 ], [ -50.0006126, -21.5008693 ], [ -50.0070439, -21.5109714 ], [ -50.0093898, -21.512212 ], [ -50.0132375, -21.5119179 ], [ -50.0145946, -21.5125668 ], [ -50.0149804, -21.5146325 ], [ -50.01343, -21.5173488 ], [ -50.013121, -21.5215535 ], [ -50.0253672, -21.5283416 ], [ -50.0256449, -21.5338116 ], [ -50.0268586, -21.5376377 ], [ -50.033767, -21.5432716 ], [ -50.0398641, -21.5521217 ], [ -50.0414115, -21.5532475 ], [ -50.0432142, -21.5577376 ], [ -50.0488255, -21.5616778 ], [ -50.0483515, -21.5628828 ], [ -50.0448581, -21.5650215 ], [ -50.0449702, -21.5668309 ], [ -50.0511283, -21.5744453 ], [ -50.0550942, -21.576582 ], [ -50.0558282, -21.5806123 ], [ -50.0592732, -21.582266 ], [ -50.0608534, -21.5839415 ], [ -50.0701183, -21.5848109 ], [ -50.0778363, -21.5879561 ], [ -50.0845365, -21.5876203 ], [ -50.0896483, -21.5864338 ], [ -50.0938974, -21.5877307 ], [ -50.1003663, -21.5871184 ], [ -50.1035674, -21.5897529 ], [ -50.1060552, -21.5898425 ], [ -50.1102999, -21.5779122 ], [ -50.1091798, -21.5743635 ], [ -50.1071105, -21.5712723 ], [ -50.1051598, -21.5619113 ], [ -50.1028927, -21.5575956 ] ] ] ] } }
]
}
