{
"type": "FeatureCollection",
"name": "ER_REGIAO_Pinhalzinho",
"crs": { "type": "name", "properties": { "name": "urn:ogc:def:crs:EPSG::4674" } },
"xy_coordinate_resolution": 1e-15,
"features": [
{ "type": "Feature", "properties": { "fid": 637, "NM_REGIAO": "Sudeste", "NM_UF": "São Paulo", "NM_MUN": "Pinhalzinho", "NM_DIST": "Pinhalzinho", "CD_SUBDIST": "35382040500", "ER_REGIAO": "Pinhalzinho", "ER_REGIAO_CIDADE": "Pinhalzinho_Campinas" }, "geometry": { "type": "MultiPolygon", "coordinates": [ [ [ [ -46.5985699, -22.8374475 ], [ -46.6003755, -22.8329052 ], [ -46.6059346, -22.8258999 ], [ -46.6177739, -22.8313275 ], [ -46.6244708, -22.832951 ], [ -46.6225343, -22.8300411 ], [ -46.6213956, -22.8199157 ], [ -46.6215331, -22.8150373 ], [ -46.6229795, -22.810659 ], [ -46.6231777, -22.8064576 ], [ -46.6253971, -22.8041545 ], [ -46.6302283, -22.8057052 ], [ -46.638564, -22.801976 ], [ -46.6428632, -22.8060139 ], [ -46.6444786, -22.8053006 ], [ -46.6473358, -22.8015073 ], [ -46.6483439, -22.7958695 ], [ -46.6539496, -22.7890155 ], [ -46.647674, -22.7786262 ], [ -46.6469559, -22.7745999 ], [ -46.647978, -22.7731635 ], [ -46.6531763, -22.7707789 ], [ -46.6609268, -22.7687908 ], [ -46.6603091, -22.7676762 ], [ -46.6583871, -22.7667229 ], [ -46.6553441, -22.767109 ], [ -46.6525928, -22.7664212 ], [ -46.6459434, -22.7604527 ], [ -46.6456521, -22.7577505 ], [ -46.6445541, -22.756218 ], [ -46.6433638, -22.7554201 ], [ -46.641284, -22.7555009 ], [ -46.6392758, -22.7533296 ], [ -46.6375409, -22.7534145 ], [ -46.635646, -22.7549481 ], [ -46.6343812, -22.7539978 ], [ -46.6297681, -22.7544884 ], [ -46.6275617, -22.7556674 ], [ -46.6261995, -22.7585999 ], [ -46.6242128, -22.7578039 ], [ -46.6204247, -22.7593493 ], [ -46.6189299, -22.7583092 ], [ -46.6153289, -22.7577452 ], [ -46.6146856, -22.754876 ], [ -46.6128247, -22.7529097 ], [ -46.6125542, -22.7513128 ], [ -46.6145093, -22.7470997 ], [ -46.6152196, -22.7421076 ], [ -46.6173201, -22.7369109 ], [ -46.6163007, -22.732141 ], [ -46.6205273, -22.7296067 ], [ -46.6218327, -22.7231422 ], [ -46.5369844, -22.7212164 ], [ -46.5369728, -22.7219106 ], [ -46.5351247, -22.7216813 ], [ -46.5360756, -22.7261005 ], [ -46.5337459, -22.7266414 ], [ -46.5306515, -22.729635 ], [ -46.5284622, -22.7252121 ], [ -46.527158, -22.7257135 ], [ -46.5244971, -22.7251438 ], [ -46.5185768, -22.7286916 ], [ -46.516736, -22.7278825 ], [ -46.5167177, -22.7290369 ], [ -46.5146508, -22.7297055 ], [ -46.5132555, -22.7291262 ], [ -46.5126793, -22.7302502 ], [ -46.5094502, -22.7303557 ], [ -46.5092955, -22.7290326 ], [ -46.5077051, -22.7278177 ], [ -46.5079586, -22.7269786 ], [ -46.5068011, -22.7275754 ], [ -46.5087974, -22.7375922 ], [ -46.5072926, -22.7424598 ], [ -46.5083219, -22.7451306 ], [ -46.5093262, -22.7568444 ], [ -46.5040319, -22.761047 ], [ -46.4971688, -22.7567962 ], [ -46.4951308, -22.7566436 ], [ -46.4925741, -22.7587817 ], [ -46.4887743, -22.757054 ], [ -46.4862723, -22.7596469 ], [ -46.4861852, -22.7611776 ], [ -46.4876438, -22.7647724 ], [ -46.5331459, -22.8067842 ], [ -46.5327901, -22.8104291 ], [ -46.5342322, -22.8126955 ], [ -46.5320441, -22.8147875 ], [ -46.5330609, -22.8162181 ], [ -46.5346647, -22.816764 ], [ -46.5355104, -22.8187898 ], [ -46.5351721, -22.8204966 ], [ -46.5317421, -22.821468 ], [ -46.5297122, -22.8252934 ], [ -46.5274983, -22.8268707 ], [ -46.5273202, -22.828409 ], [ -46.5290759, -22.830436 ], [ -46.5294456, -22.8324792 ], [ -46.5309487, -22.8337242 ], [ -46.5325291, -22.8323526 ], [ -46.534244, -22.8321722 ], [ -46.5342587, -22.834198 ], [ -46.5368093, -22.8363544 ], [ -46.5389698, -22.8364298 ], [ -46.5428116, -22.8386472 ], [ -46.5454771, -22.8387451 ], [ -46.5452159, -22.836479 ], [ -46.5478706, -22.8358654 ], [ -46.5504747, -22.8377791 ], [ -46.5523606, -22.8409996 ], [ -46.5545301, -22.8399307 ], [ -46.5568739, -22.840203 ], [ -46.5599686, -22.8424428 ], [ -46.5647282, -22.8432256 ], [ -46.569113, -22.8452468 ], [ -46.5712547, -22.8475778 ], [ -46.5792306, -22.8474375 ], [ -46.5792965, -22.8481426 ], [ -46.5816289, -22.8490029 ], [ -46.5826756, -22.8508467 ], [ -46.5962777, -22.8386429 ], [ -46.5985699, -22.8374475 ] ] ] ] } }
]
}
