{
"type": "FeatureCollection",
"name": "ER_REGIAO_Monte Aprazível_Itaiúba",
"crs": { "type": "name", "properties": { "name": "urn:ogc:def:crs:EPSG::4674" } },
"xy_coordinate_resolution": 1e-15,
"features": [
{ "type": "Feature", "properties": { "fid": 528, "NM_REGIAO": "Sudeste", "NM_UF": "São Paulo", "NM_MUN": "Monte Aprazível", "NM_DIST": "Itaiúba", "CD_SUBDIST": "35314071500", "ER_REGIAO": "Monte Aprazível_Itaiúba", "ER_REGIAO_CIDADE": "Monte Aprazível_Itaiúba_São José do Rio Preto" }, "geometry": { "type": "MultiPolygon", "coordinates": [ [ [ [ -49.8137541, -20.6676714 ], [ -49.8199973, -20.6740586 ], [ -49.821725, -20.6865086 ], [ -49.8251753, -20.6900836 ], [ -49.8254104, -20.6964098 ], [ -49.8275663, -20.6980205 ], [ -49.8294725, -20.6977037 ], [ -49.8343596, -20.7011036 ], [ -49.8355993, -20.7080994 ], [ -49.8375624, -20.7117036 ], [ -49.8409828, -20.7154092 ], [ -49.8438758, -20.7156014 ], [ -49.8472307, -20.7181131 ], [ -49.8511286, -20.719435 ], [ -49.8512648, -20.7218158 ], [ -49.8478813, -20.7241755 ], [ -49.8476075, -20.7252696 ], [ -49.8483883, -20.7272409 ], [ -49.8510676, -20.7299927 ], [ -49.8521935, -20.7340627 ], [ -49.8627928, -20.7339853 ], [ -49.8695336, -20.7303351 ], [ -49.8725086, -20.726033 ], [ -49.8766098, -20.7245595 ], [ -49.8805199, -20.7246608 ], [ -49.8856086, -20.7266979 ], [ -49.8902444, -20.7312068 ], [ -49.8905831, -20.7327546 ], [ -49.8923814, -20.7347239 ], [ -49.8928709, -20.7371894 ], [ -49.8961125, -20.7396051 ], [ -49.8981929, -20.7395672 ], [ -49.901314, -20.7423576 ], [ -49.9019432, -20.7443838 ], [ -49.9041484, -20.7457804 ], [ -49.905205, -20.7602033 ], [ -49.9087426, -20.7570387 ], [ -49.9123416, -20.7552324 ], [ -49.9161336, -20.7492778 ], [ -49.9191484, -20.7463941 ], [ -49.9193329, -20.7447803 ], [ -49.9218118, -20.7406361 ], [ -49.9214928, -20.7382071 ], [ -49.9229616, -20.7328608 ], [ -49.9226454, -20.7304724 ], [ -49.9237328, -20.7249484 ], [ -49.9250676, -20.7232653 ], [ -49.9256584, -20.719318 ], [ -49.9276532, -20.7145736 ], [ -49.9383993, -20.7113227 ], [ -49.9413172, -20.7081341 ], [ -49.946846, -20.7042901 ], [ -49.9481847, -20.6994145 ], [ -49.9427694, -20.6986824 ], [ -49.9360398, -20.7007526 ], [ -49.9317712, -20.7009848 ], [ -49.9144354, -20.6989814 ], [ -49.9107401, -20.701072 ], [ -49.9090098, -20.7065382 ], [ -49.9036806, -20.7100638 ], [ -49.901987, -20.7105509 ], [ -49.9000432, -20.7099864 ], [ -49.900578, -20.7047822 ], [ -49.8977388, -20.6999629 ], [ -49.8949593, -20.6969959 ], [ -49.8915702, -20.6958776 ], [ -49.8824543, -20.6867431 ], [ -49.8805125, -20.6791766 ], [ -49.8789432, -20.6755184 ], [ -49.8767054, -20.6732898 ], [ -49.8761138, -20.6688209 ], [ -49.8749578, -20.6671235 ], [ -49.8731054, -20.665893 ], [ -49.8709788, -20.6656453 ], [ -49.8675011, -20.6619124 ], [ -49.8601876, -20.6569509 ], [ -49.8580118, -20.6536852 ], [ -49.8543226, -20.6532485 ], [ -49.8533515, -20.6517054 ], [ -49.8498115, -20.6502903 ], [ -49.8449232, -20.6462775 ], [ -49.8401566, -20.644732 ], [ -49.8338081, -20.6371925 ], [ -49.8295084, -20.6340289 ], [ -49.8295766, -20.6366603 ], [ -49.8275808, -20.6371548 ], [ -49.82621, -20.6395645 ], [ -49.8267168, -20.6420972 ], [ -49.8258515, -20.6423996 ], [ -49.8265958, -20.6430218 ], [ -49.8260153, -20.6446178 ], [ -49.8273013, -20.6453719 ], [ -49.8257059, -20.6472772 ], [ -49.8273853, -20.6491695 ], [ -49.8265472, -20.6492791 ], [ -49.8244539, -20.6522331 ], [ -49.8248317, -20.6544074 ], [ -49.8232052, -20.655166 ], [ -49.8212487, -20.6599143 ], [ -49.8194805, -20.6620521 ], [ -49.8146651, -20.6649605 ], [ -49.8136612, -20.6661011 ], [ -49.8137541, -20.6676714 ] ] ] ] } }
]
}
