{
"type": "FeatureCollection",
"name": "ER_REGIAO_Pirajuí_Santo Antônio da Estiva",
"crs": { "type": "name", "properties": { "name": "urn:ogc:def:crs:EPSG::4674" } },
"xy_coordinate_resolution": 1e-15,
"features": [
{ "type": "Feature", "properties": { "fid": 653, "NM_REGIAO": "Sudeste", "NM_UF": "São Paulo", "NM_MUN": "Pirajuí", "NM_DIST": "Santo Antônio da Estiva", "CD_SUBDIST": "35389072000", "ER_REGIAO": "Pirajuí_Santo Antônio da Estiva", "ER_REGIAO_CIDADE": "Pirajuí_Santo Antônio da Estiva_Bauru" }, "geometry": { "type": "MultiPolygon", "coordinates": [ [ [ [ -49.391166899999973, -21.830628599999955 ], [ -49.38745549999993, -21.833647099999951 ], [ -49.38658369999996, -21.83532839999998 ], [ -49.382255099999952, -21.83767359999996 ], [ -49.377527699999973, -21.842838399999948 ], [ -49.37168859999997, -21.842853399999967 ], [ -49.366688699999941, -21.840735799999948 ], [ -49.36196469999993, -21.837212199999954 ], [ -49.350991499999964, -21.834667899999943 ], [ -49.345931, -21.834856299999956 ], [ -49.341717499999959, -21.837805399999979 ], [ -49.339982599999985, -21.838183599999979 ], [ -49.34054459999993, -21.841201399999932 ], [ -49.353639899999962, -21.855085 ], [ -49.354897699999981, -21.864357 ], [ -49.356958599999984, -21.866144799999972 ], [ -49.360956599999952, -21.872409699999935 ], [ -49.36987709999994, -21.878590199999962 ], [ -49.376400199999978, -21.879863099999966 ], [ -49.37831239999997, -21.877275899999972 ], [ -49.379681199999936, -21.877423199999953 ], [ -49.380672, -21.878758199999936 ], [ -49.38350939999998, -21.885991399999966 ], [ -49.381368499999951, -21.889634499999943 ], [ -49.383591, -21.895076399999937 ], [ -49.382925199999931, -21.903166699999929 ], [ -49.383672499999932, -21.911837 ], [ -49.382760099999985, -21.914604499999939 ], [ -49.382959, -21.919538399999965 ], [ -49.383327899999983, -21.922145399999977 ], [ -49.385509599999978, -21.925952699999982 ], [ -49.386153499999978, -21.931890199999941 ], [ -49.38895059999993, -21.93493449999994 ], [ -49.396069, -21.929364199999952 ], [ -49.398885399999983, -21.931486599999971 ], [ -49.404439099999934, -21.938758699999937 ], [ -49.410002299999974, -21.941917899999964 ], [ -49.41443929999997, -21.943072799999982 ], [ -49.417901799999981, -21.941270599999939 ], [ -49.419477899999947, -21.939259899999968 ], [ -49.419575599999973, -21.937740799999972 ], [ -49.422222499999975, -21.935340599999961 ], [ -49.422949899999935, -21.932945599999982 ], [ -49.424190799999963, -21.931975799999975 ], [ -49.424008399999934, -21.929218799999944 ], [ -49.423337199999935, -21.929219299999943 ], [ -49.423121099999946, -21.927056399999969 ], [ -49.421968, -21.925254199999927 ], [ -49.423100699999964, -21.924766399999953 ], [ -49.423596499999974, -21.92362 ], [ -49.423012699999958, -21.923406199999931 ], [ -49.425200699999948, -21.919552 ], [ -49.423691899999938, -21.914380199999982 ], [ -49.424128499999938, -21.913414799999941 ], [ -49.426233799999977, -21.912604899999963 ], [ -49.425989299999969, -21.911172499999964 ], [ -49.427282599999955, -21.90858019999996 ], [ -49.426467299999956, -21.907826499999942 ], [ -49.427478299999962, -21.903049099999976 ], [ -49.431033299999967, -21.899869799999976 ], [ -49.432638199999985, -21.900297299999977 ], [ -49.433090899999968, -21.899553599999933 ], [ -49.433694499999945, -21.900324 ], [ -49.43547929999994, -21.900421499999936 ], [ -49.438946399999963, -21.897799299999974 ], [ -49.440375099999983, -21.895686499999954 ], [ -49.440203099999962, -21.894633699999929 ], [ -49.44317209999997, -21.892672499999946 ], [ -49.443330799999956, -21.891326399999969 ], [ -49.446073599999977, -21.890577599999972 ], [ -49.44716509999995, -21.889225799999963 ], [ -49.448077199999943, -21.886073 ], [ -49.447613399999966, -21.885335599999962 ], [ -49.449322599999959, -21.882293699999934 ], [ -49.448549699999944, -21.882191199999966 ], [ -49.450421799999958, -21.880476299999941 ], [ -49.446230599999978, -21.879596899999967 ], [ -49.438211399999943, -21.873309799999959 ], [ -49.428067299999952, -21.869327 ], [ -49.421759799999961, -21.864187799999968 ], [ -49.415395799999942, -21.854288499999939 ], [ -49.409230299999933, -21.84946 ], [ -49.404899599999965, -21.844192299999975 ], [ -49.404789, -21.839973399999963 ], [ -49.402314699999977, -21.835433 ], [ -49.403291699999954, -21.830851499999937 ], [ -49.402904099999944, -21.826124899999968 ], [ -49.400691199999983, -21.826390499999945 ], [ -49.396341799999959, -21.83021679999996 ], [ -49.391166899999973, -21.830628599999955 ] ] ] ] } }
]
}
