{
"type": "FeatureCollection",
"name": "ER_REGIAO_Pedregulho_Pedregulho",
"crs": { "type": "name", "properties": { "name": "urn:ogc:def:crs:EPSG::4674" } },
"xy_coordinate_resolution": 1e-15,
"features": [
{ "type": "Feature", "properties": { "fid": 620, "NM_REGIAO": "Sudeste", "NM_UF": "São Paulo", "NM_MUN": "Pedregulho", "NM_DIST": "Pedregulho", "CD_SUBDIST": "35370080500", "ER_REGIAO": "Pedregulho_Pedregulho", "ER_REGIAO_CIDADE": "Pedregulho_Pedregulho_Franca" }, "geometry": { "type": "MultiPolygon", "coordinates": [ [ [ [ -47.5079596, -20.3091057 ], [ -47.5084377, -20.3081912 ], [ -47.5094142, -20.3085095 ], [ -47.509513, -20.3073167 ], [ -47.5117119, -20.3086949 ], [ -47.5135915, -20.3071256 ], [ -47.5148186, -20.3045659 ], [ -47.5156183, -20.3055617 ], [ -47.5148282, -20.3097914 ], [ -47.5164801, -20.3105948 ], [ -47.5178603, -20.3098061 ], [ -47.5174542, -20.311659 ], [ -47.5183342, -20.3120187 ], [ -47.5190093, -20.3108139 ], [ -47.5221932, -20.3103388 ], [ -47.5227422, -20.3096282 ], [ -47.5249714, -20.310309 ], [ -47.5261729, -20.3058587 ], [ -47.5273043, -20.306437 ], [ -47.5288333, -20.3051809 ], [ -47.5315057, -20.3055713 ], [ -47.531825, -20.3042787 ], [ -47.5339847, -20.3041873 ], [ -47.5346854, -20.3026418 ], [ -47.5363961, -20.3036207 ], [ -47.5374107, -20.3036247 ], [ -47.5383526, -20.302497 ], [ -47.5390494, -20.3030898 ], [ -47.5410771, -20.3008972 ], [ -47.5428977, -20.3020481 ], [ -47.5434321, -20.300856 ], [ -47.5456984, -20.3004591 ], [ -47.5445125, -20.2995994 ], [ -47.5451437, -20.2990508 ], [ -47.5472554, -20.2995607 ], [ -47.5479882, -20.2987821 ], [ -47.5491485, -20.299195 ], [ -47.5532883, -20.2981673 ], [ -47.5539328, -20.2973442 ], [ -47.5532582, -20.2957319 ], [ -47.5544543, -20.2960454 ], [ -47.5544309, -20.295249 ], [ -47.5559647, -20.2950436 ], [ -47.5567626, -20.2960652 ], [ -47.558895, -20.2957981 ], [ -47.5603367, -20.2940476 ], [ -47.5594809, -20.2925771 ], [ -47.5616367, -20.2918595 ], [ -47.5620952, -20.2897431 ], [ -47.5634542, -20.2907268 ], [ -47.5644133, -20.294168 ], [ -47.5664108, -20.2944505 ], [ -47.568588, -20.2912273 ], [ -47.5688313, -20.2925226 ], [ -47.5702613, -20.2923717 ], [ -47.5700153, -20.2915339 ], [ -47.5708509, -20.2917145 ], [ -47.5728075, -20.2901607 ], [ -47.5734179, -20.2909219 ], [ -47.5758572, -20.2909211 ], [ -47.5788016, -20.2929325 ], [ -47.58232, -20.2926248 ], [ -47.5820378, -20.2913632 ], [ -47.583584, -20.290695 ], [ -47.5866179, -20.291051 ], [ -47.5862933, -20.2898399 ], [ -47.5877444, -20.2893624 ], [ -47.5902501, -20.2899823 ], [ -47.5904103, -20.2891404 ], [ -47.5914846, -20.2897378 ], [ -47.5919019, -20.2885879 ], [ -47.5938818, -20.2882482 ], [ -47.5960916, -20.2891674 ], [ -47.596308, -20.2876371 ], [ -47.5983122, -20.2874754 ], [ -47.5986728, -20.2858622 ], [ -47.601111, -20.2850276 ], [ -47.6036427, -20.2815245 ], [ -47.6057734, -20.2804988 ], [ -47.6070381, -20.2763536 ], [ -47.6106071, -20.2772968 ], [ -47.6092206, -20.2725986 ], [ -47.6097022, -20.2692493 ], [ -47.6083474, -20.2673455 ], [ -47.6087291, -20.2655892 ], [ -47.6074153, -20.2607319 ], [ -47.6026499, -20.252646 ], [ -47.6048542, -20.2494698 ], [ -47.6046797, -20.2454207 ], [ -47.6056156, -20.2414083 ], [ -47.6097059, -20.231779 ], [ -47.6153098, -20.2239438 ], [ -47.6187406, -20.2216873 ], [ -47.6191607, -20.2188652 ], [ -47.6108809, -20.1971569 ], [ -47.6058341, -20.1951664 ], [ -47.6038917, -20.1908133 ], [ -47.6004327, -20.1887741 ], [ -47.5944564, -20.1820499 ], [ -47.592543, -20.1789114 ], [ -47.5923066, -20.1769251 ], [ -47.5941509, -20.1730885 ], [ -47.5970368, -20.174689 ], [ -47.5974099, -20.1734808 ], [ -47.598869, -20.1729411 ], [ -47.5992489, -20.1705384 ], [ -47.6019356, -20.1690318 ], [ -47.6025613, -20.1676871 ], [ -47.6057785, -20.1670393 ], [ -47.609123, -20.1596032 ], [ -47.6061049, -20.155454 ], [ -47.602411, -20.1552423 ], [ -47.598545, -20.1534808 ], [ -47.5968278, -20.1539688 ], [ -47.5938246, -20.152553 ], [ -47.586111, -20.1519285 ], [ -47.5812366, -20.1504402 ], [ -47.5701163, -20.1556146 ], [ -47.5636061, -20.153287 ], [ -47.5600295, -20.1455762 ], [ -47.5158831, -20.1452631 ], [ -47.5125777, -20.1479906 ], [ -47.5103611, -20.1483525 ], [ -47.5115204, -20.152803 ], [ -47.5096252, -20.1553366 ], [ -47.5071455, -20.157029 ], [ -47.5053492, -20.1570638 ], [ -47.5049828, -20.1590386 ], [ -47.501114, -20.1600615 ], [ -47.4947667, -20.1638426 ], [ -47.4948714, -20.1652603 ], [ -47.49253, -20.1706571 ], [ -47.4908477, -20.1708451 ], [ -47.491267, -20.1721884 ], [ -47.4895887, -20.1717219 ], [ -47.4881898, -20.1728973 ], [ -47.4891661, -20.1737296 ], [ -47.4885978, -20.1747073 ], [ -47.4828786, -20.1781873 ], [ -47.4817856, -20.178111 ], [ -47.4818877, -20.1794963 ], [ -47.4802678, -20.1794932 ], [ -47.4775354, -20.1816692 ], [ -47.4760609, -20.1850842 ], [ -47.4730668, -20.185957 ], [ -47.4724772, -20.1896608 ], [ -47.4704456, -20.1910077 ], [ -47.4694503, -20.1907678 ], [ -47.4668518, -20.1939192 ], [ -47.463901, -20.1952392 ], [ -47.453877, -20.1953974 ], [ -47.4505838, -20.1970212 ], [ -47.4387597, -20.1988716 ], [ -47.4311288, -20.1968759 ], [ -47.4279463, -20.1987061 ], [ -47.4215878, -20.1976723 ], [ -47.4138081, -20.1980251 ], [ -47.3943414, -20.1654097 ], [ -47.3925406, -20.1665215 ], [ -47.3899749, -20.1660662 ], [ -47.3842365, -20.1619964 ], [ -47.3831831, -20.1630211 ], [ -47.3793467, -20.1630744 ], [ -47.3762937, -20.1617667 ], [ -47.3726759, -20.1586962 ], [ -47.3672456, -20.1593609 ], [ -47.3601332, -20.1551555 ], [ -47.3589829, -20.1558456 ], [ -47.3588306, -20.1574485 ], [ -47.3609091, -20.1652631 ], [ -47.3599767, -20.1708258 ], [ -47.3591384, -20.1694886 ], [ -47.3569608, -20.1686215 ], [ -47.3554061, -20.1645218 ], [ -47.3533706, -20.1632888 ], [ -47.3494877, -20.1625885 ], [ -47.3490255, -20.1607613 ], [ -47.3470161, -20.1597934 ], [ -47.3447298, -20.1565838 ], [ -47.3453753, -20.1548907 ], [ -47.3449421, -20.15299 ], [ -47.3416722, -20.1510761 ], [ -47.3387718, -20.1521281 ], [ -47.3376012, -20.1498096 ], [ -47.3375731, -20.1473229 ], [ -47.3401241, -20.1467862 ], [ -47.3384628, -20.1438976 ], [ -47.3405164, -20.1422027 ], [ -47.3406135, -20.1431391 ], [ -47.3423598, -20.1427042 ], [ -47.343608, -20.1411066 ], [ -47.3445672, -20.1354561 ], [ -47.3429509, -20.1331532 ], [ -47.3438045, -20.1321447 ], [ -47.3417661, -20.1305845 ], [ -47.3390694, -20.1300536 ], [ -47.3357031, -20.1272213 ], [ -47.3355219, -20.1261487 ], [ -47.3368785, -20.1241374 ], [ -47.3367499, -20.119669 ], [ -47.329182, -20.1153164 ], [ -47.326538, -20.1157346 ], [ -47.3232893, -20.1167535 ], [ -47.3164798, -20.1217988 ], [ -47.3096734, -20.1244984 ], [ -47.3058711, -20.1332643 ], [ -47.2964016, -20.1458881 ], [ -47.2930069, -20.1486619 ], [ -47.2872324, -20.1521012 ], [ -47.2794279, -20.1524288 ], [ -47.2617804, -20.1599249 ], [ -47.2570443, -20.166204 ], [ -47.2565582, -20.1701911 ], [ -47.2573479, -20.1846702 ], [ -47.2558673, -20.1907713 ], [ -47.2541008, -20.1943303 ], [ -47.2505709, -20.1996702 ], [ -47.2401269, -20.2088679 ], [ -47.2310736, -20.2191522 ], [ -47.2325698, -20.2275223 ], [ -47.2373173, -20.235221 ], [ -47.239102, -20.2435681 ], [ -47.2416627, -20.2461182 ], [ -47.242283, -20.2501187 ], [ -47.2436255, -20.2511441 ], [ -47.2433161, -20.2522895 ], [ -47.2448105, -20.2535894 ], [ -47.2473518, -20.2586438 ], [ -47.2462664, -20.2614442 ], [ -47.2485138, -20.2632087 ], [ -47.2512678, -20.2621757 ], [ -47.2528741, -20.263638 ], [ -47.2548509, -20.2675557 ], [ -47.2574307, -20.2694344 ], [ -47.2587049, -20.2719963 ], [ -47.2587061, -20.274992 ], [ -47.2602329, -20.2748465 ], [ -47.2595747, -20.2759498 ], [ -47.261032, -20.2770074 ], [ -47.2604338, -20.2775686 ], [ -47.2623438, -20.2794099 ], [ -47.2635667, -20.2795106 ], [ -47.2626956, -20.2802447 ], [ -47.2634712, -20.2810282 ], [ -47.2645943, -20.2804943 ], [ -47.2646259, -20.2825702 ], [ -47.2650262, -20.2829719 ], [ -47.2658462, -20.2821137 ], [ -47.2671177, -20.2831282 ], [ -47.2680354, -20.2822252 ], [ -47.2699275, -20.2828258 ], [ -47.2695186, -20.2845453 ], [ -47.2725852, -20.2856571 ], [ -47.2712073, -20.2867223 ], [ -47.2730451, -20.2882652 ], [ -47.2743241, -20.2877597 ], [ -47.275022, -20.2896095 ], [ -47.278564, -20.2928222 ], [ -47.2801212, -20.2923336 ], [ -47.282467, -20.2897822 ], [ -47.2843804, -20.2896054 ], [ -47.2847951, -20.2875069 ], [ -47.2878413, -20.2847512 ], [ -47.2908607, -20.2803105 ], [ -47.2940121, -20.2778857 ], [ -47.2971857, -20.2771421 ], [ -47.3016513, -20.2734992 ], [ -47.3045452, -20.2721733 ], [ -47.3073478, -20.2741228 ], [ -47.3195971, -20.2743072 ], [ -47.3248433, -20.2761577 ], [ -47.3271303, -20.2754868 ], [ -47.3323673, -20.2714607 ], [ -47.3349974, -20.2712304 ], [ -47.3358669, -20.2686491 ], [ -47.3368532, -20.2683018 ], [ -47.3392548, -20.2704505 ], [ -47.3435291, -20.2725153 ], [ -47.3451414, -20.2715545 ], [ -47.345059, -20.2697882 ], [ -47.3463292, -20.2698128 ], [ -47.3516731, -20.277175 ], [ -47.3582344, -20.2767143 ], [ -47.3629133, -20.2747231 ], [ -47.3671272, -20.2715729 ], [ -47.3681624, -20.2752182 ], [ -47.3664709, -20.2785291 ], [ -47.3703414, -20.2796301 ], [ -47.3733267, -20.2818076 ], [ -47.3703083, -20.2902296 ], [ -47.3701734, -20.2920651 ], [ -47.3708916, -20.292971 ], [ -47.3721464, -20.2932951 ], [ -47.3773974, -20.2914446 ], [ -47.3807473, -20.291238 ], [ -47.3895868, -20.2941225 ], [ -47.421305, -20.3186837 ], [ -47.4248894, -20.3201659 ], [ -47.4280077, -20.3203238 ], [ -47.4355953, -20.3168917 ], [ -47.4398551, -20.3163649 ], [ -47.4413656, -20.3154524 ], [ -47.4444288, -20.3109756 ], [ -47.4487783, -20.3111556 ], [ -47.453363, -20.309216 ], [ -47.4574068, -20.3100783 ], [ -47.4604991, -20.3142792 ], [ -47.4623341, -20.3089169 ], [ -47.4646005, -20.3075944 ], [ -47.4720341, -20.3116967 ], [ -47.4817304, -20.3136158 ], [ -47.4860362, -20.3126033 ], [ -47.4899001, -20.3142852 ], [ -47.4946368, -20.3144443 ], [ -47.4957063, -20.3163831 ], [ -47.4972938, -20.3169398 ], [ -47.4991669, -20.3153938 ], [ -47.5006063, -20.3163036 ], [ -47.5037304, -20.3164146 ], [ -47.5048421, -20.3128665 ], [ -47.5062032, -20.3119882 ], [ -47.5070829, -20.3124683 ], [ -47.5067286, -20.3109281 ], [ -47.5076388, -20.3102219 ], [ -47.5068048, -20.3092006 ], [ -47.5079596, -20.3091057 ] ] ] ] } }
]
}
