{
"type": "FeatureCollection",
"name": "ER_REGIAO_Agudos_Domélia",
"crs": { "type": "name", "properties": { "name": "urn:ogc:def:crs:EPSG::4674" } },
"xy_coordinate_resolution": 1e-15,
"features": [
{ "type": "Feature", "properties": { "fid": 10, "NM_REGIAO": "Sudeste", "NM_UF": "São Paulo", "NM_MUN": "Agudos", "NM_DIST": "Domélia", "CD_SUBDIST": "35007091000", "ER_REGIAO": "Agudos_Domélia", "ER_REGIAO_CIDADE": "Agudos_Domélia_Bauru" }, "geometry": { "type": "MultiPolygon", "coordinates": [ [ [ [ -49.3568841, -22.6880367 ], [ -49.3560235, -22.6857407 ], [ -49.3571031, -22.6840998 ], [ -49.3585468, -22.683847 ], [ -49.3589935, -22.6825815 ], [ -49.353569, -22.6802326 ], [ -49.345886, -22.6794091 ], [ -49.3356656, -22.6763548 ], [ -49.3376359, -22.6693777 ], [ -49.3396897, -22.6659058 ], [ -49.3435446, -22.6653644 ], [ -49.3480192, -22.6627071 ], [ -49.3496508, -22.6602456 ], [ -49.352989, -22.6596278 ], [ -49.3580949, -22.655715 ], [ -49.359937, -22.65621 ], [ -49.3616388, -22.6549165 ], [ -49.3610099, -22.6540296 ], [ -49.3617818, -22.6529354 ], [ -49.3610918, -22.6524587 ], [ -49.3578577, -22.6538017 ], [ -49.3565981, -22.651591 ], [ -49.3584361, -22.6500642 ], [ -49.3569629, -22.649873 ], [ -49.3572044, -22.6484733 ], [ -49.3547303, -22.6491327 ], [ -49.3538876, -22.6485045 ], [ -49.3557528, -22.6451563 ], [ -49.357059, -22.6453348 ], [ -49.3567856, -22.6446929 ], [ -49.3535048, -22.6452462 ], [ -49.3514277, -22.6432618 ], [ -49.3518443, -22.642503 ], [ -49.3497766, -22.6427354 ], [ -49.3479174, -22.6412691 ], [ -49.3450609, -22.6415984 ], [ -49.3437923, -22.6409076 ], [ -49.3447839, -22.6389151 ], [ -49.3426814, -22.6379137 ], [ -49.3429662, -22.6362219 ], [ -49.3443526, -22.6356302 ], [ -49.3435952, -22.6349311 ], [ -49.342184, -22.6342643 ], [ -49.3407052, -22.635136 ], [ -49.3396847, -22.6376232 ], [ -49.3387986, -22.6347706 ], [ -49.3362907, -22.6347511 ], [ -49.3371693, -22.6341341 ], [ -49.3365606, -22.6339191 ], [ -49.3367478, -22.6323754 ], [ -49.3339052, -22.6292416 ], [ -49.3313744, -22.6299587 ], [ -49.3316716, -22.6303662 ], [ -49.3308799, -22.6313492 ], [ -49.3310397, -22.6303335 ], [ -49.330139, -22.631035 ], [ -49.3320593, -22.6320071 ], [ -49.3311144, -22.6328777 ], [ -49.3310983, -22.634208 ], [ -49.3286303, -22.6337975 ], [ -49.3294945, -22.6343674 ], [ -49.329031, -22.6349365 ], [ -49.3265613, -22.6323412 ], [ -49.3231289, -22.6332509 ], [ -49.3214131, -22.6316417 ], [ -49.3203539, -22.6326676 ], [ -49.3182055, -22.630819 ], [ -49.3171021, -22.6314269 ], [ -49.3171711, -22.6326864 ], [ -49.3145791, -22.6332265 ], [ -49.3146266, -22.6322162 ], [ -49.3131469, -22.6314245 ], [ -49.3137234, -22.6296632 ], [ -49.3125474, -22.6281639 ], [ -49.3131808, -22.6263445 ], [ -49.3117537, -22.625273 ], [ -49.3106942, -22.6280466 ], [ -49.3115016, -22.6298094 ], [ -49.310118, -22.6303492 ], [ -49.3083684, -22.6298025 ], [ -49.3087021, -22.6289386 ], [ -49.3072026, -22.6280489 ], [ -49.3085761, -22.6251743 ], [ -49.3069557, -22.6232561 ], [ -49.3045243, -22.6227446 ], [ -49.3034831, -22.6240151 ], [ -49.3019143, -22.6236235 ], [ -49.3007484, -22.6253165 ], [ -49.2990449, -22.6247409 ], [ -49.2988814, -22.6254728 ], [ -49.297983, -22.6245503 ], [ -49.2986362, -22.6231322 ], [ -49.2976436, -22.6221598 ], [ -49.2951378, -22.6219962 ], [ -49.2944185, -22.621082 ], [ -49.2940991, -22.6216279 ], [ -49.2932261, -22.6190803 ], [ -49.2926213, -22.6197064 ], [ -49.2926674, -22.61882 ], [ -49.2908228, -22.6180112 ], [ -49.2910247, -22.6164547 ], [ -49.2901618, -22.6163673 ], [ -49.2882677, -22.6121863 ], [ -49.2859461, -22.6119071 ], [ -49.285058, -22.6104564 ], [ -49.2857075, -22.609622 ], [ -49.2847179, -22.6101267 ], [ -49.2840207, -22.6091345 ], [ -49.2848364, -22.6084975 ], [ -49.2841217, -22.6072247 ], [ -49.2851904, -22.6060035 ], [ -49.2846911, -22.6049221 ], [ -49.2831004, -22.6046182 ], [ -49.2836412, -22.6034892 ], [ -49.2825468, -22.6033862 ], [ -49.2825172, -22.6040707 ], [ -49.2822414, -22.6030895 ], [ -49.2811702, -22.6028171 ], [ -49.2811266, -22.6017993 ], [ -49.2798539, -22.6013487 ], [ -49.2770768, -22.5966235 ], [ -49.2756629, -22.5957433 ], [ -49.2737194, -22.5966087 ], [ -49.2717417, -22.5958273 ], [ -49.270796, -22.5960535 ], [ -49.2705813, -22.5972372 ], [ -49.2672205, -22.5972376 ], [ -49.2653096, -22.5961265 ], [ -49.2641307, -22.5903228 ], [ -49.2615333, -22.590823 ], [ -49.2620533, -22.5913761 ], [ -49.2610805, -22.592959 ], [ -49.2581979, -22.5934309 ], [ -49.2561939, -22.5916372 ], [ -49.2555702, -22.5898195 ], [ -49.2537854, -22.5896913 ], [ -49.2514947, -22.591029 ], [ -49.2487214, -22.5908418 ], [ -49.2479441, -22.5899028 ], [ -49.2431235, -22.5886173 ], [ -49.2384135, -22.5846307 ], [ -49.2352329, -22.5856771 ], [ -49.2328403, -22.5851433 ], [ -49.2300294, -22.5858231 ], [ -49.2279848, -22.5847905 ], [ -49.2269032, -22.5823587 ], [ -49.2214134, -22.5842606 ], [ -49.2201882, -22.5833127 ], [ -49.2201998, -22.5820492 ], [ -49.2146032, -22.5839675 ], [ -49.2130786, -22.5826764 ], [ -49.213461, -22.5819716 ], [ -49.2092281, -22.5826097 ], [ -49.207005, -22.5797448 ], [ -49.2038832, -22.5780818 ], [ -49.2019099, -22.5783987 ], [ -49.2003683, -22.5767584 ], [ -49.1987838, -22.5771408 ], [ -49.1973173, -22.5738462 ], [ -49.193733, -22.5728178 ], [ -49.1919624, -22.5726758 ], [ -49.1879138, -22.574062 ], [ -49.1869286, -22.5755053 ], [ -49.1849018, -22.5762113 ], [ -49.1839835, -22.5783016 ], [ -49.1807984, -22.5793305 ], [ -49.1787054, -22.5811107 ], [ -49.1762795, -22.5847049 ], [ -49.1760147, -22.5878716 ], [ -49.1738359, -22.5931465 ], [ -49.1720358, -22.5939737 ], [ -49.1697367, -22.5978479 ], [ -49.1662058, -22.6003317 ], [ -49.1651715, -22.6031062 ], [ -49.1591395, -22.6116092 ], [ -49.1593701, -22.6149589 ], [ -49.1588012, -22.6163905 ], [ -49.1578894, -22.6165652 ], [ -49.1578862, -22.6195793 ], [ -49.1553606, -22.6218153 ], [ -49.1552053, -22.6242783 ], [ -49.1543593, -22.624484 ], [ -49.1512047, -22.6302292 ], [ -49.1492238, -22.6309562 ], [ -49.1487198, -22.6326053 ], [ -49.1451321, -22.6329692 ], [ -49.1434159, -22.6349099 ], [ -49.1404254, -22.6341917 ], [ -49.1351174, -22.6376149 ], [ -49.1328643, -22.6377277 ], [ -49.1299564, -22.6391445 ], [ -49.1277268, -22.640705 ], [ -49.1266971, -22.6436687 ], [ -49.123999, -22.6452142 ], [ -49.1233475, -22.6472921 ], [ -49.121231, -22.649619 ], [ -49.1187674, -22.6503379 ], [ -49.1130393, -22.6488138 ], [ -49.1096705, -22.650104 ], [ -49.1048228, -22.6546966 ], [ -49.096777, -22.6592365 ], [ -49.0938134, -22.6620425 ], [ -49.0912241, -22.6660799 ], [ -49.1022333, -22.6680417 ], [ -49.1053904, -22.6701005 ], [ -49.1088666, -22.6758916 ], [ -49.1114339, -22.6738666 ], [ -49.1153888, -22.6740815 ], [ -49.1196844, -22.6723774 ], [ -49.1267906, -22.6734506 ], [ -49.1332857, -22.6727838 ], [ -49.1352274, -22.6756367 ], [ -49.14456, -22.6817991 ], [ -49.1531701, -22.6852496 ], [ -49.1544888, -22.687617 ], [ -49.1546783, -22.691939 ], [ -49.1561162, -22.6965051 ], [ -49.1583923, -22.7011658 ], [ -49.1622545, -22.705586 ], [ -49.163351, -22.7133853 ], [ -49.1650871, -22.7182612 ], [ -49.1683719, -22.7220308 ], [ -49.1720305, -22.7236236 ], [ -49.1725996, -22.7272123 ], [ -49.1742543, -22.730068 ], [ -49.1770674, -22.729314 ], [ -49.181955, -22.7293917 ], [ -49.183805, -22.7229978 ], [ -49.1859863, -22.723393 ], [ -49.1902659, -22.7258931 ], [ -49.1958675, -22.7220959 ], [ -49.1976003, -22.7220919 ], [ -49.1993044, -22.7245481 ], [ -49.2016033, -22.7320313 ], [ -49.2039749, -22.7364089 ], [ -49.2110483, -22.743634 ], [ -49.2249439, -22.750867 ], [ -49.226242, -22.7531145 ], [ -49.2279772, -22.7604096 ], [ -49.231386, -22.7595409 ], [ -49.2400703, -22.7521505 ], [ -49.2449923, -22.7520472 ], [ -49.2489356, -22.7494302 ], [ -49.2506258, -22.7508613 ], [ -49.2549045, -22.7523997 ], [ -49.2613355, -22.7534748 ], [ -49.2662675, -22.7600481 ], [ -49.2699988, -22.7610863 ], [ -49.2730842, -22.7632566 ], [ -49.2758112, -22.7698061 ], [ -49.2774725, -22.7718334 ], [ -49.2803309, -22.7722618 ], [ -49.2877265, -22.7711294 ], [ -49.2899048, -22.7693215 ], [ -49.2919208, -22.765399 ], [ -49.2935783, -22.764709 ], [ -49.3005759, -22.7657056 ], [ -49.305389, -22.7631343 ], [ -49.3078173, -22.7626604 ], [ -49.3135066, -22.7631712 ], [ -49.3185375, -22.7646211 ], [ -49.3245252, -22.7641592 ], [ -49.3292469, -22.7657655 ], [ -49.3310187, -22.7671469 ], [ -49.3346896, -22.775181 ], [ -49.3396739, -22.7791344 ], [ -49.3483466, -22.7830499 ], [ -49.3549002, -22.7828404 ], [ -49.3581959, -22.7845199 ], [ -49.3607144, -22.7846407 ], [ -49.3674927, -22.7830037 ], [ -49.3782491, -22.776311 ], [ -49.3813117, -22.7699135 ], [ -49.3842638, -22.7671895 ], [ -49.3856966, -22.7629144 ], [ -49.3853592, -22.7596846 ], [ -49.3835718, -22.7577699 ], [ -49.3826554, -22.7533109 ], [ -49.383361, -22.7508113 ], [ -49.3818326, -22.7469364 ], [ -49.3822418, -22.7464644 ], [ -49.3810344, -22.7458608 ], [ -49.3795448, -22.7421565 ], [ -49.380337, -22.7406297 ], [ -49.3795724, -22.7398194 ], [ -49.379801, -22.7333356 ], [ -49.3758408, -22.7292897 ], [ -49.3754896, -22.7277732 ], [ -49.376139, -22.7254963 ], [ -49.3775293, -22.72444 ], [ -49.377072, -22.7223735 ], [ -49.3812065, -22.7196692 ], [ -49.3837352, -22.7163499 ], [ -49.3823385, -22.7139834 ], [ -49.3841081, -22.7090503 ], [ -49.3839921, -22.7080983 ], [ -49.373862, -22.708092 ], [ -49.3713344, -22.7073299 ], [ -49.368976, -22.7021237 ], [ -49.3627178, -22.6950211 ], [ -49.3615773, -22.6925186 ], [ -49.3568841, -22.6880367 ] ] ] ] } }
]
}
