{
"type": "FeatureCollection",
"name": "ER_REGIAO_Ribeirão Pires_Ribeirão Pires",
"crs": { "type": "name", "properties": { "name": "urn:ogc:def:crs:EPSG::4674" } },
"xy_coordinate_resolution": 1e-15,
"features": [
{ "type": "Feature", "properties": { "fid": 727, "NM_REGIAO": "Sudeste", "NM_UF": "São Paulo", "NM_MUN": "Ribeirão Pires", "NM_DIST": "Ribeirão Pires", "CD_SUBDIST": "35433030500", "ER_REGIAO": "Ribeirão Pires_Ribeirão Pires", "ER_REGIAO_CIDADE": "Ribeirão Pires_Ribeirão Pires_Grande ABC" }, "geometry": { "type": "MultiPolygon", "coordinates": [ [ [ [ -46.383933199999944, -23.722061499999938 ], [ -46.385692, -23.724161 ], [ -46.388165, -23.723252 ], [ -46.391493299999979, -23.724780599999974 ], [ -46.393433, -23.722971 ], [ -46.398574, -23.722668 ], [ -46.398787, -23.725955 ], [ -46.400632899999948, -23.727464599999962 ], [ -46.400974799999972, -23.730184799999961 ], [ -46.405207, -23.729808 ], [ -46.407202, -23.730463 ], [ -46.408127, -23.73164 ], [ -46.410022, -23.73188 ], [ -46.412226, -23.733766 ], [ -46.411814, -23.735472 ], [ -46.412708, -23.736187 ], [ -46.415178, -23.734882 ], [ -46.416371, -23.735081 ], [ -46.414758, -23.740718 ], [ -46.420834, -23.750893 ], [ -46.418159, -23.757358 ], [ -46.418669, -23.759417 ], [ -46.419954, -23.760547 ], [ -46.422083, -23.759745 ], [ -46.42305, -23.760913 ], [ -46.428168, -23.761814 ], [ -46.427425, -23.764426 ], [ -46.428005, -23.765569 ], [ -46.430308, -23.765338 ], [ -46.433052, -23.767247 ], [ -46.437006, -23.767771 ], [ -46.440365, -23.766051 ], [ -46.442148, -23.769232 ], [ -46.44423, -23.768698 ], [ -46.444725, -23.770273 ], [ -46.447994, -23.76954 ], [ -46.45058, -23.770903 ], [ -46.455116, -23.767553 ], [ -46.457229, -23.767451 ], [ -46.457004, -23.765461 ], [ -46.457891, -23.763552 ], [ -46.452886, -23.759157 ], [ -46.454175, -23.756958 ], [ -46.457908, -23.755671 ], [ -46.457041, -23.751711 ], [ -46.46352, -23.746501 ], [ -46.467831, -23.740823 ], [ -46.471497, -23.73905 ], [ -46.471395, -23.737975 ], [ -46.46987, -23.736642 ], [ -46.470163, -23.73551 ], [ -46.46875, -23.732178 ], [ -46.469787, -23.727112 ], [ -46.468854, -23.725859 ], [ -46.470271, -23.723397 ], [ -46.473866, -23.720659 ], [ -46.476187899999957, -23.71649009999993 ], [ -46.469303599999932, -23.716296399999976 ], [ -46.46838189999994, -23.714159 ], [ -46.468732699999975, -23.712599299999965 ], [ -46.465821399999982, -23.710297299999979 ], [ -46.462066, -23.709656 ], [ -46.460929299999975, -23.706602499999974 ], [ -46.459829899999932, -23.706063 ], [ -46.458474799999976, -23.706636699999933 ], [ -46.455967399999963, -23.70484689999995 ], [ -46.449842499999932, -23.70275 ], [ -46.448842, -23.700504899999942 ], [ -46.442911899999956, -23.69656 ], [ -46.443073599999934, -23.693743 ], [ -46.441041399999961, -23.69123639999998 ], [ -46.436878799999931, -23.688199499999939 ], [ -46.435505599999942, -23.685354299999972 ], [ -46.430506799999932, -23.684699899999941 ], [ -46.429944699999965, -23.679999099999975 ], [ -46.428183199999978, -23.679480699999942 ], [ -46.426459699999953, -23.677599099999952 ], [ -46.423940899999934, -23.679130799999939 ], [ -46.422214199999985, -23.678427799999952 ], [ -46.41936149999998, -23.681453899999951 ], [ -46.417414099999974, -23.681547499999965 ], [ -46.415559499999972, -23.683514399999979 ], [ -46.412613599999986, -23.684656899999936 ], [ -46.414054, -23.688735 ], [ -46.41323, -23.690383 ], [ -46.41334, -23.692868 ], [ -46.40969, -23.693727 ], [ -46.410309, -23.6957 ], [ -46.40981, -23.696387 ], [ -46.407363, -23.696095 ], [ -46.40287, -23.69312 ], [ -46.396436499999936, -23.694254299999955 ], [ -46.397083, -23.699226 ], [ -46.398451, -23.702741 ], [ -46.395388, -23.702919 ], [ -46.391547, -23.699722 ], [ -46.390441, -23.700589 ], [ -46.385595, -23.700553799999966 ], [ -46.379851599999938, -23.702981499999964 ], [ -46.377632, -23.701184 ], [ -46.375542, -23.704642 ], [ -46.371972, -23.706124 ], [ -46.374184, -23.707744 ], [ -46.375209499999983, -23.71092479999993 ], [ -46.376802599999962, -23.711933899999963 ], [ -46.381016, -23.708265 ], [ -46.384714, -23.708329 ], [ -46.385799, -23.712468 ], [ -46.382403, -23.717424 ], [ -46.38403, -23.720373 ], [ -46.383933199999944, -23.722061499999938 ] ] ] ] } }
]
}
