{
"type": "FeatureCollection",
"name": "ER_REGIAO_Barra do Turvo",
"crs": { "type": "name", "properties": { "name": "urn:ogc:def:crs:EPSG::4674" } },
"xy_coordinate_resolution": 1e-15,
"features": [
{ "type": "Feature", "properties": { "fid": 80, "NM_REGIAO": "Sudeste", "NM_UF": "São Paulo", "NM_MUN": "Barra do Turvo", "NM_DIST": "Barra do Turvo", "CD_SUBDIST": "35054010500", "ER_REGIAO": "Barra do Turvo", "ER_REGIAO_CIDADE": "Barra do Turvo_Vale do Ribeira" }, "geometry": { "type": "MultiPolygon", "coordinates": [ [ [ [ -48.5177061, -24.6776496 ], [ -48.5104818, -24.6731229 ], [ -48.5071381, -24.6733854 ], [ -48.5073414, -24.6688025 ], [ -48.5044022, -24.6679375 ], [ -48.5001675, -24.6692177 ], [ -48.4946802, -24.6685368 ], [ -48.4889277, -24.67668 ], [ -48.4872248, -24.6774007 ], [ -48.4856799, -24.6793144 ], [ -48.4831851, -24.6789549 ], [ -48.48161, -24.6776767 ], [ -48.4818027, -24.6709802 ], [ -48.4758403, -24.6654074 ], [ -48.4694293, -24.6633966 ], [ -48.4645964, -24.6599566 ], [ -48.4638864, -24.6613463 ], [ -48.4612144, -24.6621158 ], [ -48.4593562, -24.6601835 ], [ -48.4565374, -24.6608981 ], [ -48.4538038, -24.6603151 ], [ -48.4508263, -24.6585891 ], [ -48.4516239, -24.6558077 ], [ -48.4488805, -24.6525513 ], [ -48.4462788, -24.6532781 ], [ -48.443457, -24.6516333 ], [ -48.4369693, -24.6531978 ], [ -48.4346582, -24.6549017 ], [ -48.4300529, -24.6537714 ], [ -48.4278342, -24.654107 ], [ -48.4272616, -24.6571746 ], [ -48.4202876, -24.6595213 ], [ -48.4182657, -24.6575277 ], [ -48.4127605, -24.6560261 ], [ -48.4098531, -24.6573925 ], [ -48.4066921, -24.6565553 ], [ -48.4037632, -24.6626654 ], [ -48.4083656, -24.6664937 ], [ -48.4039926, -24.6668417 ], [ -48.4092753, -24.6723971 ], [ -48.4165994, -24.6754081 ], [ -48.4183124, -24.6781472 ], [ -48.4216595, -24.680919 ], [ -48.4208109, -24.6841788 ], [ -48.4222488, -24.6873892 ], [ -48.4188791, -24.6892597 ], [ -48.4174316, -24.6914659 ], [ -48.4144553, -24.6920963 ], [ -48.4155209, -24.6937215 ], [ -48.4152102, -24.6987247 ], [ -48.4137033, -24.7026504 ], [ -48.4119615, -24.7038025 ], [ -48.4123514, -24.706714 ], [ -48.4148907, -24.7072591 ], [ -48.4190257, -24.710629 ], [ -48.4192449, -24.7140661 ], [ -48.4187135, -24.7158626 ], [ -48.4152884, -24.7181763 ], [ -48.4129957, -24.7179958 ], [ -48.4108789, -24.7193419 ], [ -48.4081103, -24.7175309 ], [ -48.4060381, -24.7181235 ], [ -48.4036251, -24.7239313 ], [ -48.3992126, -24.7266101 ], [ -48.3964009, -24.7322958 ], [ -48.3940903, -24.7335624 ], [ -48.3908675, -24.7338428 ], [ -48.3909324, -24.7353895 ], [ -48.3882155, -24.7375273 ], [ -48.3878526, -24.7404665 ], [ -48.3896377, -24.7443507 ], [ -48.3841912, -24.747489 ], [ -48.3833988, -24.7492188 ], [ -48.3848816, -24.7523223 ], [ -48.3874667, -24.7528346 ], [ -48.3893205, -24.7550835 ], [ -48.3922615, -24.7544624 ], [ -48.3913506, -24.7562338 ], [ -48.3887485, -24.7573912 ], [ -48.3823948, -24.7577695 ], [ -48.3800728, -24.761117 ], [ -48.3778055, -24.7625702 ], [ -48.378859, -24.765295 ], [ -48.3775764, -24.7681251 ], [ -48.3724559, -24.7684401 ], [ -48.3702583, -24.7700533 ], [ -48.3694628, -24.7672283 ], [ -48.3655078, -24.7713314 ], [ -48.3638264, -24.7718785 ], [ -48.3635623, -24.7734912 ], [ -48.3613404, -24.7746965 ], [ -48.359889, -24.7775929 ], [ -48.3583044, -24.7886358 ], [ -48.3565551, -24.7892558 ], [ -48.3556095, -24.7913585 ], [ -48.3517078, -24.7947359 ], [ -48.3493639, -24.7922117 ], [ -48.3461107, -24.7922926 ], [ -48.3452509, -24.7947224 ], [ -48.3457023, -24.7980736 ], [ -48.3426794, -24.8010303 ], [ -48.3406512, -24.8014659 ], [ -48.3355488, -24.8005023 ], [ -48.3379834, -24.7986863 ], [ -48.3358987, -24.7972119 ], [ -48.335207, -24.7954481 ], [ -48.3316839, -24.7961521 ], [ -48.3289913, -24.7930979 ], [ -48.3270094, -24.7940381 ], [ -48.3252131, -24.7969183 ], [ -48.3211141, -24.7964889 ], [ -48.3194495, -24.7973276 ], [ -48.3185875, -24.7983407 ], [ -48.3195259, -24.8011335 ], [ -48.3153664, -24.8030188 ], [ -48.3143462, -24.8043102 ], [ -48.3153404, -24.8063357 ], [ -48.3148888, -24.8070538 ], [ -48.3097497, -24.8066746 ], [ -48.305227, -24.8034319 ], [ -48.3008009, -24.8043447 ], [ -48.298186, -24.8026976 ], [ -48.2959258, -24.8024444 ], [ -48.2962673, -24.8012156 ], [ -48.2944941, -24.8049969 ], [ -48.2952458, -24.8071663 ], [ -48.2948657, -24.8107864 ], [ -48.2962255, -24.8119584 ], [ -48.2949087, -24.8133643 ], [ -48.299365, -24.8162431 ], [ -48.3015816, -24.8160483 ], [ -48.303449, -24.8145966 ], [ -48.3050845, -24.8147685 ], [ -48.3064949, -24.8202374 ], [ -48.309191, -24.823428 ], [ -48.3095515, -24.8248725 ], [ -48.3081999, -24.8280059 ], [ -48.304307, -24.8276161 ], [ -48.3025272, -24.8286212 ], [ -48.3021656, -24.8334587 ], [ -48.3058571, -24.8373783 ], [ -48.3030891, -24.8382082 ], [ -48.300998, -24.836266 ], [ -48.2996352, -24.8362304 ], [ -48.2985867, -24.8375422 ], [ -48.2968861, -24.8376395 ], [ -48.295031, -24.8405367 ], [ -48.2930814, -24.8398677 ], [ -48.293277, -24.8386082 ], [ -48.2922221, -24.8378409 ], [ -48.2892513, -24.8390309 ], [ -48.2870852, -24.8386775 ], [ -48.2859438, -24.8372753 ], [ -48.2848907, -24.8381899 ], [ -48.2833651, -24.8380139 ], [ -48.2780258, -24.83306 ], [ -48.2708338, -24.83209 ], [ -48.2698342, -24.8312438 ], [ -48.2691768, -24.832464 ], [ -48.2707211, -24.8377025 ], [ -48.2705844, -24.8409196 ], [ -48.2725253, -24.8411746 ], [ -48.2741134, -24.8425292 ], [ -48.2780298, -24.8424627 ], [ -48.2815525, -24.8438037 ], [ -48.2828285, -24.8434033 ], [ -48.2850318, -24.8454211 ], [ -48.2888916, -24.8460909 ], [ -48.2914697, -24.8479717 ], [ -48.2958055, -24.8493164 ], [ -48.2989149, -24.8546791 ], [ -48.3056391, -24.8546548 ], [ -48.3072306, -24.8556448 ], [ -48.3092768, -24.8599312 ], [ -48.3084213, -24.8613745 ], [ -48.3148716, -24.862341 ], [ -48.3193903, -24.8647242 ], [ -48.3175543, -24.8673975 ], [ -48.3168288, -24.873239 ], [ -48.3156121, -24.8751465 ], [ -48.3127507, -24.8749308 ], [ -48.3114991, -24.8756563 ], [ -48.3100001, -24.8744386 ], [ -48.3052462, -24.874195 ], [ -48.2998673, -24.8771589 ], [ -48.2973039, -24.8801929 ], [ -48.2930748, -24.8788098 ], [ -48.2879147, -24.8795112 ], [ -48.2828026, -24.8791282 ], [ -48.2822534, -24.8822918 ], [ -48.2800509, -24.8831624 ], [ -48.2744986, -24.8805568 ], [ -48.2719741, -24.8821979 ], [ -48.2684955, -24.8826659 ], [ -48.2616328, -24.8787616 ], [ -48.2578868, -24.8839711 ], [ -48.2540575, -24.885569 ], [ -48.2526707, -24.8877024 ], [ -48.2550583, -24.8892328 ], [ -48.2557473, -24.8906288 ], [ -48.2585843, -24.8908014 ], [ -48.2608647, -24.8925517 ], [ -48.2626115, -24.8920967 ], [ -48.2640551, -24.8940777 ], [ -48.2609996, -24.899149 ], [ -48.2614407, -24.9004662 ], [ -48.2601153, -24.9030483 ], [ -48.2600581, -24.9086979 ], [ -48.2558579, -24.9116511 ], [ -48.2524514, -24.9121259 ], [ -48.2510291, -24.9115404 ], [ -48.2476119, -24.9068353 ], [ -48.2448302, -24.9076381 ], [ -48.2423373, -24.9054286 ], [ -48.2399459, -24.9014675 ], [ -48.2343346, -24.9015124 ], [ -48.2287771, -24.9049245 ], [ -48.2264366, -24.9074995 ], [ -48.2248348, -24.9068168 ], [ -48.2212507, -24.9080597 ], [ -48.2165513, -24.9083398 ], [ -48.216055, -24.9066659 ], [ -48.2142451, -24.9057295 ], [ -48.2125857, -24.9060892 ], [ -48.2091642, -24.9111765 ], [ -48.2086359, -24.9136124 ], [ -48.2108027, -24.9164064 ], [ -48.2103938, -24.9212223 ], [ -48.2110294, -24.9223986 ], [ -48.2194159, -24.9269968 ], [ -48.2242438, -24.9317821 ], [ -48.2254996, -24.9343842 ], [ -48.2198101, -24.9382243 ], [ -48.2191987, -24.9401073 ], [ -48.2164977, -24.9418312 ], [ -48.2174686, -24.9429584 ], [ -48.2160215, -24.9452482 ], [ -48.2167231, -24.9468148 ], [ -48.2163654, -24.9483567 ], [ -48.212638, -24.9497943 ], [ -48.2108918, -24.9534473 ], [ -48.2113548, -24.9547312 ], [ -48.210423, -24.9556228 ], [ -48.2104716, -24.9569321 ], [ -48.2117512, -24.9583466 ], [ -48.2135217, -24.9581911 ], [ -48.2173313, -24.960632 ], [ -48.2176448, -24.9624428 ], [ -48.220364, -24.9630285 ], [ -48.2206049, -24.9658622 ], [ -48.2215272, -24.9675859 ], [ -48.2239685, -24.9694286 ], [ -48.2236085, -24.9707652 ], [ -48.2287485, -24.9727706 ], [ -48.2276127, -24.975032 ], [ -48.2286686, -24.9765935 ], [ -48.2305838, -24.9773783 ], [ -48.2310256, -24.9787621 ], [ -48.2266409, -24.980943 ], [ -48.2258668, -24.9824859 ], [ -48.2312274, -24.9865415 ], [ -48.2325303, -24.9883599 ], [ -48.2386917, -24.9903541 ], [ -48.2396928, -24.9914176 ], [ -48.2420542, -24.9913785 ], [ -48.2457756, -24.9893918 ], [ -48.2485225, -24.9853405 ], [ -48.2493246, -24.9787118 ], [ -48.2502811, -24.9774178 ], [ -48.2523019, -24.9780648 ], [ -48.2520551, -24.9797428 ], [ -48.2592802, -24.9866505 ], [ -48.2577407, -24.9889237 ], [ -48.2588134, -24.9900519 ], [ -48.2554413, -24.9940569 ], [ -48.2548039, -24.9964979 ], [ -48.2577231, -24.9968091 ], [ -48.2586089, -24.9979265 ], [ -48.2599154, -24.9976564 ], [ -48.2618214, -24.9950518 ], [ -48.2618935, -24.9936742 ], [ -48.2633319, -24.9928045 ], [ -48.2662036, -24.9950382 ], [ -48.2668551, -24.9965382 ], [ -48.2695858, -24.9975348 ], [ -48.2681738, -25.0012221 ], [ -48.2775655, -25.0159961 ], [ -48.2753743, -25.0277117 ], [ -48.2779171, -25.0329744 ], [ -48.2846277, -25.0391923 ], [ -48.2875243, -25.0399692 ], [ -48.2896935, -25.0377018 ], [ -48.2891358, -25.0321805 ], [ -48.2896663, -25.029917 ], [ -48.2913014, -25.0286829 ], [ -48.292818, -25.0244243 ], [ -48.2944728, -25.0234465 ], [ -48.2973096, -25.0234537 ], [ -48.2991967, -25.0256374 ], [ -48.2964718, -25.0296735 ], [ -48.2977772, -25.0336018 ], [ -48.2992216, -25.0354109 ], [ -48.3026645, -25.0345004 ], [ -48.3074617, -25.0354827 ], [ -48.3082005, -25.0368346 ], [ -48.307248, -25.0441241 ], [ -48.3086152, -25.0467049 ], [ -48.3101693, -25.0480578 ], [ -48.3115537, -25.048148 ], [ -48.3136398, -25.0465997 ], [ -48.3143286, -25.0469751 ], [ -48.3177739, -25.0565481 ], [ -48.3303847, -25.0697052 ], [ -48.3336709, -25.0705736 ], [ -48.3356695, -25.0675255 ], [ -48.3357602, -25.0634106 ], [ -48.3337105, -25.0575697 ], [ -48.3310069, -25.0559056 ], [ -48.3243494, -25.0543888 ], [ -48.3264212, -25.0507308 ], [ -48.3231697, -25.0423195 ], [ -48.324141, -25.0367483 ], [ -48.3286971, -25.0370927 ], [ -48.330505, -25.0359555 ], [ -48.3324701, -25.0361382 ], [ -48.3358646, -25.0395248 ], [ -48.3370563, -25.0397042 ], [ -48.3390801, -25.0360302 ], [ -48.3426146, -25.0376483 ], [ -48.3469716, -25.0352408 ], [ -48.348531, -25.0353709 ], [ -48.3495863, -25.0368157 ], [ -48.3512278, -25.0364894 ], [ -48.3520615, -25.0323729 ], [ -48.350312, -25.028662 ], [ -48.3547484, -25.0199622 ], [ -48.3580472, -25.016723 ], [ -48.3651115, -25.0139023 ], [ -48.3725525, -25.0064995 ], [ -48.3733602, -25.004685 ], [ -48.3750301, -25.0035061 ], [ -48.3776161, -25.0030896 ], [ -48.378721, -25.0012782 ], [ -48.378, -25.0003052 ], [ -48.3786378, -24.9970283 ], [ -48.3811673, -24.995554 ], [ -48.38467, -24.9953123 ], [ -48.3909457, -24.9912167 ], [ -48.3947209, -24.9910615 ], [ -48.3957009, -24.9902433 ], [ -48.3954994, -24.9885699 ], [ -48.3983925, -24.987562 ], [ -48.3997988, -24.9858009 ], [ -48.4031647, -24.9850074 ], [ -48.4054709, -24.982465 ], [ -48.4111527, -24.9802317 ], [ -48.4136046, -24.9825498 ], [ -48.4136963, -24.986038 ], [ -48.4170349, -24.9893677 ], [ -48.4227004, -24.9909672 ], [ -48.4287817, -24.9900828 ], [ -48.4314295, -24.9913992 ], [ -48.4344547, -24.9912987 ], [ -48.4415019, -24.9957588 ], [ -48.4448103, -24.9963445 ], [ -48.445603, -24.9980791 ], [ -48.4483146, -24.9991346 ], [ -48.4491838, -25.0008562 ], [ -48.4595854, -25.0053621 ], [ -48.4628303, -25.0056752 ], [ -48.4667001, -25.009489 ], [ -48.4740493, -25.0125524 ], [ -48.4753666, -25.0151465 ], [ -48.4754186, -25.0204371 ], [ -48.4796187, -25.0311825 ], [ -48.4808824, -25.0369881 ], [ -48.4855326, -25.0421371 ], [ -48.4859516, -25.0453775 ], [ -48.4828359, -25.0518622 ], [ -48.4832919, -25.0531923 ], [ -48.4852124, -25.05396 ], [ -48.4894267, -25.0528558 ], [ -48.4914304, -25.0534042 ], [ -48.4939418, -25.0566788 ], [ -48.498406, -25.0591063 ], [ -48.5027211, -25.0645617 ], [ -48.5063975, -25.067636 ], [ -48.5075848, -25.069723 ], [ -48.5076497, -25.0731285 ], [ -48.5107444, -25.0775495 ], [ -48.5125128, -25.0838144 ], [ -48.5139987, -25.0857071 ], [ -48.5197279, -25.0847543 ], [ -48.5212823, -25.0859357 ], [ -48.5225452, -25.0890029 ], [ -48.5218993, -25.0919593 ], [ -48.5229197, -25.0936818 ], [ -48.5270576, -25.096113 ], [ -48.5285838, -25.1007893 ], [ -48.5412841, -25.0974807 ], [ -48.5560079, -25.0865526 ], [ -48.5565085, -25.0831837 ], [ -48.5598759, -25.077961 ], [ -48.5601132, -25.0751802 ], [ -48.5585076, -25.0729157 ], [ -48.5592411, -25.0703273 ], [ -48.5577713, -25.0686191 ], [ -48.5590558, -25.0670306 ], [ -48.5579385, -25.0639725 ], [ -48.5589032, -25.0615423 ], [ -48.5616722, -25.0603647 ], [ -48.5619569, -25.058928 ], [ -48.5653143, -25.0583019 ], [ -48.5670354, -25.0552682 ], [ -48.5690178, -25.0543089 ], [ -48.5690701, -25.0510623 ], [ -48.5734753, -25.0509131 ], [ -48.5796328, -25.0531274 ], [ -48.5826617, -25.0516461 ], [ -48.583029, -25.050004 ], [ -48.5813924, -25.0493019 ], [ -48.5806577, -25.0468223 ], [ -48.5823817, -25.042269 ], [ -48.5838052, -25.0415844 ], [ -48.5833709, -25.0384101 ], [ -48.5815386, -25.0348572 ], [ -48.5856951, -25.0303068 ], [ -48.5895837, -25.0296891 ], [ -48.5880042, -25.0277377 ], [ -48.5906867, -25.0265237 ], [ -48.5883168, -25.0239317 ], [ -48.5888695, -25.0197057 ], [ -48.5899871, -25.0192728 ], [ -48.5918495, -25.0199434 ], [ -48.5952665, -25.0187431 ], [ -48.5981875, -25.0200084 ], [ -48.5992472, -25.019272 ], [ -48.5994194, -25.0177645 ], [ -48.5977585, -25.0167495 ], [ -48.5972112, -25.0154164 ], [ -48.5987269, -25.0141337 ], [ -48.5996631, -25.0110998 ], [ -48.6008313, -25.0105057 ], [ -48.6000277, -25.0061105 ], [ -48.5988974, -25.0052277 ], [ -48.5952033, -24.9961342 ], [ -48.59155, -24.9966717 ], [ -48.5892327, -24.9948099 ], [ -48.5904155, -24.9889127 ], [ -48.5884602, -24.9864393 ], [ -48.5865962, -24.9859191 ], [ -48.5801343, -24.9869411 ], [ -48.5762873, -24.9844367 ], [ -48.5747282, -24.9800855 ], [ -48.5710618, -24.9779459 ], [ -48.5673709, -24.9722669 ], [ -48.5674733, -24.9665764 ], [ -48.568641, -24.9628001 ], [ -48.567946, -24.9600172 ], [ -48.5726711, -24.9549294 ], [ -48.5704626, -24.951606 ], [ -48.5643226, -24.9514665 ], [ -48.5629815, -24.9503259 ], [ -48.5640324, -24.9487853 ], [ -48.5689359, -24.9468961 ], [ -48.5696748, -24.9434816 ], [ -48.5676991, -24.9415285 ], [ -48.5628676, -24.9394293 ], [ -48.5668393, -24.9353935 ], [ -48.566424, -24.9326956 ], [ -48.567371, -24.9314352 ], [ -48.5688976, -24.9320289 ], [ -48.5701793, -24.9315417 ], [ -48.5693631, -24.9282895 ], [ -48.5715891, -24.9247315 ], [ -48.5712626, -24.9200089 ], [ -48.5676632, -24.9199412 ], [ -48.5655109, -24.9186875 ], [ -48.5652241, -24.9177292 ], [ -48.566407, -24.9168729 ], [ -48.5671711, -24.9143425 ], [ -48.5663982, -24.9112117 ], [ -48.5671436, -24.9038712 ], [ -48.5728345, -24.9028814 ], [ -48.5720602, -24.8950131 ], [ -48.5705628, -24.8941478 ], [ -48.5672841, -24.8939478 ], [ -48.5637247, -24.8949267 ], [ -48.5615654, -24.8976306 ], [ -48.5609235, -24.9006956 ], [ -48.5593072, -24.9011832 ], [ -48.5560909, -24.8928031 ], [ -48.5594349, -24.8892414 ], [ -48.5583439, -24.8845859 ], [ -48.5548636, -24.8817213 ], [ -48.5490052, -24.8823281 ], [ -48.5447856, -24.8789638 ], [ -48.5454241, -24.877014 ], [ -48.5470542, -24.8798277 ], [ -48.5493901, -24.8791638 ], [ -48.5468405, -24.8737703 ], [ -48.5486967, -24.8710646 ], [ -48.5497301, -24.8674963 ], [ -48.5637007, -24.8645348 ], [ -48.5651739, -24.8650392 ], [ -48.5666761, -24.8639577 ], [ -48.5646683, -24.8598352 ], [ -48.5644714, -24.8561736 ], [ -48.5678141, -24.8474996 ], [ -48.5668419, -24.8466371 ], [ -48.5661173, -24.8419293 ], [ -48.5639496, -24.8369441 ], [ -48.5644721, -24.8342807 ], [ -48.5622549, -24.8302019 ], [ -48.5622855, -24.8283947 ], [ -48.5613345, -24.8265329 ], [ -48.5557543, -24.8237931 ], [ -48.559199, -24.8210908 ], [ -48.5572572, -24.8129912 ], [ -48.5553936, -24.8101144 ], [ -48.555754, -24.8062038 ], [ -48.5488908, -24.7972137 ], [ -48.5365072, -24.7895475 ], [ -48.5344205, -24.7866515 ], [ -48.5308073, -24.7864462 ], [ -48.5273041, -24.7832231 ], [ -48.5167241, -24.7801821 ], [ -48.5156728, -24.7784164 ], [ -48.5158141, -24.7768275 ], [ -48.5178093, -24.7743981 ], [ -48.5167008, -24.7685602 ], [ -48.5142531, -24.767092 ], [ -48.5120854, -24.7639634 ], [ -48.507292, -24.7647911 ], [ -48.5067952, -24.7633141 ], [ -48.5081924, -24.7616925 ], [ -48.5084933, -24.7572269 ], [ -48.5074625, -24.7553173 ], [ -48.5076985, -24.7523722 ], [ -48.5018968, -24.7459757 ], [ -48.5040891, -24.7415375 ], [ -48.5039737, -24.7401382 ], [ -48.5031997, -24.7390928 ], [ -48.4993063, -24.7389676 ], [ -48.5003077, -24.7373481 ], [ -48.5020887, -24.737388 ], [ -48.5038059, -24.7349467 ], [ -48.505034, -24.7349376 ], [ -48.5066181, -24.7358055 ], [ -48.507675, -24.7383355 ], [ -48.5094728, -24.74015 ], [ -48.5115024, -24.7405661 ], [ -48.5200637, -24.7376011 ], [ -48.5224747, -24.7360679 ], [ -48.5255896, -24.7372002 ], [ -48.5278614, -24.7392891 ], [ -48.5294452, -24.73929 ], [ -48.5317828, -24.7367666 ], [ -48.5291747, -24.7315898 ], [ -48.5338634, -24.7280527 ], [ -48.5381446, -24.7262018 ], [ -48.5339113, -24.7218582 ], [ -48.530823, -24.7166703 ], [ -48.5314426, -24.7147873 ], [ -48.5298535, -24.7105585 ], [ -48.5292843, -24.7062129 ], [ -48.5313631, -24.7022433 ], [ -48.5302475, -24.699579 ], [ -48.5316327, -24.6978471 ], [ -48.5285928, -24.69204 ], [ -48.5289907, -24.6876512 ], [ -48.5276186, -24.6861729 ], [ -48.5255231, -24.6859933 ], [ -48.5247525, -24.6828851 ], [ -48.5212422, -24.6819799 ], [ -48.5177061, -24.6776496 ] ] ] ] } }
]
}
