{
"type": "FeatureCollection",
"name": "ER_REGIAO_Alumínio",
"crs": { "type": "name", "properties": { "name": "urn:ogc:def:crs:EPSG::4674" } },
"xy_coordinate_resolution": 1e-15,
"features": [
{ "type": "Feature", "properties": { "fid": 19, "NM_REGIAO": "Sudeste", "NM_UF": "São Paulo", "NM_MUN": "Alumínio", "NM_DIST": "Alumínio", "CD_SUBDIST": "35011520500", "ER_REGIAO": "Alumínio", "ER_REGIAO_CIDADE": "Alumínio_Sorocaba" }, "geometry": { "type": "MultiPolygon", "coordinates": [ [ [ [ -47.3036497, -23.5202933 ], [ -47.3060011, -23.5210631 ], [ -47.3074301, -23.5190105 ], [ -47.309369, -23.5188351 ], [ -47.3097815, -23.5180069 ], [ -47.3085116, -23.5171787 ], [ -47.3099958, -23.5165194 ], [ -47.3096301, -23.5150771 ], [ -47.311236, -23.515019 ], [ -47.313068, -23.513788 ], [ -47.317855, -23.515479 ], [ -47.31951, -23.514434 ], [ -47.324279, -23.513532 ], [ -47.324037, -23.512043 ], [ -47.322536, -23.511808 ], [ -47.323505, -23.510678 ], [ -47.323672, -23.506332 ], [ -47.324882, -23.504233 ], [ -47.32492, -23.502087 ], [ -47.322609, -23.494486 ], [ -47.323361, -23.492106 ], [ -47.32483, -23.491509 ], [ -47.32524, -23.490484 ], [ -47.318748, -23.485292 ], [ -47.317915, -23.481875 ], [ -47.319106, -23.482292 ], [ -47.319054, -23.479787 ], [ -47.320349, -23.475899 ], [ -47.317783, -23.474156 ], [ -47.320538, -23.468834 ], [ -47.320114, -23.466912 ], [ -47.318509, -23.465967 ], [ -47.31838, -23.4645 ], [ -47.316967, -23.463439 ], [ -47.3110748, -23.4678196 ], [ -47.310115, -23.4698826 ], [ -47.3104075, -23.4723288 ], [ -47.3046628, -23.4719541 ], [ -47.3011614, -23.469795 ], [ -47.300165, -23.4699267 ], [ -47.30049, -23.474666 ], [ -47.2994258, -23.4763092 ], [ -47.3001708, -23.4776559 ], [ -47.2993794, -23.478092 ], [ -47.2972859, -23.4771721 ], [ -47.2932166, -23.4778599 ], [ -47.2906267, -23.4766041 ], [ -47.2911338, -23.474415 ], [ -47.2905585, -23.4740686 ], [ -47.2876589, -23.4777531 ], [ -47.2861549, -23.4771692 ], [ -47.2832577, -23.477835 ], [ -47.2813551, -23.4764585 ], [ -47.2798617, -23.4768249 ], [ -47.2782999, -23.4788033 ], [ -47.2751455, -23.4792252 ], [ -47.2728816, -23.4782671 ], [ -47.2728546, -23.4797784 ], [ -47.2755973, -23.482842 ], [ -47.2758456, -23.486566 ], [ -47.2732277, -23.4885718 ], [ -47.2714465, -23.4945011 ], [ -47.2674329, -23.4942181 ], [ -47.2673561, -23.4976998 ], [ -47.2640876, -23.4980814 ], [ -47.2615857, -23.5015109 ], [ -47.259017, -23.5007587 ], [ -47.2584262, -23.5022313 ], [ -47.2564496, -23.5021669 ], [ -47.2549304, -23.5050023 ], [ -47.2552694, -23.5060027 ], [ -47.2541292, -23.5062574 ], [ -47.2531595, -23.5080452 ], [ -47.2497223, -23.5083248 ], [ -47.2465489, -23.5069586 ], [ -47.2449669, -23.5049484 ], [ -47.2434475, -23.5049143 ], [ -47.2432801, -23.5070144 ], [ -47.2394264, -23.5086507 ], [ -47.2385439, -23.5080078 ], [ -47.2354057, -23.5096444 ], [ -47.2339047, -23.5116553 ], [ -47.2300061, -23.5133979 ], [ -47.229769, -23.514895 ], [ -47.2303064, -23.517304 ], [ -47.233288, -23.5204424 ], [ -47.2340979, -23.5235507 ], [ -47.2341362, -23.5258385 ], [ -47.2323326, -23.5293271 ], [ -47.237783, -23.5327709 ], [ -47.233586, -23.5392015 ], [ -47.2306388, -23.5415281 ], [ -47.2300909, -23.5429548 ], [ -47.2306731, -23.544522 ], [ -47.2351338, -23.5488218 ], [ -47.233291, -23.5528524 ], [ -47.2336011, -23.5547736 ], [ -47.2353112, -23.5573665 ], [ -47.2407999, -23.5616118 ], [ -47.2427301, -23.5588556 ], [ -47.2456489, -23.5594913 ], [ -47.2478996, -23.5572691 ], [ -47.2528855, -23.5587066 ], [ -47.2512832, -23.5600851 ], [ -47.251059, -23.5614153 ], [ -47.2538501, -23.566207 ], [ -47.254387, -23.5689486 ], [ -47.2568581, -23.5701939 ], [ -47.2618841, -23.5692137 ], [ -47.2635005, -23.5699148 ], [ -47.2675669, -23.5772735 ], [ -47.2710851, -23.5781656 ], [ -47.2742332, -23.5815562 ], [ -47.2772018, -23.5878625 ], [ -47.2772746, -23.5971895 ], [ -47.2968467, -23.6036544 ], [ -47.2968736, -23.6020513 ], [ -47.3002949, -23.598438 ], [ -47.3047822, -23.5967648 ], [ -47.3099881, -23.5972918 ], [ -47.3094038, -23.5932243 ], [ -47.3100111, -23.5858834 ], [ -47.3133401, -23.5811945 ], [ -47.3123737, -23.5791022 ], [ -47.3129874, -23.5747687 ], [ -47.311784, -23.5703584 ], [ -47.3093119, -23.5670809 ], [ -47.3093961, -23.5649636 ], [ -47.3072202, -23.5603518 ], [ -47.3084661, -23.5574933 ], [ -47.3039517, -23.5494583 ], [ -47.3040719, -23.5474025 ], [ -47.3058419, -23.5460351 ], [ -47.3052833, -23.5452459 ], [ -47.306407, -23.5401827 ], [ -47.3042732, -23.537224 ], [ -47.3049261, -23.5355676 ], [ -47.3040199, -23.5349278 ], [ -47.3045883, -23.5325407 ], [ -47.3057185, -23.5316053 ], [ -47.307979, -23.5315079 ], [ -47.3092975, -23.5281952 ], [ -47.308294, -23.5269837 ], [ -47.3037731, -23.5255612 ], [ -47.3027955, -23.5241322 ], [ -47.3036497, -23.5202933 ] ] ] ] } }
]
}
