{
"type": "FeatureCollection",
"name": "ER_REGIAO_Mogi das Cruzes_Taiaçupeba",
"crs": { "type": "name", "properties": { "name": "urn:ogc:def:crs:EPSG::4674" } },
"xy_coordinate_resolution": 1e-15,
"features": [
{ "type": "Feature", "properties": { "fid": 514, "NM_REGIAO": "Sudeste", "NM_UF": "São Paulo", "NM_MUN": "Mogi das Cruzes", "NM_DIST": "Taiaçupeba", "CD_SUBDIST": "35306072500", "ER_REGIAO": "Mogi das Cruzes_Taiaçupeba", "ER_REGIAO_CIDADE": "Mogi das Cruzes_Taiaçupeba_Alto Tietê" }, "geometry": { "type": "MultiPolygon", "coordinates": [ [ [ [ -46.144584, -23.68813 ], [ -46.145543, -23.691958 ], [ -46.147232, -23.693241 ], [ -46.145798, -23.696317 ], [ -46.14733, -23.698576 ], [ -46.15288, -23.700692 ], [ -46.155064, -23.702874 ], [ -46.15711, -23.703717 ], [ -46.156024, -23.705519 ], [ -46.152494, -23.706719 ], [ -46.151596, -23.709176 ], [ -46.153372, -23.711417 ], [ -46.157796, -23.713812 ], [ -46.158477, -23.715662 ], [ -46.157934, -23.717021 ], [ -46.161623, -23.721915 ], [ -46.160379, -23.723327 ], [ -46.160505, -23.726215 ], [ -46.158963, -23.727124 ], [ -46.158161, -23.726713 ], [ -46.158365, -23.728446 ], [ -46.157428, -23.729347 ], [ -46.157997, -23.730936 ], [ -46.154773, -23.732101 ], [ -46.151723, -23.73 ], [ -46.150471, -23.730049 ], [ -46.15085, -23.731553 ], [ -46.149375, -23.731033 ], [ -46.150235, -23.732527 ], [ -46.155867, -23.736213 ], [ -46.157337, -23.734811 ], [ -46.157448, -23.732876 ], [ -46.158596, -23.732221 ], [ -46.160552, -23.731863 ], [ -46.163963, -23.732707 ], [ -46.165844, -23.734365 ], [ -46.169226, -23.732204 ], [ -46.170473, -23.732386 ], [ -46.174156, -23.735784 ], [ -46.176869, -23.735897 ], [ -46.176414, -23.737913 ], [ -46.17789, -23.739328 ], [ -46.178418, -23.745672 ], [ -46.183533, -23.744371 ], [ -46.186406, -23.744683 ], [ -46.189881, -23.747629 ], [ -46.190275, -23.750627 ], [ -46.193451, -23.754037 ], [ -46.194935, -23.754164 ], [ -46.196616, -23.752797 ], [ -46.1992, -23.753073 ], [ -46.201109, -23.751303 ], [ -46.207878, -23.751431 ], [ -46.208519, -23.750635 ], [ -46.207993, -23.745532 ], [ -46.208638, -23.743404 ], [ -46.210245, -23.741721 ], [ -46.211899, -23.74154 ], [ -46.217723, -23.744114 ], [ -46.221511, -23.741996 ], [ -46.222641, -23.740464 ], [ -46.225217, -23.740454 ], [ -46.225883, -23.737848 ], [ -46.227006, -23.736976 ], [ -46.234897, -23.737213 ], [ -46.237757, -23.735316 ], [ -46.22856, -23.728156 ], [ -46.226826, -23.724367 ], [ -46.222952, -23.720686 ], [ -46.222497, -23.716884 ], [ -46.220751, -23.715561 ], [ -46.218668, -23.7156578 ], [ -46.2173535, -23.7147067 ], [ -46.2149808, -23.7101186 ], [ -46.210095, -23.704062 ], [ -46.212457, -23.697052 ], [ -46.214111, -23.695457 ], [ -46.2142575, -23.693679 ], [ -46.2136197, -23.6911217 ], [ -46.211644, -23.689536 ], [ -46.211236, -23.686545 ], [ -46.216728, -23.674603 ], [ -46.216763, -23.672853 ], [ -46.2143942, -23.6693439 ], [ -46.222023, -23.665731 ], [ -46.223589, -23.663487 ], [ -46.221585, -23.657551 ], [ -46.223386, -23.652883 ], [ -46.221737, -23.651866 ], [ -46.218277, -23.651486 ], [ -46.21903, -23.648548 ], [ -46.218097, -23.643543 ], [ -46.220344, -23.641799 ], [ -46.222819, -23.636639 ], [ -46.229882, -23.632555 ], [ -46.236392, -23.631832 ], [ -46.237564, -23.635366 ], [ -46.243129, -23.634407 ], [ -46.24491, -23.637224 ], [ -46.248665, -23.635851 ], [ -46.2590873, -23.6352223 ], [ -46.198885, -23.624747 ], [ -46.19444, -23.625424 ], [ -46.191812, -23.62357 ], [ -46.189426, -23.623773 ], [ -46.186806, -23.626243 ], [ -46.183497, -23.627546 ], [ -46.181775, -23.627045 ], [ -46.180534, -23.62475 ], [ -46.17816, -23.622658 ], [ -46.17487, -23.622295 ], [ -46.171926, -23.62007 ], [ -46.168861, -23.620308 ], [ -46.164122, -23.623876 ], [ -46.161898, -23.623408 ], [ -46.156991, -23.618828 ], [ -46.154621, -23.618691 ], [ -46.152113, -23.61743 ], [ -46.150369, -23.620994 ], [ -46.147647, -23.623526 ], [ -46.146478, -23.627219 ], [ -46.146905, -23.629495 ], [ -46.146126, -23.629944 ], [ -46.146754, -23.631599 ], [ -46.142196, -23.636455 ], [ -46.140573, -23.640329 ], [ -46.141992, -23.643943 ], [ -46.145826, -23.644332 ], [ -46.1560625, -23.6477368 ], [ -46.1554319, -23.648266 ], [ -46.1566769, -23.650604 ], [ -46.158383, -23.651807 ], [ -46.1583668, -23.653193 ], [ -46.156444, -23.655946 ], [ -46.158329, -23.65834 ], [ -46.154699, -23.662205 ], [ -46.146179, -23.665873 ], [ -46.143695, -23.669215 ], [ -46.142551, -23.669418 ], [ -46.142665, -23.671876 ], [ -46.140809, -23.67265 ], [ -46.141, -23.679579 ], [ -46.145239, -23.684092 ], [ -46.144584, -23.68813 ] ] ] ] } }
]
}
