{
"type": "FeatureCollection",
"name": "ER_REGIAO_Paulínia",
"crs": { "type": "name", "properties": { "name": "urn:ogc:def:crs:EPSG::4674" } },
"xy_coordinate_resolution": 1e-15,
"features": [
{ "type": "Feature", "properties": { "fid": 610, "NM_REGIAO": "Sudeste", "NM_UF": "São Paulo", "NM_MUN": "Paulínia", "NM_DIST": "Paulínia", "CD_SUBDIST": "35365050500", "ER_REGIAO": "Paulínia", "ER_REGIAO_CIDADE": "Paulínia_Campinas" }, "geometry": { "type": "MultiPolygon", "coordinates": [ [ [ [ -47.177449, -22.803782 ], [ -47.181143, -22.801945 ], [ -47.182578, -22.797201 ], [ -47.192244, -22.796968 ], [ -47.195241, -22.790132 ], [ -47.199383, -22.787348 ], [ -47.200946, -22.788014 ], [ -47.202735, -22.791089 ], [ -47.2111546, -22.7947069 ], [ -47.2131682, -22.7919154 ], [ -47.217921, -22.788005 ], [ -47.217434, -22.783887 ], [ -47.214737, -22.775501 ], [ -47.2171872, -22.7723369 ], [ -47.217775, -22.769806 ], [ -47.216368, -22.765694 ], [ -47.217012, -22.7607365 ], [ -47.215598, -22.758217 ], [ -47.212961, -22.757716 ], [ -47.211662, -22.754615 ], [ -47.212016, -22.753746 ], [ -47.210515, -22.752134 ], [ -47.211134, -22.749767 ], [ -47.2104926, -22.7403951 ], [ -47.2076887, -22.7387868 ], [ -47.2062363, -22.7359848 ], [ -47.2005144, -22.7301673 ], [ -47.1952014, -22.7311062 ], [ -47.1942112, -22.7297874 ], [ -47.1927939, -22.7301537 ], [ -47.1887123, -22.7322417 ], [ -47.1868957, -22.7346672 ], [ -47.1858167, -22.7351255 ], [ -47.1844645, -22.73453 ], [ -47.1818436, -22.7268856 ], [ -47.1875543, -22.724355 ], [ -47.1891536, -22.7220453 ], [ -47.1890353, -22.7201253 ], [ -47.187532, -22.718748 ], [ -47.1794318, -22.7152238 ], [ -47.1797185, -22.7107757 ], [ -47.1736252, -22.704781 ], [ -47.1693563, -22.6949328 ], [ -47.1670872, -22.6959515 ], [ -47.1640802, -22.6946899 ], [ -47.1622166, -22.6976746 ], [ -47.160484, -22.6987762 ], [ -47.1568584, -22.6995241 ], [ -47.1537114, -22.6990757 ], [ -47.1495732, -22.6947145 ], [ -47.1492885, -22.6918128 ], [ -47.1504169, -22.6875356 ], [ -47.14882, -22.6846913 ], [ -47.1474272, -22.6846473 ], [ -47.1462151, -22.690735 ], [ -47.1439235, -22.6914397 ], [ -47.1416944, -22.6848156 ], [ -47.1405303, -22.6833724 ], [ -47.1384266, -22.6839656 ], [ -47.1369218, -22.6881674 ], [ -47.1342574, -22.6910843 ], [ -47.1338011, -22.6945562 ], [ -47.1266377, -22.6937715 ], [ -47.1257226, -22.6969058 ], [ -47.1241875, -22.6977719 ], [ -47.1221472, -22.6950953 ], [ -47.1222019, -22.694024 ], [ -47.1281589, -22.6868214 ], [ -47.1275777, -22.6856277 ], [ -47.1211171, -22.6826277 ], [ -47.1167115, -22.6820144 ], [ -47.1120315, -22.6865364 ], [ -47.1102632, -22.6900311 ], [ -47.1041237, -22.6906288 ], [ -47.1020628, -22.6879046 ], [ -47.1007327, -22.6878463 ], [ -47.0996306, -22.6894183 ], [ -47.0981304, -22.6892283 ], [ -47.0977224, -22.6884696 ], [ -47.0985945, -22.6862214 ], [ -47.0974108, -22.6854663 ], [ -47.0945004, -22.6876809 ], [ -47.0923925, -22.6871709 ], [ -47.0913535, -22.685441 ], [ -47.0890903, -22.6862162 ], [ -47.0872709, -22.6882187 ], [ -47.0829665, -22.6870833 ], [ -47.073858, -22.6803177 ], [ -47.0722225, -22.6799679 ], [ -47.0692005, -22.6829984 ], [ -47.0647764, -22.6849118 ], [ -47.0613384, -22.6900155 ], [ -47.0596515, -22.695492 ], [ -47.0612234, -22.7001809 ], [ -47.0685693, -22.703543 ], [ -47.0809125, -22.7027106 ], [ -47.0826991, -22.7054583 ], [ -47.0845572, -22.7133345 ], [ -47.0902322, -22.7147822 ], [ -47.0934503, -22.7196605 ], [ -47.099507, -22.720464 ], [ -47.1025785, -22.723946 ], [ -47.1018763, -22.7300701 ], [ -47.0995854, -22.7330039 ], [ -47.1019723, -22.73992 ], [ -47.1012871, -22.7504151 ], [ -47.1082934, -22.754372 ], [ -47.1053086, -22.7585964 ], [ -47.1057309, -22.7643319 ], [ -47.0991856, -22.7660338 ], [ -47.0970339, -22.7682756 ], [ -47.0959692, -22.7698575 ], [ -47.0963801, -22.7729453 ], [ -47.0944859, -22.7766111 ], [ -47.095537, -22.780395 ], [ -47.101597, -22.78665 ], [ -47.101585, -22.789019 ], [ -47.103035, -22.792701 ], [ -47.103024, -22.796678 ], [ -47.104717, -22.798269 ], [ -47.108569, -22.799459 ], [ -47.109995, -22.800666 ], [ -47.109861, -22.805222 ], [ -47.110678, -22.808168 ], [ -47.109251, -22.811631 ], [ -47.108838, -22.817016 ], [ -47.119944, -22.810271 ], [ -47.121758, -22.813611 ], [ -47.124809, -22.813643 ], [ -47.127293, -22.810778 ], [ -47.128904, -22.810938 ], [ -47.128292, -22.807611 ], [ -47.137455, -22.807232 ], [ -47.140935, -22.808209 ], [ -47.14263, -22.809701 ], [ -47.145944, -22.809204 ], [ -47.150381, -22.809992 ], [ -47.156218, -22.807811 ], [ -47.155645, -22.809665 ], [ -47.159537, -22.804966 ], [ -47.160863, -22.804333 ], [ -47.162459, -22.805546 ], [ -47.163926, -22.805432 ], [ -47.164619, -22.806625 ], [ -47.166305, -22.806433 ], [ -47.166915, -22.807326 ], [ -47.171846, -22.808696 ], [ -47.174175, -22.807746 ], [ -47.174021, -22.806991 ], [ -47.175943, -22.804879 ], [ -47.177217, -22.804763 ], [ -47.177449, -22.803782 ] ] ] ] } }
]
}
