{
"type": "FeatureCollection",
"name": "ER_REGIAO_Ribeirão Preto_Ribeirão Preto",
"crs": { "type": "name", "properties": { "name": "urn:ogc:def:crs:EPSG::4674" } },
"xy_coordinate_resolution": 1e-15,
"features": [
{ "type": "Feature", "properties": { "fid": 730, "NM_REGIAO": "Sudeste", "NM_UF": "São Paulo", "NM_MUN": "Ribeirão Preto", "NM_DIST": "Ribeirão Preto", "CD_SUBDIST": "35434020500", "ER_REGIAO": "Ribeirão Preto_Ribeirão Preto", "ER_REGIAO_CIDADE": "Ribeirão Preto_Ribeirão Preto_Ribeirão Preto" }, "geometry": { "type": "MultiPolygon", "coordinates": [ [ [ [ -47.665333, -21.199966 ], [ -47.668029, -21.211639 ], [ -47.674536, -21.216738 ], [ -47.676986, -21.217878 ], [ -47.679683, -21.218001 ], [ -47.681059, -21.219247 ], [ -47.682883, -21.218127 ], [ -47.685927, -21.221376 ], [ -47.690713, -21.221981 ], [ -47.693809, -21.224506 ], [ -47.697228, -21.225268 ], [ -47.698877, -21.228669 ], [ -47.705491, -21.237491 ], [ -47.719041, -21.246084 ], [ -47.725558, -21.252113 ], [ -47.733031, -21.263937 ], [ -47.736391, -21.265753 ], [ -47.739708, -21.265135 ], [ -47.741866, -21.265581 ], [ -47.749334, -21.269524 ], [ -47.753211, -21.269501 ], [ -47.763075, -21.274465 ], [ -47.768622, -21.269792 ], [ -47.770959, -21.266686 ], [ -47.775467, -21.256234 ], [ -47.78547089999995, -21.247144599999956 ], [ -47.787243, -21.244301 ], [ -47.791999, -21.242146 ], [ -47.793956, -21.22979 ], [ -47.799525, -21.228215 ], [ -47.810682, -21.226676299999951 ], [ -47.816900299999986, -21.222982 ], [ -47.826315699999952, -21.220214399999975 ], [ -47.83561409999993, -21.216224899999929 ], [ -47.83609169999994, -21.217770199999961 ], [ -47.834350299999983, -21.21927409999995 ], [ -47.836113299999965, -21.220306099999959 ], [ -47.837576499999955, -21.224234099999933 ], [ -47.840193, -21.226591799999937 ], [ -47.844969699999979, -21.227820299999962 ], [ -47.848100199999976, -21.227470399999959 ], [ -47.851991599999963, -21.228922499999953 ], [ -47.851743599999963, -21.230490399999951 ], [ -47.85625959999993, -21.232626799999935 ], [ -47.857572699999935, -21.234733299999959 ], [ -47.861474, -21.238067799999953 ], [ -47.878889, -21.245463 ], [ -47.880655, -21.246856 ], [ -47.882417499999974, -21.250308099999927 ], [ -47.881893899999966, -21.251207 ], [ -47.886283899999967, -21.257559 ], [ -47.886646799999937, -21.261757699999976 ], [ -47.889227799999958, -21.268249399999945 ], [ -47.88999339999998, -21.277634199999966 ], [ -47.892319399999963, -21.284496299999944 ], [ -47.896847199999968, -21.287790199999961 ], [ -47.902391699999953, -21.288370599999951 ], [ -47.907932799999969, -21.291596399999946 ], [ -47.908559799999978, -21.301792 ], [ -47.907571799999971, -21.304123699999934 ], [ -47.910985099999948, -21.308886599999937 ], [ -47.912959399999977, -21.309215 ], [ -47.914075099999934, -21.310352 ], [ -47.920350499999984, -21.310799499999973 ], [ -47.925387399999977, -21.308255599999939 ], [ -47.930324, -21.307311599999935 ], [ -47.931265799999949, -21.30807109999995 ], [ -47.937828599999932, -21.319114199999945 ], [ -47.939493699999957, -21.328102499999943 ], [ -47.941511299999945, -21.330601299999955 ], [ -47.943715599999962, -21.330741199999977 ], [ -47.94831, -21.33431939999997 ], [ -47.949204, -21.34362 ], [ -47.950447, -21.343074 ], [ -47.955018, -21.343647 ], [ -47.957352, -21.342227 ], [ -47.962251, -21.342171 ], [ -47.963678, -21.339592 ], [ -47.96438, -21.339629 ], [ -47.964045, -21.338332 ], [ -47.964641, -21.337743 ], [ -47.963481, -21.336091 ], [ -47.963758, -21.335006 ], [ -47.964824, -21.334925 ], [ -47.963938, -21.330279 ], [ -47.965032, -21.329402 ], [ -47.965629, -21.326604 ], [ -47.967153, -21.325013 ], [ -47.967436, -21.325878 ], [ -47.971527, -21.3262 ], [ -47.973014, -21.324958 ], [ -47.974512, -21.326356 ], [ -47.976129, -21.325709 ], [ -47.979779, -21.321668 ], [ -47.979896, -21.318485 ], [ -47.981076, -21.317456 ], [ -47.98041, -21.316697 ], [ -47.981178, -21.315256 ], [ -47.984882, -21.314345 ], [ -47.986529, -21.312736 ], [ -47.987645, -21.31297 ], [ -47.989154, -21.309372 ], [ -47.983105, -21.306892 ], [ -47.979415, -21.303244 ], [ -47.9755, -21.302537 ], [ -47.965947, -21.297746 ], [ -47.960345, -21.293207 ], [ -47.957284, -21.291985 ], [ -47.948822, -21.283901 ], [ -47.946585, -21.283177 ], [ -47.943605, -21.280574 ], [ -47.936174, -21.27768 ], [ -47.933094, -21.275577 ], [ -47.927691, -21.268066 ], [ -47.919796, -21.265641 ], [ -47.91614, -21.261654 ], [ -47.909977, -21.261168 ], [ -47.907835, -21.260484 ], [ -47.906423, -21.258852 ], [ -47.907511, -21.25548 ], [ -47.912614, -21.252381 ], [ -47.922939, -21.240476 ], [ -47.923239, -21.236486 ], [ -47.921207, -21.229047 ], [ -47.926842, -21.221373 ], [ -47.930133, -21.212768 ], [ -47.93042, -21.207375 ], [ -47.931762, -21.20373 ], [ -47.935341, -21.200763 ], [ -47.943423, -21.200296 ], [ -47.91659, -21.200705 ], [ -47.918416, -21.190278 ], [ -47.917939, -21.188515 ], [ -47.91477, -21.187664 ], [ -47.910343, -21.184921 ], [ -47.907133, -21.182045 ], [ -47.904429, -21.178124 ], [ -47.902192, -21.169291 ], [ -47.90163, -21.160319 ], [ -47.902537, -21.159257 ], [ -47.908185, -21.158967 ], [ -47.90988, -21.157558 ], [ -47.909717, -21.155709 ], [ -47.907198, -21.152448 ], [ -47.906216, -21.148675 ], [ -47.910024, -21.1409 ], [ -47.911374, -21.134112 ], [ -47.911286, -21.131173 ], [ -47.909382, -21.127532 ], [ -47.909117, -21.123257 ], [ -47.910485, -21.12098 ], [ -47.912916399999972, -21.119520099999932 ], [ -47.913104, -21.118379 ], [ -47.904907, -21.104135 ], [ -47.903581, -21.097417 ], [ -47.882932, -21.097787 ], [ -47.879924, -21.087104 ], [ -47.875656, -21.079135 ], [ -47.872189, -21.074843 ], [ -47.873771, -21.070562 ], [ -47.872007199999985, -21.06427489999993 ], [ -47.849843, -21.063908 ], [ -47.821569, -21.068181 ], [ -47.810389, -21.065743 ], [ -47.801823, -21.066837 ], [ -47.79949, -21.065551 ], [ -47.796285, -21.060294 ], [ -47.795102, -21.05954 ], [ -47.79092, -21.061382 ], [ -47.784908, -21.061342 ], [ -47.781641, -21.062442 ], [ -47.778568, -21.061756 ], [ -47.777167, -21.06309 ], [ -47.777263, -21.06911 ], [ -47.77641, -21.071794 ], [ -47.784308, -21.079436 ], [ -47.785417, -21.084159 ], [ -47.784971, -21.087478 ], [ -47.782015, -21.089344 ], [ -47.779007, -21.089176 ], [ -47.769433, -21.082104 ], [ -47.763914, -21.080412 ], [ -47.761172, -21.080321 ], [ -47.755006, -21.082492 ], [ -47.754609, -21.084088 ], [ -47.75596, -21.087423 ], [ -47.758574, -21.091411 ], [ -47.762059, -21.093836 ], [ -47.762777, -21.095685 ], [ -47.761381, -21.099717 ], [ -47.758642, -21.101035 ], [ -47.757485, -21.102482 ], [ -47.754529, -21.109741 ], [ -47.751935, -21.112188 ], [ -47.738987, -21.115385 ], [ -47.730143, -21.115426 ], [ -47.725512, -21.11839 ], [ -47.72035, -21.119357 ], [ -47.714618, -21.123004 ], [ -47.707842, -21.125405 ], [ -47.700589, -21.130497 ], [ -47.694276, -21.132005 ], [ -47.688884, -21.131438 ], [ -47.682381, -21.126709 ], [ -47.672937, -21.122665 ], [ -47.66968, -21.118654 ], [ -47.66725, -21.118562 ], [ -47.663279, -21.123949 ], [ -47.659147, -21.1333 ], [ -47.650154, -21.140696 ], [ -47.646682, -21.14815 ], [ -47.647549, -21.149781 ], [ -47.649669, -21.149862 ], [ -47.650545, -21.152694 ], [ -47.651762, -21.152119 ], [ -47.652811, -21.152911 ], [ -47.653432, -21.155135 ], [ -47.656576, -21.155304 ], [ -47.657906, -21.154541 ], [ -47.65813, -21.155335 ], [ -47.659264, -21.155255 ], [ -47.659437, -21.156199 ], [ -47.663337, -21.158117 ], [ -47.665038, -21.16045 ], [ -47.664424, -21.160692 ], [ -47.665196, -21.161474 ], [ -47.663494, -21.165182 ], [ -47.663483, -21.168173 ], [ -47.664104, -21.171764 ], [ -47.66495, -21.172492 ], [ -47.664819, -21.174399 ], [ -47.666056, -21.175657 ], [ -47.664935, -21.179517 ], [ -47.665461, -21.180002 ], [ -47.664257, -21.180675 ], [ -47.664474, -21.183136 ], [ -47.66327, -21.183751 ], [ -47.663222, -21.184649 ], [ -47.66162, -21.18488 ], [ -47.661248, -21.185982 ], [ -47.658765, -21.186205 ], [ -47.65859, -21.188532 ], [ -47.659713, -21.189229 ], [ -47.659902, -21.191249 ], [ -47.659131, -21.195801 ], [ -47.665333, -21.199966 ] ] ] ] } }
]
}
