{
"type": "FeatureCollection",
"name": "ER_REGIAO_Marapoama",
"crs": { "type": "name", "properties": { "name": "urn:ogc:def:crs:EPSG::4674" } },
"xy_coordinate_resolution": 1e-15,
"features": [
{ "type": "Feature", "properties": { "fid": 468, "NM_REGIAO": "Sudeste", "NM_UF": "São Paulo", "NM_MUN": "Marapoama", "NM_DIST": "Marapoama", "CD_SUBDIST": "35288580500", "ER_REGIAO": "Marapoama", "ER_REGIAO_CIDADE": "Marapoama_São José do Rio Preto" }, "geometry": { "type": "MultiPolygon", "coordinates": [ [ [ [ -49.1757795, -21.2519657 ], [ -49.1724918, -21.2469515 ], [ -49.1655248, -21.2285861 ], [ -49.1642169, -21.2220972 ], [ -49.1567386, -21.2182983 ], [ -49.1473372, -21.2172058 ], [ -49.145525, -21.2158963 ], [ -49.1477848, -21.2109528 ], [ -49.1427922, -21.2040178 ], [ -49.14183, -21.1982144 ], [ -49.1424181, -21.1940292 ], [ -49.1448793, -21.1873943 ], [ -49.1402812, -21.185643 ], [ -49.1353817, -21.1874148 ], [ -49.1341256, -21.1863203 ], [ -49.1324317, -21.186823 ], [ -49.1311757, -21.1911268 ], [ -49.1278671, -21.1939979 ], [ -49.1242763, -21.1952791 ], [ -49.118551, -21.1946936 ], [ -49.1159422, -21.1968749 ], [ -49.1122281, -21.1961345 ], [ -49.109439, -21.1972935 ], [ -49.1089588, -21.1999035 ], [ -49.1073581, -21.2009031 ], [ -49.1047105, -21.2048619 ], [ -49.1022124, -21.2052833 ], [ -49.1004492, -21.2095018 ], [ -49.0978272, -21.2130541 ], [ -49.0974937, -21.2148909 ], [ -49.0952689, -21.2160155 ], [ -49.0905274, -21.2224182 ], [ -49.086812, -21.2227464 ], [ -49.0817059, -21.2272539 ], [ -49.0722035, -21.2292455 ], [ -49.065704, -21.2332327 ], [ -49.0632205, -21.2391193 ], [ -49.0591742, -21.2419789 ], [ -49.0587028, -21.2431063 ], [ -49.0588385, -21.2444117 ], [ -49.0630908, -21.2510867 ], [ -49.0657283, -21.2522066 ], [ -49.0681267, -21.2546572 ], [ -49.0697749, -21.2602346 ], [ -49.0818205, -21.2681704 ], [ -49.0910217, -21.2717769 ], [ -49.0926766, -21.2761097 ], [ -49.0925533, -21.280399 ], [ -49.1015239, -21.2865934 ], [ -49.1083065, -21.2880483 ], [ -49.1154238, -21.2947433 ], [ -49.1256766, -21.2986904 ], [ -49.1341937, -21.2964906 ], [ -49.1377826, -21.2947591 ], [ -49.1401498, -21.2923546 ], [ -49.1507511, -21.2882645 ], [ -49.1529051, -21.2884066 ], [ -49.1560875, -21.2868855 ], [ -49.1605473, -21.2867467 ], [ -49.1646771, -21.2879397 ], [ -49.1669033, -21.289614 ], [ -49.1699356, -21.2891126 ], [ -49.1721995, -21.2933498 ], [ -49.1748432, -21.2932056 ], [ -49.1763162, -21.2957177 ], [ -49.1786918, -21.2975494 ], [ -49.1837832, -21.2977992 ], [ -49.1875175, -21.3036205 ], [ -49.1907541, -21.3034236 ], [ -49.1960581, -21.3047025 ], [ -49.1980366, -21.3066289 ], [ -49.2020581, -21.3062254 ], [ -49.2052097, -21.3090859 ], [ -49.2078907, -21.3092242 ], [ -49.2116607, -21.3114852 ], [ -49.2147402, -21.3155966 ], [ -49.2150995, -21.3184003 ], [ -49.2170597, -21.3210819 ], [ -49.2243646, -21.3230717 ], [ -49.2268134, -21.3249076 ], [ -49.231133, -21.3246614 ], [ -49.2340747, -21.3235744 ], [ -49.2308136, -21.3206147 ], [ -49.2290971, -21.3147475 ], [ -49.2266342, -21.3107636 ], [ -49.2251198, -21.3032752 ], [ -49.2215364, -21.2930194 ], [ -49.2142312, -21.2844535 ], [ -49.2127491, -21.2815207 ], [ -49.2084876, -21.2792406 ], [ -49.2004337, -21.2785642 ], [ -49.1966255, -21.2745689 ], [ -49.1944958, -21.2735949 ], [ -49.1887639, -21.2634975 ], [ -49.1757795, -21.2519657 ] ] ] ] } }
]
}
