{
"type": "FeatureCollection",
"name": "ER_REGIAO_Itobi",
"crs": { "type": "name", "properties": { "name": "urn:ogc:def:crs:EPSG::4674" } },
"xy_coordinate_resolution": 1e-15,
"features": [
{ "type": "Feature", "properties": { "fid": 396, "NM_REGIAO": "Sudeste", "NM_UF": "São Paulo", "NM_MUN": "Itobi", "NM_DIST": "Itobi", "CD_SUBDIST": "35238000500", "ER_REGIAO": "Itobi", "ER_REGIAO_CIDADE": "Itobi_São João da Boa Vista" }, "geometry": { "type": "MultiPolygon", "coordinates": [ [ [ [ -46.8545642, -21.7408577 ], [ -46.8536739, -21.7424936 ], [ -46.8500413, -21.7434054 ], [ -46.8476031, -21.7452243 ], [ -46.8480314, -21.7513573 ], [ -46.8438999, -21.7571111 ], [ -46.8429991, -21.7603492 ], [ -46.8474026, -21.7677747 ], [ -46.8467899, -21.7725142 ], [ -46.855116, -21.7755463 ], [ -46.8542211, -21.7781606 ], [ -46.8546166, -21.7798407 ], [ -46.8586675, -21.7789263 ], [ -46.8672382, -21.7793668 ], [ -46.8721437, -21.784001 ], [ -46.8791391, -21.7868727 ], [ -46.8835518, -21.7824742 ], [ -46.884191, -21.7836867 ], [ -46.8864613, -21.7843381 ], [ -46.8950739, -21.7848897 ], [ -46.8964939, -21.7863172 ], [ -46.8966246, -21.7887611 ], [ -46.8990118, -21.7898735 ], [ -46.9013757, -21.7932363 ], [ -46.9060452, -21.7960419 ], [ -46.9077481, -21.8004425 ], [ -46.9149001, -21.8037967 ], [ -46.9212532, -21.8080991 ], [ -46.9228822, -21.8143791 ], [ -46.9335319, -21.8168372 ], [ -46.9369411, -21.8186818 ], [ -46.9390992, -21.8186403 ], [ -46.939095, -21.8194116 ], [ -46.9415292, -21.8189101 ], [ -46.9485298, -21.8202248 ], [ -46.9511034, -21.8181521 ], [ -46.9591967, -21.8151779 ], [ -46.9606893, -21.8150957 ], [ -46.9626714, -21.8167169 ], [ -46.961968, -21.8152316 ], [ -46.9621669, -21.8093884 ], [ -46.9609057, -21.8052832 ], [ -46.9600625, -21.8038248 ], [ -46.9553011, -21.8003635 ], [ -46.9543216, -21.7990394 ], [ -46.9541883, -21.7969455 ], [ -46.9561085, -21.7913529 ], [ -46.9553583, -21.7895834 ], [ -46.9560306, -21.7869327 ], [ -46.959767, -21.7823153 ], [ -46.960123, -21.7797553 ], [ -46.9614223, -21.7785044 ], [ -46.9627914, -21.7747253 ], [ -46.9663919, -21.7714277 ], [ -46.9673682, -21.7610177 ], [ -46.9698359, -21.7600729 ], [ -46.9734157, -21.7569277 ], [ -46.9780561, -21.7563248 ], [ -46.979761, -21.7542619 ], [ -46.9816612, -21.753954 ], [ -46.9831724, -21.7497907 ], [ -46.9852017, -21.7493815 ], [ -46.9837904, -21.7466111 ], [ -46.9823516, -21.7463834 ], [ -46.9820375, -21.7454738 ], [ -46.9842713, -21.7441182 ], [ -46.9836494, -21.7413169 ], [ -46.9909351, -21.7443898 ], [ -46.9949518, -21.7436777 ], [ -46.9966862, -21.7416632 ], [ -46.996508, -21.737752 ], [ -46.9975313, -21.7363902 ], [ -47.0052818, -21.7347227 ], [ -47.0073026, -21.736287 ], [ -47.0108846, -21.7334803 ], [ -47.0034205, -21.7249841 ], [ -47.0002419, -21.7236963 ], [ -46.9910145, -21.7230013 ], [ -46.986552, -21.7212174 ], [ -46.9829419, -21.7168564 ], [ -46.9763674, -21.715931 ], [ -46.982598, -21.7123262 ], [ -46.9801032, -21.7097115 ], [ -46.9815247, -21.7076628 ], [ -46.9802245, -21.7072268 ], [ -46.9810164, -21.7070883 ], [ -46.9803712, -21.7053384 ], [ -46.9825521, -21.7023996 ], [ -46.9796336, -21.7000133 ], [ -46.9783886, -21.7009669 ], [ -46.973721, -21.7005287 ], [ -46.9657191, -21.6983618 ], [ -46.9522091, -21.7012602 ], [ -46.9486766, -21.6974357 ], [ -46.9455024, -21.6962363 ], [ -46.9341381, -21.6996613 ], [ -46.9244689, -21.696531 ], [ -46.9165788, -21.6990136 ], [ -46.9078392, -21.698309 ], [ -46.9024654, -21.6994078 ], [ -46.8886824, -21.6962012 ], [ -46.8846634, -21.6972503 ], [ -46.8795445, -21.7024642 ], [ -46.8762617, -21.7042908 ], [ -46.8724262, -21.7078996 ], [ -46.8716542, -21.7092855 ], [ -46.8718749, -21.7128593 ], [ -46.8694257, -21.7146279 ], [ -46.8674002, -21.7183265 ], [ -46.8673592, -21.7242896 ], [ -46.8598017, -21.7329391 ], [ -46.8543925, -21.7352585 ], [ -46.8536206, -21.7376285 ], [ -46.8545642, -21.7408577 ] ] ] ] } }
]
}
