{
"type": "FeatureCollection",
"name": "ER_REGIAO_São João das Duas Pontes",
"crs": { "type": "name", "properties": { "name": "urn:ogc:def:crs:EPSG::4674" } },
"xy_coordinate_resolution": 1e-15,
"features": [
{ "type": "Feature", "properties": { "fid": 815, "NM_REGIAO": "Sudeste", "NM_UF": "São Paulo", "NM_MUN": "São João das Duas Pontes", "NM_DIST": "São João das Duas Pontes", "CD_SUBDIST": "35492010500", "ER_REGIAO": "São João das Duas Pontes", "ER_REGIAO_CIDADE": "São João das Duas Pontes_Votuporanga" }, "geometry": { "type": "MultiPolygon", "coordinates": [ [ [ [ -50.3786709, -20.3419542 ], [ -50.3749765, -20.3410269 ], [ -50.3684018, -20.3437514 ], [ -50.3644185, -20.3428191 ], [ -50.3590836, -20.3389916 ], [ -50.3571838, -20.3350424 ], [ -50.3537417, -20.3333474 ], [ -50.3485022, -20.3360376 ], [ -50.3419355, -20.3367077 ], [ -50.3375921, -20.3395669 ], [ -50.3374324, -20.3415855 ], [ -50.3347168, -20.3450712 ], [ -50.3346274, -20.3496256 ], [ -50.326578, -20.3584321 ], [ -50.3255365, -20.3611067 ], [ -50.326301, -20.3617659 ], [ -50.3250081, -20.3631791 ], [ -50.3259641, -20.3660669 ], [ -50.3241258, -20.3671881 ], [ -50.322815, -20.3739388 ], [ -50.3239871, -20.3770776 ], [ -50.3260871, -20.3793096 ], [ -50.3286914, -20.3806414 ], [ -50.3289924, -20.3828953 ], [ -50.3265368, -20.3888715 ], [ -50.3269782, -20.3912265 ], [ -50.3258858, -20.392725 ], [ -50.3240229, -20.3934533 ], [ -50.324084, -20.3970548 ], [ -50.3232928, -20.3979291 ], [ -50.323796, -20.4008302 ], [ -50.3234142, -20.4023796 ], [ -50.3216042, -20.4035797 ], [ -50.3221023, -20.4062083 ], [ -50.3246807, -20.4098565 ], [ -50.3263419, -20.4099609 ], [ -50.3289898, -20.4126257 ], [ -50.3305541, -20.4156013 ], [ -50.3328177, -20.4149202 ], [ -50.3336362, -20.4153613 ], [ -50.3338335, -20.4187618 ], [ -50.3326848, -20.4214108 ], [ -50.3342481, -20.4226971 ], [ -50.3351793, -20.4266381 ], [ -50.338257, -20.4298249 ], [ -50.3425802, -20.4306931 ], [ -50.346147, -20.4290182 ], [ -50.3483874, -20.4260754 ], [ -50.3517854, -20.4253876 ], [ -50.3652931, -20.4363077 ], [ -50.3658391, -20.4396236 ], [ -50.3675866, -20.4412429 ], [ -50.3689207, -20.4446373 ], [ -50.3705616, -20.4456636 ], [ -50.3711485, -20.4475661 ], [ -50.3748986, -20.4505383 ], [ -50.3767694, -20.4546317 ], [ -50.3763973, -20.4586874 ], [ -50.3775075, -20.46117 ], [ -50.3769395, -20.4624614 ], [ -50.375486, -20.4632238 ], [ -50.3763476, -20.4652494 ], [ -50.3741829, -20.4670848 ], [ -50.3741348, -20.4694558 ], [ -50.3752013, -20.4707848 ], [ -50.3729712, -20.4726978 ], [ -50.373009, -20.4748544 ], [ -50.3762237, -20.4740399 ], [ -50.3797911, -20.4742647 ], [ -50.3822614, -20.4753407 ], [ -50.3832626, -20.4732682 ], [ -50.384248, -20.4731986 ], [ -50.3847896, -20.4735514 ], [ -50.3836482, -20.475755 ], [ -50.386128, -20.4768255 ], [ -50.3938634, -20.4720993 ], [ -50.3946978, -20.4729502 ], [ -50.3944995, -20.4780228 ], [ -50.396185, -20.4794614 ], [ -50.3977699, -20.479787 ], [ -50.3986816, -20.4777887 ], [ -50.3999287, -20.4782755 ], [ -50.4018113, -20.4768858 ], [ -50.4066723, -20.4776335 ], [ -50.4073189, -20.4789442 ], [ -50.4097974, -20.4804695 ], [ -50.4134473, -20.4794511 ], [ -50.4150768, -20.4772782 ], [ -50.4193464, -20.4764737 ], [ -50.4214284, -20.4777392 ], [ -50.4236048, -20.4765756 ], [ -50.4269713, -20.4766014 ], [ -50.4277389, -20.4746082 ], [ -50.4303475, -20.47613 ], [ -50.4315837, -20.4795991 ], [ -50.4328419, -20.4791865 ], [ -50.4334646, -20.4802406 ], [ -50.4344827, -20.4802226 ], [ -50.4392507, -20.4788784 ], [ -50.437342, -20.4801514 ], [ -50.4403594, -20.4833265 ], [ -50.4457599, -20.4830002 ], [ -50.4451847, -20.4826424 ], [ -50.4464086, -20.4785852 ], [ -50.4459128, -20.476608 ], [ -50.4481558, -20.4757842 ], [ -50.4481964, -20.4745611 ], [ -50.4475745, -20.4732154 ], [ -50.4443731, -20.4722572 ], [ -50.4436868, -20.4668052 ], [ -50.444143, -20.4661488 ], [ -50.4450618, -20.467336 ], [ -50.4455227, -20.466431 ], [ -50.4432248, -20.4615697 ], [ -50.4415719, -20.4606981 ], [ -50.4437357, -20.4590875 ], [ -50.440312, -20.4573423 ], [ -50.4400954, -20.4534924 ], [ -50.4410859, -20.4508627 ], [ -50.4397793, -20.4494922 ], [ -50.4395315, -20.4479358 ], [ -50.440707, -20.4424929 ], [ -50.4394045, -20.4408881 ], [ -50.4405578, -20.4386325 ], [ -50.4395513, -20.4360586 ], [ -50.4400787, -20.4320981 ], [ -50.4383934, -20.4314459 ], [ -50.4388129, -20.4280199 ], [ -50.4365833, -20.4254841 ], [ -50.4376095, -20.4229571 ], [ -50.4328034, -20.4198689 ], [ -50.4314163, -20.4139473 ], [ -50.4287284, -20.4114039 ], [ -50.4289271, -20.4090224 ], [ -50.4264051, -20.4049816 ], [ -50.423734, -20.4030905 ], [ -50.4260518, -20.3988313 ], [ -50.4247335, -20.3966595 ], [ -50.4243595, -20.3939361 ], [ -50.4234567, -20.3934847 ], [ -50.4233986, -20.3908958 ], [ -50.4212064, -20.3900203 ], [ -50.4192404, -20.3878109 ], [ -50.4182389, -20.3833863 ], [ -50.4204081, -20.3812345 ], [ -50.4095783, -20.3682403 ], [ -50.4050333, -20.3662132 ], [ -50.4018535, -20.3636219 ], [ -50.3986724, -20.3594235 ], [ -50.3923739, -20.3550367 ], [ -50.3915151, -20.3530781 ], [ -50.3912886, -20.3476637 ], [ -50.3899142, -20.3459994 ], [ -50.3899169, -20.3436603 ], [ -50.3880882, -20.3415704 ], [ -50.3786709, -20.3419542 ] ] ] ] } }
]
}
