{
"type": "FeatureCollection",
"name": "ER_REGIAO_Lucianópolis",
"crs": { "type": "name", "properties": { "name": "urn:ogc:def:crs:EPSG::4674" } },
"xy_coordinate_resolution": 1e-15,
"features": [
{ "type": "Feature", "properties": { "fid": 450, "NM_REGIAO": "Sudeste", "NM_UF": "São Paulo", "NM_MUN": "Lucianópolis", "NM_DIST": "Lucianópolis", "CD_SUBDIST": "35275040500", "ER_REGIAO": "Lucianópolis", "ER_REGIAO_CIDADE": "Lucianópolis_Bauru" }, "geometry": { "type": "MultiPolygon", "coordinates": [ [ [ [ -49.6084084, -22.4967027 ], [ -49.6087705, -22.4937922 ], [ -49.6110968, -22.4902922 ], [ -49.609629, -22.4883482 ], [ -49.6089665, -22.4856249 ], [ -49.6136255, -22.4841033 ], [ -49.6166695, -22.4791348 ], [ -49.6208067, -22.4761776 ], [ -49.6249451, -22.4751227 ], [ -49.6285118, -22.4691534 ], [ -49.624151, -22.4671729 ], [ -49.618956, -22.4682583 ], [ -49.6102206, -22.4662219 ], [ -49.601588, -22.4604174 ], [ -49.5961621, -22.4593829 ], [ -49.5956819, -22.4554534 ], [ -49.596792, -22.4538176 ], [ -49.5988856, -22.4545483 ], [ -49.6040995, -22.4535548 ], [ -49.6036403, -22.4504982 ], [ -49.605491, -22.4484002 ], [ -49.6038632, -22.4446729 ], [ -49.6039301, -22.443077 ], [ -49.6003382, -22.4399957 ], [ -49.6005855, -22.4385659 ], [ -49.5974276, -22.4351444 ], [ -49.5885836, -22.4276508 ], [ -49.58528, -22.4256475 ], [ -49.5822039, -22.4248823 ], [ -49.5761076, -22.4170817 ], [ -49.5751091, -22.4077574 ], [ -49.5722036, -22.4037581 ], [ -49.5712394, -22.4006472 ], [ -49.5714138, -22.3930104 ], [ -49.5701342, -22.3903487 ], [ -49.5699708, -22.3836182 ], [ -49.5609363, -22.3902467 ], [ -49.5563551, -22.3920324 ], [ -49.5537595, -22.3923271 ], [ -49.5525098, -22.3913629 ], [ -49.5456819, -22.3908315 ], [ -49.5388506, -22.3926584 ], [ -49.5335997, -22.3951603 ], [ -49.524534, -22.3935069 ], [ -49.5185318, -22.3937096 ], [ -49.5158526, -22.3952344 ], [ -49.5082149, -22.396588 ], [ -49.5029725, -22.395647 ], [ -49.501723, -22.3964945 ], [ -49.4994655, -22.4003974 ], [ -49.4979361, -22.399917 ], [ -49.4940165, -22.3953217 ], [ -49.4889275, -22.3961326 ], [ -49.48447, -22.3940568 ], [ -49.4828052, -22.3944051 ], [ -49.48093, -22.3960567 ], [ -49.480451, -22.3976175 ], [ -49.4818984, -22.4087263 ], [ -49.4802619, -22.4135896 ], [ -49.4772099, -22.4179304 ], [ -49.4771366, -22.4217145 ], [ -49.4806356, -22.4264598 ], [ -49.4849465, -22.4279262 ], [ -49.4898173, -22.432333 ], [ -49.4896609, -22.4397128 ], [ -49.4921918, -22.4413881 ], [ -49.4928076, -22.4445833 ], [ -49.4970823, -22.4498635 ], [ -49.4983993, -22.4566518 ], [ -49.5039464, -22.4682614 ], [ -49.5029414, -22.4698824 ], [ -49.5001983, -22.4707179 ], [ -49.4986063, -22.4731829 ], [ -49.5018852, -22.4770331 ], [ -49.5016931, -22.477718 ], [ -49.5028991, -22.4780898 ], [ -49.5029477, -22.4795838 ], [ -49.496325, -22.4817139 ], [ -49.4950601, -22.4856775 ], [ -49.4926097, -22.4852713 ], [ -49.4904224, -22.487034 ], [ -49.4900956, -22.4888657 ], [ -49.4913077, -22.4910314 ], [ -49.4893087, -22.4916604 ], [ -49.4890617, -22.4955263 ], [ -49.4870595, -22.4970895 ], [ -49.4845817, -22.4977024 ], [ -49.4848652, -22.4993583 ], [ -49.4858089, -22.5000587 ], [ -49.4846659, -22.5014801 ], [ -49.4846426, -22.5030924 ], [ -49.4856437, -22.5043007 ], [ -49.4842206, -22.50426 ], [ -49.4845183, -22.5064948 ], [ -49.4859591, -22.508476 ], [ -49.4898361, -22.5097539 ], [ -49.4926229, -22.5084972 ], [ -49.4989522, -22.5099377 ], [ -49.4991343, -22.5106132 ], [ -49.5016528, -22.5113791 ], [ -49.5013959, -22.5129261 ], [ -49.5020727, -22.5127049 ], [ -49.5030166, -22.5138467 ], [ -49.5048193, -22.5141639 ], [ -49.5050338, -22.5131187 ], [ -49.5071037, -22.5126486 ], [ -49.5092588, -22.5180119 ], [ -49.5107125, -22.5177164 ], [ -49.5108161, -22.5166701 ], [ -49.5121621, -22.5165152 ], [ -49.5125181, -22.5173468 ], [ -49.513656, -22.5160156 ], [ -49.5150098, -22.5164229 ], [ -49.5152175, -22.5177381 ], [ -49.5161022, -22.5174035 ], [ -49.5158307, -22.5181692 ], [ -49.5172871, -22.5178329 ], [ -49.5177131, -22.518605 ], [ -49.5199124, -22.5190029 ], [ -49.5187976, -22.5225007 ], [ -49.5200961, -22.5237659 ], [ -49.5242172, -22.5220012 ], [ -49.525642, -22.5226837 ], [ -49.5267247, -22.5242645 ], [ -49.527164, -22.5281441 ], [ -49.524073, -22.531223 ], [ -49.5247201, -22.534671 ], [ -49.5269805, -22.5372824 ], [ -49.5275435, -22.5367999 ], [ -49.5276134, -22.537726 ], [ -49.5277714, -22.5370938 ], [ -49.5301319, -22.5366948 ], [ -49.5314385, -22.5380887 ], [ -49.5337352, -22.5429708 ], [ -49.5331035, -22.5432783 ], [ -49.5337934, -22.5440185 ], [ -49.5328758, -22.5438385 ], [ -49.5344439, -22.5448715 ], [ -49.534055, -22.5466963 ], [ -49.5373614, -22.5459968 ], [ -49.5401179, -22.5466227 ], [ -49.540352, -22.5473228 ], [ -49.5419714, -22.5470001 ], [ -49.5441928, -22.5493035 ], [ -49.5445443, -22.5519118 ], [ -49.5426378, -22.5534997 ], [ -49.5408719, -22.5535695 ], [ -49.5413047, -22.5541614 ], [ -49.5395727, -22.5553989 ], [ -49.5387718, -22.5572972 ], [ -49.5414065, -22.5620551 ], [ -49.5429541, -22.5620949 ], [ -49.5429042, -22.5633262 ], [ -49.5453672, -22.5637691 ], [ -49.5464085, -22.5630645 ], [ -49.5450076, -22.5623624 ], [ -49.5466741, -22.5620899 ], [ -49.5474844, -22.56105 ], [ -49.5485514, -22.5619738 ], [ -49.5516991, -22.5592426 ], [ -49.5522343, -22.559771 ], [ -49.5528388, -22.5585232 ], [ -49.5542919, -22.5583174 ], [ -49.5567947, -22.5611425 ], [ -49.5571037, -22.5634199 ], [ -49.5582308, -22.5642482 ], [ -49.5575091, -22.5644279 ], [ -49.5588319, -22.5655454 ], [ -49.5576837, -22.5689703 ], [ -49.5579799, -22.5698141 ], [ -49.559015, -22.5698234 ], [ -49.5589, -22.5711057 ], [ -49.5598463, -22.5716506 ], [ -49.5600832, -22.5737601 ], [ -49.55928, -22.5745597 ], [ -49.5612769, -22.5758523 ], [ -49.5651398, -22.5754706 ], [ -49.5655115, -22.5761734 ], [ -49.5661933, -22.5750465 ], [ -49.5649274, -22.573224 ], [ -49.5649965, -22.5705679 ], [ -49.5667736, -22.5685323 ], [ -49.5705062, -22.5659818 ], [ -49.5713568, -22.564161 ], [ -49.5742803, -22.5615093 ], [ -49.576301, -22.5605997 ], [ -49.5795971, -22.561256 ], [ -49.5845698, -22.5581576 ], [ -49.5862351, -22.5539018 ], [ -49.5913567, -22.5500693 ], [ -49.5924359, -22.5466492 ], [ -49.5962849, -22.5416183 ], [ -49.6016653, -22.537032 ], [ -49.6070231, -22.5355978 ], [ -49.6075454, -22.5305077 ], [ -49.6099747, -22.5287433 ], [ -49.6108419, -22.5261069 ], [ -49.6162475, -22.5178824 ], [ -49.6150697, -22.5143215 ], [ -49.6159304, -22.5125011 ], [ -49.6158763, -22.5087039 ], [ -49.6122599, -22.5007151 ], [ -49.6121816, -22.4982087 ], [ -49.6084084, -22.4967027 ] ] ] ] } }
]
}
