{
"type": "FeatureCollection",
"name": "ER_REGIAO_Guará_Pioneiros",
"crs": { "type": "name", "properties": { "name": "urn:ogc:def:crs:EPSG::4674" } },
"xy_coordinate_resolution": 1e-15,
"features": [
{ "type": "Feature", "properties": { "fid": 292, "NM_REGIAO": "Sudeste", "NM_UF": "São Paulo", "NM_MUN": "Guará", "NM_DIST": "Pioneiros", "CD_SUBDIST": "35177031000", "ER_REGIAO": "Guará_Pioneiros", "ER_REGIAO_CIDADE": "Guará_Pioneiros_Franca" }, "geometry": { "type": "MultiPolygon", "coordinates": [ [ [ [ -47.819724, -20.546324 ], [ -47.826638599999967, -20.54197929999998 ], [ -47.834552799999983, -20.539299099999937 ], [ -47.836984299999983, -20.53717649999993 ], [ -47.83661079999996, -20.535297199999945 ], [ -47.831049399999984, -20.530978 ], [ -47.828225799999984, -20.524939099999926 ], [ -47.828832599999942, -20.523021699999958 ], [ -47.832744, -20.52202879999993 ], [ -47.838337299999978, -20.516213 ], [ -47.843714699999964, -20.517414699999961 ], [ -47.850735699999973, -20.513468 ], [ -47.854119199999957, -20.510027799999932 ], [ -47.858289, -20.511317799999972 ], [ -47.858358299999963, -20.509081799999933 ], [ -47.860572599999955, -20.503227699999968 ], [ -47.864420199999984, -20.497209899999973 ], [ -47.857737699999973, -20.491138099999944 ], [ -47.856911899999943, -20.48835159999993 ], [ -47.861196599999971, -20.480267199999957 ], [ -47.865812099999971, -20.476137799999947 ], [ -47.865993599999968, -20.474858099999949 ], [ -47.864920899999959, -20.473231299999952 ], [ -47.831107699999961, -20.469297899999958 ], [ -47.791824299999973, -20.505855699999927 ], [ -47.785146599999962, -20.506340399999942 ], [ -47.783855299999971, -20.507408699999928 ], [ -47.778437799999949, -20.50674 ], [ -47.777402799999948, -20.510204599999952 ], [ -47.77451149999996, -20.509346199999982 ], [ -47.772843699999953, -20.511841199999935 ], [ -47.769178699999941, -20.51269979999995 ], [ -47.766433799999959, -20.511325 ], [ -47.765244399999972, -20.509090499999957 ], [ -47.762274699999978, -20.508238099999971 ], [ -47.758254299999976, -20.507664399999953 ], [ -47.756072899999936, -20.508791099999939 ], [ -47.755528099999935, -20.507959399999947 ], [ -47.753207099999941, -20.508988599999952 ], [ -47.749295899999936, -20.508473299999935 ], [ -47.747176, -20.509697199999948 ], [ -47.746685899999932, -20.508541599999944 ], [ -47.743834, -20.510896799999955 ], [ -47.74239, -20.515054 ], [ -47.741183899999953, -20.515060799999958 ], [ -47.739672399999961, -20.517064399999981 ], [ -47.738010399999951, -20.51670809999996 ], [ -47.736046399999964, -20.517898699999932 ], [ -47.73053509999994, -20.515726399999949 ], [ -47.723136099999977, -20.514212499999928 ], [ -47.721336599999972, -20.514788799999963 ], [ -47.720681099999979, -20.51594769999997 ], [ -47.718203799999969, -20.516184 ], [ -47.711469299999976, -20.522217799999964 ], [ -47.696573899999976, -20.526268799999968 ], [ -47.68813119999993, -20.532886799999972 ], [ -47.679212899999982, -20.538004 ], [ -47.684308699999974, -20.541021899999976 ], [ -47.690683099999944, -20.542152 ], [ -47.692041099999983, -20.543174 ], [ -47.69257529999993, -20.544695799999943 ], [ -47.69134, -20.5536 ], [ -47.692834799999957, -20.556545699999958 ], [ -47.703179199999965, -20.559520499999962 ], [ -47.712543199999971, -20.559198099999946 ], [ -47.717909, -20.567522899999972 ], [ -47.723568099999966, -20.574300899999969 ], [ -47.72589389999996, -20.58159779999994 ], [ -47.729434599999934, -20.585488599999962 ], [ -47.734747399999947, -20.588888299999951 ], [ -47.739290299999936, -20.595013599999959 ], [ -47.74302739999996, -20.595483499999943 ], [ -47.748169599999983, -20.594388099999946 ], [ -47.75208779999997, -20.59702429999993 ], [ -47.757340399999975, -20.597738199999981 ], [ -47.764878899999985, -20.597976399999936 ], [ -47.76615709999993, -20.597211199999947 ], [ -47.767166699999962, -20.594960699999945 ], [ -47.766952799999956, -20.592344399999945 ], [ -47.763496299999986, -20.589752099999941 ], [ -47.76313609999994, -20.588652899999943 ], [ -47.76513, -20.585117699999955 ], [ -47.769014299999981, -20.58150089999998 ], [ -47.776578399999948, -20.579064199999948 ], [ -47.780404699999963, -20.582807 ], [ -47.783169899999962, -20.584134199999937 ], [ -47.78447929999993, -20.584342 ], [ -47.788023199999941, -20.582193599999982 ], [ -47.788042699999949, -20.580413799999974 ], [ -47.783848099999943, -20.573447699999974 ], [ -47.77899629999996, -20.571253599999977 ], [ -47.778980299999944, -20.568247799999938 ], [ -47.781440199999963, -20.564280199999928 ], [ -47.785453099999984, -20.563474 ], [ -47.78794709999994, -20.564097199999935 ], [ -47.795274199999938, -20.56870379999998 ], [ -47.796067099999959, -20.568464099999971 ], [ -47.796948, -20.564230299999963 ], [ -47.796089499999937, -20.561686299999963 ], [ -47.796094099999948, -20.557308899999953 ], [ -47.79259849999994, -20.549696199999971 ], [ -47.793838899999969, -20.547196499999927 ], [ -47.796924799999942, -20.545854099999929 ], [ -47.804193399999974, -20.546295499999928 ], [ -47.805561299999965, -20.544743399999959 ], [ -47.809947099999931, -20.542717799999934 ], [ -47.811345099999983, -20.543553399999951 ], [ -47.812186699999984, -20.547163299999966 ], [ -47.819224399999939, -20.553495099999964 ], [ -47.820451, -20.553041399999927 ], [ -47.821832399999948, -20.550913199999968 ], [ -47.819962099999941, -20.548079799999982 ], [ -47.819724, -20.546324 ] ] ] ] } }
]
}
