{
"type": "FeatureCollection",
"name": "ER_REGIAO_Itápolis_Nova América",
"crs": { "type": "name", "properties": { "name": "urn:ogc:def:crs:EPSG::4674" } },
"xy_coordinate_resolution": 1e-15,
"features": [
{ "type": "Feature", "properties": { "fid": 379, "NM_REGIAO": "Sudeste", "NM_UF": "São Paulo", "NM_MUN": "Itápolis", "NM_DIST": "Nova América", "CD_SUBDIST": "35227031000", "ER_REGIAO": "Itápolis_Nova América", "ER_REGIAO_CIDADE": "Itápolis_Nova América_Araraquara" }, "geometry": { "type": "MultiPolygon", "coordinates": [ [ [ [ -48.7186633, -21.4495676 ], [ -48.7149148, -21.459117 ], [ -48.7162048, -21.462076 ], [ -48.7163766, -21.4668226 ], [ -48.7152623, -21.468153 ], [ -48.7101139, -21.4704245 ], [ -48.7080356, -21.4725036 ], [ -48.7066054, -21.4755536 ], [ -48.7067679, -21.4769543 ], [ -48.7052917, -21.4790232 ], [ -48.708981, -21.4845208 ], [ -48.7090619, -21.4883833 ], [ -48.7071105, -21.4901288 ], [ -48.6932819, -21.4902067 ], [ -48.6854386, -21.4859663 ], [ -48.6802272, -21.4855814 ], [ -48.6779548, -21.486072 ], [ -48.6752849, -21.4889636 ], [ -48.6709768, -21.4893003 ], [ -48.6678177, -21.4916477 ], [ -48.6665513, -21.4916111 ], [ -48.6646343, -21.4890311 ], [ -48.6626845, -21.4901484 ], [ -48.6629999, -21.497873 ], [ -48.6644846, -21.5009891 ], [ -48.6627439, -21.5080937 ], [ -48.6635916, -21.5108046 ], [ -48.6623486, -21.5134094 ], [ -48.6630911, -21.5152024 ], [ -48.6624592, -21.5196853 ], [ -48.6628883, -21.5221779 ], [ -48.6613317, -21.5287162 ], [ -48.6643491, -21.5331536 ], [ -48.6652406, -21.5360413 ], [ -48.6640938, -21.5378766 ], [ -48.6660713, -21.5403875 ], [ -48.6656675, -21.5408901 ], [ -48.6665621, -21.5422095 ], [ -48.6659223, -21.5429121 ], [ -48.6667883, -21.5440786 ], [ -48.6663693, -21.5450457 ], [ -48.6636893, -21.5452042 ], [ -48.6553977, -21.5439478 ], [ -48.6517685, -21.5457046 ], [ -48.6486038, -21.5503589 ], [ -48.6416879, -21.5575459 ], [ -48.6408417, -21.5603267 ], [ -48.638164, -21.5640165 ], [ -48.637781, -21.566468 ], [ -48.6407515, -21.5699547 ], [ -48.6414754, -21.5696052 ], [ -48.6426839, -21.5709187 ], [ -48.6452213, -21.5714843 ], [ -48.6437721, -21.5728747 ], [ -48.6449233, -21.5760832 ], [ -48.6475094, -21.5765099 ], [ -48.6458542, -21.5779846 ], [ -48.6459103, -21.5793449 ], [ -48.6498048, -21.5781417 ], [ -48.6560822, -21.579341 ], [ -48.6580054, -21.5772499 ], [ -48.6609915, -21.5771239 ], [ -48.6635009, -21.5779314 ], [ -48.6637524, -21.5798183 ], [ -48.6659269, -21.5815884 ], [ -48.6645526, -21.5846 ], [ -48.6653128, -21.5860251 ], [ -48.666987, -21.586662 ], [ -48.6713685, -21.5855108 ], [ -48.6723453, -21.5859326 ], [ -48.6757417, -21.5842394 ], [ -48.6778144, -21.5855244 ], [ -48.6806783, -21.5836215 ], [ -48.6816796, -21.581977 ], [ -48.6846067, -21.5804968 ], [ -48.6871166, -21.5774738 ], [ -48.6899565, -21.5668847 ], [ -48.700881, -21.5666929 ], [ -48.7047622, -21.565433 ], [ -48.7104336, -21.5607669 ], [ -48.7125938, -21.5573348 ], [ -48.7179861, -21.5606023 ], [ -48.7216671, -21.5617089 ], [ -48.7354904, -21.5620673 ], [ -48.7417559, -21.5598001 ], [ -48.7433058, -21.5599218 ], [ -48.7466452, -21.5563406 ], [ -48.750543, -21.546487 ], [ -48.7559932, -21.5415645 ], [ -48.7604679, -21.5324199 ], [ -48.7604366, -21.5306308 ], [ -48.7543117, -21.5224149 ], [ -48.7475794, -21.5074595 ], [ -48.7471403, -21.5009631 ], [ -48.7456665, -21.495205 ], [ -48.7458217, -21.4912951 ], [ -48.7494355, -21.4859602 ], [ -48.7494686, -21.4779254 ], [ -48.7517718, -21.4701418 ], [ -48.7508753, -21.467364 ], [ -48.7461772, -21.4616311 ], [ -48.747639, -21.4552023 ], [ -48.7478265, -21.4501688 ], [ -48.7508279, -21.444187 ], [ -48.750992, -21.4409585 ], [ -48.7524456, -21.4378899 ], [ -48.7510431, -21.4317812 ], [ -48.751698, -21.4267848 ], [ -48.7500239, -21.4241088 ], [ -48.7509053, -21.4216835 ], [ -48.7493712, -21.4215768 ], [ -48.7473567, -21.4238789 ], [ -48.7453041, -21.4216132 ], [ -48.741615, -21.421685 ], [ -48.7398885, -21.4228045 ], [ -48.7379998, -21.4211704 ], [ -48.7377937, -21.4198106 ], [ -48.7343667, -21.4190238 ], [ -48.7329608, -21.4176186 ], [ -48.7265868, -21.4203221 ], [ -48.7257865, -21.419972 ], [ -48.7234929, -21.4236923 ], [ -48.7194744, -21.4257796 ], [ -48.7185306, -21.429629 ], [ -48.7168217, -21.4308552 ], [ -48.7157563, -21.4301135 ], [ -48.714716, -21.4311267 ], [ -48.7164621, -21.4339247 ], [ -48.7166132, -21.438027 ], [ -48.7194477, -21.4425798 ], [ -48.7186633, -21.4495676 ] ] ] ] } }
]
}
