{
"type": "FeatureCollection",
"name": "ER_REGIAO_São José do Rio Preto_São José do Rio Preto",
"crs": { "type": "name", "properties": { "name": "urn:ogc:def:crs:EPSG::4674" } },
"xy_coordinate_resolution": 1e-15,
"features": [
{ "type": "Feature", "properties": { "fid": 822, "NM_REGIAO": "Sudeste", "NM_UF": "São Paulo", "NM_MUN": "São José do Rio Preto", "NM_DIST": "São José do Rio Preto", "CD_SUBDIST": "35498050500", "ER_REGIAO": "São José do Rio Preto_São José do Rio Preto", "ER_REGIAO_CIDADE": "São José do Rio Preto_São José do Rio Preto_São José do Rio Preto" }, "geometry": { "type": "MultiPolygon", "coordinates": [ [ [ [ -49.3721529, -20.8647132 ], [ -49.3771896, -20.87351 ], [ -49.3768649, -20.8808845 ], [ -49.381226, -20.8870376 ], [ -49.3943661, -20.8932735 ], [ -49.3980791, -20.8945621 ], [ -49.4029344, -20.8939249 ], [ -49.4067605, -20.8960615 ], [ -49.415769, -20.918282 ], [ -49.416957, -20.917655 ], [ -49.420991, -20.910614 ], [ -49.419657, -20.905355 ], [ -49.417057, -20.902583 ], [ -49.417019, -20.900583 ], [ -49.420984, -20.897233 ], [ -49.429617, -20.893648 ], [ -49.437791, -20.88534 ], [ -49.4366693, -20.8792508 ], [ -49.434105, -20.879736 ], [ -49.432239, -20.878027 ], [ -49.434306, -20.865121 ], [ -49.432469, -20.859344 ], [ -49.43326, -20.852638 ], [ -49.437745, -20.84585 ], [ -49.45366, -20.804552 ], [ -49.455762, -20.801172 ], [ -49.457996, -20.791533 ], [ -49.459602, -20.788787 ], [ -49.458436, -20.785199 ], [ -49.454667, -20.779174 ], [ -49.45057, -20.77443 ], [ -49.447724, -20.766943 ], [ -49.445634, -20.763699 ], [ -49.4452336, -20.7572734 ], [ -49.442495, -20.750352 ], [ -49.442303, -20.747471 ], [ -49.443385, -20.744913 ], [ -49.455611, -20.736153 ], [ -49.459055, -20.73131 ], [ -49.46012, -20.723449 ], [ -49.462369, -20.71785 ], [ -49.462023, -20.711779 ], [ -49.463267, -20.707904 ], [ -49.462373, -20.699935 ], [ -49.460757, -20.694242 ], [ -49.461184, -20.684896 ], [ -49.453957, -20.687297 ], [ -49.452016, -20.690191 ], [ -49.446691, -20.695255 ], [ -49.43575, -20.697513 ], [ -49.4301463, -20.7003775 ], [ -49.4279658, -20.7026708 ], [ -49.4259281, -20.7057551 ], [ -49.424405, -20.711826 ], [ -49.425565, -20.717441 ], [ -49.428708, -20.726026 ], [ -49.427957, -20.727985 ], [ -49.424835, -20.730634 ], [ -49.419276, -20.73163 ], [ -49.417304, -20.730893 ], [ -49.412505, -20.722645 ], [ -49.411661, -20.715989 ], [ -49.407389, -20.713146 ], [ -49.4009, -20.706279 ], [ -49.394969, -20.703578 ], [ -49.392688, -20.708034 ], [ -49.387801, -20.708893 ], [ -49.384769, -20.7116 ], [ -49.380422, -20.713146 ], [ -49.375561, -20.719508 ], [ -49.371695, -20.722001 ], [ -49.367764, -20.722839 ], [ -49.3654, -20.727974 ], [ -49.36472, -20.733547 ], [ -49.363392, -20.736298 ], [ -49.3558962, -20.738822 ], [ -49.3553053, -20.7362607 ], [ -49.3508649, -20.7358963 ], [ -49.3505952, -20.7388439 ], [ -49.3485912, -20.7386601 ], [ -49.3487727, -20.7400884 ], [ -49.346119, -20.743157 ], [ -49.339489, -20.741278 ], [ -49.336079, -20.742488 ], [ -49.331976, -20.739948 ], [ -49.329699, -20.741355 ], [ -49.327039, -20.741066 ], [ -49.3247044, -20.7477709 ], [ -49.318479, -20.759649 ], [ -49.317342, -20.764905 ], [ -49.311828, -20.767709 ], [ -49.305255, -20.7643065 ], [ -49.301313, -20.767363 ], [ -49.298851, -20.768095 ], [ -49.2883763, -20.7701657 ], [ -49.2821165, -20.7701165 ], [ -49.280042, -20.774482 ], [ -49.277327, -20.782708 ], [ -49.278563, -20.787314 ], [ -49.278351, -20.789302 ], [ -49.271403, -20.794005 ], [ -49.271193, -20.797602 ], [ -49.272512, -20.802488 ], [ -49.271858, -20.806041 ], [ -49.269503, -20.812182 ], [ -49.266223, -20.816124 ], [ -49.264749, -20.819193 ], [ -49.269003, -20.822656 ], [ -49.270364, -20.827482 ], [ -49.273043, -20.830272 ], [ -49.2714632, -20.8360059 ], [ -49.277303, -20.843587 ], [ -49.2812785, -20.8433272 ], [ -49.2884733, -20.8449409 ], [ -49.2925531, -20.8424111 ], [ -49.2953552, -20.8420712 ], [ -49.2987078, -20.8402352 ], [ -49.3023992, -20.8398941 ], [ -49.3091587, -20.837187 ], [ -49.3179143, -20.8377321 ], [ -49.3232518, -20.8357023 ], [ -49.3282456, -20.8318559 ], [ -49.3309312, -20.8309394 ], [ -49.335718, -20.8276325 ], [ -49.3390847, -20.8330562 ], [ -49.3425493, -20.8350169 ], [ -49.3448393, -20.8379812 ], [ -49.3583051, -20.8443573 ], [ -49.3632643, -20.8516647 ], [ -49.3672426, -20.8544427 ], [ -49.3716838, -20.8593244 ], [ -49.3721529, -20.8647132 ] ] ] ] } }
]
}
