{
"type": "FeatureCollection",
"name": "ER_REGIAO_Ubarana",
"crs": { "type": "name", "properties": { "name": "urn:ogc:def:crs:EPSG::4674" } },
"xy_coordinate_resolution": 1e-15,
"features": [
{ "type": "Feature", "properties": { "fid": 1013, "NM_REGIAO": "Sudeste", "NM_UF": "São Paulo", "NM_MUN": "Ubarana", "NM_DIST": "Ubarana", "CD_SUBDIST": "35553560500", "ER_REGIAO": "Ubarana", "ER_REGIAO_CIDADE": "Ubarana_Araçatuba" }, "geometry": { "type": "MultiPolygon", "coordinates": [ [ [ [ -49.844111299999952, -21.256771599999979 ], [ -49.840961, -21.250374 ], [ -49.835198, -21.24563 ], [ -49.82832609999997, -21.241746 ], [ -49.824508, -21.237428 ], [ -49.822843, -21.231162 ], [ -49.820205, -21.227753 ], [ -49.819881, -21.220831 ], [ -49.817255, -21.213732 ], [ -49.815181, -21.211096 ], [ -49.815192699999955, -21.208371299999953 ], [ -49.815843799999982, -21.208296799999971 ], [ -49.816299699999945, -21.20667439999994 ], [ -49.816062399999964, -21.204354299999977 ], [ -49.815057199999956, -21.203315599999939 ], [ -49.811328, -21.202583 ], [ -49.802819, -21.203357 ], [ -49.789298, -21.208932 ], [ -49.783782, -21.208333 ], [ -49.785613, -21.200191 ], [ -49.783884, -21.192615 ], [ -49.773307, -21.177797 ], [ -49.771526, -21.170295 ], [ -49.766211, -21.161747 ], [ -49.764582, -21.155073 ], [ -49.762855, -21.152549 ], [ -49.759666, -21.151625 ], [ -49.752683, -21.152517 ], [ -49.749628, -21.150969 ], [ -49.74729, -21.145169 ], [ -49.743609799999945, -21.142536399999983 ], [ -49.737430599999982, -21.135671899999977 ], [ -49.733327, -21.133445 ], [ -49.726984, -21.133202 ], [ -49.721316, -21.136957 ], [ -49.719644, -21.137181 ], [ -49.718134, -21.136511 ], [ -49.712715699999933, -21.136777099999961 ], [ -49.706829299999981, -21.135818899999947 ], [ -49.689337, -21.130893 ], [ -49.681343, -21.133936 ], [ -49.675722, -21.13498 ], [ -49.673778, -21.133551 ], [ -49.671263, -21.129972 ], [ -49.666238399999941, -21.128361599999948 ], [ -49.663247, -21.125949699999978 ], [ -49.661591499999986, -21.126699799999983 ], [ -49.66309949999993, -21.131316499999969 ], [ -49.662469699999974, -21.133010499999955 ], [ -49.65998529999996, -21.134846899999957 ], [ -49.661119, -21.137508 ], [ -49.659908, -21.13906 ], [ -49.661278, -21.141525 ], [ -49.66086, -21.14314 ], [ -49.661555, -21.145526 ], [ -49.659923, -21.147493 ], [ -49.66254, -21.149705 ], [ -49.662809599999946, -21.151523699999927 ], [ -49.661805, -21.155751 ], [ -49.659624, -21.158604 ], [ -49.660071, -21.1606 ], [ -49.662333, -21.161484399999949 ], [ -49.662635, -21.162885499999959 ], [ -49.664181399999961, -21.164292199999977 ], [ -49.663524, -21.16608789999998 ], [ -49.664082, -21.167103499999939 ], [ -49.667948699999954, -21.169043599999952 ], [ -49.669240299999956, -21.168914399999949 ], [ -49.670784399999945, -21.170534599999939 ], [ -49.670034099999953, -21.171821399999942 ], [ -49.671855699999981, -21.172978299999954 ], [ -49.673894799999971, -21.172915899999964 ], [ -49.674658299999976, -21.174188099999981 ], [ -49.677004899999986, -21.174252499999966 ], [ -49.677820099999963, -21.172655499999962 ], [ -49.679288799999938, -21.172367599999973 ], [ -49.679816099999982, -21.171327399999939 ], [ -49.680076299999939, -21.172514699999965 ], [ -49.68181, -21.172788699999955 ], [ -49.680983899999944, -21.174959599999966 ], [ -49.681704099999934, -21.17616309999994 ], [ -49.680866099999946, -21.177387299999964 ], [ -49.683767099999955, -21.181511599999965 ], [ -49.687567299999955, -21.183905799999934 ], [ -49.687956, -21.18488629999996 ], [ -49.685968, -21.186661699999945 ], [ -49.685982199999955, -21.187929299999951 ], [ -49.687681, -21.189143299999955 ], [ -49.68538529999995, -21.192620599999941 ], [ -49.687223899999935, -21.193566899999951 ], [ -49.686252899999943, -21.19502209999996 ], [ -49.686489799999947, -21.19654769999994 ], [ -49.685353799999973, -21.196651199999963 ], [ -49.68396359999997, -21.198272399999951 ], [ -49.68526879999996, -21.199672899999939 ], [ -49.684926, -21.200923199999977 ], [ -49.683928499999979, -21.201099699999929 ], [ -49.684690499999931, -21.201866299999949 ], [ -49.683872099999974, -21.203932799999961 ], [ -49.68834419999996, -21.206760499999973 ], [ -49.688066, -21.208211699999936 ], [ -49.685380899999984, -21.210223399999961 ], [ -49.685390899999959, -21.211302499999931 ], [ -49.683722799999941, -21.211410499999943 ], [ -49.683597799999973, -21.212690699999939 ], [ -49.680985499999963, -21.213686699999982 ], [ -49.680559499999958, -21.215014199999928 ], [ -49.682502899999974, -21.217069199999969 ], [ -49.682208099999968, -21.218189199999927 ], [ -49.684140599999978, -21.218601699999965 ], [ -49.683103499999959, -21.219736099999977 ], [ -49.685025799999949, -21.219704 ], [ -49.682230799999957, -21.22151 ], [ -49.680805599999985, -21.223691699999961 ], [ -49.683366899999953, -21.225510099999951 ], [ -49.688892299999964, -21.225777199999982 ], [ -49.690074899999956, -21.227625199999977 ], [ -49.690383499999939, -21.229669 ], [ -49.688631799999939, -21.230620299999941 ], [ -49.688856099999953, -21.232747699999948 ], [ -49.69107269999995, -21.23492669999996 ], [ -49.694615699999986, -21.23600289999996 ], [ -49.694203699999946, -21.23747869999994 ], [ -49.691300899999931, -21.238410599999952 ], [ -49.690606199999934, -21.239960199999928 ], [ -49.690519, -21.241597399999932 ], [ -49.69202729999995, -21.243451 ], [ -49.696281299999953, -21.243682 ], [ -49.696960699999977, -21.245338699999934 ], [ -49.697766599999966, -21.244435399999929 ], [ -49.699741099999983, -21.244610899999941 ], [ -49.700571599999932, -21.245414399999959 ], [ -49.700302499999964, -21.247145199999977 ], [ -49.701744099999985, -21.24877719999995 ], [ -49.702657299999942, -21.248099199999956 ], [ -49.705558599999961, -21.248218 ], [ -49.707832499999938, -21.249469099999942 ], [ -49.708352299999945, -21.251348899999982 ], [ -49.710920499999986, -21.252225299999964 ], [ -49.712557199999935, -21.254381199999955 ], [ -49.71403289999995, -21.254907199999934 ], [ -49.715810599999941, -21.258684599999981 ], [ -49.718428299999971, -21.257888399999956 ], [ -49.719447299999956, -21.25458569999995 ], [ -49.720927, -21.25457629999994 ], [ -49.721781399999941, -21.253729 ], [ -49.724393599999985, -21.254016899999954 ], [ -49.725940199999968, -21.255563 ], [ -49.72595629999995, -21.256540399999949 ], [ -49.724856699999975, -21.257367099999954 ], [ -49.725093899999933, -21.258431199999961 ], [ -49.72369939999993, -21.26006069999994 ], [ -49.722935799999959, -21.264432499999941 ], [ -49.72038589999994, -21.264513 ], [ -49.718892799999935, -21.267111499999942 ], [ -49.719311499999947, -21.269693599999982 ], [ -49.718182299999967, -21.27127379999996 ], [ -49.720771699999943, -21.271196099999941 ], [ -49.720844799999952, -21.272764499999937 ], [ -49.71895, -21.27538519999996 ], [ -49.71593809999996, -21.276034399999958 ], [ -49.714997, -21.277838299999928 ], [ -49.711767399999985, -21.279941099999974 ], [ -49.710091099999943, -21.282064299999945 ], [ -49.711254499999939, -21.282632 ], [ -49.709978099999944, -21.285190799999953 ], [ -49.710996099999932, -21.28611879999994 ], [ -49.710853499999985, -21.288073699999927 ], [ -49.713931699999932, -21.288635899999974 ], [ -49.714161499999932, -21.290848199999971 ], [ -49.715171799999951, -21.290485399999966 ], [ -49.71564079999996, -21.29129759999995 ], [ -49.720131499999979, -21.291759499999955 ], [ -49.723941399999944, -21.294453699999963 ], [ -49.724511099999972, -21.295721799999967 ], [ -49.723165, -21.296064499999943 ], [ -49.721562099999971, -21.299076599999978 ], [ -49.721572, -21.300628899999936 ], [ -49.724477299999933, -21.301578599999971 ], [ -49.727474199999961, -21.300534199999959 ], [ -49.730545399999983, -21.300282099999947 ], [ -49.731482299999982, -21.301190899999938 ], [ -49.73555239999996, -21.300103199999967 ], [ -49.735862499999939, -21.301614499999971 ], [ -49.736926599999947, -21.300423699999953 ], [ -49.738563799999952, -21.301485299999968 ], [ -49.739165499999956, -21.300882199999933 ], [ -49.738788099999965, -21.298493199999939 ], [ -49.740237599999944, -21.297508599999958 ], [ -49.740343099999961, -21.296459399999947 ], [ -49.741725599999938, -21.29619329999997 ], [ -49.741912599999978, -21.295223699999951 ], [ -49.743918299999962, -21.295176899999944 ], [ -49.746094899999946, -21.296790199999975 ], [ -49.751176099999952, -21.296306299999969 ], [ -49.753804, -21.297016 ], [ -49.767712, -21.305914799999982 ], [ -49.771821099999954, -21.306184599999938 ], [ -49.778124799999944, -21.300790199999938 ], [ -49.783408899999984, -21.297731399999975 ], [ -49.802979599999958, -21.292319199999952 ], [ -49.809567, -21.284294199999977 ], [ -49.816748099999984, -21.279372499999965 ], [ -49.825144299999977, -21.276411 ], [ -49.84561089999994, -21.272786 ], [ -49.848528699999974, -21.271241499999974 ], [ -49.854228299999932, -21.262027499999931 ], [ -49.856483599999933, -21.260312399999975 ], [ -49.852804, -21.259021 ], [ -49.848634, -21.258983 ], [ -49.844111299999952, -21.256771599999979 ] ] ] ] } }
]
}
