{
"type": "FeatureCollection",
"name": "ER_REGIAO_Capital Oeste_Lapa",
"crs": { "type": "name", "properties": { "name": "urn:ogc:def:crs:EPSG::4674" } },
"xy_coordinate_resolution": 1e-15,
"features": [
{ "type": "Feature", "properties": { "fid": 882, "NM_REGIAO": "Sudeste", "NM_UF": "São Paulo", "NM_MUN": "São Paulo", "NM_DIST": "Lapa", "CD_SUBDIST": "35503084800", "ER_REGIAO": "Capital Oeste_Lapa", "ER_REGIAO_CIDADE": "Capital Oeste_Lapa" }, "geometry": { "type": "MultiPolygon", "coordinates": [ [ [ [ -46.704144, -23.540179 ], [ -46.707995, -23.538561 ], [ -46.710447, -23.535731 ], [ -46.714221, -23.535285 ], [ -46.719294, -23.536479 ], [ -46.719159, -23.531986 ], [ -46.720087, -23.52756 ], [ -46.722131, -23.521474 ], [ -46.725365, -23.517899 ], [ -46.726409, -23.514688 ], [ -46.723044, -23.512654 ], [ -46.719466, -23.508659 ], [ -46.717088, -23.508067 ], [ -46.706801, -23.508802 ], [ -46.693467, -23.508283 ], [ -46.693687, -23.510299 ], [ -46.692403, -23.513281 ], [ -46.687775, -23.521555 ], [ -46.685283, -23.523649 ], [ -46.685365, -23.526108 ], [ -46.687482, -23.526061 ], [ -46.6922159, -23.5327059 ], [ -46.6935825, -23.5320911 ], [ -46.694006, -23.533442 ], [ -46.695995, -23.534935 ], [ -46.697925, -23.534002 ], [ -46.6972025, -23.540646 ], [ -46.699029, -23.541028 ], [ -46.704144, -23.540179 ] ] ] ] } }
]
}
