{
"type": "FeatureCollection",
"name": "ER_REGIAO_Barretos_Alberto Moreira",
"crs": { "type": "name", "properties": { "name": "urn:ogc:def:crs:EPSG::4674" } },
"xy_coordinate_resolution": 1e-15,
"features": [
{ "type": "Feature", "properties": { "fid": 82, "NM_REGIAO": "Sudeste", "NM_UF": "São Paulo", "NM_MUN": "Barretos", "NM_DIST": "Alberto Moreira", "CD_SUBDIST": "35055001000", "ER_REGIAO": "Barretos_Alberto Moreira", "ER_REGIAO_CIDADE": "Barretos_Alberto Moreira_Barretos" }, "geometry": { "type": "MultiPolygon", "coordinates": [ [ [ [ -48.5843156, -20.3269058 ], [ -48.5686156, -20.3132625 ], [ -48.5609027, -20.313067 ], [ -48.5601354, -20.2978312 ], [ -48.5578237, -20.2939545 ], [ -48.5530322, -20.295132 ], [ -48.5500003, -20.2987665 ], [ -48.5461492, -20.3006544 ], [ -48.5403236, -20.2986461 ], [ -48.5372141, -20.2985936 ], [ -48.5294888, -20.3004046 ], [ -48.5271782, -20.3023625 ], [ -48.5199561, -20.3018196 ], [ -48.5181865, -20.3027482 ], [ -48.514758, -20.3027744 ], [ -48.5100563, -20.2987094 ], [ -48.5081855, -20.3155812 ], [ -48.5055357, -20.3236686 ], [ -48.50061, -20.3309916 ], [ -48.4919687, -20.3365703 ], [ -48.4837447, -20.3444586 ], [ -48.4821857, -20.3473907 ], [ -48.4819063, -20.3513882 ], [ -48.4851108, -20.374038 ], [ -48.4861443, -20.3892434 ], [ -48.4838088, -20.4060141 ], [ -48.4808122, -20.4155892 ], [ -48.4788267, -20.4260962 ], [ -48.4745422, -20.4327564 ], [ -48.468115, -20.4398517 ], [ -48.4638109, -20.4433202 ], [ -48.4599014, -20.4451953 ], [ -48.4551514, -20.4513244 ], [ -48.4549031, -20.4535005 ], [ -48.456299, -20.4556241 ], [ -48.4650322, -20.4619592 ], [ -48.4662849, -20.4666479 ], [ -48.4660404, -20.4700877 ], [ -48.4769145, -20.4692909 ], [ -48.4822805, -20.4674895 ], [ -48.4862861, -20.4680823 ], [ -48.4916759, -20.46132 ], [ -48.4957095, -20.4590641 ], [ -48.4978332, -20.4632279 ], [ -48.5014362, -20.4676183 ], [ -48.5125793, -20.4694795 ], [ -48.515557, -20.47149 ], [ -48.5333861, -20.4782126 ], [ -48.5412762, -20.4840387 ], [ -48.5497469, -20.4859237 ], [ -48.5854158, -20.4863854 ], [ -48.5866717, -20.4824098 ], [ -48.5904772, -20.4793375 ], [ -48.5963841, -20.4698744 ], [ -48.6008777, -20.4664583 ], [ -48.6023884, -20.4643742 ], [ -48.6022201, -20.4631993 ], [ -48.6000417, -20.4579265 ], [ -48.5979133, -20.4558801 ], [ -48.5978822, -20.4542943 ], [ -48.6282377, -20.4265031 ], [ -48.6234285, -20.4182153 ], [ -48.6231158, -20.4138297 ], [ -48.6215599, -20.4096212 ], [ -48.6217492, -20.4036561 ], [ -48.6200614, -20.4000977 ], [ -48.6208237, -20.3933376 ], [ -48.6189089, -20.3913793 ], [ -48.617927, -20.383149 ], [ -48.6169605, -20.3822736 ], [ -48.6177465, -20.3814338 ], [ -48.6166049, -20.3784414 ], [ -48.6170088, -20.3768347 ], [ -48.6162286, -20.3763212 ], [ -48.6167577, -20.3729408 ], [ -48.6146563, -20.3700838 ], [ -48.6144788, -20.3674637 ], [ -48.613589, -20.3670317 ], [ -48.6127493, -20.3647078 ], [ -48.6127226, -20.362145 ], [ -48.6111535, -20.3600432 ], [ -48.6111462, -20.352788 ], [ -48.6132354, -20.3484374 ], [ -48.6163147, -20.3456511 ], [ -48.6168744, -20.3423958 ], [ -48.6162129, -20.3397663 ], [ -48.6183938, -20.3353684 ], [ -48.6183259, -20.3329377 ], [ -48.6203533, -20.3296221 ], [ -48.6202923, -20.3271815 ], [ -48.615879, -20.3261367 ], [ -48.6066579, -20.3278143 ], [ -48.5873974, -20.3278682 ], [ -48.5843156, -20.3269058 ] ] ] ] } }
]
}
