{
"type": "FeatureCollection",
"name": "Marília_Lácio_Marília",
"crs": { "type": "name", "properties": { "name": "urn:ogc:def:crs:EPSG::4674" } },
"xy_coordinate_resolution": 1e-15,
"features": [
{ "type": "Feature", "properties": { "fid": 475, "NM_REGIAO": "Sudeste", "NM_UF": "São Paulo", "NM_MUN": "Marília", "NM_DIST": "Lácio", "CD_SUBDIST": "35290052500", "ER_REGIAO": "Marília_Lácio", "ER_REGIAO_CIDADE": "Marília_Lácio_Marília", "CARTEIRA": 35.0, "FINALIZADO": 36.0, "T2": 5.0, "T3": 0.0 }, "geometry": { "type": "MultiPolygon", "coordinates": [ [ [ [ -49.909493599999962, -22.247136699999942 ], [ -49.91298, -22.243995899999959 ], [ -49.915076099999965, -22.240729199999976 ], [ -49.91556, -22.22671749999995 ], [ -49.91694549999994, -22.224410099999943 ], [ -49.921750399999951, -22.220800199999928 ], [ -49.923225399999978, -22.212335699999983 ], [ -49.918685399999958, -22.20789259999998 ], [ -49.91229809999993, -22.206407899999931 ], [ -49.911188299999935, -22.202259 ], [ -49.910576699999979, -22.202369699999963 ], [ -49.910604299999932, -22.199568099999965 ], [ -49.90943539999995, -22.197445399999935 ], [ -49.910476099999983, -22.195859399999961 ], [ -49.907645099999968, -22.191989699999965 ], [ -49.907555099999968, -22.189027299999964 ], [ -49.905335199999968, -22.185402599999975 ], [ -49.906116299999951, -22.185351199999957 ], [ -49.905695699999967, -22.184210099999973 ], [ -49.904709799999978, -22.183969199999979 ], [ -49.905473699999959, -22.182749499999943 ], [ -49.904018099999973, -22.180531799999983 ], [ -49.90452659999994, -22.178768799999943 ], [ -49.903745199999946, -22.178377299999966 ], [ -49.903683899999976, -22.177131299999928 ], [ -49.90102109999998, -22.175159899999983 ], [ -49.901845499999979, -22.170687 ], [ -49.901181599999973, -22.169945599999949 ], [ -49.901304299999936, -22.166758299999969 ], [ -49.9004, -22.166343799999936 ], [ -49.901414699999975, -22.163624599999935 ], [ -49.899298199999976, -22.161190799999929 ], [ -49.900414699999942, -22.160781099999951 ], [ -49.899581799999964, -22.159948199999974 ], [ -49.900075299999969, -22.159192799999971 ], [ -49.899066399999981, -22.15871379999993 ], [ -49.899048799999946, -22.15753239999998 ], [ -49.898078099999964, -22.158154199999956 ], [ -49.896250499999951, -22.156018499999959 ], [ -49.897398299999963, -22.153568699999937 ], [ -49.896578899999952, -22.150354199999981 ], [ -49.898219399999959, -22.147915699999942 ], [ -49.897599799999966, -22.146146299999941 ], [ -49.898077399999977, -22.145212499999957 ], [ -49.896752, -22.143250199999954 ], [ -49.893438499999945, -22.141477299999963 ], [ -49.893037099999958, -22.144209799999942 ], [ -49.890444799999955, -22.146516299999973 ], [ -49.889714799999979, -22.149575299999981 ], [ -49.886930899999982, -22.150429299999928 ], [ -49.885226499999931, -22.15421189999995 ], [ -49.881046399999946, -22.156945099999973 ], [ -49.880538399999978, -22.160262099999954 ], [ -49.877295499999946, -22.164393799999971 ], [ -49.877599299999986, -22.165808599999934 ], [ -49.876416699999936, -22.165630699999952 ], [ -49.876629599999944, -22.167132299999935 ], [ -49.875468099999978, -22.168077099999948 ], [ -49.875999599999943, -22.169798499999956 ], [ -49.875020099999972, -22.175671899999941 ], [ -49.876126299999953, -22.178345199999967 ], [ -49.877444299999979, -22.179101 ], [ -49.877482099999952, -22.182793 ], [ -49.877104, -22.184049099999982 ], [ -49.875804499999958, -22.184088 ], [ -49.87583159999997, -22.185136599999964 ], [ -49.874403799999982, -22.18528 ], [ -49.87340759999995, -22.186786499999982 ], [ -49.873983899999985, -22.186876199999972 ], [ -49.873331, -22.187508 ], [ -49.873590699999966, -22.189128599999947 ], [ -49.872120399999972, -22.18970859999996 ], [ -49.871783299999947, -22.191143699999941 ], [ -49.870045499999947, -22.19284609999994 ], [ -49.870207299999947, -22.195633199999975 ], [ -49.868993299999943, -22.197365499999933 ], [ -49.869680699999947, -22.199942 ], [ -49.867464599999948, -22.205208299999981 ], [ -49.867824299999938, -22.206279 ], [ -49.866064, -22.207671299999959 ], [ -49.865906499999937, -22.209641799999929 ], [ -49.863226699999984, -22.213981699999977 ], [ -49.865816799999948, -22.226965 ], [ -49.867568099999971, -22.228042099999982 ], [ -49.870204899999976, -22.231922199999929 ], [ -49.868089399999974, -22.238543299999947 ], [ -49.86989159999996, -22.241455499999972 ], [ -49.871106599999962, -22.245626299999969 ], [ -49.869729499999949, -22.249529399999972 ], [ -49.867751699999985, -22.251253199999951 ], [ -49.867059, -22.253269399999965 ], [ -49.864036399999975, -22.256955699999935 ], [ -49.861499899999956, -22.262931799999933 ], [ -49.862894899999958, -22.264313099999981 ], [ -49.863100199999963, -22.265658 ], [ -49.865946, -22.265907 ], [ -49.866532499999948, -22.26917839999993 ], [ -49.86820339999997, -22.268860399999937 ], [ -49.868293499999936, -22.269988499999954 ], [ -49.870702, -22.272227399999963 ], [ -49.870549599999947, -22.27400339999997 ], [ -49.86961789999998, -22.27489369999995 ], [ -49.873179199999981, -22.276065799999969 ], [ -49.875555399999939, -22.278373699999975 ], [ -49.875741199999936, -22.28038609999993 ], [ -49.877342799999951, -22.279408599999954 ], [ -49.878301699999952, -22.280083899999966 ], [ -49.879891, -22.277139499999976 ], [ -49.882552299999986, -22.276983599999937 ], [ -49.884877199999949, -22.274479099999951 ], [ -49.885214299999973, -22.275552399999981 ], [ -49.886193799999944, -22.275458499999957 ], [ -49.887556199999949, -22.273660799999959 ], [ -49.888409, -22.273961 ], [ -49.890706499999965, -22.271978399999966 ], [ -49.89265, -22.271597399999962 ], [ -49.893304499999942, -22.269312199999945 ], [ -49.89240239999998, -22.269071699999927 ], [ -49.893660099999977, -22.268611599999929 ], [ -49.893938899999966, -22.267291399999976 ], [ -49.89491959999998, -22.267321 ], [ -49.895472799999936, -22.266181399999937 ], [ -49.897696899999971, -22.265001799999936 ], [ -49.899191599999938, -22.265375499999948 ], [ -49.899506699999961, -22.263660199999947 ], [ -49.901050899999973, -22.262840799999935 ], [ -49.900893399999973, -22.262210499999981 ], [ -49.905241199999978, -22.261281099999962 ], [ -49.906890199999964, -22.259612799999957 ], [ -49.907659, -22.258141599999931 ], [ -49.907508499999949, -22.25430259999996 ], [ -49.908632499999953, -22.252684 ], [ -49.908947599999976, -22.250315899999975 ], [ -49.910171199999979, -22.24929869999994 ], [ -49.909493599999962, -22.247136699999942 ] ] ] ] } }
]
}
