{
"type": "FeatureCollection",
"name": "Marília_Padre Nóbrega_Marília",
"crs": { "type": "name", "properties": { "name": "urn:ogc:def:crs:EPSG::4674" } },
"xy_coordinate_resolution": 1e-15,
"features": [
{ "type": "Feature", "properties": { "fid": 476, "NM_REGIAO": "Sudeste", "NM_UF": "São Paulo", "NM_MUN": "Marília", "NM_DIST": "Padre Nóbrega", "CD_SUBDIST": "35290053000", "ER_REGIAO": "Marília_Padre Nóbrega", "ER_REGIAO_CIDADE": "Marília_Padre Nóbrega_Marília", "CARTEIRA": 48.0, "FINALIZADO": 91.0, "T2": 1.0, "T3": 0.0 }, "geometry": { "type": "MultiPolygon", "coordinates": [ [ [ [ -49.913213699999972, -22.043757399999947 ], [ -49.912968399999954, -22.045551899999964 ], [ -49.909838799999932, -22.047138099999927 ], [ -49.910108299999933, -22.050794199999928 ], [ -49.908739199999957, -22.052468599999941 ], [ -49.908855299999971, -22.05502869999998 ], [ -49.907597099999975, -22.055801499999973 ], [ -49.905093599999987, -22.060477499999934 ], [ -49.902782299999956, -22.06153409999996 ], [ -49.906548, -22.064990499999965 ], [ -49.90776939999995, -22.06965589999993 ], [ -49.909071, -22.070687499999963 ], [ -49.911371299999985, -22.075095199999964 ], [ -49.91303019999998, -22.076210099999969 ], [ -49.914366099999938, -22.076048899999932 ], [ -49.915233399999977, -22.078718299999935 ], [ -49.918929799999944, -22.082917399999928 ], [ -49.923226299999953, -22.085014899999976 ], [ -49.924046499999974, -22.086971199999937 ], [ -49.924855399999956, -22.086557899999946 ], [ -49.926434699999959, -22.089544399999966 ], [ -49.926469499999939, -22.092345899999941 ], [ -49.928362599999957, -22.094105899999931 ], [ -49.928177199999936, -22.09480149999996 ], [ -49.93032919999996, -22.095048299999974 ], [ -49.932076299999949, -22.096976099999949 ], [ -49.936474199999964, -22.097032099999979 ], [ -49.938207599999942, -22.098594099999957 ], [ -49.939396199999976, -22.098495199999945 ], [ -49.941582199999971, -22.100754399999971 ], [ -49.944469699999956, -22.101533299999971 ], [ -49.944736299999931, -22.102786099999946 ], [ -49.946821199999931, -22.104104399999983 ], [ -49.947748799999943, -22.105883899999981 ], [ -49.947612099999958, -22.10771619999997 ], [ -49.952823199999955, -22.107617399999981 ], [ -49.955716299999949, -22.108784599999979 ], [ -49.956904899999984, -22.111693799999955 ], [ -49.958270299999981, -22.110953199999983 ], [ -49.960043199999973, -22.114141899999936 ], [ -49.960314299999936, -22.116431199999965 ], [ -49.962973799999986, -22.118604399999981 ], [ -49.962074399999949, -22.119688799999949 ], [ -49.963605899999948, -22.120766499999945 ], [ -49.963234199999931, -22.121956099999977 ], [ -49.965290899999957, -22.123878299999944 ], [ -49.96653509999993, -22.129012599999953 ], [ -49.967750399999943, -22.129418499999929 ], [ -49.967246, -22.130813599999954 ], [ -49.967853699999978, -22.131888499999945 ], [ -49.966624299999978, -22.132112 ], [ -49.967939699999931, -22.134177899999941 ], [ -49.966761899999938, -22.13475619999997 ], [ -49.966889699999967, -22.13607559999997 ], [ -49.968243199999961, -22.140182599999946 ], [ -49.970384099999933, -22.144514699999945 ], [ -49.971101299999987, -22.144705099999953 ], [ -49.97063959999997, -22.148973 ], [ -49.973172899999952, -22.151943299999971 ], [ -49.973864299999946, -22.153975499999945 ], [ -49.973523599999965, -22.156834699999933 ], [ -49.969042099999967, -22.161711299999979 ], [ -49.970581, -22.167269 ], [ -49.973089, -22.169233 ], [ -49.981876, -22.172959499999934 ], [ -49.982532299999946, -22.174238599999967 ], [ -49.984640699999943, -22.175394899999958 ], [ -49.995017599999983, -22.17627959999993 ], [ -49.995985899999937, -22.179356799999937 ], [ -49.998437299999978, -22.181812699999966 ], [ -50.002822699999967, -22.183958 ], [ -50.001521799999978, -22.185935499999971 ], [ -50.002216799999985, -22.190089799999953 ], [ -50.006246, -22.192536799999971 ], [ -50.007304199999965, -22.194281299999943 ], [ -50.009415699999977, -22.194110199999955 ], [ -50.010817699999961, -22.194973799999957 ], [ -50.012060299999973, -22.197186299999942 ], [ -50.020517899999959, -22.200089 ], [ -50.02074319999997, -22.202496799999949 ], [ -50.021808699999951, -22.203119499999957 ], [ -50.022381799999948, -22.204924299999959 ], [ -50.024934499999972, -22.204433599999959 ], [ -50.029279, -22.206387499999948 ], [ -50.031432399999971, -22.205263399999978 ], [ -50.032178399999964, -22.207049299999937 ], [ -50.033195199999966, -22.207284799999968 ], [ -50.034420699999941, -22.206325099999958 ], [ -50.03503429999995, -22.207752199999959 ], [ -50.035865599999966, -22.207441 ], [ -50.038108299999976, -22.208603799999935 ], [ -50.038494799999967, -22.209957699999961 ], [ -50.040719499999966, -22.209936 ], [ -50.043723199999931, -22.211349599999949 ], [ -50.046537499999943, -22.210916199999929 ], [ -50.048196899999937, -22.211470399999939 ], [ -50.04865609999996, -22.212555399999928 ], [ -50.052930599999968, -22.215447599999948 ], [ -50.056053399999939, -22.214417799999978 ], [ -50.058661399999949, -22.21585239999996 ], [ -50.066227799999979, -22.212352799999962 ], [ -50.064319, -22.205513099999962 ], [ -50.062069399999984, -22.203803799999946 ], [ -50.061353, -22.202183699999978 ], [ -50.06168189999994, -22.200355199999933 ], [ -50.059840799999961, -22.198963299999946 ], [ -50.057021199999951, -22.193130399999973 ], [ -50.051792399999954, -22.188399299999958 ], [ -50.050535299999979, -22.185209899999961 ], [ -50.051124699999946, -22.172739899999954 ], [ -50.053084599999977, -22.167200199999968 ], [ -50.052686299999948, -22.163024599999972 ], [ -50.049790299999984, -22.158203499999956 ], [ -50.047049499999957, -22.16011519999995 ], [ -50.044829, -22.159856799999943 ], [ -50.044282399999986, -22.158250599999974 ], [ -50.040587, -22.155981199999928 ], [ -50.039460099999985, -22.152590199999963 ], [ -50.042822199999932, -22.14875 ], [ -50.043613599999958, -22.146425199999953 ], [ -50.044760499999938, -22.145949899999948 ], [ -50.044462799999962, -22.143246199999965 ], [ -50.045816599999966, -22.142028599999946 ], [ -50.046460599999932, -22.13796739999998 ], [ -50.048520699999983, -22.135415399999943 ], [ -50.050732, -22.135053199999959 ], [ -50.053390399999955, -22.131137099999933 ], [ -50.055467, -22.130141399999957 ], [ -50.056956499999956, -22.125892299999975 ], [ -50.058464799999967, -22.123920899999973 ], [ -50.055408, -22.118345099999942 ], [ -50.052513099999942, -22.11816349999998 ], [ -50.051051299999983, -22.115269399999931 ], [ -50.047705599999972, -22.113842699999964 ], [ -50.04710579999994, -22.112127899999962 ], [ -50.047790899999939, -22.11043959999995 ], [ -50.046405299999947, -22.106416899999942 ], [ -50.044497699999965, -22.105641499999933 ], [ -50.03900509999994, -22.105386899999928 ], [ -50.03888349999994, -22.10151819999993 ], [ -50.034646099999975, -22.096533 ], [ -50.04006, -22.08879989999997 ], [ -50.033323499999938, -22.088404299999979 ], [ -50.027340599999945, -22.085397 ], [ -50.020920699999976, -22.085849699999983 ], [ -50.014134399999932, -22.08053979999994 ], [ -50.014134499999955, -22.073397099999966 ], [ -50.016184299999964, -22.068326399999933 ], [ -50.014388299999951, -22.06028809999998 ], [ -50.015531599999974, -22.056258199999945 ], [ -50.009648899999945, -22.041187 ], [ -50.008391899999936, -22.038845899999956 ], [ -50.006961399999966, -22.03802769999993 ], [ -50.006509299999948, -22.035185099999978 ], [ -50.004434899999978, -22.031865699999969 ], [ -50.004294399999935, -22.030356499999982 ], [ -50.00312, -22.032430099999942 ], [ -49.998851299999956, -22.03605639999995 ], [ -49.992012099999954, -22.038492099999928 ], [ -49.989831399999957, -22.040754899999968 ], [ -49.98394959999996, -22.039920799999948 ], [ -49.982459899999981, -22.037372499999947 ], [ -49.981220499999949, -22.037036799999953 ], [ -49.979425699999979, -22.037447099999952 ], [ -49.977443199999982, -22.039246099999957 ], [ -49.97863579999995, -22.045442699999967 ], [ -49.976281899999947, -22.04809 ], [ -49.975832, -22.05145 ], [ -49.978801, -22.056889799999965 ], [ -49.97877219999998, -22.058278799999982 ], [ -49.97366379999994, -22.057178299999975 ], [ -49.967880499999978, -22.051046299999939 ], [ -49.96145, -22.049659199999951 ], [ -49.958363899999938, -22.047785599999941 ], [ -49.942572899999959, -22.047599099999957 ], [ -49.939702599999976, -22.046590099999946 ], [ -49.936205399999949, -22.047063199999968 ], [ -49.933355099999972, -22.042562099999941 ], [ -49.92769949999996, -22.039534099999969 ], [ -49.913333499999965, -22.041686599999935 ], [ -49.911677399999974, -22.042823599999963 ], [ -49.913213699999972, -22.043757399999947 ] ] ] ] } }
]
}
