{
"type": "FeatureCollection",
"name": "Marília_Marília",
"crs": { "type": "name", "properties": { "name": "urn:ogc:def:crs:EPSG::4674" } },
"xy_coordinate_resolution": 1e-15,
"features": [
{ "type": "Feature", "properties": { "fid": 471, "NM_REGIAO": "Sudeste", "NM_UF": "São Paulo", "NM_MUN": "Marília", "NM_DIST": "Marília", "CD_SUBDIST": "35290050500", "ER_REGIAO": "Marília_Marília", "ER_REGIAO_CIDADE": "Marília_Marília_Marília", "USO": "SIM" }, "geometry": { "type": "MultiPolygon", "coordinates": [ [ [ [ -50.0008797, -22.3208018 ], [ -50.004739, -22.31866 ], [ -50.0064684, -22.3191187 ], [ -50.0064708, -22.3209229 ], [ -50.0074897, -22.3207246 ], [ -50.0079535, -22.3194118 ], [ -50.0097061, -22.3183827 ], [ -50.0095382, -22.3167871 ], [ -50.0113434, -22.316241 ], [ -50.0116033, -22.3136741 ], [ -50.0137882, -22.3110874 ], [ -50.0181508, -22.3162514 ], [ -50.0205459, -22.3170888 ], [ -50.0225116, -22.3149471 ], [ -50.0239838, -22.3145152 ], [ -50.0223783, -22.3122161 ], [ -50.0234137, -22.3096378 ], [ -50.0258716, -22.3073973 ], [ -50.0309033, -22.3062423 ], [ -50.0334762, -22.3082778 ], [ -50.0334769, -22.3095348 ], [ -50.0345629, -22.3100363 ], [ -50.0345628, -22.3117691 ], [ -50.035712, -22.3113389 ], [ -50.0384276, -22.3127798 ], [ -50.0396709, -22.3110874 ], [ -50.0424235, -22.3102218 ], [ -50.0439344, -22.3072786 ], [ -50.048229, -22.3043605 ], [ -50.0491101, -22.3027912 ], [ -50.047881, -22.301292 ], [ -50.0466852, -22.3017024 ], [ -50.0463861, -22.3005183 ], [ -50.0430593, -22.2992311 ], [ -50.0415734, -22.297529 ], [ -50.0392561, -22.2943456 ], [ -50.0395757, -22.2921441 ], [ -50.0381673, -22.2902432 ], [ -50.0347831, -22.2884208 ], [ -50.0334592, -22.2848513 ], [ -50.0320623, -22.2843398 ], [ -50.0316999, -22.281367 ], [ -50.0303186, -22.2801493 ], [ -50.0305451, -22.2785469 ], [ -50.0295276, -22.2781094 ], [ -50.0293053, -22.2762152 ], [ -50.0250823, -22.2744008 ], [ -50.0256001, -22.2735815 ], [ -50.0245466, -22.2710783 ], [ -50.0205487, -22.2691199 ], [ -50.0201055, -22.2612381 ], [ -50.0220155, -22.2594866 ], [ -50.023394, -22.2565049 ], [ -50.0223609, -22.2545272 ], [ -50.0221718, -22.2517396 ], [ -50.0168498, -22.2519284 ], [ -50.0142232, -22.2511294 ], [ -50.0125196, -22.2495911 ], [ -50.0149932, -22.2447841 ], [ -50.0164602, -22.239155 ], [ -50.0228088, -22.2313095 ], [ -50.022454, -22.2284046 ], [ -50.0193385, -22.2239257 ], [ -50.0217485, -22.2177462 ], [ -50.0211902, -22.2134062 ], [ -50.0218322, -22.210845 ], [ -50.0248384, -22.2097854 ], [ -50.0274786, -22.2054524 ], [ -50.0247849, -22.2044122 ], [ -50.0223818, -22.2049243 ], [ -50.0218087, -22.2031195 ], [ -50.0207432, -22.2024968 ], [ -50.0205179, -22.200089 ], [ -50.0120603, -22.1971863 ], [ -50.0108177, -22.1949738 ], [ -50.0094157, -22.1941102 ], [ -50.0073042, -22.1942813 ], [ -50.006246, -22.1925368 ], [ -50.0022168, -22.1900898 ], [ -50.0015218, -22.1859355 ], [ -50.0028227, -22.183958 ], [ -49.9984373, -22.1818127 ], [ -49.9959859, -22.1793568 ], [ -49.9949407, -22.1762249 ], [ -49.9846407, -22.1753949 ], [ -49.9825323, -22.1742386 ], [ -49.981876, -22.1729595 ], [ -49.973089, -22.169233 ], [ -49.970581, -22.167269 ], [ -49.9690421, -22.1617113 ], [ -49.9741112, -22.155773 ], [ -49.9731729, -22.1519433 ], [ -49.9706396, -22.148973 ], [ -49.9711211, -22.1447742 ], [ -49.970311, -22.1443049 ], [ -49.935559, -22.14415 ], [ -49.9330468, -22.1460501 ], [ -49.9290491, -22.146063 ], [ -49.9242596, -22.1483867 ], [ -49.9229471, -22.1471947 ], [ -49.9206577, -22.1466697 ], [ -49.9220262, -22.146248 ], [ -49.9221467, -22.1451162 ], [ -49.9200682, -22.1445611 ], [ -49.9204297, -22.1433433 ], [ -49.9177186, -22.1421083 ], [ -49.9181075, -22.1438807 ], [ -49.9171436, -22.1449651 ], [ -49.916619, -22.148969 ], [ -49.898693, -22.14885 ], [ -49.8977676, -22.1493738 ], [ -49.8965789, -22.1503542 ], [ -49.8973983, -22.1535687 ], [ -49.8962505, -22.1560185 ], [ -49.8980781, -22.1581542 ], [ -49.8990488, -22.1575324 ], [ -49.8990664, -22.1587138 ], [ -49.9000753, -22.1591928 ], [ -49.8995818, -22.1599482 ], [ -49.9004147, -22.1607811 ], [ -49.8992982, -22.1611908 ], [ -49.9014147, -22.1636246 ], [ -49.9004, -22.1663438 ], [ -49.9013043, -22.1667583 ], [ -49.9011816, -22.1699456 ], [ -49.9018455, -22.170687 ], [ -49.9010211, -22.1751599 ], [ -49.9036839, -22.1771313 ], [ -49.9037452, -22.1783773 ], [ -49.9045266, -22.1787688 ], [ -49.9040181, -22.1805318 ], [ -49.9054737, -22.1827495 ], [ -49.9047098, -22.1839692 ], [ -49.9056957, -22.1842101 ], [ -49.9061163, -22.1853512 ], [ -49.9053352, -22.1854026 ], [ -49.9075551, -22.1890273 ], [ -49.9076451, -22.1919897 ], [ -49.9104761, -22.1958594 ], [ -49.9094354, -22.1974454 ], [ -49.9106043, -22.1995681 ], [ -49.9103194, -22.2017233 ], [ -49.9111883, -22.202259 ], [ -49.9122981, -22.2064079 ], [ -49.9153259, -22.2068231 ], [ -49.9160295, -22.2076726 ], [ -49.9177378, -22.2075024 ], [ -49.9199674, -22.2087286 ], [ -49.9205977, -22.2101783 ], [ -49.9229298, -22.2116279 ], [ -49.9231801, -22.2145162 ], [ -49.9217504, -22.2208002 ], [ -49.9169455, -22.2244101 ], [ -49.91556, -22.2267175 ], [ -49.9150761, -22.2407292 ], [ -49.91298, -22.2439959 ], [ -49.9102689, -22.2454626 ], [ -49.9096121, -22.2467219 ], [ -49.9101712, -22.2492987 ], [ -49.9089476, -22.2503159 ], [ -49.9086325, -22.252684 ], [ -49.9075085, -22.2543026 ], [ -49.907659, -22.2581416 ], [ -49.9068902, -22.2596128 ], [ -49.9052412, -22.2612811 ], [ -49.9008934, -22.2622105 ], [ -49.9010509, -22.2628408 ], [ -49.8995067, -22.2636602 ], [ -49.8991916, -22.2653755 ], [ -49.8976969, -22.2650018 ], [ -49.8954728, -22.2661814 ], [ -49.8949196, -22.267321 ], [ -49.8939389, -22.2672914 ], [ -49.8936601, -22.2686116 ], [ -49.8924024, -22.2690717 ], [ -49.8933045, -22.2693122 ], [ -49.89265, -22.2715974 ], [ -49.8907065, -22.2719784 ], [ -49.888409, -22.273961 ], [ -49.8875562, -22.2736608 ], [ -49.8861938, -22.2754585 ], [ -49.8852143, -22.2755524 ], [ -49.8848772, -22.2744791 ], [ -49.8825523, -22.2769836 ], [ -49.8799587, -22.2770953 ], [ -49.8783017, -22.2800839 ], [ -49.8772588, -22.2794324 ], [ -49.8749531, -22.2814884 ], [ -49.8751439, -22.2837613 ], [ -49.876301, -22.2843694 ], [ -49.8783186, -22.2839967 ], [ -49.8783957, -22.286069 ], [ -49.881194, -22.2874963 ], [ -49.8807239, -22.2904431 ], [ -49.8816469, -22.2930575 ], [ -49.8801174, -22.2951321 ], [ -49.8826803, -22.2953845 ], [ -49.8827404, -22.2968867 ], [ -49.8809159, -22.2970954 ], [ -49.8842351, -22.2982849 ], [ -49.8847481, -22.300816 ], [ -49.888975, -22.3060376 ], [ -49.8894989, -22.3114218 ], [ -49.8929164, -22.3157295 ], [ -49.895416, -22.3158404 ], [ -49.8961263, -22.3180711 ], [ -49.8972257, -22.3175423 ], [ -49.8980494, -22.3191033 ], [ -49.9003766, -22.3191392 ], [ -49.9019261, -22.32096 ], [ -49.9020212, -22.3226234 ], [ -49.9008639, -22.3231653 ], [ -49.9022588, -22.3254141 ], [ -49.9040047, -22.3251645 ], [ -49.9047121, -22.3259336 ], [ -49.9035078, -22.329727 ], [ -49.9051167, -22.333184 ], [ -49.9128106, -22.3358645 ], [ -49.9163962, -22.334936 ], [ -49.9183788, -22.3357873 ], [ -49.9212056, -22.334361 ], [ -49.9217555, -22.3324709 ], [ -49.9231928, -22.3311127 ], [ -49.9294593, -22.3306179 ], [ -49.9341455, -22.3351074 ], [ -49.9366322, -22.3350701 ], [ -49.9366822, -22.3370282 ], [ -49.9394099, -22.3346659 ], [ -49.9409169, -22.3364726 ], [ -49.9427215, -22.3351501 ], [ -49.9454907, -22.3387485 ], [ -49.9468274, -22.33926 ], [ -49.9497379, -22.3355645 ], [ -49.9512152, -22.3355875 ], [ -49.9517353, -22.3363954 ], [ -49.952467, -22.3339462 ], [ -49.9553409, -22.3312695 ], [ -49.9559145, -22.3278001 ], [ -49.9605934, -22.3285141 ], [ -49.9612557, -22.3289095 ], [ -49.9612352, -22.3304157 ], [ -49.9637025, -22.3310349 ], [ -49.9669646, -22.330412 ], [ -49.9737179, -22.3273775 ], [ -49.9810617, -22.3283222 ], [ -49.9835298, -22.3278483 ], [ -49.9873011, -22.3289321 ], [ -49.9899575, -22.3278024 ], [ -49.9939786, -22.3245243 ], [ -49.9961295, -22.3240871 ], [ -49.9962435, -22.3223055 ], [ -49.9977191, -22.3227268 ], [ -49.999083, -22.321776 ], [ -50.000074, -22.3222912 ], [ -50.0008797, -22.3208018 ] ] ] ] } }
]
}
