{
"type": "FeatureCollection",
"name": "Marília_Rosália_Marília",
"crs": { "type": "name", "properties": { "name": "urn:ogc:def:crs:EPSG::4674" } },
"xy_coordinate_resolution": 1e-15,
"features": [
{ "type": "Feature", "properties": { "fid": 477, "NM_REGIAO": "Sudeste", "NM_UF": "São Paulo", "NM_MUN": "Marília", "NM_DIST": "Rosália", "CD_SUBDIST": "35290053500", "ER_REGIAO": "Marília_Rosália", "ER_REGIAO_CIDADE": "Marília_Rosália_Marília", "CARTEIRA": 0.0, "FINALIZADO": 0.0, "T2": 0.0, "T3": 0.0 }, "geometry": { "type": "MultiPolygon", "coordinates": [ [ [ [ -50.015921799999944, -21.918594599999949 ], [ -50.011126499999932, -21.925246699999946 ], [ -50.006410899999935, -21.925638099999958 ], [ -50.003155099999958, -21.92879 ], [ -49.999318899999935, -21.927566399999932 ], [ -49.996080899999981, -21.931114699999966 ], [ -49.995044699999937, -21.930283599999939 ], [ -49.993006699999967, -21.931900499999927 ], [ -49.98883479999995, -21.933437099999935 ], [ -49.984567799999979, -21.939264399999956 ], [ -49.983018799999968, -21.939804599999945 ], [ -49.980533499999979, -21.942632199999935 ], [ -49.972280599999976, -21.940938 ], [ -49.972393099999977, -21.939275899999927 ], [ -49.970711, -21.938326599999982 ], [ -49.969721, -21.939354399999957 ], [ -49.968151099999943, -21.938525099999936 ], [ -49.964414099999942, -21.941478699999948 ], [ -49.961234599999955, -21.941881 ], [ -49.959624399999939, -21.942910099999949 ], [ -49.958756799999946, -21.941947 ], [ -49.95756769999997, -21.942092499999944 ], [ -49.957525499999974, -21.942888499999981 ], [ -49.954734299999984, -21.944293899999934 ], [ -49.954735899999946, -21.945051499999977 ], [ -49.953997799999968, -21.944758499999978 ], [ -49.954008299999941, -21.945559799999955 ], [ -49.95199729999996, -21.945101099999931 ], [ -49.951092599999981, -21.946932499999946 ], [ -49.948382899999956, -21.948913299999958 ], [ -49.949060699999961, -21.949581499999965 ], [ -49.948153, -21.949877399999934 ], [ -49.948313, -21.950893199999939 ], [ -49.94607259999998, -21.953236699999934 ], [ -49.943732399999931, -21.953928899999937 ], [ -49.943022099999951, -21.954950599999961 ], [ -49.943406699999969, -21.955800499999953 ], [ -49.941421199999979, -21.957591599999944 ], [ -49.939459299999953, -21.962453599999947 ], [ -49.937811499999953, -21.963424599999939 ], [ -49.934915099999955, -21.969902599999955 ], [ -49.933534, -21.969614199999967 ], [ -49.933697199999983, -21.972170399999982 ], [ -49.936233799999968, -21.974716299999955 ], [ -49.934807499999977, -21.975935099999958 ], [ -49.936073799999974, -21.978053899999964 ], [ -49.93583289999998, -21.982701899999938 ], [ -49.934004799999968, -21.984874699999978 ], [ -49.937172699999962, -21.987927499999955 ], [ -49.938293099999953, -21.990581899999938 ], [ -49.937182899999982, -21.994102 ], [ -49.937302399999965, -21.997866699999975 ], [ -49.935904799999946, -22.000036199999954 ], [ -49.936550299999965, -22.002932299999941 ], [ -49.935147399999948, -22.003728399999943 ], [ -49.934807, -22.002976 ], [ -49.932759099999942, -22.005983299999968 ], [ -49.931588599999941, -22.010876099999962 ], [ -49.932883899999979, -22.011672199999964 ], [ -49.931470299999944, -22.015138599999943 ], [ -49.928038, -22.018948 ], [ -49.924865199999942, -22.02027419999996 ], [ -49.924367699999948, -22.02288649999997 ], [ -49.923025099999961, -22.024599199999955 ], [ -49.922091299999977, -22.024659499999927 ], [ -49.921877799999947, -22.025693499999932 ], [ -49.922644599999956, -22.026473299999964 ], [ -49.920750599999963, -22.029661 ], [ -49.918988699999943, -22.028859499999953 ], [ -49.916187199999968, -22.031613599999957 ], [ -49.916596, -22.033369299999947 ], [ -49.914458599999932, -22.034383499999933 ], [ -49.91095439999998, -22.039238799999964 ], [ -49.911427599999968, -22.041807 ], [ -49.91227669999995, -22.042217199999982 ], [ -49.92769949999996, -22.039534099999969 ], [ -49.933355099999972, -22.042562099999941 ], [ -49.936205399999949, -22.047063199999968 ], [ -49.939702599999976, -22.046590099999946 ], [ -49.942572899999959, -22.047599099999957 ], [ -49.958363899999938, -22.047785599999941 ], [ -49.96145, -22.049659199999951 ], [ -49.967880499999978, -22.051046299999939 ], [ -49.97366379999994, -22.057178299999975 ], [ -49.97861039999998, -22.058275399999957 ], [ -49.978916899999945, -22.057164899999975 ], [ -49.975832, -22.05145 ], [ -49.976281899999947, -22.04809 ], [ -49.97863579999995, -22.045442699999967 ], [ -49.977443199999982, -22.039246099999957 ], [ -49.979425699999979, -22.037447099999952 ], [ -49.981220499999949, -22.037036799999953 ], [ -49.982459899999981, -22.037372499999947 ], [ -49.98394959999996, -22.039920799999948 ], [ -49.989831399999957, -22.040754899999968 ], [ -49.992012099999954, -22.038492099999928 ], [ -49.998851299999956, -22.03605639999995 ], [ -50.00312, -22.032430099999942 ], [ -50.004294399999935, -22.030356499999982 ], [ -50.010809499999937, -22.032841099999928 ], [ -50.015538099999958, -22.031835399999977 ], [ -50.02361419999994, -22.036966199999938 ], [ -50.025932599999976, -22.036635599999954 ], [ -50.02915779999995, -22.037383499999976 ], [ -50.030234099999973, -22.03836339999998 ], [ -50.030200499999978, -22.040433399999927 ], [ -50.032643899999982, -22.041247 ], [ -50.035266599999943, -22.044665899999927 ], [ -50.046515599999964, -22.044617399999936 ], [ -50.049046299999986, -22.045367099999964 ], [ -50.046613499999978, -22.03883449999995 ], [ -50.045804399999952, -22.034165799999982 ], [ -50.043403099999978, -22.029858099999956 ], [ -50.044350099999974, -22.02642979999996 ], [ -50.044447099999957, -22.021059899999955 ], [ -50.046459199999958, -22.015527799999973 ], [ -50.051292399999966, -22.014422499999966 ], [ -50.054858199999956, -22.011153599999943 ], [ -50.056310399999973, -22.007693099999983 ], [ -50.061543699999959, -22.003528199999948 ], [ -50.061651, -21.99225679999995 ], [ -50.058592, -21.985248799999965 ], [ -50.058502499999975, -21.982390499999951 ], [ -50.065040099999976, -21.966511099999934 ], [ -50.06541459999994, -21.963186099999973 ], [ -50.067683399999964, -21.958206899999936 ], [ -50.067439699999966, -21.955347699999948 ], [ -50.071863099999973, -21.955501099999935 ], [ -50.075810399999966, -21.954409699999928 ], [ -50.077800799999977, -21.953026399999942 ], [ -50.079195299999981, -21.942478799999947 ], [ -50.085953699999948, -21.932251599999972 ], [ -50.085009599999978, -21.925643099999945 ], [ -50.085895299999947, -21.922963099999947 ], [ -50.084852199999943, -21.921281199999953 ], [ -50.085194299999955, -21.919251799999927 ], [ -50.083278699999937, -21.911953099999948 ], [ -50.079804499999966, -21.903778 ], [ -50.073673799999938, -21.894525299999941 ], [ -50.068922, -21.890993399999957 ], [ -50.068587699999966, -21.888645 ], [ -50.067098199999975, -21.887472599999967 ], [ -50.066935399999977, -21.885260799999969 ], [ -50.06355949999994, -21.881655199999955 ], [ -50.060332799999969, -21.874455699999942 ], [ -50.05812039999995, -21.875515899999982 ], [ -50.056031799999971, -21.875229 ], [ -50.049224299999935, -21.879146 ], [ -50.049847699999987, -21.880483899999945 ], [ -50.047881799999971, -21.882269599999972 ], [ -50.04818279999995, -21.883458099999928 ], [ -50.045969199999945, -21.884672399999943 ], [ -50.04422349999993, -21.883576 ], [ -50.043571799999938, -21.88435 ], [ -50.044338099999948, -21.884709799999939 ], [ -50.04268419999994, -21.884934899999962 ], [ -50.041353499999957, -21.887706199999968 ], [ -50.037011, -21.887263699999949 ], [ -50.036121799999933, -21.886480699999936 ], [ -50.035494699999958, -21.887588499999936 ], [ -50.032411599999932, -21.888004499999965 ], [ -50.031825899999944, -21.886693599999944 ], [ -50.029097199999967, -21.888622 ], [ -50.027545, -21.890798699999948 ], [ -50.031509099999937, -21.895314599999949 ], [ -50.030947499999968, -21.897886099999937 ], [ -50.027392499999962, -21.900405 ], [ -50.025875699999972, -21.899358099999972 ], [ -50.024488299999973, -21.899983499999962 ], [ -50.024273, -21.901797599999952 ], [ -50.022489399999984, -21.90178039999995 ], [ -50.019776699999966, -21.906563399999982 ], [ -50.017823799999974, -21.905554399999971 ], [ -50.015594499999963, -21.910016799999937 ], [ -50.016705599999966, -21.910129099999949 ], [ -50.018036799999948, -21.914057799999966 ], [ -50.015456699999959, -21.916734499999961 ], [ -50.015921799999944, -21.918594599999949 ] ] ] ] } }
]
}
