{
"type": "FeatureCollection",
"name": "Mogi das Cruzes_Jundiapeba",
"crs": { "type": "name", "properties": { "name": "urn:ogc:def:crs:EPSG::4674" } },
"xy_coordinate_resolution": 1e-15,
"features": [
{ "type": "Feature", "properties": { "NM_REGIAO": "Sudeste", "NM_MUN": "Mogi das Cruzes", "ER_REGIAO": "Mogi das Cruzes_Jundiapeba", "ER_REGIAO_CIDADE": "Mogi das Cruzes_Jundiapeba_Alto Tietê" }, "geometry": { "type": "MultiPolygon", "coordinates": [ [ [ [ -46.2590873, -23.6352223 ], [ -46.2626376, -23.6325019 ], [ -46.2623611, -23.6318187 ], [ -46.264289, -23.631806 ], [ -46.2636807, -23.6313395 ], [ -46.2645265, -23.6308747 ], [ -46.263451, -23.6307459 ], [ -46.2646962, -23.6285073 ], [ -46.2635935, -23.6268186 ], [ -46.2636006, -23.6241826 ], [ -46.2614609, -23.6205378 ], [ -46.2621167, -23.6199529 ], [ -46.2618649, -23.6150344 ], [ -46.2603064, -23.6144754 ], [ -46.2590012, -23.6117845 ], [ -46.263578, -23.609143 ], [ -46.263867, -23.607356 ], [ -46.265144, -23.606378 ], [ -46.266196, -23.60369 ], [ -46.265024, -23.600745 ], [ -46.2681, -23.592244 ], [ -46.279024, -23.578797 ], [ -46.2816925, -23.5703585 ], [ -46.284002, -23.568608 ], [ -46.2839743, -23.566743 ], [ -46.2849831, -23.5659566 ], [ -46.280513, -23.5590919 ], [ -46.28071, -23.5563134 ], [ -46.2788033, -23.5550879 ], [ -46.2790858, -23.5535119 ], [ -46.2808974, -23.5525432 ], [ -46.2813584, -23.5509461 ], [ -46.2810824, -23.5487478 ], [ -46.280021, -23.5487526 ], [ -46.2795029, -23.5459422 ], [ -46.278275, -23.54502 ], [ -46.2711739, -23.5447733 ], [ -46.2704845, -23.5398748 ], [ -46.26814, -23.5396505 ], [ -46.2686642, -23.5387146 ], [ -46.2691464, -23.5390071 ], [ -46.2693149, -23.5374244 ], [ -46.2681996, -23.5360599 ], [ -46.267663, -23.537037 ], [ -46.266494, -23.535222 ], [ -46.265644, -23.536241 ], [ -46.264164, -23.535461 ], [ -46.264238, -23.534088 ], [ -46.263529, -23.534749 ], [ -46.263273, -23.534168 ], [ -46.2645007, -23.5334752 ], [ -46.2637735, -23.5327718 ], [ -46.2647272, -23.5319951 ], [ -46.2640778, -23.5319292 ], [ -46.263902, -23.5307333 ], [ -46.2623426, -23.5301945 ], [ -46.258147, -23.5320931 ], [ -46.2565355, -23.5306276 ], [ -46.256215, -23.5328046 ], [ -46.2551217, -23.531403 ], [ -46.2545422, -23.5326585 ], [ -46.2529024, -23.5317632 ], [ -46.2534207, -23.5332428 ], [ -46.2552679, -23.5342183 ], [ -46.253433, -23.5339791 ], [ -46.2542428, -23.5352436 ], [ -46.2532417, -23.5361455 ], [ -46.2503072, -23.5355075 ], [ -46.2521383, -23.53777 ], [ -46.250296, -23.54151 ], [ -46.2490428, -23.5404535 ], [ -46.247777, -23.541331 ], [ -46.24615, -23.540695 ], [ -46.24039, -23.546943 ], [ -46.240295, -23.549894 ], [ -46.237967, -23.552653 ], [ -46.2356966, -23.5549267 ], [ -46.2338717, -23.5553564 ], [ -46.2330215, -23.5568768 ], [ -46.2283857, -23.5585426 ], [ -46.2275445, -23.5612754 ], [ -46.2280736, -23.5623179 ], [ -46.2265624, -23.5638279 ], [ -46.2262393, -23.5667374 ], [ -46.226719, -23.568203 ], [ -46.229047, -23.570191 ], [ -46.229564, -23.573387 ], [ -46.2272989, -23.5772787 ], [ -46.2254023, -23.5782731 ], [ -46.225739, -23.579932 ], [ -46.225111, -23.5806 ], [ -46.222358, -23.58036 ], [ -46.219552, -23.581556 ], [ -46.219957, -23.58236 ], [ -46.217531, -23.585507 ], [ -46.218571, -23.588381 ], [ -46.219386, -23.588591 ], [ -46.218945, -23.592234 ], [ -46.219791, -23.592549 ], [ -46.219602, -23.594837 ], [ -46.22051, -23.595127 ], [ -46.220114, -23.598352 ], [ -46.219485, -23.598294 ], [ -46.220016, -23.59899 ], [ -46.21922, -23.600327 ], [ -46.218209, -23.599738 ], [ -46.21713, -23.600167 ], [ -46.215583, -23.60184 ], [ -46.215835, -23.603143 ], [ -46.214772, -23.604809 ], [ -46.213288, -23.605149 ], [ -46.210718, -23.608372 ], [ -46.21124, -23.61074 ], [ -46.210313, -23.612334 ], [ -46.212079, -23.614778 ], [ -46.213665, -23.615599 ], [ -46.213978, -23.617017 ], [ -46.21266, -23.61845 ], [ -46.21038, -23.61848 ], [ -46.208298, -23.620008 ], [ -46.205993, -23.620304 ], [ -46.202624, -23.622424 ], [ -46.20167, -23.624703 ], [ -46.199413, -23.624985 ], [ -46.2590873, -23.6352223 ] ] ] ] } }
]
}
