{
"type": "FeatureCollection",
"name": "Paraguaçu Paulista_Paraguaçu Paulista",
"crs": { "type": "name", "properties": { "name": "urn:ogc:def:crs:EPSG::4674" } },
"xy_coordinate_resolution": 1e-15,
"features": [
{ "type": "Feature", "properties": { "fid": 596, "NM_REGIAO": "Sudeste", "NM_UF": "São Paulo", "NM_MUN": "Paraguaçu Paulista", "NM_DIST": "Paraguaçu Paulista", "CD_SUBDIST": "35355070500", "ER_REGIAO": "Paraguaçu Paulista_Paraguaçu Paulista", "ER_REGIAO_CIDADE": "Paraguaçu Paulista_Paraguaçu Paulista_Marília" }, "geometry": { "type": "MultiPolygon", "coordinates": [ [ [ [ -50.592181799999935, -22.447521399999971 ], [ -50.589221599999973, -22.432857399999932 ], [ -50.609546499999965, -22.441782399999965 ], [ -50.618777699999953, -22.444263 ], [ -50.621587699999964, -22.446473699999956 ], [ -50.622498899999982, -22.448209199999951 ], [ -50.624449, -22.445648699999936 ], [ -50.624431299999969, -22.441764599999942 ], [ -50.627016799999979, -22.438402099999962 ], [ -50.627363499999944, -22.435557399999936 ], [ -50.629804199999967, -22.433914499999958 ], [ -50.633835699999963, -22.432053899999971 ], [ -50.640886599999931, -22.433272899999963 ], [ -50.648307799999941, -22.433032699999956 ], [ -50.656088399999931, -22.424370899999928 ], [ -50.664980399999934, -22.421152199999938 ], [ -50.669614199999955, -22.414658899999949 ], [ -50.671266, -22.405846399999973 ], [ -50.670934799999941, -22.40323559999996 ], [ -50.666855, -22.401357699999949 ], [ -50.660735399999965, -22.401306399999953 ], [ -50.657650899999965, -22.402335099999959 ], [ -50.653795299999956, -22.402419599999973 ], [ -50.646434399999976, -22.397785499999941 ], [ -50.645500199999958, -22.396317599999975 ], [ -50.641955499999938, -22.394845099999941 ], [ -50.635004899999956, -22.38275109999995 ], [ -50.630757799999969, -22.370686899999953 ], [ -50.627143799999942, -22.367310599999939 ], [ -50.615150699999958, -22.368356699999936 ], [ -50.610828799999979, -22.367240899999956 ], [ -50.602061099999958, -22.36899829999993 ], [ -50.592272699999967, -22.36420389999995 ], [ -50.589548, -22.361800699999947 ], [ -50.585859899999946, -22.364093299999979 ], [ -50.585001399999953, -22.365767199999937 ], [ -50.583265599999947, -22.365657599999963 ], [ -50.581363299999964, -22.368153599999971 ], [ -50.575585199999978, -22.371943199999976 ], [ -50.567661499999986, -22.374855699999955 ], [ -50.558835399999964, -22.374517799999978 ], [ -50.55628349999995, -22.372761699999955 ], [ -50.551333799999952, -22.36651379999995 ], [ -50.545044699999949, -22.356673799999953 ], [ -50.534500599999944, -22.35023039999993 ], [ -50.528390499999944, -22.345144799999957 ], [ -50.523735599999952, -22.337819399999944 ], [ -50.522555799999964, -22.330507 ], [ -50.527700399999958, -22.320565699999975 ], [ -50.527466899999979, -22.31827629999998 ], [ -50.522735599999976, -22.312455399999976 ], [ -50.519442699999956, -22.312688799999933 ], [ -50.514789699999938, -22.315223399999979 ], [ -50.509068199999945, -22.315706499999976 ], [ -50.506690499999934, -22.313800299999969 ], [ -50.498627299999953, -22.31211339999993 ], [ -50.493048599999952, -22.31779819999997 ], [ -50.489711699999987, -22.319078899999965 ], [ -50.484151199999985, -22.314799299999947 ], [ -50.480525, -22.309967099999938 ], [ -50.477433399999939, -22.30856 ], [ -50.476152599999978, -22.30907689999998 ], [ -50.475277, -22.313402099999962 ], [ -50.471041199999945, -22.312520099999972 ], [ -50.465960299999949, -22.315815899999961 ], [ -50.459903599999961, -22.313185899999951 ], [ -50.452435899999955, -22.314383799999973 ], [ -50.451683399999979, -22.315691299999969 ], [ -50.451027799999963, -22.330618299999969 ], [ -50.448439099999973, -22.335490099999959 ], [ -50.44847569999996, -22.338677899999936 ], [ -50.44626089999997, -22.343268399999943 ], [ -50.445577899999932, -22.348181 ], [ -50.442574599999944, -22.353635099999963 ], [ -50.442349299999933, -22.355928 ], [ -50.449224899999933, -22.363923599999964 ], [ -50.455988199999979, -22.366451499999982 ], [ -50.45751249999995, -22.371147199999939 ], [ -50.457913899999937, -22.376428 ], [ -50.457265199999938, -22.381290899999954 ], [ -50.451815699999941, -22.389191499999981 ], [ -50.451564899999937, -22.394017099999928 ], [ -50.455995299999984, -22.401944499999956 ], [ -50.457319, -22.406400499999961 ], [ -50.459564, -22.40858609999998 ], [ -50.462689499999954, -22.408037599999943 ], [ -50.464782199999945, -22.409032899999943 ], [ -50.467187299999978, -22.411728599999947 ], [ -50.46842879999997, -22.414766899999961 ], [ -50.469733199999951, -22.418966299999965 ], [ -50.471970899999974, -22.435701699999981 ], [ -50.473122899999964, -22.43782989999994 ], [ -50.470910499999945, -22.439782699999967 ], [ -50.470823099999961, -22.444842799999947 ], [ -50.469885899999952, -22.445933399999944 ], [ -50.469748099999947, -22.447961299999974 ], [ -50.469988299999955, -22.450713499999949 ], [ -50.471115399999974, -22.45198709999994 ], [ -50.471107, -22.454810599999973 ], [ -50.470322599999974, -22.456082099999946 ], [ -50.472537899999963, -22.459820799999932 ], [ -50.472288899999967, -22.460554799999954 ], [ -50.471386399999972, -22.459506199999964 ], [ -50.468339399999934, -22.460321599999929 ], [ -50.465790799999979, -22.45735209999998 ], [ -50.462872499999946, -22.458460599999967 ], [ -50.460508, -22.456282299999941 ], [ -50.458014299999945, -22.457809499999939 ], [ -50.455687599999976, -22.45712629999997 ], [ -50.453223399999956, -22.457800899999938 ], [ -50.45099689999995, -22.459937099999934 ], [ -50.448665699999935, -22.459469299999967 ], [ -50.443028499999969, -22.479072299999928 ], [ -50.442909099999952, -22.485258699999974 ], [ -50.440844399999946, -22.49050589999996 ], [ -50.439412899999979, -22.491249 ], [ -50.430736699999954, -22.49179769999995 ], [ -50.42386659999994, -22.496235799999965 ], [ -50.418936499999973, -22.497502599999962 ], [ -50.418473199999937, -22.498658299999931 ], [ -50.420256199999983, -22.502122899999961 ], [ -50.42043149999995, -22.504978199999982 ], [ -50.414543899999956, -22.515454199999965 ], [ -50.413971699999934, -22.51754539999996 ], [ -50.414596099999983, -22.520924699999966 ], [ -50.416017099999976, -22.52128 ], [ -50.420219699999961, -22.51937769999995 ], [ -50.42276789999994, -22.519457699999975 ], [ -50.425272299999961, -22.520787499999983 ], [ -50.430065399999933, -22.521398699999963 ], [ -50.434270099999935, -22.526827599999933 ], [ -50.441506, -22.527171499999952 ], [ -50.447523, -22.525035199999934 ], [ -50.454642599999943, -22.525131499999929 ], [ -50.455837899999949, -22.52569079999995 ], [ -50.456316799999968, -22.527572599999928 ], [ -50.459606699999938, -22.529570199999966 ], [ -50.461630899999932, -22.529235899999946 ], [ -50.467445199999986, -22.52309669999994 ], [ -50.467637099999934, -22.521820299999945 ], [ -50.471375099999932, -22.516674299999977 ], [ -50.480633899999987, -22.512446799999964 ], [ -50.487949599999979, -22.507647099999929 ], [ -50.49136249999998, -22.50250879999993 ], [ -50.496680599999934, -22.497125799999935 ], [ -50.499374599999953, -22.491171699999938 ], [ -50.501147499999945, -22.492095699999936 ], [ -50.50182, -22.490062199999954 ], [ -50.503687, -22.490833899999927 ], [ -50.505060299999968, -22.490509399999951 ], [ -50.506345899999985, -22.491648299999952 ], [ -50.507561199999941, -22.48982129999996 ], [ -50.50706219999995, -22.487895399999957 ], [ -50.507981699999959, -22.487568099999976 ], [ -50.509368799999947, -22.490295599999968 ], [ -50.511015699999973, -22.490986299999975 ], [ -50.513468299999943, -22.493928 ], [ -50.517329199999949, -22.494508199999927 ], [ -50.519468199999949, -22.493046399999969 ], [ -50.51962409999993, -22.494838699999946 ], [ -50.521081299999935, -22.495103699999959 ], [ -50.522094399999958, -22.493911399999945 ], [ -50.522959399999934, -22.494160799999975 ], [ -50.523208799999964, -22.495173799999975 ], [ -50.524853, -22.495742699999937 ], [ -50.525819299999966, -22.497901299999967 ], [ -50.525624499999935, -22.500550799999928 ], [ -50.527314599999954, -22.50139269999994 ], [ -50.53005079999997, -22.50005989999994 ], [ -50.529123499999969, -22.498142899999948 ], [ -50.531578199999956, -22.495532299999979 ], [ -50.531889899999953, -22.496475199999963 ], [ -50.533292599999982, -22.495828399999937 ], [ -50.532661399999938, -22.498813 ], [ -50.535685, -22.49800259999995 ], [ -50.535545599999978, -22.500768799999946 ], [ -50.536511, -22.500901499999941 ], [ -50.538155299999971, -22.49571149999997 ], [ -50.540867299999945, -22.495890499999973 ], [ -50.54185039999993, -22.494718199999966 ], [ -50.540778399999965, -22.493373499999961 ], [ -50.541256799999985, -22.492773599999964 ], [ -50.546766299999945, -22.493249 ], [ -50.547101399999974, -22.490786499999956 ], [ -50.548348199999964, -22.489555199999927 ], [ -50.548449499999947, -22.492695699999956 ], [ -50.549735299999952, -22.495555699999954 ], [ -50.553288799999962, -22.496763499999929 ], [ -50.551956299999972, -22.497994799999958 ], [ -50.552508399999965, -22.499856799999975 ], [ -50.551426399999968, -22.500776799999983 ], [ -50.553188, -22.501045599999941 ], [ -50.556864, -22.504282099999955 ], [ -50.558389, -22.502976899999965 ], [ -50.563616599999932, -22.505167799999981 ], [ -50.566773199999943, -22.507518599999969 ], [ -50.566692099999955, -22.508451499999978 ], [ -50.565474599999959, -22.509203399999933 ], [ -50.567112799999961, -22.510475299999939 ], [ -50.567801499999973, -22.509914799999933 ], [ -50.570808799999952, -22.511048099999982 ], [ -50.572793299999944, -22.509696199999951 ], [ -50.575985299999957, -22.512573799999927 ], [ -50.577303499999971, -22.511671899999953 ], [ -50.578126199999986, -22.512015899999938 ], [ -50.580921399999966, -22.517223099999967 ], [ -50.586359699999946, -22.52388069999995 ], [ -50.587971499999981, -22.524996199999975 ], [ -50.592041199999983, -22.525535799999943 ], [ -50.589686699999959, -22.519134099999974 ], [ -50.590031499999952, -22.517722699999979 ], [ -50.592289199999982, -22.516053199999931 ], [ -50.591856899999982, -22.510611899999958 ], [ -50.594828699999937, -22.505662799999982 ], [ -50.594952599999942, -22.502627799999971 ], [ -50.588652299999978, -22.497955399999967 ], [ -50.582926599999951, -22.490564099999972 ], [ -50.577973199999974, -22.486270799999943 ], [ -50.582083099999977, -22.471094899999969 ], [ -50.585809899999958, -22.46854019999995 ], [ -50.591584199999943, -22.458403 ], [ -50.591700199999934, -22.457513399999982 ], [ -50.585627299999942, -22.454307 ], [ -50.585517099999947, -22.452895 ], [ -50.592181799999935, -22.447521399999971 ] ] ] ] } }
]
}
