{
"type": "FeatureCollection",
"name": "Paraguaçu Paulista_Sapezal",
"crs": { "type": "name", "properties": { "name": "urn:ogc:def:crs:EPSG::4674" } },
"xy_coordinate_resolution": 1e-15,
"features": [
{ "type": "Feature", "properties": { "fid": 599, "NM_REGIAO": "Sudeste", "NM_UF": "São Paulo", "NM_MUN": "Paraguaçu Paulista", "NM_DIST": "Sapezal", "CD_SUBDIST": "35355071500", "ER_REGIAO": "Paraguaçu Paulista_Sapezal", "ER_REGIAO_CIDADE": "Paraguaçu Paulista_Sapezal_Marília" }, "geometry": { "type": "MultiPolygon", "coordinates": [ [ [ [ -50.63024, -22.305641 ], [ -50.6264, -22.302366 ], [ -50.62682, -22.294981 ], [ -50.625119, -22.289483 ], [ -50.623771, -22.288118 ], [ -50.622273, -22.288744 ], [ -50.621375, -22.294249 ], [ -50.618436, -22.296046 ], [ -50.60353, -22.297637 ], [ -50.599294, -22.295986 ], [ -50.594262, -22.299788 ], [ -50.587421, -22.30309 ], [ -50.583321, -22.302478 ], [ -50.581504, -22.301074 ], [ -50.576131, -22.300927 ], [ -50.571041, -22.304301 ], [ -50.564885, -22.297291 ], [ -50.558467699999937, -22.295290399999942 ], [ -50.557953899999973, -22.296612499999981 ], [ -50.55665289999996, -22.297217199999977 ], [ -50.548939399999938, -22.298491099999978 ], [ -50.54348, -22.30153439999998 ], [ -50.534482699999955, -22.302655 ], [ -50.532380099999955, -22.303558 ], [ -50.532963, -22.306488 ], [ -50.532308, -22.308126299999969 ], [ -50.530124899999976, -22.308745299999941 ], [ -50.526944799999967, -22.308071299999938 ], [ -50.522735599999976, -22.312455399999976 ], [ -50.527466899999979, -22.31827629999998 ], [ -50.527700399999958, -22.320565699999975 ], [ -50.522555799999964, -22.330507 ], [ -50.523735599999952, -22.337819399999944 ], [ -50.528390499999944, -22.345144799999957 ], [ -50.534500599999944, -22.35023039999993 ], [ -50.545044699999949, -22.356673799999953 ], [ -50.551333799999952, -22.36651379999995 ], [ -50.55628349999995, -22.372761699999955 ], [ -50.558835399999964, -22.374517799999978 ], [ -50.567661499999986, -22.374855699999955 ], [ -50.575585199999978, -22.371943199999976 ], [ -50.581363299999964, -22.368153599999971 ], [ -50.583265599999947, -22.365657599999963 ], [ -50.585001399999953, -22.365767199999937 ], [ -50.585859899999946, -22.364093299999979 ], [ -50.589548, -22.361800699999947 ], [ -50.592272699999967, -22.36420389999995 ], [ -50.602061099999958, -22.36899829999993 ], [ -50.610828799999979, -22.367240899999956 ], [ -50.615150699999958, -22.368356699999936 ], [ -50.627143799999942, -22.367310599999939 ], [ -50.630757799999969, -22.370686899999953 ], [ -50.635004899999956, -22.38275109999995 ], [ -50.641955499999938, -22.394845099999941 ], [ -50.645500199999958, -22.396317599999975 ], [ -50.646434399999976, -22.397785499999941 ], [ -50.653795299999956, -22.402419599999973 ], [ -50.657650899999965, -22.402335099999959 ], [ -50.660735399999965, -22.401306399999953 ], [ -50.666855, -22.401357699999949 ], [ -50.670934799999941, -22.40323559999996 ], [ -50.694197, -22.398848 ], [ -50.694045, -22.396145 ], [ -50.697609, -22.388276 ], [ -50.697127, -22.384796 ], [ -50.693276, -22.379541 ], [ -50.696325, -22.37078 ], [ -50.694168, -22.364674 ], [ -50.691976, -22.364413 ], [ -50.687486, -22.361016 ], [ -50.688179, -22.358274 ], [ -50.688091, -22.350103 ], [ -50.689525, -22.347507 ], [ -50.683565, -22.334758 ], [ -50.682911, -22.330959 ], [ -50.683357, -22.328984 ], [ -50.686114, -22.325522 ], [ -50.689212, -22.323255 ], [ -50.686507, -22.318125 ], [ -50.687451, -22.308608 ], [ -50.684902, -22.305569 ], [ -50.681106, -22.295157 ], [ -50.67399, -22.289648 ], [ -50.67059, -22.288162 ], [ -50.666211, -22.284593 ], [ -50.665401, -22.282808 ], [ -50.664106, -22.287928 ], [ -50.66732, -22.29813 ], [ -50.667791, -22.302959 ], [ -50.667107, -22.303841 ], [ -50.658601, -22.306077 ], [ -50.645551, -22.312279 ], [ -50.63931, -22.310564 ], [ -50.634882, -22.307503 ], [ -50.63024, -22.305641 ] ] ] ] } }
]
}
