{
"type": "FeatureCollection",
"name": "Suzano_Palmeiras de São Paulo",
"crs": { "type": "name", "properties": { "name": "urn:ogc:def:crs:EPSG::4674" } },
"xy_coordinate_resolution": 1e-15,
"features": [
{ "type": "Feature", "properties": { "fid": 963, "NM_REGIAO": "Sudeste", "NM_UF": "São Paulo", "NM_MUN": "Suzano", "NM_DIST": "Palmeiras de São Paulo", "CD_SUBDIST": "35525021500", "ER_REGIAO": "Suzano_Palmeiras de São Paulo", "ER_REGIAO_CIDADE": "Suzano_Palmeiras de São Paulo_Alto Tietê", "USO": "SIM" }, "geometry": { "type": "MultiPolygon", "coordinates": [ [ [ [ -46.331739, -23.696553 ], [ -46.335865, -23.691487 ], [ -46.3373418, -23.6877201 ], [ -46.3374233, -23.6829012 ], [ -46.3367189, -23.6817377 ], [ -46.338486, -23.677881 ], [ -46.344324, -23.67378 ], [ -46.348947, -23.669117 ], [ -46.3485134, -23.6658296 ], [ -46.3457865, -23.6646171 ], [ -46.3453333, -23.6628799 ], [ -46.343315, -23.6608982 ], [ -46.3399606, -23.6591244 ], [ -46.3371252, -23.6551628 ], [ -46.3350393, -23.6544723 ], [ -46.3345385, -23.6533104 ], [ -46.3326323, -23.6522253 ], [ -46.3304913, -23.648962 ], [ -46.3312165, -23.6465247 ], [ -46.329355, -23.6450685 ], [ -46.3293668, -23.6439425 ], [ -46.3281932, -23.6435077 ], [ -46.3283806, -23.6425947 ], [ -46.3239283, -23.6357693 ], [ -46.3218549, -23.6354821 ], [ -46.3200764, -23.631703 ], [ -46.3148468, -23.6287073 ], [ -46.3124114, -23.6262609 ], [ -46.3081082, -23.6263781 ], [ -46.3067349, -23.6251659 ], [ -46.305292, -23.6250634 ], [ -46.3050246, -23.6235765 ], [ -46.3038321, -23.6225447 ], [ -46.3046939, -23.6198937 ], [ -46.3039309, -23.6192434 ], [ -46.3042709, -23.6184384 ], [ -46.3030769, -23.6178184 ], [ -46.3036809, -23.6169204 ], [ -46.3020869, -23.6148074 ], [ -46.3012959, -23.6150854 ], [ -46.3007209, -23.6133564 ], [ -46.2973247, -23.6115089 ], [ -46.29348, -23.599967 ], [ -46.291519, -23.5976602 ], [ -46.289693, -23.5935222 ], [ -46.289794, -23.5914742 ], [ -46.288038, -23.5858932 ], [ -46.289363, -23.5805462 ], [ -46.288891, -23.5720662 ], [ -46.2900689, -23.5699866 ], [ -46.2849831, -23.5659566 ], [ -46.2839743, -23.566743 ], [ -46.284002, -23.568608 ], [ -46.2816925, -23.5703585 ], [ -46.279024, -23.578797 ], [ -46.2681, -23.592244 ], [ -46.265024, -23.600745 ], [ -46.266196, -23.60369 ], [ -46.265144, -23.606378 ], [ -46.263867, -23.607356 ], [ -46.263578, -23.609143 ], [ -46.2590012, -23.6117845 ], [ -46.2603064, -23.6144754 ], [ -46.2618649, -23.6150344 ], [ -46.2621167, -23.6199529 ], [ -46.2614609, -23.6205378 ], [ -46.2636006, -23.6241826 ], [ -46.2635935, -23.6268186 ], [ -46.2646962, -23.6285073 ], [ -46.263451, -23.6307459 ], [ -46.2645265, -23.6308747 ], [ -46.2636807, -23.6313395 ], [ -46.264289, -23.631806 ], [ -46.2623611, -23.6318187 ], [ -46.2626376, -23.6325019 ], [ -46.2613955, -23.6326787 ], [ -46.2591736, -23.6349331 ], [ -46.2595802, -23.6374996 ], [ -46.2576915, -23.639161 ], [ -46.2582265, -23.6395272 ], [ -46.2576936, -23.6405822 ], [ -46.2570522, -23.6401957 ], [ -46.2576432, -23.6419231 ], [ -46.2583775, -23.6418007 ], [ -46.2569933, -23.6451598 ], [ -46.257345, -23.646082 ], [ -46.2557238, -23.6473032 ], [ -46.2543625, -23.6502069 ], [ -46.2545207, -23.6517326 ], [ -46.257943, -23.6564528 ], [ -46.2570613, -23.6570845 ], [ -46.2573928, -23.6596093 ], [ -46.2587122, -23.6599691 ], [ -46.2588958, -23.6614364 ], [ -46.2576532, -23.6625025 ], [ -46.2590259, -23.6663288 ], [ -46.258423, -23.6663813 ], [ -46.258526, -23.66723 ], [ -46.2570603, -23.6668952 ], [ -46.257841, -23.6698186 ], [ -46.2593919, -23.6697372 ], [ -46.259493, -23.670301 ], [ -46.2601622, -23.6694663 ], [ -46.2606673, -23.6700591 ], [ -46.2604928, -23.6735194 ], [ -46.2615364, -23.6735823 ], [ -46.2612417, -23.6740135 ], [ -46.262951, -23.674923 ], [ -46.2626331, -23.6756264 ], [ -46.264565, -23.676612 ], [ -46.267443, -23.683 ], [ -46.266002, -23.684688 ], [ -46.26832, -23.687096 ], [ -46.270745, -23.688835 ], [ -46.277843, -23.690907 ], [ -46.281728, -23.694032 ], [ -46.284006, -23.694621 ], [ -46.286087, -23.6969112 ], [ -46.290828, -23.699054 ], [ -46.297077, -23.703516 ], [ -46.297867, -23.704863 ], [ -46.295194, -23.71091 ], [ -46.29673, -23.715217 ], [ -46.295155, -23.717964 ], [ -46.296867, -23.720929 ], [ -46.297186, -23.72318 ], [ -46.301609, -23.72656 ], [ -46.302048, -23.728767 ], [ -46.306816, -23.731971 ], [ -46.308018, -23.735926 ], [ -46.309773, -23.736955 ], [ -46.312724, -23.740584 ], [ -46.315887, -23.741691 ], [ -46.319828, -23.74447 ], [ -46.32195, -23.744177 ], [ -46.319333, -23.7425 ], [ -46.316958, -23.739671 ], [ -46.317309, -23.736967 ], [ -46.322254, -23.735448 ], [ -46.324362, -23.733222 ], [ -46.324873, -23.730991 ], [ -46.32809, -23.728387 ], [ -46.326636, -23.727676 ], [ -46.327298, -23.725454 ], [ -46.325991, -23.723973 ], [ -46.326602, -23.721845 ], [ -46.32608, -23.717814 ], [ -46.327312, -23.714247 ], [ -46.326057, -23.712905 ], [ -46.326442, -23.710966 ], [ -46.324606, -23.709722 ], [ -46.324662, -23.706001 ], [ -46.323705, -23.704189 ], [ -46.325578, -23.702473 ], [ -46.3284655, -23.7024921 ], [ -46.328662, -23.707387 ], [ -46.3307167, -23.7088721 ], [ -46.3309822, -23.7058351 ], [ -46.332252, -23.7039116 ], [ -46.331739, -23.696553 ] ] ] ] } }
]
}
