{
"type": "FeatureCollection",
"name": "Suzano_Boa Vista Paulista",
"crs": { "type": "name", "properties": { "name": "urn:ogc:def:crs:EPSG::4674" } },
"xy_coordinate_resolution": 1e-15,
"features": [
{ "type": "Feature", "properties": { "fid": 962, "NM_REGIAO": "Sudeste", "NM_UF": "São Paulo", "NM_MUN": "Suzano", "NM_DIST": "Boa Vista Paulista", "CD_SUBDIST": "35525021000", "ER_REGIAO": "Suzano_Boa Vista Paulista", "ER_REGIAO_CIDADE": "Suzano_Boa Vista Paulista_Alto Tietê", "USO": "SIM" }, "geometry": { "type": "MultiPolygon", "coordinates": [ [ [ [ -46.2998818, -23.5204385 ], [ -46.3008651, -23.518529 ], [ -46.3031396, -23.5175096 ], [ -46.3030652, -23.5145477 ], [ -46.3047685, -23.5144736 ], [ -46.3050549, -23.5161544 ], [ -46.3064257, -23.5166298 ], [ -46.308086, -23.5186912 ], [ -46.309059, -23.515892 ], [ -46.3105799, -23.5155132 ], [ -46.311878, -23.5163804 ], [ -46.3102782, -23.5140427 ], [ -46.3121042, -23.5122975 ], [ -46.3128128, -23.5127201 ], [ -46.3123628, -23.5150069 ], [ -46.3142695, -23.5141397 ], [ -46.3158801, -23.5146191 ], [ -46.3162571, -23.5123299 ], [ -46.3187055, -23.5120748 ], [ -46.3186864, -23.510617 ], [ -46.3174078, -23.5104344 ], [ -46.3178194, -23.5090763 ], [ -46.3187402, -23.5091142 ], [ -46.3189988, -23.5101592 ], [ -46.323157, -23.5109671 ], [ -46.323101, -23.513936 ], [ -46.323792, -23.51476 ], [ -46.326488, -23.514841 ], [ -46.3258614, -23.512771 ], [ -46.3243726, -23.511846 ], [ -46.326313, -23.511082 ], [ -46.326151, -23.509443 ], [ -46.3276766, -23.5107627 ], [ -46.32935, -23.507888 ], [ -46.330066, -23.506445 ], [ -46.3295101, -23.5033023 ], [ -46.330569, -23.502177 ], [ -46.330414, -23.500114 ], [ -46.3321343, -23.5011442 ], [ -46.333329, -23.499429 ], [ -46.3338097, -23.5013865 ], [ -46.3343841, -23.5002965 ], [ -46.3360302, -23.5007535 ], [ -46.3358764, -23.4991616 ], [ -46.334313, -23.497399 ], [ -46.335461, -23.495392 ], [ -46.334078, -23.495094 ], [ -46.334251, -23.493336 ], [ -46.332552, -23.494092 ], [ -46.3331335, -23.4919127 ], [ -46.331114, -23.488948 ], [ -46.328532, -23.488615 ], [ -46.3203092, -23.4917671 ], [ -46.3169038, -23.4916566 ], [ -46.3141544, -23.4927808 ], [ -46.3136954, -23.4921081 ], [ -46.31055, -23.492536 ], [ -46.3093064, -23.4916128 ], [ -46.3077459, -23.4926389 ], [ -46.306448, -23.49253 ], [ -46.3057367, -23.4945656 ], [ -46.3039928, -23.495696 ], [ -46.3023548, -23.4951875 ], [ -46.3011746, -23.4961821 ], [ -46.2995247, -23.4956722 ], [ -46.2985752, -23.4963848 ], [ -46.2972425, -23.495214 ], [ -46.2945997, -23.4946341 ], [ -46.2873803, -23.4888726 ], [ -46.2848194, -23.4890626 ], [ -46.2829732, -23.487453 ], [ -46.276617, -23.486713 ], [ -46.2741396, -23.4853257 ], [ -46.2676349, -23.4859048 ], [ -46.2675975, -23.4867077 ], [ -46.265205, -23.488568 ], [ -46.265212, -23.492503 ], [ -46.264152, -23.496392 ], [ -46.265453, -23.500491 ], [ -46.269148, -23.504359 ], [ -46.268085, -23.510368 ], [ -46.269493, -23.512798 ], [ -46.267403, -23.513862 ], [ -46.266103, -23.519685 ], [ -46.262171, -23.524248 ], [ -46.2647272, -23.5319951 ], [ -46.2668832, -23.5294003 ], [ -46.2672801, -23.5307899 ], [ -46.2691106, -23.5310679 ], [ -46.270077, -23.5324428 ], [ -46.2710896, -23.5303697 ], [ -46.2693948, -23.530243 ], [ -46.272442, -23.5291856 ], [ -46.273547, -23.5300301 ], [ -46.2744865, -23.5287988 ], [ -46.2760467, -23.528734 ], [ -46.2753304, -23.5269207 ], [ -46.2769431, -23.5265448 ], [ -46.2783015, -23.5278458 ], [ -46.2782525, -23.5255164 ], [ -46.2804001, -23.5275049 ], [ -46.2832935, -23.5253673 ], [ -46.2833452, -23.5273284 ], [ -46.2849773, -23.5257535 ], [ -46.2858949, -23.5279713 ], [ -46.2885558, -23.5266053 ], [ -46.29172, -23.5278956 ], [ -46.2919264, -23.5268652 ], [ -46.2932155, -23.5264993 ], [ -46.293063, -23.5250481 ], [ -46.2947487, -23.5235498 ], [ -46.2948308, -23.5222315 ], [ -46.2979837, -23.5217103 ], [ -46.2998818, -23.5204385 ] ] ] ] } }
]
}
