{
"type": "FeatureCollection",
"name": "São Paulo_Aricanduva",
"crs": { "type": "name", "properties": { "name": "urn:ogc:def:crs:EPSG::4674" } },
"xy_coordinate_resolution": 1e-15,
"features": [
{ "type": "Feature", "properties": { "fid": 838, "NM_MUN": "São Paulo", "NM_DIST": "Aricanduva", "ER_REGIAO": "São Paulo_Aricanduva", "ER_REGIAO_CIDADE": "São Paulo_Aricanduva" }, "geometry": { "type": "MultiPolygon", "coordinates": [ [ [ [ -46.51625, -23.587192 ], [ -46.520972, -23.584652 ], [ -46.526957, -23.585158 ], [ -46.528115, -23.584336 ], [ -46.525059, -23.579371 ], [ -46.524825, -23.577568 ], [ -46.528713, -23.576029 ], [ -46.533063, -23.573001 ], [ -46.528745, -23.569769 ], [ -46.526389, -23.566322 ], [ -46.523068, -23.563826 ], [ -46.520905, -23.559046 ], [ -46.521541, -23.558422 ], [ -46.517149, -23.555133 ], [ -46.50877, -23.563247 ], [ -46.504543, -23.568842 ], [ -46.504044, -23.573042 ], [ -46.502338, -23.575862 ], [ -46.501777, -23.579604 ], [ -46.504657, -23.584308 ], [ -46.506779, -23.590038 ], [ -46.509795, -23.589224 ], [ -46.513147, -23.58681 ], [ -46.51625, -23.587192 ] ] ] ] } }
]
}
