{
"type": "FeatureCollection",
"name": "São Paulo_Cangaiba",
"crs": { "type": "name", "properties": { "name": "urn:ogc:def:crs:EPSG::4674" } },
"xy_coordinate_resolution": 1e-15,
"features": [
{ "type": "Feature", "properties": { "fid": 852, "NM_REGIAO": "Sudeste", "NM_UF": "São Paulo", "NM_MUN": "São Paulo", "NM_DIST": "Cangaiba", "CD_SUBDIST": "35503081800", "ER_REGIAO": "São Paulo_Cangaiba", "ER_REGIAO_CIDADE": "São Paulo_Cangaiba", "USO": "SIM" }, "geometry": { "type": "MultiPolygon", "coordinates": [ [ [ [ -46.503861, -23.508333 ], [ -46.514534, -23.511216 ], [ -46.520775, -23.51417 ], [ -46.523688, -23.51337 ], [ -46.534267, -23.514753 ], [ -46.540822, -23.513879 ], [ -46.545817, -23.514205 ], [ -46.545798, -23.512395 ], [ -46.54726, -23.509296 ], [ -46.550507, -23.509867 ], [ -46.551094, -23.507035 ], [ -46.545652, -23.505664 ], [ -46.541036, -23.499931 ], [ -46.53576, -23.495959 ], [ -46.533745, -23.493325 ], [ -46.528538, -23.491202 ], [ -46.523007, -23.485095 ], [ -46.52003, -23.484053 ], [ -46.518358, -23.482205 ], [ -46.511097, -23.478792 ], [ -46.499984, -23.477012 ], [ -46.500257, -23.478844 ], [ -46.496711, -23.484403 ], [ -46.498073, -23.485381 ], [ -46.503547, -23.485797 ], [ -46.505602, -23.489026 ], [ -46.498388, -23.491524 ], [ -46.497666, -23.496054 ], [ -46.4938709, -23.4999223 ], [ -46.494339, -23.506703 ], [ -46.499926, -23.50751 ], [ -46.501176, -23.508771 ], [ -46.503861, -23.508333 ] ] ] ] } }
]
}
