{
"type": "FeatureCollection",
"name": "São Paulo_Carrão",
"crs": { "type": "name", "properties": { "name": "urn:ogc:def:crs:EPSG::4674" } },
"xy_coordinate_resolution": 1e-15,
"features": [
{ "type": "Feature", "properties": { "fid": 854, "NM_REGIAO": "Sudeste", "NM_UF": "São Paulo", "NM_MUN": "São Paulo", "NM_DIST": "Carrão", "CD_SUBDIST": "35503082000", "ER_REGIAO": "São Paulo_Carrão", "ER_REGIAO_CIDADE": "São Paulo_Carrão" }, "geometry": { "type": "MultiPolygon", "coordinates": [ [ [ [ -46.540962, -23.560155 ], [ -46.543272, -23.560922 ], [ -46.545483, -23.554853 ], [ -46.545716, -23.55559 ], [ -46.549181, -23.55572 ], [ -46.550377, -23.554445 ], [ -46.552811299999973, -23.556271699999968 ], [ -46.554024899999945, -23.5554 ], [ -46.553830699999935, -23.552764 ], [ -46.558187399999952, -23.536908899999958 ], [ -46.548245, -23.534897 ], [ -46.54649, -23.538116 ], [ -46.539253, -23.541091 ], [ -46.53553, -23.54136 ], [ -46.529701, -23.544528 ], [ -46.524135, -23.549933 ], [ -46.518823, -23.553031 ], [ -46.517149, -23.555133 ], [ -46.521541, -23.558422 ], [ -46.520905, -23.559046 ], [ -46.522888, -23.563574 ], [ -46.52994, -23.570492 ], [ -46.530545, -23.569344 ], [ -46.531524, -23.569787 ], [ -46.532573, -23.566196 ], [ -46.531094, -23.563514 ], [ -46.535564, -23.561191 ], [ -46.535602, -23.561866 ], [ -46.537634, -23.562265 ], [ -46.540612, -23.561659 ], [ -46.540962, -23.560155 ] ] ] ] } }
]
}
