{
"type": "FeatureCollection",
"name": "ER_REGIAO_CIDADE_min_Junqueirópolis_Araçatuba",
"crs": { "type": "name", "properties": { "name": "urn:ogc:def:crs:OGC:1.3:CRS84" } },
"xy_coordinate_resolution": 1e-15,
"features": [
{ "type": "Feature", "properties": { "CNPJ": "28186817000115", "IDCIDADE": "JUNQUEIROPOLIS", "NOMEFANTASIA": "CONFIANCA_MADEIRAS", "RAZAOSOCIAL": "CONFIANCA_MADEIRAS_LTDA.", "ENDEE": "RODOVIA_COMANDANTE_JOAO_RIBEIRO_DE_BARROS0__YAMATO_17890-000", "LATITUDE": "-21.4921451", "LONGITUDE": "-51.4300116", "LMAPS": "https://www.google.com/maps?q=&layer=c&cbll=-51.4300116,-21.4921451", "O_QUE_FAZER": "CARTEIRA", "field_10": null, "field_11": null, "field_12": null, "field_13": null, "ER_REGIAO_CIDADE_min": "Junqueirópolis_Araçatuba" }, "geometry": { "type": "Point", "coordinates": [ -51.4300116, -21.4921451 ] } },
{ "type": "Feature", "properties": { "CNPJ": "13450712000154", "IDCIDADE": "JUNQUEIROPOLIS", "NOMEFANTASIA": "OS_VAQUEIROS", "RAZAOSOCIAL": "RIZZO_CONFECCOES_LTDA", "ENDEE": "RUA_JOSE_AMATRUDA415__DISTRITO_INDUSTRIAL_II_17897-294", "LATITUDE": "-21.4944188", "LONGITUDE": "-51.4291626", "LMAPS": "https://www.google.com/maps?q=&layer=c&cbll=-51.4291626,-21.4944188", "O_QUE_FAZER": "CARTEIRA", "field_10": null, "field_11": null, "field_12": null, "field_13": null, "ER_REGIAO_CIDADE_min": "Junqueirópolis_Araçatuba" }, "geometry": { "type": "Point", "coordinates": [ -51.4291626, -21.4944188 ] } },
{ "type": "Feature", "properties": { "CNPJ": "32566539000107", "IDCIDADE": "JUNQUEIROPOLIS", "NOMEFANTASIA": "SERRALHERIA_RENIMAR", "RAZAOSOCIAL": "NIVIA_MARIA_DA_SILVA_VALERIO_CRUZ_&_CIA_LTDA", "ENDEE": "RUA_JOSE_AMATRUDA345__DISTRITO_INDUSTRIAL_17897-294", "LATITUDE": "-21.4948283", "LONGITUDE": "-51.4287111", "LMAPS": "https://www.google.com/maps?q=&layer=c&cbll=-51.4287111,-21.4948283", "O_QUE_FAZER": "CARTEIRA", "field_10": null, "field_11": null, "field_12": null, "field_13": null, "ER_REGIAO_CIDADE_min": "Junqueirópolis_Araçatuba" }, "geometry": { "type": "Point", "coordinates": [ -51.4287111, -21.4948283 ] } },
{ "type": "Feature", "properties": { "CNPJ": "22417097000175", "IDCIDADE": "JUNQUEIROPOLIS", "NOMEFANTASIA": "CARDANS_ALTA_PAULISTA", "RAZAOSOCIAL": "CARDANS_ALTA_PAULISTA_PECAS_E_SERVICOS_LTDA", "ENDEE": "RUA_JOSE_AMATRUDA343__DISTRITO_INDUSTRIAL_17897-294", "LATITUDE": "-21.4948726", "LONGITUDE": "-51.4287313", "LMAPS": "https://www.google.com/maps?q=&layer=c&cbll=-51.4287313,-21.4948726", "O_QUE_FAZER": "CARTEIRA", "field_10": null, "field_11": null, "field_12": null, "field_13": null, "ER_REGIAO_CIDADE_min": "Junqueirópolis_Araçatuba" }, "geometry": { "type": "Point", "coordinates": [ -51.4287313, -21.4948726 ] } },
{ "type": "Feature", "properties": { "CNPJ": "13599481000145", "IDCIDADE": "JUNQUEIROPOLIS", "NOMEFANTASIA": "MARMORARIA_REVEST", "RAZAOSOCIAL": "MARMORARIA_REVEST_JUNQUEIROPOLIS_LTDA", "ENDEE": "RUA_LUIZ_CHIGNOLLI1380__DISTRITO_INDUSTRIAL_II_17897-282", "LATITUDE": "-21.4950067", "LONGITUDE": "-51.4300067", "LMAPS": "https://www.google.com/maps?q=&layer=c&cbll=-51.4300067,-21.4950067", "O_QUE_FAZER": "CARTEIRA", "field_10": null, "field_11": null, "field_12": null, "field_13": null, "ER_REGIAO_CIDADE_min": "Junqueirópolis_Araçatuba" }, "geometry": { "type": "Point", "coordinates": [ -51.4300067, -21.4950067 ] } },
{ "type": "Feature", "properties": { "CNPJ": "22956871000116", "IDCIDADE": "JUNQUEIROPOLIS", "NOMEFANTASIA": "RR_LOCACOES", "RAZAOSOCIAL": "R_DE_CASTRO_LOCACAO_DE_EQUIPAMENTOS_PARA_CONSTRUCAO_CIVIL", "ENDEE": "RUA_LUIZ_CHIGNOLLI1410__DISTRITO_INDUSTRIAL_II_17897-282", "LATITUDE": "-21.4950483", "LONGITUDE": "-51.4294883", "LMAPS": "https://www.google.com/maps?q=&layer=c&cbll=-51.4294883,-21.4950483", "O_QUE_FAZER": "CARTEIRA", "field_10": null, "field_11": null, "field_12": null, "field_13": null, "ER_REGIAO_CIDADE_min": "Junqueirópolis_Araçatuba" }, "geometry": { "type": "Point", "coordinates": [ -51.4294883, -21.4950483 ] } },
{ "type": "Feature", "properties": { "CNPJ": "40547798000100", "IDCIDADE": "JUNQUEIROPOLIS", "NOMEFANTASIA": "CRIART_CALDERARIA", "RAZAOSOCIAL": "CRIART_CALDEIRARIA_E_SERVICOS_LTDA", "ENDEE": "RUA_JOSE_AMATRUDA155__DISTRITO_INDUSTRIAL_17897-294", "LATITUDE": "-21.4957468", "LONGITUDE": "-51.4280576", "LMAPS": "https://www.google.com/maps?q=&layer=c&cbll=-51.4280576,-21.4957468", "O_QUE_FAZER": "CARTEIRA", "field_10": null, "field_11": null, "field_12": null, "field_13": null, "ER_REGIAO_CIDADE_min": "Junqueirópolis_Araçatuba" }, "geometry": { "type": "Point", "coordinates": [ -51.4280576, -21.4957468 ] } },
{ "type": "Feature", "properties": { "CNPJ": "46830775000195", "IDCIDADE": "JUNQUEIROPOLIS", "NOMEFANTASIA": "RF_DIESEL", "RAZAOSOCIAL": "RF_DIESEL_MECANICA_LTDA", "ENDEE": "RUA_JOSE_AMATRUDA165__DISTRITO_INDUSTRIAL_17897-294", "LATITUDE": "-21.496031", "LONGITUDE": "-51.427742", "LMAPS": "https://www.google.com/maps?q=&layer=c&cbll=-51.427742,-21.496031", "O_QUE_FAZER": "CARTEIRA", "field_10": null, "field_11": null, "field_12": null, "field_13": null, "ER_REGIAO_CIDADE_min": "Junqueirópolis_Araçatuba" }, "geometry": { "type": "Point", "coordinates": [ -51.427742, -21.496031 ] } },
{ "type": "Feature", "properties": { "CNPJ": "07405691000152", "IDCIDADE": "JUNQUEIROPOLIS", "NOMEFANTASIA": "ALAJES_SANTO_ANTONIO", "RAZAOSOCIAL": "LAJES_SANTO_ANTONIO_LTDA", "ENDEE": "RUA_LAERCIO_SACOMANI16__DISTRITO_INDUSTRIAL_II_17897-302", "LATITUDE": "-21.4966782", "LONGITUDE": "-51.4269542", "LMAPS": "https://www.google.com/maps?q=&layer=c&cbll=-51.4269542,-21.4966782", "O_QUE_FAZER": "CARTEIRA", "field_10": null, "field_11": null, "field_12": null, "field_13": null, "ER_REGIAO_CIDADE_min": "Junqueirópolis_Araçatuba" }, "geometry": { "type": "Point", "coordinates": [ -51.4269542, -21.4966782 ] } },
{ "type": "Feature", "properties": { "CNPJ": "45019941000105", "IDCIDADE": "JUNQUEIROPOLIS", "NOMEFANTASIA": "MARMORARIA_ALGAROLI", "RAZAOSOCIAL": "ALGAROLI_MATERIAS_DE_CONSTRUCAO_LTDA", "ENDEE": "AVENIDA_GERALDO_FUDO880__DISTRITO_INDUSTRIAL_I_17897-280", "LATITUDE": "-21.4990682", "LONGITUDE": "-51.4321364", "LMAPS": "https://www.google.com/maps?q=&layer=c&cbll=-51.4321364,-21.4990682", "O_QUE_FAZER": "CARTEIRA", "field_10": null, "field_11": null, "field_12": null, "field_13": null, "ER_REGIAO_CIDADE_min": "Junqueirópolis_Araçatuba" }, "geometry": { "type": "Point", "coordinates": [ -51.4321364, -21.4990682 ] } },
{ "type": "Feature", "properties": { "CNPJ": "08694396000126", "IDCIDADE": "JUNQUEIROPOLIS", "NOMEFANTASIA": "ALMEIDA_TINTAS", "RAZAOSOCIAL": "ALMEIDA_PNEUS_E_HIDRAULICA_LTDA", "ENDEE": "AVENIDA_GERALDO_FUDO520__VILA_SANTA_RUTH_17890-000", "LATITUDE": "-21.5021379", "LONGITUDE": "-51.4337589", "LMAPS": "https://www.google.com/maps?q=&layer=c&cbll=-51.4337589,-21.5021379", "O_QUE_FAZER": "CARTEIRA", "field_10": null, "field_11": null, "field_12": null, "field_13": null, "ER_REGIAO_CIDADE_min": "Junqueirópolis_Araçatuba" }, "geometry": { "type": "Point", "coordinates": [ -51.4337589, -21.5021379 ] } },
{ "type": "Feature", "properties": { "CNPJ": "23663778000186", "IDCIDADE": "JUNQUEIROPOLIS", "NOMEFANTASIA": "DELICATTO", "RAZAOSOCIAL": "J.C.A_COMERCIO_ATACADISTA_E_VAREJISTA_DE_SORVETES_LTDA", "ENDEE": "AVENIDA_GERALDO_FUDO460__CENTRO_17897-280", "LATITUDE": "-21.5027652", "LONGITUDE": "-51.4340046", "LMAPS": "https://www.google.com/maps?q=&layer=c&cbll=-51.4340046,-21.5027652", "O_QUE_FAZER": "CARTEIRA", "field_10": null, "field_11": null, "field_12": null, "field_13": null, "ER_REGIAO_CIDADE_min": "Junqueirópolis_Araçatuba" }, "geometry": { "type": "Point", "coordinates": [ -51.4340046, -21.5027652 ] } },
{ "type": "Feature", "properties": { "CNPJ": "12647682000108", "IDCIDADE": "JUNQUEIROPOLIS", "NOMEFANTASIA": "BATILA_AUTO_PECAS", "RAZAOSOCIAL": "BATILA_AUTO_PECAS_LTDA", "ENDEE": "AVENIDA_GERALDO_FUDO425__CENTRO_17897-280", "LATITUDE": "-21.5030323", "LONGITUDE": "-51.4345149", "LMAPS": "https://www.google.com/maps?q=&layer=c&cbll=-51.4345149,-21.5030323", "O_QUE_FAZER": "CARTEIRA", "field_10": null, "field_11": null, "field_12": null, "field_13": null, "ER_REGIAO_CIDADE_min": "Junqueirópolis_Araçatuba" }, "geometry": { "type": "Point", "coordinates": [ -51.4345149, -21.5030323 ] } },
{ "type": "Feature", "properties": { "CNPJ": "31679637000180", "IDCIDADE": "JUNQUEIROPOLIS", "NOMEFANTASIA": "ACIS_JUNQUEIRA", "RAZAOSOCIAL": "VMS_BATILANA_FERRAGENS_LTDA", "ENDEE": "AVENIDA_GERALDO_FUDO379__CENTRO_17897-280", "LATITUDE": "-21.503264", "LONGITUDE": "-51.4347454", "LMAPS": "https://www.google.com/maps?q=&layer=c&cbll=-51.4347454,-21.503264", "O_QUE_FAZER": "CARTEIRA", "field_10": null, "field_11": null, "field_12": null, "field_13": null, "ER_REGIAO_CIDADE_min": "Junqueirópolis_Araçatuba" }, "geometry": { "type": "Point", "coordinates": [ -51.4347454, -21.503264 ] } },
{ "type": "Feature", "properties": { "CNPJ": "36065162000155", "IDCIDADE": "JUNQUEIROPOLIS", "NOMEFANTASIA": "TOP_VISTORIAS", "RAZAOSOCIAL": "BIROLI_&_GANARANI_JUNQUEIROPOLIS_LTDA", "ENDEE": "AVENIDA_GERALDO_FUDO369__CENTRO_17897-280", "LATITUDE": "-21.5032936", "LONGITUDE": "-51.4347787", "LMAPS": "https://www.google.com/maps?q=&layer=c&cbll=-51.4347787,-21.5032936", "O_QUE_FAZER": "CARTEIRA", "field_10": null, "field_11": null, "field_12": null, "field_13": null, "ER_REGIAO_CIDADE_min": "Junqueirópolis_Araçatuba" }, "geometry": { "type": "Point", "coordinates": [ -51.4347787, -21.5032936 ] } },
{ "type": "Feature", "properties": { "CNPJ": "11811373000169", "IDCIDADE": "JUNQUEIROPOLIS", "NOMEFANTASIA": "AUTO_ELETRICA_SANTA_LUZIZ", "RAZAOSOCIAL": "MAURO_FAUSTINO", "ENDEE": "ESTRADA_VICINAL_JOAO_FURINI241__VILA_SANTA_RUTH_17890-000", "LATITUDE": "-21.5033302", "LONGITUDE": "-51.438067", "LMAPS": "https://www.google.com/maps?q=&layer=c&cbll=-51.438067,-21.5033302", "O_QUE_FAZER": "CARTEIRA", "field_10": null, "field_11": null, "field_12": null, "field_13": null, "ER_REGIAO_CIDADE_min": "Junqueirópolis_Araçatuba" }, "geometry": { "type": "Point", "coordinates": [ -51.438067, -21.5033302 ] } },
{ "type": "Feature", "properties": { "CNPJ": "33866950000152", "IDCIDADE": "JUNQUEIROPOLIS", "NOMEFANTASIA": "FABINHO_PNEUS", "RAZAOSOCIAL": "F._R._DA_SILVA_BEVILAQUA_PNEUS_LTDA", "ENDEE": "ESTRADA_VICINAL_JOAO_FURINI251__VILA_SANTA_RUTH_17890-000", "LATITUDE": "-21.5033954", "LONGITUDE": "-51.4380541", "LMAPS": "https://www.google.com/maps?q=&layer=c&cbll=-51.4380541,-21.5033954", "O_QUE_FAZER": "CARTEIRA", "field_10": null, "field_11": null, "field_12": null, "field_13": null, "ER_REGIAO_CIDADE_min": "Junqueirópolis_Araçatuba" }, "geometry": { "type": "Point", "coordinates": [ -51.4380541, -21.5033954 ] } },
{ "type": "Feature", "properties": { "CNPJ": "15221106000192", "IDCIDADE": "JUNQUEIROPOLIS", "NOMEFANTASIA": "MINI_MERCADO_PIONEIRO", "RAZAOSOCIAL": "RICARDO_R_DE_MORAES_&_CIA_LTDA", "ENDEE": "RUA_CONSTANTINO_MARCOLINO_DE_SOUZA1230__CONJ_HAB_PIONEIROS_17897-038", "LATITUDE": "-21.503729", "LONGITUDE": "-51.4380501", "LMAPS": "https://www.google.com/maps?q=&layer=c&cbll=-51.4380501,-21.503729", "O_QUE_FAZER": "CARTEIRA", "field_10": null, "field_11": null, "field_12": null, "field_13": null, "ER_REGIAO_CIDADE_min": "Junqueirópolis_Araçatuba" }, "geometry": { "type": "Point", "coordinates": [ -51.4380501, -21.503729 ] } },
{ "type": "Feature", "properties": { "CNPJ": "08997271000175", "IDCIDADE": "JUNQUEIROPOLIS", "NOMEFANTASIA": "PODIUM_LUBRIFICANTES", "RAZAOSOCIAL": "PODIUM_LUBRIFICANTES_E_SOLUCOES_LTDA", "ENDEE": "AVENIDA_GERALDO_FUDO325__CENTRO_17897-280", "LATITUDE": "-21.5038127", "LONGITUDE": "-51.4349205", "LMAPS": "https://www.google.com/maps?q=&layer=c&cbll=-51.4349205,-21.5038127", "O_QUE_FAZER": "CARTEIRA", "field_10": null, "field_11": null, "field_12": null, "field_13": null, "ER_REGIAO_CIDADE_min": "Junqueirópolis_Araçatuba" }, "geometry": { "type": "Point", "coordinates": [ -51.4349205, -21.5038127 ] } },
{ "type": "Feature", "properties": { "CNPJ": "96577895000109", "IDCIDADE": "JUNQUEIROPOLIS", "NOMEFANTASIA": "FLEXIBILIDADE_POSTO", "RAZAOSOCIAL": "WILLIAM_ANTONIO_GONCALVES_JUNQUEIROPOLIS", "ENDEE": "AVENIDA_GERALDO_FUDO277__DISTRITO_INDUSTRIAL_17890-000", "LATITUDE": "-21.5041662", "LONGITUDE": "-51.4349069", "LMAPS": "https://www.google.com/maps?q=&layer=c&cbll=-51.4349069,-21.5041662", "O_QUE_FAZER": "CARTEIRA", "field_10": null, "field_11": null, "field_12": null, "field_13": null, "ER_REGIAO_CIDADE_min": "Junqueirópolis_Araçatuba" }, "geometry": { "type": "Point", "coordinates": [ -51.4349069, -21.5041662 ] } },
{ "type": "Feature", "properties": { "CNPJ": "35250601000137", "IDCIDADE": "JUNQUEIROPOLIS", "NOMEFANTASIA": "ROGERIO_VEICULOS", "RAZAOSOCIAL": "ROGERIO_VEICULOS_LTDA", "ENDEE": "AVENIDA_GERALDO_FUDO270__DISTRITO_INDUSTRIAL_17890-000", "LATITUDE": "-21.5043642", "LONGITUDE": "-51.4346554", "LMAPS": "https://www.google.com/maps?q=&layer=c&cbll=-51.4346554,-21.5043642", "O_QUE_FAZER": "CARTEIRA", "field_10": null, "field_11": null, "field_12": null, "field_13": null, "ER_REGIAO_CIDADE_min": "Junqueirópolis_Araçatuba" }, "geometry": { "type": "Point", "coordinates": [ -51.4346554, -21.5043642 ] } },
{ "type": "Feature", "properties": { "CNPJ": "55227483000153", "IDCIDADE": "JUNQUEIROPOLIS", "NOMEFANTASIA": "TIGRO_AUTO_CENTER", "RAZAOSOCIAL": "TIGRAO_AUTO_CENTER_LTDA", "ENDEE": "RUA_PROFESSOR_ANTONIO_GRANEIRO_PORTA322__VILA_SANTA_RUTH_17897-046", "LATITUDE": "-21.5047161", "LONGITUDE": "-51.4325909", "LMAPS": "https://www.google.com/maps?q=&layer=c&cbll=-51.4325909,-21.5047161", "O_QUE_FAZER": "CARTEIRA", "field_10": null, "field_11": null, "field_12": null, "field_13": null, "ER_REGIAO_CIDADE_min": "Junqueirópolis_Araçatuba" }, "geometry": { "type": "Point", "coordinates": [ -51.4325909, -21.5047161 ] } },
{ "type": "Feature", "properties": { "CNPJ": "67856286000182", "IDCIDADE": "JUNQUEIROPOLIS", "NOMEFANTASIA": "SOUZA_GAS", "RAZAOSOCIAL": "EMILIO_CARLOS_NERY_DE_SOUZA_LTDA", "ENDEE": "AVENIDA_GERALDO_FUDO950__DISTRITO_INDUSTRIAL_17890-000", "LATITUDE": "-21.5048809", "LONGITUDE": "-51.4349215", "LMAPS": "https://www.google.com/maps?q=&layer=c&cbll=-51.4349215,-21.5048809", "O_QUE_FAZER": "CARTEIRA", "field_10": null, "field_11": null, "field_12": null, "field_13": null, "ER_REGIAO_CIDADE_min": "Junqueirópolis_Araçatuba" }, "geometry": { "type": "Point", "coordinates": [ -51.4349215, -21.5048809 ] } },
{ "type": "Feature", "properties": { "CNPJ": "10557855000171", "IDCIDADE": "JUNQUEIROPOLIS", "NOMEFANTASIA": "ULTRAGAS", "RAZAOSOCIAL": "SOUZAGAS_COMERCIO_DE_G.L.P._LTDA", "ENDEE": "AVENIDA_GERALDO_FUDO200__DISTRITO_INDUSTRIAL_17890-000", "LATITUDE": "-21.5049052", "LONGITUDE": "-51.4349589", "LMAPS": "https://www.google.com/maps?q=&layer=c&cbll=-51.4349589,-21.5049052", "O_QUE_FAZER": "CARTEIRA", "field_10": null, "field_11": null, "field_12": null, "field_13": null, "ER_REGIAO_CIDADE_min": "Junqueirópolis_Araçatuba" }, "geometry": { "type": "Point", "coordinates": [ -51.4349589, -21.5049052 ] } },
{ "type": "Feature", "properties": { "CNPJ": "49848831000107", "IDCIDADE": "JUNQUEIROPOLIS", "NOMEFANTASIA": "ARMAZEN_HILARIO", "RAZAOSOCIAL": "JOSE_HILARIO_PEREZ", "ENDEE": "AVENIDA_GERALDO_FUDO57__CENTRO_17897-280", "LATITUDE": "-21.5060666", "LONGITUDE": "-51.4357061", "LMAPS": "https://www.google.com/maps?q=&layer=c&cbll=-51.4357061,-21.5060666", "O_QUE_FAZER": "CARTEIRA", "field_10": null, "field_11": null, "field_12": null, "field_13": null, "ER_REGIAO_CIDADE_min": "Junqueirópolis_Araçatuba" }, "geometry": { "type": "Point", "coordinates": [ -51.4357061, -21.5060666 ] } },
{ "type": "Feature", "properties": { "CNPJ": "12268789000145", "IDCIDADE": "JUNQUEIROPOLIS", "NOMEFANTASIA": "VIDRACARIA_JUNQUEIROPOLIS", "RAZAOSOCIAL": "KAWAKAMI_&_MONTRONI_LTDA", "ENDEE": "RUA_CESAR_MONTRONI83__VILA_SANTO_ANTONIO_17890-000", "LATITUDE": "-21.5064189", "LONGITUDE": "-51.4356379", "LMAPS": "https://www.google.com/maps?q=&layer=c&cbll=-51.4356379,-21.5064189", "O_QUE_FAZER": "CARTEIRA", "field_10": null, "field_11": null, "field_12": null, "field_13": null, "ER_REGIAO_CIDADE_min": "Junqueirópolis_Araçatuba" }, "geometry": { "type": "Point", "coordinates": [ -51.4356379, -21.5064189 ] } },
{ "type": "Feature", "properties": { "CNPJ": "36982093000144", "IDCIDADE": "JUNQUEIROPOLIS", "NOMEFANTASIA": "EMPORIO_DOS_PISOS", "RAZAOSOCIAL": "EMPORIO_DOS_PISOS_E_MATERIAIS_PARA_CONSTRUCAO_LTDA", "ENDEE": "AVENIDA_GERALDO_FUDO1120__DISTRITO_INDUSTRIAL_I_17897-280", "LATITUDE": "-21.5069897", "LONGITUDE": "-51.4383701", "LMAPS": "https://www.google.com/maps?q=&layer=c&cbll=-51.4383701,-21.5069897", "O_QUE_FAZER": "CARTEIRA", "field_10": null, "field_11": null, "field_12": null, "field_13": null, "ER_REGIAO_CIDADE_min": "Junqueirópolis_Araçatuba" }, "geometry": { "type": "Point", "coordinates": [ -51.4383701, -21.5069897 ] } },
{ "type": "Feature", "properties": { "CNPJ": "44881621000105", "IDCIDADE": "JUNQUEIROPOLIS", "NOMEFANTASIA": "CASA_DAS_PORTAS", "RAZAOSOCIAL": "SAQUETO_&_SAQUETO_LTDA", "ENDEE": "AVENIDA_SETE_DE_SETEMBRO1242__CENTRO_17890-000", "LATITUDE": "-21.5075278", "LONGITUDE": "-51.4358994", "LMAPS": "https://www.google.com/maps?q=&layer=c&cbll=-51.4358994,-21.5075278", "O_QUE_FAZER": "CARTEIRA", "field_10": null, "field_11": null, "field_12": null, "field_13": null, "ER_REGIAO_CIDADE_min": "Junqueirópolis_Araçatuba" }, "geometry": { "type": "Point", "coordinates": [ -51.4358994, -21.5075278 ] } },
{ "type": "Feature", "properties": { "CNPJ": "04631836000145", "IDCIDADE": "JUNQUEIROPOLIS", "NOMEFANTASIA": "BARBARAS_HOTEL", "RAZAOSOCIAL": "MARCIA_VALCEZI_SILVA-JUNQUEIROPOLIS_LTDA", "ENDEE": "AVENIDA_SETE_DE_SETEMBRO1226__CENTRO_17890-000", "LATITUDE": "-21.5075465", "LONGITUDE": "-51.4356598", "LMAPS": "https://www.google.com/maps?q=&layer=c&cbll=-51.4356598,-21.5075465", "O_QUE_FAZER": "CARTEIRA", "field_10": null, "field_11": null, "field_12": null, "field_13": null, "ER_REGIAO_CIDADE_min": "Junqueirópolis_Araçatuba" }, "geometry": { "type": "Point", "coordinates": [ -51.4356598, -21.5075465 ] } },
{ "type": "Feature", "properties": { "CNPJ": "19679883000136", "IDCIDADE": "JUNQUEIROPOLIS", "NOMEFANTASIA": "EMPORIO_PAULISTA", "RAZAOSOCIAL": "M._O._DA_SILVA_RESTAURANTE_LTDA", "ENDEE": "AVENIDA_SETE_DE_SETEMBRO1206__CENTRO_17890-001", "LATITUDE": "-21.5076936", "LONGITUDE": "-51.4355583", "LMAPS": "https://www.google.com/maps?q=&layer=c&cbll=-51.4355583,-21.5076936", "O_QUE_FAZER": "CARTEIRA", "field_10": null, "field_11": null, "field_12": null, "field_13": null, "ER_REGIAO_CIDADE_min": "Junqueirópolis_Araçatuba" }, "geometry": { "type": "Point", "coordinates": [ -51.4355583, -21.5076936 ] } },
{ "type": "Feature", "properties": { "CNPJ": "49575389000192", "IDCIDADE": "JUNQUEIROPOLIS", "NOMEFANTASIA": "LS_PNEUS", "RAZAOSOCIAL": "LS_COMERCIO_E_SERVICO_AUTOMOTIVO_LTDA", "ENDEE": "AVENIDA_SETE_DE_SETEMBRO1150__CENTRO_17890-000", "LATITUDE": "-21.507785", "LONGITUDE": "-51.435077", "LMAPS": "https://www.google.com/maps?q=&layer=c&cbll=-51.435077,-21.507785", "O_QUE_FAZER": "CARTEIRA", "field_10": null, "field_11": null, "field_12": null, "field_13": null, "ER_REGIAO_CIDADE_min": "Junqueirópolis_Araçatuba" }, "geometry": { "type": "Point", "coordinates": [ -51.435077, -21.507785 ] } },
{ "type": "Feature", "properties": { "CNPJ": "40736260000144", "IDCIDADE": "JUNQUEIROPOLIS", "NOMEFANTASIA": "CARLINHOS_VEICULOS", "RAZAOSOCIAL": "CARLINHOS_COMERCIO_DE_VEICULOS_LTDA", "ENDEE": "AVENIDA_SETE_DE_SETEMBRO1227__CENTRO_17890-001", "LATITUDE": "-21.5078143", "LONGITUDE": "-51.4357003", "LMAPS": "https://www.google.com/maps?q=&layer=c&cbll=-51.4357003,-21.5078143", "O_QUE_FAZER": "CARTEIRA", "field_10": null, "field_11": null, "field_12": null, "field_13": null, "ER_REGIAO_CIDADE_min": "Junqueirópolis_Araçatuba" }, "geometry": { "type": "Point", "coordinates": [ -51.4357003, -21.5078143 ] } },
{ "type": "Feature", "properties": { "CNPJ": "54649744000160", "IDCIDADE": "JUNQUEIROPOLIS", "NOMEFANTASIA": "MARIO_CAR", "RAZAOSOCIAL": "M._F._TREVIZAN_DE_OLIVEIRA_MECANICA_E_ELETRICA_LTDA", "ENDEE": "AVENIDA_SETE_DE_SETEMBRO1146__CENTRO_17890-001", "LATITUDE": "-21.5078505", "LONGITUDE": "-51.4350174", "LMAPS": "https://www.google.com/maps?q=&layer=c&cbll=-51.4350174,-21.5078505", "O_QUE_FAZER": "CARTEIRA", "field_10": null, "field_11": null, "field_12": null, "field_13": null, "ER_REGIAO_CIDADE_min": "Junqueirópolis_Araçatuba" }, "geometry": { "type": "Point", "coordinates": [ -51.4350174, -21.5078505 ] } },
{ "type": "Feature", "properties": { "CNPJ": "32137072000171", "IDCIDADE": "JUNQUEIROPOLIS", "NOMEFANTASIA": "CASTELO_DAS_RACOES", "RAZAOSOCIAL": "JULIANO_ALVES_MALAQUIAS_ALIMENTOS", "ENDEE": "AVENIDA_SETE_DE_SETEMBRO1193__CENTRO_17890-001", "LATITUDE": "-21.5078997", "LONGITUDE": "-51.4354784", "LMAPS": "https://www.google.com/maps?q=&layer=c&cbll=-51.4354784,-21.5078997", "O_QUE_FAZER": "CARTEIRA", "field_10": null, "field_11": null, "field_12": null, "field_13": null, "ER_REGIAO_CIDADE_min": "Junqueirópolis_Araçatuba" }, "geometry": { "type": "Point", "coordinates": [ -51.4354784, -21.5078997 ] } },
{ "type": "Feature", "properties": { "CNPJ": "12396657000107", "IDCIDADE": "JUNQUEIROPOLIS", "NOMEFANTASIA": "MECANICA_COQUEIRO", "RAZAOSOCIAL": "J_D_COQUEIRO_&_CIA_LTDA", "ENDEE": "RUA_MARCONI1038__VILA_SANTO_ANTONIO_17890-066", "LATITUDE": "-21.5079174", "LONGITUDE": "-51.4339215", "LMAPS": "https://www.google.com/maps?q=&layer=c&cbll=-51.4339215,-21.5079174", "O_QUE_FAZER": "CARTEIRA", "field_10": null, "field_11": null, "field_12": null, "field_13": null, "ER_REGIAO_CIDADE_min": "Junqueirópolis_Araçatuba" }, "geometry": { "type": "Point", "coordinates": [ -51.4339215, -21.5079174 ] } },
{ "type": "Feature", "properties": { "CNPJ": "09188193000120", "IDCIDADE": "JUNQUEIROPOLIS", "NOMEFANTASIA": "EDUCATIVA_CFC", "RAZAOSOCIAL": "CENTRO_DE_FORMACAO_DE_CONDUTORES_B_EDUCATIVA_DE_JUNQUEIROPOLIS_LTDA", "ENDEE": "AVENIDA_SETE_DE_SETEMBRO1144__CENTRO_17890-000", "LATITUDE": "-21.5079526", "LONGITUDE": "-51.4348436", "LMAPS": "https://www.google.com/maps?q=&layer=c&cbll=-51.4348436,-21.5079526", "O_QUE_FAZER": "CARTEIRA", "field_10": null, "field_11": null, "field_12": null, "field_13": null, "ER_REGIAO_CIDADE_min": "Junqueirópolis_Araçatuba" }, "geometry": { "type": "Point", "coordinates": [ -51.4348436, -21.5079526 ] } },
{ "type": "Feature", "properties": { "CNPJ": "18088379000107", "IDCIDADE": "JUNQUEIROPOLIS", "NOMEFANTASIA": "SM_DECOR", "RAZAOSOCIAL": "J_MARIN_SAMPAIO_&_CIA_LTDA", "ENDEE": "AVENIDA_SETE_DE_SETEMBRO1121__CENTRO_17890-001", "LATITUDE": "-21.5081208", "LONGITUDE": "-51.4350326", "LMAPS": "https://www.google.com/maps?q=&layer=c&cbll=-51.4350326,-21.5081208", "O_QUE_FAZER": "CARTEIRA", "field_10": null, "field_11": null, "field_12": null, "field_13": null, "ER_REGIAO_CIDADE_min": "Junqueirópolis_Araçatuba" }, "geometry": { "type": "Point", "coordinates": [ -51.4350326, -21.5081208 ] } },
{ "type": "Feature", "properties": { "CNPJ": "18951879000112", "IDCIDADE": "JUNQUEIROPOLIS", "NOMEFANTASIA": "NUMBER_ONE", "RAZAOSOCIAL": "FLAVIO_ANTONIO_ZANETTI", "ENDEE": "AVENIDA_SETE_DE_SETEMBRO1118__CENTRO_17890-001", "LATITUDE": "-21.5081861", "LONGITUDE": "-51.4347416", "LMAPS": "https://www.google.com/maps?q=&layer=c&cbll=-51.4347416,-21.5081861", "O_QUE_FAZER": "CARTEIRA", "field_10": null, "field_11": null, "field_12": null, "field_13": null, "ER_REGIAO_CIDADE_min": "Junqueirópolis_Araçatuba" }, "geometry": { "type": "Point", "coordinates": [ -51.4347416, -21.5081861 ] } },
{ "type": "Feature", "properties": { "CNPJ": "08785287000114", "IDCIDADE": "JUNQUEIROPOLIS", "NOMEFANTASIA": "MINI_MERCADO_UNIAO", "RAZAOSOCIAL": "L_VITTI_PEREIRA_&_CIA_LTDA", "ENDEE": "RUA_CURITIBA1580__CENTRO_17890-005", "LATITUDE": "-21.508234", "LONGITUDE": "-51.4396261", "LMAPS": "https://www.google.com/maps?q=&layer=c&cbll=-51.4396261,-21.508234", "O_QUE_FAZER": "CARTEIRA", "field_10": null, "field_11": null, "field_12": null, "field_13": null, "ER_REGIAO_CIDADE_min": "Junqueirópolis_Araçatuba" }, "geometry": { "type": "Point", "coordinates": [ -51.4396261, -21.508234 ] } },
{ "type": "Feature", "properties": { "CNPJ": "10392044000168", "IDCIDADE": "JUNQUEIROPOLIS", "NOMEFANTASIA": "TOAMOYO_SUPERMERCADO", "RAZAOSOCIAL": "SUPERMERCADO_TAMOYO_FLEX_LTDA", "ENDEE": "AVENIDA_JUNQUEIRA1030__CENTRO_17890-013", "LATITUDE": "-21.5084178", "LONGITUDE": "-51.4449042", "LMAPS": "https://www.google.com/maps?q=&layer=c&cbll=-51.4449042,-21.5084178", "O_QUE_FAZER": "CARTEIRA", "field_10": null, "field_11": null, "field_12": null, "field_13": null, "ER_REGIAO_CIDADE_min": "Junqueirópolis_Araçatuba" }, "geometry": { "type": "Point", "coordinates": [ -51.4449042, -21.5084178 ] } },
{ "type": "Feature", "properties": { "CNPJ": "45489861000113", "IDCIDADE": "JUNQUEIROPOLIS", "NOMEFANTASIA": "CASA_LIBANEZA", "RAZAOSOCIAL": "SEMI_ZOGHEIB_&_CIA_LTDA", "ENDEE": "AVENIDA_JUNQUEIRA911__CENTRO_17890-013", "LATITUDE": "-21.5084178", "LONGITUDE": "-51.4449042", "LMAPS": "https://www.google.com/maps?q=&layer=c&cbll=-51.4449042,-21.5084178", "O_QUE_FAZER": "CARTEIRA", "field_10": null, "field_11": null, "field_12": null, "field_13": null, "ER_REGIAO_CIDADE_min": "Junqueirópolis_Araçatuba" }, "geometry": { "type": "Point", "coordinates": [ -51.4449042, -21.5084178 ] } },
{ "type": "Feature", "properties": { "CNPJ": "09284250000175", "IDCIDADE": "JUNQUEIROPOLIS", "NOMEFANTASIA": "MP_ESPORTES", "RAZAOSOCIAL": "RINALDO_MASSAYUKI_OMOTO_&_CIA._LTDA", "ENDEE": "AVENIDA_JUNQUEIRA978__CENTRO_17890-013", "LATITUDE": "-21.5084178", "LONGITUDE": "-51.4449042", "LMAPS": "https://www.google.com/maps?q=&layer=c&cbll=-51.4449042,-21.5084178", "O_QUE_FAZER": "CARTEIRA", "field_10": null, "field_11": null, "field_12": null, "field_13": null, "ER_REGIAO_CIDADE_min": "Junqueirópolis_Araçatuba" }, "geometry": { "type": "Point", "coordinates": [ -51.4449042, -21.5084178 ] } },
{ "type": "Feature", "properties": { "CNPJ": "05878686000131", "IDCIDADE": "JUNQUEIROPOLIS", "NOMEFANTASIA": "OTICA_PONTUAL", "RAZAOSOCIAL": "M._R._DE_SOUZA_OTICA", "ENDEE": "RUA_RUI_BARBOSA462__CENTRO_17890-035", "LATITUDE": "-21.5084178", "LONGITUDE": "-51.4449042", "LMAPS": "https://www.google.com/maps?q=&layer=c&cbll=-51.4449042,-21.5084178", "O_QUE_FAZER": "CARTEIRA", "field_10": null, "field_11": null, "field_12": null, "field_13": null, "ER_REGIAO_CIDADE_min": "Junqueirópolis_Araçatuba" }, "geometry": { "type": "Point", "coordinates": [ -51.4449042, -21.5084178 ] } },
{ "type": "Feature", "properties": { "CNPJ": "09192908000119", "IDCIDADE": "JUNQUEIROPOLIS", "NOMEFANTASIA": "PONTUAL_SISTEMAS", "RAZAOSOCIAL": "PONTUAL_-_SISTEMAS_DE_INFORMATICA_LTDA", "ENDEE": "RUA_QUINZINHO_DA_CUNHA1050__CENTRO_17890-037", "LATITUDE": "-21.5091303", "LONGITUDE": "-51.4323949", "LMAPS": "https://www.google.com/maps?q=&layer=c&cbll=-51.4323949,-21.5091303", "O_QUE_FAZER": "CARTEIRA", "field_10": null, "field_11": null, "field_12": null, "field_13": null, "ER_REGIAO_CIDADE_min": "Junqueirópolis_Araçatuba" }, "geometry": { "type": "Point", "coordinates": [ -51.4323949, -21.5091303 ] } },
{ "type": "Feature", "properties": { "CNPJ": "01340477000189", "IDCIDADE": "JUNQUEIROPOLIS", "NOMEFANTASIA": "DROGARIA_NOTURNA", "RAZAOSOCIAL": "A._BASSO_DE_SOUZA_LTDA", "ENDEE": "RUA_RUI_BARBOSA945__CENTRO_17890-000", "LATITUDE": "-21.5095764", "LONGITUDE": "-51.4339123", "LMAPS": "https://www.google.com/maps?q=&layer=c&cbll=-51.4339123,-21.5095764", "O_QUE_FAZER": "CARTEIRA", "field_10": null, "field_11": null, "field_12": null, "field_13": null, "ER_REGIAO_CIDADE_min": "Junqueirópolis_Araçatuba" }, "geometry": { "type": "Point", "coordinates": [ -51.4339123, -21.5095764 ] } },
{ "type": "Feature", "properties": { "CNPJ": "07053367000112", "IDCIDADE": "JUNQUEIROPOLIS", "NOMEFANTASIA": "KI_PAO_PANIFICADORA", "RAZAOSOCIAL": "BERNARDETE_M._VIEIRA_DA_SILVA_&_CIA_LTDA", "ENDEE": "RUA_RUI_BARBOSA942__CENTRO_17890-000", "LATITUDE": "-21.5096952", "LONGITUDE": "-51.4337112", "LMAPS": "https://www.google.com/maps?q=&layer=c&cbll=-51.4337112,-21.5096952", "O_QUE_FAZER": "CARTEIRA", "field_10": null, "field_11": null, "field_12": null, "field_13": null, "ER_REGIAO_CIDADE_min": "Junqueirópolis_Araçatuba" }, "geometry": { "type": "Point", "coordinates": [ -51.4337112, -21.5096952 ] } },
{ "type": "Feature", "properties": { "CNPJ": "50723612000180", "IDCIDADE": "JUNQUEIROPOLIS", "NOMEFANTASIA": "BARONE", "RAZAOSOCIAL": "MASSON_COMERCIO_DE_SORVETES_LTDA", "ENDEE": "RUA_RUI_BARBOSA926__CENTRO_17890-000", "LATITUDE": "-21.5097358", "LONGITUDE": "-51.4337461", "LMAPS": "https://www.google.com/maps?q=&layer=c&cbll=-51.4337461,-21.5097358", "O_QUE_FAZER": "CARTEIRA", "field_10": null, "field_11": null, "field_12": null, "field_13": null, "ER_REGIAO_CIDADE_min": "Junqueirópolis_Araçatuba" }, "geometry": { "type": "Point", "coordinates": [ -51.4337461, -21.5097358 ] } },
{ "type": "Feature", "properties": { "CNPJ": "49672291000153", "IDCIDADE": "JUNQUEIROPOLIS", "NOMEFANTASIA": "CREDENCE", "RAZAOSOCIAL": "AROLDO_A_DA_COSTA", "ENDEE": "RUA_RUI_BARBOSA924__CENTRO_17890-000", "LATITUDE": "-21.5097433", "LONGITUDE": "-51.4338035", "LMAPS": "https://www.google.com/maps?q=&layer=c&cbll=-51.4338035,-21.5097433", "O_QUE_FAZER": "CARTEIRA", "field_10": null, "field_11": null, "field_12": null, "field_13": null, "ER_REGIAO_CIDADE_min": "Junqueirópolis_Araçatuba" }, "geometry": { "type": "Point", "coordinates": [ -51.4338035, -21.5097433 ] } },
{ "type": "Feature", "properties": { "CNPJ": "09545462000169", "IDCIDADE": "JUNQUEIROPOLIS", "NOMEFANTASIA": "RANGO_RESTAURANTE", "RAZAOSOCIAL": "P._A._ULIAN_&_CIA_LTDA", "ENDEE": "RUA_SAO_SALVADOR860__CENTRO_17890-009", "LATITUDE": "-21.5098049", "LONGITUDE": "-51.4350596", "LMAPS": "https://www.google.com/maps?q=&layer=c&cbll=-51.4350596,-21.5098049", "O_QUE_FAZER": "CARTEIRA", "field_10": null, "field_11": null, "field_12": null, "field_13": null, "ER_REGIAO_CIDADE_min": "Junqueirópolis_Araçatuba" }, "geometry": { "type": "Point", "coordinates": [ -51.4350596, -21.5098049 ] } },
{ "type": "Feature", "properties": { "CNPJ": "30656345000169", "IDCIDADE": "JUNQUEIROPOLIS", "NOMEFANTASIA": "VIP_CLINICA_VETERINARIA", "RAZAOSOCIAL": "SAWADA_&_FAVINHA_LTDA", "ENDEE": "RUA_BELO_HORIZONTE850__CENTRO_17890-011", "LATITUDE": "-21.5100731", "LONGITUDE": "-51.4337471", "LMAPS": "https://www.google.com/maps?q=&layer=c&cbll=-51.4337471,-21.5100731", "O_QUE_FAZER": "CARTEIRA", "field_10": null, "field_11": null, "field_12": null, "field_13": null, "ER_REGIAO_CIDADE_min": "Junqueirópolis_Araçatuba" }, "geometry": { "type": "Point", "coordinates": [ -51.4337471, -21.5100731 ] } },
{ "type": "Feature", "properties": { "CNPJ": "17080113000147", "IDCIDADE": "JUNQUEIROPOLIS", "NOMEFANTASIA": "GOU_CLINICA_ODONTOLOGIA", "RAZAOSOCIAL": "ODONTOLOGIA_CAVARZAN_LTDA", "ENDEE": "RUA_QUINZINHO_DA_CUNHA930__CENTRO_17890-037", "LATITUDE": "-21.5100731", "LONGITUDE": "-51.4337471", "LMAPS": "https://www.google.com/maps?q=&layer=c&cbll=-51.4337471,-21.5100731", "O_QUE_FAZER": "CARTEIRA", "field_10": null, "field_11": null, "field_12": null, "field_13": null, "ER_REGIAO_CIDADE_min": "Junqueirópolis_Araçatuba" }, "geometry": { "type": "Point", "coordinates": [ -51.4337471, -21.5100731 ] } },
{ "type": "Feature", "properties": { "CNPJ": "73022691000106", "IDCIDADE": "JUNQUEIROPOLIS", "NOMEFANTASIA": "CICLO_BIJE", "RAZAOSOCIAL": "ORIMAR_S_SILVA", "ENDEE": "RUA_RUI_BARBOSA898__CENTRO_17890-035", "LATITUDE": "-21.5100871", "LONGITUDE": "-51.4338494", "LMAPS": "https://www.google.com/maps?q=&layer=c&cbll=-51.4338494,-21.5100871", "O_QUE_FAZER": "CARTEIRA", "field_10": null, "field_11": null, "field_12": null, "field_13": null, "ER_REGIAO_CIDADE_min": "Junqueirópolis_Araçatuba" }, "geometry": { "type": "Point", "coordinates": [ -51.4338494, -21.5100871 ] } },
{ "type": "Feature", "properties": { "CNPJ": "31616500000186", "IDCIDADE": "JUNQUEIROPOLIS", "NOMEFANTASIA": "DUAL_CHIC", "RAZAOSOCIAL": "CINTIA_&_PATRICIA_DUAL_CHICC_LTDA", "ENDEE": "RUA_BELO_HORIZONTE935__CENTRO_17890-011", "LATITUDE": "-21.5101607", "LONGITUDE": "-51.4409662", "LMAPS": "https://www.google.com/maps?q=&layer=c&cbll=-51.4409662,-21.5101607", "O_QUE_FAZER": "CARTEIRA", "field_10": null, "field_11": null, "field_12": null, "field_13": null, "ER_REGIAO_CIDADE_min": "Junqueirópolis_Araçatuba" }, "geometry": { "type": "Point", "coordinates": [ -51.4409662, -21.5101607 ] } },
{ "type": "Feature", "properties": { "CNPJ": "54902694000181", "IDCIDADE": "JUNQUEIROPOLIS", "NOMEFANTASIA": "AROMA_E_SABOR", "RAZAOSOCIAL": "AROMA_E_SABOR_PANIFICADORA_LTDA", "ENDEE": "AVENIDA_JUNQUEIRA857__CENTRO_17890-013", "LATITUDE": "-21.5101607", "LONGITUDE": "-51.4409662", "LMAPS": "https://www.google.com/maps?q=&layer=c&cbll=-51.4409662,-21.5101607", "O_QUE_FAZER": "CARTEIRA", "field_10": null, "field_11": null, "field_12": null, "field_13": null, "ER_REGIAO_CIDADE_min": "Junqueirópolis_Araçatuba" }, "geometry": { "type": "Point", "coordinates": [ -51.4409662, -21.5101607 ] } },
{ "type": "Feature", "properties": { "CNPJ": "10903124000130", "IDCIDADE": "JUNQUEIROPOLIS", "NOMEFANTASIA": "CASA_DE_CARNES_NELORE_1", "RAZAOSOCIAL": "ANTONIO_C._VIEIRA_ACOUGUE", "ENDEE": "RUA_RUI_BARBOSA855__CENTRO_17890-035", "LATITUDE": "-21.5102368", "LONGITUDE": "-51.4341912", "LMAPS": "https://www.google.com/maps?q=&layer=c&cbll=-51.4341912,-21.5102368", "O_QUE_FAZER": "CARTEIRA", "field_10": null, "field_11": null, "field_12": null, "field_13": null, "ER_REGIAO_CIDADE_min": "Junqueirópolis_Araçatuba" }, "geometry": { "type": "Point", "coordinates": [ -51.4341912, -21.5102368 ] } },
{ "type": "Feature", "properties": { "CNPJ": "18129545000168", "IDCIDADE": "JUNQUEIROPOLIS", "NOMEFANTASIA": "PASTELARIA_MAO_NA_MASSA", "RAZAOSOCIAL": "V._A._B._BAPTISTA_LTDA", "ENDEE": "RUA_RUI_BARBOSA839__CENTRO_17890-035", "LATITUDE": "-21.5102758", "LONGITUDE": "-51.4342165", "LMAPS": "https://www.google.com/maps?q=&layer=c&cbll=-51.4342165,-21.5102758", "O_QUE_FAZER": "CARTEIRA", "field_10": null, "field_11": null, "field_12": null, "field_13": null, "ER_REGIAO_CIDADE_min": "Junqueirópolis_Araçatuba" }, "geometry": { "type": "Point", "coordinates": [ -51.4342165, -21.5102758 ] } },
{ "type": "Feature", "properties": { "CNPJ": "03989671000115", "IDCIDADE": "JUNQUEIROPOLIS", "NOMEFANTASIA": "DROGARIA_ORIENTE", "RAZAOSOCIAL": "ALVES_&_OMOTO_LTDA", "ENDEE": "AVENIDA_JUNQUEIRA1012__CENTRO_17890-013", "LATITUDE": "-21.5102949", "LONGITUDE": "-51.4403099", "LMAPS": "https://www.google.com/maps?q=&layer=c&cbll=-51.4403099,-21.5102949", "O_QUE_FAZER": "CARTEIRA", "field_10": null, "field_11": null, "field_12": null, "field_13": null, "ER_REGIAO_CIDADE_min": "Junqueirópolis_Araçatuba" }, "geometry": { "type": "Point", "coordinates": [ -51.4403099, -21.5102949 ] } },
{ "type": "Feature", "properties": { "CNPJ": "14745257000187", "IDCIDADE": "JUNQUEIROPOLIS", "NOMEFANTASIA": "PAT_MODAS", "RAZAOSOCIAL": "P_S_DE_ARAUJO_COMERCIO_DE_ROUPAS_LTDA", "ENDEE": "AVENIDA_JUNQUEIRA927__CENTRO_17890-013", "LATITUDE": "-21.5102949", "LONGITUDE": "-51.4403099", "LMAPS": "https://www.google.com/maps?q=&layer=c&cbll=-51.4403099,-21.5102949", "O_QUE_FAZER": "CARTEIRA", "field_10": null, "field_11": null, "field_12": null, "field_13": null, "ER_REGIAO_CIDADE_min": "Junqueirópolis_Araçatuba" }, "geometry": { "type": "Point", "coordinates": [ -51.4403099, -21.5102949 ] } },
{ "type": "Feature", "properties": { "CNPJ": "72854805000103", "IDCIDADE": "JUNQUEIROPOLIS", "NOMEFANTASIA": "CASA_DE_CARNES_NELORE_2", "RAZAOSOCIAL": "MARIO_CEZAR_VIEIRA_DE_SOUZA_LTDA", "ENDEE": "RUA_RUI_BARBOSA408__CENTRO_17890-035", "LATITUDE": "-21.5102949", "LONGITUDE": "-51.4403099", "LMAPS": "https://www.google.com/maps?q=&layer=c&cbll=-51.4403099,-21.5102949", "O_QUE_FAZER": "CARTEIRA", "field_10": null, "field_11": null, "field_12": null, "field_13": null, "ER_REGIAO_CIDADE_min": "Junqueirópolis_Araçatuba" }, "geometry": { "type": "Point", "coordinates": [ -51.4403099, -21.5102949 ] } },
{ "type": "Feature", "properties": { "CNPJ": "47630951000108", "IDCIDADE": "JUNQUEIROPOLIS", "NOMEFANTASIA": "LETICIA_PSICOLOGA", "RAZAOSOCIAL": "CLINICA_PSICOLOGICA_LETICIA_SANTANA_LTDA", "ENDEE": "RUA_RUI_BARBOSA462__CENTRO_17890-035", "LATITUDE": "-21.5102949", "LONGITUDE": "-51.4403099", "LMAPS": "https://www.google.com/maps?q=&layer=c&cbll=-51.4403099,-21.5102949", "O_QUE_FAZER": "CARTEIRA", "field_10": null, "field_11": null, "field_12": null, "field_13": null, "ER_REGIAO_CIDADE_min": "Junqueirópolis_Araçatuba" }, "geometry": { "type": "Point", "coordinates": [ -51.4403099, -21.5102949 ] } },
{ "type": "Feature", "properties": { "CNPJ": "24701280000123", "IDCIDADE": "JUNQUEIROPOLIS", "NOMEFANTASIA": "PERSONAL_PRIME", "RAZAOSOCIAL": "ACADEMIA_IRMAOS_CARVALHO_LTDA", "ENDEE": "RUA_QUINZINHO_DA_CUNHA470__CENTRO_17890-037", "LATITUDE": "-21.5102949", "LONGITUDE": "-51.4403099", "LMAPS": "https://www.google.com/maps?q=&layer=c&cbll=-51.4403099,-21.5102949", "O_QUE_FAZER": "CARTEIRA", "field_10": null, "field_11": null, "field_12": null, "field_13": null, "ER_REGIAO_CIDADE_min": "Junqueirópolis_Araçatuba" }, "geometry": { "type": "Point", "coordinates": [ -51.4403099, -21.5102949 ] } },
{ "type": "Feature", "properties": { "CNPJ": "08719299000140", "IDCIDADE": "JUNQUEIROPOLIS", "NOMEFANTASIA": "SANTA_ROSA_MAT_CONST,", "RAZAOSOCIAL": "LPJ_MATERIAIS_PARA_CONSTRUCAO_LTDA", "ENDEE": "RUA_RUI_BARBOSA860__CENTRO_17890-035", "LATITUDE": "-21.5103142", "LONGITUDE": "-51.4339622", "LMAPS": "https://www.google.com/maps?q=&layer=c&cbll=-51.4339622,-21.5103142", "O_QUE_FAZER": "CARTEIRA", "field_10": null, "field_11": null, "field_12": null, "field_13": null, "ER_REGIAO_CIDADE_min": "Junqueirópolis_Araçatuba" }, "geometry": { "type": "Point", "coordinates": [ -51.4339622, -21.5103142 ] } },
{ "type": "Feature", "properties": { "CNPJ": "00556734000151", "IDCIDADE": "JUNQUEIROPOLIS", "NOMEFANTASIA": "CENTRO_AGRICOLA_PAULISTA", "RAZAOSOCIAL": "IRMAOS_TREVIZAN_JUNQUEIROPOLIS_LTDA", "ENDEE": "RUA_RUI_BARBOSA821__CENTRO_17890-035", "LATITUDE": "-21.5105683", "LONGITUDE": "-51.434337", "LMAPS": "https://www.google.com/maps?q=&layer=c&cbll=-51.434337,-21.5105683", "O_QUE_FAZER": "CARTEIRA", "field_10": null, "field_11": null, "field_12": null, "field_13": null, "ER_REGIAO_CIDADE_min": "Junqueirópolis_Araçatuba" }, "geometry": { "type": "Point", "coordinates": [ -51.434337, -21.5105683 ] } },
{ "type": "Feature", "properties": { "CNPJ": "52437871000170", "IDCIDADE": "JUNQUEIROPOLIS", "NOMEFANTASIA": "ESCRITORIO_JR", "RAZAOSOCIAL": "J_R_DE_OLIVEIRA_CONTABILIDADE", "ENDEE": "RUA_CURITIBA895__CENTRO_17890-005", "LATITUDE": "-21.5105883", "LONGITUDE": "-51.4336517", "LMAPS": "https://www.google.com/maps?q=&layer=c&cbll=-51.4336517,-21.5105883", "O_QUE_FAZER": "CARTEIRA", "field_10": null, "field_11": null, "field_12": null, "field_13": null, "ER_REGIAO_CIDADE_min": "Junqueirópolis_Araçatuba" }, "geometry": { "type": "Point", "coordinates": [ -51.4336517, -21.5105883 ] } },
{ "type": "Feature", "properties": { "CNPJ": "19129562000168", "IDCIDADE": "JUNQUEIROPOLIS", "NOMEFANTASIA": "FABRICA_DE_SALGADOS", "RAZAOSOCIAL": "ILZANETE_GONCALVES_DE_JESUS", "ENDEE": "RUA_RUI_BARBOSA815__CENTRO_17890-000", "LATITUDE": "-21.5106769", "LONGITUDE": "-51.4343085", "LMAPS": "https://www.google.com/maps?q=&layer=c&cbll=-51.4343085,-21.5106769", "O_QUE_FAZER": "CARTEIRA", "field_10": null, "field_11": null, "field_12": null, "field_13": null, "ER_REGIAO_CIDADE_min": "Junqueirópolis_Araçatuba" }, "geometry": { "type": "Point", "coordinates": [ -51.4343085, -21.5106769 ] } },
{ "type": "Feature", "properties": { "CNPJ": "52212594000106", "IDCIDADE": "JUNQUEIROPOLIS", "NOMEFANTASIA": "CONDE_MOVEIS_E_ELETRO", "RAZAOSOCIAL": "ANTONIA_APARECIDA_PASSINI_CONDE", "ENDEE": "RUA_RUI_BARBOSA820__CENTRO_17890-035", "LATITUDE": "-21.5106876", "LONGITUDE": "-51.4341649", "LMAPS": "https://www.google.com/maps?q=&layer=c&cbll=-51.4341649,-21.5106876", "O_QUE_FAZER": "CARTEIRA", "field_10": null, "field_11": null, "field_12": null, "field_13": null, "ER_REGIAO_CIDADE_min": "Junqueirópolis_Araçatuba" }, "geometry": { "type": "Point", "coordinates": [ -51.4341649, -21.5106876 ] } },
{ "type": "Feature", "properties": { "CNPJ": "22991148000178", "IDCIDADE": "JUNQUEIROPOLIS", "NOMEFANTASIA": "TICA_SUPLEMENTOS", "RAZAOSOCIAL": "C._DA_SILVA_TEIXEIRA_SUPLEMENTOS", "ENDEE": "RUA_RUI_BARBOSA806__CENTRO_17890-035", "LATITUDE": "-21.510871", "LONGITUDE": "-51.4342472", "LMAPS": "https://www.google.com/maps?q=&layer=c&cbll=-51.4342472,-21.510871", "O_QUE_FAZER": "CARTEIRA", "field_10": null, "field_11": null, "field_12": null, "field_13": null, "ER_REGIAO_CIDADE_min": "Junqueirópolis_Araçatuba" }, "geometry": { "type": "Point", "coordinates": [ -51.4342472, -21.510871 ] } },
{ "type": "Feature", "properties": { "CNPJ": "25313557000537", "IDCIDADE": "JUNQUEIROPOLIS", "NOMEFANTASIA": "COZ_JEANS", "RAZAOSOCIAL": "MARIA_CLARA_PALONI_SILVA", "ENDEE": "RUA_RUI_BARBOSA789__CENTRO_17890-035", "LATITUDE": "-21.5110032", "LONGITUDE": "-51.434405", "LMAPS": "https://www.google.com/maps?q=&layer=c&cbll=-51.434405,-21.5110032", "O_QUE_FAZER": "CARTEIRA", "field_10": null, "field_11": null, "field_12": null, "field_13": null, "ER_REGIAO_CIDADE_min": "Junqueirópolis_Araçatuba" }, "geometry": { "type": "Point", "coordinates": [ -51.434405, -21.5110032 ] } },
{ "type": "Feature", "properties": { "CNPJ": "05148157000182", "IDCIDADE": "JUNQUEIROPOLIS", "NOMEFANTASIA": "ESSENCIAL_PHARMA", "RAZAOSOCIAL": "JUSTI,_SILVA_&_CIA.LTDA", "ENDEE": "RUA_RUI_BARBOSA750__CENTRO_17890-035", "LATITUDE": "-21.5112122", "LONGITUDE": "-51.4344024", "LMAPS": "https://www.google.com/maps?q=&layer=c&cbll=-51.4344024,-21.5112122", "O_QUE_FAZER": "CARTEIRA", "field_10": null, "field_11": null, "field_12": null, "field_13": null, "ER_REGIAO_CIDADE_min": "Junqueirópolis_Araçatuba" }, "geometry": { "type": "Point", "coordinates": [ -51.4344024, -21.5112122 ] } },
{ "type": "Feature", "properties": { "CNPJ": "26521844000171", "IDCIDADE": "JUNQUEIROPOLIS", "NOMEFANTASIA": "MERCADO_REAL", "RAZAOSOCIAL": "NASCIMENTO_&_MAROLA_LTDA", "ENDEE": "AVENIDA_SETE_DE_SETEMBRO225__ALTO_DO_CENE_17890-001", "LATITUDE": "-21.5112204", "LONGITUDE": "-51.4267972", "LMAPS": "https://www.google.com/maps?q=&layer=c&cbll=-51.4267972,-21.5112204", "O_QUE_FAZER": "CARTEIRA", "field_10": null, "field_11": null, "field_12": null, "field_13": null, "ER_REGIAO_CIDADE_min": "Junqueirópolis_Araçatuba" }, "geometry": { "type": "Point", "coordinates": [ -51.4267972, -21.5112204 ] } },
{ "type": "Feature", "properties": { "CNPJ": "04929889000147", "IDCIDADE": "JUNQUEIROPOLIS", "NOMEFANTASIA": "BELLA_CALCADOS", "RAZAOSOCIAL": "HERMINIA_DOMINGOS_BRAIT_WOLFF", "ENDEE": "RUA_RUI_BARBOSA726__CENTRO_17890-035", "LATITUDE": "-21.5114199", "LONGITUDE": "-51.4344454", "LMAPS": "https://www.google.com/maps?q=&layer=c&cbll=-51.4344454,-21.5114199", "O_QUE_FAZER": "CARTEIRA", "field_10": null, "field_11": null, "field_12": null, "field_13": null, "ER_REGIAO_CIDADE_min": "Junqueirópolis_Araçatuba" }, "geometry": { "type": "Point", "coordinates": [ -51.4344454, -21.5114199 ] } },
{ "type": "Feature", "properties": { "CNPJ": "03247670000103", "IDCIDADE": "JUNQUEIROPOLIS", "NOMEFANTASIA": "ANJO_MEU", "RAZAOSOCIAL": "EDNA_DUARTE_ALVES", "ENDEE": "RUA_RUI_BARBOSA718__CENTRO_17890-035", "LATITUDE": "-21.5115464", "LONGITUDE": "-51.4344469", "LMAPS": "https://www.google.com/maps?q=&layer=c&cbll=-51.4344469,-21.5115464", "O_QUE_FAZER": "CARTEIRA", "field_10": null, "field_11": null, "field_12": null, "field_13": null, "ER_REGIAO_CIDADE_min": "Junqueirópolis_Araçatuba" }, "geometry": { "type": "Point", "coordinates": [ -51.4344469, -21.5115464 ] } },
{ "type": "Feature", "properties": { "CNPJ": "02456137000180", "IDCIDADE": "JUNQUEIROPOLIS", "NOMEFANTASIA": "XODO_CONFECCOES", "RAZAOSOCIAL": "ROSANGELA_M._PIRATELLI", "ENDEE": "RUA_RUI_BARBOSA708__CENTRO_17890-035", "LATITUDE": "-21.5116338", "LONGITUDE": "-51.434526", "LMAPS": "https://www.google.com/maps?q=&layer=c&cbll=-51.434526,-21.5116338", "O_QUE_FAZER": "CARTEIRA", "field_10": null, "field_11": null, "field_12": null, "field_13": null, "ER_REGIAO_CIDADE_min": "Junqueirópolis_Araçatuba" }, "geometry": { "type": "Point", "coordinates": [ -51.434526, -21.5116338 ] } },
{ "type": "Feature", "properties": { "CNPJ": "53677704000160", "IDCIDADE": "JUNQUEIROPOLIS", "NOMEFANTASIA": "JB_CORTINAS", "RAZAOSOCIAL": "JOSE_LEITE_DOS_SANTOS_JUNQUEIROPOLIS", "ENDEE": "RUA_RUI_BARBOSA692__CENTRO_17890-035", "LATITUDE": "-21.5116487", "LONGITUDE": "-51.4345413", "LMAPS": "https://www.google.com/maps?q=&layer=c&cbll=-51.4345413,-21.5116487", "O_QUE_FAZER": "CARTEIRA", "field_10": null, "field_11": null, "field_12": null, "field_13": null, "ER_REGIAO_CIDADE_min": "Junqueirópolis_Araçatuba" }, "geometry": { "type": "Point", "coordinates": [ -51.4345413, -21.5116487 ] } },
{ "type": "Feature", "properties": { "CNPJ": "54614005000133", "IDCIDADE": "JUNQUEIROPOLIS", "NOMEFANTASIA": "X_INVEST", "RAZAOSOCIAL": "EMPREENDIMENTOS_X_INVEST_LTDA", "ENDEE": "RUA_SAO_SALVADOR1042__CENTRO_17890-009", "LATITUDE": "-21.5116717", "LONGITUDE": "-51.43574", "LMAPS": "https://www.google.com/maps?q=&layer=c&cbll=-51.43574,-21.5116717", "O_QUE_FAZER": "CARTEIRA", "field_10": null, "field_11": null, "field_12": null, "field_13": null, "ER_REGIAO_CIDADE_min": "Junqueirópolis_Araçatuba" }, "geometry": { "type": "Point", "coordinates": [ -51.43574, -21.5116717 ] } },
{ "type": "Feature", "properties": { "CNPJ": "01640753000124", "IDCIDADE": "JUNQUEIROPOLIS", "NOMEFANTASIA": "ESCRITORIO_CONFIANCA", "RAZAOSOCIAL": "CORREIA_&_VALLEZI_LTDA", "ENDEE": "RUA_RUI_BARBOSA661__CENTRO_17890-000", "LATITUDE": "-21.5119136", "LONGITUDE": "-51.4348081", "LMAPS": "https://www.google.com/maps?q=&layer=c&cbll=-51.4348081,-21.5119136", "O_QUE_FAZER": "CARTEIRA", "field_10": null, "field_11": null, "field_12": null, "field_13": null, "ER_REGIAO_CIDADE_min": "Junqueirópolis_Araçatuba" }, "geometry": { "type": "Point", "coordinates": [ -51.4348081, -21.5119136 ] } },
{ "type": "Feature", "properties": { "CNPJ": "57332116000145", "IDCIDADE": "JUNQUEIROPOLIS", "NOMEFANTASIA": "CONFECCOES_ROSA", "RAZAOSOCIAL": "MARIA_ROSA_FERREIRA_MORENO", "ENDEE": "RUA_RUI_BARBOSA658__CENTRO_17890-035", "LATITUDE": "-21.5120028", "LONGITUDE": "-51.4347001", "LMAPS": "https://www.google.com/maps?q=&layer=c&cbll=-51.4347001,-21.5120028", "O_QUE_FAZER": "CARTEIRA", "field_10": null, "field_11": null, "field_12": null, "field_13": null, "ER_REGIAO_CIDADE_min": "Junqueirópolis_Araçatuba" }, "geometry": { "type": "Point", "coordinates": [ -51.4347001, -21.5120028 ] } },
{ "type": "Feature", "properties": { "CNPJ": "04580124000144", "IDCIDADE": "JUNQUEIROPOLIS", "NOMEFANTASIA": "CASA_DE_CARNES_MODELO", "RAZAOSOCIAL": "MARIA_M.O.DA_SILVA_TREVISAN", "ENDEE": "RUA_RUI_BARBOSA657__CENTRO_17890-035", "LATITUDE": "-21.5120102", "LONGITUDE": "-51.4348433", "LMAPS": "https://www.google.com/maps?q=&layer=c&cbll=-51.4348433,-21.5120102", "O_QUE_FAZER": "CARTEIRA", "field_10": null, "field_11": null, "field_12": null, "field_13": null, "ER_REGIAO_CIDADE_min": "Junqueirópolis_Araçatuba" }, "geometry": { "type": "Point", "coordinates": [ -51.4348433, -21.5120102 ] } },
{ "type": "Feature", "properties": { "CNPJ": "55770240000167", "IDCIDADE": "JUNQUEIROPOLIS", "NOMEFANTASIA": "KI_PASTEL_PAPELARIA", "RAZAOSOCIAL": "ALESSANDRO_APARECIDO_PADILHA", "ENDEE": "RUA_RUI_BARBOSA655__CENTRO_17890-035", "LATITUDE": "-21.5120132", "LONGITUDE": "-51.4348516", "LMAPS": "https://www.google.com/maps?q=&layer=c&cbll=-51.4348516,-21.5120132", "O_QUE_FAZER": "CARTEIRA", "field_10": null, "field_11": null, "field_12": null, "field_13": null, "ER_REGIAO_CIDADE_min": "Junqueirópolis_Araçatuba" }, "geometry": { "type": "Point", "coordinates": [ -51.4348516, -21.5120132 ] } },
{ "type": "Feature", "properties": { "CNPJ": "02456165000106", "IDCIDADE": "JUNQUEIROPOLIS", "NOMEFANTASIA": "FUNERARIA_SAO_VICENTES", "RAZAOSOCIAL": "ENEAS_I._DA_SILVA", "ENDEE": "RUA_GENERAL_OSORIO611__CENTRO_17890-033", "LATITUDE": "-21.5120142", "LONGITUDE": "-51.4360528", "LMAPS": "https://www.google.com/maps?q=&layer=c&cbll=-51.4360528,-21.5120142", "O_QUE_FAZER": "CARTEIRA", "field_10": null, "field_11": null, "field_12": null, "field_13": null, "ER_REGIAO_CIDADE_min": "Junqueirópolis_Araçatuba" }, "geometry": { "type": "Point", "coordinates": [ -51.4360528, -21.5120142 ] } },
{ "type": "Feature", "properties": { "CNPJ": "05283798000140", "IDCIDADE": "JUNQUEIROPOLIS", "NOMEFANTASIA": "BANCA_DA_SORTE", "RAZAOSOCIAL": "IVONE_T_SEISDEDOS_MONTEIRO_&_CIA_LTDA", "ENDEE": "RUA_RUI_BARBOSA647__CENTRO_17890-035", "LATITUDE": "-21.512044", "LONGITUDE": "-51.43495", "LMAPS": "https://www.google.com/maps?q=&layer=c&cbll=-51.43495,-21.512044", "O_QUE_FAZER": "CARTEIRA", "field_10": null, "field_11": null, "field_12": null, "field_13": null, "ER_REGIAO_CIDADE_min": "Junqueirópolis_Araçatuba" }, "geometry": { "type": "Point", "coordinates": [ -51.43495, -21.512044 ] } },
{ "type": "Feature", "properties": { "CNPJ": "07477507000180", "IDCIDADE": "JUNQUEIROPOLIS", "NOMEFANTASIA": "PIRATELLI_CALCADOS", "RAZAOSOCIAL": "WILSON_CAETANO_PIRATELLI_&_CIA_LTDA", "ENDEE": "RUA_RUI_BARBOSA643__CENTRO_17890-035", "LATITUDE": "-21.5121617", "LONGITUDE": "-51.4348217", "LMAPS": "https://www.google.com/maps?q=&layer=c&cbll=-51.4348217,-21.5121617", "O_QUE_FAZER": "CARTEIRA", "field_10": null, "field_11": null, "field_12": null, "field_13": null, "ER_REGIAO_CIDADE_min": "Junqueirópolis_Araçatuba" }, "geometry": { "type": "Point", "coordinates": [ -51.4348217, -21.5121617 ] } },
{ "type": "Feature", "properties": { "CNPJ": "44881514000179", "IDCIDADE": "JUNQUEIROPOLIS", "NOMEFANTASIA": "DROGARIA_SANTO_ANTONIO", "RAZAOSOCIAL": "DROGARIA_CIDADE_VERDE_LTDA", "ENDEE": "RUA_RUI_BARBOSA642__CENTRO_17890-035", "LATITUDE": "-21.5121647", "LONGITUDE": "-51.4347778", "LMAPS": "https://www.google.com/maps?q=&layer=c&cbll=-51.4347778,-21.5121647", "O_QUE_FAZER": "CARTEIRA", "field_10": null, "field_11": null, "field_12": null, "field_13": null, "ER_REGIAO_CIDADE_min": "Junqueirópolis_Araçatuba" }, "geometry": { "type": "Point", "coordinates": [ -51.4347778, -21.5121647 ] } },
{ "type": "Feature", "properties": { "CNPJ": "05594278000158", "IDCIDADE": "JUNQUEIROPOLIS", "NOMEFANTASIA": "PREVENCE_CLINICA_VETERINARIA", "RAZAOSOCIAL": "WANDER_PAULO_ESCALIANTE_&_CIA_LTDA", "ENDEE": "RUA_GENERAL_OSORIO586__CENTRO_17890-033", "LATITUDE": "-21.5122679", "LONGITUDE": "-51.4358942", "LMAPS": "https://www.google.com/maps?q=&layer=c&cbll=-51.4358942,-21.5122679", "O_QUE_FAZER": "CARTEIRA", "field_10": null, "field_11": null, "field_12": null, "field_13": null, "ER_REGIAO_CIDADE_min": "Junqueirópolis_Araçatuba" }, "geometry": { "type": "Point", "coordinates": [ -51.4358942, -21.5122679 ] } },
{ "type": "Feature", "properties": { "CNPJ": "22144300000187", "IDCIDADE": "JUNQUEIROPOLIS", "NOMEFANTASIA": "ODONTO_COMPANY", "RAZAOSOCIAL": "CLINICA_ODONTOLOGICA_RN_SORRIA_JUNQUEIROPOLIS_LTDA", "ENDEE": "RUA_SAO_SALVADOR908__CENTRO_17890-009", "LATITUDE": "-21.512341", "LONGITUDE": "-51.4344275", "LMAPS": "https://www.google.com/maps?q=&layer=c&cbll=-51.4344275,-21.512341", "O_QUE_FAZER": "CARTEIRA", "field_10": null, "field_11": null, "field_12": null, "field_13": null, "ER_REGIAO_CIDADE_min": "Junqueirópolis_Araçatuba" }, "geometry": { "type": "Point", "coordinates": [ -51.4344275, -21.512341 ] } },
{ "type": "Feature", "properties": { "CNPJ": "07349230000100", "IDCIDADE": "JUNQUEIROPOLIS", "NOMEFANTASIA": "AQUI_BARATO", "RAZAOSOCIAL": "MEYRY_HELLEN_MAGI_VAZZOLLER_DE_FAVARE", "ENDEE": "RUA_RUI_BARBOSA611__CENTRO_17890-000", "LATITUDE": "-21.5124111", "LONGITUDE": "-51.4350822", "LMAPS": "https://www.google.com/maps?q=&layer=c&cbll=-51.4350822,-21.5124111", "O_QUE_FAZER": "CARTEIRA", "field_10": null, "field_11": null, "field_12": null, "field_13": null, "ER_REGIAO_CIDADE_min": "Junqueirópolis_Araçatuba" }, "geometry": { "type": "Point", "coordinates": [ -51.4350822, -21.5124111 ] } },
{ "type": "Feature", "properties": { "CNPJ": "13401119000118", "IDCIDADE": "JUNQUEIROPOLIS", "NOMEFANTASIA": "BIOFLORA_MA_IPULACAO", "RAZAOSOCIAL": "BIO_FLORA_JUNQUEIROPOLIS_LTDA", "ENDEE": "RUA_RUI_BARBOSA610__CENTRO_17890-035", "LATITUDE": "-21.5124304", "LONGITUDE": "-51.4349728", "LMAPS": "https://www.google.com/maps?q=&layer=c&cbll=-51.4349728,-21.5124304", "O_QUE_FAZER": "CARTEIRA", "field_10": null, "field_11": null, "field_12": null, "field_13": null, "ER_REGIAO_CIDADE_min": "Junqueirópolis_Araçatuba" }, "geometry": { "type": "Point", "coordinates": [ -51.4349728, -21.5124304 ] } },
{ "type": "Feature", "properties": { "CNPJ": "08300480000118", "IDCIDADE": "JUNQUEIROPOLIS", "NOMEFANTASIA": "IMPERIO_CALCADOZ", "RAZAOSOCIAL": "IMPERIO_CALCADOS_E_ACESSORIOS_LTDA", "ENDEE": "RUA_RUI_BARBOSA604__CENTRO_17890-035", "LATITUDE": "-21.5124958", "LONGITUDE": "-51.4349667", "LMAPS": "https://www.google.com/maps?q=&layer=c&cbll=-51.4349667,-21.5124958", "O_QUE_FAZER": "CARTEIRA", "field_10": null, "field_11": null, "field_12": null, "field_13": null, "ER_REGIAO_CIDADE_min": "Junqueirópolis_Araçatuba" }, "geometry": { "type": "Point", "coordinates": [ -51.4349667, -21.5124958 ] } },
{ "type": "Feature", "properties": { "CNPJ": "49848385000130", "IDCIDADE": "JUNQUEIROPOLIS", "NOMEFANTASIA": "OTICA_E_RELOJOARIA_JUNQUEIROPOLIS", "RAZAOSOCIAL": "CARINA_P._B._ROSSI_LTDA", "ENDEE": "RUA_RUI_BARBOSA594__CENTRO_17890-035", "LATITUDE": "-21.5125067", "LONGITUDE": "-51.4349617", "LMAPS": "https://www.google.com/maps?q=&layer=c&cbll=-51.4349617,-21.5125067", "O_QUE_FAZER": "CARTEIRA", "field_10": null, "field_11": null, "field_12": null, "field_13": null, "ER_REGIAO_CIDADE_min": "Junqueirópolis_Araçatuba" }, "geometry": { "type": "Point", "coordinates": [ -51.4349617, -21.5125067 ] } },
{ "type": "Feature", "properties": { "CNPJ": "45831691000103", "IDCIDADE": "JUNQUEIROPOLIS", "NOMEFANTASIA": "PORTAL_CALCADOS", "RAZAOSOCIAL": "J._MORENO_PIRATELLI_LTDA", "ENDEE": "RUA_RUI_BARBOSA585__CENTRO_17890-035", "LATITUDE": "-21.5125873", "LONGITUDE": "-51.4351784", "LMAPS": "https://www.google.com/maps?q=&layer=c&cbll=-51.4351784,-21.5125873", "O_QUE_FAZER": "CARTEIRA", "field_10": null, "field_11": null, "field_12": null, "field_13": null, "ER_REGIAO_CIDADE_min": "Junqueirópolis_Araçatuba" }, "geometry": { "type": "Point", "coordinates": [ -51.4351784, -21.5125873 ] } },
{ "type": "Feature", "properties": { "CNPJ": "49845019000128", "IDCIDADE": "JUNQUEIROPOLIS", "NOMEFANTASIA": "DROGARIA_POPULAR", "RAZAOSOCIAL": "DROGARIA_JUNQUEIROPOLIS_LTDA", "ENDEE": "RUA_RUI_BARBOSA566__CENTRO_17890-035", "LATITUDE": "-21.5126718", "LONGITUDE": "-51.4349235", "LMAPS": "https://www.google.com/maps?q=&layer=c&cbll=-51.4349235,-21.5126718", "O_QUE_FAZER": "CARTEIRA", "field_10": null, "field_11": null, "field_12": null, "field_13": null, "ER_REGIAO_CIDADE_min": "Junqueirópolis_Araçatuba" }, "geometry": { "type": "Point", "coordinates": [ -51.4349235, -21.5126718 ] } },
{ "type": "Feature", "properties": { "CNPJ": "25053787000180", "IDCIDADE": "JUNQUEIROPOLIS", "NOMEFANTASIA": "DRESS", "RAZAOSOCIAL": "TERESINHA_DE_LOURDES_F._REGODANSO_LTDA", "ENDEE": "RUA_RUI_BARBOSA581__CENTRO_17890-035", "LATITUDE": "-21.512676", "LONGITUDE": "-51.4351921", "LMAPS": "https://www.google.com/maps?q=&layer=c&cbll=-51.4351921,-21.512676", "O_QUE_FAZER": "CARTEIRA", "field_10": null, "field_11": null, "field_12": null, "field_13": null, "ER_REGIAO_CIDADE_min": "Junqueirópolis_Araçatuba" }, "geometry": { "type": "Point", "coordinates": [ -51.4351921, -21.512676 ] } },
{ "type": "Feature", "properties": { "CNPJ": "14951168000197", "IDCIDADE": "JUNQUEIROPOLIS", "NOMEFANTASIA": "CASA_RACAO_TORQUATO", "RAZAOSOCIAL": "MARCOS_TORQUATO_DE_SOUZA", "ENDEE": "AVENIDA_RUI_BARBOSA549__CENTRO_17890-035", "LATITUDE": "-21.5127789", "LONGITUDE": "-51.4352851", "LMAPS": "https://www.google.com/maps?q=&layer=c&cbll=-51.4352851,-21.5127789", "O_QUE_FAZER": "CARTEIRA", "field_10": null, "field_11": null, "field_12": null, "field_13": null, "ER_REGIAO_CIDADE_min": "Junqueirópolis_Araçatuba" }, "geometry": { "type": "Point", "coordinates": [ -51.4352851, -21.5127789 ] } },
{ "type": "Feature", "properties": { "CNPJ": "42272887000117", "IDCIDADE": "JUNQUEIROPOLIS", "NOMEFANTASIA": "KALIM_PROD._LIMPEZA", "RAZAOSOCIAL": "RPM_JUNQUEIRA_PRODUTOS_DE_LIMPEZA_E_JARDINAGEM_LTDA", "ENDEE": "AVENIDA_JUNQUEIRA1254__CENTRO_17890-013", "LATITUDE": "-21.5127832", "LONGITUDE": "-51.438337", "LMAPS": "https://www.google.com/maps?q=&layer=c&cbll=-51.438337,-21.5127832", "O_QUE_FAZER": "CARTEIRA", "field_10": null, "field_11": null, "field_12": null, "field_13": null, "ER_REGIAO_CIDADE_min": "Junqueirópolis_Araçatuba" }, "geometry": { "type": "Point", "coordinates": [ -51.438337, -21.5127832 ] } },
{ "type": "Feature", "properties": { "CNPJ": "38349249000180", "IDCIDADE": "JUNQUEIROPOLIS", "NOMEFANTASIA": "PADARIAPAO_NA_CHAPA", "RAZAOSOCIAL": "PADARIA_E_DOCERIA_PAO_NA_CHAPA_LTDA", "ENDEE": "RUA_BELO_HORIZONTE1043__CENTRO_17890-011", "LATITUDE": "-21.5128183", "LONGITUDE": "-51.4363019", "LMAPS": "https://www.google.com/maps?q=&layer=c&cbll=-51.4363019,-21.5128183", "O_QUE_FAZER": "CARTEIRA", "field_10": null, "field_11": null, "field_12": null, "field_13": null, "ER_REGIAO_CIDADE_min": "Junqueirópolis_Araçatuba" }, "geometry": { "type": "Point", "coordinates": [ -51.4363019, -21.5128183 ] } },
{ "type": "Feature", "properties": { "CNPJ": "60087475000199", "IDCIDADE": "JUNQUEIROPOLIS", "NOMEFANTASIA": "A_IDEAL_MODAS", "RAZAOSOCIAL": "ELVIO_JOSE_DA_SILVA_JUNQUEIROPOLIS", "ENDEE": "RUA_RUI_BARBOSA550__CENTRO_17890-035", "LATITUDE": "-21.5128279", "LONGITUDE": "-51.4350264", "LMAPS": "https://www.google.com/maps?q=&layer=c&cbll=-51.4350264,-21.5128279", "O_QUE_FAZER": "CARTEIRA", "field_10": null, "field_11": null, "field_12": null, "field_13": null, "ER_REGIAO_CIDADE_min": "Junqueirópolis_Araçatuba" }, "geometry": { "type": "Point", "coordinates": [ -51.4350264, -21.5128279 ] } },
{ "type": "Feature", "properties": { "CNPJ": "06169758000134", "IDCIDADE": "JUNQUEIROPOLIS", "NOMEFANTASIA": "LOJA_DOS_RETALHOS", "RAZAOSOCIAL": "ADRIANO_TASSONI_ANTONIO", "ENDEE": "RUA_RUI_BARBOSA537__CENTRO_17890-035", "LATITUDE": "-21.5128771", "LONGITUDE": "-51.4356364", "LMAPS": "https://www.google.com/maps?q=&layer=c&cbll=-51.4356364,-21.5128771", "O_QUE_FAZER": "CARTEIRA", "field_10": null, "field_11": null, "field_12": null, "field_13": null, "ER_REGIAO_CIDADE_min": "Junqueirópolis_Araçatuba" }, "geometry": { "type": "Point", "coordinates": [ -51.4356364, -21.5128771 ] } },
{ "type": "Feature", "properties": { "CNPJ": "05897122000146", "IDCIDADE": "JUNQUEIROPOLIS", "NOMEFANTASIA": "FACE_NOVA_TEEN", "RAZAOSOCIAL": "FACE_NOVA_TEEN_LTDA", "ENDEE": "RUA_RUI_BARBOSA543__CENTRO_17890-035", "LATITUDE": "-21.5128833", "LONGITUDE": "-51.4351133", "LMAPS": "https://www.google.com/maps?q=&layer=c&cbll=-51.4351133,-21.5128833", "O_QUE_FAZER": "CARTEIRA", "field_10": null, "field_11": null, "field_12": null, "field_13": null, "ER_REGIAO_CIDADE_min": "Junqueirópolis_Araçatuba" }, "geometry": { "type": "Point", "coordinates": [ -51.4351133, -21.5128833 ] } },
{ "type": "Feature", "properties": { "CNPJ": "30031589000156", "IDCIDADE": "JUNQUEIROPOLIS", "NOMEFANTASIA": "BK", "RAZAOSOCIAL": "BEKA_COMERCIO_DE_ARTIGOS_DO_VESTUARIO_LTDA", "ENDEE": "RUA_BELO_HORIZONTE1039__CENTRO_17890-011", "LATITUDE": "-21.5128869", "LONGITUDE": "-51.4362566", "LMAPS": "https://www.google.com/maps?q=&layer=c&cbll=-51.4362566,-21.5128869", "O_QUE_FAZER": "CARTEIRA", "field_10": null, "field_11": null, "field_12": null, "field_13": null, "ER_REGIAO_CIDADE_min": "Junqueirópolis_Araçatuba" }, "geometry": { "type": "Point", "coordinates": [ -51.4362566, -21.5128869 ] } },
{ "type": "Feature", "properties": { "CNPJ": "17853463000107", "IDCIDADE": "JUNQUEIROPOLIS", "NOMEFANTASIA": "BOTEKO", "RAZAOSOCIAL": "D_MARTINS_PINTO_LANCHONETE", "ENDEE": "RUA_RUI_BARBOSA550__CENTRO_17890-035", "LATITUDE": "-21.512887", "LONGITUDE": "-51.4350611", "LMAPS": "https://www.google.com/maps?q=&layer=c&cbll=-51.4350611,-21.512887", "O_QUE_FAZER": "CARTEIRA", "field_10": null, "field_11": null, "field_12": null, "field_13": null, "ER_REGIAO_CIDADE_min": "Junqueirópolis_Araçatuba" }, "geometry": { "type": "Point", "coordinates": [ -51.4350611, -21.512887 ] } },
{ "type": "Feature", "properties": { "CNPJ": "11675705000125", "IDCIDADE": "JUNQUEIROPOLIS", "NOMEFANTASIA": "FACE_NOVVA", "RAZAOSOCIAL": "ROMEIRO_E_ROMEIRO_COMERCIO_DO_VESTUARIO_LTDA", "ENDEE": "RUA_RUI_BARBOSA548__CENTRO_17890-000", "LATITUDE": "-21.5129552", "LONGITUDE": "-51.4351105", "LMAPS": "https://www.google.com/maps?q=&layer=c&cbll=-51.4351105,-21.5129552", "O_QUE_FAZER": "CARTEIRA", "field_10": null, "field_11": null, "field_12": null, "field_13": null, "ER_REGIAO_CIDADE_min": "Junqueirópolis_Araçatuba" }, "geometry": { "type": "Point", "coordinates": [ -51.4351105, -21.5129552 ] } },
{ "type": "Feature", "properties": { "CNPJ": "09413267000185", "IDCIDADE": "JUNQUEIROPOLIS", "NOMEFANTASIA": "EXCLUSIVA_MODA_INTIMA", "RAZAOSOCIAL": "MARA_SIMONE_NORBIATTO_TAKANO", "ENDEE": "RUA_RUI_BARBOSA503__CENTRO_17890-035", "LATITUDE": "-21.5132551", "LONGITUDE": "-51.4354916", "LMAPS": "https://www.google.com/maps?q=&layer=c&cbll=-51.4354916,-21.5132551", "O_QUE_FAZER": "CARTEIRA", "field_10": null, "field_11": null, "field_12": null, "field_13": null, "ER_REGIAO_CIDADE_min": "Junqueirópolis_Araçatuba" }, "geometry": { "type": "Point", "coordinates": [ -51.4354916, -21.5132551 ] } },
{ "type": "Feature", "properties": { "CNPJ": "48804611000119", "IDCIDADE": "JUNQUEIROPOLIS", "NOMEFANTASIA": "FARMACIA_SAO_PAULO", "RAZAOSOCIAL": "MARQUETI_&_JUSTI_LTDA", "ENDEE": "RUA_RUI_BARBOSA517__CENTRO_17890-000", "LATITUDE": "-21.5132792", "LONGITUDE": "-51.4355109", "LMAPS": "https://www.google.com/maps?q=&layer=c&cbll=-51.4355109,-21.5132792", "O_QUE_FAZER": "CARTEIRA", "field_10": null, "field_11": null, "field_12": null, "field_13": null, "ER_REGIAO_CIDADE_min": "Junqueirópolis_Araçatuba" }, "geometry": { "type": "Point", "coordinates": [ -51.4355109, -21.5132792 ] } },
{ "type": "Feature", "properties": { "CNPJ": "60693595000130", "IDCIDADE": "JUNQUEIROPOLIS", "NOMEFANTASIA": "OTIMA_RELOJOARIA_CYMA", "RAZAOSOCIAL": "ELCIO_T_KAWASAKI_&_CIA_LTDA", "ENDEE": "RUA_RUI_BARBOSA504__CENTRO_17890-035", "LATITUDE": "-21.5132804", "LONGITUDE": "-51.4352642", "LMAPS": "https://www.google.com/maps?q=&layer=c&cbll=-51.4352642,-21.5132804", "O_QUE_FAZER": "CARTEIRA", "field_10": null, "field_11": null, "field_12": null, "field_13": null, "ER_REGIAO_CIDADE_min": "Junqueirópolis_Araçatuba" }, "geometry": { "type": "Point", "coordinates": [ -51.4352642, -21.5132804 ] } },
{ "type": "Feature", "properties": { "CNPJ": "01563698000116", "IDCIDADE": "JUNQUEIROPOLIS", "NOMEFANTASIA": "FLORICULTURA_BOTANICA", "RAZAOSOCIAL": "NICEIA_FEITOSA_DE_ARAUJO_JUNQUEIROPOLIS", "ENDEE": "RUA_RUI_BARBOSA497__CENTRO_17890-000", "LATITUDE": "-21.5133098", "LONGITUDE": "-51.4355361", "LMAPS": "https://www.google.com/maps?q=&layer=c&cbll=-51.4355361,-21.5133098", "O_QUE_FAZER": "CARTEIRA", "field_10": null, "field_11": null, "field_12": null, "field_13": null, "ER_REGIAO_CIDADE_min": "Junqueirópolis_Araçatuba" }, "geometry": { "type": "Point", "coordinates": [ -51.4355361, -21.5133098 ] } },
{ "type": "Feature", "properties": { "CNPJ": "13952554000130", "IDCIDADE": "JUNQUEIROPOLIS", "NOMEFANTASIA": "PINGO_DE_GENTE", "RAZAOSOCIAL": "IVONE_T_S_MONTEIRO_&_CIA_LTDA", "ENDEE": "RUA_RUI_BARBOSA493__CENTRO_17890-000", "LATITUDE": "-21.5133547", "LONGITUDE": "-51.4355561", "LMAPS": "https://www.google.com/maps?q=&layer=c&cbll=-51.4355561,-21.5133547", "O_QUE_FAZER": "CARTEIRA", "field_10": null, "field_11": null, "field_12": null, "field_13": null, "ER_REGIAO_CIDADE_min": "Junqueirópolis_Araçatuba" }, "geometry": { "type": "Point", "coordinates": [ -51.4355561, -21.5133547 ] } },
{ "type": "Feature", "properties": { "CNPJ": "30529371000126", "IDCIDADE": "JUNQUEIROPOLIS", "NOMEFANTASIA": "ATACADO_DO_LIRIO", "RAZAOSOCIAL": "LIRIO_CONFECCOES_LTDA", "ENDEE": "RUA_RUI_BARBOSA480__CENTRO_17890-000", "LATITUDE": "-21.5134167", "LONGITUDE": "-51.4353422", "LMAPS": "https://www.google.com/maps?q=&layer=c&cbll=-51.4353422,-21.5134167", "O_QUE_FAZER": "CARTEIRA", "field_10": null, "field_11": null, "field_12": null, "field_13": null, "ER_REGIAO_CIDADE_min": "Junqueirópolis_Araçatuba" }, "geometry": { "type": "Point", "coordinates": [ -51.4353422, -21.5134167 ] } },
{ "type": "Feature", "properties": { "CNPJ": "62111141000139", "IDCIDADE": "JUNQUEIROPOLIS", "NOMEFANTASIA": "CHARME_MODAS", "RAZAOSOCIAL": "CARDOSO_&_BUZZO_LTDA", "ENDEE": "RUA_RUI_BARBOSA490__CENTRO_17890-035", "LATITUDE": "-21.5134366", "LONGITUDE": "-51.4352346", "LMAPS": "https://www.google.com/maps?q=&layer=c&cbll=-51.4352346,-21.5134366", "O_QUE_FAZER": "CARTEIRA", "field_10": null, "field_11": null, "field_12": null, "field_13": null, "ER_REGIAO_CIDADE_min": "Junqueirópolis_Araçatuba" }, "geometry": { "type": "Point", "coordinates": [ -51.4352346, -21.5134366 ] } },
{ "type": "Feature", "properties": { "CNPJ": "07267157000127", "IDCIDADE": "JUNQUEIROPOLIS", "NOMEFANTASIA": "A_LIBANESA_PRESIDENTE", "RAZAOSOCIAL": "L_C_ZOGHEIB_&_CIA_LTDA", "ENDEE": "RUA_RUI_BARBOSA472__CENTRO_17890-035", "LATITUDE": "-21.5136042", "LONGITUDE": "-51.43511", "LMAPS": "https://www.google.com/maps?q=&layer=c&cbll=-51.43511,-21.5136042", "O_QUE_FAZER": "CARTEIRA", "field_10": null, "field_11": null, "field_12": null, "field_13": null, "ER_REGIAO_CIDADE_min": "Junqueirópolis_Araçatuba" }, "geometry": { "type": "Point", "coordinates": [ -51.43511, -21.5136042 ] } },
{ "type": "Feature", "properties": { "CNPJ": "06188492000177", "IDCIDADE": "JUNQUEIROPOLIS", "NOMEFANTASIA": "FONECEL", "RAZAOSOCIAL": "FONECEL_LTDA", "ENDEE": "RUA_GENERAL_OSORIO401__CENTRO_17890-033", "LATITUDE": "-21.5137019", "LONGITUDE": "-51.436763", "LMAPS": "https://www.google.com/maps?q=&layer=c&cbll=-51.436763,-21.5137019", "O_QUE_FAZER": "CARTEIRA", "field_10": null, "field_11": null, "field_12": null, "field_13": null, "ER_REGIAO_CIDADE_min": "Junqueirópolis_Araçatuba" }, "geometry": { "type": "Point", "coordinates": [ -51.436763, -21.5137019 ] } },
{ "type": "Feature", "properties": { "CNPJ": "52821933000143", "IDCIDADE": "JUNQUEIROPOLIS", "NOMEFANTASIA": "FASHION_STORE", "RAZAOSOCIAL": "ANDRESSA_E_ELIANE_FASHION_STORE_LTDA", "ENDEE": "AVENIDA_JUNQUEIRA1045__CENTRO_17890-013", "LATITUDE": "-21.5138068", "LONGITUDE": "-51.4365679", "LMAPS": "https://www.google.com/maps?q=&layer=c&cbll=-51.4365679,-21.5138068", "O_QUE_FAZER": "CARTEIRA", "field_10": null, "field_11": null, "field_12": null, "field_13": null, "ER_REGIAO_CIDADE_min": "Junqueirópolis_Araçatuba" }, "geometry": { "type": "Point", "coordinates": [ -51.4365679, -21.5138068 ] } },
{ "type": "Feature", "properties": { "CNPJ": "52868605000100", "IDCIDADE": "JUNQUEIROPOLIS", "NOMEFANTASIA": "EMPORIO_RIBEIRO_LEITE", "RAZAOSOCIAL": "ROSANGELA_ANGELICA_RIBEIRO_LEITE", "ENDEE": "AVENIDA_JUNQUEIRA1035__CENTRO_17890-013", "LATITUDE": "-21.5138503", "LONGITUDE": "-51.4364559", "LMAPS": "https://www.google.com/maps?q=&layer=c&cbll=-51.4364559,-21.5138503", "O_QUE_FAZER": "CARTEIRA", "field_10": null, "field_11": null, "field_12": null, "field_13": null, "ER_REGIAO_CIDADE_min": "Junqueirópolis_Araçatuba" }, "geometry": { "type": "Point", "coordinates": [ -51.4364559, -21.5138503 ] } },
{ "type": "Feature", "properties": { "CNPJ": "07432684000140", "IDCIDADE": "JUNQUEIROPOLIS", "NOMEFANTASIA": "AGRO_PICCININI", "RAZAOSOCIAL": "JORGE_AILTON_PICCININI_&_CIA_LTDA", "ENDEE": "AVENIDA_JUNQUEIRA1015__CENTRO_17890-013", "LATITUDE": "-21.513883", "LONGITUDE": "-51.4362921", "LMAPS": "https://www.google.com/maps?q=&layer=c&cbll=-51.4362921,-21.513883", "O_QUE_FAZER": "CARTEIRA", "field_10": null, "field_11": null, "field_12": null, "field_13": null, "ER_REGIAO_CIDADE_min": "Junqueirópolis_Araçatuba" }, "geometry": { "type": "Point", "coordinates": [ -51.4362921, -21.513883 ] } },
{ "type": "Feature", "properties": { "CNPJ": "15548876000144", "IDCIDADE": "JUNQUEIROPOLIS", "NOMEFANTASIA": "LOJA_CAPRICHO", "RAZAOSOCIAL": "PICCININI_&_PICCININI_CONFECCOES_LTDA", "ENDEE": "AVENIDA_JUNQUEIRA1013__CENTRO_17890-013", "LATITUDE": "-21.51396", "LONGITUDE": "-51.4362138", "LMAPS": "https://www.google.com/maps?q=&layer=c&cbll=-51.4362138,-21.51396", "O_QUE_FAZER": "CARTEIRA", "field_10": null, "field_11": null, "field_12": null, "field_13": null, "ER_REGIAO_CIDADE_min": "Junqueirópolis_Araçatuba" }, "geometry": { "type": "Point", "coordinates": [ -51.4362138, -21.51396 ] } },
{ "type": "Feature", "properties": { "CNPJ": "08685407000101", "IDCIDADE": "JUNQUEIROPOLIS", "NOMEFANTASIA": "DROGARIA_POPULAR", "RAZAOSOCIAL": "DROGARIA_POPULAR_DE_JUNQUEIROPOLIS_LTDA", "ENDEE": "AVENIDA_JUNQUEIRA971__CENTRO_17890-013", "LATITUDE": "-21.5140438", "LONGITUDE": "-51.4358503", "LMAPS": "https://www.google.com/maps?q=&layer=c&cbll=-51.4358503,-21.5140438", "O_QUE_FAZER": "CARTEIRA", "field_10": null, "field_11": null, "field_12": null, "field_13": null, "ER_REGIAO_CIDADE_min": "Junqueirópolis_Araçatuba" }, "geometry": { "type": "Point", "coordinates": [ -51.4358503, -21.5140438 ] } },
{ "type": "Feature", "properties": { "CNPJ": "20524124000183", "IDCIDADE": "JUNQUEIROPOLIS", "NOMEFANTASIA": "VILAREJO", "RAZAOSOCIAL": "ISABELLA_CRISTINA_BUZZO_CARDOSO", "ENDEE": "RUA_QUINZINHO_DA_CUNHA393__CENTRO_17890-037", "LATITUDE": "-21.5140472", "LONGITUDE": "-51.4357159", "LMAPS": "https://www.google.com/maps?q=&layer=c&cbll=-51.4357159,-21.5140472", "O_QUE_FAZER": "CARTEIRA", "field_10": null, "field_11": null, "field_12": null, "field_13": null, "ER_REGIAO_CIDADE_min": "Junqueirópolis_Araçatuba" }, "geometry": { "type": "Point", "coordinates": [ -51.4357159, -21.5140472 ] } },
{ "type": "Feature", "properties": { "CNPJ": "66715483000119", "IDCIDADE": "JUNQUEIROPOLIS", "NOMEFANTASIA": "ITAMARATI_CORRETORA_SEGUROS", "RAZAOSOCIAL": "ITAMARAI_IMOBILIARIA_LTDA", "ENDEE": "RUA_QUINZINHO_DA_CUNHA558__CENTRO_17890-037", "LATITUDE": "-21.5140472", "LONGITUDE": "-51.4357159", "LMAPS": "https://www.google.com/maps?q=&layer=c&cbll=-51.4357159,-21.5140472", "O_QUE_FAZER": "CARTEIRA", "field_10": null, "field_11": null, "field_12": null, "field_13": null, "ER_REGIAO_CIDADE_min": "Junqueirópolis_Araçatuba" }, "geometry": { "type": "Point", "coordinates": [ -51.4357159, -21.5140472 ] } },
{ "type": "Feature", "properties": { "CNPJ": "39249353000165", "IDCIDADE": "JUNQUEIROPOLIS", "NOMEFANTASIA": "FRUTDELLYS", "RAZAOSOCIAL": "SORVETERIA_FRUTYDELLYS_JUNQUEIROPOLIS_LTDA", "ENDEE": "AVENIDA_JUNQUEIRA882__CENTRO_17890-000", "LATITUDE": "-21.514173", "LONGITUDE": "-51.4350313", "LMAPS": "https://www.google.com/maps?q=&layer=c&cbll=-51.4350313,-21.514173", "O_QUE_FAZER": "CARTEIRA", "field_10": null, "field_11": null, "field_12": null, "field_13": null, "ER_REGIAO_CIDADE_min": "Junqueirópolis_Araçatuba" }, "geometry": { "type": "Point", "coordinates": [ -51.4350313, -21.514173 ] } },
{ "type": "Feature", "properties": { "CNPJ": "38843843000122", "IDCIDADE": "JUNQUEIROPOLIS", "NOMEFANTASIA": "FUNERARIA_BOM_JESUS", "RAZAOSOCIAL": "IVONE_A.M.FELTRIN_&_CIA_LTDA", "ENDEE": "RUA_RUI_BARBOSA381__CENTRO_17890-035", "LATITUDE": "-21.5142361", "LONGITUDE": "-51.435852", "LMAPS": "https://www.google.com/maps?q=&layer=c&cbll=-51.435852,-21.5142361", "O_QUE_FAZER": "CARTEIRA", "field_10": null, "field_11": null, "field_12": null, "field_13": null, "ER_REGIAO_CIDADE_min": "Junqueirópolis_Araçatuba" }, "geometry": { "type": "Point", "coordinates": [ -51.435852, -21.5142361 ] } },
{ "type": "Feature", "properties": { "CNPJ": "19579451000153", "IDCIDADE": "JUNQUEIROPOLIS", "NOMEFANTASIA": "CASTELINHO_DO_SORVETE", "RAZAOSOCIAL": "M_D_MARIANO_DESTRO", "ENDEE": "AVENIDA_JUNQUEIRA865__CENTRO_17890-000", "LATITUDE": "-21.5143366", "LONGITUDE": "-51.434926", "LMAPS": "https://www.google.com/maps?q=&layer=c&cbll=-51.434926,-21.5143366", "O_QUE_FAZER": "CARTEIRA", "field_10": null, "field_11": null, "field_12": null, "field_13": null, "ER_REGIAO_CIDADE_min": "Junqueirópolis_Araçatuba" }, "geometry": { "type": "Point", "coordinates": [ -51.434926, -21.5143366 ] } },
{ "type": "Feature", "properties": { "CNPJ": "34943757000130", "IDCIDADE": "JUNQUEIROPOLIS", "NOMEFANTASIA": "LMV_SOLAR", "RAZAOSOCIAL": "A._MARANGON_CORREA_DE_SOUSA", "ENDEE": "RUA_RUI_BARBOSA352__CENTRO_17890-035", "LATITUDE": "-21.5145434", "LONGITUDE": "-51.4357571", "LMAPS": "https://www.google.com/maps?q=&layer=c&cbll=-51.4357571,-21.5145434", "O_QUE_FAZER": "CARTEIRA", "field_10": null, "field_11": null, "field_12": null, "field_13": null, "ER_REGIAO_CIDADE_min": "Junqueirópolis_Araçatuba" }, "geometry": { "type": "Point", "coordinates": [ -51.4357571, -21.5145434 ] } },
{ "type": "Feature", "properties": { "CNPJ": "08248133000193", "IDCIDADE": "JUNQUEIROPOLIS", "NOMEFANTASIA": "SUPER_MOTO", "RAZAOSOCIAL": "RADICAL_SUPER_MOTO_LTDA", "ENDEE": "RUA_RUI_BARBOSA293__CENTRO_17890-035", "LATITUDE": "-21.515007", "LONGITUDE": "-51.4362815", "LMAPS": "https://www.google.com/maps?q=&layer=c&cbll=-51.4362815,-21.515007", "O_QUE_FAZER": "CARTEIRA", "field_10": null, "field_11": null, "field_12": null, "field_13": null, "ER_REGIAO_CIDADE_min": "Junqueirópolis_Araçatuba" }, "geometry": { "type": "Point", "coordinates": [ -51.4362815, -21.515007 ] } },
{ "type": "Feature", "properties": { "CNPJ": "43669364000171", "IDCIDADE": "JUNQUEIROPOLIS", "NOMEFANTASIA": "RICARDO_PECAS", "RAZAOSOCIAL": "COELHO_PARTS_REFRIGERACAO_COMERCIO_E_IMPORTACAO_LTDA", "ENDEE": "AVENIDA_GERALDO_FUDO336__CENTRO_17897-280", "LATITUDE": "-21.5037847", "LONGITUDE": "-51.4344006", "LMAPS": "https://www.google.com/maps?q=&layer=c&cbll=-51.4344006,-21.5037847", "O_QUE_FAZER": "FINALIZADO", "field_10": null, "field_11": null, "field_12": null, "field_13": null, "ER_REGIAO_CIDADE_min": "Junqueirópolis_Araçatuba" }, "geometry": { "type": "Point", "coordinates": [ -51.4344006, -21.5037847 ] } },
{ "type": "Feature", "properties": { "CNPJ": "33998331000111", "IDCIDADE": "JUNQUEIROPOLIS", "NOMEFANTASIA": "-", "RAZAOSOCIAL": "33.998.331 WASHINGTON BEZERRA DA COSTA", "ENDEE": "RUA_LIOGI IWAKI_825_VILA SANTA RUTH_17897-030_JUNQUEIROPOLIS", "LATITUDE": "-21.5059816", "LONGITUDE": "-51.434639", "LMAPS": "https://www.google.com/maps?q=&layer=c&cbll=-21.5059816,-51.434639", "O_QUE_FAZER": "FINALIZADO", "field_10": null, "field_11": null, "field_12": null, "field_13": null, "ER_REGIAO_CIDADE_min": "Junqueirópolis_Araçatuba" }, "geometry": { "type": "Point", "coordinates": [ -51.434639, -21.5059816 ] } },
{ "type": "Feature", "properties": { "CNPJ": "13860801000179", "IDCIDADE": "JUNQUEIROPOLIS", "NOMEFANTASIA": "13.860.801_SUELI_ALVES_VIANA_PIMENTEL", "RAZAOSOCIAL": "LOJA_SAO_VICENTE", "ENDEE": "RUA_JUNQUEIROPOLIS121__ALTO_DO_CENI_17890-000", "LATITUDE": "-21.5101659", "LONGITUDE": "-51.4373487", "LMAPS": "https://www.google.com/maps?q=&layer=c&cbll=-51.4373487,-21.5101659", "O_QUE_FAZER": "FINALIZADO", "field_10": null, "field_11": null, "field_12": null, "field_13": null, "ER_REGIAO_CIDADE_min": "Junqueirópolis_Araçatuba" }, "geometry": { "type": "Point", "coordinates": [ -51.4373487, -21.5101659 ] } },
{ "type": "Feature", "properties": { "CNPJ": "44994886000101", "IDCIDADE": "JUNQUEIROPOLIS", "NOMEFANTASIA": "ROSIMEIRE_DOS_SANTOS_RODRIGUES_31310289808", "RAZAOSOCIAL": "ROSIMEIRE_DOS_SANTOS_RODRIGUES", "ENDEE": "RUA_DAS_AMERICAS70__JARDIM_PAULISTA_17890-000", "LATITUDE": "-21.5217688", "LONGITUDE": "-51.4280309", "LMAPS": "https://www.google.com/maps?q=&layer=c&cbll=-51.4280309,-21.5217688", "O_QUE_FAZER": "FINALIZADO", "field_10": null, "field_11": null, "field_12": null, "field_13": null, "ER_REGIAO_CIDADE_min": "Junqueirópolis_Araçatuba" }, "geometry": { "type": "Point", "coordinates": [ -51.4280309, -21.5217688 ] } },
{ "type": "Feature", "properties": { "CNPJ": "14455908000102", "IDCIDADE": "PEDRINHAS PAULISTA", "NOMEFANTASIA": "MAXXIMOS QUIMICA INDUSTRIAL", "RAZAOSOCIAL": "MAXXIMOS PRODUTOS DE LIMPEZA LTDA", "ENDEE": "RUA TRES, 35, DISTRITO INDUSTRIAL, 19865-000, PEDRINHAS PAULISTA, SP, BRASIL", "LATITUDE": "-21.5008817", "LONGITUDE": "-51.432775", "LMAPS": "https://www.google.com/maps?q=&layer=c&cbll=-21.5008817,-51.432775", "O_QUE_FAZER": "CARTEIRA - FAMPE", "field_10": null, "field_11": null, "field_12": null, "field_13": null, "ER_REGIAO_CIDADE_min": "Junqueirópolis_Araçatuba" }, "geometry": { "type": "Point", "coordinates": [ -51.432775, -21.5008817 ] } },
{ "type": "Feature", "properties": { "CNPJ": "14436716000140", "IDCIDADE": "JUNQUEIRÓPOLIS", "NOMEFANTASIA": null, "RAZAOSOCIAL": "14.436.716 GISELE GRASIELA CAMPO BATISTA", "ENDEE": "RUA MONTEVIDEO, 73, RESIDENCIAL CARMESIM II, 17895-042, JUNQUEIRÓPOLIS, SP, BRASIL", "LATITUDE": "-21.5022335", "LONGITUDE": "-51.4417767", "LMAPS": "https://www.google.com/maps?q=&layer=c&cbll=-21.5022335,-51.4417767", "O_QUE_FAZER": "CARTEIRA - FAMPE", "field_10": null, "field_11": null, "field_12": null, "field_13": null, "ER_REGIAO_CIDADE_min": "Junqueirópolis_Araçatuba" }, "geometry": { "type": "Point", "coordinates": [ -51.4417767, -21.5022335 ] } },
{ "type": "Feature", "properties": { "CNPJ": "34171068000155", "IDCIDADE": "JUNQUEIRÓPOLIS", "NOMEFANTASIA": "SANTO ANTONIO AGRICOLA", "RAZAOSOCIAL": "SANTO ANTONIO AGRICOLA LTDA", "ENDEE": "RUA VICTOR JUNQUEIRA, 2201, SALA 02, CENTRO, 17890-000, JUNQUEIRÓPOLIS, SP, BRASIL", "LATITUDE": "-21.5116616", "LONGITUDE": "-51.4450953", "LMAPS": "https://www.google.com/maps?q=&layer=c&cbll=-21.5116616,-51.4450953", "O_QUE_FAZER": "CARTEIRA - FAMPE", "field_10": null, "field_11": null, "field_12": null, "field_13": null, "ER_REGIAO_CIDADE_min": "Junqueirópolis_Araçatuba" }, "geometry": { "type": "Point", "coordinates": [ -51.4450953, -21.5116616 ] } }
]
}
