{
"type": "FeatureCollection",
"name": "ER_REGIAO_CIDADE_min_Suzano_Palmeiras de São Paulo_Alto Tietê",
"crs": { "type": "name", "properties": { "name": "urn:ogc:def:crs:OGC:1.3:CRS84" } },
"xy_coordinate_resolution": 1e-15,
"features": [
{ "type": "Feature", "properties": { "fid": 177048, "CNPJ": "08272731000106", "IDCIDADE": "SUZANO", "NOMEFANTASIA": "CASA_SE_CARNES_FROES", "RAZAOSOCIAL": "LEANDRO_FROES", "ENDEE": "ESTRADA_KEIDA_HARADA27__IPELANDIA_08620-050", "LMAPS": "https://www.google.com/maps?q=&layer=c&cbll=-46.2968386,-23.6217704", "O_QUE_FAZER": "CARTEIRA", "ER_REGIAO_CIDADE_min": "Suzano_Palmeiras de São Paulo_Alto Tietê" }, "geometry": { "type": "Point", "coordinates": [ -46.2968386, -23.6217704 ] } },
{ "type": "Feature", "properties": { "fid": 177094, "CNPJ": "03614148000104", "IDCIDADE": "SUZANO", "NOMEFANTASIA": "DEPOSITO_IPELANDIA", "RAZAOSOCIAL": "COMERCIAL_IPELANDIA_LTDA", "ENDEE": "ESTRADA_KEIDA_HARADA34__IPELANDIA_08620-050", "LMAPS": "https://www.google.com/maps?q=&layer=c&cbll=-46.2968123,-23.6219742", "O_QUE_FAZER": "CARTEIRA", "ER_REGIAO_CIDADE_min": "Suzano_Palmeiras de São Paulo_Alto Tietê" }, "geometry": { "type": "Point", "coordinates": [ -46.2968123, -23.6219742 ] } },
{ "type": "Feature", "properties": { "fid": 177213, "CNPJ": "66917816000192", "IDCIDADE": "SUZANO", "NOMEFANTASIA": "MERCADO_DO_PAULO", "RAZAOSOCIAL": "PAULO_ROBERTO_DE_FREITAS_EMPORIO", "ENDEE": "ESTRADA_KEIDA_HARADA55__IPELANDIA_08620-050", "LMAPS": "https://www.google.com/maps?q=&layer=c&cbll=-46.2964314,-23.6223288", "O_QUE_FAZER": "CARTEIRA", "ER_REGIAO_CIDADE_min": "Suzano_Palmeiras de São Paulo_Alto Tietê" }, "geometry": { "type": "Point", "coordinates": [ -46.2964314, -23.6223288 ] } },
{ "type": "Feature", "properties": { "fid": 177214, "CNPJ": "22569504000160", "IDCIDADE": "SUZANO", "NOMEFANTASIA": "SEANE", "RAZAOSOCIAL": "MERCADINHO_SEANE_DE_IPELANDIA_LTDA", "ENDEE": "ESTRADA_KEIDA_HARADA85__IPELANDIA_08620-050", "LMAPS": "https://www.google.com/maps?q=&layer=c&cbll=-46.2960395,-23.6223358", "O_QUE_FAZER": "CARTEIRA", "ER_REGIAO_CIDADE_min": "Suzano_Palmeiras de São Paulo_Alto Tietê" }, "geometry": { "type": "Point", "coordinates": [ -46.2960395, -23.6223358 ] } },
{ "type": "Feature", "properties": { "fid": 177227, "CNPJ": "67105593000121", "IDCIDADE": "SUZANO", "NOMEFANTASIA": "RESTAURANTE_KOJIMA", "RAZAOSOCIAL": "ELI_MIZUKAMI_KOJIMA", "ENDEE": "ESTRADA_KEIDA_HARADA78__IPELANDIA_08620-050", "LMAPS": "https://www.google.com/maps?q=&layer=c&cbll=-46.2963218,-23.6223608", "O_QUE_FAZER": "CARTEIRA", "ER_REGIAO_CIDADE_min": "Suzano_Palmeiras de São Paulo_Alto Tietê" }, "geometry": { "type": "Point", "coordinates": [ -46.2963218, -23.6223608 ] } },
{ "type": "Feature", "properties": { "fid": 177240, "CNPJ": "20348568000296", "IDCIDADE": "SUZANO", "NOMEFANTASIA": "SEANE", "RAZAOSOCIAL": "COMERCIAL_SEANE_LTDA.", "ENDEE": "ESTRADA_KEIDA_HARADA85__IPELANDIA_08620-050", "LMAPS": "https://www.google.com/maps?q=&layer=c&cbll=-46.2959555,-23.6223987", "O_QUE_FAZER": "CARTEIRA", "ER_REGIAO_CIDADE_min": "Suzano_Palmeiras de São Paulo_Alto Tietê" }, "geometry": { "type": "Point", "coordinates": [ -46.2959555, -23.6223987 ] } },
{ "type": "Feature", "properties": { "fid": 178749, "CNPJ": "14717947000122", "IDCIDADE": "SUZANO", "NOMEFANTASIA": "MERCADO_GAMA", "RAZAOSOCIAL": "JOAO_BATISTA_SILVEIRA_DA_GAMA_MERCADO", "ENDEE": "ESTRADA_DO_GUINZA405__JARDIM_DORA_08620-515", "LMAPS": "https://www.google.com/maps?q=&layer=c&cbll=-46.3033596,-23.6302977", "O_QUE_FAZER": "CARTEIRA", "ER_REGIAO_CIDADE_min": "Suzano_Palmeiras de São Paulo_Alto Tietê" }, "geometry": { "type": "Point", "coordinates": [ -46.3033596, -23.6302977 ] } },
{ "type": "Feature", "properties": { "fid": 180327, "CNPJ": "22142562000102", "IDCIDADE": "SUZANO", "NOMEFANTASIA": "RACOES_PENA", "RAZAOSOCIAL": "ADILSON_ISRAEL_PENA_FILHO", "ENDEE": "RUA_JULIA240__RECANTO_FELIZ_08620-040", "LMAPS": "https://www.google.com/maps?q=&layer=c&cbll=-46.321893,-23.6384832", "O_QUE_FAZER": "CARTEIRA", "ER_REGIAO_CIDADE_min": "Suzano_Palmeiras de São Paulo_Alto Tietê" }, "geometry": { "type": "Point", "coordinates": [ -46.321893, -23.6384832 ] } },
{ "type": "Feature", "properties": { "fid": 180331, "CNPJ": "60285871000120", "IDCIDADE": "SUZANO", "NOMEFANTASIA": "RACOES_PENA", "RAZAOSOCIAL": "ADILSON_ISRAEL_PENA", "ENDEE": "RUA_HELENA_DE_CAMPOS_SILVA12__RECANTO_FELIZ_08620-046", "LMAPS": "https://www.google.com/maps?q=&layer=c&cbll=-46.3218896,-23.6385076", "O_QUE_FAZER": "CARTEIRA", "ER_REGIAO_CIDADE_min": "Suzano_Palmeiras de São Paulo_Alto Tietê" }, "geometry": { "type": "Point", "coordinates": [ -46.3218896, -23.6385076 ] } },
{ "type": "Feature", "properties": { "fid": 180411, "CNPJ": "43396677000101", "IDCIDADE": "SUZANO", "NOMEFANTASIA": "TOBIAS", "RAZAOSOCIAL": "TPSERVICE_CONSTRUCAO_E_SERVICOS_LTDA", "ENDEE": "RUA_JULIA194__RECANTO_FELIZ_08620-040", "LMAPS": "https://www.google.com/maps?q=&layer=c&cbll=-46.3211907,-23.638951", "O_QUE_FAZER": "CARTEIRA", "ER_REGIAO_CIDADE_min": "Suzano_Palmeiras de São Paulo_Alto Tietê" }, "geometry": { "type": "Point", "coordinates": [ -46.3211907, -23.638951 ] } },
{ "type": "Feature", "properties": { "fid": 180455, "CNPJ": "33086160000154", "IDCIDADE": "SUZANO", "NOMEFANTASIA": "CW_USINAGENS", "RAZAOSOCIAL": "C_W_USINAGENS_E_FERRAMENTARIA_LTDA", "ENDEE": "RUA_FALK210__RECREIO_DAS_PALMAS_08625-003", "LMAPS": "https://www.google.com/maps?q=&layer=c&cbll=-46.3129811,-23.6392114", "O_QUE_FAZER": "CARTEIRA", "ER_REGIAO_CIDADE_min": "Suzano_Palmeiras de São Paulo_Alto Tietê" }, "geometry": { "type": "Point", "coordinates": [ -46.3129811, -23.6392114 ] } },
{ "type": "Feature", "properties": { "fid": 180466, "CNPJ": "45492271000140", "IDCIDADE": "SUZANO", "NOMEFANTASIA": "BRENNER_CONSTRUCAO", "RAZAOSOCIAL": "BRENNER_PROJETOS_E_CONSTRUCOES_LTDA", "ENDEE": "RUA_FALK217__RECREIO_DAS_PALMAS_08625-003", "LMAPS": "https://www.google.com/maps?q=&layer=c&cbll=-46.313075,-23.6392716", "O_QUE_FAZER": "CARTEIRA", "ER_REGIAO_CIDADE_min": "Suzano_Palmeiras de São Paulo_Alto Tietê" }, "geometry": { "type": "Point", "coordinates": [ -46.313075, -23.6392716 ] } },
{ "type": "Feature", "properties": { "fid": 180550, "CNPJ": "28691790000118", "IDCIDADE": "SUZANO", "NOMEFANTASIA": "ADEGA_DO_ARLINDO", "RAZAOSOCIAL": "ARLINDO_R._DA_SILVA_ADEGA'S", "ENDEE": "RODOVIA_INDIO_TIBIRICA11724__PALMEIRAS_DE_SAO_PAULO_08630-000", "LMAPS": "https://www.google.com/maps?q=&layer=c&cbll=-46.3181663,-23.6397628", "O_QUE_FAZER": "CARTEIRA", "ER_REGIAO_CIDADE_min": "Suzano_Palmeiras de São Paulo_Alto Tietê" }, "geometry": { "type": "Point", "coordinates": [ -46.3181663, -23.6397628 ] } },
{ "type": "Feature", "properties": { "fid": 180609, "CNPJ": "38252327000123", "IDCIDADE": "SUZANO", "NOMEFANTASIA": "BRUNO_TRANSPORTES", "RAZAOSOCIAL": "BRUNO_DO_NASCIMENTO_ARAUJO_TRANSPORTES", "ENDEE": "RUA_ANTONIO_BINOTTI259__JARDIM_AMAZONAS_08625-380", "LMAPS": "https://www.google.com/maps?q=&layer=c&cbll=-46.3160372,-23.6401861", "O_QUE_FAZER": "CARTEIRA", "ER_REGIAO_CIDADE_min": "Suzano_Palmeiras de São Paulo_Alto Tietê" }, "geometry": { "type": "Point", "coordinates": [ -46.3160372, -23.6401861 ] } },
{ "type": "Feature", "properties": { "fid": 180673, "CNPJ": "37978427000179", "IDCIDADE": "SUZANO", "NOMEFANTASIA": "OFAZENDEIRO", "RAZAOSOCIAL": "COMERCIAL_AGRO_O_FAZENDEIRO_LTDA", "ENDEE": "RODOVIA_INDIO_TIBIRICA11887__PALMEIRAS_DE_SAO_PAULO_08630-000", "LMAPS": "https://www.google.com/maps?q=&layer=c&cbll=-46.3184131,-23.6407733", "O_QUE_FAZER": "CARTEIRA", "ER_REGIAO_CIDADE_min": "Suzano_Palmeiras de São Paulo_Alto Tietê" }, "geometry": { "type": "Point", "coordinates": [ -46.3184131, -23.6407733 ] } },
{ "type": "Feature", "properties": { "fid": 180700, "CNPJ": "34959778000144", "IDCIDADE": "SUZANO", "NOMEFANTASIA": "RESTAURANTE_DA_VILA", "RAZAOSOCIAL": "ANA_CECILIA_MENDES_PRATES", "ENDEE": "RODOVIA_INDIO_TIBIRICA11972__PALMEIRAS_DE_SAO_PAULO_08620-000", "LMAPS": "https://www.google.com/maps?q=&layer=c&cbll=-46.3190479,-23.6410416", "O_QUE_FAZER": "CARTEIRA", "ER_REGIAO_CIDADE_min": "Suzano_Palmeiras de São Paulo_Alto Tietê" }, "geometry": { "type": "Point", "coordinates": [ -46.3190479, -23.6410416 ] } },
{ "type": "Feature", "properties": { "fid": 180723, "CNPJ": "31968687000187", "IDCIDADE": "SUZANO", "NOMEFANTASIA": "FERNANDO", "RAZAOSOCIAL": "FERNANDO_RIBEIRO_DA_SILVA", "ENDEE": "AVENIDA_BELEM290__JARDIM_BELEM_08625-305", "LMAPS": "https://www.google.com/maps?q=&layer=c&cbll=-46.3143076,-23.6412469", "O_QUE_FAZER": "CARTEIRA", "ER_REGIAO_CIDADE_min": "Suzano_Palmeiras de São Paulo_Alto Tietê" }, "geometry": { "type": "Point", "coordinates": [ -46.3143076, -23.6412469 ] } },
{ "type": "Feature", "properties": { "fid": 180726, "CNPJ": "97548060000185", "IDCIDADE": "SUZANO", "NOMEFANTASIA": "NCT", "RAZAOSOCIAL": "ELAINE_BEATRIZ_CABRAL_NASCIMENTO", "ENDEE": "RUA_RENO_CARDOSO169__VILA_RICA_08625-570", "LMAPS": "https://www.google.com/maps?q=&layer=c&cbll=-46.3150686,-23.6412575", "O_QUE_FAZER": "CARTEIRA", "ER_REGIAO_CIDADE_min": "Suzano_Palmeiras de São Paulo_Alto Tietê" }, "geometry": { "type": "Point", "coordinates": [ -46.3150686, -23.6412575 ] } },
{ "type": "Feature", "properties": { "fid": 180736, "CNPJ": "30755997000150", "IDCIDADE": "SUZANO", "NOMEFANTASIA": "DEPOSITO_DO_RAUL", "RAZAOSOCIAL": "RAIMUNDO_BARRETO_DA_SILVA", "ENDEE": "RUA_MUSSI_JORGE_ANTONIO55__JARDIM_AMAZONAS_08625-385", "LMAPS": "https://www.google.com/maps?q=&layer=c&cbll=-46.3181712,-23.6413415", "O_QUE_FAZER": "CARTEIRA", "ER_REGIAO_CIDADE_min": "Suzano_Palmeiras de São Paulo_Alto Tietê" }, "geometry": { "type": "Point", "coordinates": [ -46.3181712, -23.6413415 ] } },
{ "type": "Feature", "properties": { "fid": 180767, "CNPJ": "09434748000177", "IDCIDADE": "SUZANO", "NOMEFANTASIA": "MERCADO_OLIVEIRA", "RAZAOSOCIAL": "ERENITA_A._DE_OLIVEIRA_MERCEARIA", "ENDEE": "RUA_VALDIR_DICIERI43__JARDIM_BELEM_08625-310", "LMAPS": "https://www.google.com/maps?q=&layer=c&cbll=-46.3133735,-23.6415618", "O_QUE_FAZER": "CARTEIRA", "ER_REGIAO_CIDADE_min": "Suzano_Palmeiras de São Paulo_Alto Tietê" }, "geometry": { "type": "Point", "coordinates": [ -46.3133735, -23.6415618 ] } },
{ "type": "Feature", "properties": { "fid": 180786, "CNPJ": "37963470000160", "IDCIDADE": "SUZANO", "NOMEFANTASIA": "COMERCIAL_MARINHO", "RAZAOSOCIAL": "ELAINE_CRISTINA_LACERDA_DOS_SANTOS_MATERIAL_DE_CONSTRUCAO", "ENDEE": "RODOVIA_INDIO_TIBIRICA12001__PALMEIRAS_DE_SAO_PAULO_08620-000", "LMAPS": "https://www.google.com/maps?q=&layer=c&cbll=-46.3188293,-23.641671", "O_QUE_FAZER": "CARTEIRA", "ER_REGIAO_CIDADE_min": "Suzano_Palmeiras de São Paulo_Alto Tietê" }, "geometry": { "type": "Point", "coordinates": [ -46.3188293, -23.641671 ] } },
{ "type": "Feature", "properties": { "fid": 180827, "CNPJ": "43178284000113", "IDCIDADE": "SUZANO", "NOMEFANTASIA": "TEKA_MERCADO", "RAZAOSOCIAL": "BAR_E_EMPORIO_JATER_LTDA", "ENDEE": "RODOVIA_INDIO_TIBIRICA12131__PALMEIRAS_DE_SAO_PAULO_08625-000", "LMAPS": "https://www.google.com/maps?q=&layer=c&cbll=-46.3198691,-23.6420371", "O_QUE_FAZER": "CARTEIRA", "ER_REGIAO_CIDADE_min": "Suzano_Palmeiras de São Paulo_Alto Tietê" }, "geometry": { "type": "Point", "coordinates": [ -46.3198691, -23.6420371 ] } },
{ "type": "Feature", "properties": { "fid": 180829, "CNPJ": "45958643000180", "IDCIDADE": "SUZANO", "NOMEFANTASIA": "LIFEBELLA_STAR", "RAZAOSOCIAL": "MARIA_DE_FATIMA_DA_SILVA_DROGARIA_E_PERFUMARIA", "ENDEE": "RUA_JAIRO_DOS_SANTOS110__JARDIM_ITAMARACA_08625-250", "LMAPS": "https://www.google.com/maps?q=&layer=c&cbll=-46.3125739,-23.6420463", "O_QUE_FAZER": "CARTEIRA", "ER_REGIAO_CIDADE_min": "Suzano_Palmeiras de São Paulo_Alto Tietê" }, "geometry": { "type": "Point", "coordinates": [ -46.3125739, -23.6420463 ] } },
{ "type": "Feature", "properties": { "fid": 180850, "CNPJ": "38285877000149", "IDCIDADE": "SUZANO", "NOMEFANTASIA": "JK_MASTER_GAZ", "RAZAOSOCIAL": "JK_MASTER_GAS_LTDA", "ENDEE": "AVENIDA_BELEM119__JARDIM_BELEM_08625-305", "LMAPS": "https://www.google.com/maps?q=&layer=c&cbll=-46.3125368,-23.6422227", "O_QUE_FAZER": "CARTEIRA", "ER_REGIAO_CIDADE_min": "Suzano_Palmeiras de São Paulo_Alto Tietê" }, "geometry": { "type": "Point", "coordinates": [ -46.3125368, -23.6422227 ] } },
{ "type": "Feature", "properties": { "fid": 180855, "CNPJ": "09635118000160", "IDCIDADE": "SUZANO", "NOMEFANTASIA": "N.RELETRICAS", "RAZAOSOCIAL": "NILCIO_RODRIGUES_ELETRICAS", "ENDEE": "RUA_JOAO_CHAGAS_TERRA71__VILA_REAL_08625-530", "LMAPS": "https://www.google.com/maps?q=&layer=c&cbll=-46.3112568,-23.6422735", "O_QUE_FAZER": "CARTEIRA", "ER_REGIAO_CIDADE_min": "Suzano_Palmeiras de São Paulo_Alto Tietê" }, "geometry": { "type": "Point", "coordinates": [ -46.3112568, -23.6422735 ] } },
{ "type": "Feature", "properties": { "fid": 180857, "CNPJ": "11123534000121", "IDCIDADE": "SUZANO", "NOMEFANTASIA": "WALDECI_MOVEIS", "RAZAOSOCIAL": "WALDECI_CARLOS_BATISTA_MOVEIS", "ENDEE": "RUA_MUSSI_JORGE_ANTONIO240__JARDIM_AMAZONAS_08625-385", "LMAPS": "https://www.google.com/maps?q=&layer=c&cbll=-46.3183008,-23.642301", "O_QUE_FAZER": "CARTEIRA", "ER_REGIAO_CIDADE_min": "Suzano_Palmeiras de São Paulo_Alto Tietê" }, "geometry": { "type": "Point", "coordinates": [ -46.3183008, -23.642301 ] } },
{ "type": "Feature", "properties": { "fid": 180863, "CNPJ": "08256424000123", "IDCIDADE": "SUZANO", "NOMEFANTASIA": "ALCATEC", "RAZAOSOCIAL": "CLAUDIO_RODRIGUES_ARRAIS", "ENDEE": "RUA_BENEDITO_JOSE_RANGEL6__VILA_RICA_08625-560", "LMAPS": "https://www.google.com/maps?q=&layer=c&cbll=-46.3156212,-23.6423609", "O_QUE_FAZER": "CARTEIRA", "ER_REGIAO_CIDADE_min": "Suzano_Palmeiras de São Paulo_Alto Tietê" }, "geometry": { "type": "Point", "coordinates": [ -46.3156212, -23.6423609 ] } },
{ "type": "Feature", "properties": { "fid": 180865, "CNPJ": "10839313000191", "IDCIDADE": "SUZANO", "NOMEFANTASIA": "MERCADO_BARBOSA", "RAZAOSOCIAL": "LELI_LIMA_BARBOSA_-_MERCADO_E_PADARIA", "ENDEE": "AVENIDA_BELEM50__JARDIM_BELEM_08625-305", "LMAPS": "https://www.google.com/maps?q=&layer=c&cbll=-46.3120974,-23.6423749", "O_QUE_FAZER": "CARTEIRA", "ER_REGIAO_CIDADE_min": "Suzano_Palmeiras de São Paulo_Alto Tietê" }, "geometry": { "type": "Point", "coordinates": [ -46.3120974, -23.6423749 ] } },
{ "type": "Feature", "properties": { "fid": 180873, "CNPJ": "34345327000117", "IDCIDADE": "SUZANO", "NOMEFANTASIA": "GARPARZINHO", "RAZAOSOCIAL": "JACINTO_FELIX_GASPARINO", "ENDEE": "ESTRADA_DA_DUCHEN9__CHACARAS_DUCHEN_08620-790", "LMAPS": "https://www.google.com/maps?q=&layer=c&cbll=-46.2662357,-23.6424733", "O_QUE_FAZER": "CARTEIRA", "ER_REGIAO_CIDADE_min": "Suzano_Palmeiras de São Paulo_Alto Tietê" }, "geometry": { "type": "Point", "coordinates": [ -46.2662357, -23.6424733 ] } },
{ "type": "Feature", "properties": { "fid": 180877, "CNPJ": "46761719000146", "IDCIDADE": "SUZANO", "NOMEFANTASIA": "SUSHI_PALMEIRAS", "RAZAOSOCIAL": "MIRELE_MENDES_VELOSO", "ENDEE": "RODOVIA_INDIO_TIBIRICA12140__PALMEIRAS_DE_SAO_PAULO_08630-000", "LMAPS": "https://www.google.com/maps?q=&layer=c&cbll=-46.3203238,-23.6425022", "O_QUE_FAZER": "CARTEIRA", "ER_REGIAO_CIDADE_min": "Suzano_Palmeiras de São Paulo_Alto Tietê" }, "geometry": { "type": "Point", "coordinates": [ -46.3203238, -23.6425022 ] } },
{ "type": "Feature", "properties": { "fid": 180902, "CNPJ": "58014755000125", "IDCIDADE": "SUZANO", "NOMEFANTASIA": "PROFIT", "RAZAOSOCIAL": "FELIPE_MACHADO_PRO_FIT_ACADEMIA_LTDA", "ENDEE": "RODOVIA_INDIO_TIBIRICA12217__PALMEIRAS_DE_SAO_PAULO_08630-000", "LMAPS": "https://www.google.com/maps?q=&layer=c&cbll=-46.3200771,-23.6426936", "O_QUE_FAZER": "CARTEIRA", "ER_REGIAO_CIDADE_min": "Suzano_Palmeiras de São Paulo_Alto Tietê" }, "geometry": { "type": "Point", "coordinates": [ -46.3200771, -23.6426936 ] } },
{ "type": "Feature", "properties": { "fid": 180924, "CNPJ": "54578204000133", "IDCIDADE": "SUZANO", "NOMEFANTASIA": "LIFE_SPORTE", "RAZAOSOCIAL": "LIFE_SPORT_FIT_LTDA", "ENDEE": "RUA_SEBASTIAO_MOREIRA310__PARQUE_PALMEIRAS_08630-585", "LMAPS": "https://www.google.com/maps?q=&layer=c&cbll=-46.3244668,-23.642897", "O_QUE_FAZER": "CARTEIRA", "ER_REGIAO_CIDADE_min": "Suzano_Palmeiras de São Paulo_Alto Tietê" }, "geometry": { "type": "Point", "coordinates": [ -46.3244668, -23.642897 ] } },
{ "type": "Feature", "properties": { "fid": 180927, "CNPJ": "10262663000138", "IDCIDADE": "SUZANO", "NOMEFANTASIA": "CARVAO_PACHECO", "RAZAOSOCIAL": "FERNANDA_DOS_SANTOS_PACHECO", "ENDEE": "RUA_RENO_CARDOSO83__VILA_RICA_08625-570", "LMAPS": "https://www.google.com/maps?q=&layer=c&cbll=-46.3168629,-23.6429107", "O_QUE_FAZER": "CARTEIRA", "ER_REGIAO_CIDADE_min": "Suzano_Palmeiras de São Paulo_Alto Tietê" }, "geometry": { "type": "Point", "coordinates": [ -46.3168629, -23.6429107 ] } },
{ "type": "Feature", "properties": { "fid": 180935, "CNPJ": "24385151000173", "IDCIDADE": "SUZANO", "NOMEFANTASIA": "SACOLAO_RODOVIA", "RAZAOSOCIAL": "HORTIFRUTI_MAMEDE_LTDA", "ENDEE": "RODOVIA_INDIO_TIBIRICA12225__PALMEIRAS_DE_SAO_PAULO_08630-000", "LMAPS": "https://www.google.com/maps?q=&layer=c&cbll=-46.3207029,-23.6429844", "O_QUE_FAZER": "CARTEIRA", "ER_REGIAO_CIDADE_min": "Suzano_Palmeiras de São Paulo_Alto Tietê" }, "geometry": { "type": "Point", "coordinates": [ -46.3207029, -23.6429844 ] } },
{ "type": "Feature", "properties": { "fid": 180950, "CNPJ": "02789754000106", "IDCIDADE": "SUZANO", "NOMEFANTASIA": "COMERCIAL_KOGA", "RAZAOSOCIAL": "WALT._KIMIER_MATERIAIS_PARA_CONSTRUCAO_LTDA", "ENDEE": "RUA_SEBASTIAO_MOREIRA295__PARQUE_PALMEIRAS_08630-585", "LMAPS": "https://www.google.com/maps?q=&layer=c&cbll=-46.3246096,-23.6430827", "O_QUE_FAZER": "CARTEIRA", "ER_REGIAO_CIDADE_min": "Suzano_Palmeiras de São Paulo_Alto Tietê" }, "geometry": { "type": "Point", "coordinates": [ -46.3246096, -23.6430827 ] } },
{ "type": "Feature", "properties": { "fid": 180969, "CNPJ": "36519978000101", "IDCIDADE": "SUZANO", "NOMEFANTASIA": "RECANTO_FRIO", "RAZAOSOCIAL": "ROSELI_K._F._PELINCEL", "ENDEE": "RUA_MUSSI_JORGE_ANTONIO320__JARDIM_AMAZONAS_08625-385", "LMAPS": "https://www.google.com/maps?q=&layer=c&cbll=-46.3181521,-23.6433013", "O_QUE_FAZER": "CARTEIRA", "ER_REGIAO_CIDADE_min": "Suzano_Palmeiras de São Paulo_Alto Tietê" }, "geometry": { "type": "Point", "coordinates": [ -46.3181521, -23.6433013 ] } },
{ "type": "Feature", "properties": { "fid": 180987, "CNPJ": "36648334000113", "IDCIDADE": "SUZANO", "NOMEFANTASIA": "J_K_TRANSPORTES", "RAZAOSOCIAL": "J&K_TRANSPORTES_LTDA", "ENDEE": "RUA_MOACIR_RICARDO_DE_FARIAS225__VILA_REAL_08625-540", "LMAPS": "https://www.google.com/maps?q=&layer=c&cbll=-46.3119868,-23.6434594", "O_QUE_FAZER": "CARTEIRA", "ER_REGIAO_CIDADE_min": "Suzano_Palmeiras de São Paulo_Alto Tietê" }, "geometry": { "type": "Point", "coordinates": [ -46.3119868, -23.6434594 ] } },
{ "type": "Feature", "properties": { "fid": 181006, "CNPJ": "63939243000100", "IDCIDADE": "SUZANO", "NOMEFANTASIA": "DC_ACESSORIOS", "RAZAOSOCIAL": "D&C_ACESSORIOS_LTDA", "ENDEE": "RUA_SEBASTIAO_MOREIRA158__PARQUE_PALMEIRAS_08630-585", "LMAPS": "https://www.google.com/maps?q=&layer=c&cbll=-46.3236004,-23.6437329", "O_QUE_FAZER": "CARTEIRA", "ER_REGIAO_CIDADE_min": "Suzano_Palmeiras de São Paulo_Alto Tietê" }, "geometry": { "type": "Point", "coordinates": [ -46.3236004, -23.6437329 ] } },
{ "type": "Feature", "properties": { "fid": 181023, "CNPJ": "48880288000162", "IDCIDADE": "SUZANO", "NOMEFANTASIA": "ACOUGUE_QDELICIA", "RAZAOSOCIAL": "ACOUGUE_E_MERCEARIA_Q_DELICIA_LTDA", "ENDEE": "RODOVIA_INDIO_TIBIRICA12301__PALMEIRAS_DE_SAO_PAULO_08630-000", "LMAPS": "https://www.google.com/maps?q=&layer=c&cbll=-46.3224469,-23.6439014", "O_QUE_FAZER": "CARTEIRA", "ER_REGIAO_CIDADE_min": "Suzano_Palmeiras de São Paulo_Alto Tietê" }, "geometry": { "type": "Point", "coordinates": [ -46.3224469, -23.6439014 ] } },
{ "type": "Feature", "properties": { "fid": 181036, "CNPJ": "09195099000107", "IDCIDADE": "SUZANO", "NOMEFANTASIA": "MAMUTE", "RAZAOSOCIAL": "COMERCIAL_MAMUTE_MATERIAIS_PARA_CONSTRUCAO_LTDA", "ENDEE": "RODOVIA_INDIO_TIBIRICA12459__PALMEIRAS_DE_SAO_PAULO_08630-000", "LMAPS": "https://www.google.com/maps?q=&layer=c&cbll=-46.3219157,-23.6439987", "O_QUE_FAZER": "CARTEIRA", "ER_REGIAO_CIDADE_min": "Suzano_Palmeiras de São Paulo_Alto Tietê" }, "geometry": { "type": "Point", "coordinates": [ -46.3219157, -23.6439987 ] } },
{ "type": "Feature", "properties": { "fid": 181046, "CNPJ": "04870603000103", "IDCIDADE": "SUZANO", "NOMEFANTASIA": "GAS_PALMEIRAS", "RAZAOSOCIAL": "JAIR_RANGEL", "ENDEE": "RUA_SEBASTIAO_MOREIRA90__PARQUE_PALMEIRAS_08630-585", "LMAPS": "https://www.google.com/maps?q=&layer=c&cbll=-46.3230361,-23.6440714", "O_QUE_FAZER": "CARTEIRA", "ER_REGIAO_CIDADE_min": "Suzano_Palmeiras de São Paulo_Alto Tietê" }, "geometry": { "type": "Point", "coordinates": [ -46.3230361, -23.6440714 ] } },
{ "type": "Feature", "properties": { "fid": 181066, "CNPJ": "18499256000150", "IDCIDADE": "SUZANO", "NOMEFANTASIA": "PRO_FIT", "RAZAOSOCIAL": "J._C._FERNANDES_ACADEMIA", "ENDEE": "RUA_SEBASTIAO_MOREIRA121__PARQUE_PALMEIRAS_08630-585", "LMAPS": "https://www.google.com/maps?q=&layer=c&cbll=-46.3234701,-23.6442336", "O_QUE_FAZER": "CARTEIRA", "ER_REGIAO_CIDADE_min": "Suzano_Palmeiras de São Paulo_Alto Tietê" }, "geometry": { "type": "Point", "coordinates": [ -46.3234701, -23.6442336 ] } },
{ "type": "Feature", "properties": { "fid": 181085, "CNPJ": "13616251000147", "IDCIDADE": "SUZANO", "NOMEFANTASIA": "BINOTTI_COLCHOES", "RAZAOSOCIAL": "CLB_COMERCIO_DE_COLCHOES_LTDA", "ENDEE": "RUA_SEBASTIAO_MOREIRA110__PARQUE_PALMEIRAS_08630-585", "LMAPS": "https://www.google.com/maps?q=&layer=c&cbll=-46.3232097,-23.6443802", "O_QUE_FAZER": "CARTEIRA", "ER_REGIAO_CIDADE_min": "Suzano_Palmeiras de São Paulo_Alto Tietê" }, "geometry": { "type": "Point", "coordinates": [ -46.3232097, -23.6443802 ] } },
{ "type": "Feature", "properties": { "fid": 181104, "CNPJ": "01589195000110", "IDCIDADE": "SUZANO", "NOMEFANTASIA": "SEANE", "RAZAOSOCIAL": "SUPERMERCADO_SEANE_DAS_PALMEIRAS_LTDA", "ENDEE": "ESTRADA_DO_KOYAMA10__CLUBE_DOS_OFICIAIS_08635-440", "LMAPS": "https://www.google.com/maps?q=&layer=c&cbll=-46.3225268,-23.64452", "O_QUE_FAZER": "CARTEIRA", "ER_REGIAO_CIDADE_min": "Suzano_Palmeiras de São Paulo_Alto Tietê" }, "geometry": { "type": "Point", "coordinates": [ -46.3225268, -23.64452 ] } },
{ "type": "Feature", "properties": { "fid": 181122, "CNPJ": "51972530000132", "IDCIDADE": "SUZANO", "NOMEFANTASIA": "SOPHIA_BIJU", "RAZAOSOCIAL": "REAL_MIX_SHOPPING_DAS_UTILIDADES_DOMESTICAS_LTDA", "ENDEE": "ESTRADA_DO_KOYAMA73__RECREIO_BELA_VISTA_08635-440", "LMAPS": "https://www.google.com/maps?q=&layer=c&cbll=-46.3217594,-23.6446523", "O_QUE_FAZER": "CARTEIRA", "ER_REGIAO_CIDADE_min": "Suzano_Palmeiras de São Paulo_Alto Tietê" }, "geometry": { "type": "Point", "coordinates": [ -46.3217594, -23.6446523 ] } },
{ "type": "Feature", "properties": { "fid": 181126, "CNPJ": "55413340000136", "IDCIDADE": "SUZANO", "NOMEFANTASIA": "GEEH_PRATAS", "RAZAOSOCIAL": "GEEH_PRATAS_LTDA", "ENDEE": "ESTRADA_DO_KOYAMA25__RECREIO_BELA_VISTA_08635-440", "LMAPS": "https://www.google.com/maps?q=&layer=c&cbll=-46.3223819,-23.6446912", "O_QUE_FAZER": "CARTEIRA", "ER_REGIAO_CIDADE_min": "Suzano_Palmeiras de São Paulo_Alto Tietê" }, "geometry": { "type": "Point", "coordinates": [ -46.3223819, -23.6446912 ] } },
{ "type": "Feature", "properties": { "fid": 181131, "CNPJ": "45875257000125", "IDCIDADE": "SUZANO", "NOMEFANTASIA": "MEGA_SHOW", "RAZAOSOCIAL": "NATALIA_RODRIGUES_MATHEUS_UTILIDADES_DOMESTICAS_LTDA", "ENDEE": "ESTRADA_DO_KOYAMA81__RECREIO_BELA_VISTA_08633-435", "LMAPS": "https://www.google.com/maps?q=&layer=c&cbll=-46.3218284,-23.6447173", "O_QUE_FAZER": "CARTEIRA", "ER_REGIAO_CIDADE_min": "Suzano_Palmeiras de São Paulo_Alto Tietê" }, "geometry": { "type": "Point", "coordinates": [ -46.3218284, -23.6447173 ] } },
{ "type": "Feature", "properties": { "fid": 181137, "CNPJ": "57786832000100", "IDCIDADE": "SUZANO", "NOMEFANTASIA": "DROGARIA_PALMEIRAS", "RAZAOSOCIAL": "MANAIA_&_IANNACCARO_LTDA", "ENDEE": "RODOVIA_INDIO_TIBIRICA12523__PALMEIRAS_DE_SAO_PAULO_08620-000", "LMAPS": "https://www.google.com/maps?q=&layer=c&cbll=-46.3227273,-23.6447755", "O_QUE_FAZER": "CARTEIRA", "ER_REGIAO_CIDADE_min": "Suzano_Palmeiras de São Paulo_Alto Tietê" }, "geometry": { "type": "Point", "coordinates": [ -46.3227273, -23.6447755 ] } },
{ "type": "Feature", "properties": { "fid": 181150, "CNPJ": "50159547000102", "IDCIDADE": "SUZANO", "NOMEFANTASIA": "DROGARIA_BENTA_2", "RAZAOSOCIAL": "REDE_DROGARIA_DONA_BENTA_2_LTDA", "ENDEE": "RUA_SEBASTIAO_MOREIRA111__PARQUE_PALMEIRAS_08630-585", "LMAPS": "https://www.google.com/maps?q=&layer=c&cbll=-46.3236562,-23.6448545", "O_QUE_FAZER": "CARTEIRA", "ER_REGIAO_CIDADE_min": "Suzano_Palmeiras de São Paulo_Alto Tietê" }, "geometry": { "type": "Point", "coordinates": [ -46.3236562, -23.6448545 ] } },
{ "type": "Feature", "properties": { "fid": 181157, "CNPJ": "42751448000278", "IDCIDADE": "SUZANO", "NOMEFANTASIA": "OGGI_SORVETES", "RAZAOSOCIAL": "GRAFF_COMERCIO_VAREJISTA_DE_SORVETES_LTDA", "ENDEE": "RUA_SEBASTIAO_MOREIRA12999__PARQUE_PALMEIRAS_08630-585", "LMAPS": "https://www.google.com/maps?q=&layer=c&cbll=-46.3235229,-23.6449341", "O_QUE_FAZER": "CARTEIRA", "ER_REGIAO_CIDADE_min": "Suzano_Palmeiras de São Paulo_Alto Tietê" }, "geometry": { "type": "Point", "coordinates": [ -46.3235229, -23.6449341 ] } },
{ "type": "Feature", "properties": { "fid": 181158, "CNPJ": "46722061000163", "IDCIDADE": "SUZANO", "NOMEFANTASIA": "NEW_PLASTIC", "RAZAOSOCIAL": "ABREU_PACK_EMBALAGENS_LTDA", "ENDEE": "ESTRADA_DO_KOYAMA138__RECREIO_BELA_VISTA_08635-440", "LMAPS": "https://www.google.com/maps?q=&layer=c&cbll=-46.3213886,-23.6449473", "O_QUE_FAZER": "CARTEIRA", "ER_REGIAO_CIDADE_min": "Suzano_Palmeiras de São Paulo_Alto Tietê" }, "geometry": { "type": "Point", "coordinates": [ -46.3213886, -23.6449473 ] } },
{ "type": "Feature", "properties": { "fid": 181166, "CNPJ": "41500181000100", "IDCIDADE": "SUZANO", "NOMEFANTASIA": "CLINICA_VETERINARIA_PRESANIUK", "RAZAOSOCIAL": "SUZANNE_PRESANIUK_FERNANDES", "ENDEE": "ESTRADA_DO_KOYAMA195__RECREIO_BELA_VISTA_08635-440", "LMAPS": "https://www.google.com/maps?q=&layer=c&cbll=-46.3207189,-23.6449996", "O_QUE_FAZER": "CARTEIRA", "ER_REGIAO_CIDADE_min": "Suzano_Palmeiras de São Paulo_Alto Tietê" }, "geometry": { "type": "Point", "coordinates": [ -46.3207189, -23.6449996 ] } },
{ "type": "Feature", "properties": { "fid": 181168, "CNPJ": "37723458000189", "IDCIDADE": "SUZANO", "NOMEFANTASIA": "ODONTO_RIVA", "RAZAOSOCIAL": "ODONTO_RIVA_LTDA", "ENDEE": "ESTRADA_DO_KOYAMA124__RECREIO_BELA_VISTA_08635-440", "LMAPS": "https://www.google.com/maps?q=&layer=c&cbll=-46.3215307,-23.6450188", "O_QUE_FAZER": "CARTEIRA", "ER_REGIAO_CIDADE_min": "Suzano_Palmeiras de São Paulo_Alto Tietê" }, "geometry": { "type": "Point", "coordinates": [ -46.3215307, -23.6450188 ] } },
{ "type": "Feature", "properties": { "fid": 181175, "CNPJ": "11142267000130", "IDCIDADE": "SUZANO", "NOMEFANTASIA": "SUPERMERCADO_GOMES", "RAZAOSOCIAL": "MINIMERCADO_SEBASTIAO_JOAQUIM_LTDA", "ENDEE": "RODOVIA_INDIO_TIBIRICA12568__PALMEIRAS_DE_SAO_PAULO_08620-000", "LMAPS": "https://www.google.com/maps?q=&layer=c&cbll=-46.3237009,-23.6450579", "O_QUE_FAZER": "CARTEIRA", "ER_REGIAO_CIDADE_min": "Suzano_Palmeiras de São Paulo_Alto Tietê" }, "geometry": { "type": "Point", "coordinates": [ -46.3237009, -23.6450579 ] } },
{ "type": "Feature", "properties": { "fid": 181199, "CNPJ": "47113918000100", "IDCIDADE": "SUZANO", "NOMEFANTASIA": "COREBRASIL", "RAZAOSOCIAL": "CORE_BRASIL_SERVICOS_PATRIMONIAIS_LTDA", "ENDEE": "RUA_SAO_PAULO49__JARDIM_MONTE_CRISTO_08670-220", "LMAPS": "https://www.google.com/maps?q=&layer=c&cbll=-46.3228418,-23.6452504", "O_QUE_FAZER": "CARTEIRA", "ER_REGIAO_CIDADE_min": "Suzano_Palmeiras de São Paulo_Alto Tietê" }, "geometry": { "type": "Point", "coordinates": [ -46.3228418, -23.6452504 ] } },
{ "type": "Feature", "properties": { "fid": 181200, "CNPJ": "34578875000197", "IDCIDADE": "SUZANO", "NOMEFANTASIA": "ODONTOLIPPE", "RAZAOSOCIAL": "ELIANE_C_S_A_DE_ALMEIDA_ODONTOLOGIA", "ENDEE": "RODOVIA_INDIO_TIBIRICA12567__PALMEIRAS_DE_SAO_PAULO_08620-000", "LMAPS": "https://www.google.com/maps?q=&layer=c&cbll=-46.3231253,-23.6452612", "O_QUE_FAZER": "CARTEIRA", "ER_REGIAO_CIDADE_min": "Suzano_Palmeiras de São Paulo_Alto Tietê" }, "geometry": { "type": "Point", "coordinates": [ -46.3231253, -23.6452612 ] } },
{ "type": "Feature", "properties": { "fid": 181230, "CNPJ": "13474607000155", "IDCIDADE": "SUZANO", "NOMEFANTASIA": "K12", "RAZAOSOCIAL": "K12_TECNOLOGIA_LTDA", "ENDEE": "RODOVIA_INDIO_TIBIRICA12607__PALMEIRAS_DE_SAO_PAULO_08630-000", "LMAPS": "https://www.google.com/maps?q=&layer=c&cbll=-46.323143,-23.6455915", "O_QUE_FAZER": "CARTEIRA", "ER_REGIAO_CIDADE_min": "Suzano_Palmeiras de São Paulo_Alto Tietê" }, "geometry": { "type": "Point", "coordinates": [ -46.323143, -23.6455915 ] } },
{ "type": "Feature", "properties": { "fid": 181232, "CNPJ": "34237302000108", "IDCIDADE": "SUZANO", "NOMEFANTASIA": "FARMAPET", "RAZAOSOCIAL": "FARMAPET_SANTANA_LTDA", "ENDEE": "RUA_SEBASTIAO_BASTOS_DA_SILVA71__PARQUE_PALMEIRAS_08630-580", "LMAPS": "https://www.google.com/maps?q=&layer=c&cbll=-46.3244364,-23.645601", "O_QUE_FAZER": "CARTEIRA", "ER_REGIAO_CIDADE_min": "Suzano_Palmeiras de São Paulo_Alto Tietê" }, "geometry": { "type": "Point", "coordinates": [ -46.3244364, -23.645601 ] } },
{ "type": "Feature", "properties": { "fid": 181242, "CNPJ": "51553057000159", "IDCIDADE": "SUZANO", "NOMEFANTASIA": "ADEGA_PESTANA", "RAZAOSOCIAL": "MINI_MERCADO_PESTANA_LTDA", "ENDEE": "RUA_SEBASTIAO_BASTOS_DA_SILVA27__PARQUE_PALMEIRAS_08630-580", "LMAPS": "https://www.google.com/maps?q=&layer=c&cbll=-46.3239467,-23.64565", "O_QUE_FAZER": "CARTEIRA", "ER_REGIAO_CIDADE_min": "Suzano_Palmeiras de São Paulo_Alto Tietê" }, "geometry": { "type": "Point", "coordinates": [ -46.3239467, -23.64565 ] } },
{ "type": "Feature", "properties": { "fid": 181279, "CNPJ": "24342082000110", "IDCIDADE": "SUZANO", "NOMEFANTASIA": "CARROSSEL_2", "RAZAOSOCIAL": "GERONIMO_DE_SIQUEIRA", "ENDEE": "RODOVIA_INDIO_TIBIRICA12728__PALMEIRAS_DE_SAO_PAULO_08620-000", "LMAPS": "https://www.google.com/maps?q=&layer=c&cbll=-46.3239768,-23.6459236", "O_QUE_FAZER": "CARTEIRA", "ER_REGIAO_CIDADE_min": "Suzano_Palmeiras de São Paulo_Alto Tietê" }, "geometry": { "type": "Point", "coordinates": [ -46.3239768, -23.6459236 ] } },
{ "type": "Feature", "properties": { "fid": 181336, "CNPJ": "19128515000108", "IDCIDADE": "SUZANO", "NOMEFANTASIA": "LUCIMEIA_MERCADO", "RAZAOSOCIAL": "LUCIMEIA_DE_O._HIRATA_MINIMERCADO_LTDA", "ENDEE": "ESTRADA_DO_KOYAMA400__RECREIO_BELA_VISTA_08635-440", "LMAPS": "https://www.google.com/maps?q=&layer=c&cbll=-46.318996,-23.646246", "O_QUE_FAZER": "CARTEIRA", "ER_REGIAO_CIDADE_min": "Suzano_Palmeiras de São Paulo_Alto Tietê" }, "geometry": { "type": "Point", "coordinates": [ -46.318996, -23.646246 ] } },
{ "type": "Feature", "properties": { "fid": 181447, "CNPJ": "47063567000170", "IDCIDADE": "PIRACICABA", "NOMEFANTASIA": "VIDRACARIA_PEDRO_E_VIDROS", "RAZAOSOCIAL": "47.063.567_PEDRO_IVO_RIBEIRO_DE_ANDRADE", "ENDEE": "RODOVIA_INDIO_TIBIRICA12745__SANTA_RITA_DE_CASSIA_08640-000", "LMAPS": "https://www.google.com/maps?q=&layer=c&cbll=-46.3239317,-23.64688", "O_QUE_FAZER": "CARTEIRA", "ER_REGIAO_CIDADE_min": "Suzano_Palmeiras de São Paulo_Alto Tietê" }, "geometry": { "type": "Point", "coordinates": [ -46.3239317, -23.64688 ] } },
{ "type": "Feature", "properties": { "fid": 181451, "CNPJ": "60821949000184", "IDCIDADE": "SUZANO", "NOMEFANTASIA": "COPETEC", "RAZAOSOCIAL": "COMERCIAL_COPETEC_LTDA", "ENDEE": "RODOVIA_INDIO_TIBIRICA12745__PALMEIRAS_DE_SAO_PAULO_08630-000", "LMAPS": "https://www.google.com/maps?q=&layer=c&cbll=-46.3240876,-23.6469111", "O_QUE_FAZER": "CARTEIRA", "ER_REGIAO_CIDADE_min": "Suzano_Palmeiras de São Paulo_Alto Tietê" }, "geometry": { "type": "Point", "coordinates": [ -46.3240876, -23.6469111 ] } },
{ "type": "Feature", "properties": { "fid": 181466, "CNPJ": "27209842000104", "IDCIDADE": "SUZANO", "NOMEFANTASIA": "HALL_STEEL", "RAZAOSOCIAL": "ISRAEL_DOS_SANTOS_NASCIMENTO", "ENDEE": "RODOVIA_INDIO_TIBIRICA12773__PALMEIRAS_DE_SAO_PAULO_08630-000", "LMAPS": "https://www.google.com/maps?q=&layer=c&cbll=-46.323999,-23.6469911", "O_QUE_FAZER": "CARTEIRA", "ER_REGIAO_CIDADE_min": "Suzano_Palmeiras de São Paulo_Alto Tietê" }, "geometry": { "type": "Point", "coordinates": [ -46.323999, -23.6469911 ] } },
{ "type": "Feature", "properties": { "fid": 181562, "CNPJ": "18822425000141", "IDCIDADE": "SUZANO", "NOMEFANTASIA": "MECANICA_JURA", "RAZAOSOCIAL": "AUTO_MECANICA_JURA_LTDA", "ENDEE": "RUA_JOSE_FERNANDES_SANTOS71__JARDIM_SANTA_RITA_DE_CASSIA_08630-370", "LMAPS": "https://www.google.com/maps?q=&layer=c&cbll=-46.3234565,-23.6474991", "O_QUE_FAZER": "CARTEIRA", "ER_REGIAO_CIDADE_min": "Suzano_Palmeiras de São Paulo_Alto Tietê" }, "geometry": { "type": "Point", "coordinates": [ -46.3234565, -23.6474991 ] } },
{ "type": "Feature", "properties": { "fid": 181563, "CNPJ": "55673122000130", "IDCIDADE": "SUZANO", "NOMEFANTASIA": "BOXOHANA", "RAZAOSOCIAL": "BOX_OHANA_PALMEIRAS_LTDA", "ENDEE": "RODOVIA_INDIO_TIBIRICA12829__PALMEIRAS_DE_SAO_PAULO_08630-000", "LMAPS": "https://www.google.com/maps?q=&layer=c&cbll=-46.324041,-23.6474992", "O_QUE_FAZER": "CARTEIRA", "ER_REGIAO_CIDADE_min": "Suzano_Palmeiras de São Paulo_Alto Tietê" }, "geometry": { "type": "Point", "coordinates": [ -46.324041, -23.6474992 ] } },
{ "type": "Feature", "properties": { "fid": 181597, "CNPJ": "15744307000174", "IDCIDADE": "SUZANO", "NOMEFANTASIA": "GF_ESQUADRIAS", "RAZAOSOCIAL": "NOBEL_SYSTEM_VIDRACARIA_LTDA", "ENDEE": "RUA_EXPEDICIONARIO_FERNANDO_ANTONIO_DO_NASCIMENTO17__JARDIM_SANTA_RITA_DE_CASSIA_08630-380", "LMAPS": "https://www.google.com/maps?q=&layer=c&cbll=-46.3240516,-23.6476888", "O_QUE_FAZER": "CARTEIRA", "ER_REGIAO_CIDADE_min": "Suzano_Palmeiras de São Paulo_Alto Tietê" }, "geometry": { "type": "Point", "coordinates": [ -46.3240516, -23.6476888 ] } },
{ "type": "Feature", "properties": { "fid": 181636, "CNPJ": "01266734000180", "IDCIDADE": "SUZANO", "NOMEFANTASIA": "AMANCIO_AUTO_PECAS", "RAZAOSOCIAL": "AMANCIO_AUTOPECAS_LTDA", "ENDEE": "RUA_EXPEDICIONARIO_FERNANDO_ANTONIO_DO_NASCIMENTO30__JARDIM_SANTA_RITA_DE_CASSIA_08630-380", "LMAPS": "https://www.google.com/maps?q=&layer=c&cbll=-46.3240421,-23.6479364", "O_QUE_FAZER": "CARTEIRA", "ER_REGIAO_CIDADE_min": "Suzano_Palmeiras de São Paulo_Alto Tietê" }, "geometry": { "type": "Point", "coordinates": [ -46.3240421, -23.6479364 ] } },
{ "type": "Feature", "properties": { "fid": 181639, "CNPJ": "19921448000176", "IDCIDADE": "SUZANO", "NOMEFANTASIA": "ACADEMIA_TOP_GIRLS", "RAZAOSOCIAL": "SANDRA_CARNEIRO_DE_LIMA_ACADEMIA", "ENDEE": "RUA_EXPEDICIONARIO_FERNANDO_ANTONIO_DO_NASCIMENTO30__JARDIM_SANTA_RITA_DE_CASSIA_08630-380", "LMAPS": "https://www.google.com/maps?q=&layer=c&cbll=-46.324015,-23.6479408", "O_QUE_FAZER": "CARTEIRA", "ER_REGIAO_CIDADE_min": "Suzano_Palmeiras de São Paulo_Alto Tietê" }, "geometry": { "type": "Point", "coordinates": [ -46.324015, -23.6479408 ] } },
{ "type": "Feature", "properties": { "fid": 181789, "CNPJ": "03350482000106", "IDCIDADE": "SUZANO", "NOMEFANTASIA": "WCR", "RAZAOSOCIAL": "WCR_INDUSTRIA_BRASILEIRA_DE_POLIAS_LTDA", "ENDEE": "RUA_AVELINO_MARIANO_PENA405__PARQUE_CEREJEIRAS_08640-630", "LMAPS": "https://www.google.com/maps?q=&layer=c&cbll=-46.3283849,-23.6491541", "O_QUE_FAZER": "CARTEIRA", "ER_REGIAO_CIDADE_min": "Suzano_Palmeiras de São Paulo_Alto Tietê" }, "geometry": { "type": "Point", "coordinates": [ -46.3283849, -23.6491541 ] } },
{ "type": "Feature", "properties": { "fid": 181918, "CNPJ": "63941041000100", "IDCIDADE": "SUZANO", "NOMEFANTASIA": "PIRAPORANGA", "RAZAOSOCIAL": "PIRAPORANGA_COMERCIO_DE_PRODUTOS_ORNAMENTAIS_LTDA", "ENDEE": "RUA_AVELINO_MARIANO_PENA151__JARDIM_RESTINGA_08630-180", "LMAPS": "https://www.google.com/maps?q=&layer=c&cbll=-46.3273033,-23.650015", "O_QUE_FAZER": "CARTEIRA", "ER_REGIAO_CIDADE_min": "Suzano_Palmeiras de São Paulo_Alto Tietê" }, "geometry": { "type": "Point", "coordinates": [ -46.3273033, -23.650015 ] } },
{ "type": "Feature", "properties": { "fid": 181943, "CNPJ": "34315607000182", "IDCIDADE": "SUZANO", "NOMEFANTASIA": "SLASHDOT_SUZANO", "RAZAOSOCIAL": "ALC_COMERCIO_DE_PISCINAS_LTDA", "ENDEE": "RODOVIA_INDIO_TIBIRICA13220__PALMEIRAS_DE_SAO_PAULO_08630-000", "LMAPS": "https://www.google.com/maps?q=&layer=c&cbll=-46.3261917,-23.650155", "O_QUE_FAZER": "CARTEIRA", "ER_REGIAO_CIDADE_min": "Suzano_Palmeiras de São Paulo_Alto Tietê" }, "geometry": { "type": "Point", "coordinates": [ -46.3261917, -23.650155 ] } },
{ "type": "Feature", "properties": { "fid": 181944, "CNPJ": "50747774000159", "IDCIDADE": "SUZANO", "NOMEFANTASIA": "SPLASH", "RAZAOSOCIAL": "GTN_COMERCIO_DE_PISCINAS_LTDA", "ENDEE": "RODOVIA_INDIO_TIBIRICA13220__PALMEIRAS_DE_SAO_PAULO_08620-000", "LMAPS": "https://www.google.com/maps?q=&layer=c&cbll=-46.326216,-23.6501554", "O_QUE_FAZER": "CARTEIRA", "ER_REGIAO_CIDADE_min": "Suzano_Palmeiras de São Paulo_Alto Tietê" }, "geometry": { "type": "Point", "coordinates": [ -46.326216, -23.6501554 ] } },
{ "type": "Feature", "properties": { "fid": 182009, "CNPJ": "31419447000123", "IDCIDADE": "SUZANO", "NOMEFANTASIA": "CAZAFORT", "RAZAOSOCIAL": "FLAVIO_ALVES_DOS_SANTOS_-_MATERIAIS_PARA_CONSTRUCAO", "ENDEE": "RODOVIA_INDIO_TIBIRICA13270__PALMEIRAS_DE_SAO_PAULO_08630-000", "LMAPS": "https://www.google.com/maps?q=&layer=c&cbll=-46.3261206,-23.6504806", "O_QUE_FAZER": "CARTEIRA", "ER_REGIAO_CIDADE_min": "Suzano_Palmeiras de São Paulo_Alto Tietê" }, "geometry": { "type": "Point", "coordinates": [ -46.3261206, -23.6504806 ] } },
{ "type": "Feature", "properties": { "fid": 182052, "CNPJ": "10979652000173", "IDCIDADE": "SUZANO", "NOMEFANTASIA": "TIBIRICA_CARROCERIAS", "RAZAOSOCIAL": "TIBIRICA_CARROCERIAS_DE_MADEIRA_LTDA", "ENDEE": "RODOVIA_INDIO_TIBIRICA13290__PALMEIRAS_DE_SAO_PAULO_08620-000", "LMAPS": "https://www.google.com/maps?q=&layer=c&cbll=-46.3262485,-23.6508539", "O_QUE_FAZER": "CARTEIRA", "ER_REGIAO_CIDADE_min": "Suzano_Palmeiras de São Paulo_Alto Tietê" }, "geometry": { "type": "Point", "coordinates": [ -46.3262485, -23.6508539 ] } },
{ "type": "Feature", "properties": { "fid": 182061, "CNPJ": "50288886000199", "IDCIDADE": "SUZANO", "NOMEFANTASIA": "MD_PISCINAS", "RAZAOSOCIAL": "MD_COMERCIO_DE_PISCINAS_LTDA", "ENDEE": "RODOVIA_INDIO_TIBIRICA13320__PALMEIRAS_DE_SAO_PAULO_08620-000", "LMAPS": "https://www.google.com/maps?q=&layer=c&cbll=-46.3267176,-23.6508751", "O_QUE_FAZER": "CARTEIRA", "ER_REGIAO_CIDADE_min": "Suzano_Palmeiras de São Paulo_Alto Tietê" }, "geometry": { "type": "Point", "coordinates": [ -46.3267176, -23.6508751 ] } },
{ "type": "Feature", "properties": { "fid": 182170, "CNPJ": "59456582000168", "IDCIDADE": "SUZANO", "NOMEFANTASIA": "MADEIREIRA_CAMBARU", "RAZAOSOCIAL": "MADEIREIRA_CAMBARU_LTDA", "ENDEE": "RODOVIA_INDIO_TIBIRICA13391__PALMEIRAS_DE_SAO_PAULO_08630-000", "LMAPS": "https://www.google.com/maps?q=&layer=c&cbll=-46.3263541,-23.6515467", "O_QUE_FAZER": "CARTEIRA", "ER_REGIAO_CIDADE_min": "Suzano_Palmeiras de São Paulo_Alto Tietê" }, "geometry": { "type": "Point", "coordinates": [ -46.3263541, -23.6515467 ] } },
{ "type": "Feature", "properties": { "fid": 182360, "CNPJ": "04363796000106", "IDCIDADE": "SUZANO", "NOMEFANTASIA": "TAMANY", "RAZAOSOCIAL": "TAMANY_COMUNICACAO_VISUAL_E_INTERIORES_LTDA", "ENDEE": "RODOVIA_INDIO_TIBIRICA13470__PALMEIRAS_DE_SAO_PAULO_08630-000", "LMAPS": "https://www.google.com/maps?q=&layer=c&cbll=-46.3278921,-23.652839", "O_QUE_FAZER": "CARTEIRA", "ER_REGIAO_CIDADE_min": "Suzano_Palmeiras de São Paulo_Alto Tietê" }, "geometry": { "type": "Point", "coordinates": [ -46.3278921, -23.652839 ] } },
{ "type": "Feature", "properties": { "fid": 182362, "CNPJ": "23904216000187", "IDCIDADE": "SUZANO", "NOMEFANTASIA": "NETFOXX", "RAZAOSOCIAL": "ROBSON_FARIA", "ENDEE": "ESTRADA_DO_KOYAMA1679__RECREIO_BELA_VISTA_08635-440", "LMAPS": "https://www.google.com/maps?q=&layer=c&cbll=-46.3138477,-23.6528418", "O_QUE_FAZER": "CARTEIRA", "ER_REGIAO_CIDADE_min": "Suzano_Palmeiras de São Paulo_Alto Tietê" }, "geometry": { "type": "Point", "coordinates": [ -46.3138477, -23.6528418 ] } },
{ "type": "Feature", "properties": { "fid": 182627, "CNPJ": "56143191000103", "IDCIDADE": "SUZANO", "NOMEFANTASIA": "FEIRA_SAO_LUCAS", "RAZAOSOCIAL": "JOSE_LUCAS_DA_FONSECA", "ENDEE": "RODOVIA_INDIO_TIBIRICA13735__PALMEIRAS_DE_SAO_PAULO_08620-000", "LMAPS": "https://www.google.com/maps?q=&layer=c&cbll=-46.3276948,-23.6537681", "O_QUE_FAZER": "CARTEIRA", "ER_REGIAO_CIDADE_min": "Suzano_Palmeiras de São Paulo_Alto Tietê" }, "geometry": { "type": "Point", "coordinates": [ -46.3276948, -23.6537681 ] } },
{ "type": "Feature", "properties": { "fid": 182672, "CNPJ": "37881705000175", "IDCIDADE": "SUZANO", "NOMEFANTASIA": "DEPOSITO_HEROIS", "RAZAOSOCIAL": "NEUSA_J_MATERIAIS_DE_CONSTRUCAO_LTDA", "ENDEE": "ESTRADA_DO_KOYAMA1813__RECREIO_BELA_VISTA_08635-440", "LMAPS": "https://www.google.com/maps?q=&layer=c&cbll=-46.3137671,-23.6539089", "O_QUE_FAZER": "CARTEIRA", "ER_REGIAO_CIDADE_min": "Suzano_Palmeiras de São Paulo_Alto Tietê" }, "geometry": { "type": "Point", "coordinates": [ -46.3137671, -23.6539089 ] } },
{ "type": "Feature", "properties": { "fid": 182712, "CNPJ": "29774180000140", "IDCIDADE": "SUZANO", "NOMEFANTASIA": "PADARIA_KOYAMA", "RAZAOSOCIAL": "PAES_E_DOCES_KOYAMA_LTDA", "ENDEE": "ESTRADA_DO_KOYAMA1800__RECREIO_BELA_VISTA_08635-440", "LMAPS": "https://www.google.com/maps?q=&layer=c&cbll=-46.3139409,-23.6540602", "O_QUE_FAZER": "CARTEIRA", "ER_REGIAO_CIDADE_min": "Suzano_Palmeiras de São Paulo_Alto Tietê" }, "geometry": { "type": "Point", "coordinates": [ -46.3139409, -23.6540602 ] } },
{ "type": "Feature", "properties": { "fid": 182713, "CNPJ": "48569042000174", "IDCIDADE": "SUZANO", "NOMEFANTASIA": "M_FARMA", "RAZAOSOCIAL": "DROGARIA_M_FARMA_MEDICAMENTOS_E_PERFUMARIA_LTDA", "ENDEE": "ESTRADA_DO_KOYAMA1815__RECREIO_BELA_VISTA_08635-440", "LMAPS": "https://www.google.com/maps?q=&layer=c&cbll=-46.3139,-23.6540609", "O_QUE_FAZER": "CARTEIRA", "ER_REGIAO_CIDADE_min": "Suzano_Palmeiras de São Paulo_Alto Tietê" }, "geometry": { "type": "Point", "coordinates": [ -46.3139, -23.6540609 ] } },
{ "type": "Feature", "properties": { "fid": 182746, "CNPJ": "12143811000120", "IDCIDADE": "SUZANO", "NOMEFANTASIA": "J.M", "RAZAOSOCIAL": "MARIA_ISABEL_SILVA_DOS_SANTOS_BAR", "ENDEE": "ESTRADA_DO_KOYAMA1920__RECREIO_BELA_VISTA_08633-435", "LMAPS": "https://www.google.com/maps?q=&layer=c&cbll=-46.3140648,-23.6541987", "O_QUE_FAZER": "CARTEIRA", "ER_REGIAO_CIDADE_min": "Suzano_Palmeiras de São Paulo_Alto Tietê" }, "geometry": { "type": "Point", "coordinates": [ -46.3140648, -23.6541987 ] } },
{ "type": "Feature", "properties": { "fid": 182774, "CNPJ": "17359754000135", "IDCIDADE": "SUZANO", "NOMEFANTASIA": "MERCADO_VO_ROSA", "RAZAOSOCIAL": "DIOGO_CHIOSANI_MERCADO", "ENDEE": "ESTRADA_DO_KOYAMA1875__RECREIO_BELA_VISTA_08635-440", "LMAPS": "https://www.google.com/maps?q=&layer=c&cbll=-46.3138653,-23.6543413", "O_QUE_FAZER": "CARTEIRA", "ER_REGIAO_CIDADE_min": "Suzano_Palmeiras de São Paulo_Alto Tietê" }, "geometry": { "type": "Point", "coordinates": [ -46.3138653, -23.6543413 ] } },
{ "type": "Feature", "properties": { "fid": 182808, "CNPJ": "31501130000131", "IDCIDADE": "SUZANO", "NOMEFANTASIA": "JC_TINTAS", "RAZAOSOCIAL": "JADER_SILVA_MATOS_35845840864", "ENDEE": "ESTRADA_DO_KOYAMA1920__CLUBE_DOS_OFICIAIS_08635-440", "LMAPS": "https://www.google.com/maps?q=&layer=c&cbll=-46.314157,-23.6544957", "O_QUE_FAZER": "CARTEIRA", "ER_REGIAO_CIDADE_min": "Suzano_Palmeiras de São Paulo_Alto Tietê" }, "geometry": { "type": "Point", "coordinates": [ -46.314157, -23.6544957 ] } },
{ "type": "Feature", "properties": { "fid": 182851, "CNPJ": "13082385000125", "IDCIDADE": "SUZANO", "NOMEFANTASIA": "EMERGENCIA_GAS", "RAZAOSOCIAL": "EDINALDO_COSTA_DA_SILVA_GAS_E_AGUA", "ENDEE": "ESTRADA_DO_KOYAMA1894__RECREIO_BELA_VISTA_08635-440", "LMAPS": "https://www.google.com/maps?q=&layer=c&cbll=-46.3139964,-23.6546602", "O_QUE_FAZER": "CARTEIRA", "ER_REGIAO_CIDADE_min": "Suzano_Palmeiras de São Paulo_Alto Tietê" }, "geometry": { "type": "Point", "coordinates": [ -46.3139964, -23.6546602 ] } },
{ "type": "Feature", "properties": { "fid": 182911, "CNPJ": "16806803000178", "IDCIDADE": "SUZANO", "NOMEFANTASIA": "MJ_DEPOSITO", "RAZAOSOCIAL": "M_&_J_CARVALHO_MATERIAIS_PARA_CONSTRUCAO_LTDA", "ENDEE": "ESTRADA_DO_KOYAMA2027__RECREIO_BELA_VISTA_08635-440", "LMAPS": "https://www.google.com/maps?q=&layer=c&cbll=-46.3136154,-23.6548859", "O_QUE_FAZER": "CARTEIRA", "ER_REGIAO_CIDADE_min": "Suzano_Palmeiras de São Paulo_Alto Tietê" }, "geometry": { "type": "Point", "coordinates": [ -46.3136154, -23.6548859 ] } },
{ "type": "Feature", "properties": { "fid": 182997, "CNPJ": "36339594000107", "IDCIDADE": "SUZANO", "NOMEFANTASIA": "AGUA_AZUL_PISCINAS", "RAZAOSOCIAL": "RRE_PISCINAS_E_ACESSORIOS_LTDA", "ENDEE": "RODOVIA_INDIO_TIBIRICA13956__PALMEIRAS_DE_SAO_PAULO_08630-000", "LMAPS": "https://www.google.com/maps?q=&layer=c&cbll=-46.3293302,-23.6552766", "O_QUE_FAZER": "CARTEIRA", "ER_REGIAO_CIDADE_min": "Suzano_Palmeiras de São Paulo_Alto Tietê" }, "geometry": { "type": "Point", "coordinates": [ -46.3293302, -23.6552766 ] } },
{ "type": "Feature", "properties": { "fid": 183060, "CNPJ": "03446743000188", "IDCIDADE": "SUZANO", "NOMEFANTASIA": "TIG_SOLDAS", "RAZAOSOCIAL": "TIG_SOLDAS_INDUSTRIA_E_COMERCIO_DE_EQUIPAMENTOS_INDUSTRIAIS_LTDA", "ENDEE": "RODOVIA_INDIO_TIBIRICA13980__PALMEIRAS_DE_SAO_PAULO_08620-000", "LMAPS": "https://www.google.com/maps?q=&layer=c&cbll=-46.3294124,-23.6556635", "O_QUE_FAZER": "CARTEIRA", "ER_REGIAO_CIDADE_min": "Suzano_Palmeiras de São Paulo_Alto Tietê" }, "geometry": { "type": "Point", "coordinates": [ -46.3294124, -23.6556635 ] } },
{ "type": "Feature", "properties": { "fid": 183108, "CNPJ": "11171165000142", "IDCIDADE": "SUZANO", "NOMEFANTASIA": "SUZANMAX", "RAZAOSOCIAL": "IRMAOS_CASANOVA_COMERCIO_DE_MATERIAIS_PARA_CONSTRUCAO_LTDA", "ENDEE": "RODOVIA_INDIO_TIBIRICA14222__PALMEIRAS_DE_SAO_PAULO_08630-000", "LMAPS": "https://www.google.com/maps?q=&layer=c&cbll=-46.3319143,-23.6559169", "O_QUE_FAZER": "CARTEIRA", "ER_REGIAO_CIDADE_min": "Suzano_Palmeiras de São Paulo_Alto Tietê" }, "geometry": { "type": "Point", "coordinates": [ -46.3319143, -23.6559169 ] } },
{ "type": "Feature", "properties": { "fid": 183139, "CNPJ": "40154707000177", "IDCIDADE": "SUZANO", "NOMEFANTASIA": "COMERCIAL_PARANA", "RAZAOSOCIAL": "COMERCIAL_PARANA_MATERIAIS_DE_CONSTRUCAO_LTDA", "ENDEE": "ESTRADA_DO_KOYAMA2087__RECREIO_BELA_VISTA_08633-435", "LMAPS": "https://www.google.com/maps?q=&layer=c&cbll=-46.3133826,-23.656123", "O_QUE_FAZER": "CARTEIRA", "ER_REGIAO_CIDADE_min": "Suzano_Palmeiras de São Paulo_Alto Tietê" }, "geometry": { "type": "Point", "coordinates": [ -46.3133826, -23.656123 ] } },
{ "type": "Feature", "properties": { "fid": 183213, "CNPJ": "32637536000109", "IDCIDADE": "SUZANO", "NOMEFANTASIA": "RESTAURANTE_PAI_E_FILHO", "RAZAOSOCIAL": "ILARIO_P_FILHO_RESTAURANTE", "ENDEE": "RODOVIA_INDIO_TIBIRICA14080__PALMEIRAS_DE_SAO_PAULO_08630-000", "LMAPS": "https://www.google.com/maps?q=&layer=c&cbll=-46.3303628,-23.6564499", "O_QUE_FAZER": "CARTEIRA", "ER_REGIAO_CIDADE_min": "Suzano_Palmeiras de São Paulo_Alto Tietê" }, "geometry": { "type": "Point", "coordinates": [ -46.3303628, -23.6564499 ] } },
{ "type": "Feature", "properties": { "fid": 183682, "CNPJ": "45726461000184", "IDCIDADE": "SUZANO", "NOMEFANTASIA": "SG_MULTIMARCAS", "RAZAOSOCIAL": "SG_MULTIMARCAS_100000_MAUA_LTDA", "ENDEE": "RODOVIA_INDIO_TIBIRICA14730__PALMEIRAS_DE_SAO_PAULO_08620-000", "LMAPS": "https://www.google.com/maps?q=&layer=c&cbll=-46.3357533,-23.6588316", "O_QUE_FAZER": "CARTEIRA", "ER_REGIAO_CIDADE_min": "Suzano_Palmeiras de São Paulo_Alto Tietê" }, "geometry": { "type": "Point", "coordinates": [ -46.3357533, -23.6588316 ] } },
{ "type": "Feature", "properties": { "fid": 183724, "CNPJ": "08790308000190", "IDCIDADE": "SUZANO", "NOMEFANTASIA": "RESTAURANTE_GRAN_SABOR", "RAZAOSOCIAL": "FERNANDO_DE_ORNELAS_PEREIRA", "ENDEE": "RODOVIA_INDIO_TIBIRICA14730__PALMEIRAS_DE_SAO_PAULO_08630-900", "LMAPS": "https://www.google.com/maps?q=&layer=c&cbll=-46.335875,-23.6590674", "O_QUE_FAZER": "CARTEIRA", "ER_REGIAO_CIDADE_min": "Suzano_Palmeiras de São Paulo_Alto Tietê" }, "geometry": { "type": "Point", "coordinates": [ -46.335875, -23.6590674 ] } },
{ "type": "Feature", "properties": { "fid": 183822, "CNPJ": "17513414000117", "IDCIDADE": "SUZANO", "NOMEFANTASIA": "FAM_SUPERMERCADO", "RAZAOSOCIAL": "MERCADO_E_PADARIA_ESTANCIA_LTDA", "ENDEE": "RODOVIA_INDIO_TIBIRICA14952__PALMEIRAS_DE_SAO_PAULO_08620-000", "LMAPS": "https://www.google.com/maps?q=&layer=c&cbll=-46.3362843,-23.6596389", "O_QUE_FAZER": "CARTEIRA", "ER_REGIAO_CIDADE_min": "Suzano_Palmeiras de São Paulo_Alto Tietê" }, "geometry": { "type": "Point", "coordinates": [ -46.3362843, -23.6596389 ] } },
{ "type": "Feature", "properties": { "fid": 183825, "CNPJ": "07334447000146", "IDCIDADE": "SUZANO", "NOMEFANTASIA": "RODOVIA_GAS", "RAZAOSOCIAL": "RODOVIA_COMERCIO_DE_GAS_E_AGUA_LTDA", "ENDEE": "RODOVIA_INDIO_TIBIRICA14952__PALMEIRAS_DE_SAO_PAULO_08620-000", "LMAPS": "https://www.google.com/maps?q=&layer=c&cbll=-46.3360837,-23.659664", "O_QUE_FAZER": "CARTEIRA", "ER_REGIAO_CIDADE_min": "Suzano_Palmeiras de São Paulo_Alto Tietê" }, "geometry": { "type": "Point", "coordinates": [ -46.3360837, -23.659664 ] } },
{ "type": "Feature", "properties": { "fid": 183839, "CNPJ": "68388172000118", "IDCIDADE": "SUZANO", "NOMEFANTASIA": "BELLEFORT", "RAZAOSOCIAL": "BELLEFORT_PLASTICOS_REFORCADOS_LTDA", "ENDEE": "RUA_HAIDEE_TEIXEIRA_BISOLI130__RECANTO_SAO_JOSE_08630-640", "LMAPS": "https://www.google.com/maps?q=&layer=c&cbll=-46.3346425,-23.6597493", "O_QUE_FAZER": "CARTEIRA", "ER_REGIAO_CIDADE_min": "Suzano_Palmeiras de São Paulo_Alto Tietê" }, "geometry": { "type": "Point", "coordinates": [ -46.3346425, -23.6597493 ] } },
{ "type": "Feature", "properties": { "fid": 183860, "CNPJ": "24248468000168", "IDCIDADE": "SUZANO", "NOMEFANTASIA": "DROGARIA_FARMARCIO", "RAZAOSOCIAL": "MARCIO_E.PENHA_DROGARIA_FARMARCIO", "ENDEE": "RODOVIA_INDIO_TIBIRICA14952__PALMEIRAS_DE_SAO_PAULO_08620-000", "LMAPS": "https://www.google.com/maps?q=&layer=c&cbll=-46.3363367,-23.6598337", "O_QUE_FAZER": "CARTEIRA", "ER_REGIAO_CIDADE_min": "Suzano_Palmeiras de São Paulo_Alto Tietê" }, "geometry": { "type": "Point", "coordinates": [ -46.3363367, -23.6598337 ] } },
{ "type": "Feature", "properties": { "fid": 183920, "CNPJ": "04097898000119", "IDCIDADE": "SUZANO", "NOMEFANTASIA": "OLP_MAQUINAS", "RAZAOSOCIAL": "OLP_-_COMERCIO_DE_MAQUINAS_E_EQUIPAMENTOS_INDUSTRIAIS_LTDA", "ENDEE": "ESTRADA_DO_TANAKA228__VILA_SAO_PEDRO_08635-150", "LMAPS": "https://www.google.com/maps?q=&layer=c&cbll=-46.335877,-23.6601568", "O_QUE_FAZER": "CARTEIRA", "ER_REGIAO_CIDADE_min": "Suzano_Palmeiras de São Paulo_Alto Tietê" }, "geometry": { "type": "Point", "coordinates": [ -46.335877, -23.6601568 ] } },
{ "type": "Feature", "properties": { "fid": 183995, "CNPJ": "18038611000194", "IDCIDADE": "SUZANO", "NOMEFANTASIA": "DICAZA", "RAZAOSOCIAL": "ERICK_ROBERTO_RAPHAEL", "ENDEE": "RODOVIA_INDIO_TIBIRICA15065__PALMEIRAS_DE_SAO_PAULO_08620-000", "LMAPS": "https://www.google.com/maps?q=&layer=c&cbll=-46.3365098,-23.6607691", "O_QUE_FAZER": "CARTEIRA", "ER_REGIAO_CIDADE_min": "Suzano_Palmeiras de São Paulo_Alto Tietê" }, "geometry": { "type": "Point", "coordinates": [ -46.3365098, -23.6607691 ] } },
{ "type": "Feature", "properties": { "fid": 184194, "CNPJ": "04513357000124", "IDCIDADE": "SUZANO", "NOMEFANTASIA": "DEPOSITO_MARIO", "RAZAOSOCIAL": "HILDA_CONCEICAO_DOS_SANTOS_SUZANO", "ENDEE": "RODOVIA_INDIO_TIBIRICA15470__PALMEIRAS_DE_SAO_PAULO_08630-000", "LMAPS": "https://www.google.com/maps?q=&layer=c&cbll=-46.338869,-23.6620705", "O_QUE_FAZER": "CARTEIRA", "ER_REGIAO_CIDADE_min": "Suzano_Palmeiras de São Paulo_Alto Tietê" }, "geometry": { "type": "Point", "coordinates": [ -46.338869, -23.6620705 ] } },
{ "type": "Feature", "properties": { "fid": 184219, "CNPJ": "22379996000120", "IDCIDADE": "SUZANO", "NOMEFANTASIA": "CASA_DE_RACOES_MUTUM", "RAZAOSOCIAL": "JULIANA_FORNAZZA_SORRENTINO", "ENDEE": "RODOVIA_INDIO_TIBIRICA15476__PALMEIRAS_DE_SAO_PAULO_08630-000", "LMAPS": "https://www.google.com/maps?q=&layer=c&cbll=-46.3388483,-23.6622475", "O_QUE_FAZER": "CARTEIRA", "ER_REGIAO_CIDADE_min": "Suzano_Palmeiras de São Paulo_Alto Tietê" }, "geometry": { "type": "Point", "coordinates": [ -46.3388483, -23.6622475 ] } },
{ "type": "Feature", "properties": { "fid": 184256, "CNPJ": "31249083000180", "IDCIDADE": "SUZANO", "NOMEFANTASIA": "MIRANDA_BLOCOS", "RAZAOSOCIAL": "RODRIGO_MELO_DE_MIRANDA_PENNA_CONSTRUCAO", "ENDEE": "RODOVIA_INDIO_TIBIRICA15427__PALMEIRAS_DE_SAO_PAULO_08630-000", "LMAPS": "https://www.google.com/maps?q=&layer=c&cbll=-46.3382916,-23.6624887", "O_QUE_FAZER": "CARTEIRA", "ER_REGIAO_CIDADE_min": "Suzano_Palmeiras de São Paulo_Alto Tietê" }, "geometry": { "type": "Point", "coordinates": [ -46.3382916, -23.6624887 ] } },
{ "type": "Feature", "properties": { "fid": 184359, "CNPJ": "27219291000160", "IDCIDADE": "SUZANO", "NOMEFANTASIA": "CARROCERIAS_MARINGA", "RAZAOSOCIAL": "JM_VIEIRA_BATISTA_CARROCERIAS", "ENDEE": "RODOVIA_INDIO_TIBIRICA15700__PALMEIRAS_DE_SAO_PAULO_08630-000", "LMAPS": "https://www.google.com/maps?q=&layer=c&cbll=-46.3401134,-23.663346", "O_QUE_FAZER": "CARTEIRA", "ER_REGIAO_CIDADE_min": "Suzano_Palmeiras de São Paulo_Alto Tietê" }, "geometry": { "type": "Point", "coordinates": [ -46.3401134, -23.663346 ] } },
{ "type": "Feature", "properties": { "fid": 184883, "CNPJ": "20026942000156", "IDCIDADE": "SUZANO", "NOMEFANTASIA": "TICOS", "RAZAOSOCIAL": "EDWILSON_DIAS_FERRAGENS", "ENDEE": "RODOVIA_INDIO_TIBIRICA16220__PALMEIRAS_DE_SAO_PAULO_08620-000", "LMAPS": "https://www.google.com/maps?q=&layer=c&cbll=-46.3456155,-23.6668291", "O_QUE_FAZER": "CARTEIRA", "ER_REGIAO_CIDADE_min": "Suzano_Palmeiras de São Paulo_Alto Tietê" }, "geometry": { "type": "Point", "coordinates": [ -46.3456155, -23.6668291 ] } },
{ "type": "Feature", "properties": { "fid": 185186, "CNPJ": "16876639000175", "IDCIDADE": "SUZANO", "NOMEFANTASIA": "IDEAL_ESCOVAS", "RAZAOSOCIAL": "IDEAL_ESCOVAS_INDUSTRIAIS_LTDA", "ENDEE": "RODOVIA_INDIO_TIBIRICA16389__PALMEIRAS_DE_SAO_PAULO_08620-000", "LMAPS": "https://www.google.com/maps?q=&layer=c&cbll=-46.3457893,-23.668505", "O_QUE_FAZER": "CARTEIRA", "ER_REGIAO_CIDADE_min": "Suzano_Palmeiras de São Paulo_Alto Tietê" }, "geometry": { "type": "Point", "coordinates": [ -46.3457893, -23.668505 ] } },
{ "type": "Feature", "properties": { "fid": 185261, "CNPJ": "21089256000197", "IDCIDADE": "SUZANO", "NOMEFANTASIA": "CENTRAL_MERCADO", "RAZAOSOCIAL": "LIKE_TATTOO_E_PIERCING_LTDA", "ENDEE": "RUA_GUENTER_KORALEWSKI64__RECANTO_OURO_FINO_08635-600", "LMAPS": "https://www.google.com/maps?q=&layer=c&cbll=-46.344088,-23.6689066", "O_QUE_FAZER": "CARTEIRA", "ER_REGIAO_CIDADE_min": "Suzano_Palmeiras de São Paulo_Alto Tietê" }, "geometry": { "type": "Point", "coordinates": [ -46.344088, -23.6689066 ] } },
{ "type": "Feature", "properties": { "fid": 185267, "CNPJ": "03407463000160", "IDCIDADE": "SUZANO", "NOMEFANTASIA": "PADARIA_NEVES", "RAZAOSOCIAL": "ANIBAL_AMERICO_NEVES", "ENDEE": "RODOVIA_INDIO_TIBIRICA16481__PALMEIRAS_DE_SAO_PAULO_08620-000", "LMAPS": "https://www.google.com/maps?q=&layer=c&cbll=-46.346041,-23.6689405", "O_QUE_FAZER": "CARTEIRA", "ER_REGIAO_CIDADE_min": "Suzano_Palmeiras de São Paulo_Alto Tietê" }, "geometry": { "type": "Point", "coordinates": [ -46.346041, -23.6689405 ] } },
{ "type": "Feature", "properties": { "fid": 204810, "CNPJ": "34648045000199", "IDCIDADE": "SUZANO", "NOMEFANTASIA": "CAPRONI", "RAZAOSOCIAL": "CAPRONI_MAQUINAS_E_GERADORES_LTDA", "ENDEE": "RUA_DAS_PALMAS57__PARQUE_PALMEIRAS_08630-575", "LMAPS": "https://www.google.com/maps?q=&layer=c&cbll=-46.3245674,-23.6463372", "O_QUE_FAZER": "CARTEIRA - FAMPE", "ER_REGIAO_CIDADE_min": "Suzano_Palmeiras de São Paulo_Alto Tietê" }, "geometry": { "type": "Point", "coordinates": [ -46.3245674, -23.6463372 ] } },
{ "type": "Feature", "properties": { "fid": 214881, "CNPJ": "41722707000199", "IDCIDADE": "SUZANO", "NOMEFANTASIA": "BINOTTI COLCHOES", "RAZAOSOCIAL": "KATIA BINOTTI BENTO", "ENDEE": "RUA SEBASTIAO MOREIRA, 110, PARQUE PALMEIRAS, 08630-585, SUZANO, SP, BRASIL", "LMAPS": "https://www.google.com/maps?q=&layer=c&cbll=-23.6440811,-46.3232701", "O_QUE_FAZER": "CARTEIRA - FAMPE", "ER_REGIAO_CIDADE_min": "Suzano_Palmeiras de São Paulo_Alto Tietê" }, "geometry": { "type": "Point", "coordinates": [ -46.3232701, -23.6440811 ] } },
{ "type": "Feature", "properties": { "fid": 215195, "CNPJ": "24330767000147", "IDCIDADE": "SUZANO", "NOMEFANTASIA": null, "RAZAOSOCIAL": "ATS ASSESSORIA E REPRESENTACOES LTDA", "ENDEE": "RUA VANDERSON XAVIER BARBOSA, 50, JARDIM ANA ROSA (PALMEIRAS), 08635-469, SUZANO, SP, BRASIL", "LMAPS": "https://www.google.com/maps?q=&layer=c&cbll=-23.6682487,-46.3313505", "O_QUE_FAZER": "CARTEIRA - FAMPE", "ER_REGIAO_CIDADE_min": "Suzano_Palmeiras de São Paulo_Alto Tietê" }, "geometry": { "type": "Point", "coordinates": [ -46.3313505, -23.6682487 ] } },
{ "type": "Feature", "properties": { "fid": 215198, "CNPJ": "09382519000156", "IDCIDADE": "SUZANO", "NOMEFANTASIA": "E.F.S. RESIDUOS", "RAZAOSOCIAL": "E. F. S. RESIDUOS LTDA", "ENDEE": "RODOVIA INDIO TIBIRICA, 16388, PALMEIRAS DE SAO PAULO, 08630-000, SUZANO, SP, BRASIL", "LMAPS": "https://www.google.com/maps?q=&layer=c&cbll=-23.6685614,-46.3462687", "O_QUE_FAZER": "CARTEIRA - FAMPE", "ER_REGIAO_CIDADE_min": "Suzano_Palmeiras de São Paulo_Alto Tietê" }, "geometry": { "type": "Point", "coordinates": [ -46.3462687, -23.6685614 ] } },
{ "type": "Feature", "properties": { "fid": 286164, "CNPJ": "38282401000154", "IDCIDADE": "SUZANO", "NOMEFANTASIA": "NOVA_ARTE_PLANTAS_ORNAMENTAIS_LTDA", "RAZAOSOCIAL": "NOVA_ARTE_PLANTAS_ORNAMENTAIS", "ENDEE": "RUA_GILMAR_DO_NASCIMENTO21__CHACARAS_DUCHEN_08620-885", "LMAPS": "https://www.google.com/maps?q=&layer=c&cbll=-46.2684713,-23.622943", "O_QUE_FAZER": "FINALIZADO", "ER_REGIAO_CIDADE_min": "Suzano_Palmeiras de São Paulo_Alto Tietê" }, "geometry": { "type": "Point", "coordinates": [ -46.2684713, -23.622943 ] } },
{ "type": "Feature", "properties": { "fid": 286689, "CNPJ": "40985189000133", "IDCIDADE": "SUZANO", "NOMEFANTASIA": "40.985.189_SAVAIA_DA_SILVA_BALTRUSIS", "RAZAOSOCIAL": "40.985.189_SAVAIA_DA_SILVA_BALTRUSIS", "ENDEE": "RUA_PAULO_NUNES198__JARDIM_DORA_08620-500", "LMAPS": "https://www.google.com/maps?q=&layer=c&cbll=-46.3027987,-23.6298447", "O_QUE_FAZER": "FINALIZADO", "ER_REGIAO_CIDADE_min": "Suzano_Palmeiras de São Paulo_Alto Tietê" }, "geometry": { "type": "Point", "coordinates": [ -46.3027987, -23.6298447 ] } },
{ "type": "Feature", "properties": { "fid": 286862, "CNPJ": "08199851000117", "IDCIDADE": "SUZANO", "NOMEFANTASIA": "ANTONIO_SILVESTRE_DOS_SANTOS_SILVA", "RAZAOSOCIAL": "ESTOFADOS_SANTOS", "ENDEE": "RUA_JOSE_CALONE208__ALTO_DA_BOA_VISTA_08620-465", "LMAPS": "https://www.google.com/maps?q=&layer=c&cbll=-46.3054789,-23.6326899", "O_QUE_FAZER": "FINALIZADO", "ER_REGIAO_CIDADE_min": "Suzano_Palmeiras de São Paulo_Alto Tietê" }, "geometry": { "type": "Point", "coordinates": [ -46.3054789, -23.6326899 ] } },
{ "type": "Feature", "properties": { "fid": 287242, "CNPJ": "32841159000125", "IDCIDADE": "SUZANO", "NOMEFANTASIA": "DIEGO_PAIXAO_TENCHINI", "RAZAOSOCIAL": "PAIXAO_PISCINAS", "ENDEE": "ESTRADA_INDIO_TIBIRICA11650__VILA_SOL_NASCENTE_08655-000", "LMAPS": "https://www.google.com/maps?q=&layer=c&cbll=-46.3176824,-23.6385946", "O_QUE_FAZER": "FINALIZADO", "ER_REGIAO_CIDADE_min": "Suzano_Palmeiras de São Paulo_Alto Tietê" }, "geometry": { "type": "Point", "coordinates": [ -46.3176824, -23.6385946 ] } },
{ "type": "Feature", "properties": { "fid": 287262, "CNPJ": "50348034000140", "IDCIDADE": "SUZANO", "NOMEFANTASIA": "50.348.034_MARCELO_LUIZ_VIVALDO_RAMOS", "RAZAOSOCIAL": "50.348.034_MARCELO_LUIZ_VIVALDO_RAMOS", "ENDEE": "RUA_JULIA157__RECANTO_FELIZ_08620-040", "LMAPS": "https://www.google.com/maps?q=&layer=c&cbll=-46.3207735,-23.6389657", "O_QUE_FAZER": "FINALIZADO", "ER_REGIAO_CIDADE_min": "Suzano_Palmeiras de São Paulo_Alto Tietê" }, "geometry": { "type": "Point", "coordinates": [ -46.3207735, -23.6389657 ] } },
{ "type": "Feature", "properties": { "fid": 287270, "CNPJ": "52619144000124", "IDCIDADE": "SUZANO", "NOMEFANTASIA": "52.619.144_EDSON_NATALICIO_DA_COSTA", "RAZAOSOCIAL": "HEADMAQ", "ENDEE": "ESTRADA_INDIO_TIBIRICA11670__CIDADE_MIGUEL_BADRA_08620-000", "LMAPS": "https://www.google.com/maps?q=&layer=c&cbll=-46.3177353,-23.6390748", "O_QUE_FAZER": "FINALIZADO", "ER_REGIAO_CIDADE_min": "Suzano_Palmeiras de São Paulo_Alto Tietê" }, "geometry": { "type": "Point", "coordinates": [ -46.3177353, -23.6390748 ] } },
{ "type": "Feature", "properties": { "fid": 287316, "CNPJ": "48270900000185", "IDCIDADE": "SUZANO", "NOMEFANTASIA": "GIBA_MERCADAO_DA_CONSTRUCAO_LTDA", "RAZAOSOCIAL": "GIBA", "ENDEE": "ESTRADA_INDIO_TIBIRICA11730__IPELANDIA_08620-000", "LMAPS": "https://www.google.com/maps?q=&layer=c&cbll=-46.3183146,-23.6399309", "O_QUE_FAZER": "FINALIZADO", "ER_REGIAO_CIDADE_min": "Suzano_Palmeiras de São Paulo_Alto Tietê" }, "geometry": { "type": "Point", "coordinates": [ -46.3183146, -23.6399309 ] } },
{ "type": "Feature", "properties": { "fid": 287332, "CNPJ": "13425922000192", "IDCIDADE": "SUZANO", "NOMEFANTASIA": "NEUSA_CAZUE_YOTSUDA_RACOES", "RAZAOSOCIAL": "MINO_RACOES", "ENDEE": "ESTRADA_INDIO_TIBIRICA11803__IPELANDIA_08620-000", "LMAPS": "https://www.google.com/maps?q=&layer=c&cbll=-46.3180926,-23.6405096", "O_QUE_FAZER": "FINALIZADO", "ER_REGIAO_CIDADE_min": "Suzano_Palmeiras de São Paulo_Alto Tietê" }, "geometry": { "type": "Point", "coordinates": [ -46.3180926, -23.6405096 ] } },
{ "type": "Feature", "properties": { "fid": 287370, "CNPJ": "57244162000192", "IDCIDADE": "SUZANO", "NOMEFANTASIA": "DROGARIA_E_PERFUMARIA_BLESSFARMA_LTDA", "RAZAOSOCIAL": "DROGARIA_BLESS_FARMA", "ENDEE": "ESTRADA_INDIO_TIBIRICA11970__VILA_SOL_NASCENTE_08655-000", "LMAPS": "https://www.google.com/maps?q=&layer=c&cbll=-46.3188114,-23.6409784", "O_QUE_FAZER": "FINALIZADO", "ER_REGIAO_CIDADE_min": "Suzano_Palmeiras de São Paulo_Alto Tietê" }, "geometry": { "type": "Point", "coordinates": [ -46.3188114, -23.6409784 ] } },
{ "type": "Feature", "properties": { "fid": 287390, "CNPJ": "34764864000100", "IDCIDADE": "SUZANO", "NOMEFANTASIA": "CEARA_BATERIAS_SUZANO_LTDA", "RAZAOSOCIAL": "CEARA_BATERIAS", "ENDEE": "ESTRADA_INDIO_TIBIRICA11984__PALMEIRAS_DE_SAO_PAULO_08630-000", "LMAPS": "https://www.google.com/maps?q=&layer=c&cbll=-46.319235,-23.6413556", "O_QUE_FAZER": "FINALIZADO", "ER_REGIAO_CIDADE_min": "Suzano_Palmeiras de São Paulo_Alto Tietê" }, "geometry": { "type": "Point", "coordinates": [ -46.319235, -23.6413556 ] } },
{ "type": "Feature", "properties": { "fid": 287428, "CNPJ": "56019958000189", "IDCIDADE": "SUZANO", "NOMEFANTASIA": "56.019.958_CRISTIANO_SANTOS_DE_ARAUJO", "RAZAOSOCIAL": "MARINA_FOTOTIMA", "ENDEE": "ESTRADA_INDIO_TIBIRICA12118__PALMEIRAS_DE_SAO_PAULO_08630-000", "LMAPS": "https://www.google.com/maps?q=&layer=c&cbll=-46.3199935,-23.6418721", "O_QUE_FAZER": "FINALIZADO", "ER_REGIAO_CIDADE_min": "Suzano_Palmeiras de São Paulo_Alto Tietê" }, "geometry": { "type": "Point", "coordinates": [ -46.3199935, -23.6418721 ] } },
{ "type": "Feature", "properties": { "fid": 287440, "CNPJ": "59215060000174", "IDCIDADE": "SUZANO", "NOMEFANTASIA": "AR_MARMORARIA_LTDA", "RAZAOSOCIAL": "AR_MARMORARIA", "ENDEE": "ESTRADA_INDIO_TIBIRICA12108__VILA_SOL_NASCENTE_08655-000", "LMAPS": "https://www.google.com/maps?q=&layer=c&cbll=-46.3197193,-23.6419929", "O_QUE_FAZER": "FINALIZADO", "ER_REGIAO_CIDADE_min": "Suzano_Palmeiras de São Paulo_Alto Tietê" }, "geometry": { "type": "Point", "coordinates": [ -46.3197193, -23.6419929 ] } },
{ "type": "Feature", "properties": { "fid": 287448, "CNPJ": "35778252000120", "IDCIDADE": "SUZANO", "NOMEFANTASIA": "GALDINOS_GAS_CENTRAL_PALMEIRAS_LTDA", "RAZAOSOCIAL": "GALDINO_GAS", "ENDEE": "ESTRADA_INDIO_TIBIRICA12144__JARDIM_AMAZONAS_08655-000", "LMAPS": "https://www.google.com/maps?q=&layer=c&cbll=-46.3200821,-23.6420538", "O_QUE_FAZER": "FINALIZADO", "ER_REGIAO_CIDADE_min": "Suzano_Palmeiras de São Paulo_Alto Tietê" }, "geometry": { "type": "Point", "coordinates": [ -46.3200821, -23.6420538 ] } },
{ "type": "Feature", "properties": { "fid": 287484, "CNPJ": "11486035000107", "IDCIDADE": "SUZANO", "NOMEFANTASIA": "VANILDO_CARLOS_DOS_SANTOS_ACOUGUE", "RAZAOSOCIAL": "CASA_DE_CARNES_CAFU", "ENDEE": "ESTRADA_INDIO_TIBIRICA12214__VILA_SOL_NASCENTE_08655-000", "LMAPS": "https://www.google.com/maps?q=&layer=c&cbll=-46.3202751,-23.6424471", "O_QUE_FAZER": "FINALIZADO", "ER_REGIAO_CIDADE_min": "Suzano_Palmeiras de São Paulo_Alto Tietê" }, "geometry": { "type": "Point", "coordinates": [ -46.3202751, -23.6424471 ] } },
{ "type": "Feature", "properties": { "fid": 287503, "CNPJ": "16613204000138", "IDCIDADE": "SUZANO", "NOMEFANTASIA": "RLTEXTIL_COMERCIO_E_SERVICOS_LTDA", "RAZAOSOCIAL": "RLTEXTIL_COMERCIO_E_SERVICOS", "ENDEE": "RUA_RENO_CARDOSO195__VILA_RICA_08625-570", "LMAPS": "https://www.google.com/maps?q=&layer=c&cbll=-46.3164138,-23.6425695", "O_QUE_FAZER": "FINALIZADO", "ER_REGIAO_CIDADE_min": "Suzano_Palmeiras de São Paulo_Alto Tietê" }, "geometry": { "type": "Point", "coordinates": [ -46.3164138, -23.6425695 ] } },
{ "type": "Feature", "properties": { "fid": 287519, "CNPJ": "72902067000122", "IDCIDADE": "SUZANO", "NOMEFANTASIA": "MELO_S_DOCES_EMBALAGENS_E_ARTIGOS_PARA_FESTAS_LTDA", "RAZAOSOCIAL": "MELOS_DOCES", "ENDEE": "RUA_SEBASTIAO_MOREIRA399__PARQUE_PALMEIRAS_08630-585", "LMAPS": "https://www.google.com/maps?q=&layer=c&cbll=-46.324873,-23.6427218", "O_QUE_FAZER": "FINALIZADO", "ER_REGIAO_CIDADE_min": "Suzano_Palmeiras de São Paulo_Alto Tietê" }, "geometry": { "type": "Point", "coordinates": [ -46.324873, -23.6427218 ] } },
{ "type": "Feature", "properties": { "fid": 287534, "CNPJ": "46842294000108", "IDCIDADE": "SUZANO", "NOMEFANTASIA": "OTICAS_ONN_LTDA", "RAZAOSOCIAL": "OTICA_ONN", "ENDEE": "RUA_SEBASTIAO_MOREIRA309__PARQUE_PALMEIRAS_08630-585", "LMAPS": "https://www.google.com/maps?q=&layer=c&cbll=-46.3246627,-23.642903", "O_QUE_FAZER": "FINALIZADO", "ER_REGIAO_CIDADE_min": "Suzano_Palmeiras de São Paulo_Alto Tietê" }, "geometry": { "type": "Point", "coordinates": [ -46.3246627, -23.642903 ] } },
{ "type": "Feature", "properties": { "fid": 287594, "CNPJ": "11063381000174", "IDCIDADE": "SUZANO", "NOMEFANTASIA": "SONIA_L_DI_M._SUPRIZZI_FLORICULTURA", "RAZAOSOCIAL": "BILU", "ENDEE": "RUA_SEBASTIAO_MOREIRA171__PARQUE_PALMEIRAS_08630-585", "LMAPS": "https://www.google.com/maps?q=&layer=c&cbll=-46.3242153,-23.6434346", "O_QUE_FAZER": "FINALIZADO", "ER_REGIAO_CIDADE_min": "Suzano_Palmeiras de São Paulo_Alto Tietê" }, "geometry": { "type": "Point", "coordinates": [ -46.3242153, -23.6434346 ] } },
{ "type": "Feature", "properties": { "fid": 287597, "CNPJ": "17920993000112", "IDCIDADE": "SUZANO", "NOMEFANTASIA": "ADEILSSON_FABIO_DA_LOMBA_PIZZARIA", "RAZAOSOCIAL": "RESTAURANTE_KDELICIA", "ENDEE": "ESTRADA_INDIO_TIBIRICA12309__VILA_SOL_NASCENTE_08655-000", "LMAPS": "https://www.google.com/maps?q=&layer=c&cbll=-46.3213809,-23.6434701", "O_QUE_FAZER": "FINALIZADO", "ER_REGIAO_CIDADE_min": "Suzano_Palmeiras de São Paulo_Alto Tietê" }, "geometry": { "type": "Point", "coordinates": [ -46.3213809, -23.6434701 ] } },
{ "type": "Feature", "properties": { "fid": 287628, "CNPJ": "15823376000173", "IDCIDADE": "SUZANO", "NOMEFANTASIA": "RITA_DE_CASSIA_ANTONIO_MARTINS_LTDA", "RAZAOSOCIAL": "LELELARI", "ENDEE": "RUA_SEBASTIAO_MOREIRA154__PARQUE_PALMEIRAS_08630-585", "LMAPS": "https://www.google.com/maps?q=&layer=c&cbll=-46.3235071,-23.6437199", "O_QUE_FAZER": "FINALIZADO", "ER_REGIAO_CIDADE_min": "Suzano_Palmeiras de São Paulo_Alto Tietê" }, "geometry": { "type": "Point", "coordinates": [ -46.3235071, -23.6437199 ] } },
{ "type": "Feature", "properties": { "fid": 287630, "CNPJ": "14677895000108", "IDCIDADE": "SUZANO", "NOMEFANTASIA": "14.677.895_JEFFERSON_FERREIRA_DA_SILVA", "RAZAOSOCIAL": "JEFFERSON_GAMES", "ENDEE": "RUA_SEBASTIAO_MOREIRA194__PARQUE_PALMEIRAS_08630-585", "LMAPS": "https://www.google.com/maps?q=&layer=c&cbll=-46.32358,-23.6437331", "O_QUE_FAZER": "FINALIZADO", "ER_REGIAO_CIDADE_min": "Suzano_Palmeiras de São Paulo_Alto Tietê" }, "geometry": { "type": "Point", "coordinates": [ -46.32358, -23.6437331 ] } },
{ "type": "Feature", "properties": { "fid": 287637, "CNPJ": "01576203000193", "IDCIDADE": "SUZANO", "NOMEFANTASIA": "JOEL_DOS_SANTOS_RIBEIRO_BICICLETARIA", "RAZAOSOCIAL": "SJ_BIKES", "ENDEE": "RUA_SEBASTIAO_MOREIRA150__PARQUE_PALMEIRAS_08630-585", "LMAPS": "https://www.google.com/maps?q=&layer=c&cbll=-46.3235392,-23.6438262", "O_QUE_FAZER": "FINALIZADO", "ER_REGIAO_CIDADE_min": "Suzano_Palmeiras de São Paulo_Alto Tietê" }, "geometry": { "type": "Point", "coordinates": [ -46.3235392, -23.6438262 ] } },
{ "type": "Feature", "properties": { "fid": 287646, "CNPJ": "55506487000170", "IDCIDADE": "SUZANO", "NOMEFANTASIA": "EMPORIO_MED_PRODUTOS_ORTOPEDICOS_LTDA", "RAZAOSOCIAL": "EMPORIO_MED", "ENDEE": "RUA_SEBASTIAO_MOREIRA110__PARQUE_PALMEIRAS_08630-585", "LMAPS": "https://www.google.com/maps?q=&layer=c&cbll=-46.3232196,-23.6439173", "O_QUE_FAZER": "FINALIZADO", "ER_REGIAO_CIDADE_min": "Suzano_Palmeiras de São Paulo_Alto Tietê" }, "geometry": { "type": "Point", "coordinates": [ -46.3232196, -23.6439173 ] } },
{ "type": "Feature", "properties": { "fid": 287654, "CNPJ": "57474961000155", "IDCIDADE": "SUZANO", "NOMEFANTASIA": "COMERCIAL_MONTANHA_LTDA", "RAZAOSOCIAL": "MAMUTE", "ENDEE": "ESTRADA_INDIO_TIBIRICA12459__JARDIM_AMAZONAS_08620-000", "LMAPS": "https://www.google.com/maps?q=&layer=c&cbll=-46.3219693,-23.6439945", "O_QUE_FAZER": "FINALIZADO", "ER_REGIAO_CIDADE_min": "Suzano_Palmeiras de São Paulo_Alto Tietê" }, "geometry": { "type": "Point", "coordinates": [ -46.3219693, -23.6439945 ] } },
{ "type": "Feature", "properties": { "fid": 287656, "CNPJ": "09307350000170", "IDCIDADE": "SUZANO", "NOMEFANTASIA": "ELAINE_RIBEIRO_ACESSORIOS", "RAZAOSOCIAL": "ARTES_PRESENTES", "ENDEE": "RUA_SEBASTIAO_MOREIRA136__PARQUE_PALMEIRAS_08630-585", "LMAPS": "https://www.google.com/maps?q=&layer=c&cbll=-46.3233439,-23.6440082", "O_QUE_FAZER": "FINALIZADO", "ER_REGIAO_CIDADE_min": "Suzano_Palmeiras de São Paulo_Alto Tietê" }, "geometry": { "type": "Point", "coordinates": [ -46.3233439, -23.6440082 ] } },
{ "type": "Feature", "properties": { "fid": 287670, "CNPJ": "04576809000117", "IDCIDADE": "SUZANO", "NOMEFANTASIA": "SUELY_DOS_SANTOS_SOBRINHO_CANDIDO", "RAZAOSOCIAL": "DEPOSITO_ASTRAL", "ENDEE": "RODOVIA_INDIO_TIBIRICA12337__JARDIM_AMAZONAS_08620-000", "LMAPS": "https://www.google.com/maps?q=&layer=c&cbll=-46.3221629,-23.6441806", "O_QUE_FAZER": "FINALIZADO", "ER_REGIAO_CIDADE_min": "Suzano_Palmeiras de São Paulo_Alto Tietê" }, "geometry": { "type": "Point", "coordinates": [ -46.3221629, -23.6441806 ] } },
{ "type": "Feature", "properties": { "fid": 287678, "CNPJ": "08999895000121", "IDCIDADE": "SUZANO", "NOMEFANTASIA": "GF_MAGAZINE_ELETRODOMESTICOS_LTDA", "RAZAOSOCIAL": "GF_MAGAZINE", "ENDEE": "RUA_SEBASTIAO_MOREIRA121__PARQUE_PALMEIRAS_08630-585", "LMAPS": "https://www.google.com/maps?q=&layer=c&cbll=-46.3234943,-23.6442307", "O_QUE_FAZER": "FINALIZADO", "ER_REGIAO_CIDADE_min": "Suzano_Palmeiras de São Paulo_Alto Tietê" }, "geometry": { "type": "Point", "coordinates": [ -46.3234943, -23.6442307 ] } },
{ "type": "Feature", "properties": { "fid": 287685, "CNPJ": "43337637000180", "IDCIDADE": "SUZANO", "NOMEFANTASIA": "JOICE_AVILA_OLIVEIRA_DOS_SANTOS", "RAZAOSOCIAL": "PADARIA_AVILAS", "ENDEE": "RODOVIA_INDIO_TIBIRICA12355__JARDIM_AMAZONAS_08620-000", "LMAPS": "https://www.google.com/maps?q=&layer=c&cbll=-46.3222837,-23.6443693", "O_QUE_FAZER": "FINALIZADO", "ER_REGIAO_CIDADE_min": "Suzano_Palmeiras de São Paulo_Alto Tietê" }, "geometry": { "type": "Point", "coordinates": [ -46.3222837, -23.6443693 ] } },
{ "type": "Feature", "properties": { "fid": 287689, "CNPJ": "09043490000188", "IDCIDADE": "SUZANO", "NOMEFANTASIA": "RSP_FARMA_DROGARIA_LTDA", "RAZAOSOCIAL": "DROGARIA_NOVO_TEMPO", "ENDEE": "RUA_SEBASTIAO_MOREIRA12__PARQUE_PALMEIRAS_08630-585", "LMAPS": "https://www.google.com/maps?q=&layer=c&cbll=-46.3232039,-23.644464", "O_QUE_FAZER": "FINALIZADO", "ER_REGIAO_CIDADE_min": "Suzano_Palmeiras de São Paulo_Alto Tietê" }, "geometry": { "type": "Point", "coordinates": [ -46.3232039, -23.644464 ] } },
{ "type": "Feature", "properties": { "fid": 287698, "CNPJ": "07009209000165", "IDCIDADE": "SUZANO", "NOMEFANTASIA": "FRANCISCA_PAULINO_DE_OLIVEIRA_SANTOS_COSMETICOS", "RAZAOSOCIAL": "PERFUMARIA_DIFRANCELI", "ENDEE": "ESTRADA_DO_KOYAMA41__JARDIM_AMAZONAS_08633-435", "LMAPS": "https://www.google.com/maps?q=&layer=c&cbll=-46.3220854,-23.6445152", "O_QUE_FAZER": "FINALIZADO", "ER_REGIAO_CIDADE_min": "Suzano_Palmeiras de São Paulo_Alto Tietê" }, "geometry": { "type": "Point", "coordinates": [ -46.3220854, -23.6445152 ] } },
{ "type": "Feature", "properties": { "fid": 287700, "CNPJ": "03887493000111", "IDCIDADE": "SUZANO", "NOMEFANTASIA": "CHAVEIRO_MEDEIROS_LTDA", "RAZAOSOCIAL": "CHAVEIRO_MEDEIROS", "ENDEE": "AVENIDA_PERIMETRAL63__JARDIM_AMAZONAS_08625-420", "LMAPS": "https://www.google.com/maps?q=&layer=c&cbll=-46.3219143,-23.6445811", "O_QUE_FAZER": "FINALIZADO", "ER_REGIAO_CIDADE_min": "Suzano_Palmeiras de São Paulo_Alto Tietê" }, "geometry": { "type": "Point", "coordinates": [ -46.3219143, -23.6445811 ] } },
{ "type": "Feature", "properties": { "fid": 287702, "CNPJ": "29022143000186", "IDCIDADE": "SUZANO", "NOMEFANTASIA": "DROGARIA_SEANE_LTDA", "RAZAOSOCIAL": "DROGARIA_SEANE", "ENDEE": "AVENIDA_PERIMETRAL32__JARDIM_AMAZONAS_08625-420", "LMAPS": "https://www.google.com/maps?q=&layer=c&cbll=-46.3222518,-23.6445996", "O_QUE_FAZER": "FINALIZADO", "ER_REGIAO_CIDADE_min": "Suzano_Palmeiras de São Paulo_Alto Tietê" }, "geometry": { "type": "Point", "coordinates": [ -46.3222518, -23.6445996 ] } },
{ "type": "Feature", "properties": { "fid": 287704, "CNPJ": "30022223000110", "IDCIDADE": "SUZANO", "NOMEFANTASIA": "ELISEU_ALVES_DOS_SANTOS", "RAZAOSOCIAL": "DI_FRANCELI", "ENDEE": "ESTRADA_DO_KOYAMA73__JARDIM_AMAZONAS_08633-435", "LMAPS": "https://www.google.com/maps?q=&layer=c&cbll=-46.321787,-23.6446202", "O_QUE_FAZER": "FINALIZADO", "ER_REGIAO_CIDADE_min": "Suzano_Palmeiras de São Paulo_Alto Tietê" }, "geometry": { "type": "Point", "coordinates": [ -46.321787, -23.6446202 ] } },
{ "type": "Feature", "properties": { "fid": 287710, "CNPJ": "64599145000133", "IDCIDADE": "SUZANO", "NOMEFANTASIA": "PANTANAL_SUZANO_MATERIAIS_PARA_CONSTRUCAO_LTDA", "RAZAOSOCIAL": "PANTANAL", "ENDEE": "ESTRADA_DO_KOYAMA109__JARDIM_AMAZONAS_08633-435", "LMAPS": "https://www.google.com/maps?q=&layer=c&cbll=-46.3215147,-23.6447015", "O_QUE_FAZER": "FINALIZADO", "ER_REGIAO_CIDADE_min": "Suzano_Palmeiras de São Paulo_Alto Tietê" }, "geometry": { "type": "Point", "coordinates": [ -46.3215147, -23.6447015 ] } },
{ "type": "Feature", "properties": { "fid": 287712, "CNPJ": "16741070000130", "IDCIDADE": "SUZANO", "NOMEFANTASIA": "MATA_VERDE_SUPERMERCADO_LTDA", "RAZAOSOCIAL": "MERCADO_MATA_VERDE", "ENDEE": "ESTRADA_DO_KOYAMA123__RECREIO_BELA_VISTA_08633-435", "LMAPS": "https://www.google.com/maps?q=&layer=c&cbll=-46.3214158,-23.6447152", "O_QUE_FAZER": "FINALIZADO", "ER_REGIAO_CIDADE_min": "Suzano_Palmeiras de São Paulo_Alto Tietê" }, "geometry": { "type": "Point", "coordinates": [ -46.3214158, -23.6447152 ] } },
{ "type": "Feature", "properties": { "fid": 287713, "CNPJ": "52458692000110", "IDCIDADE": "SUZANO", "NOMEFANTASIA": "COMERCIO_DE_PRODUTOS_VETERINARIOS_SANTANA_LTDA", "RAZAOSOCIAL": "SANTANA_PET_SHOP", "ENDEE": "ESTRADA_DO_KOYAMA123__RECREIO_BELA_VISTA_08633-435", "LMAPS": "https://www.google.com/maps?q=&layer=c&cbll=-46.3214158,-23.6447152", "O_QUE_FAZER": "FINALIZADO", "ER_REGIAO_CIDADE_min": "Suzano_Palmeiras de São Paulo_Alto Tietê" }, "geometry": { "type": "Point", "coordinates": [ -46.3214158, -23.6447152 ] } },
{ "type": "Feature", "properties": { "fid": 287715, "CNPJ": "20348568000105", "IDCIDADE": "SUZANO", "NOMEFANTASIA": "COMERCIAL_SEANE_LTDA.", "RAZAOSOCIAL": "SEANE", "ENDEE": "ESTRADA_DO_KOYAMA10__JARDIM_AMAZONAS_08633-435", "LMAPS": "https://www.google.com/maps?q=&layer=c&cbll=-46.3225218,-23.6447439", "O_QUE_FAZER": "FINALIZADO", "ER_REGIAO_CIDADE_min": "Suzano_Palmeiras de São Paulo_Alto Tietê" }, "geometry": { "type": "Point", "coordinates": [ -46.3225218, -23.6447439 ] } },
{ "type": "Feature", "properties": { "fid": 287717, "CNPJ": "51306703000183", "IDCIDADE": "SUZANO", "NOMEFANTASIA": "51.306.703_FERNANDO_CASSIMIRO_FRANCA_DE_MENEZES", "RAZAOSOCIAL": "FERNANDO_CASSIMIRO_FRANCA_DE_MENEZES", "ENDEE": "RUA_DAS_PALMAS330__PARQUE_PALMEIRAS_08630-575", "LMAPS": "https://www.google.com/maps?q=&layer=c&cbll=-46.3257433,-23.6447579", "O_QUE_FAZER": "FINALIZADO", "ER_REGIAO_CIDADE_min": "Suzano_Palmeiras de São Paulo_Alto Tietê" }, "geometry": { "type": "Point", "coordinates": [ -46.3257433, -23.6447579 ] } },
{ "type": "Feature", "properties": { "fid": 287742, "CNPJ": "67639880000111", "IDCIDADE": "SUZANO", "NOMEFANTASIA": "J.M._HOLANDA_S_DROGARIA_LTDA", "RAZAOSOCIAL": "DROGARIA_HOLANDAS", "ENDEE": "AVENIDA_PERIMETRAL138__JARDIM_AMAZONAS_08625-420", "LMAPS": "https://www.google.com/maps?q=&layer=c&cbll=-46.3214172,-23.6450489", "O_QUE_FAZER": "FINALIZADO", "ER_REGIAO_CIDADE_min": "Suzano_Palmeiras de São Paulo_Alto Tietê" }, "geometry": { "type": "Point", "coordinates": [ -46.3214172, -23.6450489 ] } },
{ "type": "Feature", "properties": { "fid": 287835, "CNPJ": "04269228000132", "IDCIDADE": "SUZANO", "NOMEFANTASIA": "EVANILDO_DA_SILVA_SANTOS", "RAZAOSOCIAL": "CASA_DE_CARNES_CRISTO_REDENTOR", "ENDEE": "ESTRADA_DO_KOYAMA103__RECREIO_BELA_VISTA_08633-435", "LMAPS": "https://www.google.com/maps?q=&layer=c&cbll=-46.318248,-23.6458183", "O_QUE_FAZER": "FINALIZADO", "ER_REGIAO_CIDADE_min": "Suzano_Palmeiras de São Paulo_Alto Tietê" }, "geometry": { "type": "Point", "coordinates": [ -46.318248, -23.6458183 ] } },
{ "type": "Feature", "properties": { "fid": 287848, "CNPJ": "12996188000159", "IDCIDADE": "SUZANO", "NOMEFANTASIA": "DUGRAU_MOTO_PECAS_LTDA", "RAZAOSOCIAL": "KM_MOTOS", "ENDEE": "RODOVIA_INDIO_TIBIRICA12670__JARDIM_SANTA_RITA_DE_CASSIA_08620-000", "LMAPS": "https://www.google.com/maps?q=&layer=c&cbll=-46.3240502,-23.6459318", "O_QUE_FAZER": "FINALIZADO", "ER_REGIAO_CIDADE_min": "Suzano_Palmeiras de São Paulo_Alto Tietê" }, "geometry": { "type": "Point", "coordinates": [ -46.3240502, -23.6459318 ] } },
{ "type": "Feature", "properties": { "fid": 287890, "CNPJ": "51015469000135", "IDCIDADE": "SUZANO", "NOMEFANTASIA": "DEPOSITO_DE_MAT_P_CONSTRUCAO_SANTA_IZILDINHA_LTDA", "RAZAOSOCIAL": "DEPOSITO_IZILDINHA", "ENDEE": "RODOVIA_INDIO_TIBIRICA12760__JARDIM_SANTA_RITA_DE_CASSIA_08620-000", "LMAPS": "https://www.google.com/maps?q=&layer=c&cbll=-46.3243117,-23.6464607", "O_QUE_FAZER": "FINALIZADO", "ER_REGIAO_CIDADE_min": "Suzano_Palmeiras de São Paulo_Alto Tietê" }, "geometry": { "type": "Point", "coordinates": [ -46.3243117, -23.6464607 ] } },
{ "type": "Feature", "properties": { "fid": 287936, "CNPJ": "31275913000144", "IDCIDADE": "SUZANO", "NOMEFANTASIA": "INOXFER_COMERCIO_DE_EQUIPAMENTOS_DE_COZINHA_INDUSTRIAL_LTDA", "RAZAOSOCIAL": "INOXFER", "ENDEE": "RODOVIA_INDIO_TIBIRICA12745__JARDIM_SANTA_RITA_DE_CASSIA_08620-000", "LMAPS": "https://www.google.com/maps?q=&layer=c&cbll=-46.3234396,-23.6469394", "O_QUE_FAZER": "FINALIZADO", "ER_REGIAO_CIDADE_min": "Suzano_Palmeiras de São Paulo_Alto Tietê" }, "geometry": { "type": "Point", "coordinates": [ -46.3234396, -23.6469394 ] } },
{ "type": "Feature", "properties": { "fid": 288021, "CNPJ": "16852315000105", "IDCIDADE": "SUZANO", "NOMEFANTASIA": "ALAN_BRAHIAN_DA_CRUZ_VEICULOS", "RAZAOSOCIAL": "URUBATAN_MULTIMARCAS", "ENDEE": "RODOVIA_INDIO_TIBIRICA12933__JARDIM_SANTA_RITA_DE_CASSIA_08630-000", "LMAPS": "https://www.google.com/maps?q=&layer=c&cbll=-46.3244272,-23.6482007", "O_QUE_FAZER": "FINALIZADO", "ER_REGIAO_CIDADE_min": "Suzano_Palmeiras de São Paulo_Alto Tietê" }, "geometry": { "type": "Point", "coordinates": [ -46.3244272, -23.6482007 ] } },
{ "type": "Feature", "properties": { "fid": 289985, "CNPJ": "52580965000102", "IDCIDADE": "SUZANO", "NOMEFANTASIA": "SOPHIA_BIJUOX_PRESENTES_LTDA", "RAZAOSOCIAL": "REAL_MIX", "ENDEE": "ESTRADA_DO_KOYAMA81__CIDADE_MIGUEL_BADRA_08633-435", "LMAPS": "https://www.google.com/maps?q=&layer=c&cbll=-46.3151629,-23.6794026", "O_QUE_FAZER": "FINALIZADO", "ER_REGIAO_CIDADE_min": "Suzano_Palmeiras de São Paulo_Alto Tietê" }, "geometry": { "type": "Point", "coordinates": [ -46.3151629, -23.6794026 ] } },
{ "type": "Feature", "properties": { "fid": 289986, "CNPJ": "05116004000153", "IDCIDADE": "SUZANO", "NOMEFANTASIA": "CENTRO_DE_FORMACAO_DE_CONDUTORES_''B''_AUTO_MOTO_ESCOLA_PALMEIRAS_S/C_LTDA", "RAZAOSOCIAL": "AUTO_ESCOLA_PALMEIRAS", "ENDEE": "ESTRADA_DO_KOYAMA85__PALMEIRAS_08633-435", "LMAPS": "https://www.google.com/maps?q=&layer=c&cbll=-46.315138,-23.6794346", "O_QUE_FAZER": "FINALIZADO", "ER_REGIAO_CIDADE_min": "Suzano_Palmeiras de São Paulo_Alto Tietê" }, "geometry": { "type": "Point", "coordinates": [ -46.315138, -23.6794346 ] } },
{ "type": "Feature", "properties": { "fid": 305484, "CNPJ": "53582923000165", "IDCIDADE": "SUZANO", "NOMEFANTASIA": "-", "RAZAOSOCIAL": "53.582.923 IGOR LOPES DOS SANTOS", "ENDEE": "RUA MUSSI JORGE ANTONIO, 1, JARDIM AMAZONAS, 08625-385, SUZANO, SP, BRASIL", "LMAPS": "https://www.google.com/maps?q=&layer=c&cbll=-23.6408999,-46.3186258", "O_QUE_FAZER": "CARTEIRA - FAMPE", "ER_REGIAO_CIDADE_min": "Suzano_Palmeiras de São Paulo_Alto Tietê" }, "geometry": { "type": "Point", "coordinates": [ -46.3186258, -23.6408999 ] } },
{ "type": "Feature", "properties": { "fid": 305490, "CNPJ": "50593189000141", "IDCIDADE": "SUZANO", "NOMEFANTASIA": "-", "RAZAOSOCIAL": "50.593.189 LIGIA CRISTIANE DA SILVA GONCALVES", "ENDEE": "AVENIDA BELEM (PALMEIRAS), 202, CASA FUNDOS, JARDIM BELEM, 08625-305, SUZANO, SP, BRASIL", "LMAPS": "https://www.google.com/maps?q=&layer=c&cbll=-23.6413317,-46.3142203", "O_QUE_FAZER": "CARTEIRA - FAMPE", "ER_REGIAO_CIDADE_min": "Suzano_Palmeiras de São Paulo_Alto Tietê" }, "geometry": { "type": "Point", "coordinates": [ -46.3142203, -23.6413317 ] } },
{ "type": "Feature", "properties": { "fid": 305505, "CNPJ": "54422680000160", "IDCIDADE": "SUZANO", "NOMEFANTASIA": "-", "RAZAOSOCIAL": "54.422.680 ALEXANDRE BINOTTI", "ENDEE": "RUA MARIA DA GLORIA TEIXEIRA, 225, JARDIM BELEM, 08625-351, SUZANO, SP, BRASIL", "LMAPS": "https://www.google.com/maps?q=&layer=c&cbll=-23.6421929,-46.3146276", "O_QUE_FAZER": "CARTEIRA - FAMPE", "ER_REGIAO_CIDADE_min": "Suzano_Palmeiras de São Paulo_Alto Tietê" }, "geometry": { "type": "Point", "coordinates": [ -46.3146276, -23.6421929 ] } },
{ "type": "Feature", "properties": { "fid": 305511, "CNPJ": "61081020000129", "IDCIDADE": "SUZANO", "NOMEFANTASIA": "-", "RAZAOSOCIAL": "61.081.020 ELIESER DA SILVA INACIO", "ENDEE": "ESTRADA DA DUCHEN, 50, CHACARAS DUCHEN, 08620-790, SUZANO, SP, BRASIL", "LMAPS": "https://www.google.com/maps?q=&layer=c&cbll=-23.6425386,-46.2664265", "O_QUE_FAZER": "CARTEIRA - FAMPE", "ER_REGIAO_CIDADE_min": "Suzano_Palmeiras de São Paulo_Alto Tietê" }, "geometry": { "type": "Point", "coordinates": [ -46.2664265, -23.6425386 ] } },
{ "type": "Feature", "properties": { "fid": 305519, "CNPJ": "26832799000176", "IDCIDADE": "SUZANO", "NOMEFANTASIA": "Frimaq", "RAZAOSOCIAL": "FRIMAQ-PECAS LTDA", "ENDEE": "RUA MANOEL RAMOS, 17, PARQUE PALMEIRAS, 08630-555, SUZANO, SP, BRASIL", "LMAPS": "https://www.google.com/maps?q=&layer=c&cbll=-23.6434734,-46.3234928", "O_QUE_FAZER": "CARTEIRA - FAMPE", "ER_REGIAO_CIDADE_min": "Suzano_Palmeiras de São Paulo_Alto Tietê" }, "geometry": { "type": "Point", "coordinates": [ -46.3234928, -23.6434734 ] } },
{ "type": "Feature", "properties": { "fid": 305529, "CNPJ": "54742136000104", "IDCIDADE": "SUZANO", "NOMEFANTASIA": "-", "RAZAOSOCIAL": "54.742.136 CARLOS DOS SANTOS ALVES", "ENDEE": "RUA DAS PALMAS, 302A, PARQUE PALMEIRAS, 08630-575, SUZANO, SP, BRASIL", "LMAPS": "https://www.google.com/maps?q=&layer=c&cbll=-23.644211,-46.326618", "O_QUE_FAZER": "CARTEIRA - FAMPE", "ER_REGIAO_CIDADE_min": "Suzano_Palmeiras de São Paulo_Alto Tietê" }, "geometry": { "type": "Point", "coordinates": [ -46.326618, -23.644211 ] } },
{ "type": "Feature", "properties": { "fid": 305582, "CNPJ": "65058671000159", "IDCIDADE": "SUZANO", "NOMEFANTASIA": "-", "RAZAOSOCIAL": "65.058.671 ALESSANDRA APARECIDA MERINO SALUTE", "ENDEE": "RUA DOS PINHEIROS, 300, RECREIO BELA VISTA, 08633-460, SUZANO, SP, BRASIL", "LMAPS": "https://www.google.com/maps?q=&layer=c&cbll=-23.6493112,-46.3186422", "O_QUE_FAZER": "CARTEIRA - FAMPE", "ER_REGIAO_CIDADE_min": "Suzano_Palmeiras de São Paulo_Alto Tietê" }, "geometry": { "type": "Point", "coordinates": [ -46.3186422, -23.6493112 ] } },
{ "type": "Feature", "properties": { "fid": 305691, "CNPJ": "67308609000101", "IDCIDADE": "SUZANO", "NOMEFANTASIA": "-", "RAZAOSOCIAL": "67.308.609 EDUARDO NUNES GIARDINI", "ENDEE": "RUA ABILIO HENRIQUE FILHO, 43, ESTANCIA AMERICANA, 08630-206, SUZANO, SP, BRASIL", "LMAPS": "https://www.google.com/maps?q=&layer=c&cbll=-23.658961,-46.337213", "O_QUE_FAZER": "CARTEIRA - FAMPE", "ER_REGIAO_CIDADE_min": "Suzano_Palmeiras de São Paulo_Alto Tietê" }, "geometry": { "type": "Point", "coordinates": [ -46.337213, -23.658961 ] } }
]
}
