{
"type": "FeatureCollection",
"name": "ER_REGIAO_CIDADE_min_Itápolis_Itápolis_Araraquara",
"crs": { "type": "name", "properties": { "name": "urn:ogc:def:crs:OGC:1.3:CRS84" } },
"xy_coordinate_resolution": 1e-15,
"features": [
{ "type": "Feature", "properties": { "fid": 1279, "CNPJ": "00259087000116", "IDCIDADE": "ITAPOLIS", "NOMEFANTASIA": "PRILIPE", "RAZAOSOCIAL": "OSVALDEMIR_CARLOS_GALIO", "ENDEE": "RUA_JOSE_TREVISAN663__CENTRO_14900-000", "LMAPS": "https://www.google.com/maps?q=&layer=c&cbll=-21.5942631,-48.8140374", "O_QUE_FAZER": "CARTEIRA", "ER_REGIAO_CIDADE_min": "Itápolis_Itápolis_Araraquara" }, "geometry": { "type": "Point", "coordinates": [ -48.8140374, -21.5942631 ] } },
{ "type": "Feature", "properties": { "fid": 1410, "CNPJ": "00282884000114", "IDCIDADE": "ITAPOLIS", "NOMEFANTASIA": "PADARIA_VENTURINI", "RAZAOSOCIAL": "JANETE_DE_FATIMA_MEM_LTDA", "ENDEE": "AVENIDA_ORESTES_DA_COSTA_SENE_JUNIOR281__JARDIM_NOVA_REDENCAO_14900-000", "LMAPS": "https://www.google.com/maps?q=&layer=c&cbll=-21.608786,-48.8147462", "O_QUE_FAZER": "CARTEIRA", "ER_REGIAO_CIDADE_min": "Itápolis_Itápolis_Araraquara" }, "geometry": { "type": "Point", "coordinates": [ -48.8147462, -21.608786 ] } },
{ "type": "Feature", "properties": { "fid": 2038, "CNPJ": "00418534000132", "IDCIDADE": "ITAPOLIS", "NOMEFANTASIA": "PRINT", "RAZAOSOCIAL": "EFS_TECNOLOGIA_E_PUBLICIDADE_LTDA", "ENDEE": "AVENIDA_FRANCISCO_PORTO522__CENTRO_14900-000", "LMAPS": "https://www.google.com/maps?q=&layer=c&cbll=-21.5946423,-48.8101993", "O_QUE_FAZER": "CARTEIRA", "ER_REGIAO_CIDADE_min": "Itápolis_Itápolis_Araraquara" }, "geometry": { "type": "Point", "coordinates": [ -48.8101993, -21.5946423 ] } },
{ "type": "Feature", "properties": { "fid": 2703, "CNPJ": "00552664000163", "IDCIDADE": "ITAPOLIS", "NOMEFANTASIA": "BUGIGANGA", "RAZAOSOCIAL": "ELISANGELA_DOS_SANTOS_SOUZA", "ENDEE": "AVENIDA_SETE_DE_SETEMBRO1080__CENTRO_14900-000", "LMAPS": "https://www.google.com/maps?q=&layer=c&cbll=-21.5986848,-48.8119083", "O_QUE_FAZER": "CARTEIRA", "ER_REGIAO_CIDADE_min": "Itápolis_Itápolis_Araraquara" }, "geometry": { "type": "Point", "coordinates": [ -48.8119083, -21.5986848 ] } },
{ "type": "Feature", "properties": { "fid": 4167, "CNPJ": "00863022000185", "IDCIDADE": "ITAPOLIS", "NOMEFANTASIA": "AQUI_BARATO", "RAZAOSOCIAL": "MATEUS_CHAGAS_PINHEIRO", "ENDEE": "AVENIDA_PRESIDENTE_VALENTIM_GENTIL728__CENTRO_14900-000", "LMAPS": "https://www.google.com/maps?q=&layer=c&cbll=-21.594996,-48.8122289", "O_QUE_FAZER": "CARTEIRA", "ER_REGIAO_CIDADE_min": "Itápolis_Itápolis_Araraquara" }, "geometry": { "type": "Point", "coordinates": [ -48.8122289, -21.594996 ] } },
{ "type": "Feature", "properties": { "fid": 4308, "CNPJ": "00892821000180", "IDCIDADE": "ITAPOLIS", "NOMEFANTASIA": "ADABO_BIKE", "RAZAOSOCIAL": "MIRELA_LEIKO_SHIRAOKA_ADABO", "ENDEE": "AVENIDA_FRANCISCO_PORTO245__CENTRO_14900-000", "LMAPS": "https://www.google.com/maps?q=&layer=c&cbll=-21.5954353,-48.8076761", "O_QUE_FAZER": "CARTEIRA", "ER_REGIAO_CIDADE_min": "Itápolis_Itápolis_Araraquara" }, "geometry": { "type": "Point", "coordinates": [ -48.8076761, -21.5954353 ] } },
{ "type": "Feature", "properties": { "fid": 8346, "CNPJ": "01730083000137", "IDCIDADE": "ITAPOLIS", "NOMEFANTASIA": "AUTO_ESCOLA_BRASIL", "RAZAOSOCIAL": "AUTO_E_MOTO_ESCOLA_BRASIL_LTDA", "ENDEE": "AVENIDA_FRANCISCO_PORTO626__CENTRO_14900-000", "LMAPS": "https://www.google.com/maps?q=&layer=c&cbll=-21.5944497,-48.8111702", "O_QUE_FAZER": "CARTEIRA", "ER_REGIAO_CIDADE_min": "Itápolis_Itápolis_Araraquara" }, "geometry": { "type": "Point", "coordinates": [ -48.8111702, -21.5944497 ] } },
{ "type": "Feature", "properties": { "fid": 11454, "CNPJ": "02341893000164", "IDCIDADE": "ITAPOLIS", "NOMEFANTASIA": "OTICAS_MICHELETTI", "RAZAOSOCIAL": "ROBERTO_CARLOS_MICHELETTI_FILHO", "ENDEE": "AVENIDA_PRESIDENTE_VALENTIM_GENTIL736__CENTRO_14900-000", "LMAPS": "https://www.google.com/maps?q=&layer=c&cbll=-21.5950686,-48.8123965", "O_QUE_FAZER": "CARTEIRA", "ER_REGIAO_CIDADE_min": "Itápolis_Itápolis_Araraquara" }, "geometry": { "type": "Point", "coordinates": [ -48.8123965, -21.5950686 ] } },
{ "type": "Feature", "properties": { "fid": 13227, "CNPJ": "02680151000163", "IDCIDADE": "ITAPOLIS", "NOMEFANTASIA": "CALANGI", "RAZAOSOCIAL": "GISELDA_APARECIDA_DE_LIMA_PERES", "ENDEE": "RUA_PADRE_TARALLO396__CENTRO_14900-000", "LMAPS": "https://www.google.com/maps?q=&layer=c&cbll=-21.5921143,-48.8126035", "O_QUE_FAZER": "CARTEIRA", "ER_REGIAO_CIDADE_min": "Itápolis_Itápolis_Araraquara" }, "geometry": { "type": "Point", "coordinates": [ -48.8126035, -21.5921143 ] } },
{ "type": "Feature", "properties": { "fid": 14084, "CNPJ": "02835282000172", "IDCIDADE": "ITAPOLIS", "NOMEFANTASIA": "A_CALCEVEST", "RAZAOSOCIAL": "VANILDA_DE_SOUSA_OLIVEIRA_ITAPOLIS", "ENDEE": "RUA_PADRE_TARALLO874__CENTRO_14900-000", "LMAPS": "https://www.google.com/maps?q=&layer=c&cbll=-21.5962441,-48.8138777", "O_QUE_FAZER": "CARTEIRA", "ER_REGIAO_CIDADE_min": "Itápolis_Itápolis_Araraquara" }, "geometry": { "type": "Point", "coordinates": [ -48.8138777, -21.5962441 ] } },
{ "type": "Feature", "properties": { "fid": 16520, "CNPJ": "03234584000158", "IDCIDADE": "ITAPOLIS", "NOMEFANTASIA": "CASA_DE_CARNES_SAO_JOSE", "RAZAOSOCIAL": "EDSON_BENEDITO_SEICENTI_ITAPOLIS", "ENDEE": "AVENIDA_FREI_PAULO_LUIG916__CENTRO_14900-000", "LMAPS": "https://www.google.com/maps?q=&layer=c&cbll=-21.5985188,-48.8061763", "O_QUE_FAZER": "CARTEIRA", "ER_REGIAO_CIDADE_min": "Itápolis_Itápolis_Araraquara" }, "geometry": { "type": "Point", "coordinates": [ -48.8061763, -21.5985188 ] } },
{ "type": "Feature", "properties": { "fid": 17804, "CNPJ": "03436384000188", "IDCIDADE": "ITAPOLIS", "NOMEFANTASIA": "BAR_DO_CLAUDINHO", "RAZAOSOCIAL": "BAR_E_MERCEARIA_BRUNALDI_DE_ITAPOLIS_LTDA", "ENDEE": "AVENIDA_CAMPOS_SALLES1101__CENTRO_14900-000", "LMAPS": "https://www.google.com/maps?q=&layer=c&cbll=-21.5925706,-48.8153309", "O_QUE_FAZER": "CARTEIRA", "ER_REGIAO_CIDADE_min": "Itápolis_Itápolis_Araraquara" }, "geometry": { "type": "Point", "coordinates": [ -48.8153309, -21.5925706 ] } },
{ "type": "Feature", "properties": { "fid": 18724, "CNPJ": "03583641000104", "IDCIDADE": "ITAPOLIS", "NOMEFANTASIA": "CFC_ITAPOLIS", "RAZAOSOCIAL": "CENTRO_DE_FORMACAO_DE_CONDUTORES_ITAPOLIS_LTDA", "ENDEE": "AVENIDA_FRANCISCO_PORTO623__CENTRO_14900-000", "LMAPS": "https://www.google.com/maps?q=&layer=c&cbll=-21.5946455,-48.8111766", "O_QUE_FAZER": "CARTEIRA", "ER_REGIAO_CIDADE_min": "Itápolis_Itápolis_Araraquara" }, "geometry": { "type": "Point", "coordinates": [ -48.8111766, -21.5946455 ] } },
{ "type": "Feature", "properties": { "fid": 20745, "CNPJ": "03925078000105", "IDCIDADE": "ITAPOLIS", "NOMEFANTASIA": "PADARIA_J_PAN", "RAZAOSOCIAL": "HILDA_BONIFACIO_SERDAN_MARINO", "ENDEE": "AVENIDA_PRESIDENTE_VALENTIM_GENTIL1117__CENTRO_14900-000", "LMAPS": "https://www.google.com/maps?q=&layer=c&cbll=-21.594236,-48.8158723", "O_QUE_FAZER": "CARTEIRA", "ER_REGIAO_CIDADE_min": "Itápolis_Itápolis_Araraquara" }, "geometry": { "type": "Point", "coordinates": [ -48.8158723, -21.594236 ] } },
{ "type": "Feature", "properties": { "fid": 21221, "CNPJ": "04000081000180", "IDCIDADE": "ITAPOLIS", "NOMEFANTASIA": "VITRINI", "RAZAOSOCIAL": "SUELI_REGINA_PELUZZO_BRUMATTI", "ENDEE": "RUA_PADRE_TARALLO522__CENTRO_14900-000", "LMAPS": "https://www.google.com/maps?q=&layer=c&cbll=-21.5932107,-48.8128929", "O_QUE_FAZER": "CARTEIRA", "ER_REGIAO_CIDADE_min": "Itápolis_Itápolis_Araraquara" }, "geometry": { "type": "Point", "coordinates": [ -48.8128929, -21.5932107 ] } },
{ "type": "Feature", "properties": { "fid": 23367, "CNPJ": "04319310000124", "IDCIDADE": "ITAPOLIS", "NOMEFANTASIA": "WELINTON_FERNANDO_ZAMBINI", "RAZAOSOCIAL": "WELINTON_FERNANDO_ZAMBINI", "ENDEE": "AVENIDA_ORESTES_DA_COSTA_SENE_JUNIOR347__JARDIM_SAO_BENEDITO_14902-636", "LMAPS": "https://www.google.com/maps?q=&layer=c&cbll=-21.6093867,-48.8147771", "O_QUE_FAZER": "FINALIZADO", "ER_REGIAO_CIDADE_min": "Itápolis_Itápolis_Araraquara" }, "geometry": { "type": "Point", "coordinates": [ -48.8147771, -21.6093867 ] } },
{ "type": "Feature", "properties": { "fid": 24366, "CNPJ": "04469297000190", "IDCIDADE": "ITAPOLIS", "NOMEFANTASIA": "OPTUCA_VENEZA", "RAZAOSOCIAL": "OPTICAS_VENEZA_ITAPOLIS_LTDA", "ENDEE": "AVENIDA_PRESIDENTE_VALENTIM_GENTIL705__CENTRO_14900-000", "LMAPS": "https://www.google.com/maps?q=&layer=c&cbll=-21.5952532,-48.8121554", "O_QUE_FAZER": "CARTEIRA", "ER_REGIAO_CIDADE_min": "Itápolis_Itápolis_Araraquara" }, "geometry": { "type": "Point", "coordinates": [ -48.8121554, -21.5952532 ] } },
{ "type": "Feature", "properties": { "fid": 24475, "CNPJ": "04488926000129", "IDCIDADE": "ITAPOLIS", "NOMEFANTASIA": "GIOVANNA_CONVENIENCIA", "RAZAOSOCIAL": "MARCOS_ANTONIO_DE_GODOY_ITAPOLIS", "ENDEE": "AVENIDA_FREI_PAULO_LUIG861__CENTRO_14900-000", "LMAPS": "https://www.google.com/maps?q=&layer=c&cbll=-21.5982328,-48.8058726", "O_QUE_FAZER": "CARTEIRA", "ER_REGIAO_CIDADE_min": "Itápolis_Itápolis_Araraquara" }, "geometry": { "type": "Point", "coordinates": [ -48.8058726, -21.5982328 ] } },
{ "type": "Feature", "properties": { "fid": 25151, "CNPJ": "04586245000101", "IDCIDADE": "ITAPOLIS", "NOMEFANTASIA": "LIVRARIA_CATOLICA_ROSA_MISTICA", "RAZAOSOCIAL": "LIVRARIA_CATOLICA_ROSA_MISTICA_LTDA", "ENDEE": "AVENIDA_PRESIDENTE_VALENTIM_GENTIL898__CENTRO_14900-000", "LMAPS": "https://www.google.com/maps?q=&layer=c&cbll=-21.5945995,-48.8138406", "O_QUE_FAZER": "CARTEIRA", "ER_REGIAO_CIDADE_min": "Itápolis_Itápolis_Araraquara" }, "geometry": { "type": "Point", "coordinates": [ -48.8138406, -21.5945995 ] } },
{ "type": "Feature", "properties": { "fid": 26512, "CNPJ": "04773389000320", "IDCIDADE": "ITAPOLIS", "NOMEFANTASIA": "OTICAS_CAROL", "RAZAOSOCIAL": "CENTRO_OTICO_PIRASSUNUNGA_LTDA", "ENDEE": "AVENIDA_PRESIDENTE_VALENTIM_GENTIL716__CENTRO_14900-000", "LMAPS": "https://www.google.com/maps?q=&layer=c&cbll=-21.5951671,-48.8122336", "O_QUE_FAZER": "CARTEIRA", "ER_REGIAO_CIDADE_min": "Itápolis_Itápolis_Araraquara" }, "geometry": { "type": "Point", "coordinates": [ -48.8122336, -21.5951671 ] } },
{ "type": "Feature", "properties": { "fid": 27098, "CNPJ": "04859932000145", "IDCIDADE": "ITAPOLIS", "NOMEFANTASIA": "SHOCK_SPORT", "RAZAOSOCIAL": "CLAUDIA_REGINA_BRUDERHAUSEN_GHOSN", "ENDEE": "RUA_PADRE_TARALLO673__CENTRO_14900-000", "LMAPS": "https://www.google.com/maps?q=&layer=c&cbll=-21.5945691,-48.8131761", "O_QUE_FAZER": "CARTEIRA", "ER_REGIAO_CIDADE_min": "Itápolis_Itápolis_Araraquara" }, "geometry": { "type": "Point", "coordinates": [ -48.8131761, -21.5945691 ] } },
{ "type": "Feature", "properties": { "fid": 27261, "CNPJ": "04887150000110", "IDCIDADE": "ITAPOLIS", "NOMEFANTASIA": "STILLUS", "RAZAOSOCIAL": "JOSIMARA_BENEVENTO", "ENDEE": "AVENIDA_PRESIDENTE_VALENTIM_GENTIL871__CENTRO_14900-000", "LMAPS": "https://www.google.com/maps?q=&layer=c&cbll=-21.5948944,-48.813692", "O_QUE_FAZER": "CARTEIRA", "ER_REGIAO_CIDADE_min": "Itápolis_Itápolis_Araraquara" }, "geometry": { "type": "Point", "coordinates": [ -48.813692, -21.5948944 ] } },
{ "type": "Feature", "properties": { "fid": 27340, "CNPJ": "04897121000210", "IDCIDADE": "ITAPOLIS", "NOMEFANTASIA": "CANTINHO_DA_CRIANCA", "RAZAOSOCIAL": "TEREZA_SANTACROCE_ALVES", "ENDEE": "AVENIDA_PRESIDENTE_VALENTIM_GENTIL691__CENTRO_14900-000", "LMAPS": "https://www.google.com/maps?q=&layer=c&cbll=-21.5955014,-48.8116914", "O_QUE_FAZER": "CARTEIRA", "ER_REGIAO_CIDADE_min": "Itápolis_Itápolis_Araraquara" }, "geometry": { "type": "Point", "coordinates": [ -48.8116914, -21.5955014 ] } },
{ "type": "Feature", "properties": { "fid": 27531, "CNPJ": "04921913000100", "IDCIDADE": "ITAPOLIS", "NOMEFANTASIA": "CLINICA_VITALLIS", "RAZAOSOCIAL": "FRANGIOTTI_&_MIARELLI_LTDA", "ENDEE": "AVENIDA_FREI_PAULO_LUIG72__CENTRO_14900-000", "LMAPS": "https://www.google.com/maps?q=&layer=c&cbll=-21.5913011,-48.8040726", "O_QUE_FAZER": "CARTEIRA", "ER_REGIAO_CIDADE_min": "Itápolis_Itápolis_Araraquara" }, "geometry": { "type": "Point", "coordinates": [ -48.8040726, -21.5913011 ] } },
{ "type": "Feature", "properties": { "fid": 27997, "CNPJ": "04982741000176", "IDCIDADE": "ITAPOLIS", "NOMEFANTASIA": "RELOJOARIA_CASOTTI", "RAZAOSOCIAL": "EDILENE_REGINA_CASOTTI", "ENDEE": "AVENIDA_FRANCISCO_PORTO803__CENTRO_14900-000", "LMAPS": "https://www.google.com/maps?q=&layer=c&cbll=-21.594044,-48.8131115", "O_QUE_FAZER": "CARTEIRA", "ER_REGIAO_CIDADE_min": "Itápolis_Itápolis_Araraquara" }, "geometry": { "type": "Point", "coordinates": [ -48.8131115, -21.594044 ] } },
{ "type": "Feature", "properties": { "fid": 28595, "CNPJ": "05067619000137", "IDCIDADE": "ITAPOLIS", "NOMEFANTASIA": "AGROPECUARIA_TIJUCO_PRETO", "RAZAOSOCIAL": "AGROPECUARIA_TIJUCO_PRETO_LTDA", "ENDEE": "AVENIDA_CAMPOS_SALLES1085__CENTRO_14900-000", "LMAPS": "https://www.google.com/maps?q=&layer=c&cbll=-21.5926156,-48.815223", "O_QUE_FAZER": "CARTEIRA", "ER_REGIAO_CIDADE_min": "Itápolis_Itápolis_Araraquara" }, "geometry": { "type": "Point", "coordinates": [ -48.815223, -21.5926156 ] } },
{ "type": "Feature", "properties": { "fid": 28850, "CNPJ": "05100568000106", "IDCIDADE": "ITAPOLIS", "NOMEFANTASIA": "WORLD_MIX", "RAZAOSOCIAL": "WORLD_MIX_CONFECCOES_E_ACESSORIOS_LTDA", "ENDEE": "AVENIDA_FRANCISCO_PORTO403__CENTRO_14900-000", "LMAPS": "https://www.google.com/maps?q=&layer=c&cbll=-21.5951426,-48.8092625", "O_QUE_FAZER": "CARTEIRA", "ER_REGIAO_CIDADE_min": "Itápolis_Itápolis_Araraquara" }, "geometry": { "type": "Point", "coordinates": [ -48.8092625, -21.5951426 ] } },
{ "type": "Feature", "properties": { "fid": 30617, "CNPJ": "05357523000103", "IDCIDADE": "ITAPOLIS", "NOMEFANTASIA": "MERCADO_DA_SETE", "RAZAOSOCIAL": "RENATO_APARECIDO_MAZZO", "ENDEE": "AVENIDA_SETE_DE_SETEMBRO1470__CENTRO_14900-000", "LMAPS": "https://www.google.com/maps?q=&layer=c&cbll=-21.6020014,-48.8129919", "O_QUE_FAZER": "CARTEIRA", "ER_REGIAO_CIDADE_min": "Itápolis_Itápolis_Araraquara" }, "geometry": { "type": "Point", "coordinates": [ -48.8129919, -21.6020014 ] } },
{ "type": "Feature", "properties": { "fid": 31321, "CNPJ": "05464617000181", "IDCIDADE": "ITAPOLIS", "NOMEFANTASIA": "AUTO_ELETRICA_UNIAO", "RAZAOSOCIAL": "PRATA_SOUZA_&_MIQUELETTI_LTDA", "ENDEE": "RUA_BOIADEIRA795__CENTRO_14900-000", "LMAPS": "https://www.google.com/maps?q=&layer=c&cbll=-21.5934069,-48.8208586", "O_QUE_FAZER": "CARTEIRA", "ER_REGIAO_CIDADE_min": "Itápolis_Itápolis_Araraquara" }, "geometry": { "type": "Point", "coordinates": [ -48.8208586, -21.5934069 ] } },
{ "type": "Feature", "properties": { "fid": 31645, "CNPJ": "05511067000376", "IDCIDADE": "ITAPOLIS", "NOMEFANTASIA": "RED_CALCADOS", "RAZAOSOCIAL": "VIVIAN_ZAPATA_QUARESMA", "ENDEE": "AVENIDA_PRESIDENTE_VALENTIM_GENTIL898__CENTRO_14900-000", "LMAPS": "https://www.google.com/maps?q=&layer=c&cbll=-21.5946063,-48.8139527", "O_QUE_FAZER": "CARTEIRA", "ER_REGIAO_CIDADE_min": "Itápolis_Itápolis_Araraquara" }, "geometry": { "type": "Point", "coordinates": [ -48.8139527, -21.5946063 ] } },
{ "type": "Feature", "properties": { "fid": 33843, "CNPJ": "05814836000143", "IDCIDADE": "ITAPOLIS", "NOMEFANTASIA": "MAXIMA_COMPUTADORES", "RAZAOSOCIAL": "MARCELO_ELIAS_MILANI", "ENDEE": "RUA_BARAO_DO_RIO_BRANCO287__CENTRO_14900-000", "LMAPS": "https://www.google.com/maps?q=&layer=c&cbll=-21.5912468,-48.8114393", "O_QUE_FAZER": "CARTEIRA", "ER_REGIAO_CIDADE_min": "Itápolis_Itápolis_Araraquara" }, "geometry": { "type": "Point", "coordinates": [ -48.8114393, -21.5912468 ] } },
{ "type": "Feature", "properties": { "fid": 34890, "CNPJ": "05951007000102", "IDCIDADE": "ITAPOLIS", "NOMEFANTASIA": "ELETRICA_DANIEL", "RAZAOSOCIAL": "DANIEL_PORTANTI", "ENDEE": "AVENIDA_FREI_PAULO_LUIG1514__CENTRO_14900-000", "LMAPS": "https://www.google.com/maps?q=&layer=c&cbll=-21.6042586,-48.8079618", "O_QUE_FAZER": "CARTEIRA", "ER_REGIAO_CIDADE_min": "Itápolis_Itápolis_Araraquara" }, "geometry": { "type": "Point", "coordinates": [ -48.8079618, -21.6042586 ] } },
{ "type": "Feature", "properties": { "fid": 35978, "CNPJ": "06097012000162", "IDCIDADE": "ITAPOLIS", "NOMEFANTASIA": "TECNOCAR", "RAZAOSOCIAL": "GAZETTA_&_ALMEIDA_LTDA", "ENDEE": "AVENIDA_FREI_PAULO_LUIG1369__CENTRO_14900-000", "LMAPS": "https://www.google.com/maps?q=&layer=c&cbll=-21.6027883,-48.8072599", "O_QUE_FAZER": "CARTEIRA", "ER_REGIAO_CIDADE_min": "Itápolis_Itápolis_Araraquara" }, "geometry": { "type": "Point", "coordinates": [ -48.8072599, -21.6027883 ] } },
{ "type": "Feature", "properties": { "fid": 40585, "CNPJ": "07186991000198", "IDCIDADE": "ITAPOLIS", "NOMEFANTASIA": "CASA_DAS_ANTENAS", "RAZAOSOCIAL": "GILBERTO_EUZEBIO_SOARES", "ENDEE": "RUA_JOSE_TREVISAN580__CENTRO_14900-000", "LMAPS": "https://www.google.com/maps?q=&layer=c&cbll=-21.5934431,-48.8139193", "O_QUE_FAZER": "CARTEIRA", "ER_REGIAO_CIDADE_min": "Itápolis_Itápolis_Araraquara" }, "geometry": { "type": "Point", "coordinates": [ -48.8139193, -21.5934431 ] } },
{ "type": "Feature", "properties": { "fid": 42812, "CNPJ": "07450095000194", "IDCIDADE": "ITAPOLIS", "NOMEFANTASIA": "GALLO_AUTO_CENTER", "RAZAOSOCIAL": "CENTER_CAR_GALLO_AVENIDA_LTDA", "ENDEE": "AVENIDA_FREI_PAULO_LUIG835__CENTRO_14900-000", "LMAPS": "https://www.google.com/maps?q=&layer=c&cbll=-21.598093,-48.8058502", "O_QUE_FAZER": "CARTEIRA", "ER_REGIAO_CIDADE_min": "Itápolis_Itápolis_Araraquara" }, "geometry": { "type": "Point", "coordinates": [ -48.8058502, -21.598093 ] } },
{ "type": "Feature", "properties": { "fid": 42901, "CNPJ": "07460585000171", "IDCIDADE": "ITAPOLIS", "NOMEFANTASIA": "CLINICAO", "RAZAOSOCIAL": "SHIRLEI_CABRERA_CHERMONT", "ENDEE": "AVENIDA_FLORENCIO_TERRA898__CENTRO_14900-000", "LMAPS": "https://www.google.com/maps?q=&layer=c&cbll=-21.5958016,-48.813673", "O_QUE_FAZER": "CARTEIRA", "ER_REGIAO_CIDADE_min": "Itápolis_Itápolis_Araraquara" }, "geometry": { "type": "Point", "coordinates": [ -48.813673, -21.5958016 ] } },
{ "type": "Feature", "properties": { "fid": 44175, "CNPJ": "07620769000151", "IDCIDADE": "ITAPOLIS", "NOMEFANTASIA": "TATU_AUTO_PECAS", "RAZAOSOCIAL": "CLAUDEMIR_ROGERIO_JANFRONE", "ENDEE": "AVENIDA_SETE_DE_SETEMBRO1423__CENTRO_14900-000", "LMAPS": "https://www.google.com/maps?q=&layer=c&cbll=-21.6018107,-48.8126897", "O_QUE_FAZER": "CARTEIRA", "ER_REGIAO_CIDADE_min": "Itápolis_Itápolis_Araraquara" }, "geometry": { "type": "Point", "coordinates": [ -48.8126897, -21.6018107 ] } },
{ "type": "Feature", "properties": { "fid": 47750, "CNPJ": "08062677000166", "IDCIDADE": "ITAPOLIS", "NOMEFANTASIA": "BEATRIZ_ROSSI", "RAZAOSOCIAL": "ADEMIR_PARDO_LOPES", "ENDEE": "RUA_BARAO_DO_RIO_BRANCO636__CENTRO_14900-000", "LMAPS": "https://www.google.com/maps?q=&layer=c&cbll=-21.5941937,-48.8125727", "O_QUE_FAZER": "CARTEIRA", "ER_REGIAO_CIDADE_min": "Itápolis_Itápolis_Araraquara" }, "geometry": { "type": "Point", "coordinates": [ -48.8125727, -21.5941937 ] } },
{ "type": "Feature", "properties": { "fid": 48189, "CNPJ": "08142888000109", "IDCIDADE": "ITAPOLIS", "NOMEFANTASIA": "TIAO_TECNICO_EM_BOMBAS_INJETORAS", "RAZAOSOCIAL": "TIAO_BOMBISTA_MANUTENCAO_DE_AUTOMOTORES_DIESEL_LTDA", "ENDEE": "AVENIDA ODONI BONINI, 1.790, DISTRITO INDUSTRIAL II, 14900-000, ITÁPOLIS, SP, BRASIL", "LMAPS": "https://www.google.com/maps?q=&layer=c&cbll=-21.60012,-48.820919", "O_QUE_FAZER": "CARTEIRA - FAMPE", "ER_REGIAO_CIDADE_min": "Itápolis_Itápolis_Araraquara" }, "geometry": { "type": "Point", "coordinates": [ -48.820919, -21.60012 ] } },
{ "type": "Feature", "properties": { "fid": 50583, "CNPJ": "08480724000191", "IDCIDADE": "ITAPOLIS", "NOMEFANTASIA": "AUTO_ELETRICA_RUFAMA", "RAZAOSOCIAL": "RUFAMA_COMERCIO_DE_PECAS_E_ACESSORIOS_PARA_VEICULOS_LTDA", "ENDEE": "AVENIDA_CARLOS_ADOLFSON2007__CENTRO_14900-000", "LMAPS": "https://www.google.com/maps?q=&layer=c&cbll=-21.5937753,-48.8231513", "O_QUE_FAZER": "CARTEIRA", "ER_REGIAO_CIDADE_min": "Itápolis_Itápolis_Araraquara" }, "geometry": { "type": "Point", "coordinates": [ -48.8231513, -21.5937753 ] } },
{ "type": "Feature", "properties": { "fid": 51547, "CNPJ": "08667174000114", "IDCIDADE": "ITAPOLIS", "NOMEFANTASIA": "PET_VIDA", "RAZAOSOCIAL": "RICARDO_BIAZOTTI", "ENDEE": "AVENIDA_SETE_DE_SETEMBRO1147__CENTRO_14900-000", "LMAPS": "https://www.google.com/maps?q=&layer=c&cbll=-21.5993345,-48.8118959", "O_QUE_FAZER": "CARTEIRA", "ER_REGIAO_CIDADE_min": "Itápolis_Itápolis_Araraquara" }, "geometry": { "type": "Point", "coordinates": [ -48.8118959, -21.5993345 ] } },
{ "type": "Feature", "properties": { "fid": 53097, "CNPJ": "08849939000137", "IDCIDADE": "ITAPOLIS", "NOMEFANTASIA": "TEEN_KIDS", "RAZAOSOCIAL": "BRUNA_FRANCO_TRAVESSOLO", "ENDEE": "AVENIDA_PRESIDENTE_VALENTIM_GENTIL677__CENTRO_14900-000", "LMAPS": "https://www.google.com/maps?q=&layer=c&cbll=-21.5953648,-48.8119186", "O_QUE_FAZER": "CARTEIRA", "ER_REGIAO_CIDADE_min": "Itápolis_Itápolis_Araraquara" }, "geometry": { "type": "Point", "coordinates": [ -48.8119186, -21.5953648 ] } },
{ "type": "Feature", "properties": { "fid": 54847, "CNPJ": "09068600000166", "IDCIDADE": "ITAPOLIS", "NOMEFANTASIA": "CRC_COLCHOES_E_MOVEIS", "RAZAOSOCIAL": "DIEBI_COLCHOES_LTDA", "ENDEE": "RUA_BARAO_DO_RIO_BRANCO637__CENTRO_14900-000", "LMAPS": "https://www.google.com/maps?q=&layer=c&cbll=-21.5943802,-48.8123615", "O_QUE_FAZER": "CARTEIRA", "ER_REGIAO_CIDADE_min": "Itápolis_Itápolis_Araraquara" }, "geometry": { "type": "Point", "coordinates": [ -48.8123615, -21.5943802 ] } },
{ "type": "Feature", "properties": { "fid": 56272, "CNPJ": "09218766000111", "IDCIDADE": "ITAPOLIS", "NOMEFANTASIA": "LUCIRLEI_MODAD", "RAZAOSOCIAL": "LUCIRLEI_APARECIDA_TAMBARUSSI_MANIERI", "ENDEE": "RUA_PADRE_TARALLO592__CENTRO_14900-000", "LMAPS": "https://www.google.com/maps?q=&layer=c&cbll=-21.593699,-48.812945", "O_QUE_FAZER": "CARTEIRA", "ER_REGIAO_CIDADE_min": "Itápolis_Itápolis_Araraquara" }, "geometry": { "type": "Point", "coordinates": [ -48.812945, -21.593699 ] } },
{ "type": "Feature", "properties": { "fid": 63235, "CNPJ": "10481288000117", "IDCIDADE": "ITAPOLIS", "NOMEFANTASIA": "WORLD_NET_TELECOM", "RAZAOSOCIAL": "DONATANGELO_&_DONATANGELO_LTDA", "ENDEE": "AVENIDA_FRANCISCO_PORTO456__CENTRO_14900-000", "LMAPS": "https://www.google.com/maps?q=&layer=c&cbll=-21.5948679,-48.8095792", "O_QUE_FAZER": "CARTEIRA", "ER_REGIAO_CIDADE_min": "Itápolis_Itápolis_Araraquara" }, "geometry": { "type": "Point", "coordinates": [ -48.8095792, -21.5948679 ] } },
{ "type": "Feature", "properties": { "fid": 63278, "CNPJ": "10487821000158", "IDCIDADE": "ITAPOLIS", "NOMEFANTASIA": "OLFATTO_PERFUMARIA", "RAZAOSOCIAL": "M._H._DOS_SANTOS_&_CIA._LTDA", "ENDEE": "RUA_PADRE_TARALLO541__CENTRO_14900-000", "LMAPS": "https://www.google.com/maps?q=&layer=c&cbll=-21.5934563,-48.81271", "O_QUE_FAZER": "CARTEIRA", "ER_REGIAO_CIDADE_min": "Itápolis_Itápolis_Araraquara" }, "geometry": { "type": "Point", "coordinates": [ -48.81271, -21.5934563 ] } },
{ "type": "Feature", "properties": { "fid": 63676, "CNPJ": "10526922000190", "IDCIDADE": "ITAPOLIS", "NOMEFANTASIA": "M_D_CONSEPT", "RAZAOSOCIAL": "VALENTIM_ALVES_DA_SILVA_&_CIA._LTDA", "ENDEE": "AVENIDA_PRESIDENTE_VALENTIM_GENTIL922__CENTRO_14900-000", "LMAPS": "https://www.google.com/maps?q=&layer=c&cbll=-21.5946073,-48.8141238", "O_QUE_FAZER": "CARTEIRA", "ER_REGIAO_CIDADE_min": "Itápolis_Itápolis_Araraquara" }, "geometry": { "type": "Point", "coordinates": [ -48.8141238, -21.5946073 ] } },
{ "type": "Feature", "properties": { "fid": 66436, "CNPJ": "10823248000106", "IDCIDADE": "ITAPOLIS", "NOMEFANTASIA": "SKINAO_DO_SORVETE", "RAZAOSOCIAL": "MARIANA_OLIVEIRA_DA_SILVA", "ENDEE": "AVENIDA_FREI_PAULO_LUIG1484__CENTRO_14900-000", "LMAPS": "https://www.google.com/maps?q=&layer=c&cbll=-21.6041556,-48.8080154", "O_QUE_FAZER": "CARTEIRA", "ER_REGIAO_CIDADE_min": "Itápolis_Itápolis_Araraquara" }, "geometry": { "type": "Point", "coordinates": [ -48.8080154, -21.6041556 ] } },
{ "type": "Feature", "properties": { "fid": 66473, "CNPJ": "10826693000120", "IDCIDADE": "ITAPOLIS", "NOMEFANTASIA": "CASA_DE_RACOES_SANTO_EXPEDITO", "RAZAOSOCIAL": "SANTO_EXPEDITO_ARTIGOS_DE_PESCA_LTDA", "ENDEE": "AVENIDA_ORESTES_DA_COSTA_SENE_JUNIOR190__JARDIM_NOVA_REDENCAO_14900-000", "LMAPS": "https://www.google.com/maps?q=&layer=c&cbll=-21.6101184,-48.8147696", "O_QUE_FAZER": "CARTEIRA", "ER_REGIAO_CIDADE_min": "Itápolis_Itápolis_Araraquara" }, "geometry": { "type": "Point", "coordinates": [ -48.8147696, -21.6101184 ] } },
{ "type": "Feature", "properties": { "fid": 67449, "CNPJ": "10928047000173", "IDCIDADE": "ITAPOLIS", "NOMEFANTASIA": "POLICLINICA_SAO_LUCAS", "RAZAOSOCIAL": "POLICLINICA_SAO_LUCAS_LTDA", "ENDEE": "AVENIDA_DOUTOR_EDUARDO_DO_AMARAL_LYRA220__CENTRO_14900-000", "LMAPS": "https://www.google.com/maps?q=&layer=c&cbll=-21.5936167,-48.806727", "O_QUE_FAZER": "CARTEIRA", "ER_REGIAO_CIDADE_min": "Itápolis_Itápolis_Araraquara" }, "geometry": { "type": "Point", "coordinates": [ -48.806727, -21.5936167 ] } },
{ "type": "Feature", "properties": { "fid": 69283, "CNPJ": "11155003000110", "IDCIDADE": "ITAPOLIS", "NOMEFANTASIA": "A_CALCEVEST_2", "RAZAOSOCIAL": "LUCIMAR_SILVA_LARA", "ENDEE": "AVENIDA_ORESTES_DA_COSTA_SENE_JUNIOR190__JARDIM_NOVA_REDENCAO_14900-000", "LMAPS": "https://www.google.com/maps?q=&layer=c&cbll=-21.6100789,-48.8152892", "O_QUE_FAZER": "CARTEIRA", "ER_REGIAO_CIDADE_min": "Itápolis_Itápolis_Araraquara" }, "geometry": { "type": "Point", "coordinates": [ -48.8152892, -21.6100789 ] } },
{ "type": "Feature", "properties": { "fid": 69749, "CNPJ": "11212278000149", "IDCIDADE": "ITAPOLIS", "NOMEFANTASIA": "VIDRE_SPORT", "RAZAOSOCIAL": "VIBRE_SPORT_ARTIGOS_ESPORTIVOS_LTDA", "ENDEE": "AVENIDA_PRESIDENTE_VALENTIM_GENTIL877__CENTRO_14900-000", "LMAPS": "https://www.google.com/maps?q=&layer=c&cbll=-21.5948472,-48.813745", "O_QUE_FAZER": "CARTEIRA", "ER_REGIAO_CIDADE_min": "Itápolis_Itápolis_Araraquara" }, "geometry": { "type": "Point", "coordinates": [ -48.813745, -21.5948472 ] } },
{ "type": "Feature", "properties": { "fid": 69817, "CNPJ": "11220960000183", "IDCIDADE": "ITAPOLIS", "NOMEFANTASIA": "SUPERMERCADO_COMETA", "RAZAOSOCIAL": "BENEDITA_CONCEICAO_DA_SILVA", "ENDEE": "AVENIDA_ORESTES_DA_COSTA_SENE_JUNIOR341__JARDIM_NOVA_REDENCAO_14900-000", "LMAPS": "https://www.google.com/maps?q=&layer=c&cbll=-21.6093306,-48.8148965", "O_QUE_FAZER": "CARTEIRA", "ER_REGIAO_CIDADE_min": "Itápolis_Itápolis_Araraquara" }, "geometry": { "type": "Point", "coordinates": [ -48.8148965, -21.6093306 ] } },
{ "type": "Feature", "properties": { "fid": 71626, "CNPJ": "11448625000137", "IDCIDADE": "ITAPOLIS", "NOMEFANTASIA": "MICHELETTI_JOIAS_E_RELOGIOS", "RAZAOSOCIAL": "MICHELETTI_&_MICHELETTI_JOIAS_E_RELOGIOS_LTDA", "ENDEE": "RUA_BARAO_DO_RIO_BRANCO686__CENTRO_14900-000", "LMAPS": "https://www.google.com/maps?q=&layer=c&cbll=-21.5947496,-48.8128253", "O_QUE_FAZER": "CARTEIRA", "ER_REGIAO_CIDADE_min": "Itápolis_Itápolis_Araraquara" }, "geometry": { "type": "Point", "coordinates": [ -48.8128253, -21.5947496 ] } },
{ "type": "Feature", "properties": { "fid": 73418, "CNPJ": "11721978000169", "IDCIDADE": "ITAPOLIS", "NOMEFANTASIA": "POCA_E_TAL", "RAZAOSOCIAL": "PORCA_&_TAL_COMERCIAL_LTDA", "ENDEE": "AVENIDA_PRESIDENTE_VALENTIM_GENTIL1085__CENTRO_14900-000", "LMAPS": "https://www.google.com/maps?q=&layer=c&cbll=-21.5943645,-48.8157107", "O_QUE_FAZER": "CARTEIRA", "ER_REGIAO_CIDADE_min": "Itápolis_Itápolis_Araraquara" }, "geometry": { "type": "Point", "coordinates": [ -48.8157107, -21.5943645 ] } },
{ "type": "Feature", "properties": { "fid": 74769, "CNPJ": "11943765000181", "IDCIDADE": "ITAPOLIS", "NOMEFANTASIA": "PAVOLIN_AUTO_CAR", "RAZAOSOCIAL": "PAULO_ROBERTO_PAVOLIN", "ENDEE": "AVENIDA_CAPITAO_VENANCIO_DE_OLIVEIRA_MACHADO40__CENTRO_14900-000", "LMAPS": "https://www.google.com/maps?q=&layer=c&cbll=-21.5930132,-48.8048572", "O_QUE_FAZER": "CARTEIRA", "ER_REGIAO_CIDADE_min": "Itápolis_Itápolis_Araraquara" }, "geometry": { "type": "Point", "coordinates": [ -48.8048572, -21.5930132 ] } },
{ "type": "Feature", "properties": { "fid": 76417, "CNPJ": "12264660000169", "IDCIDADE": "ITAPOLIS", "NOMEFANTASIA": "COME_COME", "RAZAOSOCIAL": "A._C._DA_COSTA_&_CIA_LTDA", "ENDEE": "RUA_BARAO_DO_RIO_BRANCO678__CENTRO_14900-000", "LMAPS": "https://www.google.com/maps?q=&layer=c&cbll=-21.5947055,-48.8127066", "O_QUE_FAZER": "CARTEIRA", "ER_REGIAO_CIDADE_min": "Itápolis_Itápolis_Araraquara" }, "geometry": { "type": "Point", "coordinates": [ -48.8127066, -21.5947055 ] } },
{ "type": "Feature", "properties": { "fid": 78475, "CNPJ": "12614932000103", "IDCIDADE": "ITAPOLIS", "NOMEFANTASIA": "ACADEMIA_ND", "RAZAOSOCIAL": "DANIEL_COMELI_&_CIA._LTDA", "ENDEE": "RUA_JOSE_ROSSI461__CENTRO_14900-000", "LMAPS": "https://www.google.com/maps?q=&layer=c&cbll=-21.5940269,-48.8091007", "O_QUE_FAZER": "CARTEIRA", "ER_REGIAO_CIDADE_min": "Itápolis_Itápolis_Araraquara" }, "geometry": { "type": "Point", "coordinates": [ -48.8091007, -21.5940269 ] } },
{ "type": "Feature", "properties": { "fid": 78847, "CNPJ": "12678337000131", "IDCIDADE": "ITAPOLIS", "NOMEFANTASIA": "AUTO_ESCOLA_PINHEIRO", "RAZAOSOCIAL": "FERRARESI_&_COSTA_CENTRO_DE_FORMACAO_DE_CONDUTORES_LTDA", "ENDEE": "AVENIDA_CAMPOS_SALLES996__CENTRO_14900-000", "LMAPS": "https://www.google.com/maps?q=&layer=c&cbll=-21.5927067,-48.8139241", "O_QUE_FAZER": "CARTEIRA", "ER_REGIAO_CIDADE_min": "Itápolis_Itápolis_Araraquara" }, "geometry": { "type": "Point", "coordinates": [ -48.8139241, -21.5927067 ] } },
{ "type": "Feature", "properties": { "fid": 85383, "CNPJ": "13980012000171", "IDCIDADE": "ITAPOLIS", "NOMEFANTASIA": "FASHION_20", "RAZAOSOCIAL": "JOAO_EUGENIO_RANCAN", "ENDEE": "RUA_BARAO_DO_RIO_BRANCO646__CENTRO_14870-325", "LMAPS": "https://www.google.com/maps?q=&layer=c&cbll=-21.5943902,-48.8126034", "O_QUE_FAZER": "APLICAR T4", "ER_REGIAO_CIDADE_min": "Itápolis_Itápolis_Araraquara" }, "geometry": { "type": "Point", "coordinates": [ -48.8126034, -21.5943902 ] } },
{ "type": "Feature", "properties": { "fid": 86501, "CNPJ": "14185778000127", "IDCIDADE": "ITAPOLIS", "NOMEFANTASIA": "QUASE_TUDO_UTILIDADES", "RAZAOSOCIAL": "VALDIRA_TERESA_BENEVENTI_PERUSSO", "ENDEE": "RUA_JOSE_TREVISAN726__CENTRO_14900-000", "LMAPS": "https://www.google.com/maps?q=&layer=c&cbll=-21.5947257,-48.8144921", "O_QUE_FAZER": "CARTEIRA", "ER_REGIAO_CIDADE_min": "Itápolis_Itápolis_Araraquara" }, "geometry": { "type": "Point", "coordinates": [ -48.8144921, -21.5947257 ] } },
{ "type": "Feature", "properties": { "fid": 90906, "CNPJ": "15112761000102", "IDCIDADE": "ITAPOLIS", "NOMEFANTASIA": "CRC_ESTOFADOS", "RAZAOSOCIAL": "DIETHI_ESTOFADOS_LTDA", "ENDEE": "AVENIDA_FREI_PAULO_LUIG737__CENTRO_14900-000", "LMAPS": "https://www.google.com/maps?q=&layer=c&cbll=-21.5972408,-48.8059306", "O_QUE_FAZER": "CARTEIRA", "ER_REGIAO_CIDADE_min": "Itápolis_Itápolis_Araraquara" }, "geometry": { "type": "Point", "coordinates": [ -48.8059306, -21.5972408 ] } },
{ "type": "Feature", "properties": { "fid": 100840, "CNPJ": "17789519000101", "IDCIDADE": "ITAPOLIS", "NOMEFANTASIA": "PRENSADAO_CAFETERIA", "RAZAOSOCIAL": "SUELI_ANTONIA_LUCENTE_PEREIRA", "ENDEE": "RUA_JOSE_ROSSI624__CENTRO_14900-000", "LMAPS": "https://www.google.com/maps?q=&layer=c&cbll=-21.5945449,-48.8097142", "O_QUE_FAZER": "CARTEIRA", "ER_REGIAO_CIDADE_min": "Itápolis_Itápolis_Araraquara" }, "geometry": { "type": "Point", "coordinates": [ -48.8097142, -21.5945449 ] } },
{ "type": "Feature", "properties": { "fid": 101267, "CNPJ": "17861057000188", "IDCIDADE": "ITAPOLIS", "NOMEFANTASIA": "GAS_BRASIL", "RAZAOSOCIAL": "CAIO_EDUARDO_DOS_SANTOS_&_CIA_LTDA", "ENDEE": "AVENIDA_ORESTES_DA_COSTA_SENE_JUNIOR48__JARDIM_NOVA_REDENCAO_14900-000", "LMAPS": "https://www.google.com/maps?q=&layer=c&cbll=-21.6087998,-48.8149986", "O_QUE_FAZER": "CARTEIRA", "ER_REGIAO_CIDADE_min": "Itápolis_Itápolis_Araraquara" }, "geometry": { "type": "Point", "coordinates": [ -48.8149986, -21.6087998 ] } },
{ "type": "Feature", "properties": { "fid": 103304, "CNPJ": "18279071000130", "IDCIDADE": "ITAPOLIS", "NOMEFANTASIA": "ARENQUE", "RAZAOSOCIAL": "ARENQUE_COMERCIO_DE_VESTUARIO_E_ACESSORIOS_LTDA", "ENDEE": "AVENIDA_DOUTOR_EDUARDO_DO_AMARAL_LYRA154__CENTRO_14900-000", "LMAPS": "https://www.google.com/maps?q=&layer=c&cbll=-21.5938874,-48.8060412", "O_QUE_FAZER": "CARTEIRA", "ER_REGIAO_CIDADE_min": "Itápolis_Itápolis_Araraquara" }, "geometry": { "type": "Point", "coordinates": [ -48.8060412, -21.5938874 ] } },
{ "type": "Feature", "properties": { "fid": 104658, "CNPJ": "18579677000191", "IDCIDADE": "ITAPOLIS", "NOMEFANTASIA": "SORVETERIA_ITAPOLITANA", "RAZAOSOCIAL": "COLOMBO_E_LOPES_SORVETERIA_LTDA", "ENDEE": "AVENIDA_FLORENCIO_TERRA19__CENTRO_14900-000", "LMAPS": "https://www.google.com/maps?q=&layer=c&cbll=-21.598218,-48.8057873", "O_QUE_FAZER": "CARTEIRA", "ER_REGIAO_CIDADE_min": "Itápolis_Itápolis_Araraquara" }, "geometry": { "type": "Point", "coordinates": [ -48.8057873, -21.598218 ] } },
{ "type": "Feature", "properties": { "fid": 107242, "CNPJ": "19112906000126", "IDCIDADE": "ITAPOLIS", "NOMEFANTASIA": "SERV_BEM", "RAZAOSOCIAL": "SILVIA_MARA_DA_SILVA", "ENDEE": "AVENIDA_ORESTES_DA_COSTA_SENE_JUNIOR386__JARDIM_NOVA_REDENCAO_14900-000", "LMAPS": "https://www.google.com/maps?q=&layer=c&cbll=-21.6111376,-48.8152086", "O_QUE_FAZER": "CARTEIRA", "ER_REGIAO_CIDADE_min": "Itápolis_Itápolis_Araraquara" }, "geometry": { "type": "Point", "coordinates": [ -48.8152086, -21.6111376 ] } },
{ "type": "Feature", "properties": { "fid": 107756, "CNPJ": "19221353000140", "IDCIDADE": "ITAPOLIS", "NOMEFANTASIA": "GOTA_D'AGUA", "RAZAOSOCIAL": "GOTA_D_AGUA_VESTUARIOS_E_CALCADOS_LTDA", "ENDEE": "RUA_PADRE_TARALLO502__CENTRO_14900-000", "LMAPS": "https://www.google.com/maps?q=&layer=c&cbll=-21.5928909,-48.8128513", "O_QUE_FAZER": "CARTEIRA", "ER_REGIAO_CIDADE_min": "Itápolis_Itápolis_Araraquara" }, "geometry": { "type": "Point", "coordinates": [ -48.8128513, -21.5928909 ] } },
{ "type": "Feature", "properties": { "fid": 110022, "CNPJ": "19751431000380", "IDCIDADE": "ITAPOLIS", "NOMEFANTASIA": "LAMBUZZE_CALCADOS", "RAZAOSOCIAL": "MATHEUS_LEONARDO_FELIPE_FERRONI_CALCADOS", "ENDEE": "RUA_BARAO_DO_RIO_BRANCO676__CENTRO_14900-000", "LMAPS": "https://www.google.com/maps?q=&layer=c&cbll=-21.5946593,-48.8126539", "O_QUE_FAZER": "CARTEIRA", "ER_REGIAO_CIDADE_min": "Itápolis_Itápolis_Araraquara" }, "geometry": { "type": "Point", "coordinates": [ -48.8126539, -21.5946593 ] } },
{ "type": "Feature", "properties": { "fid": 112122, "CNPJ": "20227009000147", "IDCIDADE": "ITAPOLIS", "NOMEFANTASIA": "LUCIANA_NEGOCIOS", "RAZAOSOCIAL": "LUCIANA_CARDOSO_DA_SILVA_SERVICOS", "ENDEE": "AVENIDA_FRANCISCO_PORTO696__CENTRO_14900-000", "LMAPS": "https://www.google.com/maps?q=&layer=c&cbll=-21.5943038,-48.8118274", "O_QUE_FAZER": "CARTEIRA", "ER_REGIAO_CIDADE_min": "Itápolis_Itápolis_Araraquara" }, "geometry": { "type": "Point", "coordinates": [ -48.8118274, -21.5943038 ] } },
{ "type": "Feature", "properties": { "fid": 119694, "CNPJ": "21929281000131", "IDCIDADE": "ITAPOLIS", "NOMEFANTASIA": "AGROPEC_MODAS", "RAZAOSOCIAL": "POLOTTO_MORAES_E_MARTIN_LTDA", "ENDEE": "AVENIDA_CAMPOS_SALLES975__CENTRO_14900-000", "LMAPS": "https://www.google.com/maps?q=&layer=c&cbll=-21.5928495,-48.8140402", "O_QUE_FAZER": "CARTEIRA", "ER_REGIAO_CIDADE_min": "Itápolis_Itápolis_Araraquara" }, "geometry": { "type": "Point", "coordinates": [ -48.8140402, -21.5928495 ] } },
{ "type": "Feature", "properties": { "fid": 125771, "CNPJ": "23213071000178", "IDCIDADE": "ITAPOLIS", "NOMEFANTASIA": "PINGUIM_MOTOS", "RAZAOSOCIAL": "PALHARI_&_GASPARO_MOTOS_LTDA", "ENDEE": "AVENIDA_CARLOS_ADOLFSON1637__CENTRO_14900-000", "LMAPS": "https://www.google.com/maps?q=&layer=c&cbll=-21.5939416,-48.8211066", "O_QUE_FAZER": "CARTEIRA", "ER_REGIAO_CIDADE_min": "Itápolis_Itápolis_Araraquara" }, "geometry": { "type": "Point", "coordinates": [ -48.8211066, -21.5939416 ] } },
{ "type": "Feature", "properties": { "fid": 131190, "CNPJ": "24345745000150", "IDCIDADE": "ITAPOLIS", "NOMEFANTASIA": "IMPERIO_ORTIFRUTI", "RAZAOSOCIAL": "RAQUEL_REGINA_BUENO", "ENDEE": "AVENIDA_FRANCISCO_PORTO1010__CENTRO_14900-000", "LMAPS": "https://www.google.com/maps?q=&layer=c&cbll=-21.5934523,-48.814711", "O_QUE_FAZER": "CARTEIRA", "ER_REGIAO_CIDADE_min": "Itápolis_Itápolis_Araraquara" }, "geometry": { "type": "Point", "coordinates": [ -48.814711, -21.5934523 ] } },
{ "type": "Feature", "properties": { "fid": 131205, "CNPJ": "24348311000104", "IDCIDADE": "ITAPOLIS", "NOMEFANTASIA": "LOJA_DO_PEPE", "RAZAOSOCIAL": "MARLENE_LUCIANO_DE_LIMA_FAVERE", "ENDEE": "AVENIDA_ORESTES_DA_COSTA_SENE_JUNIOR190__JARDIM_NOVA_REDENCAO_14900-000", "LMAPS": "https://www.google.com/maps?q=&layer=c&cbll=-21.6102143,-48.8152636", "O_QUE_FAZER": "CARTEIRA", "ER_REGIAO_CIDADE_min": "Itápolis_Itápolis_Araraquara" }, "geometry": { "type": "Point", "coordinates": [ -48.8152636, -21.6102143 ] } },
{ "type": "Feature", "properties": { "fid": 131806, "CNPJ": "24461936000188", "IDCIDADE": "ITAPOLIS", "NOMEFANTASIA": "LY_PERFUMARIA_E_COSMETICOS", "RAZAOSOCIAL": "PERINI_&_TALARICO_LTDA", "ENDEE": "RUA_JOSE_TREVISAN644__CENTRO_14900-000", "LMAPS": "https://www.google.com/maps?q=&layer=c&cbll=-21.5939282,-48.8141825", "O_QUE_FAZER": "CARTEIRA", "ER_REGIAO_CIDADE_min": "Itápolis_Itápolis_Araraquara" }, "geometry": { "type": "Point", "coordinates": [ -48.8141825, -21.5939282 ] } },
{ "type": "Feature", "properties": { "fid": 135600, "CNPJ": "25189232000160", "IDCIDADE": "ITAPOLIS", "NOMEFANTASIA": "IMPERIO_REAL", "RAZAOSOCIAL": "MARLON_CESAR_VICENTE", "ENDEE": "AVENIDA_ORESTES_DA_COSTA_SENE_JUNIOR327__JARDIM_NOVA_REDENCAO_14900-000", "LMAPS": "https://www.google.com/maps?q=&layer=c&cbll=-21.6090778,-48.8148813", "O_QUE_FAZER": "CARTEIRA", "ER_REGIAO_CIDADE_min": "Itápolis_Itápolis_Araraquara" }, "geometry": { "type": "Point", "coordinates": [ -48.8148813, -21.6090778 ] } },
{ "type": "Feature", "properties": { "fid": 140302, "CNPJ": "26631205000169", "IDCIDADE": "ITAPOLIS", "NOMEFANTASIA": "ROC_RADIOLOGIA", "RAZAOSOCIAL": "ROI-RADIOLOGIA_ODONTOLOGICA_DE_ITAPOLIS_LTDA", "ENDEE": "AVENIDA_FRANCISCO_PORTO491__CENTRO_14900-000", "LMAPS": "https://www.google.com/maps?q=&layer=c&cbll=-21.5949146,-48.8099317", "O_QUE_FAZER": "CARTEIRA", "ER_REGIAO_CIDADE_min": "Itápolis_Itápolis_Araraquara" }, "geometry": { "type": "Point", "coordinates": [ -48.8099317, -21.5949146 ] } },
{ "type": "Feature", "properties": { "fid": 142302, "CNPJ": "27041759000179", "IDCIDADE": "ITAPOLIS", "NOMEFANTASIA": "27.041.759_DIONISIO_MINGONI_NETO", "RAZAOSOCIAL": "MINGONI_FUNELARIA_E_PINTURA_", "ENDEE": "RUA_AVENIDA_CAPITAO_VENANCIO_DE_OLIVEIRA_MACHADO1114__ITAPOLIS_14900-000", "LMAPS": "https://www.google.com/maps?q=&layer=c&cbll=-21.5905287,-48.8147953", "O_QUE_FAZER": "FINALIZADO", "ER_REGIAO_CIDADE_min": "Itápolis_Itápolis_Araraquara" }, "geometry": { "type": "Point", "coordinates": [ -48.8147953, -21.5905287 ] } },
{ "type": "Feature", "properties": { "fid": 142608, "CNPJ": "27111091000199", "IDCIDADE": "ITAPOLIS", "NOMEFANTASIA": "MR_DISTRIBUIDORAS_DE_ALIMENTOS", "RAZAOSOCIAL": "MARCOS_SERGIO_DE_ANDRADE", "ENDEE": "RUA_JOSE_TREVISAN194__CENTRO_14900-000", "LMAPS": "https://www.google.com/maps?q=&layer=c&cbll=-21.5899088,-48.8127675", "O_QUE_FAZER": "CARTEIRA", "ER_REGIAO_CIDADE_min": "Itápolis_Itápolis_Araraquara" }, "geometry": { "type": "Point", "coordinates": [ -48.8127675, -21.5899088 ] } },
{ "type": "Feature", "properties": { "fid": 147952, "CNPJ": "28122290000246", "IDCIDADE": "ITAPOLIS", "NOMEFANTASIA": "M_M_MODAS", "RAZAOSOCIAL": "MATHEUS_DE_ASSIS_CARDOZO", "ENDEE": "RUA_JOSE_TREVISAN673__CENTRO_14900-000", "LMAPS": "https://www.google.com/maps?q=&layer=c&cbll=-21.5945287,-48.8143046", "O_QUE_FAZER": "CARTEIRA", "ER_REGIAO_CIDADE_min": "Itápolis_Itápolis_Araraquara" }, "geometry": { "type": "Point", "coordinates": [ -48.8143046, -21.5945287 ] } },
{ "type": "Feature", "properties": { "fid": 148243, "CNPJ": "28169285000108", "IDCIDADE": "ITAPOLIS", "NOMEFANTASIA": "MILLA_PRESENTES", "RAZAOSOCIAL": "YUEBING_WU", "ENDEE": "RUA_BARAO_DO_RIO_BRANCO641__CENTRO_14900-000", "LMAPS": "https://www.google.com/maps?q=&layer=c&cbll=-21.5944639,-48.812388", "O_QUE_FAZER": "CARTEIRA", "ER_REGIAO_CIDADE_min": "Itápolis_Itápolis_Araraquara" }, "geometry": { "type": "Point", "coordinates": [ -48.812388, -21.5944639 ] } },
{ "type": "Feature", "properties": { "fid": 149246, "CNPJ": "28346592000117", "IDCIDADE": "ITAPOLIS", "NOMEFANTASIA": "BAITIZ_AGUA_E_GAS", "RAZAOSOCIAL": "BAITER_&_BEIL_LTDA", "ENDEE": "RUA_RICIERI_ANTONIO_VESSONI698__CENTRO_14900-000", "LMAPS": "https://www.google.com/maps?q=&layer=c&cbll=-21.594327,-48.8153577", "O_QUE_FAZER": "CARTEIRA", "ER_REGIAO_CIDADE_min": "Itápolis_Itápolis_Araraquara" }, "geometry": { "type": "Point", "coordinates": [ -48.8153577, -21.594327 ] } },
{ "type": "Feature", "properties": { "fid": 152606, "CNPJ": "28978356000113", "IDCIDADE": "ITAPOLIS", "NOMEFANTASIA": "ANGUS_DA_FAZENDA", "RAZAOSOCIAL": "R.A._CURIONI", "ENDEE": "AVENIDA_FREI_PAULO_LUIG1120__CENTRO_14900-000", "LMAPS": "https://www.google.com/maps?q=&layer=c&cbll=-21.6004478,-48.8068143", "O_QUE_FAZER": "CARTEIRA", "ER_REGIAO_CIDADE_min": "Itápolis_Itápolis_Araraquara" }, "geometry": { "type": "Point", "coordinates": [ -48.8068143, -21.6004478 ] } },
{ "type": "Feature", "properties": { "fid": 159769, "CNPJ": "30388279000193", "IDCIDADE": "ITAPOLIS", "NOMEFANTASIA": "ODONTO_CENTRO", "RAZAOSOCIAL": "CENTRO_DE_ATENDIMENTO_ODONTOLOGICO_ITAPOLIS_LTDA", "ENDEE": "AVENIDA_SETE_DE_SETEMBRO1387__CENTRO_14900-000", "LMAPS": "https://www.google.com/maps?q=&layer=c&cbll=-21.6013716,-48.812483", "O_QUE_FAZER": "CARTEIRA", "ER_REGIAO_CIDADE_min": "Itápolis_Itápolis_Araraquara" }, "geometry": { "type": "Point", "coordinates": [ -48.812483, -21.6013716 ] } },
{ "type": "Feature", "properties": { "fid": 160884, "CNPJ": "30584350000103", "IDCIDADE": "ITAPOLIS", "NOMEFANTASIA": "SALA_SOM", "RAZAOSOCIAL": "HELDER_ANTONIO_SALA", "ENDEE": "RUA_JOSE_TREVISAN549__CENTRO_14900-000", "LMAPS": "https://www.google.com/maps?q=&layer=c&cbll=-21.5931134,-48.8135562", "O_QUE_FAZER": "CARTEIRA", "ER_REGIAO_CIDADE_min": "Itápolis_Itápolis_Araraquara" }, "geometry": { "type": "Point", "coordinates": [ -48.8135562, -21.5931134 ] } },
{ "type": "Feature", "properties": { "fid": 165082, "CNPJ": "31434369000136", "IDCIDADE": "ITAPOLIS", "NOMEFANTASIA": "SUPERMERCADO_JUSTINO", "RAZAOSOCIAL": "L._A._JUSTINO_MINIMERCADO", "ENDEE": "AVENIDA_ORESTES_DA_COSTA_SENE_JUNIOR123__JARDIM_NOVA_REDENCAO_14900-000", "LMAPS": "https://www.google.com/maps?q=&layer=c&cbll=-21.6075146,-48.8142671", "O_QUE_FAZER": "CARTEIRA - FAMPE", "ER_REGIAO_CIDADE_min": "Itápolis_Itápolis_Araraquara" }, "geometry": { "type": "Point", "coordinates": [ -48.8142671, -21.6075146 ] } },
{ "type": "Feature", "properties": { "fid": 168035, "CNPJ": "32008118000152", "IDCIDADE": "ITAPOLIS", "NOMEFANTASIA": "BEM_BRASILEIRA", "RAZAOSOCIAL": "DG_AROMAS_LTDA", "ENDEE": "RUA_BARAO_DO_RIO_BRANCO640__CENTRO_14900-000", "LMAPS": "https://www.google.com/maps?q=&layer=c&cbll=-21.5945607,-48.8126569", "O_QUE_FAZER": "CARTEIRA", "ER_REGIAO_CIDADE_min": "Itápolis_Itápolis_Araraquara" }, "geometry": { "type": "Point", "coordinates": [ -48.8126569, -21.5945607 ] } },
{ "type": "Feature", "properties": { "fid": 168076, "CNPJ": "32014958000128", "IDCIDADE": "ITAPOLIS", "NOMEFANTASIA": "MODA_KA", "RAZAOSOCIAL": "LUCIANA_APARECIDA_SALES_DE_OLIVEIRA", "ENDEE": "RUA_PADRE_TARALLO704__CENTRO_14900-000", "LMAPS": "https://www.google.com/maps?q=&layer=c&cbll=-21.5947531,-48.8135226", "O_QUE_FAZER": "CARTEIRA", "ER_REGIAO_CIDADE_min": "Itápolis_Itápolis_Araraquara" }, "geometry": { "type": "Point", "coordinates": [ -48.8135226, -21.5947531 ] } },
{ "type": "Feature", "properties": { "fid": 168559, "CNPJ": "32122102000176", "IDCIDADE": "ITAPOLIS", "NOMEFANTASIA": "VIVAZY_STORE", "RAZAOSOCIAL": "BORTOLUSSI_&_CAZETTA_LTDA.", "ENDEE": "RUA_PADRE_TARALLO647__CENTRO_14900-000", "LMAPS": "https://www.google.com/maps?q=&layer=c&cbll=-21.5942941,-48.813116", "O_QUE_FAZER": "CARTEIRA", "ER_REGIAO_CIDADE_min": "Itápolis_Itápolis_Araraquara" }, "geometry": { "type": "Point", "coordinates": [ -48.813116, -21.5942941 ] } },
{ "type": "Feature", "properties": { "fid": 169380, "CNPJ": "32283070000190", "IDCIDADE": "ITAPOLIS", "NOMEFANTASIA": "PADARIA_E_RESTAURANTE_SAO_DIMAS", "RAZAOSOCIAL": "LUSITANIA_COMERCIO_DE_PRODUTOS_ALIMENTICIOS_LTDA", "ENDEE": "AVENIDA_PRESIDENTE_VALENTIM_GENTIL710__CENTRO_14900-000", "LMAPS": "https://www.google.com/maps?q=&layer=c&cbll=-21.5950978,-48.8121522", "O_QUE_FAZER": "CARTEIRA", "ER_REGIAO_CIDADE_min": "Itápolis_Itápolis_Araraquara" }, "geometry": { "type": "Point", "coordinates": [ -48.8121522, -21.5950978 ] } },
{ "type": "Feature", "properties": { "fid": 171118, "CNPJ": "32687298000146", "IDCIDADE": "ITAPOLIS", "NOMEFANTASIA": "CASA_DAS_CORES", "RAZAOSOCIAL": "CASA_DAS_CORES_ITAPOLIS_LTDA", "ENDEE": "RUA_JOSE_TREVISAN600__CENTRO_14900-000", "LMAPS": "https://www.google.com/maps?q=&layer=c&cbll=-21.5938683,-48.8141719", "O_QUE_FAZER": "CARTEIRA", "ER_REGIAO_CIDADE_min": "Itápolis_Itápolis_Araraquara" }, "geometry": { "type": "Point", "coordinates": [ -48.8141719, -21.5938683 ] } },
{ "type": "Feature", "properties": { "fid": 179079, "CNPJ": "34224297000190", "IDCIDADE": "ITAPOLIS", "NOMEFANTASIA": "SALLA_GAS_E_AGUA_LTDA", "RAZAOSOCIAL": "SALLA_GAS_E_AGUA", "ENDEE": "RUA_BOIADEIRA1060__JARDIM_NOVA_BELA_VISTA_14900-000", "LMAPS": "https://www.google.com/maps?q=&layer=c&cbll=-21.5958766,-48.8218123", "O_QUE_FAZER": "FINALIZADO", "ER_REGIAO_CIDADE_min": "Itápolis_Itápolis_Araraquara" }, "geometry": { "type": "Point", "coordinates": [ -48.8218123, -21.5958766 ] } },
{ "type": "Feature", "properties": { "fid": 186490, "CNPJ": "35743617000181", "IDCIDADE": "ITAPOLIS", "NOMEFANTASIA": "PARMA_TEX_TECIDOS", "RAZAOSOCIAL": "PARMA_&_GUIRRO_COMERCIO_DE_TECIDOS_E_AVIAMENTOS_LTDA", "ENDEE": "AVENIDA_PRESIDENTE_VALENTIM_GENTIL1225__CENTRO_14900-000", "LMAPS": "https://www.google.com/maps?q=&layer=c&cbll=-21.5940292,-48.8169993", "O_QUE_FAZER": "CARTEIRA", "ER_REGIAO_CIDADE_min": "Itápolis_Itápolis_Araraquara" }, "geometry": { "type": "Point", "coordinates": [ -48.8169993, -21.5940292 ] } },
{ "type": "Feature", "properties": { "fid": 190061, "CNPJ": "36506191000105", "IDCIDADE": "ITAPOLIS", "NOMEFANTASIA": "RELUZ", "RAZAOSOCIAL": "JOAO_A._D._BOCCHI", "ENDEE": "AVENIDA_SETE_DE_SETEMBRO595__CENTRO_14900-000", "LMAPS": "https://www.google.com/maps?q=&layer=c&cbll=-21.5945905,-48.8104602", "O_QUE_FAZER": "CARTEIRA", "ER_REGIAO_CIDADE_min": "Itápolis_Itápolis_Araraquara" }, "geometry": { "type": "Point", "coordinates": [ -48.8104602, -21.5945905 ] } },
{ "type": "Feature", "properties": { "fid": 196208, "CNPJ": "37910900000186", "IDCIDADE": "ITAPOLIS", "NOMEFANTASIA": "AGROVIDA", "RAZAOSOCIAL": "BACCI_&_PINHEIRO_COMERCIO_E_REPRESENTACOES_LTDA", "ENDEE": "RUA_JOSE_TREVISAN383__CENTRO_14900-000", "LMAPS": "https://www.google.com/maps?q=&layer=c&cbll=-21.5917947,-48.8133211", "O_QUE_FAZER": "CARTEIRA", "ER_REGIAO_CIDADE_min": "Itápolis_Itápolis_Araraquara" }, "geometry": { "type": "Point", "coordinates": [ -48.8133211, -21.5917947 ] } },
{ "type": "Feature", "properties": { "fid": 203895, "CNPJ": "39992389000134", "IDCIDADE": "ITAPOLIS", "NOMEFANTASIA": "GRANDE_SEGREDO", "RAZAOSOCIAL": "SOLANGE_DE_PAULA_FERREIRA_DOS_SANTOS", "ENDEE": "AVENIDA_PRESIDENTE_VALENTIM_GENTIL930__CENTRO_14900-000", "LMAPS": "https://www.google.com/maps?q=&layer=c&cbll=-21.5946031,-48.814134", "O_QUE_FAZER": "CARTEIRA", "ER_REGIAO_CIDADE_min": "Itápolis_Itápolis_Araraquara" }, "geometry": { "type": "Point", "coordinates": [ -48.814134, -21.5946031 ] } },
{ "type": "Feature", "properties": { "fid": 206881, "CNPJ": "40789542000100", "IDCIDADE": "ITAPOLIS", "NOMEFANTASIA": "DROGARIA_SAGRADO_CORACAO_DE_JESUS", "RAZAOSOCIAL": "JOSE_ALEXANDRE_VIEIRA_DROGARIA", "ENDEE": "AVENIDA_ORESTES_DA_COSTA_SENE_JUNIOR16__JARDIM_NOVA_REDENCAO_14900-000", "LMAPS": "https://www.google.com/maps?q=&layer=c&cbll=-21.6085289,-48.8147936", "O_QUE_FAZER": "CARTEIRA", "ER_REGIAO_CIDADE_min": "Itápolis_Itápolis_Araraquara" }, "geometry": { "type": "Point", "coordinates": [ -48.8147936, -21.6085289 ] } },
{ "type": "Feature", "properties": { "fid": 219651, "CNPJ": "43698120000117", "IDCIDADE": "ITAPOLIS", "NOMEFANTASIA": "PAPELARIA_RISK_RABISK", "RAZAOSOCIAL": "SBWC_ARTIGOS_DE_PAPELARIA_LTDA.", "ENDEE": "AVENIDA_PRESIDENTE_VALENTIM_GENTIL820__CENTRO_14900-000", "LMAPS": "https://www.google.com/maps?q=&layer=c&cbll=-21.5951612,-48.8134319", "O_QUE_FAZER": "CARTEIRA", "ER_REGIAO_CIDADE_min": "Itápolis_Itápolis_Araraquara" }, "geometry": { "type": "Point", "coordinates": [ -48.8134319, -21.5951612 ] } },
{ "type": "Feature", "properties": { "fid": 220113, "CNPJ": "43784884000125", "IDCIDADE": "ITAPOLIS", "NOMEFANTASIA": "ITACARGAS_LOGISTICA,_TRANSPORTES_E_DISTRIBUICAO", "RAZAOSOCIAL": "ITACARGAS_LOGISTICA,_TRANSPORTES_E_DISTRIBUICAO_LTDA", "ENDEE": "AVENIDA FRANCISCO ANTONIO DE ABREU, 1300, CENTRO, 14900-187, ITÁPOLIS, SP, BRASIL", "LMAPS": "https://www.google.com/maps?q=&layer=c&cbll=-21.588296,-48.8162125", "O_QUE_FAZER": "CARTEIRA - FAMPE", "ER_REGIAO_CIDADE_min": "Itápolis_Itápolis_Araraquara" }, "geometry": { "type": "Point", "coordinates": [ -48.8162125, -21.588296 ] } },
{ "type": "Feature", "properties": { "fid": 220588, "CNPJ": "43877351000198", "IDCIDADE": "ITAPOLIS", "NOMEFANTASIA": null, "RAZAOSOCIAL": "ESPETINHOS_DONA_INES_LTDA", "ENDEE": "AVENIDA PRESIDENTE VALENTIM GENTIL, 416, CENTRO, 14900-215, ITÁPOLIS, SP, BRASIL", "LMAPS": "https://www.google.com/maps?q=&layer=c&cbll=-21.5956255,-48.809432", "O_QUE_FAZER": "CARTEIRA - FAMPE", "ER_REGIAO_CIDADE_min": "Itápolis_Itápolis_Araraquara" }, "geometry": { "type": "Point", "coordinates": [ -48.809432, -21.5956255 ] } },
{ "type": "Feature", "properties": { "fid": 223603, "CNPJ": "44490472000145", "IDCIDADE": "ITAPOLIS", "NOMEFANTASIA": "BAR_DO_PIROLLA", "RAZAOSOCIAL": "BAR_PIROLA_LTDA", "ENDEE": "AVENIDA_PRESIDENTE_VALENTIM_GENTIL798__CENTRO_14900-000", "LMAPS": "https://www.google.com/maps?q=&layer=c&cbll=-21.5948726,-48.8130031", "O_QUE_FAZER": "CARTEIRA", "ER_REGIAO_CIDADE_min": "Itápolis_Itápolis_Araraquara" }, "geometry": { "type": "Point", "coordinates": [ -48.8130031, -21.5948726 ] } },
{ "type": "Feature", "properties": { "fid": 225821, "CNPJ": "44982289000167", "IDCIDADE": "ITAPOLIS", "NOMEFANTASIA": "ARMAZEM_FIT_STORE", "RAZAOSOCIAL": "LEHN_PRODUTOS_NATURAIS_LTDA.", "ENDEE": "RUA_PADRE_TARALLO693__CENTRO_14900-000", "LMAPS": "https://www.google.com/maps?q=&layer=c&cbll=-21.5946474,-48.8132223", "O_QUE_FAZER": "CARTEIRA", "ER_REGIAO_CIDADE_min": "Itápolis_Itápolis_Araraquara" }, "geometry": { "type": "Point", "coordinates": [ -48.8132223, -21.5946474 ] } },
{ "type": "Feature", "properties": { "fid": 229856, "CNPJ": "45848151000132", "IDCIDADE": "ITAPOLIS", "NOMEFANTASIA": "VAZOLI", "RAZAOSOCIAL": "JOAO_CARLOS_DA_SILVA_INFORMACOES_CADASTRAIS_LTDA", "ENDEE": "AVENIDA_FRANCISCO_PORTO616__CENTRO_14900-000", "LMAPS": "https://www.google.com/maps?q=&layer=c&cbll=-21.5944682,-48.8109873", "O_QUE_FAZER": "CARTEIRA", "ER_REGIAO_CIDADE_min": "Itápolis_Itápolis_Araraquara" }, "geometry": { "type": "Point", "coordinates": [ -48.8109873, -21.5944682 ] } },
{ "type": "Feature", "properties": { "fid": 230102, "CNPJ": "45891011000147", "IDCIDADE": "ITAPOLIS", "NOMEFANTASIA": "SKY_TECH_DRONES_LTDA", "RAZAOSOCIAL": "SKY_TECH", "ENDEE": "AVENIDA_FRANCISCO_PORTO751__CENTRO_14900-211", "LMAPS": "https://www.google.com/maps?q=&layer=c&cbll=-21.5943286,-48.8123412", "O_QUE_FAZER": "FINALIZADO", "ER_REGIAO_CIDADE_min": "Itápolis_Itápolis_Araraquara" }, "geometry": { "type": "Point", "coordinates": [ -48.8123412, -21.5943286 ] } },
{ "type": "Feature", "properties": { "fid": 234295, "CNPJ": "46737599000141", "IDCIDADE": "ITAPOLIS", "NOMEFANTASIA": "DROGA_ITAPOLIS", "RAZAOSOCIAL": "FARMACIA_DIGITAL_SAUDE_LTDA", "ENDEE": "RUA_PADRE_TARALLO605__CENTRO_14900-000", "LMAPS": "https://www.google.com/maps?q=&layer=c&cbll=-21.5938692,-48.8129133", "O_QUE_FAZER": "CARTEIRA", "ER_REGIAO_CIDADE_min": "Itápolis_Itápolis_Araraquara" }, "geometry": { "type": "Point", "coordinates": [ -48.8129133, -21.5938692 ] } },
{ "type": "Feature", "properties": { "fid": 239690, "CNPJ": "47860800000146", "IDCIDADE": "ITAPOLIS", "NOMEFANTASIA": "SEV_BEM", "RAZAOSOCIAL": "TIAGO_HENRIQUE_BOSCO_LTDA", "ENDEE": "AVENIDA_FREI_PAULO_LUIG758__CENTRO_14900-000", "LMAPS": "https://www.google.com/maps?q=&layer=c&cbll=-21.5979248,-48.8057246", "O_QUE_FAZER": "CARTEIRA", "ER_REGIAO_CIDADE_min": "Itápolis_Itápolis_Araraquara" }, "geometry": { "type": "Point", "coordinates": [ -48.8057246, -21.5979248 ] } },
{ "type": "Feature", "properties": { "fid": 242692, "CNPJ": "48455869000157", "IDCIDADE": "ITAPOLIS", "NOMEFANTASIA": "CASA_LUTAIF", "RAZAOSOCIAL": "LUTAIF_MATERIAIS_PARA_CONSTRUCAO_LTDA.", "ENDEE": "AVENIDA_PRESIDENTE_VALENTIM_GENTIL997__CENTRO_14900-000", "LMAPS": "https://www.google.com/maps?q=&layer=c&cbll=-21.594566,-48.8151092", "O_QUE_FAZER": "CARTEIRA", "ER_REGIAO_CIDADE_min": "Itápolis_Itápolis_Araraquara" }, "geometry": { "type": "Point", "coordinates": [ -48.8151092, -21.594566 ] } },
{ "type": "Feature", "properties": { "fid": 249899, "CNPJ": "49980733000129", "IDCIDADE": "ITAPOLIS", "NOMEFANTASIA": "GUZZO_MAGAZINE", "RAZAOSOCIAL": "GUZZO_&_CIA_LTDA", "ENDEE": "RUA_PADRE_TARALLO646__CENTRO_14900-000", "LMAPS": "https://www.google.com/maps?q=&layer=c&cbll=-21.5943082,-48.8133007", "O_QUE_FAZER": "CARTEIRA", "ER_REGIAO_CIDADE_min": "Itápolis_Itápolis_Araraquara" }, "geometry": { "type": "Point", "coordinates": [ -48.8133007, -21.5943082 ] } },
{ "type": "Feature", "properties": { "fid": 252509, "CNPJ": "50513993000173", "IDCIDADE": "ITAPOLIS", "NOMEFANTASIA": "SENE_FOTOS", "RAZAOSOCIAL": "SENE_FOTO_LTDA", "ENDEE": "RUA_PADRE_TARALLO800__CENTRO_14900-000", "LMAPS": "https://www.google.com/maps?q=&layer=c&cbll=-21.5955747,-48.8135534", "O_QUE_FAZER": "CARTEIRA", "ER_REGIAO_CIDADE_min": "Itápolis_Itápolis_Araraquara" }, "geometry": { "type": "Point", "coordinates": [ -48.8135534, -21.5955747 ] } },
{ "type": "Feature", "properties": { "fid": 252510, "CNPJ": "50514280000124", "IDCIDADE": "ITAPOLIS", "NOMEFANTASIA": "DROGARIA_AVENIDA", "RAZAOSOCIAL": "CAVICCHIOLLI_&_SPULVERATO_LTDA", "ENDEE": "AVENIDA FREI PAULO LUIG, 703, JARDIM PRIMAVERA, 14904-260, ITÁPOLIS, SP, BRASIL", "LMAPS": "https://www.google.com/maps?q=&layer=c&cbll=-21.5968241,-48.8054028", "O_QUE_FAZER": "CARTEIRA - FAMPE", "ER_REGIAO_CIDADE_min": "Itápolis_Itápolis_Araraquara" }, "geometry": { "type": "Point", "coordinates": [ -48.8054028, -21.5968241 ] } },
{ "type": "Feature", "properties": { "fid": 260772, "CNPJ": "52149481000103", "IDCIDADE": "ITAPOLIS", "NOMEFANTASIA": "AGROPEC", "RAZAOSOCIAL": "AGROPECUARIA_N_M_LTDA", "ENDEE": "AVENIDA_CAMPOS_SALLES971__CENTRO_14900-000", "LMAPS": "https://www.google.com/maps?q=&layer=c&cbll=-21.5928532,-48.8140473", "O_QUE_FAZER": "CARTEIRA", "ER_REGIAO_CIDADE_min": "Itápolis_Itápolis_Araraquara" }, "geometry": { "type": "Point", "coordinates": [ -48.8140473, -21.5928532 ] } },
{ "type": "Feature", "properties": { "fid": 262606, "CNPJ": "52513447000168", "IDCIDADE": "ITAPOLIS", "NOMEFANTASIA": "LOJA_CHIVAN", "RAZAOSOCIAL": "CHIVAN_ELETROMOVEIS_LTDA", "ENDEE": "RUA_JOSE_TREVISAN484__CENTRO_14900-000", "LMAPS": "https://www.google.com/maps?q=&layer=c&cbll=-21.5926155,-48.8137817", "O_QUE_FAZER": "CARTEIRA", "ER_REGIAO_CIDADE_min": "Itápolis_Itápolis_Araraquara" }, "geometry": { "type": "Point", "coordinates": [ -48.8137817, -21.5926155 ] } },
{ "type": "Feature", "properties": { "fid": 265365, "CNPJ": "53113227000100", "IDCIDADE": "ITAPOLIS", "NOMEFANTASIA": "-", "RAZAOSOCIAL": "53.113.227_NATALIA_GRANUCCI_MONDELO_PITTA", "ENDEE": "RUA JOAQUIM NABUCO, 64, CENTRO, 14900-025, ITÁPOLIS, SP, BRASIL", "LMAPS": "https://www.google.com/maps?q=&layer=c&cbll=-21.5875984,-48.8173336", "O_QUE_FAZER": "CARTEIRA - FAMPE", "ER_REGIAO_CIDADE_min": "Itápolis_Itápolis_Araraquara" }, "geometry": { "type": "Point", "coordinates": [ -48.8173336, -21.5875984 ] } },
{ "type": "Feature", "properties": { "fid": 268466, "CNPJ": "53847795000134", "IDCIDADE": "ITAPOLIS", "NOMEFANTASIA": "-", "RAZAOSOCIAL": "53.847.795_MITALE_BACCHI_NETO", "ENDEE": "ALAMEDA PERA COROA, 71, SALA 01, PORTAL DAS LARANJEIRAS, 14904-480, ITÁPOLIS, SP, BRASIL", "LMAPS": "https://www.google.com/maps?q=&layer=c&cbll=-21.5925653,-48.7983092", "O_QUE_FAZER": "CARTEIRA - FAMPE", "ER_REGIAO_CIDADE_min": "Itápolis_Itápolis_Araraquara" }, "geometry": { "type": "Point", "coordinates": [ -48.7983092, -21.5925653 ] } },
{ "type": "Feature", "properties": { "fid": 269035, "CNPJ": "53970907000140", "IDCIDADE": "ITAPOLIS", "NOMEFANTASIA": "-", "RAZAOSOCIAL": "53.970.907_ALAN_VINICIUS_PECORARIO", "ENDEE": "10A RUA AV JACY FERNANDES, 553, GARIERI RENESTO, 14900-000, ITÁPOLIS, SP, BRASIL", "LMAPS": "https://www.google.com/maps?q=&layer=c&cbll=-21.6191397,-48.8014025", "O_QUE_FAZER": "CARTEIRA - FAMPE", "ER_REGIAO_CIDADE_min": "Itápolis_Itápolis_Araraquara" }, "geometry": { "type": "Point", "coordinates": [ -48.8014025, -21.6191397 ] } },
{ "type": "Feature", "properties": { "fid": 269947, "CNPJ": "54171574000151", "IDCIDADE": "ITAPOLIS", "NOMEFANTASIA": "AO_PRECO_FIXO", "RAZAOSOCIAL": "FOUAD_ABDUL_NOUR_COMERCIO_DE_CALCADOS_LTDA", "ENDEE": "RUA_BARAO_DO_RIO_BRANCO704__CENTRO_14900-000", "LMAPS": "https://www.google.com/maps?q=&layer=c&cbll=-21.5952088,-48.8128388", "O_QUE_FAZER": "CARTEIRA", "ER_REGIAO_CIDADE_min": "Itápolis_Itápolis_Araraquara" }, "geometry": { "type": "Point", "coordinates": [ -48.8128388, -21.5952088 ] } },
{ "type": "Feature", "properties": { "fid": 270913, "CNPJ": "54382304000190", "IDCIDADE": "ITAPOLIS", "NOMEFANTASIA": "FUNILARIA_BIASSOTTI", "RAZAOSOCIAL": "AUTO_PECAS_BIASOTTI_LTDA", "ENDEE": "AVENIDA_CARLOS_ADOLFSON2090__CENTRO_14900-000", "LMAPS": "https://www.google.com/maps?q=&layer=c&cbll=-21.5928762,-48.824148", "O_QUE_FAZER": "CARTEIRA", "ER_REGIAO_CIDADE_min": "Itápolis_Itápolis_Araraquara" }, "geometry": { "type": "Point", "coordinates": [ -48.824148, -21.5928762 ] } },
{ "type": "Feature", "properties": { "fid": 275860, "CNPJ": "55484570000196", "IDCIDADE": "ITAPOLIS", "NOMEFANTASIA": "CASA_ARTHUR", "RAZAOSOCIAL": "CASA_ARTHUR_FERRAGENS_LTDA", "ENDEE": "RUA_JOSE_TREVISAN384__CENTRO_14900-000", "LMAPS": "https://www.google.com/maps?q=&layer=c&cbll=-21.5917102,-48.8135964", "O_QUE_FAZER": "CARTEIRA", "ER_REGIAO_CIDADE_min": "Itápolis_Itápolis_Araraquara" }, "geometry": { "type": "Point", "coordinates": [ -48.8135964, -21.5917102 ] } },
{ "type": "Feature", "properties": { "fid": 275885, "CNPJ": "55488738000131", "IDCIDADE": "ITAPOLIS", "NOMEFANTASIA": "ITATEC", "RAZAOSOCIAL": "ITATEC_COMERCIO_DE_TECIDOS_LTDA", "ENDEE": "AVENIDA_PRESIDENTE_VALENTIM_GENTIL1147__CENTRO_14900-000", "LMAPS": "https://www.google.com/maps?q=&layer=c&cbll=-21.594193,-48.8162372", "O_QUE_FAZER": "CARTEIRA", "ER_REGIAO_CIDADE_min": "Itápolis_Itápolis_Araraquara" }, "geometry": { "type": "Point", "coordinates": [ -48.8162372, -21.594193 ] } },
{ "type": "Feature", "properties": { "fid": 279088, "CNPJ": "56372030000183", "IDCIDADE": "ITAPOLIS", "NOMEFANTASIA": "FOTO_CLIC", "RAZAOSOCIAL": "TERESA_POPPI", "ENDEE": "AVENIDA_CAMPOS_SALLES881__CENTRO_14900-000", "LMAPS": "https://www.google.com/maps?q=&layer=c&cbll=-21.5930933,-48.813141", "O_QUE_FAZER": "CARTEIRA", "ER_REGIAO_CIDADE_min": "Itápolis_Itápolis_Araraquara" }, "geometry": { "type": "Point", "coordinates": [ -48.813141, -21.5930933 ] } },
{ "type": "Feature", "properties": { "fid": 283270, "CNPJ": "57818064000111", "IDCIDADE": "ITAPOLIS", "NOMEFANTASIA": "MOVEIS_HERNANDES", "RAZAOSOCIAL": "HERNANDES,_HERNANDES_&_CIA_LTDA", "ENDEE": "AVENIDA_CAMPOS_SALLES991__CENTRO_14900-000", "LMAPS": "https://www.google.com/maps?q=&layer=c&cbll=-21.5930284,-48.8141113", "O_QUE_FAZER": "CARTEIRA", "ER_REGIAO_CIDADE_min": "Itápolis_Itápolis_Araraquara" }, "geometry": { "type": "Point", "coordinates": [ -48.8141113, -21.5930284 ] } },
{ "type": "Feature", "properties": { "fid": 283667, "CNPJ": "57925331000150", "IDCIDADE": "ITAPOLIS", "NOMEFANTASIA": "SUPERMERCADO_SANTA_MARTA", "RAZAOSOCIAL": "NEREU_ROBERTO_JANUNZZI", "ENDEE": "AVENIDA_ORESTES_DA_COSTA_SENE_JUNIOR55__JARDIM_NOVA_REDENCAO_14900-000", "LMAPS": "https://www.google.com/maps?q=&layer=c&cbll=-21.6069179,-48.8139291", "O_QUE_FAZER": "CARTEIRA", "ER_REGIAO_CIDADE_min": "Itápolis_Itápolis_Araraquara" }, "geometry": { "type": "Point", "coordinates": [ -48.8139291, -21.6069179 ] } },
{ "type": "Feature", "properties": { "fid": 285739, "CNPJ": "58526827000113", "IDCIDADE": "ITAPOLIS", "NOMEFANTASIA": null, "RAZAOSOCIAL": "ANA_KAROLINE_DA_SILVA_DE_LIMA_PSICOLOGIA_INFANTIL_LTDA", "ENDEE": "RUA FLORIANO PEIXOTO, 866, SALA 04, CENTRO, 14900-033, ITÁPOLIS, SP, BRASIL", "LMAPS": "https://www.google.com/maps?q=&layer=c&cbll=-21.5951553,-48.8176442", "O_QUE_FAZER": "CARTEIRA - FAMPE", "ER_REGIAO_CIDADE_min": "Itápolis_Itápolis_Araraquara" }, "geometry": { "type": "Point", "coordinates": [ -48.8176442, -21.5951553 ] } },
{ "type": "Feature", "properties": { "fid": 286767, "CNPJ": "58895673000137", "IDCIDADE": "ITAPOLIS", "NOMEFANTASIA": "JACOMELLI_PERFUMARIA", "RAZAOSOCIAL": "JACOMELLI_CONFECCOES_LTDA", "ENDEE": "AVENIDA_ORESTES_DA_COSTA_SENE_JUNIOR28__JARDIM_NOVA_REDENCAO_14900-000", "LMAPS": "https://www.google.com/maps?q=&layer=c&cbll=-21.6088327,-48.8149105", "O_QUE_FAZER": "CARTEIRA", "ER_REGIAO_CIDADE_min": "Itápolis_Itápolis_Araraquara" }, "geometry": { "type": "Point", "coordinates": [ -48.8149105, -21.6088327 ] } },
{ "type": "Feature", "properties": { "fid": 293042, "CNPJ": "60979259000158", "IDCIDADE": "ITAPOLIS", "NOMEFANTASIA": "SUPERMERCADO_COMAR", "RAZAOSOCIAL": "SUPERMERCADO_COMAR_LTDA", "ENDEE": "AVENIDA_FREI_PAULO_LUIG1101__CENTRO_14900-000", "LMAPS": "https://www.google.com/maps?q=&layer=c&cbll=-21.6002871,-48.8064848", "O_QUE_FAZER": "CARTEIRA", "ER_REGIAO_CIDADE_min": "Itápolis_Itápolis_Araraquara" }, "geometry": { "type": "Point", "coordinates": [ -48.8064848, -21.6002871 ] } },
{ "type": "Feature", "properties": { "fid": 294842, "CNPJ": "61624714000165", "IDCIDADE": "ITAPOLIS", "NOMEFANTASIA": "PAPELARIA_CENTRAL", "RAZAOSOCIAL": "EDIVANIA_FATIMA_ADABO_CINTRA", "ENDEE": "AVENIDA_PRESIDENTE_VALENTIM_GENTIL808__CENTRO_14900-000", "LMAPS": "https://www.google.com/maps?q=&layer=c&cbll=-21.5948457,-48.8130077", "O_QUE_FAZER": "CARTEIRA", "ER_REGIAO_CIDADE_min": "Itápolis_Itápolis_Araraquara" }, "geometry": { "type": "Point", "coordinates": [ -48.8130077, -21.5948457 ] } },
{ "type": "Feature", "properties": { "fid": 295721, "CNPJ": "61971862000156", "IDCIDADE": "ITAPOLIS", "NOMEFANTASIA": null, "RAZAOSOCIAL": "61.971.862_ANA_BEATRIZ_DOS_SANTOS", "ENDEE": "AVENIDA JOSE BELARMINO, 231, CENTRO, 14900-229, ITÁPOLIS, SP, BRASIL", "LMAPS": "https://www.google.com/maps?q=&layer=c&cbll=-21.5989922,-48.8085719", "O_QUE_FAZER": "CARTEIRA - FAMPE", "ER_REGIAO_CIDADE_min": "Itápolis_Itápolis_Araraquara" }, "geometry": { "type": "Point", "coordinates": [ -48.8085719, -21.5989922 ] } },
{ "type": "Feature", "properties": { "fid": 296079, "CNPJ": "62108766000141", "IDCIDADE": "ITAPOLIS", "NOMEFANTASIA": "WAGNER_DECORACOES", "RAZAOSOCIAL": "D_WAGNER_CORTINAS_E_CARPETES_LTDA", "ENDEE": "RUA_JOSE_TREVISAN58__CENTRO_14900-000", "LMAPS": "https://www.google.com/maps?q=&layer=c&cbll=-21.5889162,-48.8125734", "O_QUE_FAZER": "CARTEIRA", "ER_REGIAO_CIDADE_min": "Itápolis_Itápolis_Araraquara" }, "geometry": { "type": "Point", "coordinates": [ -48.8125734, -21.5889162 ] } },
{ "type": "Feature", "properties": { "fid": 296444, "CNPJ": "62247283000128", "IDCIDADE": "ITAPOLIS", "NOMEFANTASIA": "CAFETERIA_DO_BECO", "RAZAOSOCIAL": "WILMA_WILCENSKI_PRESOTTO", "ENDEE": "AVENIDA_CAMPOS_SALLES870__CENTRO_14900-000", "LMAPS": "https://www.google.com/maps?q=&layer=c&cbll=-21.592964,-48.8131176", "O_QUE_FAZER": "CARTEIRA", "ER_REGIAO_CIDADE_min": "Itápolis_Itápolis_Araraquara" }, "geometry": { "type": "Point", "coordinates": [ -48.8131176, -21.592964 ] } },
{ "type": "Feature", "properties": { "fid": 296986, "CNPJ": "62498944000198", "IDCIDADE": "ITAPOLIS", "NOMEFANTASIA": "DROGARIA_NOVA", "RAZAOSOCIAL": "FARMACIA_NOVA_DE_ITAPOLIS_LTDA", "ENDEE": "AVENIDA_DOUTOR_EDUARDO_DO_AMARAL_LYRA221__CENTRO_14900-000", "LMAPS": "https://www.google.com/maps?q=&layer=c&cbll=-21.5939187,-48.8068258", "O_QUE_FAZER": "CARTEIRA", "ER_REGIAO_CIDADE_min": "Itápolis_Itápolis_Araraquara" }, "geometry": { "type": "Point", "coordinates": [ -48.8068258, -21.5939187 ] } },
{ "type": "Feature", "properties": { "fid": 297681, "CNPJ": "62774872000164", "IDCIDADE": "ITAPOLIS", "NOMEFANTASIA": "LEANDRO_MATERIAIS_PARA_CONSTRUCAO", "RAZAOSOCIAL": "LEANDRO_JOAQUIM_GOMES", "ENDEE": "AVENIDA_CAMPOS_SALLES1146__CENTRO_14900-000", "LMAPS": "https://www.google.com/maps?q=&layer=c&cbll=-21.5923343,-48.8156436", "O_QUE_FAZER": "CARTEIRA", "ER_REGIAO_CIDADE_min": "Itápolis_Itápolis_Araraquara" }, "geometry": { "type": "Point", "coordinates": [ -48.8156436, -21.5923343 ] } },
{ "type": "Feature", "properties": { "fid": 298754, "CNPJ": "63383209000100", "IDCIDADE": "ITAPOLIS", "NOMEFANTASIA": null, "RAZAOSOCIAL": "63.383.209_CLEINER_FABIANO_FERNANDES", "ENDEE": "RUA TURMALINA, 210, JARDIM 2000, 14902-711, ITÁPOLIS, SP, BRASIL", "LMAPS": "https://www.google.com/maps?q=&layer=c&cbll=-21.617569,-48.814444", "O_QUE_FAZER": "CARTEIRA - FAMPE", "ER_REGIAO_CIDADE_min": "Itápolis_Itápolis_Araraquara" }, "geometry": { "type": "Point", "coordinates": [ -48.814444, -21.617569 ] } },
{ "type": "Feature", "properties": { "fid": 300057, "CNPJ": "64255558000109", "IDCIDADE": "ITAPOLIS", "NOMEFANTASIA": null, "RAZAOSOCIAL": "64.255.558_PALOMA_TAINARA_VICENTE_SERDAN", "ENDEE": "RUA JOSE ROSSI, 1389, CENTRO, 14900-069, ITÁPOLIS, SP, BRASIL", "LMAPS": "https://www.google.com/maps?q=&layer=c&cbll=-21.6015999,-48.8116315", "O_QUE_FAZER": "CARTEIRA - FAMPE", "ER_REGIAO_CIDADE_min": "Itápolis_Itápolis_Araraquara" }, "geometry": { "type": "Point", "coordinates": [ -48.8116315, -21.6015999 ] } },
{ "type": "Feature", "properties": { "fid": 303353, "CNPJ": "65986945000170", "IDCIDADE": "ITAPOLIS", "NOMEFANTASIA": "STOCAGGE", "RAZAOSOCIAL": "REGGIANI_&_LEMOS_LTDA", "ENDEE": "AVENIDA_FRANCISCO_PORTO1016__CENTRO_14900-000", "LMAPS": "https://www.google.com/maps?q=&layer=c&cbll=-21.5934247,-48.814793", "O_QUE_FAZER": "CARTEIRA", "ER_REGIAO_CIDADE_min": "Itápolis_Itápolis_Araraquara" }, "geometry": { "type": "Point", "coordinates": [ -48.814793, -21.5934247 ] } },
{ "type": "Feature", "properties": { "fid": 303895, "CNPJ": "66293361000181", "IDCIDADE": "ITAPOLIS", "NOMEFANTASIA": null, "RAZAOSOCIAL": "66.293.361_JOAO_PEDRO_DOS_SANTOS_MARTELLI", "ENDEE": "AVENIDA REGENTE FEIJO, 58, CENTRO, 14900-237, ITÁPOLIS, SP, BRASIL", "LMAPS": "https://www.google.com/maps?q=&layer=c&cbll=-21.6009503,-48.807359", "O_QUE_FAZER": "CARTEIRA - FAMPE", "ER_REGIAO_CIDADE_min": "Itápolis_Itápolis_Araraquara" }, "geometry": { "type": "Point", "coordinates": [ -48.807359, -21.6009503 ] } },
{ "type": "Feature", "properties": { "fid": 304067, "CNPJ": "66459235000154", "IDCIDADE": "ITAPOLIS", "NOMEFANTASIA": null, "RAZAOSOCIAL": "66.459.235_MICHELE_DOS_SANTOS_LEITE", "ENDEE": "RUA FRANCA, 60, JARDIM ESPERANCA I, 14902-612, ITÁPOLIS, SP, BRASIL", "LMAPS": "https://www.google.com/maps?q=&layer=c&cbll=-21.6094514,-48.811237", "O_QUE_FAZER": "CARTEIRA - FAMPE", "ER_REGIAO_CIDADE_min": "Itápolis_Itápolis_Araraquara" }, "geometry": { "type": "Point", "coordinates": [ -48.811237, -21.6094514 ] } },
{ "type": "Feature", "properties": { "fid": 305051, "CNPJ": "66893970000171", "IDCIDADE": "ITAPOLIS", "NOMEFANTASIA": null, "RAZAOSOCIAL": "66.893.970_AMANDA_BEATRIZ_DE_SOUZA", "ENDEE": "AVENIDA OSWALD DE ANDRADE, 1137, JARDIM BOA VISTA, 14900-346, ITÁPOLIS, SP, BRASIL", "LMAPS": "https://www.google.com/maps?q=&layer=c&cbll=-21.5963276,-48.81109", "O_QUE_FAZER": "CARTEIRA - FAMPE", "ER_REGIAO_CIDADE_min": "Itápolis_Itápolis_Araraquara" }, "geometry": { "type": "Point", "coordinates": [ -48.81109, -21.5963276 ] } },
{ "type": "Feature", "properties": { "fid": 305295, "CNPJ": "66993155000184", "IDCIDADE": "ITAPOLIS", "NOMEFANTASIA": "ITALAB", "RAZAOSOCIAL": "CBI_-_ANALISES_CLINICAS_LTDA", "ENDEE": "AVENIDA_DOUTOR_EDUARDO_DO_AMARAL_LYRA230__CENTRO_14900-000", "LMAPS": "https://www.google.com/maps?q=&layer=c&cbll=-21.5937001,-48.8067871", "O_QUE_FAZER": "CARTEIRA", "ER_REGIAO_CIDADE_min": "Itápolis_Itápolis_Araraquara" }, "geometry": { "type": "Point", "coordinates": [ -48.8067871, -21.5937001 ] } },
{ "type": "Feature", "properties": { "fid": 305993, "CNPJ": "67320226000140", "IDCIDADE": "ITAPOLIS", "NOMEFANTASIA": "LAURA_BABY", "RAZAOSOCIAL": "SALATA_&_SALATA_CONFECCOES_LTDA", "ENDEE": "AVENIDA_PRESIDENTE_VALENTIM_GENTIL1175__CENTRO_14900-000", "LMAPS": "https://www.google.com/maps?q=&layer=c&cbll=-21.5941902,-48.8165238", "O_QUE_FAZER": "CARTEIRA", "ER_REGIAO_CIDADE_min": "Itápolis_Itápolis_Araraquara" }, "geometry": { "type": "Point", "coordinates": [ -48.8165238, -21.5941902 ] } },
{ "type": "Feature", "properties": { "fid": 307551, "CNPJ": "68083211000179", "IDCIDADE": "ITAPOLIS", "NOMEFANTASIA": "SHOPING_CAR", "RAZAOSOCIAL": "JAUDECIR_CONTATO_&_CIA_LTDA", "ENDEE": "AVENIDA_FRANCISCO_PORTO294__CENTRO_14900-000", "LMAPS": "https://www.google.com/maps?q=&layer=c&cbll=-21.5950025,-48.8081109", "O_QUE_FAZER": "CARTEIRA", "ER_REGIAO_CIDADE_min": "Itápolis_Itápolis_Araraquara" }, "geometry": { "type": "Point", "coordinates": [ -48.8081109, -21.5950025 ] } },
{ "type": "Feature", "properties": { "fid": 307583, "CNPJ": "68095801000111", "IDCIDADE": "ITAPOLIS", "NOMEFANTASIA": "PHARMACIA_FREI_PAULO", "RAZAOSOCIAL": "AMILTON_TOMBI_CACINI", "ENDEE": "AVENIDA_FREI_PAULO_LUIG1118__CENTRO_14900-000", "LMAPS": "https://www.google.com/maps?q=&layer=c&cbll=-21.6003518,-48.8067865", "O_QUE_FAZER": "CARTEIRA", "ER_REGIAO_CIDADE_min": "Itápolis_Itápolis_Araraquara" }, "geometry": { "type": "Point", "coordinates": [ -48.8067865, -21.6003518 ] } },
{ "type": "Feature", "properties": { "fid": 310310, "CNPJ": "72891237000110", "IDCIDADE": "ITAPOLIS", "NOMEFANTASIA": "TECIDOS_GISELE", "RAZAOSOCIAL": "COMERCIO_DE_TECIDOS_GISELE_LTDA", "ENDEE": "RUA_JOSE_TREVISAN666__CENTRO_14900-000", "LMAPS": "https://www.google.com/maps?q=&layer=c&cbll=-21.594093,-48.8142134", "O_QUE_FAZER": "CARTEIRA", "ER_REGIAO_CIDADE_min": "Itápolis_Itápolis_Araraquara" }, "geometry": { "type": "Point", "coordinates": [ -48.8142134, -21.594093 ] } },
{ "type": "Feature", "properties": { "fid": 311756, "CNPJ": "96165865000187", "IDCIDADE": "ITAPOLIS", "NOMEFANTASIA": "JOAO_BRASIL", "RAZAOSOCIAL": "JOAO_BRASIL_BISPO_ITAPOLIS", "ENDEE": "AVENIDA_PRESIDENTE_VALENTIM_GENTIL887__CENTRO_14900-000", "LMAPS": "https://www.google.com/maps?q=&layer=c&cbll=-21.5947304,-48.8133202", "O_QUE_FAZER": "CARTEIRA", "ER_REGIAO_CIDADE_min": "Itápolis_Itápolis_Araraquara" }, "geometry": { "type": "Point", "coordinates": [ -48.8133202, -21.5947304 ] } }
]
}
