{
"type": "FeatureCollection",
"name": "ER_REGIAO_CIDADE_min_Mineiros do Tietê_Bauru",
"crs": { "type": "name", "properties": { "name": "urn:ogc:def:crs:OGC:1.3:CRS84" } },
"xy_coordinate_resolution": 1e-15,
"features": [
{ "type": "Feature", "properties": { "CNPJ": "45115009000186", "IDCIDADE": "MINEIROS_DO_TIETE", "NOMEFANTASIA": "TEMPEROS_DA_VIVI", "RAZAOSOCIAL": "TEMPEROS_DA_VIVI", "ENDEE": "RUA_DOUTOR_SALVADOR_MERCADANTE__765_17320-061", "LMAPS": "https://www.google.com/maps?q=&layer=c&cbll=-48.4521681,-22.4115315", "O_QUE_FAZER": "APLICAR T3", "ER_REGIAO_CIDADE_min": "Mineiros do Tietê_Bauru" }, "geometry": { "type": "Point", "coordinates": [ -48.4521681, -22.4115315 ] } },
{ "type": "Feature", "properties": { "CNPJ": "04610173000182", "IDCIDADE": "MINEIROS_DO_TIETE", "NOMEFANTASIA": "FARMACIA_NATURALIS", "RAZAOSOCIAL": "FARMACIA_NATURALIS", "ENDEE": "RUA_ABOLICAO__151_17320-021", "LMAPS": "https://www.google.com/maps?q=&layer=c&cbll=-48.449827,-22.4121097", "O_QUE_FAZER": "FINALIZADO", "ER_REGIAO_CIDADE_min": "Mineiros do Tietê_Bauru" }, "geometry": { "type": "Point", "coordinates": [ -48.449827, -22.4121097 ] } },
{ "type": "Feature", "properties": { "CNPJ": "59980744000162", "IDCIDADE": "MINEIROS_DO_TIETE", "NOMEFANTASIA": "QUITANDA_NOSSA_SENHORA_APARECIDA", "RAZAOSOCIAL": "QUITANDA_NOSSA_SENHORA_APARECIDA", "ENDEE": "RUA_ABOLICAO__32_17320-021", "LMAPS": "https://www.google.com/maps?q=&layer=c&cbll=-48.4487602,-22.4117746", "O_QUE_FAZER": "FINALIZADO", "ER_REGIAO_CIDADE_min": "Mineiros do Tietê_Bauru" }, "geometry": { "type": "Point", "coordinates": [ -48.4487602, -22.4117746 ] } },
{ "type": "Feature", "properties": { "CNPJ": "13275001000190", "IDCIDADE": "MINEIROS_DO_TIETE", "NOMEFANTASIA": "CONXTAR_IMOVEIS_LTDA", "RAZAOSOCIAL": "COXSTAR_IMOVEIS", "ENDEE": "RUA_VINTE_E_QUATRO_DE_MAIO278__CENTRO_17320-023", "LMAPS": "https://www.google.com/maps?q=&layer=c&cbll=-48.4511796,-22.4129014", "O_QUE_FAZER": "FINALIZADO", "ER_REGIAO_CIDADE_min": "Mineiros do Tietê_Bauru" }, "geometry": { "type": "Point", "coordinates": [ -48.4511796, -22.4129014 ] } },
{ "type": "Feature", "properties": { "CNPJ": "26071531000169", "IDCIDADE": "MINEIROS_DO_TIETE", "NOMEFANTASIA": "26.071.531_SEBASTIAO_ALBINO_DA_SILVA", "RAZAOSOCIAL": "SEBASTIAO_ALBINO_DA_SILVA", "ENDEE": "RUA_EDGAR_FERRAZ945__CENTRO_17320-063", "LMAPS": "https://www.google.com/maps?q=&layer=c&cbll=-48.4528553,-22.4163281", "O_QUE_FAZER": "FINALIZADO", "ER_REGIAO_CIDADE_min": "Mineiros do Tietê_Bauru" }, "geometry": { "type": "Point", "coordinates": [ -48.4528553, -22.4163281 ] } },
{ "type": "Feature", "properties": { "CNPJ": "47818134000188", "IDCIDADE": "MINEIROS_DO_TIETE", "NOMEFANTASIA": "M._L._ROSSETO_TRANSPORTES", "RAZAOSOCIAL": "ML_ROSSETO", "ENDEE": "RUA_ANTONIO_CALANDRIM93__JARDIM_SANTA_CATARINA_17322-110", "LMAPS": "https://www.google.com/maps?q=&layer=c&cbll=-48.4457774,-22.4115162", "O_QUE_FAZER": "FINALIZADO", "ER_REGIAO_CIDADE_min": "Mineiros do Tietê_Bauru" }, "geometry": { "type": "Point", "coordinates": [ -48.4457774, -22.4115162 ] } },
{ "type": "Feature", "properties": { "CNPJ": "61898366000114", "IDCIDADE": "MINEIROS_DO_TIETE", "NOMEFANTASIA": "AROMAS_DA_SI", "RAZAOSOCIAL": "AROMAS_DA_SI", "ENDEE": "FRANCISCO_CHERUBIM50__JARDIM_SANTA_CATARINA_17322-112", "LMAPS": "https://www.google.com/maps?q=&layer=c&cbll=-48.4452149,-22.4136016", "O_QUE_FAZER": "FINALIZADO", "ER_REGIAO_CIDADE_min": "Mineiros do Tietê_Bauru" }, "geometry": { "type": "Point", "coordinates": [ -48.4452149, -22.4136016 ] } },
{ "type": "Feature", "properties": { "CNPJ": "15708879000106", "IDCIDADE": "MINEIROS_DO_TIETE", "NOMEFANTASIA": "15.708.879_KEITE_LILIAN_GALEGO_PEDRERO", "RAZAOSOCIAL": "15.708.879_KEITE_LILIAN_GALEGO_PEDRERO", "ENDEE": "RUA_JOSE_ALTIMARI306__JARDIM_ANA_PAULA_17322-132", "LMAPS": "https://www.google.com/maps?q=&layer=c&cbll=-48.4455569,-22.4172923", "O_QUE_FAZER": "FINALIZADO", "ER_REGIAO_CIDADE_min": "Mineiros do Tietê_Bauru" }, "geometry": { "type": "Point", "coordinates": [ -48.4455569, -22.4172923 ] } },
{ "type": "Feature", "properties": { "CNPJ": "43343364000187", "IDCIDADE": "MINEIROS_DO_TIETE", "NOMEFANTASIA": "GERLANDIA_MOTA_DE_SOUZA_41550988816", "RAZAOSOCIAL": "GER_DOCINHOS_DO_CEU", "ENDEE": "RUA_DOMINGOS_VIOLA37__JARDIM_NOVA_MINEIROS_17322-318", "LMAPS": "https://www.google.com/maps?q=&layer=c&cbll=-48.4473715,-22.4237226", "O_QUE_FAZER": "FINALIZADO", "ER_REGIAO_CIDADE_min": "Mineiros do Tietê_Bauru" }, "geometry": { "type": "Point", "coordinates": [ -48.4473715, -22.4237226 ] } }
]
}
