{
"type": "FeatureCollection",
"name": "ER_REGIAO_CIDADE_min_Itariri_Ana Dias_Baixada Santista",
"crs": { "type": "name", "properties": { "name": "urn:ogc:def:crs:OGC:1.3:CRS84" } },
"xy_coordinate_resolution": 1e-15,
"features": [
{ "type": "Feature", "properties": { "fid": 95190, "CNPJ": "16637822000118", "IDCIDADE": "ITARIRI", "NOMEFANTASIA": null, "RAZAOSOCIAL": "PATRICIA_PAIXAO_BARBOZA", "ENDEE": "AVENIDA ENGENHEIRO CLAY PRESGRAVE DO AMARAL, 8, ANA DIAS, 11760-000, ITARIRI, SP, BRASIL", "LMAPS": "https://www.google.com/maps?q=&layer=c&cbll=-24.3036472,-47.0661073", "O_QUE_FAZER": "CARTEIRA - FAMPE", "ER_REGIAO_CIDADE_min": "Itariri_Ana Dias_Baixada Santista" }, "geometry": { "type": "Point", "coordinates": [ -47.0661073, -24.3036472 ] } },
{ "type": "Feature", "properties": { "fid": 141422, "CNPJ": "26852564000146", "IDCIDADE": "ITARIRI", "NOMEFANTASIA": "BANANAS_CLIMATIZADAS_TAKO", "RAZAOSOCIAL": "BANANAS_CLIMATIZADAS_TAKO_LTDA", "ENDEE": "RUA SANTA TEREZINHA, 113, ANA DIAS, 11760-000, ITARIRI, SP, BRASIL", "LMAPS": "https://www.google.com/maps?q=&layer=c&cbll=-24.3002272,-47.0690102", "O_QUE_FAZER": "CARTEIRA - FAMPE", "ER_REGIAO_CIDADE_min": "Itariri_Ana Dias_Baixada Santista" }, "geometry": { "type": "Point", "coordinates": [ -47.0690102, -24.3002272 ] } },
{ "type": "Feature", "properties": { "fid": 245052, "CNPJ": "48933734000150", "IDCIDADE": "ITARIRI", "NOMEFANTASIA": "48.933.734_CESARIO_ARAUJO_GARCIA", "RAZAOSOCIAL": "SERRA_MAR_NEGOCIOS_CORPOORATIVSO", "ENDEE": "RUA_FRANCISCO_ORLANDO_DI_TAURO341__PARQUE_SERRA_MAR_11760-000", "LMAPS": "https://www.google.com/maps?q=&layer=c&cbll=-24.2873448,-47.042135", "O_QUE_FAZER": "FINALIZADO", "ER_REGIAO_CIDADE_min": "Itariri_Ana Dias_Baixada Santista" }, "geometry": { "type": "Point", "coordinates": [ -47.042135, -24.2873448 ] } },
{ "type": "Feature", "properties": { "fid": 250269, "CNPJ": "50051460000117", "IDCIDADE": "PERUIBE", "NOMEFANTASIA": "-", "RAZAOSOCIAL": "50.051.460_MARCELO_DE_OLIVEIRA", "ENDEE": "RUA_RUA SOROCABA_2296_JARDIM CARAGUAVA_11750-000_PERUIBE", "LMAPS": "https://www.google.com/maps?q=&layer=c&cbll=-24.2903902,-47.0291395", "O_QUE_FAZER": "FINALIZADO", "ER_REGIAO_CIDADE_min": "Itariri_Ana Dias_Baixada Santista" }, "geometry": { "type": "Point", "coordinates": [ -47.0291395, -24.2903902 ] } }
]
}
