{
"type": "FeatureCollection",
"name": "ER_REGIAO_CIDADE_min_Sarapuí_Sarapuí_Sorocaba",
"crs": { "type": "name", "properties": { "name": "urn:ogc:def:crs:OGC:1.3:CRS84" } },
"xy_coordinate_resolution": 1e-15,
"features": [
{ "type": "Feature", "properties": { "CNPJ": "62786329000187", "IDCIDADE": "SARAPUI", "NOMEFANTASIA": "-", "RAZAOSOCIAL": "62.786.329_ANA_APARECIDA_DOS_SANTOS_DA_PENHA", "ENDEE": "RUA BENEDITO GENEROSO PRESTES FILHO, 167, VILA RICA, 18225-242, SARAPUÍ, SP, BRASIL", "LATITUDE": "-23.6440309", "LONGITUDE": "-47.819978", "LMAPS": "https://www.google.com/maps?q=&layer=c&cbll=-23.6440309,-47.819978", "O_QUE_FAZER": "CARTEIRA - FAMPE", "field_10": null, "field_11": null, "field_12": null, "field_13": null, "ER_REGIAO_CIDADE_min": "Sarapuí_Sarapuí_Sorocaba" }, "geometry": { "type": "Point", "coordinates": [ -47.819978, -23.6440309 ] } },
{ "type": "Feature", "properties": { "CNPJ": "57343474000153", "IDCIDADE": "SARAPUI", "NOMEFANTASIA": "-", "RAZAOSOCIAL": "57.343.474_MIRIAM_CANDIDA_DOS_SANTOS_LOPES", "ENDEE": "AREA RURAL, 56, AREA RURAL DE SARAPUI, 18228-899, SARAPUÍ, SP, BRASIL", "LATITUDE": "-23.6400513", "LONGITUDE": "-47.8264565", "LMAPS": "https://www.google.com/maps?q=&layer=c&cbll=-23.6400513,-47.8264565", "O_QUE_FAZER": "CARTEIRA - FAMPE", "field_10": null, "field_11": null, "field_12": null, "field_13": null, "ER_REGIAO_CIDADE_min": "Sarapuí_Sarapuí_Sorocaba" }, "geometry": { "type": "Point", "coordinates": [ -47.8264565, -23.6400513 ] } },
{ "type": "Feature", "properties": { "CNPJ": "39781269000198", "IDCIDADE": "SARAPUI", "NOMEFANTASIA": "-", "RAZAOSOCIAL": "DEIVED_FRANCISCO_ALVES_PEDROSO_31194760805", "ENDEE": "4A RUA RUA DR.CERQUEIRA CESAR, 260, CENTRO, 18225-000, SARAPUÍ, SP, BRASIL", "LATITUDE": "-23.6397314", "LONGITUDE": "-47.8300294", "LMAPS": "https://www.google.com/maps?q=&layer=c&cbll=-23.6397314,-47.8300294", "O_QUE_FAZER": "CARTEIRA - FAMPE", "field_10": null, "field_11": null, "field_12": null, "field_13": null, "ER_REGIAO_CIDADE_min": "Sarapuí_Sarapuí_Sorocaba" }, "geometry": { "type": "Point", "coordinates": [ -47.8300294, -23.6397314 ] } }
]
}
