{
"type": "FeatureCollection",
"name": "ER_REGIAO_CIDADE_min_Populina_Votuporanga",
"crs": { "type": "name", "properties": { "name": "urn:ogc:def:crs:OGC:1.3:CRS84" } },
"xy_coordinate_resolution": 1e-15,
"features": [
{ "type": "Feature", "properties": { "CNPJ": "41413575000113", "IDCIDADE": "POPULINA", "NOMEFANTASIA": "JM_LOJA_DE_RACOES_E_VETERINARIA", "RAZAOSOCIAL": "JM_LOJA_DE_RACAO_E_VETERINARIA_LTDA", "ENDEE": "RUA_ARARAQUARA1507__CENTRO_15670-000", "LATITUDE": "-19.9414138", "LONGITUDE": "-50.5356828", "LMAPS": "https://www.google.com/maps?q=&layer=c&cbll=-50.5356828,-19.9414138", "O_QUE_FAZER": "CARTEIRA", "field_10": null, "field_11": null, "field_12": null, "field_13": null, "ER_REGIAO_CIDADE_min": "Populina_Votuporanga" }, "geometry": { "type": "Point", "coordinates": [ -50.5356828, -19.9414138 ] } },
{ "type": "Feature", "properties": { "CNPJ": "18275758000106", "IDCIDADE": "POPULINA", "NOMEFANTASIA": "POLARIZA_VET", "RAZAOSOCIAL": "FELIPPI_POLARINI_FARIA", "ENDEE": "AVENIDA_ANTONIO_AUGUSTO_RIBEIRO_FILHO1689__CENTRO_15670-000", "LATITUDE": "-19.9418345", "LONGITUDE": "-50.5339504", "LMAPS": "https://www.google.com/maps?q=&layer=c&cbll=-50.5339504,-19.9418345", "O_QUE_FAZER": "CARTEIRA", "field_10": null, "field_11": null, "field_12": null, "field_13": null, "ER_REGIAO_CIDADE_min": "Populina_Votuporanga" }, "geometry": { "type": "Point", "coordinates": [ -50.5339504, -19.9418345 ] } },
{ "type": "Feature", "properties": { "CNPJ": "27914208000172", "IDCIDADE": "POPULINA", "NOMEFANTASIA": "MR_MATERIAIS_PARA_CONSTRUCAO", "RAZAOSOCIAL": "ROTTA_&_DA_SILVA_MATERIAIS_DE_CONSTRUCAO_LTDA", "ENDEE": "AVENIDA_ANTONIO_AUGUSTO_RIBEIRO_FILHO1465__CENTRO_15670-000", "LATITUDE": "-19.9419397", "LONGITUDE": "-50.5362982", "LMAPS": "https://www.google.com/maps?q=&layer=c&cbll=-50.5362982,-19.9419397", "O_QUE_FAZER": "CARTEIRA", "field_10": null, "field_11": null, "field_12": null, "field_13": null, "ER_REGIAO_CIDADE_min": "Populina_Votuporanga" }, "geometry": { "type": "Point", "coordinates": [ -50.5362982, -19.9419397 ] } },
{ "type": "Feature", "properties": { "CNPJ": "47769609000193", "IDCIDADE": "POPULINA", "NOMEFANTASIA": "ESCRITORIO_POPULINA", "RAZAOSOCIAL": "ESCRITORIO_CONTABIL_POPULINA_S/S_LTDA", "ENDEE": "AVENIDA_ANTONIO_AUGUSTO_RIBEIRO_FILHO1523__CENTRO_15670-000", "LATITUDE": "-19.9419778", "LONGITUDE": "-50.5358108", "LMAPS": "https://www.google.com/maps?q=&layer=c&cbll=-50.5358108,-19.9419778", "O_QUE_FAZER": "CARTEIRA", "field_10": null, "field_11": null, "field_12": null, "field_13": null, "ER_REGIAO_CIDADE_min": "Populina_Votuporanga" }, "geometry": { "type": "Point", "coordinates": [ -50.5358108, -19.9419778 ] } },
{ "type": "Feature", "properties": { "CNPJ": "14794563000103", "IDCIDADE": "POPULINA", "NOMEFANTASIA": "WL_SOFTWARE", "RAZAOSOCIAL": "WL_SERVICOS_EM_TECNOLOGIA_LTDA", "ENDEE": "AVENIDA_ANTONIO_AUGUSTO_RIBEIRO_FILHO1433__CENTRO_15670-000", "LATITUDE": "-19.9419869", "LONGITUDE": "-50.5366792", "LMAPS": "https://www.google.com/maps?q=&layer=c&cbll=-50.5366792,-19.9419869", "O_QUE_FAZER": "CARTEIRA", "field_10": null, "field_11": null, "field_12": null, "field_13": null, "ER_REGIAO_CIDADE_min": "Populina_Votuporanga" }, "geometry": { "type": "Point", "coordinates": [ -50.5366792, -19.9419869 ] } },
{ "type": "Feature", "properties": { "CNPJ": "47270435000110", "IDCIDADE": "POPULINA", "NOMEFANTASIA": "MIOTICA", "RAZAOSOCIAL": "MI_OTICA_POPULINA_LTDA", "ENDEE": "AVENIDA_ANTONIO_AUGUSTO_RIBEIRO_FILHO1443__CENTRO_15670-000", "LATITUDE": "-19.9420127", "LONGITUDE": "-50.5364937", "LMAPS": "https://www.google.com/maps?q=&layer=c&cbll=-50.5364937,-19.9420127", "O_QUE_FAZER": "CARTEIRA", "field_10": null, "field_11": null, "field_12": null, "field_13": null, "ER_REGIAO_CIDADE_min": "Populina_Votuporanga" }, "geometry": { "type": "Point", "coordinates": [ -50.5364937, -19.9420127 ] } },
{ "type": "Feature", "properties": { "CNPJ": "14638510000101", "IDCIDADE": "POPULINA", "NOMEFANTASIA": "CASA_DE_CARNES_DOIS_IRMAOS", "RAZAOSOCIAL": "J&L_COMERCIO_DE_CARNES_LTDA", "ENDEE": "AVENIDA_ANTONIO_AUGUSTO_RIBEIRO_FILHO1474__CENTRO_15670-000", "LATITUDE": "-19.9421525", "LONGITUDE": "-50.5362042", "LMAPS": "https://www.google.com/maps?q=&layer=c&cbll=-50.5362042,-19.9421525", "O_QUE_FAZER": "CARTEIRA", "field_10": null, "field_11": null, "field_12": null, "field_13": null, "ER_REGIAO_CIDADE_min": "Populina_Votuporanga" }, "geometry": { "type": "Point", "coordinates": [ -50.5362042, -19.9421525 ] } },
{ "type": "Feature", "properties": { "CNPJ": "10530932000108", "IDCIDADE": "POPULINA", "NOMEFANTASIA": "SUPERMERCADO_ESQUIVI", "RAZAOSOCIAL": "ENIS_CELI_ESQUIVI", "ENDEE": "RUA_VITORIA1393__CENTRO_15670-000", "LATITUDE": "-19.9427866", "LONGITUDE": "-50.5374636", "LMAPS": "https://www.google.com/maps?q=&layer=c&cbll=-50.5374636,-19.9427866", "O_QUE_FAZER": "CARTEIRA", "field_10": null, "field_11": null, "field_12": null, "field_13": null, "ER_REGIAO_CIDADE_min": "Populina_Votuporanga" }, "geometry": { "type": "Point", "coordinates": [ -50.5374636, -19.9427866 ] } },
{ "type": "Feature", "properties": { "CNPJ": "42708193000180", "IDCIDADE": "POPULINA", "NOMEFANTASIA": "M.S._SUPERMERCADO", "RAZAOSOCIAL": "MACEDO_&_SORATO_SUPERMERCADO_LTDA", "ENDEE": "RUA_TREZE_DE_MAIO1518__CENTRO_16600-027", "LATITUDE": "-19.943112", "LONGITUDE": "-50.5357926", "LMAPS": "https://www.google.com/maps?q=&layer=c&cbll=-50.5357926,-19.943112", "O_QUE_FAZER": "CARTEIRA", "field_10": null, "field_11": null, "field_12": null, "field_13": null, "ER_REGIAO_CIDADE_min": "Populina_Votuporanga" }, "geometry": { "type": "Point", "coordinates": [ -50.5357926, -19.943112 ] } },
{ "type": "Feature", "properties": { "CNPJ": "64062482000197", "IDCIDADE": "POPULINA", "NOMEFANTASIA": "ML_PETROLEO", "RAZAOSOCIAL": "MARCELO_MARQUES_LOBO_&_CIA_LTDA", "ENDEE": "RUA_SAO_PAULO1457__CENTRO_15670-000", "LATITUDE": "-19.944007", "LONGITUDE": "-50.536313", "LMAPS": "https://www.google.com/maps?q=&layer=c&cbll=-50.536313,-19.944007", "O_QUE_FAZER": "CARTEIRA", "field_10": null, "field_11": null, "field_12": null, "field_13": null, "ER_REGIAO_CIDADE_min": "Populina_Votuporanga" }, "geometry": { "type": "Point", "coordinates": [ -50.536313, -19.944007 ] } },
{ "type": "Feature", "properties": { "CNPJ": "24494355000142", "IDCIDADE": "POPULINA", "NOMEFANTASIA": "PROTEGE_VISTORIA_POPULINA", "RAZAOSOCIAL": "ANTONIO_CARLOS_PINTO_VISTORIA_AUTOMOTIVA", "ENDEE": "RUA_SAO_PAULO1150__CENTRO_15670-000", "LATITUDE": "-19.9445065", "LONGITUDE": "-50.5395506", "LMAPS": "https://www.google.com/maps?q=&layer=c&cbll=-50.5395506,-19.9445065", "O_QUE_FAZER": "CARTEIRA", "field_10": null, "field_11": null, "field_12": null, "field_13": null, "ER_REGIAO_CIDADE_min": "Populina_Votuporanga" }, "geometry": { "type": "Point", "coordinates": [ -50.5395506, -19.9445065 ] } },
{ "type": "Feature", "properties": { "CNPJ": "61487178000101", "IDCIDADE": "POPULINA", "NOMEFANTASIA": "CASA_DE_PESCA_NOSSA_SENHORA__APARECIDA", "RAZAOSOCIAL": "61.487.178_ROSIMAR_CRISPIM_DA_COSTA", "ENDEE": "CATANDUVA_1727_CENTRO_POPULINA_15670-021", "LATITUDE": "-19.9390274", "LONGITUDE": "-50.5339459", "LMAPS": "https://www.google.com/maps?q=&layer=c&cbll=-19.9390274,-50.5339459", "O_QUE_FAZER": "FINALIZADO", "field_10": null, "field_11": null, "field_12": null, "field_13": null, "ER_REGIAO_CIDADE_min": "Populina_Votuporanga" }, "geometry": { "type": "Point", "coordinates": [ -50.5339459, -19.9390274 ] } },
{ "type": "Feature", "properties": { "CNPJ": "37678254000173", "IDCIDADE": "POPULINA", "NOMEFANTASIA": "PIT_STOP_CONVENIENCIA", "RAZAOSOCIAL": "DIOGENES_POLARINI_NETO_LOJA_DE_CONVENIENCIA", "ENDEE": "AVENIDA_ANTONIO_AUGUSTO_RIBEIRO_FILHO1618__CENTRO_15670-031", "LATITUDE": "-19.9422882", "LONGITUDE": "-50.5347557", "LMAPS": "https://www.google.com/maps?q=&layer=c&cbll=-50.5347557,-19.9422882", "O_QUE_FAZER": "FINALIZADO", "field_10": null, "field_11": null, "field_12": null, "field_13": null, "ER_REGIAO_CIDADE_min": "Populina_Votuporanga" }, "geometry": { "type": "Point", "coordinates": [ -50.5347557, -19.9422882 ] } },
{ "type": "Feature", "properties": { "CNPJ": "33235347000172", "IDCIDADE": "POPULINA", "NOMEFANTASIA": "JR_HIDRAULICA", "RAZAOSOCIAL": "ANA_FLORA_NEVES_OFICINA_MECANICA", "ENDEE": "RUA_B2001__DISTRITO_INDUSTRIAL_15670-000", "LATITUDE": "-19.9410035", "LONGITUDE": "-50.5275889", "LMAPS": "https://www.google.com/maps?q=&layer=c&cbll=-50.5275889,-19.9410035", "O_QUE_FAZER": "FINALIZADO", "field_10": null, "field_11": null, "field_12": null, "field_13": null, "ER_REGIAO_CIDADE_min": "Populina_Votuporanga" }, "geometry": { "type": "Point", "coordinates": [ -50.5275889, -19.9410035 ] } },
{ "type": "Feature", "properties": { "CNPJ": "06962718000145", "IDCIDADE": "POPULINA", "NOMEFANTASIA": "JR_RECICLAGEM", "RAZAOSOCIAL": "JOAO_CARLOS_DA_SILVA_JUNIOR_SUCATAS", "ENDEE": "RUA_SAO_PAULO1575__CENTRO_15670-000", "LATITUDE": "-19.9411621", "LONGITUDE": "-50.5272791", "LMAPS": "https://www.google.com/maps?q=&layer=c&cbll=-50.5272791,-19.9411621", "O_QUE_FAZER": "FINALIZADO", "field_10": null, "field_11": null, "field_12": null, "field_13": null, "ER_REGIAO_CIDADE_min": "Populina_Votuporanga" }, "geometry": { "type": "Point", "coordinates": [ -50.5272791, -19.9411621 ] } },
{ "type": "Feature", "properties": { "CNPJ": "74511999000170", "IDCIDADE": "POPULINA", "NOMEFANTASIA": "AUTK_ELETRICO_POPULINA", "RAZAOSOCIAL": "CARLOS_AUGUSTO_GONCALVES_VEICULOS", "ENDEE": "AVENIDA_ANTONIO_AUGUSTO_RIBEIRO_FILHO1684__CENTRO_15670-140", "LATITUDE": "-19.9416798", "LONGITUDE": "-50.5268134", "LMAPS": "https://www.google.com/maps?q=&layer=c&cbll=-50.5268134,-19.9416798", "O_QUE_FAZER": "FINALIZADO", "field_10": null, "field_11": null, "field_12": null, "field_13": null, "ER_REGIAO_CIDADE_min": "Populina_Votuporanga" }, "geometry": { "type": "Point", "coordinates": [ -50.5268134, -19.9416798 ] } },
{ "type": "Feature", "properties": { "CNPJ": "06001984000101", "IDCIDADE": "POPULINA", "NOMEFANTASIA": "AUO_CENTER_LOGISTICA_E_MANUTENCAO", "RAZAOSOCIAL": "OFICINA_POPULINA_LTDA", "ENDEE": "RUA_A2059__DISTRITO_INDUSTRIAL_15670-140", "LATITUDE": "-19.9416975", "LONGITUDE": "-50.5273128", "LMAPS": "https://www.google.com/maps?q=&layer=c&cbll=-50.5273128,-19.9416975", "O_QUE_FAZER": "FINALIZADO", "field_10": null, "field_11": null, "field_12": null, "field_13": null, "ER_REGIAO_CIDADE_min": "Populina_Votuporanga" }, "geometry": { "type": "Point", "coordinates": [ -50.5273128, -19.9416975 ] } },
{ "type": "Feature", "properties": { "CNPJ": "16577717000130", "IDCIDADE": "POPULINA", "NOMEFANTASIA": "CANTINHO__DO_ESTILO", "RAZAOSOCIAL": "SUELY_NOGUEIRA_DE_ASSIS", "ENDEE": "ANTONIO_AUGUSTO_RIBEIRO_FILHO_1535_CENTRO_POPULINA_15670-031", "LATITUDE": "-19.9418175", "LONGITUDE": "-50.5335882", "LMAPS": "https://www.google.com/maps?q=&layer=c&cbll=-19.9418175,-50.5335882", "O_QUE_FAZER": "FINALIZADO", "field_10": null, "field_11": null, "field_12": null, "field_13": null, "ER_REGIAO_CIDADE_min": "Populina_Votuporanga" }, "geometry": { "type": "Point", "coordinates": [ -50.5335882, -19.9418175 ] } },
{ "type": "Feature", "properties": { "CNPJ": "29553653000180", "IDCIDADE": "POPULINA", "NOMEFANTASIA": "MERCEARIA_JR", "RAZAOSOCIAL": "JOANA_CARVALHO_VIEIRA_VEITA", "ENDEE": "AVENIDA_ANTONIO_AUGUSTO_RIBEIRO_FILHO1659__CENTRO_15670-031", "LATITUDE": "-19.9418421", "LONGITUDE": "-50.534172", "LMAPS": "https://www.google.com/maps?q=&layer=c&cbll=-50.534172,-19.9418421", "O_QUE_FAZER": "FINALIZADO", "field_10": null, "field_11": null, "field_12": null, "field_13": null, "ER_REGIAO_CIDADE_min": "Populina_Votuporanga" }, "geometry": { "type": "Point", "coordinates": [ -50.534172, -19.9418421 ] } },
{ "type": "Feature", "properties": { "CNPJ": "35444026000103", "IDCIDADE": "POPULINA", "NOMEFANTASIA": "DEDE_MODA_FEMININA", "RAZAOSOCIAL": "35.444.026_ADELIANE_DA_COSTA_OTSUKA", "ENDEE": "ANTONIO_RIBEIRO_FILHO_1366_CENTRO_POPULINA_15670-031", "LATITUDE": "-19.9419092", "LONGITUDE": "-50.5335816", "LMAPS": "https://www.google.com/maps?q=&layer=c&cbll=-19.9419092,-50.5335816", "O_QUE_FAZER": "FINALIZADO", "field_10": null, "field_11": null, "field_12": null, "field_13": null, "ER_REGIAO_CIDADE_min": "Populina_Votuporanga" }, "geometry": { "type": "Point", "coordinates": [ -50.5335816, -19.9419092 ] } },
{ "type": "Feature", "properties": { "CNPJ": "18208064000148", "IDCIDADE": "POPULINA", "NOMEFANTASIA": "SERV_FESTA_ZERO_GRAU", "RAZAOSOCIAL": "TAKEDA_&_SILVA_TAKEDA_LTDA", "ENDEE": "RUA_SANTA_CATARINA1461__CENTRO_15670-031", "LATITUDE": "-19.9419156", "LONGITUDE": "-50.5346128", "LMAPS": "https://www.google.com/maps?q=&layer=c&cbll=-50.5346128,-19.9419156", "O_QUE_FAZER": "FINALIZADO", "field_10": null, "field_11": null, "field_12": null, "field_13": null, "ER_REGIAO_CIDADE_min": "Populina_Votuporanga" }, "geometry": { "type": "Point", "coordinates": [ -50.5346128, -19.9419156 ] } },
{ "type": "Feature", "properties": { "CNPJ": "07227172000141", "IDCIDADE": "POPULINA", "NOMEFANTASIA": "DISTRIBUIDORA_POPULINA", "RAZAOSOCIAL": "AGNO_ANTONIO_DA_SILVA_LTDA", "ENDEE": "RUA_A2155__DISTRITO_INDUSTRIAL_15670-140", "LATITUDE": "-19.9419241", "LONGITUDE": "-50.5263544", "LMAPS": "https://www.google.com/maps?q=&layer=c&cbll=-50.5263544,-19.9419241", "O_QUE_FAZER": "FINALIZADO", "field_10": null, "field_11": null, "field_12": null, "field_13": null, "ER_REGIAO_CIDADE_min": "Populina_Votuporanga" }, "geometry": { "type": "Point", "coordinates": [ -50.5263544, -19.9419241 ] } },
{ "type": "Feature", "properties": { "CNPJ": "10479881000129", "IDCIDADE": "POPULINA", "NOMEFANTASIA": "FARMACIA_CENTRAL", "RAZAOSOCIAL": "FARMACIA_E_DROGARIA_CENTRAL_DE_POPULINA_LTDA", "ENDEE": "AVENIDA_ANTONIO_AUGUSTO_RIBEIRO_FILHO1389__CENTRO_15670-031", "LATITUDE": "-19.9419835", "LONGITUDE": "-50.5370889", "LMAPS": "https://www.google.com/maps?q=&layer=c&cbll=-50.5370889,-19.9419835", "O_QUE_FAZER": "FINALIZADO", "field_10": null, "field_11": null, "field_12": null, "field_13": null, "ER_REGIAO_CIDADE_min": "Populina_Votuporanga" }, "geometry": { "type": "Point", "coordinates": [ -50.5370889, -19.9419835 ] } },
{ "type": "Feature", "properties": { "CNPJ": "55948096000106", "IDCIDADE": "POPULINA", "NOMEFANTASIA": "LU_OPTICA", "RAZAOSOCIAL": "LU_OPTICA_MARTINS_LTDA", "ENDEE": "AVENIDA_ANTONIO_AUGUSTO_RIBEIRO_FILHO1443__CENTRO_15670-031", "LATITUDE": "-19.941995", "LONGITUDE": "-50.5365416", "LMAPS": "https://www.google.com/maps?q=&layer=c&cbll=-50.5365416,-19.941995", "O_QUE_FAZER": "FINALIZADO", "field_10": null, "field_11": null, "field_12": null, "field_13": null, "ER_REGIAO_CIDADE_min": "Populina_Votuporanga" }, "geometry": { "type": "Point", "coordinates": [ -50.5365416, -19.941995 ] } },
{ "type": "Feature", "properties": { "CNPJ": "63748505000159", "IDCIDADE": "POPULINA", "NOMEFANTASIA": "R_E_A_PRESENTES", "RAZAOSOCIAL": "63.748.505_RAHIGIA_ALISSA_FERNANDES_DE_SOUZA", "ENDEE": "ANTONIO_AUGUSTO_RIBEIRO_FILHO_1656_CENTRO_POPULINA_15670-031", "LATITUDE": "-19.9420797", "LONGITUDE": "-50.5342342", "LMAPS": "https://www.google.com/maps?q=&layer=c&cbll=-19.9420797,-50.5342342", "O_QUE_FAZER": "FINALIZADO", "field_10": null, "field_11": null, "field_12": null, "field_13": null, "ER_REGIAO_CIDADE_min": "Populina_Votuporanga" }, "geometry": { "type": "Point", "coordinates": [ -50.5342342, -19.9420797 ] } },
{ "type": "Feature", "properties": { "CNPJ": "29876368000108", "IDCIDADE": "POPULINA", "NOMEFANTASIA": "AUTOO_MECANICA_E__ELETRICA__POPULINA", "RAZAOSOCIAL": "ADAIR_FARIA_07587218890", "ENDEE": "ANTONIO_AUGUSTO_RIBEIRO_FILHO_1714_CENTRO_POPULINA_15670-031", "LATITUDE": "-19.9421258", "LONGITUDE": "-50.5374726", "LMAPS": "https://www.google.com/maps?q=&layer=c&cbll=-19.9421258,-50.5374726", "O_QUE_FAZER": "FINALIZADO", "field_10": null, "field_11": null, "field_12": null, "field_13": null, "ER_REGIAO_CIDADE_min": "Populina_Votuporanga" }, "geometry": { "type": "Point", "coordinates": [ -50.5374726, -19.9421258 ] } },
{ "type": "Feature", "properties": { "CNPJ": "29408405000145", "IDCIDADE": "POPULINA", "NOMEFANTASIA": "REICELL", "RAZAOSOCIAL": "29.408.405_HIGOR_CARLOS_MAZUCHI_DA_SILVA", "ENDEE": "ANTONIO_AUGUSTO_RIBEIRO_FILHO_1669_CENTRO_POPULINA_15670-031", "LATITUDE": "-19.9421258", "LONGITUDE": "-50.5374726", "LMAPS": "https://www.google.com/maps?q=&layer=c&cbll=-19.9421258,-50.5374726", "O_QUE_FAZER": "FINALIZADO", "field_10": null, "field_11": null, "field_12": null, "field_13": null, "ER_REGIAO_CIDADE_min": "Populina_Votuporanga" }, "geometry": { "type": "Point", "coordinates": [ -50.5374726, -19.9421258 ] } },
{ "type": "Feature", "properties": { "CNPJ": "32841286000124", "IDCIDADE": "POPULINA", "NOMEFANTASIA": "DE_SHOES", "RAZAOSOCIAL": "WELLINTON_ABRANTES_DE_GENOVA_45195418837", "ENDEE": "RIO_DE_JANEIRO_1449_RESIDENCIAL_JARDIM_ESPLANADA_POPULINA_15670-228", "LATITUDE": "-19.9421354", "LONGITUDE": "-50.537462", "LMAPS": "https://www.google.com/maps?q=&layer=c&cbll=-19.9421354,-50.537462", "O_QUE_FAZER": "FINALIZADO", "field_10": null, "field_11": null, "field_12": null, "field_13": null, "ER_REGIAO_CIDADE_min": "Populina_Votuporanga" }, "geometry": { "type": "Point", "coordinates": [ -50.537462, -19.9421354 ] } },
{ "type": "Feature", "properties": { "CNPJ": "11991498000118", "IDCIDADE": "POPULINA", "NOMEFANTASIA": "FUNILARIA E  PINTURA  FAÍSCA", "RAZAOSOCIAL": "FUNILARIA E  PINTURA  FAÍSCA", "ENDEE": "RUA_B_2011_DISTRITO INDUSTRIAL PEDRO ROQUE ROTTA_15670-142_POPULINA", "LATITUDE": "-19.9421354", "LONGITUDE": "-50.537462", "LMAPS": "https://www.google.com/maps?q=&layer=c&cbll=-19.9421354,-50.537462", "O_QUE_FAZER": "FINALIZADO", "field_10": null, "field_11": null, "field_12": null, "field_13": null, "ER_REGIAO_CIDADE_min": "Populina_Votuporanga" }, "geometry": { "type": "Point", "coordinates": [ -50.537462, -19.9421354 ] } },
{ "type": "Feature", "properties": { "CNPJ": "04800263000136", "IDCIDADE": "POPULINA", "NOMEFANTASIA": "CARLA MODAS", "RAZAOSOCIAL": "CARLA MODAS", "ENDEE": "TRAVESSA_LAURINDA RIBEIRO_36_CENTRO_15670-018_POPULINA", "LATITUDE": "-19.9421354", "LONGITUDE": "-50.537462", "LMAPS": "https://www.google.com/maps?q=&layer=c&cbll=-19.9421354,-50.537462", "O_QUE_FAZER": "FINALIZADO", "field_10": null, "field_11": null, "field_12": null, "field_13": null, "ER_REGIAO_CIDADE_min": "Populina_Votuporanga" }, "geometry": { "type": "Point", "coordinates": [ -50.537462, -19.9421354 ] } },
{ "type": "Feature", "properties": { "CNPJ": "07413132000194", "IDCIDADE": "POPULINA", "NOMEFANTASIA": "HORTI_MAIS", "RAZAOSOCIAL": "VALDEIR_VOLTERO", "ENDEE": "AVENIDA_ANTONIO_AUGUSTO_RIBEIRO_FILHO1468__CENTRO_15670-031", "LATITUDE": "-19.9421973", "LONGITUDE": "-50.5362517", "LMAPS": "https://www.google.com/maps?q=&layer=c&cbll=-50.5362517,-19.9421973", "O_QUE_FAZER": "FINALIZADO", "field_10": null, "field_11": null, "field_12": null, "field_13": null, "ER_REGIAO_CIDADE_min": "Populina_Votuporanga" }, "geometry": { "type": "Point", "coordinates": [ -50.5362517, -19.9421973 ] } },
{ "type": "Feature", "properties": { "CNPJ": "46226997000101", "IDCIDADE": "POPULINA", "NOMEFANTASIA": "VIP_FITNESS_ACADEMIA", "RAZAOSOCIAL": "JANUARIO_&_SILVA_ACADEMIA_LTDA", "ENDEE": "AVENIDA_ANTONIO_AUGUSTO_RIBEIRO_FILHO1455__CENTRO_15670-031", "LATITUDE": "-19.9421991", "LONGITUDE": "-50.5362748", "LMAPS": "https://www.google.com/maps?q=&layer=c&cbll=-50.5362748,-19.9421991", "O_QUE_FAZER": "FINALIZADO", "field_10": null, "field_11": null, "field_12": null, "field_13": null, "ER_REGIAO_CIDADE_min": "Populina_Votuporanga" }, "geometry": { "type": "Point", "coordinates": [ -50.5362748, -19.9421991 ] } },
{ "type": "Feature", "properties": { "CNPJ": "37122729000140", "IDCIDADE": "POPULINA", "NOMEFANTASIA": "MADEIREIRA__CAPELLETTI", "RAZAOSOCIAL": "WELLITON_MARCOS_SAVAZZI_CAPELLETTI", "ENDEE": "A_0_DISTRITO_INDUSTRIAL_PEDRO_ROQUE_ROTTA_POPULINA_15670-140", "LATITUDE": "-19.9422208", "LONGITUDE": "-50.5374663", "LMAPS": "https://www.google.com/maps?q=&layer=c&cbll=-19.9422208,-50.5374663", "O_QUE_FAZER": "FINALIZADO", "field_10": null, "field_11": null, "field_12": null, "field_13": null, "ER_REGIAO_CIDADE_min": "Populina_Votuporanga" }, "geometry": { "type": "Point", "coordinates": [ -50.5374663, -19.9422208 ] } },
{ "type": "Feature", "properties": { "CNPJ": "35311839000125", "IDCIDADE": "POPULINA", "NOMEFANTASIA": "TORNEARIAE_SERRALHERIA_UNIAO", "RAZAOSOCIAL": "GILMAR_ULIAN_OFICINA_MECANICA", "ENDEE": "B_2150_DISTRITO_INDUSTRIAL_PEDRO_ROQUE_ROTTA_POPULINA_15670-142", "LATITUDE": "-19.9422208", "LONGITUDE": "-50.5374663", "LMAPS": "https://www.google.com/maps?q=&layer=c&cbll=-19.9422208,-50.5374663", "O_QUE_FAZER": "FINALIZADO", "field_10": null, "field_11": null, "field_12": null, "field_13": null, "ER_REGIAO_CIDADE_min": "Populina_Votuporanga" }, "geometry": { "type": "Point", "coordinates": [ -50.5374663, -19.9422208 ] } },
{ "type": "Feature", "properties": { "CNPJ": "08398219000100", "IDCIDADE": "POPULINA", "NOMEFANTASIA": "SUPERMERCADO_OLIVEIRA", "RAZAOSOCIAL": "ZELIA_GAMERO_DE_OLIVEIRA_SUPERMERCADO", "ENDEE": "AVENIDA_ANTONIO_AUGUSTO_RIBEIRO_FILHO1574__CENTRO_15670-031", "LATITUDE": "-19.9422217", "LONGITUDE": "-50.5351913", "LMAPS": "https://www.google.com/maps?q=&layer=c&cbll=-50.5351913,-19.9422217", "O_QUE_FAZER": "FINALIZADO", "field_10": null, "field_11": null, "field_12": null, "field_13": null, "ER_REGIAO_CIDADE_min": "Populina_Votuporanga" }, "geometry": { "type": "Point", "coordinates": [ -50.5351913, -19.9422217 ] } },
{ "type": "Feature", "properties": { "CNPJ": "56230006000100", "IDCIDADE": "POPULINA", "NOMEFANTASIA": "DROGARIA_AVENIDA", "RAZAOSOCIAL": "CHEREGATI_&_CHEREGATI_FARMACIA_E_DROGARIA_LTDA", "ENDEE": "AVENIDA_ANTONIO_AUGUSTO_RIBEIRO_FILHO1434__CENTRO_15670-031", "LATITUDE": "-19.9422829", "LONGITUDE": "-50.5366756", "LMAPS": "https://www.google.com/maps?q=&layer=c&cbll=-50.5366756,-19.9422829", "O_QUE_FAZER": "FINALIZADO", "field_10": null, "field_11": null, "field_12": null, "field_13": null, "ER_REGIAO_CIDADE_min": "Populina_Votuporanga" }, "geometry": { "type": "Point", "coordinates": [ -50.5366756, -19.9422829 ] } },
{ "type": "Feature", "properties": { "CNPJ": "31008218000116", "IDCIDADE": "POPULINA", "NOMEFANTASIA": "TOLEDO_TECH", "RAZAOSOCIAL": "31.008.218_LUCAS_PAVAO_TOLEDO", "ENDEE": "VITORIA_1439_CENTRO_POPULINA_15670-013", "LATITUDE": "-19.9423005", "LONGITUDE": "-50.5375579", "LMAPS": "https://www.google.com/maps?q=&layer=c&cbll=-19.9423005,-50.5375579", "O_QUE_FAZER": "FINALIZADO", "field_10": null, "field_11": null, "field_12": null, "field_13": null, "ER_REGIAO_CIDADE_min": "Populina_Votuporanga" }, "geometry": { "type": "Point", "coordinates": [ -50.5375579, -19.9423005 ] } },
{ "type": "Feature", "properties": { "CNPJ": "63511025000170", "IDCIDADE": "POPULINA", "NOMEFANTASIA": "MARCOS_STORE", "RAZAOSOCIAL": "63.511.025_DAYANE_SILVA_JANUARIO", "ENDEE": "VITORIA_1432_CENTRO_POPULINA_15670-013", "LATITUDE": "-19.9424794", "LONGITUDE": "-50.5372823", "LMAPS": "https://www.google.com/maps?q=&layer=c&cbll=-19.9424794,-50.5372823", "O_QUE_FAZER": "FINALIZADO", "field_10": null, "field_11": null, "field_12": null, "field_13": null, "ER_REGIAO_CIDADE_min": "Populina_Votuporanga" }, "geometry": { "type": "Point", "coordinates": [ -50.5372823, -19.9424794 ] } },
{ "type": "Feature", "properties": { "CNPJ": "33609676000136", "IDCIDADE": "POPULINA", "NOMEFANTASIA": "RESTAURANTE__CENTRO", "RAZAOSOCIAL": "33.609.676_GISELE_DE_SOUZA_DE_MARQUE_CORADINE_DE_JESUS", "ENDEE": "VITORIO_1401_CENTRO_POPULINA_15670-013", "LATITUDE": "-19.9426146", "LONGITUDE": "-50.5375204", "LMAPS": "https://www.google.com/maps?q=&layer=c&cbll=-19.9426146,-50.5375204", "O_QUE_FAZER": "FINALIZADO", "field_10": null, "field_11": null, "field_12": null, "field_13": null, "ER_REGIAO_CIDADE_min": "Populina_Votuporanga" }, "geometry": { "type": "Point", "coordinates": [ -50.5375204, -19.9426146 ] } },
{ "type": "Feature", "properties": { "CNPJ": "65828743000108", "IDCIDADE": "POPULINA", "NOMEFANTASIA": "MERCEARIA__MARIANO", "RAZAOSOCIAL": "65.828.743_ADEMIR_MARIANO", "ENDEE": "VITORIO_1385_CENTRO_POPULINA_15670-001", "LATITUDE": "-19.9429268", "LONGITUDE": "-50.5375453", "LMAPS": "https://www.google.com/maps?q=&layer=c&cbll=-19.9429268,-50.5375453", "O_QUE_FAZER": "FINALIZADO", "field_10": null, "field_11": null, "field_12": null, "field_13": null, "ER_REGIAO_CIDADE_min": "Populina_Votuporanga" }, "geometry": { "type": "Point", "coordinates": [ -50.5375453, -19.9429268 ] } },
{ "type": "Feature", "properties": { "CNPJ": "04296742000167", "IDCIDADE": "POPULINA", "NOMEFANTASIA": "ELETRO_POPI", "RAZAOSOCIAL": "SOCORRO_&_FORNAZARI_LTDA", "ENDEE": "RUA_VITORIA1380__CENTRO_15670-013", "LATITUDE": "-19.942948", "LONGITUDE": "-50.5373662", "LMAPS": "https://www.google.com/maps?q=&layer=c&cbll=-50.5373662,-19.942948", "O_QUE_FAZER": "FINALIZADO", "field_10": null, "field_11": null, "field_12": null, "field_13": null, "ER_REGIAO_CIDADE_min": "Populina_Votuporanga" }, "geometry": { "type": "Point", "coordinates": [ -50.5373662, -19.942948 ] } },
{ "type": "Feature", "properties": { "CNPJ": "20462555000162", "IDCIDADE": "POPULINA", "NOMEFANTASIA": "VETERINARIA_GALBIATTI", "RAZAOSOCIAL": "VETERINARIA_GALBIATTI_LTDA", "ENDEE": "RUA_TREZE_DE_MAIO1345__CENTRO_15670-035", "LATITUDE": "-19.9430511", "LONGITUDE": "-50.5376203", "LMAPS": "https://www.google.com/maps?q=&layer=c&cbll=-50.5376203,-19.9430511", "O_QUE_FAZER": "FINALIZADO", "field_10": null, "field_11": null, "field_12": null, "field_13": null, "ER_REGIAO_CIDADE_min": "Populina_Votuporanga" }, "geometry": { "type": "Point", "coordinates": [ -50.5376203, -19.9430511 ] } },
{ "type": "Feature", "properties": { "CNPJ": "53360616000130", "IDCIDADE": "POPULINA", "NOMEFANTASIA": "SORVETES_CLAUDION", "RAZAOSOCIAL": "CLAUDIO_GOTTRICH_JUNIOR_&_CIA_LTDA", "ENDEE": "RUA_TREZE_DE_MAIO1249__CENTRO_15670-000", "LATITUDE": "-19.9431136", "LONGITUDE": "-50.5385328", "LMAPS": "https://www.google.com/maps?q=&layer=c&cbll=-50.5385328,-19.9431136", "O_QUE_FAZER": "FINALIZADO", "field_10": null, "field_11": null, "field_12": null, "field_13": null, "ER_REGIAO_CIDADE_min": "Populina_Votuporanga" }, "geometry": { "type": "Point", "coordinates": [ -50.5385328, -19.9431136 ] } },
{ "type": "Feature", "properties": { "CNPJ": "10976045000150", "IDCIDADE": "POPULINA", "NOMEFANTASIA": "AUTO_POSTO_POPULINA", "RAZAOSOCIAL": "SOARES_&_SOARES_POPULINA_LTDA", "ENDEE": "RUA_TREZE_DE_MAIO1354__CENTRO_15670-035", "LATITUDE": "-19.9432421", "LONGITUDE": "-50.5374779", "LMAPS": "https://www.google.com/maps?q=&layer=c&cbll=-50.5374779,-19.9432421", "O_QUE_FAZER": "FINALIZADO", "field_10": null, "field_11": null, "field_12": null, "field_13": null, "ER_REGIAO_CIDADE_min": "Populina_Votuporanga" }, "geometry": { "type": "Point", "coordinates": [ -50.5374779, -19.9432421 ] } },
{ "type": "Feature", "properties": { "CNPJ": "61368110000103", "IDCIDADE": "POPULINA", "NOMEFANTASIA": "EMPORIO_CARNES", "RAZAOSOCIAL": "LUCAS_PESSOA_MANOEL", "ENDEE": "VITORIA_1327_CENTRO_POPULINA_15670-013", "LATITUDE": "-19.9435132", "LONGITUDE": "-50.5374609", "LMAPS": "https://www.google.com/maps?q=&layer=c&cbll=-19.9435132,-50.5374609", "O_QUE_FAZER": "FINALIZADO", "field_10": null, "field_11": null, "field_12": null, "field_13": null, "ER_REGIAO_CIDADE_min": "Populina_Votuporanga" }, "geometry": { "type": "Point", "coordinates": [ -50.5374609, -19.9435132 ] } },
{ "type": "Feature", "properties": { "CNPJ": "46067724000153", "IDCIDADE": "POPULINA", "NOMEFANTASIA": "SUPERMERCADO_MATOS", "RAZAOSOCIAL": "SUPERMERCADO_MATOS_LTDA", "ENDEE": "RUA_SAO_PAULO1347__CENTRO_15670-037", "LATITUDE": "-19.9439433", "LONGITUDE": "-50.537476", "LMAPS": "https://www.google.com/maps?q=&layer=c&cbll=-50.537476,-19.9439433", "O_QUE_FAZER": "FINALIZADO", "field_10": null, "field_11": null, "field_12": null, "field_13": null, "ER_REGIAO_CIDADE_min": "Populina_Votuporanga" }, "geometry": { "type": "Point", "coordinates": [ -50.537476, -19.9439433 ] } },
{ "type": "Feature", "properties": { "CNPJ": "10950911000133", "IDCIDADE": "POPULINA", "NOMEFANTASIA": "FARMACIA_SAO_PAULO", "RAZAOSOCIAL": "LIMA_&_SILVA_FARMACIA_LTDA", "ENDEE": "RUA_SAO_PAULO1309__CENTRO_15670-037", "LATITUDE": "-19.9439829", "LONGITUDE": "-50.5379072", "LMAPS": "https://www.google.com/maps?q=&layer=c&cbll=-50.5379072,-19.9439829", "O_QUE_FAZER": "FINALIZADO", "field_10": null, "field_11": null, "field_12": null, "field_13": null, "ER_REGIAO_CIDADE_min": "Populina_Votuporanga" }, "geometry": { "type": "Point", "coordinates": [ -50.5379072, -19.9439829 ] } },
{ "type": "Feature", "properties": { "CNPJ": "54561618000150", "IDCIDADE": "POPULINA", "NOMEFANTASIA": "CASA_SAO_JOAQUIM", "RAZAOSOCIAL": "M._PERES_&_J._FERREIRA_MATERIAIS_DE_CONSTRUCAO_LTDA", "ENDEE": "RUA_SAO_PAULO1334__CENTRO_15670-037", "LATITUDE": "-19.9441476", "LONGITUDE": "-50.5376389", "LMAPS": "https://www.google.com/maps?q=&layer=c&cbll=-50.5376389,-19.9441476", "O_QUE_FAZER": "FINALIZADO", "field_10": null, "field_11": null, "field_12": null, "field_13": null, "ER_REGIAO_CIDADE_min": "Populina_Votuporanga" }, "geometry": { "type": "Point", "coordinates": [ -50.5376389, -19.9441476 ] } },
{ "type": "Feature", "properties": { "CNPJ": "09000880000170", "IDCIDADE": "POPULINA", "NOMEFANTASIA": "GFG_VARIEDADES", "RAZAOSOCIAL": "DEMARCHI_&_DEMARCHI_ARTIGOS_DE_ARMARINHO_LTDA", "ENDEE": "RUA_SAO_PAULO1344__CENTRO_15670-037", "LATITUDE": "-19.9441749", "LONGITUDE": "-50.5375508", "LMAPS": "https://www.google.com/maps?q=&layer=c&cbll=-50.5375508,-19.9441749", "O_QUE_FAZER": "FINALIZADO", "field_10": null, "field_11": null, "field_12": null, "field_13": null, "ER_REGIAO_CIDADE_min": "Populina_Votuporanga" }, "geometry": { "type": "Point", "coordinates": [ -50.5375508, -19.9441749 ] } },
{ "type": "Feature", "properties": { "CNPJ": "32174366000173", "IDCIDADE": "POPULINA", "NOMEFANTASIA": "LIFE_FITNESS", "RAZAOSOCIAL": "ANDERSON_&_TATIANE_LTDA", "ENDEE": "RUA_SAO_PAULO1258__CENTRO_15670-011", "LATITUDE": "-19.9442527", "LONGITUDE": "-50.5383659", "LMAPS": "https://www.google.com/maps?q=&layer=c&cbll=-50.5383659,-19.9442527", "O_QUE_FAZER": "FINALIZADO", "field_10": null, "field_11": null, "field_12": null, "field_13": null, "ER_REGIAO_CIDADE_min": "Populina_Votuporanga" }, "geometry": { "type": "Point", "coordinates": [ -50.5383659, -19.9442527 ] } },
{ "type": "Feature", "properties": { "CNPJ": "48191678000125", "IDCIDADE": "POPULINA", "NOMEFANTASIA": "MONICA_STEFANI_DE_SOUZA_MOREIRA_MARIANO_37770394899", "RAZAOSOCIAL": "MERCEARIA_MARIANO", "ENDEE": "RUA_POPULINA1385__VITORIA_15670-000", "LATITUDE": "-19.9422208", "LONGITUDE": "-50.5374663", "LMAPS": "https://www.google.com/maps?q=&layer=c&cbll=-50.5374663,-19.9422208", "O_QUE_FAZER": "FINALIZADO", "field_10": null, "field_11": null, "field_12": null, "field_13": null, "ER_REGIAO_CIDADE_min": "Populina_Votuporanga" }, "geometry": { "type": "Point", "coordinates": [ -50.5374663, -19.9422208 ] } }
]
}
