{
"type": "FeatureCollection",
"name": "ER_REGIAO_CIDADE_min_Paulicéia_Araçatuba",
"crs": { "type": "name", "properties": { "name": "urn:ogc:def:crs:OGC:1.3:CRS84" } },
"xy_coordinate_resolution": 1e-15,
"features": [
{ "type": "Feature", "properties": { "fid": 7387, "CNPJ": "01524705000170", "IDCIDADE": "PAULICEIA", "NOMEFANTASIA": "MULTIDROGAS", "RAZAOSOCIAL": "BASQUES_&_GOMES_LTDA", "ENDEE": "AVENIDA_PAULISTA1884__CENTRO_17990-000", "LMAPS": "https://www.google.com/maps?q=&layer=c&cbll=-21.3140712,-51.8351961", "O_QUE_FAZER": "CARTEIRA", "ER_REGIAO_CIDADE_min": "Paulicéia_Araçatuba" }, "geometry": { "type": "Point", "coordinates": [ -51.8351961, -21.3140712 ] } },
{ "type": "Feature", "properties": { "fid": 10306, "CNPJ": "02121350000131", "IDCIDADE": "PAULICEIA", "NOMEFANTASIA": "OTICA_PAULICEIA", "RAZAOSOCIAL": "FABIO_AUGUSTO_DA_SILVA_PAULICEIA", "ENDEE": "RUA_CONDE_AUGUSTO_CHIRICATTI276__CENTRO_17990-000", "LMAPS": "https://www.google.com/maps?q=&layer=c&cbll=-21.31484,-51.8329667", "O_QUE_FAZER": "CARTEIRA", "ER_REGIAO_CIDADE_min": "Paulicéia_Araçatuba" }, "geometry": { "type": "Point", "coordinates": [ -51.8329667, -21.31484 ] } },
{ "type": "Feature", "properties": { "fid": 22460, "CNPJ": "04167486000108", "IDCIDADE": "PAULICEIA", "NOMEFANTASIA": "LOTERICA_PAULICEIA", "RAZAOSOCIAL": "LOTERICA_PAULICEIA_LTDA", "ENDEE": "AVENIDA_PAULISTA1936__CENTRO_17990-000", "LMAPS": "https://www.google.com/maps?q=&layer=c&cbll=-21.3153854,-51.8308662", "O_QUE_FAZER": "CARTEIRA", "ER_REGIAO_CIDADE_min": "Paulicéia_Araçatuba" }, "geometry": { "type": "Point", "coordinates": [ -51.8308662, -21.3153854 ] } },
{ "type": "Feature", "properties": { "fid": 22555, "CNPJ": "04181641000140", "IDCIDADE": "PAULICEIA", "NOMEFANTASIA": "EME", "RAZAOSOCIAL": "EME_EQUIPAMENTOS_MEDICOS_E_ESPECIAIS_COMERCIO_E_MONTAGEM_LTDA", "ENDEE": "RUA PADRE ANCHIETA, 86, CENTRO, 17990-000, PAULICÉIA, SP, BRASIL", "LMAPS": "https://www.google.com/maps?q=&layer=c&cbll=-21.311732,-51.8448354", "O_QUE_FAZER": "CARTEIRA - FAMPE", "ER_REGIAO_CIDADE_min": "Paulicéia_Araçatuba" }, "geometry": { "type": "Point", "coordinates": [ -51.8448354, -21.311732 ] } },
{ "type": "Feature", "properties": { "fid": 24087, "CNPJ": "04424105000129", "IDCIDADE": "PAULICEIA", "NOMEFANTASIA": "PAULIGAS", "RAZAOSOCIAL": "LUIZ_ANTONIO_MACHADO_PAULICEIA", "ENDEE": "AVENIDA_PAULISTA1788__CENTRO_17990-000", "LMAPS": "https://www.google.com/maps?q=&layer=c&cbll=-21.3149503,-51.8323552", "O_QUE_FAZER": "CARTEIRA", "ER_REGIAO_CIDADE_min": "Paulicéia_Araçatuba" }, "geometry": { "type": "Point", "coordinates": [ -51.8323552, -21.3149503 ] } },
{ "type": "Feature", "properties": { "fid": 34466, "CNPJ": "05895667000113", "IDCIDADE": "PAULICEIA", "NOMEFANTASIA": "IMPRONETE_TELECOM", "RAZAOSOCIAL": "INPRONET_TELECOM_LTDA", "ENDEE": "AVENIDA_PAULISTA1648__CENTRO_17990-000", "LMAPS": "https://www.google.com/maps?q=&layer=c&cbll=-21.3145748,-51.8336537", "O_QUE_FAZER": "CARTEIRA", "ER_REGIAO_CIDADE_min": "Paulicéia_Araçatuba" }, "geometry": { "type": "Point", "coordinates": [ -51.8336537, -21.3145748 ] } },
{ "type": "Feature", "properties": { "fid": 43215, "CNPJ": "07498191000102", "IDCIDADE": "PAULICEIA", "NOMEFANTASIA": "CASA_DE_ISCAS_DO_CHICO", "RAZAOSOCIAL": "FRANCISCO_ELIAS_DOS_SANTOS", "ENDEE": "RUA_RIO_BRANCO400__CENTRO_17990-000", "LMAPS": "https://www.google.com/maps?q=&layer=c&cbll=-21.317016,-51.8291974", "O_QUE_FAZER": "CARTEIRA", "ER_REGIAO_CIDADE_min": "Paulicéia_Araçatuba" }, "geometry": { "type": "Point", "coordinates": [ -51.8291974, -21.317016 ] } },
{ "type": "Feature", "properties": { "fid": 43735, "CNPJ": "07573656000142", "IDCIDADE": "PAULICEIA", "NOMEFANTASIA": "RHJ_INDUSTRIA_E_COMERCIO_DE_EQUIPAMENTOS_MEDICOS_LTDA", "RAZAOSOCIAL": "EME_EQUIPMENT", "ENDEE": "RUA_GENERAL_VARGAS410__CENTRO_17990-000", "LMAPS": "https://www.google.com/maps?q=&layer=c&cbll=-21.3096587,-51.8445616", "O_QUE_FAZER": "APLICAR T2", "ER_REGIAO_CIDADE_min": "Paulicéia_Araçatuba" }, "geometry": { "type": "Point", "coordinates": [ -51.8445616, -21.3096587 ] } },
{ "type": "Feature", "properties": { "fid": 47707, "CNPJ": "08059247000195", "IDCIDADE": "PAULICEIA", "NOMEFANTASIA": "TORQUATO", "RAZAOSOCIAL": "MARIA_NATALIA_VIEIRA_TORQUATO_LTDA", "ENDEE": "AVENIDA_PAULISTA1537__CENTRO_17990-000", "LMAPS": "https://www.google.com/maps?q=&layer=c&cbll=-21.3138259,-51.8345824", "O_QUE_FAZER": "CARTEIRA", "ER_REGIAO_CIDADE_min": "Paulicéia_Araçatuba" }, "geometry": { "type": "Point", "coordinates": [ -51.8345824, -21.3138259 ] } },
{ "type": "Feature", "properties": { "fid": 58768, "CNPJ": "09492486000105", "IDCIDADE": "PAULICEIA", "NOMEFANTASIA": "YEDA_VENDAS_DE_PASSAGENS", "RAZAOSOCIAL": "YEDA_TERUKO_YARIWAKE_ALVES", "ENDEE": "AVENIDA PAULISTA, S/N, CENTRO, 17990-000, PAULICÉIA, SP, BRASIL", "LMAPS": "https://www.google.com/maps?q=&layer=c&cbll=-21.3133436,-51.8368037", "O_QUE_FAZER": "CARTEIRA - FAMPE", "ER_REGIAO_CIDADE_min": "Paulicéia_Araçatuba" }, "geometry": { "type": "Point", "coordinates": [ -51.8368037, -21.3133436 ] } },
{ "type": "Feature", "properties": { "fid": 62720, "CNPJ": "10427505000190", "IDCIDADE": "PAULICEIA", "NOMEFANTASIA": "ALIANCAMOVEIS", "RAZAOSOCIAL": "EURIDICE_DEMUNDO_CHITERO", "ENDEE": "AVENIDA_PAULISTA1616__CENTRO_17990-000", "LMAPS": "https://www.google.com/maps?q=&layer=c&cbll=-21.3145368,-51.8340542", "O_QUE_FAZER": "CARTEIRA", "ER_REGIAO_CIDADE_min": "Paulicéia_Araçatuba" }, "geometry": { "type": "Point", "coordinates": [ -51.8340542, -21.3145368 ] } },
{ "type": "Feature", "properties": { "fid": 68761, "CNPJ": "11082876000221", "IDCIDADE": "PAULICEIA", "NOMEFANTASIA": "LABORATORIO_MASTELINE", "RAZAOSOCIAL": "GRUPO_MASTELLINI_LTDA", "ENDEE": "RUA_CONDE_AUGUSTO_CHIRICATTI295__CENTRO_17990-000", "LMAPS": "https://www.google.com/maps?q=&layer=c&cbll=-21.3150907,-51.8328197", "O_QUE_FAZER": "CARTEIRA", "ER_REGIAO_CIDADE_min": "Paulicéia_Araçatuba" }, "geometry": { "type": "Point", "coordinates": [ -51.8328197, -21.3150907 ] } },
{ "type": "Feature", "properties": { "fid": 72240, "CNPJ": "11526814000180", "IDCIDADE": "PAULICEIA", "NOMEFANTASIA": "NOVITA_MODAS", "RAZAOSOCIAL": "TEREZA_TELES_DE_ARAUJO_DA_COSTA", "ENDEE": "AVENIDA_PAULISTA1537__CENTRO_17990-000", "LMAPS": "https://www.google.com/maps?q=&layer=c&cbll=-21.3138785,-51.8346766", "O_QUE_FAZER": "CARTEIRA", "ER_REGIAO_CIDADE_min": "Paulicéia_Araçatuba" }, "geometry": { "type": "Point", "coordinates": [ -51.8346766, -21.3138785 ] } },
{ "type": "Feature", "properties": { "fid": 95132, "CNPJ": "16625183000170", "IDCIDADE": "PAULICEIA", "NOMEFANTASIA": "HOTEL_AVENIDA", "RAZAOSOCIAL": "HOTEL_AVENIDA_PAULICEIA_LTDA", "ENDEE": "AVENIDA_PAULISTA1947__CENTRO_17990-000", "LMAPS": "https://www.google.com/maps?q=&layer=c&cbll=-21.3150604,-51.830811", "O_QUE_FAZER": "CARTEIRA", "ER_REGIAO_CIDADE_min": "Paulicéia_Araçatuba" }, "geometry": { "type": "Point", "coordinates": [ -51.830811, -21.3150604 ] } },
{ "type": "Feature", "properties": { "fid": 99093, "CNPJ": "17435719000158", "IDCIDADE": "PAULICEIA", "NOMEFANTASIA": "ARMAZEM_SERV_FEST", "RAZAOSOCIAL": "GABRIEL_JOAQUIM_THOMAZ_CAZELLI", "ENDEE": "AVENIDA PAULISTA, 1201, CENTRO, 17990000, PAULICÉIA, SP, BRASIL", "LMAPS": "https://www.google.com/maps?q=&layer=c&cbll=-21.3128669,-51.8377585", "O_QUE_FAZER": "CARTEIRA - FAMPE", "ER_REGIAO_CIDADE_min": "Paulicéia_Araçatuba" }, "geometry": { "type": "Point", "coordinates": [ -51.8377585, -21.3128669 ] } },
{ "type": "Feature", "properties": { "fid": 104994, "CNPJ": "18635285000100", "IDCIDADE": "PAULICEIA", "NOMEFANTASIA": "MARTINS_MATERIAIS", "RAZAOSOCIAL": "RODRIGO_MARTINS_TORRESAN", "ENDEE": "AVENIDA_PAULISTA2095__CENTRO_17990-000", "LMAPS": "https://www.google.com/maps?q=&layer=c&cbll=-21.3152933,-51.829165", "O_QUE_FAZER": "CARTEIRA", "ER_REGIAO_CIDADE_min": "Paulicéia_Araçatuba" }, "geometry": { "type": "Point", "coordinates": [ -51.829165, -21.3152933 ] } },
{ "type": "Feature", "properties": { "fid": 107389, "CNPJ": "19141747000198", "IDCIDADE": "PAULICEIA", "NOMEFANTASIA": "ACO_FRONTEIRA", "RAZAOSOCIAL": "CASAGRANDE_&_CARDOSO_COMERCIO_DE_FERRAGENS_LTDA", "ENDEE": "RUA RIO BRANCO, 805, CENTRO, 17990-000, PAULICÉIA, SP, BRASIL", "LMAPS": "https://www.google.com/maps?q=&layer=c&cbll=-21.3136837,-51.8278347", "O_QUE_FAZER": "CARTEIRA - FAMPE", "ER_REGIAO_CIDADE_min": "Paulicéia_Araçatuba" }, "geometry": { "type": "Point", "coordinates": [ -51.8278347, -21.3136837 ] } },
{ "type": "Feature", "properties": { "fid": 128891, "CNPJ": "23864984000154", "IDCIDADE": "PAULICEIA", "NOMEFANTASIA": "CONTATO_VISTORIAS", "RAZAOSOCIAL": "MARIO_ANTONIO_DOS_SANTOS_DA_SILVA", "ENDEE": "AVENIDA_PAULISTA2016__CENTRO_17990-000", "LMAPS": "https://www.google.com/maps?q=&layer=c&cbll=-21.315585,-51.8301299", "O_QUE_FAZER": "CARTEIRA", "ER_REGIAO_CIDADE_min": "Paulicéia_Araçatuba" }, "geometry": { "type": "Point", "coordinates": [ -51.8301299, -21.315585 ] } },
{ "type": "Feature", "properties": { "fid": 149739, "CNPJ": "28434849000192", "IDCIDADE": "PAULICEIA", "NOMEFANTASIA": "BOM_JESUS", "RAZAOSOCIAL": "NATHALIA_CAVALCANTE_PANTOLFI", "ENDEE": "AVENIDA_PAULISTA1388__CENTRO_17990-000", "LMAPS": "https://www.google.com/maps?q=&layer=c&cbll=-21.313837,-51.8360462", "O_QUE_FAZER": "CARTEIRA", "ER_REGIAO_CIDADE_min": "Paulicéia_Araçatuba" }, "geometry": { "type": "Point", "coordinates": [ -51.8360462, -21.313837 ] } },
{ "type": "Feature", "properties": { "fid": 151038, "CNPJ": "28686092000124", "IDCIDADE": "PAULICEIA", "NOMEFANTASIA": "Castro_Pauliceia", "RAZAOSOCIAL": "MINERACAO_ILHA_CAROLINA_LTDA", "ENDEE": "AVENIDA DAS CAMELIAS, 445, SALA 02 CXPST 03, CIDADE JARDIM, 17990-096, PAULICÉIA, SP, BRASIL", "LMAPS": "https://www.google.com/maps?q=&layer=c&cbll=-21.3086617,-51.8535716", "O_QUE_FAZER": "FINALIZADO", "ER_REGIAO_CIDADE_min": "Paulicéia_Araçatuba" }, "geometry": { "type": "Point", "coordinates": [ -51.8535716, -21.3086617 ] } },
{ "type": "Feature", "properties": { "fid": 159480, "CNPJ": "30321316000146", "IDCIDADE": "PAULICEIA", "NOMEFANTASIA": "BETINHO_MOTOS", "RAZAOSOCIAL": "IVAIR_MOTOS_E_PECAS_LTDA", "ENDEE": "RUA_CONDE_AUGUSTO_CHIRICATTI285__CENTRO_17990-000", "LMAPS": "https://www.google.com/maps?q=&layer=c&cbll=-21.3149411,-51.8327989", "O_QUE_FAZER": "CARTEIRA", "ER_REGIAO_CIDADE_min": "Paulicéia_Araçatuba" }, "geometry": { "type": "Point", "coordinates": [ -51.8327989, -21.3149411 ] } },
{ "type": "Feature", "properties": { "fid": 161089, "CNPJ": "30630449000366", "IDCIDADE": "PAULICEIA", "NOMEFANTASIA": "ABC_REDE", "RAZAOSOCIAL": "PAULISTA_TELECOM_INTERNET_LTDA", "ENDEE": "RUA_CONDE_AUGUSTO_CHIRICATTI295__CENTRO_17990-000", "LMAPS": "https://www.google.com/maps?q=&layer=c&cbll=-21.3150302,-51.8327963", "O_QUE_FAZER": "CARTEIRA", "ER_REGIAO_CIDADE_min": "Paulicéia_Araçatuba" }, "geometry": { "type": "Point", "coordinates": [ -51.8327963, -21.3150302 ] } },
{ "type": "Feature", "properties": { "fid": 162632, "CNPJ": "30924756000198", "IDCIDADE": "SANTA MERCEDES", "NOMEFANTASIA": "FAZENDINHA_TRANSPORTES", "RAZAOSOCIAL": "FAZENDINHA_TRANSPORTES_LTDA", "ENDEE": "ESTRADA MUNICIPAL SANTA MERCEDES A PAULICEIA, 09, ITAI, 17940-000, SANTA MERCEDES, SP, BRASIL", "LMAPS": "https://www.google.com/maps?q=&layer=c&cbll=-21.3139048,-51.8355311", "O_QUE_FAZER": "CARTEIRA - FAMPE", "ER_REGIAO_CIDADE_min": "Paulicéia_Araçatuba" }, "geometry": { "type": "Point", "coordinates": [ -51.8355311, -21.3139048 ] } },
{ "type": "Feature", "properties": { "fid": 166308, "CNPJ": "31666851000100", "IDCIDADE": "PAULICEIA", "NOMEFANTASIA": "CATITTA", "RAZAOSOCIAL": "CATITTA_LTDA", "ENDEE": "AVENIDA_PAULISTA1439__CENTRO_17990-000", "LMAPS": "https://www.google.com/maps?q=&layer=c&cbll=-21.3137185,-51.8355581", "O_QUE_FAZER": "CARTEIRA", "ER_REGIAO_CIDADE_min": "Paulicéia_Araçatuba" }, "geometry": { "type": "Point", "coordinates": [ -51.8355581, -21.3137185 ] } },
{ "type": "Feature", "properties": { "fid": 166484, "CNPJ": "31701443000133", "IDCIDADE": "PAULICEIA", "NOMEFANTASIA": "ARA_EGA_VEICULOS", "RAZAOSOCIAL": "ARANEGA_VEICULOS_LTDA", "ENDEE": "AVENIDA_PAULISTA1140__CENTRO_17990-000", "LMAPS": "https://www.google.com/maps?q=&layer=c&cbll=-21.3130063,-51.8383369", "O_QUE_FAZER": "CARTEIRA", "ER_REGIAO_CIDADE_min": "Paulicéia_Araçatuba" }, "geometry": { "type": "Point", "coordinates": [ -51.8383369, -21.3130063 ] } },
{ "type": "Feature", "properties": { "fid": 171977, "CNPJ": "32862811000198", "IDCIDADE": "PAULICEIA", "NOMEFANTASIA": "AGRO_PRADO", "RAZAOSOCIAL": "ORLANDO_ALIPIO_DA_COSTA", "ENDEE": "RUA_RIO_BRANCO359__CENTRO_17990-000", "LMAPS": "https://www.google.com/maps?q=&layer=c&cbll=-21.3166105,-51.82865", "O_QUE_FAZER": "CARTEIRA", "ER_REGIAO_CIDADE_min": "Paulicéia_Araçatuba" }, "geometry": { "type": "Point", "coordinates": [ -51.82865, -21.3166105 ] } },
{ "type": "Feature", "properties": { "fid": 177554, "CNPJ": "33905729000166", "IDCIDADE": "PAULICEIA", "NOMEFANTASIA": "PAPELAR", "RAZAOSOCIAL": "ALEX_JUNIO_NOGUEIRA", "ENDEE": "AVENIDA_PAULISTA1359__CENTRO_17990-000", "LMAPS": "https://www.google.com/maps?q=&layer=c&cbll=-21.3133544,-51.8362737", "O_QUE_FAZER": "CARTEIRA", "ER_REGIAO_CIDADE_min": "Paulicéia_Araçatuba" }, "geometry": { "type": "Point", "coordinates": [ -51.8362737, -21.3133544 ] } },
{ "type": "Feature", "properties": { "fid": 206718, "CNPJ": "40743310000110", "IDCIDADE": "PAULICEIA", "NOMEFANTASIA": "JS_SABORES", "RAZAOSOCIAL": "SILVANA_JANUARIO_SALGADERIA", "ENDEE": "AVENIDA_PAULISTA1921__CENTRO_17990-000", "LMAPS": "https://www.google.com/maps?q=&layer=c&cbll=-21.3149474,-51.8311496", "O_QUE_FAZER": "CARTEIRA", "ER_REGIAO_CIDADE_min": "Paulicéia_Araçatuba" }, "geometry": { "type": "Point", "coordinates": [ -51.8311496, -21.3149474 ] } },
{ "type": "Feature", "properties": { "fid": 215147, "CNPJ": "42768269000162", "IDCIDADE": "PAULICEIA", "NOMEFANTASIA": "LK_UTILIDAFES", "RAZAOSOCIAL": "MARIA_CECILIA_GOES_TORCATO", "ENDEE": "AVENIDA_PAULISTA1948__CENTRO_17990-000", "LMAPS": "https://www.google.com/maps?q=&layer=c&cbll=-21.3154101,-51.8307707", "O_QUE_FAZER": "CARTEIRA", "ER_REGIAO_CIDADE_min": "Paulicéia_Araçatuba" }, "geometry": { "type": "Point", "coordinates": [ -51.8307707, -21.3154101 ] } },
{ "type": "Feature", "properties": { "fid": 224649, "CNPJ": "44699005000120", "IDCIDADE": "PAULICEIA", "NOMEFANTASIA": "TOCAR_CARNES", "RAZAOSOCIAL": "WESLEY_MARTINS_BARROS_BEZERRA_LTDA", "ENDEE": "AVENIDA_PAULISTA1581__CENTRO_17990-000", "LMAPS": "https://www.google.com/maps?q=&layer=c&cbll=-21.3140024,-51.83413", "O_QUE_FAZER": "CARTEIRA", "ER_REGIAO_CIDADE_min": "Paulicéia_Araçatuba" }, "geometry": { "type": "Point", "coordinates": [ -51.83413, -21.3140024 ] } },
{ "type": "Feature", "properties": { "fid": 239551, "CNPJ": "47826794000100", "IDCIDADE": "PAULICEIA", "NOMEFANTASIA": "ENGTEC", "RAZAOSOCIAL": "ENGTEC_TECNOLOGIA_E_SERVICOS_LTDA", "ENDEE": "AVENIDA_PAULISTA1553__CENTRO_17990-000", "LMAPS": "https://www.google.com/maps?q=&layer=c&cbll=-21.313902,-51.8345253", "O_QUE_FAZER": "CARTEIRA", "ER_REGIAO_CIDADE_min": "Paulicéia_Araçatuba" }, "geometry": { "type": "Point", "coordinates": [ -51.8345253, -21.313902 ] } },
{ "type": "Feature", "properties": { "fid": 239883, "CNPJ": "47898088000174", "IDCIDADE": "PAULICEIA", "NOMEFANTASIA": "LEANDROCAR", "RAZAOSOCIAL": "LEANDRO_CAR_PECAS_ELETRICAS_E_ACESSORIOS_LTDA", "ENDEE": "RUA_RIO_BRANCO554__CENTRO_17990-000", "LMAPS": "https://www.google.com/maps?q=&layer=c&cbll=-21.3186475,-51.8297505", "O_QUE_FAZER": "CARTEIRA", "ER_REGIAO_CIDADE_min": "Paulicéia_Araçatuba" }, "geometry": { "type": "Point", "coordinates": [ -51.8297505, -21.3186475 ] } },
{ "type": "Feature", "properties": { "fid": 263894, "CNPJ": "52784105000182", "IDCIDADE": "PAULICEIA", "NOMEFANTASIA": "Porto_de_Areia_Ilha_Carolina", "RAZAOSOCIAL": "PORTO_DE_AREIA_ILHA_CAROLINA_LTDA", "ENDEE": "LOC BARRANCA DO RIO PARANA, SN, PORTO, 17990-000, PAULICÉIA, SP, BRASIL", "LMAPS": "https://www.google.com/maps?q=&layer=c&cbll=-21.3076855,-51.8522325", "O_QUE_FAZER": "FINALIZADO", "ER_REGIAO_CIDADE_min": "Paulicéia_Araçatuba" }, "geometry": { "type": "Point", "coordinates": [ -51.8522325, -21.3076855 ] } },
{ "type": "Feature", "properties": { "fid": 265918, "CNPJ": "53248159000196", "IDCIDADE": "PAULICEIA", "NOMEFANTASIA": "TORCATO_PADARIA", "RAZAOSOCIAL": "PADARIA_E_CONFEITARIA_TORCATO_LTDA", "ENDEE": "AVENIDA_PAULISTA1567__CENTRO_17990-000", "LMAPS": "https://www.google.com/maps?q=&layer=c&cbll=-21.313918,-51.8344218", "O_QUE_FAZER": "CARTEIRA", "ER_REGIAO_CIDADE_min": "Paulicéia_Araçatuba" }, "geometry": { "type": "Point", "coordinates": [ -51.8344218, -21.313918 ] } },
{ "type": "Feature", "properties": { "fid": 276907, "CNPJ": "55746746000130", "IDCIDADE": "PAULICEIA", "NOMEFANTASIA": "RC_CELULARES", "RAZAOSOCIAL": "ISABELA_CRISTINA_GATTI_DE_CARVALHO", "ENDEE": "AVENIDA_PAULISTA1445__CENTRO_17990-000", "LMAPS": "https://www.google.com/maps?q=&layer=c&cbll=-21.3135441,-51.835512", "O_QUE_FAZER": "CARTEIRA", "ER_REGIAO_CIDADE_min": "Paulicéia_Araçatuba" }, "geometry": { "type": "Point", "coordinates": [ -51.835512, -21.3135441 ] } },
{ "type": "Feature", "properties": { "fid": 280470, "CNPJ": "57034258000126", "IDCIDADE": "PAULICEIA", "NOMEFANTASIA": "LOJA_VIEIRA", "RAZAOSOCIAL": "MARIA_ALICE_VIEIRA_TORQUATO_SILVA", "ENDEE": "AVENIDA_PAULISTA1525__CENTRO_17990-000", "LMAPS": "https://www.google.com/maps?q=&layer=c&cbll=-21.3137341,-51.8348627", "O_QUE_FAZER": "CARTEIRA", "ER_REGIAO_CIDADE_min": "Paulicéia_Araçatuba" }, "geometry": { "type": "Point", "coordinates": [ -51.8348627, -21.3137341 ] } },
{ "type": "Feature", "properties": { "fid": 282288, "CNPJ": "57525247000149", "IDCIDADE": "PAULICEIA", "NOMEFANTASIA": "MA_PRESENTES", "RAZAOSOCIAL": "M.A_LOG_LTDA", "ENDEE": "AVENIDA_PAULISTA1373__CENTRO_17990-000", "LMAPS": "https://www.google.com/maps?q=&layer=c&cbll=-21.3133732,-51.8361583", "O_QUE_FAZER": "CARTEIRA", "ER_REGIAO_CIDADE_min": "Paulicéia_Araçatuba" }, "geometry": { "type": "Point", "coordinates": [ -51.8361583, -21.3133732 ] } },
{ "type": "Feature", "properties": { "fid": 299694, "CNPJ": "64053762000139", "IDCIDADE": "PAULICEIA", "NOMEFANTASIA": "KABANA_MODAS", "RAZAOSOCIAL": "MACHADO_&_SONCIN_LTDA", "ENDEE": "AVENIDA_PAULISTA1540__CENTRO_17990-000", "LMAPS": "https://www.google.com/maps?q=&layer=c&cbll=-21.3142665,-51.8347726", "O_QUE_FAZER": "CARTEIRA", "ER_REGIAO_CIDADE_min": "Paulicéia_Araçatuba" }, "geometry": { "type": "Point", "coordinates": [ -51.8347726, -21.3142665 ] } },
{ "type": "Feature", "properties": { "fid": 303264, "CNPJ": "65951880000127", "IDCIDADE": "PAULICEIA", "NOMEFANTASIA": null, "RAZAOSOCIAL": "65.951.880_ELIZABETE_BUENO_TORCATO_DE_SOUZA", "ENDEE": "AVENIDA PAULISTA, 1339, LOJA C, CENTRO, 17990-005, PAULICÉIA, SP, BRASIL", "LMAPS": "https://www.google.com/maps?q=&layer=c&cbll=-21.313271,-51.8378042", "O_QUE_FAZER": "CARTEIRA - FAMPE", "ER_REGIAO_CIDADE_min": "Paulicéia_Araçatuba" }, "geometry": { "type": "Point", "coordinates": [ -51.8378042, -21.313271 ] } },
{ "type": "Feature", "properties": { "fid": 306422, "CNPJ": "67579375000129", "IDCIDADE": "PAULICEIA", "NOMEFANTASIA": "JA_MATERIAL_DE_CONSTRUCAO", "RAZAOSOCIAL": "ARILTON_FERNANDES_DOS_SANTOS", "ENDEE": "RUA_TAVORA309__CENTRO_17990-000", "LMAPS": "https://www.google.com/maps?q=&layer=c&cbll=-21.3143554,-51.8355074", "O_QUE_FAZER": "CARTEIRA", "ER_REGIAO_CIDADE_min": "Paulicéia_Araçatuba" }, "geometry": { "type": "Point", "coordinates": [ -51.8355074, -21.3143554 ] } }
]
}
