{
"type": "FeatureCollection",
"name": "ER_REGIAO_CIDADE_min_Tietê_Botucatu",
"crs": { "type": "name", "properties": { "name": "urn:ogc:def:crs:OGC:1.3:CRS84" } },
"xy_coordinate_resolution": 1e-15,
"features": [
{ "type": "Feature", "properties": { "fid": 7291, "CNPJ": "64091907000196", "IDCIDADE": "TIETÊ", "NOMEFANTASIA": "RAFAEL VICENTE MODESTO", "RAZAOSOCIAL": "64.091.907 RAFAEL VICENTE MODESTO", "ENDEE": "RUA JOÃO ROSA, 140, CORNELIO PIRES, 18534-320, TIETÊ, SP, BRASIL", "LMAPS": "https://www.google.com/maps?q=&layer=c&cbll=-23.0829103,-47.7291531", "O_QUE_FAZER": "APLICAR T2", "ER_REGIAO_CIDADE_min": "Tietê_Botucatu" }, "geometry": { "type": "Point", "coordinates": [ -47.7291531, -23.0829103 ] } },
{ "type": "Feature", "properties": { "fid": 209719, "CNPJ": "02832754000133", "IDCIDADE": "TIETÊ", "NOMEFANTASIA": "-", "RAZAOSOCIAL": "G. BUTIGNOLI & CIA LTDA", "ENDEE": "RUA VILA NOVA, 1203, JD.RESID.BANDEIRANTE, 18530000, TIETÊ, SP, BRASIL", "LMAPS": "https://www.google.com/maps?q=&layer=c&cbll=-23.0785756,-47.7247734", "O_QUE_FAZER": "CARTEIRA - FAMPE", "ER_REGIAO_CIDADE_min": "Tietê_Botucatu" }, "geometry": { "type": "Point", "coordinates": [ -47.7247734, -23.0785756 ] } },
{ "type": "Feature", "properties": { "fid": 209726, "CNPJ": "11636697000108", "IDCIDADE": "TIETÊ", "NOMEFANTASIA": "METTA CONSTRUTORA", "RAZAOSOCIAL": "METTA CONSTRUTORA LTDA", "ENDEE": "RUA VILA NOVA, 1020, BLOCO B, SAO PEDRO, 18533-210, TIETÊ, SP, BRASIL", "LMAPS": "https://www.google.com/maps?q=&layer=c&cbll=-23.0800235,-47.7237841", "O_QUE_FAZER": "CARTEIRA - FAMPE", "ER_REGIAO_CIDADE_min": "Tietê_Botucatu" }, "geometry": { "type": "Point", "coordinates": [ -47.7237841, -23.0800235 ] } },
{ "type": "Feature", "properties": { "fid": 209746, "CNPJ": "20631721000107", "IDCIDADE": "TIETÊ", "NOMEFANTASIA": "MR JACKY", "RAZAOSOCIAL": "MR JACKY CONFECCAO E REPRESENTACAO LTDA", "ENDEE": "RUA LUIZ MONTANHAN, 1302, TIRO DE GUERRA, 18532000, TIETÊ, SP, BRASIL", "LMAPS": "https://www.google.com/maps?q=&layer=c&cbll=-23.0846654,-47.7066886", "O_QUE_FAZER": "CARTEIRA - FAMPE", "ER_REGIAO_CIDADE_min": "Tietê_Botucatu" }, "geometry": { "type": "Point", "coordinates": [ -47.7066886, -23.0846654 ] } },
{ "type": "Feature", "properties": { "fid": 209751, "CNPJ": "07074355000174", "IDCIDADE": "TIETÊ", "NOMEFANTASIA": null, "RAZAOSOCIAL": "CESAR SABINO DE SOUZA", "ENDEE": "RUA JULIO CESAR DE OLIVEIRA CORREA, 09, JD EMILIO GARDENAL, 18530-000, TIETÊ, SP, BRASIL", "LMAPS": "https://www.google.com/maps?q=&layer=c&cbll=-23.0864521,-47.7064199", "O_QUE_FAZER": "CARTEIRA - FAMPE", "ER_REGIAO_CIDADE_min": "Tietê_Botucatu" }, "geometry": { "type": "Point", "coordinates": [ -47.7064199, -23.0864521 ] } },
{ "type": "Feature", "properties": { "fid": 209756, "CNPJ": "18315976000119", "IDCIDADE": "TIETÊ", "NOMEFANTASIA": "MACHIA REPRESENTACOES", "RAZAOSOCIAL": "TATIANA DA SILVA MACHIA 29622139876", "ENDEE": "RUA GUIDO MELARE, 33, RES EMILIO GARDENAL, 18530-000, TIETÊ, SP, BRASIL", "LMAPS": "https://www.google.com/maps?q=&layer=c&cbll=-23.0869578,-47.7062012", "O_QUE_FAZER": "CARTEIRA - FAMPE", "ER_REGIAO_CIDADE_min": "Tietê_Botucatu" }, "geometry": { "type": "Point", "coordinates": [ -47.7062012, -23.0869578 ] } },
{ "type": "Feature", "properties": { "fid": 209760, "CNPJ": "47266963000103", "IDCIDADE": "TIETÊ", "NOMEFANTASIA": null, "RAZAOSOCIAL": "47.266.963 ELIEZER SARAIVA BERTOLI", "ENDEE": "AVENIDA ARRASTAO, 857, BRCAO, JARDIM BONANZA, 18530-000, TIETÊ, SP, BRASIL", "LMAPS": "https://www.google.com/maps?q=&layer=c&cbll=-23.0880764,-47.7115504", "O_QUE_FAZER": "CARTEIRA - FAMPE", "ER_REGIAO_CIDADE_min": "Tietê_Botucatu" }, "geometry": { "type": "Point", "coordinates": [ -47.7115504, -23.0880764 ] } },
{ "type": "Feature", "properties": { "fid": 209761, "CNPJ": "23473601000117", "IDCIDADE": "TIETÊ", "NOMEFANTASIA": null, "RAZAOSOCIAL": "MARIANA APARECIDA MARTINS 10607732873", "ENDEE": "RUA SANTA CATARINA, 260, CASA, JARDIM BONANZA, 18530-000, TIETÊ, SP, BRASIL", "LMAPS": "https://www.google.com/maps?q=&layer=c&cbll=-23.0880952,-47.713335", "O_QUE_FAZER": "CARTEIRA - FAMPE", "ER_REGIAO_CIDADE_min": "Tietê_Botucatu" }, "geometry": { "type": "Point", "coordinates": [ -47.713335, -23.0880952 ] } },
{ "type": "Feature", "properties": { "fid": 209764, "CNPJ": "27370322000189", "IDCIDADE": "TIETÊ", "NOMEFANTASIA": "-", "RAZAOSOCIAL": "BA TIETE ALUGUEL DE EQUIPAMENTOS LTDA", "ENDEE": "RUA BELA VISTA, 806, BELA VISTA, 18530000, TIETÊ, SP, BRASIL", "LMAPS": "https://www.google.com/maps?q=&layer=c&cbll=-23.0886195,-47.7177427", "O_QUE_FAZER": "CARTEIRA - FAMPE", "ER_REGIAO_CIDADE_min": "Tietê_Botucatu" }, "geometry": { "type": "Point", "coordinates": [ -47.7177427, -23.0886195 ] } },
{ "type": "Feature", "properties": { "fid": 209765, "CNPJ": "29142893000191", "IDCIDADE": "TIETÊ", "NOMEFANTASIA": "AUTO PECAS AVENIDA", "RAZAOSOCIAL": "AUTO PECAS AVENIDA TIETE DISTRIBUIDORA E COMERCIO LTDA", "ENDEE": "RUA BELA VISTA, 801, BELA VISTA, 18530000, TIETÊ, SP, BRASIL", "LMAPS": "https://www.google.com/maps?q=&layer=c&cbll=-23.0887601,-47.7182499", "O_QUE_FAZER": "CARTEIRA - FAMPE", "ER_REGIAO_CIDADE_min": "Tietê_Botucatu" }, "geometry": { "type": "Point", "coordinates": [ -47.7182499, -23.0887601 ] } },
{ "type": "Feature", "properties": { "fid": 209772, "CNPJ": "20778036000108", "IDCIDADE": "TIETÊ", "NOMEFANTASIA": null, "RAZAOSOCIAL": "IVANI DE ALMEIDA ALEXANDRE", "ENDEE": "RUA TENENTE JOAQUIM DE ALMEIDA LEITE E MARAES, 64, VILA FIORI, 18530-000, TIETÊ, SP, BRASIL", "LMAPS": "https://www.google.com/maps?q=&layer=c&cbll=-23.0894594,-47.7183562", "O_QUE_FAZER": "CARTEIRA - FAMPE", "ER_REGIAO_CIDADE_min": "Tietê_Botucatu" }, "geometry": { "type": "Point", "coordinates": [ -47.7183562, -23.0894594 ] } },
{ "type": "Feature", "properties": { "fid": 209794, "CNPJ": "27437006000187", "IDCIDADE": "TIETÊ", "NOMEFANTASIA": null, "RAZAOSOCIAL": "DEMARTINI FISIOTERAPIA LTDA", "ENDEE": "AVENIDA XI AGOSTO, 171, CENTRO, 18530-000, TIETÊ, SP, BRASIL", "LMAPS": "https://www.google.com/maps?q=&layer=c&cbll=-23.0972469,-47.7144618", "O_QUE_FAZER": "CARTEIRA - FAMPE", "ER_REGIAO_CIDADE_min": "Tietê_Botucatu" }, "geometry": { "type": "Point", "coordinates": [ -47.7144618, -23.0972469 ] } },
{ "type": "Feature", "properties": { "fid": 209800, "CNPJ": "15461005000199", "IDCIDADE": "TIETÊ", "NOMEFANTASIA": null, "RAZAOSOCIAL": "LEONIL ALVES BARBOSA 71503803287", "ENDEE": "RUA FRANCISCO DAL BO, 40, MIRANTE DE SAO GUILHERME, 18530-000, TIETÊ, SP, BRASIL", "LMAPS": "https://www.google.com/maps?q=&layer=c&cbll=-23.0982433,-47.7025198", "O_QUE_FAZER": "CARTEIRA - FAMPE", "ER_REGIAO_CIDADE_min": "Tietê_Botucatu" }, "geometry": { "type": "Point", "coordinates": [ -47.7025198, -23.0982433 ] } },
{ "type": "Feature", "properties": { "fid": 209804, "CNPJ": "08075134000183", "IDCIDADE": "TIETÊ", "NOMEFANTASIA": "SABOR DAS ESTACOES", "RAZAOSOCIAL": "RESTAURANTE SABOR DAS ESTACOES LTDA", "ENDEE": "RUA DO COMERCIO, 316, CENTRO, 18530035, TIETÊ, SP, BRASIL", "LMAPS": "https://www.google.com/maps?q=&layer=c&cbll=-23.0993985,-47.7170921", "O_QUE_FAZER": "CARTEIRA - FAMPE", "ER_REGIAO_CIDADE_min": "Tietê_Botucatu" }, "geometry": { "type": "Point", "coordinates": [ -47.7170921, -23.0993985 ] } },
{ "type": "Feature", "properties": { "fid": 209805, "CNPJ": "56081417000180", "IDCIDADE": "TIETÊ", "NOMEFANTASIA": "MONTAGE", "RAZAOSOCIAL": "MONTAGE ENXOVAIS ROUPAS E ACESSORIOS LTDA", "ENDEE": "RUA ENOCK BARREIRA DE MACEDO, 354, CENTRO, 18530-009, TIETÊ, SP, BRASIL", "LMAPS": "https://www.google.com/maps?q=&layer=c&cbll=-23.0995635,-47.7143335", "O_QUE_FAZER": "CARTEIRA - FAMPE", "ER_REGIAO_CIDADE_min": "Tietê_Botucatu" }, "geometry": { "type": "Point", "coordinates": [ -47.7143335, -23.0995635 ] } },
{ "type": "Feature", "properties": { "fid": 209806, "CNPJ": "29849994000105", "IDCIDADE": "TIETÊ", "NOMEFANTASIA": null, "RAZAOSOCIAL": "29.849.994 ELMAR GONCALVES SILVA", "ENDEE": "RUA ENOCK BARREIRA DE MACEDO, 100, CENTRO, 18530-000, TIETÊ, SP, BRASIL", "LMAPS": "https://www.google.com/maps?q=&layer=c&cbll=-23.0996903,-47.7172673", "O_QUE_FAZER": "CARTEIRA - FAMPE", "ER_REGIAO_CIDADE_min": "Tietê_Botucatu" }, "geometry": { "type": "Point", "coordinates": [ -47.7172673, -23.0996903 ] } },
{ "type": "Feature", "properties": { "fid": 209810, "CNPJ": "30111739000131", "IDCIDADE": "TIETÊ", "NOMEFANTASIA": "ANOVA CORRETORA DE SEGUROS", "RAZAOSOCIAL": "ANOVA CORRETORA DE SEGUROS LTDA.", "ENDEE": "RUA TENENTE GELAS, 361, LETRA A, CENTRO, 18530-000, TIETÊ, SP, BRASIL", "LMAPS": "https://www.google.com/maps?q=&layer=c&cbll=-23.1003923,-47.7139766", "O_QUE_FAZER": "CARTEIRA - FAMPE", "ER_REGIAO_CIDADE_min": "Tietê_Botucatu" }, "geometry": { "type": "Point", "coordinates": [ -47.7139766, -23.1003923 ] } },
{ "type": "Feature", "properties": { "fid": 209811, "CNPJ": "23361259000163", "IDCIDADE": "TIETÊ", "NOMEFANTASIA": "RAM AGRICULTURA DE PRECISAO", "RAZAOSOCIAL": "RAM AGRIPECFLORESTAL LTDA", "ENDEE": "RUA ARLINDO CAMARGO PACHECO FILHO, 755, BARONESA, 18530-000, TIETÊ, SP, BRASIL", "LMAPS": "https://www.google.com/maps?q=&layer=c&cbll=-23.1005226,-47.7131971", "O_QUE_FAZER": "CARTEIRA - FAMPE", "ER_REGIAO_CIDADE_min": "Tietê_Botucatu" }, "geometry": { "type": "Point", "coordinates": [ -47.7131971, -23.1005226 ] } },
{ "type": "Feature", "properties": { "fid": 209832, "CNPJ": "10883354000185", "IDCIDADE": "TIETÊ", "NOMEFANTASIA": "-", "RAZAOSOCIAL": "MERCEARIA CANCIAN TIETE LTDA", "ENDEE": "RUA DAS DALIAS, 05, POVO FELIZ, 18530000, TIETÊ, SP, BRASIL", "LMAPS": "https://www.google.com/maps?q=&layer=c&cbll=-23.1032997,-47.7255425", "O_QUE_FAZER": "CARTEIRA - FAMPE", "ER_REGIAO_CIDADE_min": "Tietê_Botucatu" }, "geometry": { "type": "Point", "coordinates": [ -47.7255425, -23.1032997 ] } },
{ "type": "Feature", "properties": { "fid": 209841, "CNPJ": "41056350000157", "IDCIDADE": "TIETÊ", "NOMEFANTASIA": "CLINICA LA VIE", "RAZAOSOCIAL": "TELLINI E PIETROBON FISIOTERAPIA LTDA", "ENDEE": "RUA RAFAEL DE CAMPOS, 281, CENTRO, 18530-000, TIETÊ, SP, BRASIL", "LMAPS": "https://www.google.com/maps?q=&layer=c&cbll=-23.1042163,-47.7111665", "O_QUE_FAZER": "CARTEIRA - FAMPE", "ER_REGIAO_CIDADE_min": "Tietê_Botucatu" }, "geometry": { "type": "Point", "coordinates": [ -47.7111665, -23.1042163 ] } },
{ "type": "Feature", "properties": { "fid": 209851, "CNPJ": "48316403000170", "IDCIDADE": "TIETÊ", "NOMEFANTASIA": "COLEGIO MORIYAH - ESCOLA POR PRINCIPIOS", "RAZAOSOCIAL": "JULIANI CRISTINA LOPES MARTINS LTDA", "ENDEE": "RUA SANTISSIMO REDENTOR, 360, BNH, 18531-364, TIETÊ, SP, BRASIL", "LMAPS": "https://www.google.com/maps?q=&layer=c&cbll=-23.1066693,-47.7073942", "O_QUE_FAZER": "CARTEIRA - FAMPE", "ER_REGIAO_CIDADE_min": "Tietê_Botucatu" }, "geometry": { "type": "Point", "coordinates": [ -47.7073942, -23.1066693 ] } },
{ "type": "Feature", "properties": { "fid": 209854, "CNPJ": "42452301000104", "IDCIDADE": "TIETÊ", "NOMEFANTASIA": "QUINTAL MOTOS", "RAZAOSOCIAL": "H L GUERREIRO BELOTTI MOTOCICLETAS LTDA", "ENDEE": "RUA RAFAEL DE CAMPOS, 604, CENTRO, 18530000, TIETÊ, SP, BRASIL", "LMAPS": "https://www.google.com/maps?q=&layer=c&cbll=-23.1069636,-47.7102152", "O_QUE_FAZER": "CARTEIRA - FAMPE", "ER_REGIAO_CIDADE_min": "Tietê_Botucatu" }, "geometry": { "type": "Point", "coordinates": [ -47.7102152, -23.1069636 ] } },
{ "type": "Feature", "properties": { "fid": 209857, "CNPJ": "19113675000175", "IDCIDADE": "TIETÊ", "NOMEFANTASIA": null, "RAZAOSOCIAL": "19.113.675 CRISTIANE FIEIRA TEZOTTO CORREIA", "ENDEE": "RUA TERESA MARSON SBOMPATO, 221, BNH, 18531-350, TIETÊ, SP, BRASIL", "LMAPS": "https://www.google.com/maps?q=&layer=c&cbll=-23.1075464,-47.7078652", "O_QUE_FAZER": "CARTEIRA - FAMPE", "ER_REGIAO_CIDADE_min": "Tietê_Botucatu" }, "geometry": { "type": "Point", "coordinates": [ -47.7078652, -23.1075464 ] } },
{ "type": "Feature", "properties": { "fid": 209859, "CNPJ": "26700662000168", "IDCIDADE": "TIETÊ", "NOMEFANTASIA": null, "RAZAOSOCIAL": "CLINICA BONITA LTDA", "ENDEE": "RUA TENENTE GELAS, 1240, SALA 07 08 E 09, CENTRO, 18530-041, TIETÊ, SP, BRASIL", "LMAPS": "https://www.google.com/maps?q=&layer=c&cbll=-23.1083228,-47.7144947", "O_QUE_FAZER": "CARTEIRA - FAMPE", "ER_REGIAO_CIDADE_min": "Tietê_Botucatu" }, "geometry": { "type": "Point", "coordinates": [ -47.7144947, -23.1083228 ] } },
{ "type": "Feature", "properties": { "fid": 209867, "CNPJ": "22061452000116", "IDCIDADE": "TIETÊ", "NOMEFANTASIA": null, "RAZAOSOCIAL": "22.061.452 DUILIO CASETO PELUSI", "ENDEE": "RUA TENENTE GELAS, 1520, CENTRO, 18530-041, TIETÊ, SP, BRASIL", "LMAPS": "https://www.google.com/maps?q=&layer=c&cbll=-23.1107841,-47.7147664", "O_QUE_FAZER": "CARTEIRA - FAMPE", "ER_REGIAO_CIDADE_min": "Tietê_Botucatu" }, "geometry": { "type": "Point", "coordinates": [ -47.7147664, -23.1107841 ] } },
{ "type": "Feature", "properties": { "fid": 209868, "CNPJ": "42511270000107", "IDCIDADE": "TIETÊ", "NOMEFANTASIA": null, "RAZAOSOCIAL": "RM COMERCIO DE PRODUTOS TEXTEIS E SUCATAS EM GERAL LTDA", "ENDEE": "RUA SANTA TEREZINHA, 880, BELVEDERE, 18530-000, TIETÊ, SP, BRASIL", "LMAPS": "https://www.google.com/maps?q=&layer=c&cbll=-23.1107931,-47.7001604", "O_QUE_FAZER": "CARTEIRA - FAMPE", "ER_REGIAO_CIDADE_min": "Tietê_Botucatu" }, "geometry": { "type": "Point", "coordinates": [ -47.7001604, -23.1107931 ] } },
{ "type": "Feature", "properties": { "fid": 209900, "CNPJ": "39782244000109", "IDCIDADE": "TIETÊ", "NOMEFANTASIA": null, "RAZAOSOCIAL": "LAURACA STORE COMERCIO DE ROUPAS E BRINQUEDOS LTDA", "ENDEE": "RUA RAFAEL MAIMONE, 31, LETRA B, ALTOS DO TIETE, 18530-000, TIETÊ, SP, BRASIL", "LMAPS": "https://www.google.com/maps?q=&layer=c&cbll=-23.1169165,-47.7017073", "O_QUE_FAZER": "CARTEIRA - FAMPE", "ER_REGIAO_CIDADE_min": "Tietê_Botucatu" }, "geometry": { "type": "Point", "coordinates": [ -47.7017073, -23.1169165 ] } },
{ "type": "Feature", "properties": { "fid": 231606, "CNPJ": "32214046000108", "IDCIDADE": "TIETE", "NOMEFANTASIA": "-", "RAZAOSOCIAL": "32.214.046 EVERTON COSTA DE MACEDO", "ENDEE": "RUA_JOSÉ DE CASTRO REIS_40_JARDIM SÃO FRANCISCO_18532-130_TIETE", "LMAPS": "https://www.google.com/maps?q=&layer=c&cbll=-23.0899329,-47.6959788", "O_QUE_FAZER": "FINALIZADO", "ER_REGIAO_CIDADE_min": "Tietê_Botucatu" }, "geometry": { "type": "Point", "coordinates": [ -47.6959788, -23.0899329 ] } },
{ "type": "Feature", "properties": { "fid": 231611, "CNPJ": "58012868000191", "IDCIDADE": "TIETE", "NOMEFANTASIA": "58.012.868_ERICK_ANTUNES_DE_CARVALHO", "RAZAOSOCIAL": "GARUFA_GESSODRYWALL", "ENDEE": "RUA_BELA_VISTA540__PARAISO_18534-208", "LMAPS": "https://www.google.com/maps?q=&layer=c&cbll=-47.7176208,-23.091145", "O_QUE_FAZER": "FINALIZADO", "ER_REGIAO_CIDADE_min": "Tietê_Botucatu" }, "geometry": { "type": "Point", "coordinates": [ -47.7176208, -23.091145 ] } },
{ "type": "Feature", "properties": { "fid": 231629, "CNPJ": "34186549000134", "IDCIDADE": "TIETE", "NOMEFANTASIA": "-", "RAZAOSOCIAL": "4L TECNOLOGIA LTDA", "ENDEE": "RUA_DAS IMBUIAS_18_POVO FELIZ_18534-066_TIETE", "LMAPS": "https://www.google.com/maps?q=&layer=c&cbll=-23.100145,-47.7253474", "O_QUE_FAZER": "FINALIZADO", "ER_REGIAO_CIDADE_min": "Tietê_Botucatu" }, "geometry": { "type": "Point", "coordinates": [ -47.7253474, -23.100145 ] } },
{ "type": "Feature", "properties": { "fid": 266789, "CNPJ": "31713285000131", "IDCIDADE": "TIETE", "NOMEFANTASIA": "CORREA_LOCACAO_DE_EQUIPAMENTOS_LTDA", "RAZAOSOCIAL": "DELTA_TONERS", "ENDEE": "RUA_SANTINA_TOMAZELA_MASSERANI150__JARDIM_SANTA_CRUZ_18532-118", "LMAPS": "https://www.google.com/maps?q=&layer=c&cbll=-47.6959634,-23.0915033", "O_QUE_FAZER": "FINALIZADO", "ER_REGIAO_CIDADE_min": "Tietê_Botucatu" }, "geometry": { "type": "Point", "coordinates": [ -47.6959634, -23.0915033 ] } },
{ "type": "Feature", "properties": { "fid": 266793, "CNPJ": "49931773000180", "IDCIDADE": "TIETE", "NOMEFANTASIA": "UPLEATHER_LTDA.", "RAZAOSOCIAL": "UPLEATHER", "ENDEE": "RUA_JORGE_TIBIRICA271__JARDIM_BONANZA_18533-002", "LMAPS": "https://www.google.com/maps?q=&layer=c&cbll=-47.714563,-23.0920673", "O_QUE_FAZER": "FINALIZADO", "ER_REGIAO_CIDADE_min": "Tietê_Botucatu" }, "geometry": { "type": "Point", "coordinates": [ -47.714563, -23.0920673 ] } },
{ "type": "Feature", "properties": { "fid": 266836, "CNPJ": "49974022000141", "IDCIDADE": "TIETE", "NOMEFANTASIA": "49.974.022_DANIELA_CASETO_PELUSI", "RAZAOSOCIAL": "DANIELA_CASETO_PELUSI_", "ENDEE": "AVENIDA_IUSUF_KALLIL_AWAD1520__TIRO_DE_GUERRA_18532-002", "LMAPS": "https://www.google.com/maps?q=&layer=c&cbll=-47.7143335,-23.0995635", "O_QUE_FAZER": "FINALIZADO", "ER_REGIAO_CIDADE_min": "Tietê_Botucatu" }, "geometry": { "type": "Point", "coordinates": [ -47.7143335, -23.0995635 ] } },
{ "type": "Feature", "properties": { "fid": 266866, "CNPJ": "61011089000186", "IDCIDADE": "TIETE", "NOMEFANTASIA": "CHICHA_COMERCIO_E_DISTRIBUICAO_DE_ALIMENTOS_LTDA", "RAZAOSOCIAL": "CHICHA_COMERCIO_E_DISTRIBUICAO_DE_ALIMENTOS_LTDA", "ENDEE": "RUA_FRANCISCO_BRAGA_CARNIEL51__BARONESA_18530-804", "LMAPS": "https://www.google.com/maps?q=&layer=c&cbll=-47.7408992,-23.1087087", "O_QUE_FAZER": "FINALIZADO", "ER_REGIAO_CIDADE_min": "Tietê_Botucatu" }, "geometry": { "type": "Point", "coordinates": [ -47.7408992, -23.1087087 ] } },
{ "type": "Feature", "properties": { "fid": 266875, "CNPJ": "33224853000166", "IDCIDADE": "TIETE", "NOMEFANTASIA": "PREGUISTE_INDUSTRIA_E_COMERCIO_LTDA", "RAZAOSOCIAL": "PREGUISTE", "ENDEE": "RUA_MADRE_APARECIDA_CONSORTE300__NOVA_TIETE_18530-110", "LMAPS": "https://www.google.com/maps?q=&layer=c&cbll=-47.7140652,-23.1102527", "O_QUE_FAZER": "FINALIZADO", "ER_REGIAO_CIDADE_min": "Tietê_Botucatu" }, "geometry": { "type": "Point", "coordinates": [ -47.7140652, -23.1102527 ] } },
{ "type": "Feature", "properties": { "fid": 308808, "CNPJ": "41678967000104", "IDCIDADE": "TIETE", "NOMEFANTASIA": "-", "RAZAOSOCIAL": "41.678.967 ANGELA PEREIRA DE MORAES", "ENDEE": "RUA OSCAR PESCE, 195, SALA 01, JARDIM SAO FRANCISCO, 18532-126, TIETÊ, SP, BRASIL", "LMAPS": "https://www.google.com/maps?q=&layer=c&cbll=-23.0903781,-47.6960025", "O_QUE_FAZER": "CARTEIRA - FAMPE", "ER_REGIAO_CIDADE_min": "Tietê_Botucatu" }, "geometry": { "type": "Point", "coordinates": [ -47.6960025, -23.0903781 ] } },
{ "type": "Feature", "properties": { "fid": 308809, "CNPJ": "06155109000184", "IDCIDADE": "TIETE", "NOMEFANTASIA": "Casa & Aromas", "RAZAOSOCIAL": "CASA & AROMAS LTDA", "ENDEE": "AVENIDA AUGUSTO SIMONETTI, 130, SALA B, PORTAL DOS HIBISCOS, 18530-530, TIETÊ, SP, BRASIL", "LMAPS": "https://www.google.com/maps?q=&layer=c&cbll=-23.1284814,-47.7171027", "O_QUE_FAZER": "CARTEIRA - FAMPE", "ER_REGIAO_CIDADE_min": "Tietê_Botucatu" }, "geometry": { "type": "Point", "coordinates": [ -47.7171027, -23.1284814 ] } },
{ "type": "Feature", "properties": { "fid": 308810, "CNPJ": "58839722000114", "IDCIDADE": "TIETE", "NOMEFANTASIA": "-", "RAZAOSOCIAL": "58.839.722 CLEBER FLORENCIO DOS REIS", "ENDEE": "RUA VILA NOVA, 1508, SAO PEDRO, 18533-210, TIETÊ, SP, BRASIL", "LMAPS": "https://www.google.com/maps?q=&layer=c&cbll=-23.0762384,-47.7256811", "O_QUE_FAZER": "CARTEIRA - FAMPE", "ER_REGIAO_CIDADE_min": "Tietê_Botucatu" }, "geometry": { "type": "Point", "coordinates": [ -47.7256811, -23.0762384 ] } },
{ "type": "Feature", "properties": { "fid": 308811, "CNPJ": "08693646000103", "IDCIDADE": "TIETE", "NOMEFANTASIA": "JH 1,99", "RAZAOSOCIAL": "FERNANDA GONCALVES CARLOS", "ENDEE": "RUA RAFAEL DE CAMPOS, 36, CENTRO, 18530-000, TIETÊ, SP, BRASIL", "LMAPS": "https://www.google.com/maps?q=&layer=c&cbll=-23.1026828,-47.7130148", "O_QUE_FAZER": "CARTEIRA - FAMPE", "ER_REGIAO_CIDADE_min": "Tietê_Botucatu" }, "geometry": { "type": "Point", "coordinates": [ -47.7130148, -23.1026828 ] } },
{ "type": "Feature", "properties": { "fid": 308812, "CNPJ": "57414190000100", "IDCIDADE": "TIETE", "NOMEFANTASIA": "-", "RAZAOSOCIAL": "57.414.190 MONICA CANDOIA TEIXEIRA", "ENDEE": "RUA ENOCK BARREIRA DE MACEDO, 373, CENTRO, 18530-009, TIETÊ, SP, BRASIL", "LMAPS": "https://www.google.com/maps?q=&layer=c&cbll=-23.0994173,-47.7146812", "O_QUE_FAZER": "CARTEIRA - FAMPE", "ER_REGIAO_CIDADE_min": "Tietê_Botucatu" }, "geometry": { "type": "Point", "coordinates": [ -47.7146812, -23.0994173 ] } },
{ "type": "Feature", "properties": { "fid": 308813, "CNPJ": "63210550000155", "IDCIDADE": "TIETE", "NOMEFANTASIA": "-", "RAZAOSOCIAL": "63.210.550 PAMELA CRISTINE SOARES BATAGLINI", "ENDEE": "RUA DAS BEGONIAS, 12, POVO FELIZ, 18534-050, TIETÊ, SP, BRASIL", "LMAPS": "https://www.google.com/maps?q=&layer=c&cbll=-23.1045536,-47.7256492", "O_QUE_FAZER": "CARTEIRA - FAMPE", "ER_REGIAO_CIDADE_min": "Tietê_Botucatu" }, "geometry": { "type": "Point", "coordinates": [ -47.7256492, -23.1045536 ] } },
{ "type": "Feature", "properties": { "fid": 308814, "CNPJ": "50597224000109", "IDCIDADE": "TIETE", "NOMEFANTASIA": "-", "RAZAOSOCIAL": "50.597.224 FABIO VENALDO GONCALVES EVANGELISTA", "ENDEE": "RUA SANTISSIMO REDENTOR, 20, SAO GERALDO, 18530-000, TIETÊ, SP, BRASIL", "LMAPS": "https://www.google.com/maps?q=&layer=c&cbll=-23.1100234,-47.7070216", "O_QUE_FAZER": "CARTEIRA - FAMPE", "ER_REGIAO_CIDADE_min": "Tietê_Botucatu" }, "geometry": { "type": "Point", "coordinates": [ -47.7070216, -23.1100234 ] } },
{ "type": "Feature", "properties": { "fid": 308815, "CNPJ": "49013608000140", "IDCIDADE": "TIETE", "NOMEFANTASIA": "4L Construtora", "RAZAOSOCIAL": "L S DE OLIVEIRA CONSTRUCAO", "ENDEE": "RUA LUIZ FERRAZ DE ARRUDA GAMA, 172, LOTEAMENTO POPULAR RESIDENCIAL BERTOLA, 18530-000, TIETÊ, SP, BRASIL", "LMAPS": "https://www.google.com/maps?q=&layer=c&cbll=-23.0766355,-47.7274928", "O_QUE_FAZER": "CARTEIRA - FAMPE", "ER_REGIAO_CIDADE_min": "Tietê_Botucatu" }, "geometry": { "type": "Point", "coordinates": [ -47.7274928, -23.0766355 ] } },
{ "type": "Feature", "properties": { "fid": 308816, "CNPJ": "58186019000154", "IDCIDADE": "TIETE", "NOMEFANTASIA": "-", "RAZAOSOCIAL": "CLM MONTAGENS, SERVICOS E MANUTENCAO LTDA", "ENDEE": "RUA PASQUALI ABRAMO, 88, SALA 01, PARQUE DOS LAGOS, 18533-090, TIETÊ, SP, BRASIL", "LMAPS": "https://www.google.com/maps?q=&layer=c&cbll=-23.0878229,-47.7171134", "O_QUE_FAZER": "CARTEIRA - FAMPE", "ER_REGIAO_CIDADE_min": "Tietê_Botucatu" }, "geometry": { "type": "Point", "coordinates": [ -47.7171134, -23.0878229 ] } }
]
}
