{
"type": "FeatureCollection",
"name": "ER_REGIAO_CIDADE_min_Ilhabela_Cambaquara_São José dos Campos",
"crs": { "type": "name", "properties": { "name": "urn:ogc:def:crs:OGC:1.3:CRS84" } },
"xy_coordinate_resolution": 1e-15,
"features": [
{ "type": "Feature", "properties": { "fid": 76405, "CNPJ": "12262079000108", "IDCIDADE": "ILHABELA", "NOMEFANTASIA": "ANDRE_QUEIROZ_DOS_SANTOS_POUSADA", "RAZAOSOCIAL": "ANDRE_QUEIROZ_DOS_SANTOS_POUSADA", "ENDEE": "RUA_PRAIA_DO_BONETE1__BONETE_11630-000", "LMAPS": "https://www.google.com/maps?q=&layer=c&cbll=-23.9174961,-45.3454597", "O_QUE_FAZER": "FINALIZADO", "ER_REGIAO_CIDADE_min": "Ilhabela_Cambaquara_São José dos Campos" }, "geometry": { "type": "Point", "coordinates": [ -45.3454597, -23.9174961 ] } },
{ "type": "Feature", "properties": { "fid": 163562, "CNPJ": "31098149000189", "IDCIDADE": "ILHABELA", "NOMEFANTASIA": "TIE_EVENTOS", "RAZAOSOCIAL": "TIE_EVENTOS_LTDA", "ENDEE": "AVENIDA JOSE PACHECO DO NASCIMENTO, 8175, CASA 21 SETOR 3, CURRAL, 11641-000, ILHABELA, SP, BRASIL", "LMAPS": "https://www.google.com/maps?q=&layer=c&cbll=-23.8692836,-45.4337351", "O_QUE_FAZER": "CARTEIRA - FAMPE", "ER_REGIAO_CIDADE_min": "Ilhabela_Cambaquara_São José dos Campos" }, "geometry": { "type": "Point", "coordinates": [ -45.4337351, -23.8692836 ] } }
]
}
