{
"type": "FeatureCollection",
"name": "ER_REGIAO_CIDADE_min_Lucianópolis_Bauru",
"crs": { "type": "name", "properties": { "name": "urn:ogc:def:crs:OGC:1.3:CRS84" } },
"xy_coordinate_resolution": 1e-15,
"features": [
{ "type": "Feature", "properties": { "fid": 4996, "CNPJ": "01037079000198", "IDCIDADE": "LUCIANOPOLIS", "NOMEFANTASIA": "RESTAURANTE_SANTA_ANA", "RAZAOSOCIAL": "ROSILEI_PERISSATTO_DOS_REIS", "ENDEE": "RUA_SANTA_LUZIA570__CENTRO_17475-013", "LMAPS": "https://www.google.com/maps?q=&layer=c&cbll=-22.4319582,-49.5205348", "O_QUE_FAZER": "CARTEIRA", "ER_REGIAO_CIDADE_min": "Lucianópolis_Bauru" }, "geometry": { "type": "Point", "coordinates": [ -49.5205348, -22.4319582 ] } },
{ "type": "Feature", "properties": { "fid": 19950, "CNPJ": "03785866000143", "IDCIDADE": "LUCIANOPOLIS", "NOMEFANTASIA": "TEM_QUASE_TUDO", "RAZAOSOCIAL": "IVAIR_FERREIRA_LUCIANOPOLIS", "ENDEE": "RUA_SAO_PEDRO289__CENTRO_17475-001", "LMAPS": "https://www.google.com/maps?q=&layer=c&cbll=-22.4322168,-49.5233721", "O_QUE_FAZER": "CARTEIRA", "ER_REGIAO_CIDADE_min": "Lucianópolis_Bauru" }, "geometry": { "type": "Point", "coordinates": [ -49.5233721, -22.4322168 ] } },
{ "type": "Feature", "properties": { "fid": 29143, "CNPJ": "05140289000168", "IDCIDADE": "LUCIANOPOLIS", "NOMEFANTASIA": "OFICINA_SANTO_APENAS_AMARO", "RAZAOSOCIAL": "GETULIO_JORGE_AMARO_LUCIANOPOLIS", "ENDEE": "RUA_SAO_PEDRO480__CENTRO_17475-001", "LMAPS": "https://www.google.com/maps?q=&layer=c&cbll=-22.4307041,-49.5230733", "O_QUE_FAZER": "CARTEIRA", "ER_REGIAO_CIDADE_min": "Lucianópolis_Bauru" }, "geometry": { "type": "Point", "coordinates": [ -49.5230733, -22.4307041 ] } },
{ "type": "Feature", "properties": { "fid": 29460, "CNPJ": "05204497000183", "IDCIDADE": "LUCIANOPOLIS", "NOMEFANTASIA": "OFICINA_SANTA_ADELINA", "RAZAOSOCIAL": "JOAO_ANTONIO_DOS_REIS_LUCIANOPOLIS", "ENDEE": "RUA_SANTA_LUZIA457__CENTRO_17475-013", "LMAPS": "https://www.google.com/maps?q=&layer=c&cbll=-22.4315725,-49.5215521", "O_QUE_FAZER": "CARTEIRA", "ER_REGIAO_CIDADE_min": "Lucianópolis_Bauru" }, "geometry": { "type": "Point", "coordinates": [ -49.5215521, -22.4315725 ] } },
{ "type": "Feature", "properties": { "fid": 35237, "CNPJ": "05994334000141", "IDCIDADE": "LUCIANOPOLIS", "NOMEFANTASIA": "DROGARIA_AVENIDA", "RAZAOSOCIAL": "CAROLINA_G._DE_GODOY_BATISTA", "ENDEE": "RUA_SAO_PEDRO621__CENTRO_17475-001", "LMAPS": "https://www.google.com/maps?q=&layer=c&cbll=-22.4292653,-49.5232772", "O_QUE_FAZER": "CARTEIRA", "ER_REGIAO_CIDADE_min": "Lucianópolis_Bauru" }, "geometry": { "type": "Point", "coordinates": [ -49.5232772, -22.4292653 ] } },
{ "type": "Feature", "properties": { "fid": 40709, "CNPJ": "07203651000128", "IDCIDADE": "LUCIANOPOLIS", "NOMEFANTASIA": "AUTO_POSTO_GIGA", "RAZAOSOCIAL": "ELTON_JERONIMO_COMBUSTIVEIS_LTDA.", "ENDEE": "PRACA_DA_BANDEIRA368__CENTRO_17475-015", "LMAPS": "https://www.google.com/maps?q=&layer=c&cbll=-22.4319606,-49.5220775", "O_QUE_FAZER": "CARTEIRA", "ER_REGIAO_CIDADE_min": "Lucianópolis_Bauru" }, "geometry": { "type": "Point", "coordinates": [ -49.5220775, -22.4319606 ] } },
{ "type": "Feature", "properties": { "fid": 44830, "CNPJ": "07696581000197", "IDCIDADE": "LUCIANOPOLIS", "NOMEFANTASIA": "CARVAO_GRALHA", "RAZAOSOCIAL": "PAULO_HENRIQUE_FREDERICO", "ENDEE": "RUA_SAO_PEDRO570__CENTRO_17475-001", "LMAPS": "https://www.google.com/maps?q=&layer=c&cbll=-22.4297122,-49.52297", "O_QUE_FAZER": "CARTEIRA", "ER_REGIAO_CIDADE_min": "Lucianópolis_Bauru" }, "geometry": { "type": "Point", "coordinates": [ -49.52297, -22.4297122 ] } },
{ "type": "Feature", "properties": { "fid": 57683, "CNPJ": "09376777000120", "IDCIDADE": "LUCIANOPOLIS", "NOMEFANTASIA": "SUPERMERCADO_SOUZA", "RAZAOSOCIAL": "ARLETE_ALECIA_MOREIRA_DE_SOUZA", "ENDEE": "RUA_JOAQUIM_PIAZENTIN515__BELMIRO_JORGE_AMARO_17475-278", "LMAPS": "https://www.google.com/maps?q=&layer=c&cbll=-22.4306854,-49.518229", "O_QUE_FAZER": "CARTEIRA", "ER_REGIAO_CIDADE_min": "Lucianópolis_Bauru" }, "geometry": { "type": "Point", "coordinates": [ -49.518229, -22.4306854 ] } },
{ "type": "Feature", "properties": { "fid": 63483, "CNPJ": "10506961000126", "IDCIDADE": "LUCIANOPOLIS", "NOMEFANTASIA": "LUCIANOPOLIS_LOTERICA", "RAZAOSOCIAL": "LOTERICA_ALVES_RODRIGUES_LTDA.", "ENDEE": "RUA_SAO_PEDRO373__CENTRO_17475-001", "LMAPS": "https://www.google.com/maps?q=&layer=c&cbll=-22.4314039,-49.5232902", "O_QUE_FAZER": "CARTEIRA", "ER_REGIAO_CIDADE_min": "Lucianópolis_Bauru" }, "geometry": { "type": "Point", "coordinates": [ -49.5232902, -22.4314039 ] } },
{ "type": "Feature", "properties": { "fid": 84969, "CNPJ": "13870880000107", "IDCIDADE": "LUCIANOPOLIS", "NOMEFANTASIA": "SUPERMERCADO_SILVA", "RAZAOSOCIAL": "CAROLINE_DE_OLIVEIRA_GOMES_SUPERMERCADO_LTDA", "ENDEE": "RUA_HILARIO_ZANINOTTO383__CENTRO_17475-009", "LMAPS": "https://www.google.com/maps?q=&layer=c&cbll=-22.431351,-49.521038", "O_QUE_FAZER": "CARTEIRA", "ER_REGIAO_CIDADE_min": "Lucianópolis_Bauru" }, "geometry": { "type": "Point", "coordinates": [ -49.521038, -22.431351 ] } },
{ "type": "Feature", "properties": { "fid": 85151, "CNPJ": "13921582000190", "IDCIDADE": "LUCIANOPOLIS", "NOMEFANTASIA": "OBADIAS", "RAZAOSOCIAL": "GUILHERME_FABRICIO_DA_COSTA_MOVEIS_PLANEJADOS_LTDA", "ENDEE": "RUA_SAO_PEDRO726__CENTRO_17475-001", "LMAPS": "https://www.google.com/maps?q=&layer=c&cbll=-22.4282323,-49.5219205", "O_QUE_FAZER": "CARTEIRA", "ER_REGIAO_CIDADE_min": "Lucianópolis_Bauru" }, "geometry": { "type": "Point", "coordinates": [ -49.5219205, -22.4282323 ] } },
{ "type": "Feature", "properties": { "fid": 88938, "CNPJ": "14683930000100", "IDCIDADE": "LUCIANOPOLIS", "NOMEFANTASIA": "DROGAMED", "RAZAOSOCIAL": "BISSI_&_CIA_DROGARIA_LTDA", "ENDEE": "RUA_FRANCISCO_DIAS_DE_ALMEIDA365__CENTRO_17475-019", "LMAPS": "https://www.google.com/maps?q=&layer=c&cbll=-22.4297564,-49.5224185", "O_QUE_FAZER": "CARTEIRA", "ER_REGIAO_CIDADE_min": "Lucianópolis_Bauru" }, "geometry": { "type": "Point", "coordinates": [ -49.5224185, -22.4297564 ] } },
{ "type": "Feature", "properties": { "fid": 117969, "CNPJ": "21543205000193", "IDCIDADE": "LUCIANOPOLIS", "NOMEFANTASIA": "AGRO_VALENTE", "RAZAOSOCIAL": "BLASETTI_E_PAGANINI_SERRALHERIA_LTDA.", "ENDEE": "PRACA_DA_BANDEIRA374__CENTRO_17475-015", "LMAPS": "https://www.google.com/maps?q=&layer=c&cbll=-22.4312828,-49.5220013", "O_QUE_FAZER": "CARTEIRA", "ER_REGIAO_CIDADE_min": "Lucianópolis_Bauru" }, "geometry": { "type": "Point", "coordinates": [ -49.5220013, -22.4312828 ] } },
{ "type": "Feature", "properties": { "fid": 196245, "CNPJ": "37917664000120", "IDCIDADE": "LUCIANOPOLIS", "NOMEFANTASIA": "CONSTRUSOUZA", "RAZAOSOCIAL": "SIMEI_FARIA_DE_SOUZA", "ENDEE": "RUA_SAO_PEDRO461__CENTRO_17475-001", "LMAPS": "https://www.google.com/maps?q=&layer=c&cbll=-22.4305116,-49.523347", "O_QUE_FAZER": "CARTEIRA", "ER_REGIAO_CIDADE_min": "Lucianópolis_Bauru" }, "geometry": { "type": "Point", "coordinates": [ -49.523347, -22.4305116 ] } },
{ "type": "Feature", "properties": { "fid": 243986, "CNPJ": "48706449000104", "IDCIDADE": "LUCIANOPOLIS", "NOMEFANTASIA": "SUPERMERCADO_OBADIAS", "RAZAOSOCIAL": "SUPERMERCADO_OBADIAS_LTDA", "ENDEE": "RUA_GUIDO_COPPE7__CONJUNTO_HABITACIONAL_BELMIRO_JORGE_AMARO_17475-272", "LMAPS": "https://www.google.com/maps?q=&layer=c&cbll=-22.4335272,-49.5187041", "O_QUE_FAZER": "CARTEIRA", "ER_REGIAO_CIDADE_min": "Lucianópolis_Bauru" }, "geometry": { "type": "Point", "coordinates": [ -49.5187041, -22.4335272 ] } },
{ "type": "Feature", "properties": { "fid": 274953, "CNPJ": "55272561000131", "IDCIDADE": "LUCIANOPOLIS", "NOMEFANTASIA": "AUTO_PECAS_VASCONCELOS", "RAZAOSOCIAL": "VASCONCELOS_PECAS_E_MANUTENCAO_DE_VEICULOS_LTDA", "ENDEE": "RUA_FRANCISCO_DIAS_DE_ALMEIDA443__CENTRO_17475-019", "LMAPS": "https://www.google.com/maps?q=&layer=c&cbll=-22.429738,-49.5218213", "O_QUE_FAZER": "CARTEIRA", "ER_REGIAO_CIDADE_min": "Lucianópolis_Bauru" }, "geometry": { "type": "Point", "coordinates": [ -49.5218213, -22.429738 ] } },
{ "type": "Feature", "properties": { "fid": 305697, "CNPJ": "67191700000181", "IDCIDADE": "LUCIANOPOLIS", "NOMEFANTASIA": "ME4CADO_SAO_CARLOS", "RAZAOSOCIAL": "EDUARDO_CARLOS_BONACI", "ENDEE": "RUA_SAO_PEDRO570__CENTRO_17475-001", "LMAPS": "https://www.google.com/maps?q=&layer=c&cbll=-22.4299486,-49.5230248", "O_QUE_FAZER": "CARTEIRA", "ER_REGIAO_CIDADE_min": "Lucianópolis_Bauru" }, "geometry": { "type": "Point", "coordinates": [ -49.5230248, -22.4299486 ] } },
{ "type": "Feature", "properties": { "fid": 309779, "CNPJ": "71964308000103", "IDCIDADE": "LUCIANOPOLIS", "NOMEFANTASIA": "SUPERMERCADO_ROMERO", "RAZAOSOCIAL": "MAURO_ABRUNHOSA_ROMERO", "ENDEE": "RUA_SAO_PEDRO544__CENTRO_17475-001", "LMAPS": "https://www.google.com/maps?q=&layer=c&cbll=-22.4299964,-49.5229485", "O_QUE_FAZER": "CARTEIRA", "ER_REGIAO_CIDADE_min": "Lucianópolis_Bauru" }, "geometry": { "type": "Point", "coordinates": [ -49.5229485, -22.4299964 ] } }
]
}
