{
"type": "FeatureCollection",
"name": "ER_REGIAO_CIDADE_min_Pradópolis_Ribeirão Preto",
"crs": { "type": "name", "properties": { "name": "urn:ogc:def:crs:OGC:1.3:CRS84" } },
"xy_coordinate_resolution": 1e-15,
"features": [
{ "type": "Feature", "properties": { "CNPJ": "35082964000100", "IDCIDADE": "PRADOPOLIS", "NOMEFANTASIA": "SOLAR CONNECTIONS", "RAZAOSOCIAL": "SOLAR CONNECTIONS DO BRASIL ENGENHARIA LTDA", "ENDEE": "RUA_LUIZ BERNABE NIETTO_2220_DISTRITO INDUSTRIAL_14850-000_PRADOPOLIS", "LATITUDE": "-21.3565498", "LONGITUDE": "-48.0977924", "LMAPS": "https://www.google.com/maps?q=&layer=c&cbll=-21.3565498,-48.0977924", "O_QUE_FAZER": "FINALIZADO", "ER_REGIAO_CIDADE_min": "Pradópolis_Ribeirão Preto" }, "geometry": { "type": "Point", "coordinates": [ -48.0977924, -21.3565498 ] } },
{ "type": "Feature", "properties": { "CNPJ": "10459724000151", "IDCIDADE": "PRADOPOLIS", "NOMEFANTASIA": "RDA_COMERCIO_DE_BICICLETAS_LTDA", "RAZAOSOCIAL": "RDA_BIKE", "ENDEE": "RUA_CAMPOS_SALLES690__CENTRO_14850-000", "LATITUDE": "-21.3596607", "LONGITUDE": "-48.0726981", "LMAPS": "https://www.google.com/maps?q=&layer=c&cbll=-48.0726981,-21.3596607", "O_QUE_FAZER": "FINALIZADO", "ER_REGIAO_CIDADE_min": "Pradópolis_Ribeirão Preto" }, "geometry": { "type": "Point", "coordinates": [ -48.0726981, -21.3596607 ] } },
{ "type": "Feature", "properties": { "CNPJ": "51465301000121", "IDCIDADE": "PRADOPOLIS", "NOMEFANTASIA": "TL_DISTRIBUIDORA_EPI'S_E_UNIFORMES_LTDA", "RAZAOSOCIAL": "TL_EPIS_E_UNIFORMES", "ENDEE": "RUA_CASTRO_ALVES584__CENTRO_14850-000", "LATITUDE": "-21.3589865", "LONGITUDE": "-48.0737058", "LMAPS": "https://www.google.com/maps?q=&layer=c&cbll=-48.0737058,-21.3589865", "O_QUE_FAZER": "FINALIZADO", "ER_REGIAO_CIDADE_min": "Pradópolis_Ribeirão Preto" }, "geometry": { "type": "Point", "coordinates": [ -48.0737058, -21.3589865 ] } },
{ "type": "Feature", "properties": { "CNPJ": "39541319000160", "IDCIDADE": "PRADOPOLIS", "NOMEFANTASIA": "JP_PRESTACAO_DE_SERVICOS_EM_TRATAMENTO_E_PURIFICAO_DE_OLEO_LTDA", "RAZAOSOCIAL": "JP_PRESTACAO_DE_SERVICOS_EM_TRATAMENTO_E_PURIFICAO_DE_OLEO_LTDA", "ENDEE": "RUA_EURESTES_BARBETA2050__DISTRITO_INDUSTRIAL_14850-000", "LATITUDE": "-21.3587519", "LONGITUDE": "-48.0967321", "LMAPS": "https://www.google.com/maps?q=&layer=c&cbll=-48.0967321,-21.3587519", "O_QUE_FAZER": "FINALIZADO", "ER_REGIAO_CIDADE_min": "Pradópolis_Ribeirão Preto" }, "geometry": { "type": "Point", "coordinates": [ -48.0967321, -21.3587519 ] } },
{ "type": "Feature", "properties": { "CNPJ": "24200390000101", "IDCIDADE": "PRADOPOLIS", "NOMEFANTASIA": "PEIXARIA_DO_PARAGUAIO_LTDA", "RAZAOSOCIAL": "PEIXARIA_DO_PARAGUAIO", "ENDEE": "RUA_JOSE_PONTES_CAMARA255__MARIA_LUIZA_2_14850-000", "LATITUDE": "-21.3522114", "LONGITUDE": "-48.0838319", "LMAPS": "https://www.google.com/maps?q=&layer=c&cbll=-48.0838319,-21.3522114", "O_QUE_FAZER": "FINALIZADO", "ER_REGIAO_CIDADE_min": "Pradópolis_Ribeirão Preto" }, "geometry": { "type": "Point", "coordinates": [ -48.0838319, -21.3522114 ] } },
{ "type": "Feature", "properties": { "CNPJ": "46531579000110", "IDCIDADE": "PRADOPOLIS", "NOMEFANTASIA": "MDG_LABORATORIO_DE_PROTESE_DENTARIA_LTDA", "RAZAOSOCIAL": "MDG_LABORATORIO_DE_PROTESES_DENTARIAS", "ENDEE": "RUA_PRADOPOLIS935__JARDIM_MIRIAM_II_14850-000", "LATITUDE": "-21.3601283", "LONGITUDE": "-48.0677495", "LMAPS": "https://www.google.com/maps?q=&layer=c&cbll=-48.0677495,-21.3601283", "O_QUE_FAZER": "FINALIZADO", "ER_REGIAO_CIDADE_min": "Pradópolis_Ribeirão Preto" }, "geometry": { "type": "Point", "coordinates": [ -48.0677495, -21.3601283 ] } },
{ "type": "Feature", "properties": { "CNPJ": "05564744000152", "IDCIDADE": "DUMONT", "NOMEFANTASIA": "VITORIA_MOVEIS", "RAZAOSOCIAL": "MARCANDALI_EIRELI", "ENDEE": "RUA_SANTOS_DUMONT33__CENTRO_14120-000", "LATITUDE": "-21.3600183", "LONGITUDE": "-48.0685433", "LMAPS": "https://www.google.com/maps?q=&layer=c&cbll=-48.0685433,-21.3600183", "O_QUE_FAZER": "CARTEIRA", "ER_REGIAO_CIDADE_min": "Pradópolis_Ribeirão Preto" }, "geometry": { "type": "Point", "coordinates": [ -48.0685433, -21.3600183 ] } },
{ "type": "Feature", "properties": { "CNPJ": "15531532000122", "IDCIDADE": "PRADOPOLIS", "NOMEFANTASIA": "PALACE_HOTEL", "RAZAOSOCIAL": "PRISCILA_DERUSSI_AQUINO_BOSSONI_LTDA", "ENDEE": "RUA_CEZAR_GIOVANNETTI587__CENTRO_14850-000", "LATITUDE": "-21.3594083", "LONGITUDE": "-48.0695717", "LMAPS": "https://www.google.com/maps?q=&layer=c&cbll=-48.0695717,-21.3594083", "O_QUE_FAZER": "CARTEIRA", "ER_REGIAO_CIDADE_min": "Pradópolis_Ribeirão Preto" }, "geometry": { "type": "Point", "coordinates": [ -48.0695717, -21.3594083 ] } },
{ "type": "Feature", "properties": { "CNPJ": "12292667000194", "IDCIDADE": "PRADOPOLIS", "NOMEFANTASIA": "SIEL_PAPELARIA", "RAZAOSOCIAL": "MARIA_APARECIDA_MERCHAN_TURCI", "ENDEE": "RUA_NOVE_DE_JULHO506__CENTRO_14850-000", "LATITUDE": "-21.3585651", "LONGITUDE": "-48.0685808", "LMAPS": "https://www.google.com/maps?q=&layer=c&cbll=-48.0685808,-21.3585651", "O_QUE_FAZER": "CARTEIRA", "ER_REGIAO_CIDADE_min": "Pradópolis_Ribeirão Preto" }, "geometry": { "type": "Point", "coordinates": [ -48.0685808, -21.3585651 ] } },
{ "type": "Feature", "properties": { "CNPJ": "11928149000151", "IDCIDADE": "PRADOPOLIS", "NOMEFANTASIA": "DEPOSITO_DE_GAS_SAO_MIGUEL", "RAZAOSOCIAL": "MARIA_DE_LOURDES_LUCAS_ESCORCIO", "ENDEE": "RUA_NOVE_DE_JULHO755__CENTRO_14850-000", "LATITUDE": "-21.35884", "LONGITUDE": "-48.0688467", "LMAPS": "https://www.google.com/maps?q=&layer=c&cbll=-48.0688467,-21.35884", "O_QUE_FAZER": "CARTEIRA", "ER_REGIAO_CIDADE_min": "Pradópolis_Ribeirão Preto" }, "geometry": { "type": "Point", "coordinates": [ -48.0688467, -21.35884 ] } },
{ "type": "Feature", "properties": { "CNPJ": "96664321000160", "IDCIDADE": "PRADOPOLIS", "NOMEFANTASIA": "ARMAZEM_PKX", "RAZAOSOCIAL": "JOAO_MANOEL_GIMENES_DE_ARAGAO_LTDA", "ENDEE": "RUA_QUINZE_DE_NOVEMBRO598__CENTRO_14850-000", "LATITUDE": "-21.3591817", "LONGITUDE": "-48.071575", "LMAPS": "https://www.google.com/maps?q=&layer=c&cbll=-48.071575,-21.3591817", "O_QUE_FAZER": "CARTEIRA", "ER_REGIAO_CIDADE_min": "Pradópolis_Ribeirão Preto" }, "geometry": { "type": "Point", "coordinates": [ -48.071575, -21.3591817 ] } },
{ "type": "Feature", "properties": { "CNPJ": "41076318000133", "IDCIDADE": "PRADOPOLIS", "NOMEFANTASIA": "AUTO_CENTER_CORTES", "RAZAOSOCIAL": "AUTO_CENTER_CORTES_LTDA", "ENDEE": "RUA_ROSA_DE_OLIVEIRA_CAMPOS102__CENTRO_14850-000", "LATITUDE": "-21.3597701", "LONGITUDE": "-48.0743498", "LMAPS": "https://www.google.com/maps?q=&layer=c&cbll=-48.0743498,-21.3597701", "O_QUE_FAZER": "CARTEIRA", "ER_REGIAO_CIDADE_min": "Pradópolis_Ribeirão Preto" }, "geometry": { "type": "Point", "coordinates": [ -48.0743498, -21.3597701 ] } },
{ "type": "Feature", "properties": { "CNPJ": "55891022000180", "IDCIDADE": "PRADOPOLIS", "NOMEFANTASIA": "FLORICULTURA_NAIR_VENDITE", "RAZAOSOCIAL": "NAIR_VENDITE", "ENDEE": "RUA_SANTO_ANTONIO536__CENTRO_14850-000", "LATITUDE": "-21.3589367", "LONGITUDE": "-48.0687217", "LMAPS": "https://www.google.com/maps?q=&layer=c&cbll=-48.0687217,-21.3589367", "O_QUE_FAZER": "CARTEIRA", "ER_REGIAO_CIDADE_min": "Pradópolis_Ribeirão Preto" }, "geometry": { "type": "Point", "coordinates": [ -48.0687217, -21.3589367 ] } },
{ "type": "Feature", "properties": { "CNPJ": "56020258000104", "IDCIDADE": "PRADOPOLIS", "NOMEFANTASIA": "ADJUNA_FASHION", "RAZAOSOCIAL": "MARIA_VALERIA_GARCIA_CORRADO_BARRADO", "ENDEE": "RUA_SANTO_ANTONIO574__CENTRO_14850-000", "LATITUDE": "-21.359365", "LONGITUDE": "-48.0687633", "LMAPS": "https://www.google.com/maps?q=&layer=c&cbll=-48.0687633,-21.359365", "O_QUE_FAZER": "CARTEIRA", "ER_REGIAO_CIDADE_min": "Pradópolis_Ribeirão Preto" }, "geometry": { "type": "Point", "coordinates": [ -48.0687633, -21.359365 ] } },
{ "type": "Feature", "properties": { "CNPJ": "07934766000192", "IDCIDADE": "PRADOPOLIS", "NOMEFANTASIA": "UTIL.COM_SHOP", "RAZAOSOCIAL": "MARCELO_FIORAVANTE_ORNELLAS_DE_ALMEIDA", "ENDEE": "RUA_SANTO_ANTONIO608__CENTRO_14850-000", "LATITUDE": "-21.3595197", "LONGITUDE": "-48.0687239", "LMAPS": "https://www.google.com/maps?q=&layer=c&cbll=-48.0687239,-21.3595197", "O_QUE_FAZER": "CARTEIRA", "ER_REGIAO_CIDADE_min": "Pradópolis_Ribeirão Preto" }, "geometry": { "type": "Point", "coordinates": [ -48.0687239, -21.3595197 ] } },
{ "type": "Feature", "properties": { "CNPJ": "07887521000151", "IDCIDADE": "PRADOPOLIS", "NOMEFANTASIA": "CHOCOMENTA", "RAZAOSOCIAL": "FABIANA_ZAMBOLIN_COMUNHAO", "ENDEE": "RUA_SANTO_ANTONIO613__CENTRO_14850-000", "LATITUDE": "-21.3598433", "LONGITUDE": "-48.0687083", "LMAPS": "https://www.google.com/maps?q=&layer=c&cbll=-48.0687083,-21.3598433", "O_QUE_FAZER": "CARTEIRA", "ER_REGIAO_CIDADE_min": "Pradópolis_Ribeirão Preto" }, "geometry": { "type": "Point", "coordinates": [ -48.0687083, -21.3598433 ] } },
{ "type": "Feature", "properties": { "CNPJ": "47093651000137", "IDCIDADE": "PRADOPOLIS", "NOMEFANTASIA": "DERUSSI_CALCADOS", "RAZAOSOCIAL": "DERUSSI_CALCADOS_LTDA", "ENDEE": "RUA_SANTO_ANTONIO682__CENTRO_14850-000", "LATITUDE": "-21.3599633", "LONGITUDE": "-48.0689", "LMAPS": "https://www.google.com/maps?q=&layer=c&cbll=-48.0689,-21.3599633", "O_QUE_FAZER": "CARTEIRA", "ER_REGIAO_CIDADE_min": "Pradópolis_Ribeirão Preto" }, "geometry": { "type": "Point", "coordinates": [ -48.0689, -21.3599633 ] } },
{ "type": "Feature", "properties": { "CNPJ": "09547286000102", "IDCIDADE": "PRADOPOLIS", "NOMEFANTASIA": "DROGARIA_TOTAL", "RAZAOSOCIAL": "DROGARIA_TOTAL_PRADOPOLIS_LTDA", "ENDEE": "RUA_SANTO_ANTONIO700__CENTRO_14850-000", "LATITUDE": "-21.3604133", "LONGITUDE": "-48.0690583", "LMAPS": "https://www.google.com/maps?q=&layer=c&cbll=-48.0690583,-21.3604133", "O_QUE_FAZER": "CARTEIRA", "ER_REGIAO_CIDADE_min": "Pradópolis_Ribeirão Preto" }, "geometry": { "type": "Point", "coordinates": [ -48.0690583, -21.3604133 ] } },
{ "type": "Feature", "properties": { "CNPJ": "08785949000156", "IDCIDADE": "PRADOPOLIS", "NOMEFANTASIA": "MULTI_PECAS", "RAZAOSOCIAL": "THIAGO_DE_CASTRO_COMERCIO_DE_AUTO_PECAS", "ENDEE": "RUA_SANTO_ANTONIO722__CENTRO_14850-000", "LATITUDE": "-21.3606", "LONGITUDE": "-48.0689817", "LMAPS": "https://www.google.com/maps?q=&layer=c&cbll=-48.0689817,-21.3606", "O_QUE_FAZER": "CARTEIRA", "ER_REGIAO_CIDADE_min": "Pradópolis_Ribeirão Preto" }, "geometry": { "type": "Point", "coordinates": [ -48.0689817, -21.3606 ] } },
{ "type": "Feature", "properties": { "CNPJ": "10343823000173", "IDCIDADE": "PRADOPOLIS", "NOMEFANTASIA": "BAR_DO_RICHELMI", "RAZAOSOCIAL": "RICHELMY_ODAIR_ROSSI", "ENDEE": "RUA_SANTOS_DUMONT606__CENTRO_14850-000", "LATITUDE": "-21.3601185", "LONGITUDE": "-48.067986", "LMAPS": "https://www.google.com/maps?q=&layer=c&cbll=-48.067986,-21.3601185", "O_QUE_FAZER": "CARTEIRA", "ER_REGIAO_CIDADE_min": "Pradópolis_Ribeirão Preto" }, "geometry": { "type": "Point", "coordinates": [ -48.067986, -21.3601185 ] } },
{ "type": "Feature", "properties": { "CNPJ": "00660737000130", "IDCIDADE": "PRADOPOLIS", "NOMEFANTASIA": "OTICA_REWYLON", "RAZAOSOCIAL": "V_C_A_DE_SOUZA_OTICA", "ENDEE": "RUA_SAO_MARTINHO1015__CENTRO_14850-000", "LATITUDE": "-21.360027", "LONGITUDE": "-48.0677772", "LMAPS": "https://www.google.com/maps?q=&layer=c&cbll=-48.0677772,-21.360027", "O_QUE_FAZER": "CARTEIRA", "ER_REGIAO_CIDADE_min": "Pradópolis_Ribeirão Preto" }, "geometry": { "type": "Point", "coordinates": [ -48.0677772, -21.360027 ] } },
{ "type": "Feature", "properties": { "CNPJ": "14630233000182", "IDCIDADE": "PRADOPOLIS", "NOMEFANTASIA": "MARCELA_MODAS", "RAZAOSOCIAL": "A._POMPILIO_&_CIA._LTDA", "ENDEE": "RUA_SAO_MARTINHO1027__CENTRO_14850-000", "LATITUDE": "-21.360064", "LONGITUDE": "-48.0675223", "LMAPS": "https://www.google.com/maps?q=&layer=c&cbll=-48.0675223,-21.360064", "O_QUE_FAZER": "CARTEIRA", "ER_REGIAO_CIDADE_min": "Pradópolis_Ribeirão Preto" }, "geometry": { "type": "Point", "coordinates": [ -48.0675223, -21.360064 ] } },
{ "type": "Feature", "properties": { "CNPJ": "05686578000329", "IDCIDADE": "PRADOPOLIS", "NOMEFANTASIA": "CERTEZA", "RAZAOSOCIAL": "CERTEZA_BABY_MAGAZINE_LTDA", "ENDEE": "RUA_SAO_MARTINHO1046__CENTRO_14850-000", "LATITUDE": "-21.3603912", "LONGITUDE": "-48.067306", "LMAPS": "https://www.google.com/maps?q=&layer=c&cbll=-48.067306,-21.3603912", "O_QUE_FAZER": "CARTEIRA", "ER_REGIAO_CIDADE_min": "Pradópolis_Ribeirão Preto" }, "geometry": { "type": "Point", "coordinates": [ -48.067306, -21.3603912 ] } },
{ "type": "Feature", "properties": { "CNPJ": "08246702000161", "IDCIDADE": "PRADOPOLIS", "NOMEFANTASIA": "EXCLUSIVE_IMPORTS", "RAZAOSOCIAL": "EUNICE_ALVES_BOCALAO", "ENDEE": "RUA_SAO_MARTINHO1055__CENTRO_14850-000", "LATITUDE": "-21.3601684", "LONGITUDE": "-48.0677017", "LMAPS": "https://www.google.com/maps?q=&layer=c&cbll=-48.0677017,-21.3601684", "O_QUE_FAZER": "CARTEIRA", "ER_REGIAO_CIDADE_min": "Pradópolis_Ribeirão Preto" }, "geometry": { "type": "Point", "coordinates": [ -48.0677017, -21.3601684 ] } },
{ "type": "Feature", "properties": { "CNPJ": "43494424000162", "IDCIDADE": "PRADOPOLIS", "NOMEFANTASIA": "AGM_SOLUCOES_CONTABEIS", "RAZAOSOCIAL": "AGM_SOLUCOES_CONTABEIS_LTDA.", "ENDEE": "RUA_SAO_MARTINHO1063__CENTRO_14850-000", "LATITUDE": "-21.3602905", "LONGITUDE": "-48.0671463", "LMAPS": "https://www.google.com/maps?q=&layer=c&cbll=-48.0671463,-21.3602905", "O_QUE_FAZER": "CARTEIRA", "ER_REGIAO_CIDADE_min": "Pradópolis_Ribeirão Preto" }, "geometry": { "type": "Point", "coordinates": [ -48.0671463, -21.3602905 ] } },
{ "type": "Feature", "properties": { "CNPJ": "06099017000124", "IDCIDADE": "PRADOPOLIS", "NOMEFANTASIA": "PALACIO_DO_SORVETE", "RAZAOSOCIAL": "LAURINDO_COLOMBO", "ENDEE": "RUA_SAO_MARTINHO1130__CENTRO_14850-000", "LATITUDE": "-21.3604884", "LONGITUDE": "-48.0665353", "LMAPS": "https://www.google.com/maps?q=&layer=c&cbll=-48.0665353,-21.3604884", "O_QUE_FAZER": "CARTEIRA", "ER_REGIAO_CIDADE_min": "Pradópolis_Ribeirão Preto" }, "geometry": { "type": "Point", "coordinates": [ -48.0665353, -21.3604884 ] } },
{ "type": "Feature", "properties": { "CNPJ": "33854642000107", "IDCIDADE": "PRADOPOLIS", "NOMEFANTASIA": "MARLEI_FESTAS", "RAZAOSOCIAL": "MARLEI_F._DOS_S._OLIVEIRA_COMERCIO_VAREJISTA_DE_DOCES", "ENDEE": "RUA_SAO_MARTINHO1140__CENTRO_14850-000", "LATITUDE": "-21.3604137", "LONGITUDE": "-48.0664314", "LMAPS": "https://www.google.com/maps?q=&layer=c&cbll=-48.0664314,-21.3604137", "O_QUE_FAZER": "CARTEIRA", "ER_REGIAO_CIDADE_min": "Pradópolis_Ribeirão Preto" }, "geometry": { "type": "Point", "coordinates": [ -48.0664314, -21.3604137 ] } },
{ "type": "Feature", "properties": { "CNPJ": "67874545000106", "IDCIDADE": "PRADOPOLIS", "NOMEFANTASIA": "OTICA_BOA_VISAO", "RAZAOSOCIAL": "CARMEN_SILVIA_BENASSI", "ENDEE": "RUA_SAO_MARTINHO1192__CENTRO_14850-000", "LATITUDE": "-21.3601051", "LONGITUDE": "-48.0654185", "LMAPS": "https://www.google.com/maps?q=&layer=c&cbll=-48.0654185,-21.3601051", "O_QUE_FAZER": "CARTEIRA", "ER_REGIAO_CIDADE_min": "Pradópolis_Ribeirão Preto" }, "geometry": { "type": "Point", "coordinates": [ -48.0654185, -21.3601051 ] } },
{ "type": "Feature", "properties": { "CNPJ": "16890395000185", "IDCIDADE": "PRADOPOLIS", "NOMEFANTASIA": "SUPERMERCADO_MATTIONI", "RAZAOSOCIAL": "COMERCIAL_DE_ALIMENTOS_MATTIONI_LTDA", "ENDEE": "RUA_SAO_MARTINHO1270__CENTRO_14850-000", "LATITUDE": "-21.3608254", "LONGITUDE": "-48.0654605", "LMAPS": "https://www.google.com/maps?q=&layer=c&cbll=-48.0654605,-21.3608254", "O_QUE_FAZER": "CARTEIRA", "ER_REGIAO_CIDADE_min": "Pradópolis_Ribeirão Preto" }, "geometry": { "type": "Point", "coordinates": [ -48.0654605, -21.3608254 ] } },
{ "type": "Feature", "properties": { "CNPJ": "01269433000100", "IDCIDADE": "PRADOPOLIS", "NOMEFANTASIA": "GM_CALHAS", "RAZAOSOCIAL": "G.M._CALHAS_DE_PRADOPOLIS_LTDA", "ENDEE": "RUA_SAO_MARTINHO329__CENTRO_14850-000", "LATITUDE": "-21.3593273", "LONGITUDE": "-48.0742569", "LMAPS": "https://www.google.com/maps?q=&layer=c&cbll=-48.0742569,-21.3593273", "O_QUE_FAZER": "CARTEIRA", "ER_REGIAO_CIDADE_min": "Pradópolis_Ribeirão Preto" }, "geometry": { "type": "Point", "coordinates": [ -48.0742569, -21.3593273 ] } },
{ "type": "Feature", "properties": { "CNPJ": "23681271000155", "IDCIDADE": "PRADOPOLIS", "NOMEFANTASIA": "TRICUSTOM", "RAZAOSOCIAL": "TRICUSTOM_BRASIL_LTDA", "ENDEE": "RUA_SAO_MARTINHO361__CENTRO_14850-000", "LATITUDE": "-21.3593664", "LONGITUDE": "-48.0741798", "LMAPS": "https://www.google.com/maps?q=&layer=c&cbll=-48.0741798,-21.3593664", "O_QUE_FAZER": "CARTEIRA", "ER_REGIAO_CIDADE_min": "Pradópolis_Ribeirão Preto" }, "geometry": { "type": "Point", "coordinates": [ -48.0741798, -21.3593664 ] } },
{ "type": "Feature", "properties": { "CNPJ": "07170352000134", "IDCIDADE": "PRADOPOLIS", "NOMEFANTASIA": "AUTO_MAIS", "RAZAOSOCIAL": "AUTOMAISS_PECAS_AUTOMOTIVAS_LTDA", "ENDEE": "RUA_SAO_MARTINHO380__CENTRO_14850-000", "LATITUDE": "-21.3595733", "LONGITUDE": "-48.0739841", "LMAPS": "https://www.google.com/maps?q=&layer=c&cbll=-48.0739841,-21.3595733", "O_QUE_FAZER": "CARTEIRA", "ER_REGIAO_CIDADE_min": "Pradópolis_Ribeirão Preto" }, "geometry": { "type": "Point", "coordinates": [ -48.0739841, -21.3595733 ] } },
{ "type": "Feature", "properties": { "CNPJ": "35109102000124", "IDCIDADE": "PRADOPOLIS", "NOMEFANTASIA": "SUPERMERCADO_REAL_MAIS", "RAZAOSOCIAL": "ADEVANI_PEREIRA_DE_ALMEIDA_SUPERMERCADO", "ENDEE": "RUA_SAO_MARTINHO390__CENTRO_14850-000", "LATITUDE": "-21.3594764", "LONGITUDE": "-48.0739267", "LMAPS": "https://www.google.com/maps?q=&layer=c&cbll=-48.0739267,-21.3594764", "O_QUE_FAZER": "CARTEIRA", "ER_REGIAO_CIDADE_min": "Pradópolis_Ribeirão Preto" }, "geometry": { "type": "Point", "coordinates": [ -48.0739267, -21.3594764 ] } },
{ "type": "Feature", "properties": { "CNPJ": "01630845000123", "IDCIDADE": "PRADOPOLIS", "NOMEFANTASIA": "DOLLAR_BRASIL", "RAZAOSOCIAL": "JULIANA_GENTILINI_DAVID_&_CIA_LTDA", "ENDEE": "RUA_SAO_MARTINHO420__CENTRO_14850-000", "LATITUDE": "-21.3595366", "LONGITUDE": "-48.0733099", "LMAPS": "https://www.google.com/maps?q=&layer=c&cbll=-48.0733099,-21.3595366", "O_QUE_FAZER": "CARTEIRA", "ER_REGIAO_CIDADE_min": "Pradópolis_Ribeirão Preto" }, "geometry": { "type": "Point", "coordinates": [ -48.0733099, -21.3595366 ] } },
{ "type": "Feature", "properties": { "CNPJ": "32228866000140", "IDCIDADE": "PRADOPOLIS", "NOMEFANTASIA": "CAMILA_MODAS", "RAZAOSOCIAL": "CAMILA_TATIANE_LEONI_DE_ALBUQUERQUE", "ENDEE": "RUA_SAO_MARTINHO447__CENTRO_14850-000", "LATITUDE": "-21.35928", "LONGITUDE": "-48.0730883", "LMAPS": "https://www.google.com/maps?q=&layer=c&cbll=-48.0730883,-21.35928", "O_QUE_FAZER": "CARTEIRA", "ER_REGIAO_CIDADE_min": "Pradópolis_Ribeirão Preto" }, "geometry": { "type": "Point", "coordinates": [ -48.0730883, -21.35928 ] } },
{ "type": "Feature", "properties": { "CNPJ": "38391416000150", "IDCIDADE": "PRADOPOLIS", "NOMEFANTASIA": "IDEAL_LIMPEZA", "RAZAOSOCIAL": "IDEAL_LIMPEZA_DE_AMBIENTES_MANUTENCAO_PREDIAL_&_MARKETING_LTDA", "ENDEE": "RUA_SAO_MARTINHO525__CENTRO_14850-000", "LATITUDE": "-21.35928", "LONGITUDE": "-48.0719017", "LMAPS": "https://www.google.com/maps?q=&layer=c&cbll=-48.0719017,-21.35928", "O_QUE_FAZER": "CARTEIRA", "ER_REGIAO_CIDADE_min": "Pradópolis_Ribeirão Preto" }, "geometry": { "type": "Point", "coordinates": [ -48.0719017, -21.35928 ] } },
{ "type": "Feature", "properties": { "CNPJ": "28249198000594", "IDCIDADE": "PRADOPOLIS", "NOMEFANTASIA": "M3_NET_FIBRA", "RAZAOSOCIAL": "M3_NET_FIBRA_LTDA", "ENDEE": "RUA_SAO_MARTINHO544__CENTRO_14850-000", "LATITUDE": "-21.3594902", "LONGITUDE": "-48.0720643", "LMAPS": "https://www.google.com/maps?q=&layer=c&cbll=-48.0720643,-21.3594902", "O_QUE_FAZER": "CARTEIRA", "ER_REGIAO_CIDADE_min": "Pradópolis_Ribeirão Preto" }, "geometry": { "type": "Point", "coordinates": [ -48.0720643, -21.3594902 ] } },
{ "type": "Feature", "properties": { "CNPJ": "48218383000103", "IDCIDADE": "PRADOPOLIS", "NOMEFANTASIA": "ROSE_GOLD", "RAZAOSOCIAL": "ROSE_GOLD_COMERCIO_DE_VARIEDADES_LTDA", "ENDEE": "RUA_SAO_MARTINHO555__CENTRO_14850-000", "LATITUDE": "-21.3594783", "LONGITUDE": "-48.0724033", "LMAPS": "https://www.google.com/maps?q=&layer=c&cbll=-48.0724033,-21.3594783", "O_QUE_FAZER": "CARTEIRA", "ER_REGIAO_CIDADE_min": "Pradópolis_Ribeirão Preto" }, "geometry": { "type": "Point", "coordinates": [ -48.0724033, -21.3594783 ] } },
{ "type": "Feature", "properties": { "CNPJ": "10304716000136", "IDCIDADE": "PRADOPOLIS", "NOMEFANTASIA": "MULTIDROGAS", "RAZAOSOCIAL": "MOURA_&_GARUZI_DROGARIA_LTDA.", "ENDEE": "RUA_SAO_MARTINHO588__CENTRO_14850-000", "LATITUDE": "-21.3595086", "LONGITUDE": "-48.0716984", "LMAPS": "https://www.google.com/maps?q=&layer=c&cbll=-48.0716984,-21.3595086", "O_QUE_FAZER": "CARTEIRA", "ER_REGIAO_CIDADE_min": "Pradópolis_Ribeirão Preto" }, "geometry": { "type": "Point", "coordinates": [ -48.0716984, -21.3595086 ] } },
{ "type": "Feature", "properties": { "CNPJ": "31179036000108", "IDCIDADE": "PRADOPOLIS", "NOMEFANTASIA": "DROGARIA_NOSSA_FARMA", "RAZAOSOCIAL": "DROGARIA_NOSSA_FARMA_-_PRADOPOLIS_-_LTDA.", "ENDEE": "RUA_SAO_MARTINHO671__CENTRO_14850-000", "LATITUDE": "-21.3594546", "LONGITUDE": "-48.070837", "LMAPS": "https://www.google.com/maps?q=&layer=c&cbll=-48.070837,-21.3594546", "O_QUE_FAZER": "CARTEIRA", "ER_REGIAO_CIDADE_min": "Pradópolis_Ribeirão Preto" }, "geometry": { "type": "Point", "coordinates": [ -48.070837, -21.3594546 ] } },
{ "type": "Feature", "properties": { "CNPJ": "21585875000172", "IDCIDADE": "PRADOPOLIS", "NOMEFANTASIA": "MK_SEG", "RAZAOSOCIAL": "MKSEG_CORRETORA_DE_SEGUROS_LTDA", "ENDEE": "RUA_SAO_MARTINHO678__CENTRO_14850-000", "LATITUDE": "-21.3596349", "LONGITUDE": "-48.070768", "LMAPS": "https://www.google.com/maps?q=&layer=c&cbll=-48.070768,-21.3596349", "O_QUE_FAZER": "CARTEIRA", "ER_REGIAO_CIDADE_min": "Pradópolis_Ribeirão Preto" }, "geometry": { "type": "Point", "coordinates": [ -48.070768, -21.3596349 ] } },
{ "type": "Feature", "properties": { "CNPJ": "13455130000160", "IDCIDADE": "PRADOPOLIS", "NOMEFANTASIA": "MEGALINK", "RAZAOSOCIAL": "MEGA_LINK_PROVEDOR_DE_INTERNET_-_LTDA", "ENDEE": "RUA_SAO_MARTINHO678__CENTRO_14850-000", "LATITUDE": "-21.3596876", "LONGITUDE": "-48.0707866", "LMAPS": "https://www.google.com/maps?q=&layer=c&cbll=-48.0707866,-21.3596876", "O_QUE_FAZER": "CARTEIRA", "ER_REGIAO_CIDADE_min": "Pradópolis_Ribeirão Preto" }, "geometry": { "type": "Point", "coordinates": [ -48.0707866, -21.3596876 ] } },
{ "type": "Feature", "properties": { "CNPJ": "31572963000193", "IDCIDADE": "PRADOPOLIS", "NOMEFANTASIA": "CLOSET", "RAZAOSOCIAL": "SUNARA_ALINE_MARQUES_22308801875", "ENDEE": "RUA_SAO_MARTINHO682__CENTRO_14850-000", "LATITUDE": "-21.3596912", "LONGITUDE": "-48.0707343", "LMAPS": "https://www.google.com/maps?q=&layer=c&cbll=-48.0707343,-21.3596912", "O_QUE_FAZER": "CARTEIRA", "ER_REGIAO_CIDADE_min": "Pradópolis_Ribeirão Preto" }, "geometry": { "type": "Point", "coordinates": [ -48.0707343, -21.3596912 ] } },
{ "type": "Feature", "properties": { "CNPJ": "51283849000150", "IDCIDADE": "PRADOPOLIS", "NOMEFANTASIA": "ALEATORY", "RAZAOSOCIAL": "J_E_F_O_COMERCIAL_LTDA", "ENDEE": "RUA_SAO_MARTINHO704__CENTRO_14850-000", "LATITUDE": "-21.35967", "LONGITUDE": "-48.0705282", "LMAPS": "https://www.google.com/maps?q=&layer=c&cbll=-48.0705282,-21.35967", "O_QUE_FAZER": "CARTEIRA", "ER_REGIAO_CIDADE_min": "Pradópolis_Ribeirão Preto" }, "geometry": { "type": "Point", "coordinates": [ -48.0705282, -21.35967 ] } },
{ "type": "Feature", "properties": { "CNPJ": "35815086000195", "IDCIDADE": "PRADOPOLIS", "NOMEFANTASIA": "MAMAE_E_BEBE_KIDS", "RAZAOSOCIAL": "DEGMAR_ALVES_DA_COSTA", "ENDEE": "RUA_SAO_MARTINHO708__CENTRO_14850-000", "LATITUDE": "-21.3597171", "LONGITUDE": "-48.0704959", "LMAPS": "https://www.google.com/maps?q=&layer=c&cbll=-48.0704959,-21.3597171", "O_QUE_FAZER": "CARTEIRA", "ER_REGIAO_CIDADE_min": "Pradópolis_Ribeirão Preto" }, "geometry": { "type": "Point", "coordinates": [ -48.0704959, -21.3597171 ] } },
{ "type": "Feature", "properties": { "CNPJ": "09220007000193", "IDCIDADE": "PRADOPOLIS", "NOMEFANTASIA": "VANNY_MODAS", "RAZAOSOCIAL": "ANGELA_&_ELIANA_CONFECCOES_LTDA", "ENDEE": "RUA_SAO_MARTINHO728__CENTRO_14850-000", "LATITUDE": "-21.3596635", "LONGITUDE": "-48.0704784", "LMAPS": "https://www.google.com/maps?q=&layer=c&cbll=-48.0704784,-21.3596635", "O_QUE_FAZER": "CARTEIRA", "ER_REGIAO_CIDADE_min": "Pradópolis_Ribeirão Preto" }, "geometry": { "type": "Point", "coordinates": [ -48.0704784, -21.3596635 ] } },
{ "type": "Feature", "properties": { "CNPJ": "40593016000170", "IDCIDADE": "PRADOPOLIS", "NOMEFANTASIA": "EMMELLY_GOMES", "RAZAOSOCIAL": "EMMELLY_MARIA_GOMES_DE_AGUIAR", "ENDEE": "RUA_SAO_MARTINHO742__CENTRO_14850-000", "LATITUDE": "-21.3597042", "LONGITUDE": "-48.0700932", "LMAPS": "https://www.google.com/maps?q=&layer=c&cbll=-48.0700932,-21.3597042", "O_QUE_FAZER": "CARTEIRA", "ER_REGIAO_CIDADE_min": "Pradópolis_Ribeirão Preto" }, "geometry": { "type": "Point", "coordinates": [ -48.0700932, -21.3597042 ] } },
{ "type": "Feature", "properties": { "CNPJ": "10765050000113", "IDCIDADE": "PRADOPOLIS", "NOMEFANTASIA": "CALCEVEST", "RAZAOSOCIAL": "CALCEVEST_CONFECCOES_PRADOPOLIS_LTDA.", "ENDEE": "RUA_SAO_MARTINHO760__CENTRO_14850-000", "LATITUDE": "-21.3597249", "LONGITUDE": "-48.0700625", "LMAPS": "https://www.google.com/maps?q=&layer=c&cbll=-48.0700625,-21.3597249", "O_QUE_FAZER": "CARTEIRA", "ER_REGIAO_CIDADE_min": "Pradópolis_Ribeirão Preto" }, "geometry": { "type": "Point", "coordinates": [ -48.0700625, -21.3597249 ] } },
{ "type": "Feature", "properties": { "CNPJ": "04916665000281", "IDCIDADE": "PRADOPOLIS", "NOMEFANTASIA": "CERTEZA_BABY", "RAZAOSOCIAL": "CERTEZA_UNI_MAGAZINE_LTDA", "ENDEE": "RUA_SAO_MARTINHO783__CENTRO_14850-000", "LATITUDE": "-21.3595633", "LONGITUDE": "-48.06966", "LMAPS": "https://www.google.com/maps?q=&layer=c&cbll=-48.06966,-21.3595633", "O_QUE_FAZER": "CARTEIRA", "ER_REGIAO_CIDADE_min": "Pradópolis_Ribeirão Preto" }, "geometry": { "type": "Point", "coordinates": [ -48.06966, -21.3595633 ] } },
{ "type": "Feature", "properties": { "CNPJ": "69071702000162", "IDCIDADE": "PRADOPOLIS", "NOMEFANTASIA": "PEDRINHO_GAS", "RAZAOSOCIAL": "APARECIDO_CARLOS_DE_SOUZA_&_CIA._LTDA", "ENDEE": "RUA_SAO_MARTINHO798__CENTRO_14850-000", "LATITUDE": "-21.3598426", "LONGITUDE": "-48.0695445", "LMAPS": "https://www.google.com/maps?q=&layer=c&cbll=-48.0695445,-21.3598426", "O_QUE_FAZER": "CARTEIRA", "ER_REGIAO_CIDADE_min": "Pradópolis_Ribeirão Preto" }, "geometry": { "type": "Point", "coordinates": [ -48.0695445, -21.3598426 ] } },
{ "type": "Feature", "properties": { "CNPJ": "09580407000100", "IDCIDADE": "PRADOPOLIS", "NOMEFANTASIA": "DOCE_SAL_BISTRO", "RAZAOSOCIAL": "HERRERA_&_VALENTE_LTDA", "ENDEE": "RUA_SAO_MARTINHO807__CENTRO_14850-000", "LATITUDE": "-21.3598003", "LONGITUDE": "-48.0695485", "LMAPS": "https://www.google.com/maps?q=&layer=c&cbll=-48.0695485,-21.3598003", "O_QUE_FAZER": "CARTEIRA", "ER_REGIAO_CIDADE_min": "Pradópolis_Ribeirão Preto" }, "geometry": { "type": "Point", "coordinates": [ -48.0695485, -21.3598003 ] } },
{ "type": "Feature", "properties": { "CNPJ": "03958648000163", "IDCIDADE": "PRADOPOLIS", "NOMEFANTASIA": "JJ_CASA_DE_PAES_E_DOCES", "RAZAOSOCIAL": "J.J._CASA_DE_PAES_ESPECIAIS_LTDA", "ENDEE": "RUA_SAO_MARTINHO822__CENTRO_14850-000", "LATITUDE": "-21.359891", "LONGITUDE": "-48.0693655", "LMAPS": "https://www.google.com/maps?q=&layer=c&cbll=-48.0693655,-21.359891", "O_QUE_FAZER": "CARTEIRA", "ER_REGIAO_CIDADE_min": "Pradópolis_Ribeirão Preto" }, "geometry": { "type": "Point", "coordinates": [ -48.0693655, -21.359891 ] } },
{ "type": "Feature", "properties": { "CNPJ": "37302743000126", "IDCIDADE": "PRADOPOLIS", "NOMEFANTASIA": "HARMONIS", "RAZAOSOCIAL": "HARMONIS_-_CLINICA_DE_ESTETICA_AVANCADA_&_SAUDE_LTDA", "ENDEE": "RUA_SAO_MARTINHO833__CENTRO_14850-000", "LATITUDE": "-21.3599055", "LONGITUDE": "-48.0693241", "LMAPS": "https://www.google.com/maps?q=&layer=c&cbll=-48.0693241,-21.3599055", "O_QUE_FAZER": "CARTEIRA", "ER_REGIAO_CIDADE_min": "Pradópolis_Ribeirão Preto" }, "geometry": { "type": "Point", "coordinates": [ -48.0693241, -21.3599055 ] } },
{ "type": "Feature", "properties": { "CNPJ": "36209243000181", "IDCIDADE": "PRADOPOLIS", "NOMEFANTASIA": "CHIQUITOS_BEER_SHOP", "RAZAOSOCIAL": "DEPOSITO_MENOSSI_LTDA", "ENDEE": "RUA_SAO_MARTINHO842__CENTRO_14850-000", "LATITUDE": "-21.3598896", "LONGITUDE": "-48.0692734", "LMAPS": "https://www.google.com/maps?q=&layer=c&cbll=-48.0692734,-21.3598896", "O_QUE_FAZER": "CARTEIRA", "ER_REGIAO_CIDADE_min": "Pradópolis_Ribeirão Preto" }, "geometry": { "type": "Point", "coordinates": [ -48.0692734, -21.3598896 ] } },
{ "type": "Feature", "properties": { "CNPJ": "47507701000185", "IDCIDADE": "PRADOPOLIS", "NOMEFANTASIA": "CACAU_SHOW", "RAZAOSOCIAL": "LISA_ALMEIDA_DOCES_E_CHOCOLATES_LTDA", "ENDEE": "RUA_SAO_MARTINHO845__CENTRO_14850-000", "LATITUDE": "-21.3597089", "LONGITUDE": "-48.0692689", "LMAPS": "https://www.google.com/maps?q=&layer=c&cbll=-48.0692689,-21.3597089", "O_QUE_FAZER": "CARTEIRA", "ER_REGIAO_CIDADE_min": "Pradópolis_Ribeirão Preto" }, "geometry": { "type": "Point", "coordinates": [ -48.0692689, -21.3597089 ] } },
{ "type": "Feature", "properties": { "CNPJ": "34535988000105", "IDCIDADE": "PRADOPOLIS", "NOMEFANTASIA": "PINK_COSMETICOS", "RAZAOSOCIAL": "JR_DE_MACEDO_COSMETICOS", "ENDEE": "RUA_SAO_MARTINHO894__CENTRO_14850-000", "LATITUDE": "-21.3600418", "LONGITUDE": "-48.0687854", "LMAPS": "https://www.google.com/maps?q=&layer=c&cbll=-48.0687854,-21.3600418", "O_QUE_FAZER": "CARTEIRA", "ER_REGIAO_CIDADE_min": "Pradópolis_Ribeirão Preto" }, "geometry": { "type": "Point", "coordinates": [ -48.0687854, -21.3600418 ] } },
{ "type": "Feature", "properties": { "CNPJ": "31305910000106", "IDCIDADE": "PRADOPOLIS", "NOMEFANTASIA": "SORVETERIA_CREMOSO", "RAZAOSOCIAL": "MARCELO_FERNANDO_BLANCO", "ENDEE": "RUA_SAO_MARTINHO902__CENTRO_14850-000", "LATITUDE": "-21.3599502", "LONGITUDE": "-48.0686069", "LMAPS": "https://www.google.com/maps?q=&layer=c&cbll=-48.0686069,-21.3599502", "O_QUE_FAZER": "CARTEIRA", "ER_REGIAO_CIDADE_min": "Pradópolis_Ribeirão Preto" }, "geometry": { "type": "Point", "coordinates": [ -48.0686069, -21.3599502 ] } },
{ "type": "Feature", "properties": { "CNPJ": "10218366000195", "IDCIDADE": "PRADOPOLIS", "NOMEFANTASIA": "BELA_BELINHA", "RAZAOSOCIAL": "MARCHETTI_COMERCIO_E_SERVICOS_LTDA", "ENDEE": "RUA_SAO_MARTINHO915__CENTRO_14850-000", "LATITUDE": "-21.3600324", "LONGITUDE": "-48.0685304", "LMAPS": "https://www.google.com/maps?q=&layer=c&cbll=-48.0685304,-21.3600324", "O_QUE_FAZER": "CARTEIRA", "ER_REGIAO_CIDADE_min": "Pradópolis_Ribeirão Preto" }, "geometry": { "type": "Point", "coordinates": [ -48.0685304, -21.3600324 ] } },
{ "type": "Feature", "properties": { "CNPJ": "00014916000109", "IDCIDADE": "PRADOPOLIS", "NOMEFANTASIA": "JN_MOVEIS", "RAZAOSOCIAL": "JN_MOVEIS_E_ELETRODOMESTICOS_PRADOPOLIS_LTDA", "ENDEE": "RUA_SAO_MARTINHO922__CENTRO_14850-000", "LATITUDE": "-21.3600268", "LONGITUDE": "-48.0683695", "LMAPS": "https://www.google.com/maps?q=&layer=c&cbll=-48.0683695,-21.3600268", "O_QUE_FAZER": "CARTEIRA", "ER_REGIAO_CIDADE_min": "Pradópolis_Ribeirão Preto" }, "geometry": { "type": "Point", "coordinates": [ -48.0683695, -21.3600268 ] } },
{ "type": "Feature", "properties": { "CNPJ": "59707646000156", "IDCIDADE": "PRADOPOLIS", "NOMEFANTASIA": "ESPACO_GREEN_SIDE", "RAZAOSOCIAL": "ANDREIA_APARECIDA_RODRIGUES_ARROIO_&_CIA_LTDA", "ENDEE": "RUA_SAO_MARTINHO932__CENTRO_14850-000", "LATITUDE": "-21.3599941", "LONGITUDE": "-48.0685322", "LMAPS": "https://www.google.com/maps?q=&layer=c&cbll=-48.0685322,-21.3599941", "O_QUE_FAZER": "CARTEIRA", "ER_REGIAO_CIDADE_min": "Pradópolis_Ribeirão Preto" }, "geometry": { "type": "Point", "coordinates": [ -48.0685322, -21.3599941 ] } },
{ "type": "Feature", "properties": { "CNPJ": "46736252000184", "IDCIDADE": "PRADOPOLIS", "NOMEFANTASIA": "GIMENEZ_MODA_INFANTIL", "RAZAOSOCIAL": "ANDRE_GIMENEZ", "ENDEE": "RUA_SAO_MARTINHO961__CENTRO_14850-000", "LATITUDE": "-21.3602233", "LONGITUDE": "-48.068253", "LMAPS": "https://www.google.com/maps?q=&layer=c&cbll=-48.068253,-21.3602233", "O_QUE_FAZER": "CARTEIRA", "ER_REGIAO_CIDADE_min": "Pradópolis_Ribeirão Preto" }, "geometry": { "type": "Point", "coordinates": [ -48.068253, -21.3602233 ] } },
{ "type": "Feature", "properties": { "CNPJ": "22685124000190", "IDCIDADE": "PRADOPOLIS", "NOMEFANTASIA": "NEMAG", "RAZAOSOCIAL": "NEMAG_ASSESSORIA_ADMINISTRATIVA_LTDA", "ENDEE": "RUA_SAO_MARTINHO965__CENTRO_14850-000", "LATITUDE": "-21.3600282", "LONGITUDE": "-48.0681532", "LMAPS": "https://www.google.com/maps?q=&layer=c&cbll=-48.0681532,-21.3600282", "O_QUE_FAZER": "CARTEIRA", "ER_REGIAO_CIDADE_min": "Pradópolis_Ribeirão Preto" }, "geometry": { "type": "Point", "coordinates": [ -48.0681532, -21.3600282 ] } },
{ "type": "Feature", "properties": { "CNPJ": "10218800000137", "IDCIDADE": "PRADOPOLIS", "NOMEFANTASIA": "MASSOU_MASSAS", "RAZAOSOCIAL": "MARCOS_ANSELMO_MARTINS_&_MARTINS_LTDA", "ENDEE": "RUA_SAO_MARTINHO969__CENTRO_14850-000", "LATITUDE": "-21.36017", "LONGITUDE": "-48.0681483", "LMAPS": "https://www.google.com/maps?q=&layer=c&cbll=-48.0681483,-21.36017", "O_QUE_FAZER": "CARTEIRA", "ER_REGIAO_CIDADE_min": "Pradópolis_Ribeirão Preto" }, "geometry": { "type": "Point", "coordinates": [ -48.0681483, -21.36017 ] } },
{ "type": "Feature", "properties": { "CNPJ": "05408254000167", "IDCIDADE": "PRADOPOLIS", "NOMEFANTASIA": "BAR_E_PASTELARIA_SAO_PEDRO", "RAZAOSOCIAL": "MARIA_HELENA_FONZAR_DA_SILVA", "ENDEE": "RUA_SAO_MARTINHO988__CENTRO_14850-000", "LATITUDE": "-21.3600713", "LONGITUDE": "-48.0681587", "LMAPS": "https://www.google.com/maps?q=&layer=c&cbll=-48.0681587,-21.3600713", "O_QUE_FAZER": "CARTEIRA", "ER_REGIAO_CIDADE_min": "Pradópolis_Ribeirão Preto" }, "geometry": { "type": "Point", "coordinates": [ -48.0681587, -21.3600713 ] } },
{ "type": "Feature", "properties": { "CNPJ": "28212830000100", "IDCIDADE": "PRADOPOLIS", "NOMEFANTASIA": "LA_FORA_BURGUER", "RAZAOSOCIAL": "R._DE_C._MARTINS_LANCHONETE", "ENDEE": "RUA_SP-291594__CENTRO_14850-000", "LATITUDE": "-21.3594067", "LONGITUDE": "-48.0687083", "LMAPS": "https://www.google.com/maps?q=&layer=c&cbll=-48.0687083,-21.3594067", "O_QUE_FAZER": "CARTEIRA", "ER_REGIAO_CIDADE_min": "Pradópolis_Ribeirão Preto" }, "geometry": { "type": "Point", "coordinates": [ -48.0687083, -21.3594067 ] } }
]
}
