{
"type": "FeatureCollection",
"name": "ER_REGIAO_CIDADE_min_Itanhaém_Baixada Santista",
"crs": { "type": "name", "properties": { "name": "urn:ogc:def:crs:OGC:1.3:CRS84" } },
"xy_coordinate_resolution": 1e-15,
"features": [
{ "type": "Feature", "properties": { "fid": 10400, "CNPJ": "02135435000179", "IDCIDADE": "ITANHAEM", "NOMEFANTASIA": null, "RAZAOSOCIAL": "D'BARRO_MATERIAIS_PARA_CONSTRUCAO_LTDA", "ENDEE": "RUA JOSE ERNESTO BECHELLI, 1627, JARDIM SABAUNA, 11740-000, ITANHAÉM, SP, BRASIL", "LMAPS": "https://www.google.com/maps?q=&layer=c&cbll=-24.1827287,-46.815386", "O_QUE_FAZER": "CARTEIRA - FAMPE", "ER_REGIAO_CIDADE_min": "Itanhaém_Baixada Santista" }, "geometry": { "type": "Point", "coordinates": [ -46.815386, -24.1827287 ] } },
{ "type": "Feature", "properties": { "fid": 11569, "CNPJ": "02364901000198", "IDCIDADE": "ITANHAEM", "NOMEFANTASIA": "TSUKADA_COMERCIO_DE_MATERIAIS_PARA_CONSTRUCAO", "RAZAOSOCIAL": "CRISTINA_MIYUKI_TSUKADA", "ENDEE": "AVENIDA CLARA MARTINS ZWARG, 1413, JARDIM BOPIRANGA, 11740000, ITANHAÉM, SP, BRASIL", "LMAPS": "https://www.google.com/maps?q=&layer=c&cbll=-24.217308,-46.8696163", "O_QUE_FAZER": "CARTEIRA - FAMPE", "ER_REGIAO_CIDADE_min": "Itanhaém_Baixada Santista" }, "geometry": { "type": "Point", "coordinates": [ -46.8696163, -24.217308 ] } },
{ "type": "Feature", "properties": { "fid": 13724, "CNPJ": "02777842000180", "IDCIDADE": "ITANHAEM", "NOMEFANTASIA": "LOCACAMBA", "RAZAOSOCIAL": "LOCACAMBA_COMERCIO_E_LOCACAO_LTDA", "ENDEE": "AVENIDA MARGINAL, 23, SALA 2, VILA SAO PAULO, 11740-124, ITANHAÉM, SP, BRASIL", "LMAPS": "https://www.google.com/maps?q=&layer=c&cbll=-24.1746428,-46.7811214", "O_QUE_FAZER": "CARTEIRA - FAMPE", "ER_REGIAO_CIDADE_min": "Itanhaém_Baixada Santista" }, "geometry": { "type": "Point", "coordinates": [ -46.7811214, -24.1746428 ] } },
{ "type": "Feature", "properties": { "fid": 30182, "CNPJ": "05300028000168", "IDCIDADE": "ITANHAEM", "NOMEFANTASIA": "EXFAIR.IO", "RAZAOSOCIAL": "FAIR_NETWORK_LTDA", "ENDEE": "RUA GUILHERME ROBERTO DA COSTA, 202, CIBRATEL I, 11746-184, ITANHAÉM, SP, BRASIL", "LMAPS": "https://www.google.com/maps?q=&layer=c&cbll=-24.1991202,-46.8101694", "O_QUE_FAZER": "CARTEIRA - FAMPE", "ER_REGIAO_CIDADE_min": "Itanhaém_Baixada Santista" }, "geometry": { "type": "Point", "coordinates": [ -46.8101694, -24.1991202 ] } },
{ "type": "Feature", "properties": { "fid": 38681, "CNPJ": "06949525000154", "IDCIDADE": "ITANHAEM", "NOMEFANTASIA": "CAMBORIÚ DEPÓSITO", "RAZAOSOCIAL": "CAMBURIU_MATERIAIS_ELETRICOS_E_HIDRAULICOS_LTDA", "ENDEE": "AVENIDA SOROCABANA, 1460, ESTANCIA BALNEARIA DE ITANHAEM, 11740000, ITANHAÉM, SP, BRASIL", "LMAPS": "https://www.google.com/maps?q=&layer=c&cbll=-24.2052381,-46.833558", "O_QUE_FAZER": "CARTEIRA - FAMPE", "ER_REGIAO_CIDADE_min": "Itanhaém_Baixada Santista" }, "geometry": { "type": "Point", "coordinates": [ -46.833558, -24.2052381 ] } },
{ "type": "Feature", "properties": { "fid": 39933, "CNPJ": "07100923000164", "IDCIDADE": "ITANHAEM", "NOMEFANTASIA": "POUSADA_CANUTO", "RAZAOSOCIAL": "ANDRE_OLIVEIRA_CANUTO_POUSADA", "ENDEE": "RUA RAYMUNDO BAPTISTA DE ANDRADE, 646, JARDIM ITANHAEM, 11740-000, ITANHAÉM, SP, BRASIL", "LMAPS": "https://www.google.com/maps?q=&layer=c&cbll=-24.225082,-46.8840549", "O_QUE_FAZER": "CARTEIRA - FAMPE", "ER_REGIAO_CIDADE_min": "Itanhaém_Baixada Santista" }, "geometry": { "type": "Point", "coordinates": [ -46.8840549, -24.225082 ] } },
{ "type": "Feature", "properties": { "fid": 41247, "CNPJ": "07266884000170", "IDCIDADE": "ITANHAEM", "NOMEFANTASIA": "LM_SPORTS", "RAZAOSOCIAL": "A_B_SOLUCOES_E_SERVICOS_LTDA", "ENDEE": "AVENIDA JOAO BATISTA LEAL, S/N, CENTRO, 11740004, ITANHAÉM, SP, BRASIL", "LMAPS": "https://www.google.com/maps?q=&layer=c&cbll=-24.1854391,-46.7928616", "O_QUE_FAZER": "CARTEIRA - FAMPE", "ER_REGIAO_CIDADE_min": "Itanhaém_Baixada Santista" }, "geometry": { "type": "Point", "coordinates": [ -46.7928616, -24.1854391 ] } },
{ "type": "Feature", "properties": { "fid": 49345, "CNPJ": "08291707000106", "IDCIDADE": "ITANHAEM", "NOMEFANTASIA": "SUPERMERCADO_GIRASSOL", "RAZAOSOCIAL": "SONIA_M_DA_SILVA_MERCADO", "ENDEE": "AVENIDA_FLACIDES_FERREIRA605__BALNEARIO_GAIVOTA_11740-000", "LMAPS": "https://www.google.com/maps?q=&layer=c&cbll=-24.2406597,-46.8941966", "O_QUE_FAZER": "CARTEIRA", "ER_REGIAO_CIDADE_min": "Itanhaém_Baixada Santista" }, "geometry": { "type": "Point", "coordinates": [ -46.8941966, -24.2406597 ] } },
{ "type": "Feature", "properties": { "fid": 50037, "CNPJ": "08387808000185", "IDCIDADE": "ITANHAEM", "NOMEFANTASIA": "Lenharte", "RAZAOSOCIAL": "WAGNER_BAPTISTA_MIRANDA_MARCENARIA", "ENDEE": "RUA PIRATININGA, 22, PRAIA DO SONHO, 11740-000, ITANHAÉM, SP, BRASIL", "LMAPS": "https://www.google.com/maps?q=&layer=c&cbll=-24.1964692,-46.8031105", "O_QUE_FAZER": "CARTEIRA - FAMPE", "ER_REGIAO_CIDADE_min": "Itanhaém_Baixada Santista" }, "geometry": { "type": "Point", "coordinates": [ -46.8031105, -24.1964692 ] } },
{ "type": "Feature", "properties": { "fid": 64814, "CNPJ": "10658693000168", "IDCIDADE": "ITANHAEM", "NOMEFANTASIA": "AVICULTURA_BOM_PASTOR_IV", "RAZAOSOCIAL": "WALMIR_CAVALHEIRO", "ENDEE": "AVENIDA FLACIDES FERREIRA, 668, GAIVOTA (PRAIA), 11754646, ITANHAÉM, SP, BRASIL", "LMAPS": "https://www.google.com/maps?q=&layer=c&cbll=-24.2401259,-46.8948535", "O_QUE_FAZER": "CARTEIRA - FAMPE", "ER_REGIAO_CIDADE_min": "Itanhaém_Baixada Santista" }, "geometry": { "type": "Point", "coordinates": [ -46.8948535, -24.2401259 ] } },
{ "type": "Feature", "properties": { "fid": 72518, "CNPJ": "11580089000129", "IDCIDADE": "ITANHAEM", "NOMEFANTASIA": null, "RAZAOSOCIAL": "SOL_PISCINAS_COMERCIO_E_SERVICOS_LTDA", "ENDEE": "RUA ANA MARIA MARTINS RIVERA, 721, QUADRAB LOTE 3-PARTE, JARDIM IEDA, 11740-000, ITANHAÉM, SP, BRASIL", "LMAPS": "https://www.google.com/maps?q=&layer=c&cbll=-24.189459,-46.8230324", "O_QUE_FAZER": "CARTEIRA - FAMPE", "ER_REGIAO_CIDADE_min": "Itanhaém_Baixada Santista" }, "geometry": { "type": "Point", "coordinates": [ -46.8230324, -24.189459 ] } },
{ "type": "Feature", "properties": { "fid": 72861, "CNPJ": "11634371000141", "IDCIDADE": "ITANHAEM", "NOMEFANTASIA": "AGRO_SAO_FRANCISCO", "RAZAOSOCIAL": "JANAINA_CRISTINA_DIAS", "ENDEE": "AVENIDA_211680__ESTANCIA_SAO_PEDRO_11740-000", "LMAPS": "https://www.google.com/maps?q=&layer=c&cbll=-24.2335001,-46.9013987", "O_QUE_FAZER": "CARTEIRA", "ER_REGIAO_CIDADE_min": "Itanhaém_Baixada Santista" }, "geometry": { "type": "Point", "coordinates": [ -46.9013987, -24.2335001 ] } },
{ "type": "Feature", "properties": { "fid": 79495, "CNPJ": "12838598000171", "IDCIDADE": "ITANHAEM", "NOMEFANTASIA": "RFL_INFORMATICA", "RAZAOSOCIAL": "RAFAEL_BEZERRA_SANTOS", "ENDEE": "AVENIDA_FLACIDES_FERREIRA788__BALNEARIO_GAIVOTA_11740-000", "LMAPS": "https://www.google.com/maps?q=&layer=c&cbll=-24.239291,-46.8958945", "O_QUE_FAZER": "CARTEIRA", "ER_REGIAO_CIDADE_min": "Itanhaém_Baixada Santista" }, "geometry": { "type": "Point", "coordinates": [ -46.8958945, -24.239291 ] } },
{ "type": "Feature", "properties": { "fid": 81943, "CNPJ": "13329121000123", "IDCIDADE": "ITANHAEM", "NOMEFANTASIA": "A_Toca_dos_Colchoes", "RAZAOSOCIAL": "A_TOCA_DOS_COLCHOES_LTDA", "ENDEE": "PRACA PIO XII, 22, CENTRO, 11740-000, ITANHAÉM, SP, BRASIL", "LMAPS": "https://www.google.com/maps?q=&layer=c&cbll=-24.1654595,-46.7581444", "O_QUE_FAZER": "APLICAR T2", "ER_REGIAO_CIDADE_min": "Itanhaém_Baixada Santista" }, "geometry": { "type": "Point", "coordinates": [ -46.7581444, -24.1654595 ] } },
{ "type": "Feature", "properties": { "fid": 82470, "CNPJ": "13417490000178", "IDCIDADE": "ITANHAEM", "NOMEFANTASIA": "REUNIDAS_REPRESENTACAO", "RAZAOSOCIAL": "REUNIDAS_REPRESENTACAO_LTDA", "ENDEE": "RUA PADRE AFONSO MARIA RATISBONE, 4126, VILA SUARAO, 11740-734, ITANHAÉM, SP, BRASIL", "LMAPS": "https://www.google.com/maps?q=&layer=c&cbll=-24.1626084,-46.7548813", "O_QUE_FAZER": "FINALIZADO", "ER_REGIAO_CIDADE_min": "Itanhaém_Baixada Santista" }, "geometry": { "type": "Point", "coordinates": [ -46.7548813, -24.1626084 ] } },
{ "type": "Feature", "properties": { "fid": 84516, "CNPJ": "13780829000104", "IDCIDADE": "ITANHAEM", "NOMEFANTASIA": "SUPERFASBRAS", "RAZAOSOCIAL": "LUAN_GARCEZ_SEGURA", "ENDEE": "AVENIDA_FLACIDES_FERREIRA540__BALNEARIO_GAIVOTA_11740-000", "LMAPS": "https://www.google.com/maps?q=&layer=c&cbll=-24.2408494,-46.8937998", "O_QUE_FAZER": "CARTEIRA", "ER_REGIAO_CIDADE_min": "Itanhaém_Baixada Santista" }, "geometry": { "type": "Point", "coordinates": [ -46.8937998, -24.2408494 ] } },
{ "type": "Feature", "properties": { "fid": 88493, "CNPJ": "14583350000132", "IDCIDADE": "ITANHAEM", "NOMEFANTASIA": "BLOCOMAD_MATERIAIS", "RAZAOSOCIAL": "OMS_CONSTRUCAO_E_FERRAGENS_LTDA", "ENDEE": "RUA TAPAJOS, 74, TUPY, 11749-148, ITANHAÉM, SP, BRASIL", "LMAPS": "https://www.google.com/maps?q=&layer=c&cbll=-24.2097402,-46.844913", "O_QUE_FAZER": "CARTEIRA - FAMPE", "ER_REGIAO_CIDADE_min": "Itanhaém_Baixada Santista" }, "geometry": { "type": "Point", "coordinates": [ -46.844913, -24.2097402 ] } },
{ "type": "Feature", "properties": { "fid": 103586, "CNPJ": "18344065000110", "IDCIDADE": "ITANHAEM", "NOMEFANTASIA": "FARMACIA_LOTY_POUPA_VIDA", "RAZAOSOCIAL": "DROGARIA_SAUDE_LOTY_LTDA", "ENDEE": "AVENIDA MARGINAL OESTE, 8187, LOTY, 11741394, ITANHAÉM, SP, BRASIL", "LMAPS": "https://www.google.com/maps?q=&layer=c&cbll=-24.1518919,-46.7356621", "O_QUE_FAZER": "CARTEIRA - FAMPE", "ER_REGIAO_CIDADE_min": "Itanhaém_Baixada Santista" }, "geometry": { "type": "Point", "coordinates": [ -46.7356621, -24.1518919 ] } },
{ "type": "Feature", "properties": { "fid": 104616, "CNPJ": "18571183000160", "IDCIDADE": "ITANHAEM", "NOMEFANTASIA": "MANE_TERRAPLANAGEM", "RAZAOSOCIAL": "MANE_TERRAPLANAGEM_LTDA", "ENDEE": "AVENIDA ESTADOS UNIDOS, 1415, CIBRATEL II, 11746-366, ITANHAÉM, SP, BRASIL", "LMAPS": "https://www.google.com/maps?q=&layer=c&cbll=-24.1888975,-46.8255988", "O_QUE_FAZER": "CARTEIRA - FAMPE", "ER_REGIAO_CIDADE_min": "Itanhaém_Baixada Santista" }, "geometry": { "type": "Point", "coordinates": [ -46.8255988, -24.1888975 ] } },
{ "type": "Feature", "properties": { "fid": 106992, "CNPJ": "19064234000120", "IDCIDADE": "ITANHAEM", "NOMEFANTASIA": "COLEGIO_11_DE_NOVEMBRO", "RAZAOSOCIAL": "COLEGIO_11_DE_NOVEMBRO_DE_ITANHAEM_LTDA", "ENDEE": "RUA ANA DE MATTOS MEIRA, 200, CENTRO - SUBDIV. SEMIN. C. IMAC. CONCEICAO IPIRANG, 11740-102, ITANHAÉM, SP, BRASIL", "LMAPS": "https://www.google.com/maps?q=&layer=c&cbll=-24.1783305,-46.7765233", "O_QUE_FAZER": "CARTEIRA - FAMPE", "ER_REGIAO_CIDADE_min": "Itanhaém_Baixada Santista" }, "geometry": { "type": "Point", "coordinates": [ -46.7765233, -24.1783305 ] } },
{ "type": "Feature", "properties": { "fid": 117196, "CNPJ": "21365270000176", "IDCIDADE": "ITANHAEM", "NOMEFANTASIA": "CHILLI_BEANS", "RAZAOSOCIAL": "MARQUES_&_FERNANDES_LTDA", "ENDEE": "RUA JOAO MARIANO, 193, CENTRO, 11740000, ITANHAÉM, SP, BRASIL", "LMAPS": "https://www.google.com/maps?q=&layer=c&cbll=-24.1839673,-46.7876864", "O_QUE_FAZER": "CARTEIRA - FAMPE", "ER_REGIAO_CIDADE_min": "Itanhaém_Baixada Santista" }, "geometry": { "type": "Point", "coordinates": [ -46.7876864, -24.1839673 ] } },
{ "type": "Feature", "properties": { "fid": 123591, "CNPJ": "22729043000145", "IDCIDADE": "ITANHAEM", "NOMEFANTASIA": "DU'_CARRETAS", "RAZAOSOCIAL": "LUCIANO_DE_SOUZA_SILVA_-_REBOQUES_E_ACESSORIOS", "ENDEE": "RUA CARDEAL MOTA, 30, VILA JACY, 11740000, ITANHAÉM, SP, BRASIL", "LMAPS": "https://www.google.com/maps?q=&layer=c&cbll=-24.1639184,-46.7595845", "O_QUE_FAZER": "CARTEIRA - FAMPE", "ER_REGIAO_CIDADE_min": "Itanhaém_Baixada Santista" }, "geometry": { "type": "Point", "coordinates": [ -46.7595845, -24.1639184 ] } },
{ "type": "Feature", "properties": { "fid": 127116, "CNPJ": "23493484000153", "IDCIDADE": "ITANHAEM", "NOMEFANTASIA": "Vivere_Massas_&_Embutidos_Artesanais", "RAZAOSOCIAL": "VIVERE_MASSAS_&_EMBUTIDOS_ARTESANAIS_LTDA", "ENDEE": "AVENIDA HARRY FORSSELL, 1480, CONJ LOJA 05, JARDIM SABAUNA, 11740-000, ITANHAÉM, SP, BRASIL", "LMAPS": "https://www.google.com/maps?q=&layer=c&cbll=-24.178348,-46.778523", "O_QUE_FAZER": "CARTEIRA - FAMPE", "ER_REGIAO_CIDADE_min": "Itanhaém_Baixada Santista" }, "geometry": { "type": "Point", "coordinates": [ -46.778523, -24.178348 ] } },
{ "type": "Feature", "properties": { "fid": 133935, "CNPJ": "24886899000150", "IDCIDADE": "ITANHAEM", "NOMEFANTASIA": "-", "RAZAOSOCIAL": "24.886.899_MARIA_IZABEL_ARAUJO_BENTO", "ENDEE": "RUA JOSE MANOEL LORENZO LEIRO, 704, NOSSA SENHORA DO SION, 11742-456, ITANHAÉM, SP, BRASIL", "LMAPS": "https://www.google.com/maps?q=&layer=c&cbll=-24.1620302,-46.7650742", "O_QUE_FAZER": "CARTEIRA - FAMPE", "ER_REGIAO_CIDADE_min": "Itanhaém_Baixada Santista" }, "geometry": { "type": "Point", "coordinates": [ -46.7650742, -24.1620302 ] } },
{ "type": "Feature", "properties": { "fid": 135267, "CNPJ": "25120581000126", "IDCIDADE": "ITANHAEM", "NOMEFANTASIA": "STUDIO_21", "RAZAOSOCIAL": "STUDIO_21_LTDA", "ENDEE": "AVENIDA RUI BARBOSA, 780, CENTRO, 11740000, ITANHAÉM, SP, BRASIL", "LMAPS": "https://www.google.com/maps?q=&layer=c&cbll=-24.1801128,-46.7813534", "O_QUE_FAZER": "CARTEIRA - FAMPE", "ER_REGIAO_CIDADE_min": "Itanhaém_Baixada Santista" }, "geometry": { "type": "Point", "coordinates": [ -46.7813534, -24.1801128 ] } },
{ "type": "Feature", "properties": { "fid": 135567, "CNPJ": "25181115000150", "IDCIDADE": "ITANHAEM", "NOMEFANTASIA": "25.181.115_LUIZ_GUSTAVO_GOMES_DA_SILVA", "RAZAOSOCIAL": "LUIZ_GUSTAVO_GOMES_DA_SILVA", "ENDEE": "RUA_ITANHAEM1551__CENTRO_11740-000", "LMAPS": "https://www.google.com/maps?q=&layer=c&cbll=-24.1838223,-46.7853417", "O_QUE_FAZER": "FINALIZADO", "ER_REGIAO_CIDADE_min": "Itanhaém_Baixada Santista" }, "geometry": { "type": "Point", "coordinates": [ -46.7853417, -24.1838223 ] } },
{ "type": "Feature", "properties": { "fid": 137588, "CNPJ": "26132273000183", "IDCIDADE": "ITANHAEM", "NOMEFANTASIA": "CAFE_MINEIRO_ITANHAEM_LTDA", "RAZAOSOCIAL": "CAFE_MINEIRO", "ENDEE": "AVENIDA_WASHINGTON_LUIZ40__CENTRO_11740-000", "LMAPS": "https://www.google.com/maps?q=&layer=c&cbll=-24.1851992,-46.7890098", "O_QUE_FAZER": "FINALIZADO", "ER_REGIAO_CIDADE_min": "Itanhaém_Baixada Santista" }, "geometry": { "type": "Point", "coordinates": [ -46.7890098, -24.1851992 ] } },
{ "type": "Feature", "properties": { "fid": 138016, "CNPJ": "26211161000118", "IDCIDADE": "ITANHAEM", "NOMEFANTASIA": "LUIZ_TADEU_AUGUSTO_NACCARATO_30822834898", "RAZAOSOCIAL": "LUIZ_TADEU_AUGUSTO_NACCARATO", "ENDEE": "RUA_MINAS_GERAIS194__CIBRATEL_2_11740-000", "LMAPS": "https://www.google.com/maps?q=&layer=c&cbll=-24.2033919,-46.825", "O_QUE_FAZER": "FINALIZADO", "ER_REGIAO_CIDADE_min": "Itanhaém_Baixada Santista" }, "geometry": { "type": "Point", "coordinates": [ -46.825, -24.2033919 ] } },
{ "type": "Feature", "properties": { "fid": 139987, "CNPJ": "26578382000129", "IDCIDADE": "ITANHAEM", "NOMEFANTASIA": "MERCADO_URBANO", "RAZAOSOCIAL": "MERCADO_URBANO_MODA_PRAIA_LTDA", "ENDEE": "AVENIDA SOROCABANA, 5565, BALNEARIO JD DE ITANHAEM, 11740-000, ITANHAÉM, SP, BRASIL", "LMAPS": "https://www.google.com/maps?q=&layer=c&cbll=-24.212733,-46.8470241", "O_QUE_FAZER": "CARTEIRA - FAMPE", "ER_REGIAO_CIDADE_min": "Itanhaém_Baixada Santista" }, "geometry": { "type": "Point", "coordinates": [ -46.8470241, -24.212733 ] } },
{ "type": "Feature", "properties": { "fid": 140333, "CNPJ": "26636454000147", "IDCIDADE": "ITANHAEM", "NOMEFANTASIA": "-", "RAZAOSOCIAL": "26.636.454_LEANDRO_JESUS_DOS_SANTOS", "ENDEE": "RUA JOSE ROSSMANN FILHO, 40, PRAIA DOS SONHOS, 11746-020, ITANHAÉM, SP, BRASIL", "LMAPS": "https://www.google.com/maps?q=&layer=c&cbll=-24.189843,-46.7980566", "O_QUE_FAZER": "CARTEIRA - FAMPE", "ER_REGIAO_CIDADE_min": "Itanhaém_Baixada Santista" }, "geometry": { "type": "Point", "coordinates": [ -46.7980566, -24.189843 ] } },
{ "type": "Feature", "properties": { "fid": 140466, "CNPJ": "26664341000155", "IDCIDADE": "PIACATU", "NOMEFANTASIA": null, "RAZAOSOCIAL": "ATITUDE_PARA_VOAR_ESCOLA_DE_PARAMOTOR_LTDA", "ENDEE": "AVENIDA_GOVERNADOR MARIO COVAS JÚNIOR_2262_TUPY_11740-000_PIACATU", "LMAPS": "https://www.google.com/maps?q=&layer=c&cbll=-24.2148586,-46.8422632", "O_QUE_FAZER": "FINALIZADO", "ER_REGIAO_CIDADE_min": "Itanhaém_Baixada Santista" }, "geometry": { "type": "Point", "coordinates": [ -46.8422632, -24.2148586 ] } },
{ "type": "Feature", "properties": { "fid": 140773, "CNPJ": "26717972000195", "IDCIDADE": "ITANHAEM", "NOMEFANTASIA": null, "RAZAOSOCIAL": "PAULA_VIDROS,_ACESSORIOS_E_SERVICOS_LTDA", "ENDEE": "AVENIDA CONCEICAO DE ITANHAEM, 1011, JARDIM CORONEL, 11747-764, ITANHAÉM, SP, BRASIL", "LMAPS": "https://www.google.com/maps?q=&layer=c&cbll=-24.1626748,-46.8346685", "O_QUE_FAZER": "CARTEIRA - FAMPE", "ER_REGIAO_CIDADE_min": "Itanhaém_Baixada Santista" }, "geometry": { "type": "Point", "coordinates": [ -46.8346685, -24.1626748 ] } },
{ "type": "Feature", "properties": { "fid": 141052, "CNPJ": "26764323000145", "IDCIDADE": "ITANHAEM", "NOMEFANTASIA": "VISTOCAR", "RAZAOSOCIAL": "L._A._DOS_SANTOS_VISTORIA_DE_VEICULOS", "ENDEE": "RUA PERUIBE, 423, PRAIA DO SONHO, 11740000, ITANHAÉM, SP, BRASIL", "LMAPS": "https://www.google.com/maps?q=&layer=c&cbll=-24.1945199,-46.8076027", "O_QUE_FAZER": "CARTEIRA - FAMPE", "ER_REGIAO_CIDADE_min": "Itanhaém_Baixada Santista" }, "geometry": { "type": "Point", "coordinates": [ -46.8076027, -24.1945199 ] } },
{ "type": "Feature", "properties": { "fid": 141572, "CNPJ": "26882505000110", "IDCIDADE": "ITANHAEM", "NOMEFANTASIA": "MECK_ADMINISTRACOES", "RAZAOSOCIAL": "ATL_ADMINISTRACOES_LTDA", "ENDEE": "RUA ANTONIO OLIVIO DE ARAUJO, 183, SALA 216, CENTRO, 11740-034, ITANHAÉM, SP, BRASIL", "LMAPS": "https://www.google.com/maps?q=&layer=c&cbll=-24.184686,-46.7893354", "O_QUE_FAZER": "CARTEIRA - FAMPE", "ER_REGIAO_CIDADE_min": "Itanhaém_Baixada Santista" }, "geometry": { "type": "Point", "coordinates": [ -46.7893354, -24.184686 ] } },
{ "type": "Feature", "properties": { "fid": 146553, "CNPJ": "27861642000131", "IDCIDADE": "ITANHAEM", "NOMEFANTASIA": "CONONSTRUMIX", "RAZAOSOCIAL": "STEFANY_MOREIRA_DE_LIMA", "ENDEE": "AVENIDA_FLACIDES_FERREIRA1251__BALNEARIO_GAIVOTA_11740-000", "LMAPS": "https://www.google.com/maps?q=&layer=c&cbll=-24.2357498,-46.9010436", "O_QUE_FAZER": "CARTEIRA", "ER_REGIAO_CIDADE_min": "Itanhaém_Baixada Santista" }, "geometry": { "type": "Point", "coordinates": [ -46.9010436, -24.2357498 ] } },
{ "type": "Feature", "properties": { "fid": 151683, "CNPJ": "28800601000106", "IDCIDADE": "ITANHAEM", "NOMEFANTASIA": null, "RAZAOSOCIAL": "MARCIA_NUNES_DE_SANTANA_26860231807", "ENDEE": "RUA RUI BARBOSA, 1312, SALA 03, CENTRO, 11740-000, ITANHAÉM, SP, BRASIL", "LMAPS": "https://www.google.com/maps?q=&layer=c&cbll=-24.1779214,-46.7768777", "O_QUE_FAZER": "CARTEIRA - FAMPE", "ER_REGIAO_CIDADE_min": "Itanhaém_Baixada Santista" }, "geometry": { "type": "Point", "coordinates": [ -46.7768777, -24.1779214 ] } },
{ "type": "Feature", "properties": { "fid": 152069, "CNPJ": "28878182000117", "IDCIDADE": "ITANHAEM", "NOMEFANTASIA": null, "RAZAOSOCIAL": "CESAR_AUGUSTO_RIBEIRO_26661781882", "ENDEE": "RUA PERUIBE, 312, PRAIA DO SONHO, 11740-000, ITANHAÉM, SP, BRASIL", "LMAPS": "https://www.google.com/maps?q=&layer=c&cbll=-24.1936947,-46.8067411", "O_QUE_FAZER": "CARTEIRA - FAMPE", "ER_REGIAO_CIDADE_min": "Itanhaém_Baixada Santista" }, "geometry": { "type": "Point", "coordinates": [ -46.8067411, -24.1936947 ] } },
{ "type": "Feature", "properties": { "fid": 157781, "CNPJ": "30009341000199", "IDCIDADE": "ITANHAEM", "NOMEFANTASIA": "-", "RAZAOSOCIAL": "30.009.341_ANA_PAULA_DE_BRITO", "ENDEE": "RUA LEOPOLDINO ARAUJO, 39, CENTRO, 11740-000, ITANHAÉM, SP, BRASIL", "LMAPS": "https://www.google.com/maps?q=&layer=c&cbll=-24.1818482,-46.7862138", "O_QUE_FAZER": "CARTEIRA - FAMPE", "ER_REGIAO_CIDADE_min": "Itanhaém_Baixada Santista" }, "geometry": { "type": "Point", "coordinates": [ -46.7862138, -24.1818482 ] } },
{ "type": "Feature", "properties": { "fid": 164057, "CNPJ": "31204579000138", "IDCIDADE": "ITANHAEM", "NOMEFANTASIA": "ARMAZEM", "RAZAOSOCIAL": "COMERCIAL_J_F_MATERIAIS_DE_CONSTRUCAO_LTDA", "ENDEE": "RUA JOAO CAPISTRANO PEREIRA, 35, JARDIM CORUMBA, 11740000, ITANHAÉM, SP, BRASIL", "LMAPS": "https://www.google.com/maps?q=&layer=c&cbll=-24.1905113,-46.8157143", "O_QUE_FAZER": "CARTEIRA - FAMPE", "ER_REGIAO_CIDADE_min": "Itanhaém_Baixada Santista" }, "geometry": { "type": "Point", "coordinates": [ -46.8157143, -24.1905113 ] } },
{ "type": "Feature", "properties": { "fid": 165155, "CNPJ": "31451592000191", "IDCIDADE": "ITANHAEM", "NOMEFANTASIA": "-", "RAZAOSOCIAL": "31.451.592_SUZANE_VINHAS_SILVA", "ENDEE": "RUA_AFANASI PETECOF_890_CIBRATEL II_11746-324_ITANHAEM", "LMAPS": "https://www.google.com/maps?q=&layer=c&cbll=-24.2053182,-46.8336954", "O_QUE_FAZER": "APLICAR M2", "ER_REGIAO_CIDADE_min": "Itanhaém_Baixada Santista" }, "geometry": { "type": "Point", "coordinates": [ -46.8336954, -24.2053182 ] } },
{ "type": "Feature", "properties": { "fid": 167277, "CNPJ": "31863325000121", "IDCIDADE": "ITANHAEM", "NOMEFANTASIA": null, "RAZAOSOCIAL": "MICHELE_DE_MENEZES_MELO_-_MATERIAIS_PARA_CONSTRUCAO", "ENDEE": "RUA PADRE THEODORO RATISBONE, 6155, JARDIM SUARAO (INTERIOR), 11741-788, ITANHAÉM, SP, BRASIL", "LMAPS": "https://www.google.com/maps?q=&layer=c&cbll=-24.1545152,-46.7409886", "O_QUE_FAZER": "CARTEIRA - FAMPE", "ER_REGIAO_CIDADE_min": "Itanhaém_Baixada Santista" }, "geometry": { "type": "Point", "coordinates": [ -46.7409886, -24.1545152 ] } },
{ "type": "Feature", "properties": { "fid": 169146, "CNPJ": "32244107000171", "IDCIDADE": "ITANHAEM", "NOMEFANTASIA": "PURO_SURF", "RAZAOSOCIAL": "RESTAURANTE_PURO_SURF_LTDA", "ENDEE": "AVENIDA_FLACIDES_FERREIRA456__BALNEARIO_GAIVOTA_11740-000", "LMAPS": "https://www.google.com/maps?q=&layer=c&cbll=-24.242616,-46.8918389", "O_QUE_FAZER": "CARTEIRA", "ER_REGIAO_CIDADE_min": "Itanhaém_Baixada Santista" }, "geometry": { "type": "Point", "coordinates": [ -46.8918389, -24.242616 ] } },
{ "type": "Feature", "properties": { "fid": 170458, "CNPJ": "32543733000169", "IDCIDADE": "ITANHAEM", "NOMEFANTASIA": null, "RAZAOSOCIAL": "RAFAEL_ESTEVES_DE_OLIVEIRA_40883786877", "ENDEE": "AVENIDA JOAO BATISTA LEAL, 599, BOX 01, CENTRO, 11740-000, ITANHAÉM, SP, BRASIL", "LMAPS": "https://www.google.com/maps?q=&layer=c&cbll=-24.187011,-46.7943052", "O_QUE_FAZER": "CARTEIRA - FAMPE", "ER_REGIAO_CIDADE_min": "Itanhaém_Baixada Santista" }, "geometry": { "type": "Point", "coordinates": [ -46.7943052, -24.187011 ] } },
{ "type": "Feature", "properties": { "fid": 174926, "CNPJ": "33425006000160", "IDCIDADE": "ITANHAEM", "NOMEFANTASIA": "ROSELI_APARECIDA_DA_SILVA_08901235862", "RAZAOSOCIAL": "ROSELI_APARECIDA_DA_SILVA", "ENDEE": "RUA_AMARO_PRADO200__BELAS_ARTES_11740-000", "LMAPS": "https://www.google.com/maps?q=&layer=c&cbll=-24.1926563,-46.8178358", "O_QUE_FAZER": "FINALIZADO", "ER_REGIAO_CIDADE_min": "Itanhaém_Baixada Santista" }, "geometry": { "type": "Point", "coordinates": [ -46.8178358, -24.1926563 ] } },
{ "type": "Feature", "properties": { "fid": 184189, "CNPJ": "35222638000151", "IDCIDADE": "ITANHAEM", "NOMEFANTASIA": "35.222.638_KARINE_BOMFIN_ALVES_DA_CUNHA", "RAZAOSOCIAL": "35.222.638_KARINE_BOMFIN_ALVES_DA_CUNHA", "ENDEE": "AVENIDA_RUI_BARBOSA129__CENTRO_11740-000", "LMAPS": "https://www.google.com/maps?q=&layer=c&cbll=-24.1825364,-46.7871437", "O_QUE_FAZER": "FINALIZADO", "ER_REGIAO_CIDADE_min": "Itanhaém_Baixada Santista" }, "geometry": { "type": "Point", "coordinates": [ -46.7871437, -24.1825364 ] } },
{ "type": "Feature", "properties": { "fid": 184279, "CNPJ": "35249690000100", "IDCIDADE": "ITANHAEM", "NOMEFANTASIA": "AGRO_CORONEL", "RAZAOSOCIAL": "FRANCIELE_SILVA_PEREIRA", "ENDEE": "AVENIDA CONCEICAO DE ITANHAEM, 340, JARDIM CORONEL, 11747-764, ITANHAÉM, SP, BRASIL", "LMAPS": "https://www.google.com/maps?q=&layer=c&cbll=-24.1682258,-46.8408344", "O_QUE_FAZER": "CARTEIRA - FAMPE", "ER_REGIAO_CIDADE_min": "Itanhaém_Baixada Santista" }, "geometry": { "type": "Point", "coordinates": [ -46.8408344, -24.1682258 ] } },
{ "type": "Feature", "properties": { "fid": 185824, "CNPJ": "35618279000156", "IDCIDADE": "ITANHAEM", "NOMEFANTASIA": "-", "RAZAOSOCIAL": "35.618.279_EDUARDO_GOMES_DE_OLIVEIRA", "ENDEE": "10A RUA PADRE THEODORO RATISBONNE, 6155, JARDIM SUARAO, 11740-000, ITANHAÉM, SP, BRASIL", "LMAPS": "https://www.google.com/maps?q=&layer=c&cbll=-24.1656523,-46.7622612", "O_QUE_FAZER": "CARTEIRA - FAMPE", "ER_REGIAO_CIDADE_min": "Itanhaém_Baixada Santista" }, "geometry": { "type": "Point", "coordinates": [ -46.7622612, -24.1656523 ] } },
{ "type": "Feature", "properties": { "fid": 188429, "CNPJ": "36173547000136", "IDCIDADE": "ITANHAEM", "NOMEFANTASIA": "Lumiz_Shoes", "RAZAOSOCIAL": "LUCIANA_SANTOS_SILVA", "ENDEE": "RUA JOAO MARIANO FERREIRA, 05, LOJA 05, CENTRO, 11740-068, ITANHAÉM, SP, BRASIL", "LMAPS": "https://www.google.com/maps?q=&layer=c&cbll=-24.1815363,-46.784913", "O_QUE_FAZER": "FINALIZADO", "ER_REGIAO_CIDADE_min": "Itanhaém_Baixada Santista" }, "geometry": { "type": "Point", "coordinates": [ -46.784913, -24.1815363 ] } },
{ "type": "Feature", "properties": { "fid": 190333, "CNPJ": "36564827000175", "IDCIDADE": "ITANHAEM", "NOMEFANTASIA": "WALLACE_DA_SILVA_NUNES", "RAZAOSOCIAL": "WALLLACE", "ENDEE": "RUA_TELMA1726__LOTY_11740-000", "LMAPS": "https://www.google.com/maps?q=&layer=c&cbll=-24.1372895,-46.7221083", "O_QUE_FAZER": "FINALIZADO", "ER_REGIAO_CIDADE_min": "Itanhaém_Baixada Santista" }, "geometry": { "type": "Point", "coordinates": [ -46.7221083, -24.1372895 ] } },
{ "type": "Feature", "properties": { "fid": 190491, "CNPJ": "36597107000106", "IDCIDADE": "ITANHAEM", "NOMEFANTASIA": null, "RAZAOSOCIAL": "GUILHERME_GUIMARAES_DINIZ", "ENDEE": "RUA ERICO VERISSIMO, 95, VERDE MAR, 11741-582, ITANHAÉM, SP, BRASIL", "LMAPS": "https://www.google.com/maps?q=&layer=c&cbll=-24.1490801,-46.7345274", "O_QUE_FAZER": "CARTEIRA - FAMPE", "ER_REGIAO_CIDADE_min": "Itanhaém_Baixada Santista" }, "geometry": { "type": "Point", "coordinates": [ -46.7345274, -24.1490801 ] } },
{ "type": "Feature", "properties": { "fid": 190548, "CNPJ": "36607834000107", "IDCIDADE": "ITANHAEM", "NOMEFANTASIA": "ORAL_SIN_IMPLANTES", "RAZAOSOCIAL": "B._P._S._CLINICA_ODONTOLOGICA_LTDA", "ENDEE": "AVENIDA EMBAIXADOR PEDRO DE TOLEDO, 179, CENTRO, 11740-000, ITANHAÉM, SP, BRASIL", "LMAPS": "https://www.google.com/maps?q=&layer=c&cbll=-24.1856745,-46.7910344", "O_QUE_FAZER": "CARTEIRA - FAMPE", "ER_REGIAO_CIDADE_min": "Itanhaém_Baixada Santista" }, "geometry": { "type": "Point", "coordinates": [ -46.7910344, -24.1856745 ] } },
{ "type": "Feature", "properties": { "fid": 197320, "CNPJ": "38111648000108", "IDCIDADE": "ITANHAEM", "NOMEFANTASIA": null, "RAZAOSOCIAL": "COLEGIO_EVOLUCAO_DE_ITANHAEM_LTDA", "ENDEE": "RUA PATRICIA BERNARDI CURY, 143, PRAIA DOS SONHOS, 11746-086, ITANHAÉM, SP, BRASIL", "LMAPS": "https://www.google.com/maps?q=&layer=c&cbll=-24.19125,-46.7987259", "O_QUE_FAZER": "CARTEIRA - FAMPE", "ER_REGIAO_CIDADE_min": "Itanhaém_Baixada Santista" }, "geometry": { "type": "Point", "coordinates": [ -46.7987259, -24.19125 ] } },
{ "type": "Feature", "properties": { "fid": 199573, "CNPJ": "38733373000144", "IDCIDADE": "ITANHAEM", "NOMEFANTASIA": "38.733.373_KIMBYLEE_DOS_SANTOS_BRITES", "RAZAOSOCIAL": "COLORE", "ENDEE": "AVENIDA_JULINHA1510__JAMAICA_(PRAIA)_11754-104", "LMAPS": "https://www.google.com/maps?q=&layer=c&cbll=-24.222345,-46.880344", "O_QUE_FAZER": "FINALIZADO", "ER_REGIAO_CIDADE_min": "Itanhaém_Baixada Santista" }, "geometry": { "type": "Point", "coordinates": [ -46.880344, -24.222345 ] } },
{ "type": "Feature", "properties": { "fid": 201124, "CNPJ": "39403188000154", "IDCIDADE": "ITANHAEM", "NOMEFANTASIA": "P_H_REIS_MARTINS_LTDA", "RAZAOSOCIAL": "HENRIQUE_TRANSPORTES", "ENDEE": "RUA_DAS_PALMEIRAS628__JARDIM_DAS_PALMEIRAS_11740-000", "LMAPS": "https://www.google.com/maps?q=&layer=c&cbll=-24.2361912,-46.8856023", "O_QUE_FAZER": "FINALIZADO", "ER_REGIAO_CIDADE_min": "Itanhaém_Baixada Santista" }, "geometry": { "type": "Point", "coordinates": [ -46.8856023, -24.2361912 ] } },
{ "type": "Feature", "properties": { "fid": 202168, "CNPJ": "39630226000101", "IDCIDADE": "ITANHAEM", "NOMEFANTASIA": "-", "RAZAOSOCIAL": "39.630.226_WESLEY_RIBEIRO_DOS_SANTOS", "ENDEE": "RUA SANTA CATARINA, 261, CIBRATEL II, 11746-310, ITANHAÉM, SP, BRASIL", "LMAPS": "https://www.google.com/maps?q=&layer=c&cbll=-24.2103529,-46.839761", "O_QUE_FAZER": "CARTEIRA - FAMPE", "ER_REGIAO_CIDADE_min": "Itanhaém_Baixada Santista" }, "geometry": { "type": "Point", "coordinates": [ -46.839761, -24.2103529 ] } },
{ "type": "Feature", "properties": { "fid": 202329, "CNPJ": "39667534000101", "IDCIDADE": "ITANHAEM", "NOMEFANTASIA": "-", "RAZAOSOCIAL": "39.667.534_APARECIDO_GONCALVES_DE_SOUZA", "ENDEE": "AVENIDA MARGINAL, 1687, LARANJEIRAS, 11742-752, ITANHAÉM, SP, BRASIL", "LMAPS": "https://www.google.com/maps?q=&layer=c&cbll=-24.1674864,-46.7657869", "O_QUE_FAZER": "CARTEIRA - FAMPE", "ER_REGIAO_CIDADE_min": "Itanhaém_Baixada Santista" }, "geometry": { "type": "Point", "coordinates": [ -46.7657869, -24.1674864 ] } },
{ "type": "Feature", "properties": { "fid": 204659, "CNPJ": "40159554000150", "IDCIDADE": "ITANHAEM", "NOMEFANTASIA": "40.159.554_LEANDRO_HENRIQUE_CAETANO_MOREIRA", "RAZAOSOCIAL": "40.159.554_LEANDRO_HENRIQUE_CAETANO_MOREIRA", "ENDEE": "RUA_VEREADOR_ANTONIO_ATAULO445__SAVOY_II_11740-000", "LMAPS": "https://www.google.com/maps?q=&layer=c&cbll=-24.1649438,-46.7803701", "O_QUE_FAZER": "FINALIZADO", "ER_REGIAO_CIDADE_min": "Itanhaém_Baixada Santista" }, "geometry": { "type": "Point", "coordinates": [ -46.7803701, -24.1649438 ] } },
{ "type": "Feature", "properties": { "fid": 210116, "CNPJ": "41619957000106", "IDCIDADE": "ITANHAEM", "NOMEFANTASIA": "AGUA_VIVA_PISCINAS", "RAZAOSOCIAL": "ALINE_FERREIRA_BRITO_LIMA", "ENDEE": "RUA JOSEFA DIEGUES ATAULO, 3785, LOJA 03, NOVA ITANHAEM (INTERIOR), 11742-504, ITANHAÉM, SP, BRASIL", "LMAPS": "https://www.google.com/maps?q=&layer=c&cbll=-24.1682473,-46.7672317", "O_QUE_FAZER": "CARTEIRA - FAMPE", "ER_REGIAO_CIDADE_min": "Itanhaém_Baixada Santista" }, "geometry": { "type": "Point", "coordinates": [ -46.7672317, -24.1682473 ] } },
{ "type": "Feature", "properties": { "fid": 210152, "CNPJ": "41627890000143", "IDCIDADE": "ITANHAEM", "NOMEFANTASIA": "TOURO_DE_OURO", "RAZAOSOCIAL": "CASA_DE_CARNES_TOURO_DE_OURO_LTDA", "ENDEE": "AVENIDA_FLACIDES_FERREIRA800__BALNEARIO_GAIVOTA_11740-000", "LMAPS": "https://www.google.com/maps?q=&layer=c&cbll=-24.2406691,-46.8941948", "O_QUE_FAZER": "CARTEIRA", "ER_REGIAO_CIDADE_min": "Itanhaém_Baixada Santista" }, "geometry": { "type": "Point", "coordinates": [ -46.8941948, -24.2406691 ] } },
{ "type": "Feature", "properties": { "fid": 211012, "CNPJ": "41822885000191", "IDCIDADE": "ITANHAEM", "NOMEFANTASIA": "SANTA_FE_SERVICOS_AUTOMOTIVOS_LTDA", "RAZAOSOCIAL": "SANTA_FE_SERVICOS_AUTOMOTIVOS", "ENDEE": "AVENIDA_JOSE_BATISTA_CAMPOS1563__OASIS_11740-000", "LMAPS": "https://www.google.com/maps?q=&layer=c&cbll=-24.1668097,-46.7849095", "O_QUE_FAZER": "FINALIZADO", "ER_REGIAO_CIDADE_min": "Itanhaém_Baixada Santista" }, "geometry": { "type": "Point", "coordinates": [ -46.7849095, -24.1668097 ] } },
{ "type": "Feature", "properties": { "fid": 215008, "CNPJ": "42735517000179", "IDCIDADE": "ITANHAEM", "NOMEFANTASIA": "-", "RAZAOSOCIAL": "42.735.517_RONALDO_MARD_RABELO_DE_FREITAS", "ENDEE": "RUA PERNAMBUCO, 77, GAIVOTA (PRAIA), 11754-618, ITANHAÉM, SP, BRASIL", "LMAPS": "https://www.google.com/maps?q=&layer=c&cbll=-24.2341858,-46.8978137", "O_QUE_FAZER": "CARTEIRA - FAMPE", "ER_REGIAO_CIDADE_min": "Itanhaém_Baixada Santista" }, "geometry": { "type": "Point", "coordinates": [ -46.8978137, -24.2341858 ] } },
{ "type": "Feature", "properties": { "fid": 216535, "CNPJ": "43066245000124", "IDCIDADE": "ITANHAEM", "NOMEFANTASIA": "-", "RAZAOSOCIAL": "43.066.245_MARCOS_CESAR_DO_NASCIMENTO_SIQUEIRA", "ENDEE": "RUA DOM PEDRO II, 228, CENTRO, 11740-000, ITANHAÉM, SP, BRASIL", "LMAPS": "https://www.google.com/maps?q=&layer=c&cbll=-24.1834172,-46.7830854", "O_QUE_FAZER": "CARTEIRA - FAMPE", "ER_REGIAO_CIDADE_min": "Itanhaém_Baixada Santista" }, "geometry": { "type": "Point", "coordinates": [ -46.7830854, -24.1834172 ] } },
{ "type": "Feature", "properties": { "fid": 217143, "CNPJ": "43186049000193", "IDCIDADE": "ITANHAEM", "NOMEFANTASIA": "CASA_DO_BAIANO", "RAZAOSOCIAL": "CASA_DO_BAIANO_PRODUTOS_ALIMENTICIOS_LTDA", "ENDEE": "AVENIDA ROBERTO IWAKICHI URAGUCHI, 227, LOJA 07, PRAIA DO SONHO, 11740-000, ITANHAÉM, SP, BRASIL", "LMAPS": "https://www.google.com/maps?q=&layer=c&cbll=-24.19344,-46.8056173", "O_QUE_FAZER": "CARTEIRA - FAMPE", "ER_REGIAO_CIDADE_min": "Itanhaém_Baixada Santista" }, "geometry": { "type": "Point", "coordinates": [ -46.8056173, -24.19344 ] } },
{ "type": "Feature", "properties": { "fid": 218921, "CNPJ": "43538128000116", "IDCIDADE": "ITANHAEM", "NOMEFANTASIA": "ALINE_DE_OLIVEIRA_ANGELIN_34044635870", "RAZAOSOCIAL": "ALINE_DE_OLIVEIRA_ANGELIN", "ENDEE": "AVENIDA_WALTER_MIRANDA367__BALNEARIO_TROPICAL_11740-000", "LMAPS": "https://www.google.com/maps?q=&layer=c&cbll=-24.1708548,-46.7648824", "O_QUE_FAZER": "FINALIZADO", "ER_REGIAO_CIDADE_min": "Itanhaém_Baixada Santista" }, "geometry": { "type": "Point", "coordinates": [ -46.7648824, -24.1708548 ] } },
{ "type": "Feature", "properties": { "fid": 219399, "CNPJ": "43647008000157", "IDCIDADE": "ITANHAEM", "NOMEFANTASIA": null, "RAZAOSOCIAL": "GUSTAVO_SARTORIO_DOS_SANTOS_41575834855", "ENDEE": "RUA ELISEU VISCONTI, 122, JARDIM BELAS ARTES, 11740-000, ITANHAÉM, SP, BRASIL", "LMAPS": "https://www.google.com/maps?q=&layer=c&cbll=-24.1924379,-46.8149359", "O_QUE_FAZER": "CARTEIRA - FAMPE", "ER_REGIAO_CIDADE_min": "Itanhaém_Baixada Santista" }, "geometry": { "type": "Point", "coordinates": [ -46.8149359, -24.1924379 ] } },
{ "type": "Feature", "properties": { "fid": 222764, "CNPJ": "44315595000140", "IDCIDADE": "ITANHAEM", "NOMEFANTASIA": "-", "RAZAOSOCIAL": "44.315.595_ELIANA_OLIVEIRA_MOYANO", "ENDEE": "RUA BAHIA, 63, PRAIA DO SONHO, 11740-000, ITANHAÉM, SP, BRASIL", "LMAPS": "https://www.google.com/maps?q=&layer=c&cbll=-24.1960072,-46.8036266", "O_QUE_FAZER": "CARTEIRA - FAMPE", "ER_REGIAO_CIDADE_min": "Itanhaém_Baixada Santista" }, "geometry": { "type": "Point", "coordinates": [ -46.8036266, -24.1960072 ] } },
{ "type": "Feature", "properties": { "fid": 223607, "CNPJ": "44491408000189", "IDCIDADE": "ITANHAEM", "NOMEFANTASIA": "ESPACO_FLUIR", "RAZAOSOCIAL": "BARRADAS_E_RIBEIRO_LTDA", "ENDEE": "RUA EGAS MUNIZ DE ARRUDA BOTELHO, 276, SATELITE, 11740-392, ITANHAÉM, SP, BRASIL", "LMAPS": "https://www.google.com/maps?q=&layer=c&cbll=-24.1776122,-46.7761909", "O_QUE_FAZER": "CARTEIRA - FAMPE", "ER_REGIAO_CIDADE_min": "Itanhaém_Baixada Santista" }, "geometry": { "type": "Point", "coordinates": [ -46.7761909, -24.1776122 ] } },
{ "type": "Feature", "properties": { "fid": 228983, "CNPJ": "45683431000138", "IDCIDADE": "ITANHAEM", "NOMEFANTASIA": "MONT_CARLO_VEICULOS_LTDA", "RAZAOSOCIAL": "MONT_CARLO_VEICULOS_LTDA", "ENDEE": "RUA PADRE THEODORO RATISBONE, 4481, JARDIM SUARAO, 11740-000, ITANHAÉM, SP, BRASIL", "LMAPS": "https://www.google.com/maps?q=&layer=c&cbll=-24.162352,-46.7562428", "O_QUE_FAZER": "CARTEIRA - FAMPE", "ER_REGIAO_CIDADE_min": "Itanhaém_Baixada Santista" }, "geometry": { "type": "Point", "coordinates": [ -46.7562428, -24.162352 ] } },
{ "type": "Feature", "properties": { "fid": 230709, "CNPJ": "46008000000139", "IDCIDADE": "ITANHAEM", "NOMEFANTASIA": "-", "RAZAOSOCIAL": "46.008.000_SIMONE_DA_SILVA_PEREIRA", "ENDEE": "AVENIDA CABUCU, 841, NOSSA SENHORA DO SION, 11742-448, ITANHAÉM, SP, BRASIL", "LMAPS": "https://www.google.com/maps?q=&layer=c&cbll=-24.1595672,-46.7662308", "O_QUE_FAZER": "CARTEIRA - FAMPE", "ER_REGIAO_CIDADE_min": "Itanhaém_Baixada Santista" }, "geometry": { "type": "Point", "coordinates": [ -46.7662308, -24.1595672 ] } },
{ "type": "Feature", "properties": { "fid": 233474, "CNPJ": "46567986000187", "IDCIDADE": "ITANHAEM", "NOMEFANTASIA": null, "RAZAOSOCIAL": "LUCIENE_RODRIGUES_ROSA_24753618838", "ENDEE": "10A RUA PROFESSORA ALICE T C SARAIVA, 32, BELAS ARTES, 11740-000, ITANHAÉM, SP, BRASIL", "LMAPS": "https://www.google.com/maps?q=&layer=c&cbll=-24.1945436,-46.8109759", "O_QUE_FAZER": "CARTEIRA - FAMPE", "ER_REGIAO_CIDADE_min": "Itanhaém_Baixada Santista" }, "geometry": { "type": "Point", "coordinates": [ -46.8109759, -24.1945436 ] } },
{ "type": "Feature", "properties": { "fid": 236631, "CNPJ": "47207517000110", "IDCIDADE": "ITANHAEM", "NOMEFANTASIA": "-", "RAZAOSOCIAL": "47.207.517_FELIPE_TAVARES_DE_PAULA", "ENDEE": "10A RUA ILCA NUVOLLI, 81, JARDIM BOPIRANGA, 11740-000, ITANHAÉM, SP, BRASIL", "LMAPS": "https://www.google.com/maps?q=&layer=c&cbll=-24.223968,-46.8601166", "O_QUE_FAZER": "CARTEIRA - FAMPE", "ER_REGIAO_CIDADE_min": "Itanhaém_Baixada Santista" }, "geometry": { "type": "Point", "coordinates": [ -46.8601166, -24.223968 ] } },
{ "type": "Feature", "properties": { "fid": 238284, "CNPJ": "47563190000119", "IDCIDADE": "ITANHAEM", "NOMEFANTASIA": null, "RAZAOSOCIAL": "PATRICIA_CAMILA_APARECIDA_COCO_32162515865", "ENDEE": "RUA RUA MANOEL LOUZADA, 650, NOSSA SENHORA DO SION, 11740-000, ITANHAÉM, SP, BRASIL", "LMAPS": "https://www.google.com/maps?q=&layer=c&cbll=-24.1622404,-46.7657652", "O_QUE_FAZER": "CARTEIRA - FAMPE", "ER_REGIAO_CIDADE_min": "Itanhaém_Baixada Santista" }, "geometry": { "type": "Point", "coordinates": [ -46.7657652, -24.1622404 ] } },
{ "type": "Feature", "properties": { "fid": 238639, "CNPJ": "47638681000181", "IDCIDADE": "ITANHAEM", "NOMEFANTASIA": null, "RAZAOSOCIAL": "ROGERIO_DA_SILVA_COELHO_13388011800", "ENDEE": "10A RUA TIRADENTES, 161, CASA, GAIVOTA, 11740-000, ITANHAÉM, SP, BRASIL", "LMAPS": "https://www.google.com/maps?q=&layer=c&cbll=-24.2421485,-46.8857577", "O_QUE_FAZER": "CARTEIRA - FAMPE", "ER_REGIAO_CIDADE_min": "Itanhaém_Baixada Santista" }, "geometry": { "type": "Point", "coordinates": [ -46.8857577, -24.2421485 ] } },
{ "type": "Feature", "properties": { "fid": 239123, "CNPJ": "47738897000119", "IDCIDADE": "ITANHAEM", "NOMEFANTASIA": "RENATA_TAVARES_DOS_SANTOS_31369467826", "RAZAOSOCIAL": "RENATA_TAVARES_DOS_SANTOS_31369467826", "ENDEE": "1073_VIA_VITOR_MEIRELES51__BELAS_ARTES_11740-000", "LMAPS": "https://www.google.com/maps?q=&layer=c&cbll=-24.195605,-46.8177613", "O_QUE_FAZER": "FINALIZADO", "ER_REGIAO_CIDADE_min": "Itanhaém_Baixada Santista" }, "geometry": { "type": "Point", "coordinates": [ -46.8177613, -24.195605 ] } },
{ "type": "Feature", "properties": { "fid": 239325, "CNPJ": "47781279000151", "IDCIDADE": "ITANHAEM", "NOMEFANTASIA": "47.781.279_AILTON_DOS_PASSOS_SANTOS", "RAZAOSOCIAL": "MILLE_AUTO_PECAS_E_SERVICOS", "ENDEE": "RUA_FRANCISCO_DE_ARAUJO_FILHO2487__SAVOY_11742-612", "LMAPS": "https://www.google.com/maps?q=&layer=c&cbll=-24.1684929,-46.7756636", "O_QUE_FAZER": "FINALIZADO", "ER_REGIAO_CIDADE_min": "Itanhaém_Baixada Santista" }, "geometry": { "type": "Point", "coordinates": [ -46.7756636, -24.1684929 ] } },
{ "type": "Feature", "properties": { "fid": 242495, "CNPJ": "48413841000157", "IDCIDADE": "ITANHAEM", "NOMEFANTASIA": "CAPELA_ODONTO", "RAZAOSOCIAL": "CAPELLA_ODONTOLOGIA_LTDA", "ENDEE": "AVENIDA_FLACIDES_FERREIRA785__BALNEARIO_GAIVOTA_11740-000", "LMAPS": "https://www.google.com/maps?q=&layer=c&cbll=-24.2394249,-46.8960056", "O_QUE_FAZER": "CARTEIRA", "ER_REGIAO_CIDADE_min": "Itanhaém_Baixada Santista" }, "geometry": { "type": "Point", "coordinates": [ -46.8960056, -24.2394249 ] } },
{ "type": "Feature", "properties": { "fid": 243629, "CNPJ": "48642545000128", "IDCIDADE": "ITANHAEM", "NOMEFANTASIA": "REALCE_PUBLICIDADE", "RAZAOSOCIAL": "RBS_CRIATIVA_PAPELARIA_E_COMUNICACAO_VISUAL_LTDA", "ENDEE": "AVENIDA_FLACIDES_FERREIRA1063__BALNEARIO_GAIVOTA_11740-000", "LMAPS": "https://www.google.com/maps?q=&layer=c&cbll=-24.2390917,-46.89639", "O_QUE_FAZER": "CARTEIRA", "ER_REGIAO_CIDADE_min": "Itanhaém_Baixada Santista" }, "geometry": { "type": "Point", "coordinates": [ -46.89639, -24.2390917 ] } },
{ "type": "Feature", "properties": { "fid": 245787, "CNPJ": "49132083000161", "IDCIDADE": "ITANHAEM", "NOMEFANTASIA": "MANDU_CONSTRUCOES", "RAZAOSOCIAL": "INCORPORADORA_E_CONSTRUTORA_DE_IMOVEIS_LIMA_LTDA", "ENDEE": "RUA IPIRANGA, 155, PRAIA DO SONHO, 11740-000, ITANHAÉM, SP, BRASIL", "LMAPS": "https://www.google.com/maps?q=&layer=c&cbll=-24.1963071,-46.804803", "O_QUE_FAZER": "CARTEIRA - FAMPE", "ER_REGIAO_CIDADE_min": "Itanhaém_Baixada Santista" }, "geometry": { "type": "Point", "coordinates": [ -46.804803, -24.1963071 ] } },
{ "type": "Feature", "properties": { "fid": 245918, "CNPJ": "49160899000107", "IDCIDADE": "ITANHAEM", "NOMEFANTASIA": "-", "RAZAOSOCIAL": "49.160.899_CAIO_CESAR_BATISTA_DA_SILVA", "ENDEE": "RUA JOAO ANTONIO, 777, JARDIM OASIS, 11743-238, ITANHAÉM, SP, BRASIL", "LMAPS": "https://www.google.com/maps?q=&layer=c&cbll=-24.1658595,-46.7913313", "O_QUE_FAZER": "CARTEIRA - FAMPE", "ER_REGIAO_CIDADE_min": "Itanhaém_Baixada Santista" }, "geometry": { "type": "Point", "coordinates": [ -46.7913313, -24.1658595 ] } },
{ "type": "Feature", "properties": { "fid": 252385, "CNPJ": "50481057000128", "IDCIDADE": "ITANHAEM", "NOMEFANTASIA": "-", "RAZAOSOCIAL": "50.481.057_GILSON_DA_CRUZ_SILVA", "ENDEE": "RUA UM, 4500, JAMAICA (INTERIOR), 11755-784, ITANHAÉM, SP, BRASIL", "LMAPS": "https://www.google.com/maps?q=&layer=c&cbll=-24.2012103,-46.9313657", "O_QUE_FAZER": "CARTEIRA - FAMPE", "ER_REGIAO_CIDADE_min": "Itanhaém_Baixada Santista" }, "geometry": { "type": "Point", "coordinates": [ -46.9313657, -24.2012103 ] } },
{ "type": "Feature", "properties": { "fid": 253658, "CNPJ": "50735549000100", "IDCIDADE": "ITANHAEM", "NOMEFANTASIA": "-", "RAZAOSOCIAL": "50.735.549_GEANE_SILVA_COSTA_CARRAMAO", "ENDEE": "RUA CELSO AIRES DA CUNHA, 610, UMUARAMA, 11747-338, ITANHAÉM, SP, BRASIL", "LMAPS": "https://www.google.com/maps?q=&layer=c&cbll=-24.1741424,-46.8212303", "O_QUE_FAZER": "CARTEIRA - FAMPE", "ER_REGIAO_CIDADE_min": "Itanhaém_Baixada Santista" }, "geometry": { "type": "Point", "coordinates": [ -46.8212303, -24.1741424 ] } },
{ "type": "Feature", "properties": { "fid": 256313, "CNPJ": "51237944000118", "IDCIDADE": "ITANHAEM", "NOMEFANTASIA": "Agropecuaria_Itanhaem", "RAZAOSOCIAL": "ITANHAEM_COMERCIO_DE_ARTIGOS_E_ALIMENTOS_PARA_ANIMAIS_02_LTDA", "ENDEE": "AVENIDA MARGINAL 2, 1865, QUADRALOTE 002, JARDIM ITALMAR, 11740-000, ITANHAÉM, SP, BRASIL", "LMAPS": "https://www.google.com/maps?q=&layer=c&cbll=-24.1656864,-46.7623277", "O_QUE_FAZER": "CARTEIRA - FAMPE", "ER_REGIAO_CIDADE_min": "Itanhaém_Baixada Santista" }, "geometry": { "type": "Point", "coordinates": [ -46.7623277, -24.1656864 ] } },
{ "type": "Feature", "properties": { "fid": 259887, "CNPJ": "51958383000146", "IDCIDADE": "ITANHAEM", "NOMEFANTASIA": "-", "RAZAOSOCIAL": "51.958.383_GUILHERME_DE_MORAES_MARQUES_MAGGIONI", "ENDEE": "RUA ESPIRITO SANTO, 602, BALNEARIO GAIVOTA, 11740-000, ITANHAÉM, SP, BRASIL", "LMAPS": "https://www.google.com/maps?q=&layer=c&cbll=-24.2422396,-46.8949739", "O_QUE_FAZER": "CARTEIRA - FAMPE", "ER_REGIAO_CIDADE_min": "Itanhaém_Baixada Santista" }, "geometry": { "type": "Point", "coordinates": [ -46.8949739, -24.2422396 ] } },
{ "type": "Feature", "properties": { "fid": 260353, "CNPJ": "52049854000166", "IDCIDADE": "ITANHAEM", "NOMEFANTASIA": "-", "RAZAOSOCIAL": "52.049.854_FLORINDA_FERNANDES_SOUZA_ASSUNCAO", "ENDEE": "RUA PROFESSORA DINORA CRUZ, 98, CENTRO, 11740-000, ITANHAÉM, SP, BRASIL", "LMAPS": "https://www.google.com/maps?q=&layer=c&cbll=-24.1801745,-46.7796361", "O_QUE_FAZER": "CARTEIRA - FAMPE", "ER_REGIAO_CIDADE_min": "Itanhaém_Baixada Santista" }, "geometry": { "type": "Point", "coordinates": [ -46.7796361, -24.1801745 ] } },
{ "type": "Feature", "properties": { "fid": 263727, "CNPJ": "52746677000177", "IDCIDADE": "ITANHAEM", "NOMEFANTASIA": "ONY_FIBRA", "RAZAOSOCIAL": "ONY_FIBRA_TECNOLOGIA_LTDA", "ENDEE": "AVENIDA HARRY FORSSELL, 1330, JARDIM SABAUNA, 11746-756, ITANHAÉM, SP, BRASIL", "LMAPS": "https://www.google.com/maps?q=&layer=c&cbll=-24.1849007,-46.8171403", "O_QUE_FAZER": "CARTEIRA - FAMPE", "ER_REGIAO_CIDADE_min": "Itanhaém_Baixada Santista" }, "geometry": { "type": "Point", "coordinates": [ -46.8171403, -24.1849007 ] } },
{ "type": "Feature", "properties": { "fid": 267949, "CNPJ": "53731525000163", "IDCIDADE": "ITANHAEM", "NOMEFANTASIA": "CMX_SERVICOS", "RAZAOSOCIAL": "CMX_SERVICOS_LTDA", "ENDEE": "RUA ITANHAEM, 52, GAIVOTA (PRAIA), 11754-606, ITANHAÉM, SP, BRASIL", "LMAPS": "https://www.google.com/maps?q=&layer=c&cbll=-24.2380014,-46.8955618", "O_QUE_FAZER": "CARTEIRA - FAMPE", "ER_REGIAO_CIDADE_min": "Itanhaém_Baixada Santista" }, "geometry": { "type": "Point", "coordinates": [ -46.8955618, -24.2380014 ] } },
{ "type": "Feature", "properties": { "fid": 268798, "CNPJ": "53919089000150", "IDCIDADE": "ITANHAEM", "NOMEFANTASIA": "-", "RAZAOSOCIAL": "53.919.089_EVERTON_MAIKY_VIANA_DE_LIMA", "ENDEE": "RUA ARARAQUARA, 1616, CIDADE JARDIM CORONEL, 11740-000, ITANHAÉM, SP, BRASIL", "LMAPS": "https://www.google.com/maps?q=&layer=c&cbll=-24.158431,-46.832177", "O_QUE_FAZER": "CARTEIRA - FAMPE", "ER_REGIAO_CIDADE_min": "Itanhaém_Baixada Santista" }, "geometry": { "type": "Point", "coordinates": [ -46.832177, -24.158431 ] } },
{ "type": "Feature", "properties": { "fid": 269575, "CNPJ": "54094466000122", "IDCIDADE": "ITANHAEM", "NOMEFANTASIA": "-", "RAZAOSOCIAL": "54.094.466_ISAC_FERNANDO_DA_SILVA", "ENDEE": "AVENIDA HARRY FORSSELL, 895, JARDIM BELAS ARTES, 11740-000, ITANHAÉM, SP, BRASIL", "LMAPS": "https://www.google.com/maps?q=&layer=c&cbll=-24.1880289,-46.8170029", "O_QUE_FAZER": "CARTEIRA - FAMPE", "ER_REGIAO_CIDADE_min": "Itanhaém_Baixada Santista" }, "geometry": { "type": "Point", "coordinates": [ -46.8170029, -24.1880289 ] } },
{ "type": "Feature", "properties": { "fid": 271466, "CNPJ": "54496958000144", "IDCIDADE": "ITANHAEM", "NOMEFANTASIA": "XNET_FIBRA_OPTICA", "RAZAOSOCIAL": "XNET_FIBRA_OPTICA_LTDA", "ENDEE": "ESTRADA CORONEL JOAQUIM BRANCO, 1061, SAVOY, 11742-674, ITANHAÉM, SP, BRASIL", "LMAPS": "https://www.google.com/maps?q=&layer=c&cbll=-24.1710432,-46.7760195", "O_QUE_FAZER": "CARTEIRA - FAMPE", "ER_REGIAO_CIDADE_min": "Itanhaém_Baixada Santista" }, "geometry": { "type": "Point", "coordinates": [ -46.7760195, -24.1710432 ] } },
{ "type": "Feature", "properties": { "fid": 271988, "CNPJ": "54608585000156", "IDCIDADE": "ITANHAEM", "NOMEFANTASIA": "-", "RAZAOSOCIAL": "54.608.585_VICTOR_SANTOS_SOUZA", "ENDEE": "AVENIDA FLACIDES FERREIRA, 1264, BALNEARIO GAIVOTA, 11740-000, ITANHAÉM, SP, BRASIL", "LMAPS": "https://www.google.com/maps?q=&layer=c&cbll=-24.235524,-46.9010359", "O_QUE_FAZER": "CARTEIRA - FAMPE", "ER_REGIAO_CIDADE_min": "Itanhaém_Baixada Santista" }, "geometry": { "type": "Point", "coordinates": [ -46.9010359, -24.235524 ] } },
{ "type": "Feature", "properties": { "fid": 277306, "CNPJ": "55843603000147", "IDCIDADE": "ITANHAEM", "NOMEFANTASIA": "-", "RAZAOSOCIAL": "55.843.603_YASMIN_ALVES_MERGULHAO", "ENDEE": "RUA EMIDIO DE SOUZA, 3019, LOJA 2, JARDIM OASIS, 11743-250, ITANHAÉM, SP, BRASIL", "LMAPS": "https://www.google.com/maps?q=&layer=c&cbll=-24.1610413,-46.7956092", "O_QUE_FAZER": "CARTEIRA - FAMPE", "ER_REGIAO_CIDADE_min": "Itanhaém_Baixada Santista" }, "geometry": { "type": "Point", "coordinates": [ -46.7956092, -24.1610413 ] } },
{ "type": "Feature", "properties": { "fid": 279105, "CNPJ": "56379224000100", "IDCIDADE": "ITANHAEM", "NOMEFANTASIA": "MANUBELLA_RACOES", "RAZAOSOCIAL": "MANUBELLA_RACOES_E_ACESSORIOS_LTDA", "ENDEE": "RUA MARGINAL, 10055, JAMAICA, 11754-144, ITANHAÉM, SP, BRASIL", "LMAPS": "https://www.google.com/maps?q=&layer=c&cbll=-24.2411691,-46.8933432", "O_QUE_FAZER": "FINALIZADO", "ER_REGIAO_CIDADE_min": "Itanhaém_Baixada Santista" }, "geometry": { "type": "Point", "coordinates": [ -46.8933432, -24.2411691 ] } },
{ "type": "Feature", "properties": { "fid": 282333, "CNPJ": "57535664000172", "IDCIDADE": "ITANHAEM", "NOMEFANTASIA": "-", "RAZAOSOCIAL": "57.535.664_THAYNA_BRANDAO_DA_SILVA", "ENDEE": "AVENIDA FLACIDES FERREIRA, 162, GAIVOTA (PRAIA), 11754-646, ITANHAÉM, SP, BRASIL", "LMAPS": "https://www.google.com/maps?q=&layer=c&cbll=-24.2437901,-46.8898053", "O_QUE_FAZER": "CARTEIRA - FAMPE", "ER_REGIAO_CIDADE_min": "Itanhaém_Baixada Santista" }, "geometry": { "type": "Point", "coordinates": [ -46.8898053, -24.2437901 ] } },
{ "type": "Feature", "properties": { "fid": 282535, "CNPJ": "57593827000173", "IDCIDADE": "ITANHAEM", "NOMEFANTASIA": "-", "RAZAOSOCIAL": "57.593.827_VINICIUS_MAGALHAES_DOS_SANTOS", "ENDEE": "AVENIDA PRAIAMAR, 1753, LOTY, 11741-364, ITANHAÉM, SP, BRASIL", "LMAPS": "https://www.google.com/maps?q=&layer=c&cbll=-24.1458989,-46.7194121", "O_QUE_FAZER": "CARTEIRA - FAMPE", "ER_REGIAO_CIDADE_min": "Itanhaém_Baixada Santista" }, "geometry": { "type": "Point", "coordinates": [ -46.7194121, -24.1458989 ] } },
{ "type": "Feature", "properties": { "fid": 285001, "CNPJ": "58304027000158", "IDCIDADE": "ITANHAEM", "NOMEFANTASIA": "-", "RAZAOSOCIAL": "58.304.027_JOSE_COELHO_MENDONCA_NETO", "ENDEE": "AVENIDA JOSE BATISTA CAMPOS, 657, CIDADE ANCHIETA, 11740-342, ITANHAÉM, SP, BRASIL", "LMAPS": "https://www.google.com/maps?q=&layer=c&cbll=-24.1758052,-46.7876292", "O_QUE_FAZER": "CARTEIRA - FAMPE", "ER_REGIAO_CIDADE_min": "Itanhaém_Baixada Santista" }, "geometry": { "type": "Point", "coordinates": [ -46.7876292, -24.1758052 ] } },
{ "type": "Feature", "properties": { "fid": 285793, "CNPJ": "58540078000189", "IDCIDADE": "ITANHAEM", "NOMEFANTASIA": "-", "RAZAOSOCIAL": "58.540.078_BRUNO_OLIVEIRA_DA_SILVA", "ENDEE": "10A AVENIDA AVENIDA ARY CARNEIRO DE SARAIVA, 1484, JD LARANJEIRAS, 11740-000, ITANHAÉM, SP, BRASIL", "LMAPS": "https://www.google.com/maps?q=&layer=c&cbll=-24.174396,-46.778735", "O_QUE_FAZER": "CARTEIRA - FAMPE", "ER_REGIAO_CIDADE_min": "Itanhaém_Baixada Santista" }, "geometry": { "type": "Point", "coordinates": [ -46.778735, -24.174396 ] } },
{ "type": "Feature", "properties": { "fid": 286689, "CNPJ": "58865210000122", "IDCIDADE": "ITANHAEM", "NOMEFANTASIA": null, "RAZAOSOCIAL": "58.865.210_TAHIANE_SILVA_MATOS", "ENDEE": "RUA DA BOITE, 08, QUADRA B, JARDIM CORONEL, 11747-780, ITANHAÉM, SP, BRASIL", "LMAPS": "https://www.google.com/maps?q=&layer=c&cbll=-24.1476072,-46.8200902", "O_QUE_FAZER": "CARTEIRA - FAMPE", "ER_REGIAO_CIDADE_min": "Itanhaém_Baixada Santista" }, "geometry": { "type": "Point", "coordinates": [ -46.8200902, -24.1476072 ] } },
{ "type": "Feature", "properties": { "fid": 289709, "CNPJ": "59816171000136", "IDCIDADE": "ITANHAEM", "NOMEFANTASIA": "59.816.171_ANDERSON_DA_SILVA_SANTOS", "RAZAOSOCIAL": "DETALHE_FISICA", "ENDEE": "RUA_DAS_ROSAS110__LOTY_11741-426", "LMAPS": "https://www.google.com/maps?q=&layer=c&cbll=-24.1409463,-46.7306337", "O_QUE_FAZER": "FINALIZADO", "ER_REGIAO_CIDADE_min": "Itanhaém_Baixada Santista" }, "geometry": { "type": "Point", "coordinates": [ -46.7306337, -24.1409463 ] } },
{ "type": "Feature", "properties": { "fid": 290690, "CNPJ": "60150483000132", "IDCIDADE": "ITANHAEM", "NOMEFANTASIA": null, "RAZAOSOCIAL": "60.150.483_ANDREAS_TEIXEIRA_ALVES", "ENDEE": "RUA MARIA SOARES PEDROSO, 175, CIDADE ANCHIETA, 11740-362, ITANHAÉM, SP, BRASIL", "LMAPS": "https://www.google.com/maps?q=&layer=c&cbll=-24.1752771,-46.7856158", "O_QUE_FAZER": "CARTEIRA - FAMPE", "ER_REGIAO_CIDADE_min": "Itanhaém_Baixada Santista" }, "geometry": { "type": "Point", "coordinates": [ -46.7856158, -24.1752771 ] } },
{ "type": "Feature", "properties": { "fid": 291503, "CNPJ": "60440333000163", "IDCIDADE": "ITANHAEM", "NOMEFANTASIA": null, "RAZAOSOCIAL": "60.440.333_VINICIUS_DOS_SANTOS_STRANIERI", "ENDEE": "RUA TIMOTEO GARCIA LAMAS, 2091, NOVA ITANHAEM (INTERIOR), 11742-502, ITANHAÉM, SP, BRASIL", "LMAPS": "https://www.google.com/maps?q=&layer=c&cbll=-24.1543954,-46.7782464", "O_QUE_FAZER": "CARTEIRA - FAMPE", "ER_REGIAO_CIDADE_min": "Itanhaém_Baixada Santista" }, "geometry": { "type": "Point", "coordinates": [ -46.7782464, -24.1543954 ] } },
{ "type": "Feature", "properties": { "fid": 297206, "CNPJ": "62595126000103", "IDCIDADE": "ITANHAEM", "NOMEFANTASIA": null, "RAZAOSOCIAL": "62.595.126_RODRIGO_ALVES_MARCONDES", "ENDEE": "RUA ANTONIO OLIVIO DE ARAUJO, 36, CENTRO, 11740-034, ITANHAÉM, SP, BRASIL", "LMAPS": "https://www.google.com/maps?q=&layer=c&cbll=-24.1837235,-46.7903538", "O_QUE_FAZER": "CARTEIRA - FAMPE", "ER_REGIAO_CIDADE_min": "Itanhaém_Baixada Santista" }, "geometry": { "type": "Point", "coordinates": [ -46.7903538, -24.1837235 ] } },
{ "type": "Feature", "properties": { "fid": 299128, "CNPJ": "63671615000160", "IDCIDADE": "ITANHAEM", "NOMEFANTASIA": "CAVALO_MARINHO_RESTAURANTE_E_PETISCOS_LTDA", "RAZAOSOCIAL": "CAVALO_MARINHO_REST_E_PETISCOS", "ENDEE": "AVENIDA_PRESIDENTE_VARGAS345__CENTRO_11740-048", "LMAPS": "https://www.google.com/maps?q=&layer=c&cbll=-24.186254,-46.7890282", "O_QUE_FAZER": "FINALIZADO", "ER_REGIAO_CIDADE_min": "Itanhaém_Baixada Santista" }, "geometry": { "type": "Point", "coordinates": [ -46.7890282, -24.186254 ] } },
{ "type": "Feature", "properties": { "fid": 300959, "CNPJ": "64805381000169", "IDCIDADE": "ITANHAEM", "NOMEFANTASIA": null, "RAZAOSOCIAL": "64.805.381_PRISCILA_DA_SILVA_SANTOS", "ENDEE": "RUA MINAS GERAIS, 1299, CIBRATEL II, 11746-268, ITANHAÉM, SP, BRASIL", "LMAPS": "https://www.google.com/maps?q=&layer=c&cbll=-24.2080397,-46.8333619", "O_QUE_FAZER": "CARTEIRA - FAMPE", "ER_REGIAO_CIDADE_min": "Itanhaém_Baixada Santista" }, "geometry": { "type": "Point", "coordinates": [ -46.8333619, -24.2080397 ] } },
{ "type": "Feature", "properties": { "fid": 301172, "CNPJ": "64882130000188", "IDCIDADE": "ITANHAEM", "NOMEFANTASIA": null, "RAZAOSOCIAL": "64.882.130_CAROLINY_DA_SILVA_REIS", "ENDEE": "RUA OSMAR GONCALVES NINA, 51, BOPIRANGA, 11749-588, ITANHAÉM, SP, BRASIL", "LMAPS": "https://www.google.com/maps?q=&layer=c&cbll=-24.220455,-46.8655805", "O_QUE_FAZER": "CARTEIRA - FAMPE", "ER_REGIAO_CIDADE_min": "Itanhaém_Baixada Santista" }, "geometry": { "type": "Point", "coordinates": [ -46.8655805, -24.220455 ] } },
{ "type": "Feature", "properties": { "fid": 303772, "CNPJ": "66180853000160", "IDCIDADE": "ITANHAEM", "NOMEFANTASIA": null, "RAZAOSOCIAL": "66.180.853_DANIEL_RODRIGUES_DOS_SANTOS", "ENDEE": "RUA DOM IDILIO SOARES, 341, CASA, NOSSA SENHORA DO SION, 11742-368, ITANHAÉM, SP, BRASIL", "LMAPS": "https://www.google.com/maps?q=&layer=c&cbll=-24.1619924,-46.7577312", "O_QUE_FAZER": "CARTEIRA - FAMPE", "ER_REGIAO_CIDADE_min": "Itanhaém_Baixada Santista" }, "geometry": { "type": "Point", "coordinates": [ -46.7577312, -24.1619924 ] } },
{ "type": "Feature", "properties": { "fid": 304678, "CNPJ": "66750384000178", "IDCIDADE": "ITANHAEM", "NOMEFANTASIA": null, "RAZAOSOCIAL": "66.750.384_TATHIANE_NUNES_RABELO", "ENDEE": "RUA ZEFERINO DA COSTA, 49, BELAS ARTES, 11746-672, ITANHAÉM, SP, BRASIL", "LMAPS": "https://www.google.com/maps?q=&layer=c&cbll=-24.194671,-46.8136786", "O_QUE_FAZER": "CARTEIRA - FAMPE", "ER_REGIAO_CIDADE_min": "Itanhaém_Baixada Santista" }, "geometry": { "type": "Point", "coordinates": [ -46.8136786, -24.194671 ] } },
{ "type": "Feature", "properties": { "fid": 304696, "CNPJ": "66758301000197", "IDCIDADE": "ITANHAEM", "NOMEFANTASIA": "QUALYT", "RAZAOSOCIAL": "EDUARDO_RIBEIRO_MENDES_SERVICOS_DIGITAIS_LTDA", "ENDEE": "RUA ABEL FRANCISCO CANICAIS, 423, SAVOY, 11742628, ITANHAÉM, SP, BRASIL", "LMAPS": "https://www.google.com/maps?q=&layer=c&cbll=-24.1689361,-46.7768153", "O_QUE_FAZER": "CARTEIRA - FAMPE", "ER_REGIAO_CIDADE_min": "Itanhaém_Baixada Santista" }, "geometry": { "type": "Point", "coordinates": [ -46.7768153, -24.1689361 ] } },
{ "type": "Feature", "properties": { "fid": 305078, "CNPJ": "66905223000106", "IDCIDADE": "ITANHAEM", "NOMEFANTASIA": null, "RAZAOSOCIAL": "66.905.223_JOVANA_SELYMES_ADAO_DE_CARVALHO", "ENDEE": "RUA NESTOR LEAL, 375, SABAUNA, 11747-106, ITANHAÉM, SP, BRASIL", "LMAPS": "https://www.google.com/maps?q=&layer=c&cbll=-24.1827584,-46.824831", "O_QUE_FAZER": "CARTEIRA - FAMPE", "ER_REGIAO_CIDADE_min": "Itanhaém_Baixada Santista" }, "geometry": { "type": "Point", "coordinates": [ -46.824831, -24.1827584 ] } },
{ "type": "Feature", "properties": { "fid": 313086, "CNPJ": "43591910000107", "IDCIDADE": "Itanhaém", "NOMEFANTASIA": "EDUARDO  CASTANHEDA", "RAZAOSOCIAL": "43.591.910 EDUARDO NICOLAS ELIAS CASTANHEDA", "ENDEE": "RUA VEREADOR ANGELINO DE BORTOLI, 18, LOJA 03, BELAS ARTES, 11746-772, ITANHAÉM, SP, BRASIL", "LMAPS": "https://www.google.com/maps?q=&layer=c&cbll=-24.1834785,-46.8145954", "O_QUE_FAZER": "FINALIZADO", "ER_REGIAO_CIDADE_min": "Itanhaém_Baixada Santista" }, "geometry": { "type": "Point", "coordinates": [ -46.8145954, -24.1834785 ] } }
]
}
