{
"type": "FeatureCollection",
"name": "ER_REGIAO_CIDADE_min_Avanhandava_Araçatuba",
"crs": { "type": "name", "properties": { "name": "urn:ogc:def:crs:OGC:1.3:CRS84" } },
"xy_coordinate_resolution": 1e-15,
"features": [
{ "type": "Feature", "properties": { "CNPJ": "00425930000197", "IDCIDADE": "AVANHANDAVA", "NOMEFANTASIA": "SORVETERIA_SKI_BOM", "RAZAOSOCIAL": "GILBERTO_LUZ_ROL", "ENDEE": "PRACA_BOA_VISTA159__CENTRO_16360-000", "LMAPS": "https://www.google.com/maps?q=&layer=c&cbll=-49.9491191,-21.4604961", "O_QUE_FAZER": "CARTEIRA", "ER_REGIAO_CIDADE_min": "Avanhandava_Araçatuba" }, "geometry": { "type": "Point", "coordinates": [ -49.9491191, -21.4604961 ] } },
{ "type": "Feature", "properties": { "CNPJ": "28749751000477", "IDCIDADE": "AVANHANDAVA", "NOMEFANTASIA": "OTICA_DO_HELINHO", "RAZAOSOCIAL": "HELIO_PEDRO_DE_MORAES_FILHO", "ENDEE": "PRACA_BOA_VISTA169__CENTRO_16360-000", "LMAPS": "https://www.google.com/maps?q=&layer=c&cbll=-49.9492084,-21.4607237", "O_QUE_FAZER": "CARTEIRA", "ER_REGIAO_CIDADE_min": "Avanhandava_Araçatuba" }, "geometry": { "type": "Point", "coordinates": [ -49.9492084, -21.4607237 ] } },
{ "type": "Feature", "properties": { "CNPJ": "23435469000159", "IDCIDADE": "AVANHANDAVA", "NOMEFANTASIA": "DEP._GAS_SANTANA", "RAZAOSOCIAL": "PAULO_SERGIO_DE_ARAUJO_LUNA", "ENDEE": "RUA_ANGELO_DRUZIAN1405__CENTRO_16360-000", "LMAPS": "https://www.google.com/maps?q=&layer=c&cbll=-49.9439738,-21.4650391", "O_QUE_FAZER": "CARTEIRA", "ER_REGIAO_CIDADE_min": "Avanhandava_Araçatuba" }, "geometry": { "type": "Point", "coordinates": [ -49.9439738, -21.4650391 ] } },
{ "type": "Feature", "properties": { "CNPJ": "17364395000104", "IDCIDADE": "AVANHANDAVA", "NOMEFANTASIA": "LR_PRESENTES", "RAZAOSOCIAL": "L._R._PRESENTES_LTDA", "ENDEE": "RUA_BOA_VISTA1097__CENTRO_16360-000", "LMAPS": "https://www.google.com/maps?q=&layer=c&cbll=-49.9464219,-21.463269", "O_QUE_FAZER": "CARTEIRA", "ER_REGIAO_CIDADE_min": "Avanhandava_Araçatuba" }, "geometry": { "type": "Point", "coordinates": [ -49.9464219, -21.463269 ] } },
{ "type": "Feature", "properties": { "CNPJ": "05449468000181", "IDCIDADE": "AVANHANDAVA", "NOMEFANTASIA": "AUTO_CENTER_CLAUDINO", "RAZAOSOCIAL": "BORRACHARIA_E_AUTO_PECAS_CLAUDINO_LTDA", "ENDEE": "RUA_BOA_VISTA1157__CENTRO_16360-000", "LMAPS": "https://www.google.com/maps?q=&layer=c&cbll=-49.94584,-21.4635367", "O_QUE_FAZER": "CARTEIRA", "ER_REGIAO_CIDADE_min": "Avanhandava_Araçatuba" }, "geometry": { "type": "Point", "coordinates": [ -49.94584, -21.4635367 ] } },
{ "type": "Feature", "properties": { "CNPJ": "13321240000130", "IDCIDADE": "AVANHANDAVA", "NOMEFANTASIA": "LJ_VIDRACARIA", "RAZAOSOCIAL": "LEANDRO_SABIONE_ADAO", "ENDEE": "RUA_BOA_VISTA1165__CENTRO_16360-000", "LMAPS": "https://www.google.com/maps?q=&layer=c&cbll=-49.9458196,-21.4638761", "O_QUE_FAZER": "CARTEIRA", "ER_REGIAO_CIDADE_min": "Avanhandava_Araçatuba" }, "geometry": { "type": "Point", "coordinates": [ -49.9458196, -21.4638761 ] } },
{ "type": "Feature", "properties": { "CNPJ": "05621022000192", "IDCIDADE": "AVANHANDAVA", "NOMEFANTASIA": "NOROESTE_CALCADOS", "RAZAOSOCIAL": "J._V._GALINARI_CALCADOS_E_VESTUARIO", "ENDEE": "RUA_BOA_VISTA1174__CENTRO_16360-000", "LMAPS": "https://www.google.com/maps?q=&layer=c&cbll=-49.9461326,-21.4639131", "O_QUE_FAZER": "CARTEIRA", "ER_REGIAO_CIDADE_min": "Avanhandava_Araçatuba" }, "geometry": { "type": "Point", "coordinates": [ -49.9461326, -21.4639131 ] } },
{ "type": "Feature", "properties": { "CNPJ": "29244609000198", "IDCIDADE": "AVANHANDAVA", "NOMEFANTASIA": "NET_FIBRA", "RAZAOSOCIAL": "NET_FIBRA_SCM_LTDA", "ENDEE": "RUA_BOA_VISTA1184__CENTRO_16360-000", "LMAPS": "https://www.google.com/maps?q=&layer=c&cbll=-49.9461265,-21.4638784", "O_QUE_FAZER": "CARTEIRA", "ER_REGIAO_CIDADE_min": "Avanhandava_Araçatuba" }, "geometry": { "type": "Point", "coordinates": [ -49.9461265, -21.4638784 ] } },
{ "type": "Feature", "properties": { "CNPJ": "41867913000197", "IDCIDADE": "AVANHANDAVA", "NOMEFANTASIA": "ABNER_&_VANESSA", "RAZAOSOCIAL": "ABNER_&_VANESSA_DE_AVANHANDAVA_PRODUTOS_DE_LIMPEZA_LTDA", "ENDEE": "RUA_BOA_VISTA1195__CENTRO_16360-000", "LMAPS": "https://www.google.com/maps?q=&layer=c&cbll=-49.9460032,-21.4639653", "O_QUE_FAZER": "CARTEIRA", "ER_REGIAO_CIDADE_min": "Avanhandava_Araçatuba" }, "geometry": { "type": "Point", "coordinates": [ -49.9460032, -21.4639653 ] } },
{ "type": "Feature", "properties": { "CNPJ": "00560211000189", "IDCIDADE": "AVANHANDAVA", "NOMEFANTASIA": "AURO_ELETRICA_OLIVEIRA", "RAZAOSOCIAL": "CLEITON_FABIANO_DOS_SANTOS_OLIVEIRA_&_CIA_LTDA", "ENDEE": "RUA_BOA_VISTA1405__CENTRO_16360-000", "LMAPS": "https://www.google.com/maps?q=&layer=c&cbll=-49.9443763,-21.4653336", "O_QUE_FAZER": "CARTEIRA", "ER_REGIAO_CIDADE_min": "Avanhandava_Araçatuba" }, "geometry": { "type": "Point", "coordinates": [ -49.9443763, -21.4653336 ] } },
{ "type": "Feature", "properties": { "CNPJ": "48337191000108", "IDCIDADE": "AVANHANDAVA", "NOMEFANTASIA": "AQUARIOS_ACADEMIA._AQUATICA", "RAZAOSOCIAL": "CINTHIA_ALVES_RODRIGUES_LOPES", "ENDEE": "RUA_BOA_VISTA1434__CENTRO_16360-000", "LMAPS": "https://www.google.com/maps?q=&layer=c&cbll=-49.9442804,-21.4656485", "O_QUE_FAZER": "CARTEIRA", "ER_REGIAO_CIDADE_min": "Avanhandava_Araçatuba" }, "geometry": { "type": "Point", "coordinates": [ -49.9442804, -21.4656485 ] } },
{ "type": "Feature", "properties": { "CNPJ": "10861273000184", "IDCIDADE": "AVANHANDAVA", "NOMEFANTASIA": "NIKON_MAT._CONSTR.", "RAZAOSOCIAL": "NIKO_MATERIAIS_PARA_CONSTRUCAO_E_CONSTRUTORA_LTDA", "ENDEE": "RUA_BOA_VISTA1573__CENTRO_16360-000", "LMAPS": "https://www.google.com/maps?q=&layer=c&cbll=-49.9430494,-21.4663013", "O_QUE_FAZER": "CARTEIRA", "ER_REGIAO_CIDADE_min": "Avanhandava_Araçatuba" }, "geometry": { "type": "Point", "coordinates": [ -49.9430494, -21.4663013 ] } },
{ "type": "Feature", "properties": { "CNPJ": "32534049000110", "IDCIDADE": "AVANHANDAVA", "NOMEFANTASIA": "PRATIKA_VISTORIAS", "RAZAOSOCIAL": "LUAN_JAMES_GOMES_MARTINS_ALVES", "ENDEE": "RUA_BOA_VISTA1621__CENTRO_16360-000", "LMAPS": "https://www.google.com/maps?q=&layer=c&cbll=-49.9426812,-21.4668453", "O_QUE_FAZER": "CARTEIRA", "ER_REGIAO_CIDADE_min": "Avanhandava_Araçatuba" }, "geometry": { "type": "Point", "coordinates": [ -49.9426812, -21.4668453 ] } },
{ "type": "Feature", "properties": { "CNPJ": "03839249000183", "IDCIDADE": "AVANHANDAVA", "NOMEFANTASIA": "DEPOSITO_BOA_VISTA", "RAZAOSOCIAL": "J_M_FERNANDES_&_FERREIRA_LTDA", "ENDEE": "RUA_BOA_VISTA1628__CENTRO_16360-000", "LMAPS": "https://www.google.com/maps?q=&layer=c&cbll=-49.9433685,-21.4668859", "O_QUE_FAZER": "CARTEIRA", "ER_REGIAO_CIDADE_min": "Avanhandava_Araçatuba" }, "geometry": { "type": "Point", "coordinates": [ -49.9433685, -21.4668859 ] } },
{ "type": "Feature", "properties": { "CNPJ": "44874678000179", "IDCIDADE": "AVANHANDAVA", "NOMEFANTASIA": "BRITO_CELL", "RAZAOSOCIAL": "EDUARDO_P._DE_BRITO", "ENDEE": "RUA_BOA_VISTA197__CENTRO_16360-000", "LMAPS": "https://www.google.com/maps?q=&layer=c&cbll=-49.9489524,-21.4607353", "O_QUE_FAZER": "CARTEIRA", "ER_REGIAO_CIDADE_min": "Avanhandava_Araçatuba" }, "geometry": { "type": "Point", "coordinates": [ -49.9489524, -21.4607353 ] } },
{ "type": "Feature", "properties": { "CNPJ": "23064068000130", "IDCIDADE": "AVANHANDAVA", "NOMEFANTASIA": "SERRARIA_AVANHANDAVA", "RAZAOSOCIAL": "BORTOLETTO_&_BORMIO_COMERCIO_DE_MADEIRAS_LTDA", "ENDEE": "RUA_BOA_VISTA2200__CENTRO_16360-000", "LMAPS": "https://www.google.com/maps?q=&layer=c&cbll=-49.9395051,-21.4709051", "O_QUE_FAZER": "CARTEIRA", "ER_REGIAO_CIDADE_min": "Avanhandava_Araçatuba" }, "geometry": { "type": "Point", "coordinates": [ -49.9395051, -21.4709051 ] } },
{ "type": "Feature", "properties": { "CNPJ": "01161067000170", "IDCIDADE": "AVANHANDAVA", "NOMEFANTASIA": "AUTO_ELETRICA_DO_AILSON", "RAZAOSOCIAL": "AILSON_ZEFERINO", "ENDEE": "RUA_BOA_VISTA305__CENTRO_16360-000", "LMAPS": "https://www.google.com/maps?q=&layer=c&cbll=-49.9516276,-21.4580441", "O_QUE_FAZER": "CARTEIRA", "ER_REGIAO_CIDADE_min": "Avanhandava_Araçatuba" }, "geometry": { "type": "Point", "coordinates": [ -49.9516276, -21.4580441 ] } },
{ "type": "Feature", "properties": { "CNPJ": "09430969000177", "IDCIDADE": "AVANHANDAVA", "NOMEFANTASIA": "CUCA_MOTOS_E_VEICULOS", "RAZAOSOCIAL": "CUCA_MOTOS_E_VEICULOS_LTDA", "ENDEE": "RUA_BOA_VISTA341__CENTRO_16360-000", "LMAPS": "https://www.google.com/maps?q=&layer=c&cbll=-49.9515798,-21.4584683", "O_QUE_FAZER": "CARTEIRA", "ER_REGIAO_CIDADE_min": "Avanhandava_Araçatuba" }, "geometry": { "type": "Point", "coordinates": [ -49.9515798, -21.4584683 ] } },
{ "type": "Feature", "properties": { "CNPJ": "08323377000436", "IDCIDADE": "AVANHANDAVA", "NOMEFANTASIA": "SHOW_DO_REAL", "RAZAOSOCIAL": "LOJA_DE_VARIEDADES_SHOW_DO_REAL_LTDA", "ENDEE": "RUA_BOA_VISTA407__CENTRO_16360-000", "LMAPS": "https://www.google.com/maps?q=&layer=c&cbll=-49.9509071,-21.4586813", "O_QUE_FAZER": "CARTEIRA", "ER_REGIAO_CIDADE_min": "Avanhandava_Araçatuba" }, "geometry": { "type": "Point", "coordinates": [ -49.9509071, -21.4586813 ] } },
{ "type": "Feature", "properties": { "CNPJ": "17776044000100", "IDCIDADE": "AVANHANDAVA", "NOMEFANTASIA": "OTICA_PLENA", "RAZAOSOCIAL": "ELAINE_VALERIO_JOSE", "ENDEE": "RUA_BOA_VISTA454__CENTRO_16360-000", "LMAPS": "https://www.google.com/maps?q=&layer=c&cbll=-49.9508626,-21.4590691", "O_QUE_FAZER": "CARTEIRA", "ER_REGIAO_CIDADE_min": "Avanhandava_Araçatuba" }, "geometry": { "type": "Point", "coordinates": [ -49.9508626, -21.4590691 ] } },
{ "type": "Feature", "properties": { "CNPJ": "34451647000151", "IDCIDADE": "AVANHANDAVA", "NOMEFANTASIA": "MOTTA_CONSTRUCOES", "RAZAOSOCIAL": "METTA_CONSTRUCOES_E_EMPREENDIMENTOS_LTDA", "ENDEE": "RUA_BOA_VISTA488__CENTRO_16360-000", "LMAPS": "https://www.google.com/maps?q=&layer=c&cbll=-49.9504593,-21.4593563", "O_QUE_FAZER": "CARTEIRA", "ER_REGIAO_CIDADE_min": "Avanhandava_Araçatuba" }, "geometry": { "type": "Point", "coordinates": [ -49.9504593, -21.4593563 ] } },
{ "type": "Feature", "properties": { "CNPJ": "49945580000189", "IDCIDADE": "AVANHANDAVA", "NOMEFANTASIA": "MAIS_CELLL", "RAZAOSOCIAL": "MM_EMPREENDIMENTOS_&_SERVICOS_ESP_LTDA", "ENDEE": "RUA_BOA_VISTA580__CENTRO_16360-000", "LMAPS": "https://www.google.com/maps?q=&layer=c&cbll=-49.9499892,-21.4598901", "O_QUE_FAZER": "CARTEIRA", "ER_REGIAO_CIDADE_min": "Avanhandava_Araçatuba" }, "geometry": { "type": "Point", "coordinates": [ -49.9499892, -21.4598901 ] } },
{ "type": "Feature", "properties": { "CNPJ": "04566911000131", "IDCIDADE": "AVANHANDAVA", "NOMEFANTASIA": "LESLIE_FLORES", "RAZAOSOCIAL": "LESLIE_MORAES_LIMA_RAMPAZZO", "ENDEE": "RUA_BOA_VISTA603__CENTRO_16360-000", "LMAPS": "https://www.google.com/maps?q=&layer=c&cbll=-49.9497455,-21.45999", "O_QUE_FAZER": "CARTEIRA", "ER_REGIAO_CIDADE_min": "Avanhandava_Araçatuba" }, "geometry": { "type": "Point", "coordinates": [ -49.9497455, -21.45999 ] } },
{ "type": "Feature", "properties": { "CNPJ": "03380510000120", "IDCIDADE": "AVANHANDAVA", "NOMEFANTASIA": "FASHION_MANIA", "RAZAOSOCIAL": "S_R_DOS_SANTOS_MAGAZINE", "ENDEE": "RUA_BOA_VISTA619__CENTRO_16360-000", "LMAPS": "https://www.google.com/maps?q=&layer=c&cbll=-49.9495108,-21.4601286", "O_QUE_FAZER": "CARTEIRA", "ER_REGIAO_CIDADE_min": "Avanhandava_Araçatuba" }, "geometry": { "type": "Point", "coordinates": [ -49.9495108, -21.4601286 ] } },
{ "type": "Feature", "properties": { "CNPJ": "10497520000105", "IDCIDADE": "AVANHANDAVA", "NOMEFANTASIA": "DROGARIA_BOM_JESUS", "RAZAOSOCIAL": "CALDATO_&_ZANOTTO_DROGARIA_LTDA", "ENDEE": "RUA_BOA_VISTA746__CENTRO_16360-000", "LMAPS": "https://www.google.com/maps?q=&layer=c&cbll=-49.9489798,-21.4611248", "O_QUE_FAZER": "CARTEIRA", "ER_REGIAO_CIDADE_min": "Avanhandava_Araçatuba" }, "geometry": { "type": "Point", "coordinates": [ -49.9489798, -21.4611248 ] } },
{ "type": "Feature", "properties": { "CNPJ": "44287685000174", "IDCIDADE": "AVANHANDAVA", "NOMEFANTASIA": "ACADEMIA_EVOLUTION", "RAZAOSOCIAL": "ACADEMIA_ATAIDE_EVOLUTION_LTDA", "ENDEE": "RUA_BOA_VISTA764__CENTRO_16360-000", "LMAPS": "https://www.google.com/maps?q=&layer=c&cbll=-49.94917,-21.4611017", "O_QUE_FAZER": "CARTEIRA", "ER_REGIAO_CIDADE_min": "Avanhandava_Araçatuba" }, "geometry": { "type": "Point", "coordinates": [ -49.94917, -21.4611017 ] } },
{ "type": "Feature", "properties": { "CNPJ": "67227900000228", "IDCIDADE": "AVANHANDAVA", "NOMEFANTASIA": "RUFINO_PRESENTES", "RAZAOSOCIAL": "ZILA_MARIA_RUFINO_VANDERLEI", "ENDEE": "RUA_BOA_VISTA862__CENTRO_16360-000", "LMAPS": "https://www.google.com/maps?q=&layer=c&cbll=-49.9479089,-21.4620022", "O_QUE_FAZER": "CARTEIRA", "ER_REGIAO_CIDADE_min": "Avanhandava_Araçatuba" }, "geometry": { "type": "Point", "coordinates": [ -49.9479089, -21.4620022 ] } },
{ "type": "Feature", "properties": { "CNPJ": "51099927000161", "IDCIDADE": "AVANHANDAVA", "NOMEFANTASIA": "PETRUCCI_AUTO_CENTER", "RAZAOSOCIAL": "PETRUCCI_AUTO_CENTER_LTDA", "ENDEE": "RUA_BOA_VISTA935__CENTRO_16360-000", "LMAPS": "https://www.google.com/maps?q=&layer=c&cbll=-49.9473777,-21.4620474", "O_QUE_FAZER": "CARTEIRA", "ER_REGIAO_CIDADE_min": "Avanhandava_Araçatuba" }, "geometry": { "type": "Point", "coordinates": [ -49.9473777, -21.4620474 ] } },
{ "type": "Feature", "properties": { "CNPJ": "45665916000107", "IDCIDADE": "AVANHANDAVA", "NOMEFANTASIA": "AJOCEL_MAT._CONST.", "RAZAOSOCIAL": "TIRINTAN_&_CIA_LTDA", "ENDEE": "RUA_DO_CAFE700__CENTRO_16360-000", "LMAPS": "https://www.google.com/maps?q=&layer=c&cbll=-49.9467868,-21.460589", "O_QUE_FAZER": "CARTEIRA", "ER_REGIAO_CIDADE_min": "Avanhandava_Araçatuba" }, "geometry": { "type": "Point", "coordinates": [ -49.9467868, -21.460589 ] } },
{ "type": "Feature", "properties": { "CNPJ": "24142714000100", "IDCIDADE": "AVANHANDAVA", "NOMEFANTASIA": "MINI_MERCADO_DANIN", "RAZAOSOCIAL": "SERV_FESTA_E_MINIMERCADO_DANIN_LTDA", "ENDEE": "RUA_HERMINIA_GODINHO_DE_MOURA192__VALE_DO_SOL_16360-000", "LMAPS": "https://www.google.com/maps?q=&layer=c&cbll=-49.9443185,-21.4544004", "O_QUE_FAZER": "CARTEIRA", "ER_REGIAO_CIDADE_min": "Avanhandava_Araçatuba" }, "geometry": { "type": "Point", "coordinates": [ -49.9443185, -21.4544004 ] } },
{ "type": "Feature", "properties": { "CNPJ": "24990389000128", "IDCIDADE": "AVANHANDAVA", "NOMEFANTASIA": "DROGA_SOL", "RAZAOSOCIAL": "MARCELO_MIESSI_TOLENTINO", "ENDEE": "RUA_HERMINIA_GODINHO_DE_MOURA202__VALE_DO_SOL_16360-000", "LMAPS": "https://www.google.com/maps?q=&layer=c&cbll=-49.9442502,-21.4543698", "O_QUE_FAZER": "CARTEIRA", "ER_REGIAO_CIDADE_min": "Avanhandava_Araçatuba" }, "geometry": { "type": "Point", "coordinates": [ -49.9442502, -21.4543698 ] } },
{ "type": "Feature", "properties": { "CNPJ": "05475779000115", "IDCIDADE": "AVANHANDAVA", "NOMEFANTASIA": "LANALE", "RAZAOSOCIAL": "LENI_ADAS_PEREIRA_PORTELLA", "ENDEE": "RUA_JOSE_ADAS119__CENTRO_16360-000", "LMAPS": "https://www.google.com/maps?q=&layer=c&cbll=-49.9502531,-21.4594521", "O_QUE_FAZER": "CARTEIRA", "ER_REGIAO_CIDADE_min": "Avanhandava_Araçatuba" }, "geometry": { "type": "Point", "coordinates": [ -49.9502531, -21.4594521 ] } },
{ "type": "Feature", "properties": { "CNPJ": "12911497000189", "IDCIDADE": "AVANHANDAVA", "NOMEFANTASIA": "AUTO_ESCOLA_MARECHAL", "RAZAOSOCIAL": "ANDREA_UEHARA_DE_MELO", "ENDEE": "RUA_MARECHAL_DEODORO848__CENTRO_16360-000", "LMAPS": "https://www.google.com/maps?q=&layer=c&cbll=-49.948941,-21.4624858", "O_QUE_FAZER": "CARTEIRA", "ER_REGIAO_CIDADE_min": "Avanhandava_Araçatuba" }, "geometry": { "type": "Point", "coordinates": [ -49.948941, -21.4624858 ] } },
{ "type": "Feature", "properties": { "CNPJ": "51269003000166", "IDCIDADE": "AVANHANDAVA", "NOMEFANTASIA": "MINI_MERCADO_ALVORADA", "RAZAOSOCIAL": "ALVORADA_MINIMERCADO_AVANHANDAVA_LTDA", "ENDEE": "RUA_ORLANDO_BORGHI151__PADRE_NATAL_CREMASCO_16360-000", "LMAPS": "https://www.google.com/maps?q=&layer=c&cbll=-49.9371675,-21.4574305", "O_QUE_FAZER": "CARTEIRA", "ER_REGIAO_CIDADE_min": "Avanhandava_Araçatuba" }, "geometry": { "type": "Point", "coordinates": [ -49.9371675, -21.4574305 ] } },
{ "type": "Feature", "properties": { "CNPJ": "34057052000116", "IDCIDADE": "AVANHANDAVA", "NOMEFANTASIA": "RG_ENG._INDUST.", "RAZAOSOCIAL": "RB_ENGENHARIA_INDUSTRIAL_LTDA", "ENDEE": "RUA_RUI_BARBOSA170__CENTRO_16360-000", "LMAPS": "https://www.google.com/maps?q=&layer=c&cbll=-49.9469489,-21.4600836", "O_QUE_FAZER": "CARTEIRA", "ER_REGIAO_CIDADE_min": "Avanhandava_Araçatuba" }, "geometry": { "type": "Point", "coordinates": [ -49.9469489, -21.4600836 ] } },
{ "type": "Feature", "properties": { "CNPJ": "32911906000154", "IDCIDADE": "AVANHANDAVA", "NOMEFANTASIA": "CLINICA_VET._AVAPET", "RAZAOSOCIAL": "DANIEL_WELLINGTON_ROCHA", "ENDEE": "RUA_SEIGO_HIRATA117__PADRE_NATAL_CREMASCO_16360-000", "LMAPS": "https://www.google.com/maps?q=&layer=c&cbll=-49.93756,-21.4575383", "O_QUE_FAZER": "CARTEIRA", "ER_REGIAO_CIDADE_min": "Avanhandava_Araçatuba" }, "geometry": { "type": "Point", "coordinates": [ -49.93756, -21.4575383 ] } },
{ "type": "Feature", "properties": { "CNPJ": "09158470000152", "IDCIDADE": "AVANHANDAVA", "NOMEFANTASIA": "ROSANA_AMARO_GONCALVES_NUNES_MERCEARIA", "RAZAOSOCIAL": "DEPOSITO_DE_GAS_LABAREDA_", "ENDEE": "RUA_DAS_CAMELIAS51__JARDIM_CAMPOS_VERDES_16360-000", "LMAPS": "https://www.google.com/maps?q=&layer=c&cbll=-49.9481578,-21.4616744", "O_QUE_FAZER": "FINALIZADO", "ER_REGIAO_CIDADE_min": "Avanhandava_Araçatuba" }, "geometry": { "type": "Point", "coordinates": [ -49.9481578, -21.4616744 ] } },
{ "type": "Feature", "properties": { "CNPJ": "26183584000171", "IDCIDADE": "BOM_SUCESSO_DE_ITARARE", "NOMEFANTASIA": "-", "RAZAOSOCIAL": "AD_GALDINO_LOCACAO_DE_GUINCHO_LTDA", "ENDEE": "RUA_BOA_VISTA_1698_CENTRO_16360-000_CLEMENTINA", "LMAPS": "https://www.google.com/maps?q=&layer=c&cbll=-21.4656827,-49.9442362", "O_QUE_FAZER": "FINALIZADO", "ER_REGIAO_CIDADE_min": "Avanhandava_Araçatuba" }, "geometry": { "type": "Point", "coordinates": [ -49.9442362, -21.4656827 ] } }
]
}
