{
"type": "FeatureCollection",
"name": "ER_REGIAO_CIDADE_min_Mogi das Cruzes_Taiaçupeba_Alto Tietê",
"crs": { "type": "name", "properties": { "name": "urn:ogc:def:crs:OGC:1.3:CRS84" } },
"xy_coordinate_resolution": 1e-15,
"features": [
{ "type": "Feature", "properties": { "fid": 289705, "CNPJ": "20808318000100", "IDCIDADE": "MOGI_DAS_CRUZES", "NOMEFANTASIA": "EMERSON_FERNANDO_DE_OLIVEIRA", "RAZAOSOCIAL": "PANIFICADORA_TAIACUPEBA", "ENDEE": "RUA_SEIS_DE_JUNHO60__TAIACUPEBA_08765-120", "LMAPS": "https://www.google.com/maps?q=&layer=c&cbll=-46.1852722,-23.6743569", "O_QUE_FAZER": "FINALIZADO", "ER_REGIAO_CIDADE_min": "Mogi das Cruzes_Taiaçupeba_Alto Tietê" }, "geometry": { "type": "Point", "coordinates": [ -46.1852722, -23.6743569 ] } },
{ "type": "Feature", "properties": { "fid": 289772, "CNPJ": "32189351000189", "IDCIDADE": "MOGI_DAS_CRUZES", "NOMEFANTASIA": "FLAVIO_MULLER_VIEIRA_45301091867", "RAZAOSOCIAL": "MILLER_PRODUCOES_", "ENDEE": "RUA_SEIS_DE_JUNHO191__TAIACUPEBA_08765-120", "LMAPS": "https://www.google.com/maps?q=&layer=c&cbll=-46.1845583,-23.6753314", "O_QUE_FAZER": "FINALIZADO", "ER_REGIAO_CIDADE_min": "Mogi das Cruzes_Taiaçupeba_Alto Tietê" }, "geometry": { "type": "Point", "coordinates": [ -46.1845583, -23.6753314 ] } },
{ "type": "Feature", "properties": { "fid": 305833, "CNPJ": "59654453000184", "IDCIDADE": "MOGI DAS CRUZES", "NOMEFANTASIA": "-", "RAZAOSOCIAL": "59.654.453 ELLEM APARECIDA FARIA DOS SANTOS", "ENDEE": "RUA CALIM ZUGAID FILHO, 78, TAIACUPEBA, 08765-290, MOGI DAS CRUZES, SP, BRASIL", "LMAPS": "https://www.google.com/maps?q=&layer=c&cbll=-23.670864,-46.177636", "O_QUE_FAZER": "CARTEIRA - FAMPE", "ER_REGIAO_CIDADE_min": "Mogi das Cruzes_Taiaçupeba_Alto Tietê" }, "geometry": { "type": "Point", "coordinates": [ -46.177636, -23.670864 ] } }
]
}
