{
"type": "FeatureCollection",
"name": "ER_REGIAO_CIDADE_min_Pardinho_Botucatu",
"crs": { "type": "name", "properties": { "name": "urn:ogc:def:crs:OGC:1.3:CRS84" } },
"xy_coordinate_resolution": 1e-15,
"features": [
{ "type": "Feature", "properties": { "CNPJ": "05352359000141", "IDCIDADE": "PARDINHO", "NOMEFANTASIA": "LUCIANA_DANIEL_DA_SILVA", "RAZAOSOCIAL": "BIXO_COM_CAPRICHO", "ENDEE": "RUA_AUGUSTO_CESAR85__CENTRO_18640-019", "LATITUDE": "-23.0790204", "LONGITUDE": "-48.3792302", "LMAPS": "https://www.google.com/maps?q=&layer=c&cbll=-48.3792302,-23.0790204", "O_QUE_FAZER": "FINALIZADO", "field_10": null, "field_11": null, "field_12": null, "field_13": null, "ER_REGIAO_CIDADE_min": "Pardinho_Botucatu" }, "geometry": { "type": "Point", "coordinates": [ -48.3792302, -23.0790204 ] } },
{ "type": "Feature", "properties": { "CNPJ": "55068186000102", "IDCIDADE": "PARDINHO", "NOMEFANTASIA": "SABRINA_BURGOS_ANACLETO_DE_OLIVEIRA", "RAZAOSOCIAL": "MR_TERRAPLANAGEM_E_LOCACAO_DE_MAQUINAS_LTDA", "ENDEE": "RUA DOMINGOS VIEIRA PINTO, 130, JARDIM SÃO JOÃO, 18640-126, PARDINHO, SP, BRASIL", "LATITUDE": "-23.088783", "LONGITUDE": "-48.3688287", "LMAPS": "https://www.google.com/maps?q=&layer=c&cbll=-23.088783,-48.3688287", "O_QUE_FAZER": "FINALIZADO", "field_10": null, "field_11": null, "field_12": null, "field_13": null, "ER_REGIAO_CIDADE_min": "Pardinho_Botucatu" }, "geometry": { "type": "Point", "coordinates": [ -48.3688287, -23.088783 ] } },
{ "type": "Feature", "properties": { "CNPJ": "44987676000196", "IDCIDADE": "PARDINHO", "NOMEFANTASIA": null, "RAZAOSOCIAL": "VETOR_3_ENGENHARIA_E_CONSTRUCOES_LTDA", "ENDEE": "RUA ROSA DE JESUS CERANTO, 100, VILA SANTA TEREZINHA, 18642-010, PARDINHO, SP, BRASIL", "LATITUDE": "-23.0800859", "LONGITUDE": "-48.3755621", "LMAPS": "https://www.google.com/maps?q=&layer=c&cbll=-23.0800859,-48.3755621", "O_QUE_FAZER": "CARTEIRA - FAMPE", "field_10": null, "field_11": null, "field_12": null, "field_13": null, "ER_REGIAO_CIDADE_min": "Pardinho_Botucatu" }, "geometry": { "type": "Point", "coordinates": [ -48.3755621, -23.0800859 ] } },
{ "type": "Feature", "properties": { "CNPJ": "14628905000115", "IDCIDADE": "PARDINHO", "NOMEFANTASIA": null, "RAZAOSOCIAL": "EDSON_ANDRE_DE_SOUZA", "ENDEE": "RUA AUGUSTO CESAR, 344, VILA SANTA TEREZINHA, 18640-000, PARDINHO, SP, BRASIL", "LATITUDE": "-23.0799014", "LONGITUDE": "-48.3771841", "LMAPS": "https://www.google.com/maps?q=&layer=c&cbll=-23.0799014,-48.3771841", "O_QUE_FAZER": "CARTEIRA - FAMPE", "field_10": null, "field_11": null, "field_12": null, "field_13": null, "ER_REGIAO_CIDADE_min": "Pardinho_Botucatu" }, "geometry": { "type": "Point", "coordinates": [ -48.3771841, -23.0799014 ] } },
{ "type": "Feature", "properties": { "CNPJ": "43293062000141", "IDCIDADE": "PARDINHO", "NOMEFANTASIA": "-", "RAZAOSOCIAL": "43.293.062_AMANDA_MELEM_BIROLO", "ENDEE": "RUA CORONEL AMELIO, 100, CENTRO, 18640-017, PARDINHO, SP, BRASIL", "LATITUDE": "-23.0809943", "LONGITUDE": "-48.3750536", "LMAPS": "https://www.google.com/maps?q=&layer=c&cbll=-23.0809943,-48.3750536", "O_QUE_FAZER": "CARTEIRA - FAMPE", "field_10": null, "field_11": null, "field_12": null, "field_13": null, "ER_REGIAO_CIDADE_min": "Pardinho_Botucatu" }, "geometry": { "type": "Point", "coordinates": [ -48.3750536, -23.0809943 ] } },
{ "type": "Feature", "properties": { "CNPJ": "61039379000138", "IDCIDADE": "PARDINHO", "NOMEFANTASIA": "-", "RAZAOSOCIAL": "61.039.379_LEONARDO_CAMARGO", "ENDEE": "RUA FRANCISCO CASTILHO, 320, CONJUNTO HABITACIONAL JAIME DA ROCHA CAMARGO, 18642-194, PARDINHO, SP, BRASIL", "LATITUDE": "-23.0800986", "LONGITUDE": "-48.3814811", "LMAPS": "https://www.google.com/maps?q=&layer=c&cbll=-23.0800986,-48.3814811", "O_QUE_FAZER": "CARTEIRA - FAMPE", "field_10": null, "field_11": null, "field_12": null, "field_13": null, "ER_REGIAO_CIDADE_min": "Pardinho_Botucatu" }, "geometry": { "type": "Point", "coordinates": [ -48.3814811, -23.0800986 ] } }
]
}
