{
"type": "FeatureCollection",
"name": "ER_REGIAO_CIDADE_min_Pontalinda_Votuporanga",
"crs": { "type": "name", "properties": { "name": "urn:ogc:def:crs:OGC:1.3:CRS84" } },
"xy_coordinate_resolution": 1e-15,
"features": [
{ "type": "Feature", "properties": { "CNPJ": "44520089000192", "IDCIDADE": "PONTALINDA", "NOMEFANTASIA": "PADARIA__SAO__BENTO", "RAZAOSOCIAL": "PADARIA__SAO__BENTO", "ENDEE": "ITALIA1175__CENTRO_15718-000", "LATITUDE": "-20.4411235", "LONGITUDE": "-50.5187463", "LMAPS": "https://www.google.com/maps?q=&layer=c&cbll=-50.5187463,-20.4411235", "O_QUE_FAZER": "FINALIZADO", "ER_REGIAO_CIDADE_min": "Pontalinda_Votuporanga" }, "geometry": { "type": "Point", "coordinates": [ -50.5187463, -20.4411235 ] } },
{ "type": "Feature", "properties": { "CNPJ": "29825375000172", "IDCIDADE": "PONTALINDA", "NOMEFANTASIA": "OFICINA__BORRACHARIA__ALVORADA", "RAZAOSOCIAL": "OFICINA__BORRACHARIA__ALVORADA", "ENDEE": "JOSE_CARDOSO_PEREIRA1344__CENTRO_15718-000", "LATITUDE": "-20.4383771", "LONGITUDE": "-50.5238895", "LMAPS": "https://www.google.com/maps?q=&layer=c&cbll=-50.5238895,-20.4383771", "O_QUE_FAZER": "FINALIZADO", "ER_REGIAO_CIDADE_min": "Pontalinda_Votuporanga" }, "geometry": { "type": "Point", "coordinates": [ -50.5238895, -20.4383771 ] } },
{ "type": "Feature", "properties": { "CNPJ": "49503511000115", "IDCIDADE": "PONTALINDA", "NOMEFANTASIA": "QUITANDA DA FAMÍLIA", "RAZAOSOCIAL": "49.503.511 MARTA OLIVEIRA DOS SANTOS", "ENDEE": "MANOEL NÉO CARVALHO, 1585, CENTRO, 15718-000, PONTALINDA_15718-000", "LATITUDE": "-20.4418985", "LONGITUDE": "-50.5249355", "LMAPS": "https://www.google.com/maps?q=&layer=c&cbll=-20.4418985,-50.5249355", "O_QUE_FAZER": "FINALIZADO", "ER_REGIAO_CIDADE_min": "Pontalinda_Votuporanga" }, "geometry": { "type": "Point", "coordinates": [ -50.5249355, -20.4418985 ] } },
{ "type": "Feature", "properties": { "CNPJ": "44857994000132", "IDCIDADE": "PONTALINDA", "NOMEFANTASIA": "LA_MODAS", "RAZAOSOCIAL": "LA_MODAS", "ENDEE": "ADALBERTO_BRANDAO1296__CENTRO_15718-011", "LATITUDE": "-20.4365121", "LONGITUDE": "-50.5203788", "LMAPS": "https://www.google.com/maps?q=&layer=c&cbll=-50.5203788,-20.4365121", "O_QUE_FAZER": "FINALIZADO", "ER_REGIAO_CIDADE_min": "Pontalinda_Votuporanga" }, "geometry": { "type": "Point", "coordinates": [ -50.5203788, -20.4365121 ] } },
{ "type": "Feature", "properties": { "CNPJ": "26912467000100", "IDCIDADE": "PONTALINDA", "NOMEFANTASIA": "ARMZEM_57", "RAZAOSOCIAL": "ARMZEM_57", "ENDEE": "ADALBERTO_BRANDAO1426__CENTRO_15718-011", "LATITUDE": "-20.4422754", "LONGITUDE": "-50.5240299", "LMAPS": "https://www.google.com/maps?q=&layer=c&cbll=-50.5240299,-20.4422754", "O_QUE_FAZER": "FINALIZADO", "ER_REGIAO_CIDADE_min": "Pontalinda_Votuporanga" }, "geometry": { "type": "Point", "coordinates": [ -50.5240299, -20.4422754 ] } },
{ "type": "Feature", "properties": { "CNPJ": "18859709000102", "IDCIDADE": "PONTALINDA", "NOMEFANTASIA": "CICLO_MOTOS", "RAZAOSOCIAL": "CICLO_MOTOS", "ENDEE": "ADALBERTO_BRANDAO1518__CENTRO_15718-011", "LATITUDE": "-20.4420713", "LONGITUDE": "-50.5238617", "LMAPS": "https://www.google.com/maps?q=&layer=c&cbll=-50.5238617,-20.4420713", "O_QUE_FAZER": "FINALIZADO", "ER_REGIAO_CIDADE_min": "Pontalinda_Votuporanga" }, "geometry": { "type": "Point", "coordinates": [ -50.5238617, -20.4420713 ] } },
{ "type": "Feature", "properties": { "CNPJ": "62189873000141", "IDCIDADE": "PONTALINDA", "NOMEFANTASIA": "SANCHES_MATERIAIS_PARA_CONSTRUCAO", "RAZAOSOCIAL": "CLEZIO_DE_JESUS_SANCHES", "ENDEE": "RUA_ADALBERTO_BRANDAO1342__CENTRO_15718-011", "LATITUDE": "-20.4406648", "LONGITUDE": "-50.5228788", "LMAPS": "https://www.google.com/maps?q=&layer=c&cbll=-50.5228788,-20.4406648", "O_QUE_FAZER": "FINALIZADO", "ER_REGIAO_CIDADE_min": "Pontalinda_Votuporanga" }, "geometry": { "type": "Point", "coordinates": [ -50.5228788, -20.4406648 ] } },
{ "type": "Feature", "properties": { "CNPJ": "74281072000190", "IDCIDADE": "PONTALINDA", "NOMEFANTASIA": "BAR_DO_EDISON", "RAZAOSOCIAL": "EDISON_GOMES_DA_SILVA-PONTALINDA", "ENDEE": "RUA_ADALBERTO_BRANDAO1350__CENTRO_15718-011", "LATITUDE": "-20.4406614", "LONGITUDE": "-50.5229124", "LMAPS": "https://www.google.com/maps?q=&layer=c&cbll=-50.5229124,-20.4406614", "O_QUE_FAZER": "FINALIZADO", "ER_REGIAO_CIDADE_min": "Pontalinda_Votuporanga" }, "geometry": { "type": "Point", "coordinates": [ -50.5229124, -20.4406614 ] } },
{ "type": "Feature", "properties": { "CNPJ": "00350621000103", "IDCIDADE": "PONTALINDA", "NOMEFANTASIA": "CASA_SAO_SEBASTIAO", "RAZAOSOCIAL": "ROSELI_DE_SOUZA_LEITE", "ENDEE": "RUA_ADALBERTO_BRANDAO1474__CENTRO_15718-011", "LATITUDE": "-20.4417048", "LONGITUDE": "-50.5236575", "LMAPS": "https://www.google.com/maps?q=&layer=c&cbll=-50.5236575,-20.4417048", "O_QUE_FAZER": "FINALIZADO", "ER_REGIAO_CIDADE_min": "Pontalinda_Votuporanga" }, "geometry": { "type": "Point", "coordinates": [ -50.5236575, -20.4417048 ] } },
{ "type": "Feature", "properties": { "CNPJ": "20662808000141", "IDCIDADE": "PONTALINDA", "NOMEFANTASIA": "PADARIA_PEREIRA", "RAZAOSOCIAL": "ADRIANO_PEREIRA_DA_SILVA_PANIFICADORA", "ENDEE": "RUA_MANOEL_NEO_DE_CARVALHO1383__CENTRO_15718-011", "LATITUDE": "-20.4403403", "LONGITUDE": "-50.523878", "LMAPS": "https://www.google.com/maps?q=&layer=c&cbll=-50.523878,-20.4403403", "O_QUE_FAZER": "FINALIZADO", "ER_REGIAO_CIDADE_min": "Pontalinda_Votuporanga" }, "geometry": { "type": "Point", "coordinates": [ -50.523878, -20.4403403 ] } },
{ "type": "Feature", "properties": { "CNPJ": "36417423000159", "IDCIDADE": "PONTALINDA", "NOMEFANTASIA": "CASA_DE_CARNES_PEREIRA", "RAZAOSOCIAL": "FERNANDA_APARECIDA_PINHEIRO_DOS_SANTOS", "ENDEE": "RUA_MANOEL_NEO_DE_CARVALHO1375__CENTRO_15718-011", "LATITUDE": "-20.4402084", "LONGITUDE": "-50.5238009", "LMAPS": "https://www.google.com/maps?q=&layer=c&cbll=-50.5238009,-20.4402084", "O_QUE_FAZER": "FINALIZADO", "ER_REGIAO_CIDADE_min": "Pontalinda_Votuporanga" }, "geometry": { "type": "Point", "coordinates": [ -50.5238009, -20.4402084 ] } },
{ "type": "Feature", "properties": { "CNPJ": "54600809000183", "IDCIDADE": "PONTALINDA", "NOMEFANTASIA": "HEITOR__SOUZA__RAMIREZ", "RAZAOSOCIAL": "HEITOR__SOUZA__RAMIREZ", "ENDEE": "ADALBERTO_BRANDAO1284__CENTRO_15718-011", "LATITUDE": "-20.4365121", "LONGITUDE": "-50.5203788", "LMAPS": "https://www.google.com/maps?q=&layer=c&cbll=-50.5203788,-20.4365121", "O_QUE_FAZER": "FINALIZADO", "ER_REGIAO_CIDADE_min": "Pontalinda_Votuporanga" }, "geometry": { "type": "Point", "coordinates": [ -50.5203788, -20.4365121 ] } },
{ "type": "Feature", "properties": { "CNPJ": "31886190000110", "IDCIDADE": "PONTALINDA", "NOMEFANTASIA": "4_TROQUECELL", "RAZAOSOCIAL": "4_TROQUECELL", "ENDEE": "MANOEL_NEO_DE_CARVALHO1355__CENTRO_15718-015", "LATITUDE": "-20.4398147", "LONGITUDE": "-50.5234624", "LMAPS": "https://www.google.com/maps?q=&layer=c&cbll=-50.5234624,-20.4398147", "O_QUE_FAZER": "FINALIZADO", "ER_REGIAO_CIDADE_min": "Pontalinda_Votuporanga" }, "geometry": { "type": "Point", "coordinates": [ -50.5234624, -20.4398147 ] } },
{ "type": "Feature", "properties": { "CNPJ": "08896450000116", "IDCIDADE": "PONTALINDA", "NOMEFANTASIA": "SANCHES_MODAS", "RAZAOSOCIAL": "SERGIO_APARECIDO_PIRES_RAMIRES_-_ROUPAS", "ENDEE": "RUA_MANOEL_NEO_DE_CARVALHO1331__CENTRO_15718-015", "LATITUDE": "-20.4398233", "LONGITUDE": "-50.5235918", "LMAPS": "https://www.google.com/maps?q=&layer=c&cbll=-50.5235918,-20.4398233", "O_QUE_FAZER": "FINALIZADO", "ER_REGIAO_CIDADE_min": "Pontalinda_Votuporanga" }, "geometry": { "type": "Point", "coordinates": [ -50.5235918, -20.4398233 ] } },
{ "type": "Feature", "properties": { "CNPJ": "08683741000126", "IDCIDADE": "PONTALINDA", "NOMEFANTASIA": "DROGARIA_NOVA_FARMA", "RAZAOSOCIAL": "MARIA_LUIZA_GASPARINO_SILVA", "ENDEE": "RUA_MANOEL_NEO_DE_CARVALHO1211__CENTRO_15718-015", "LATITUDE": "-20.4389769", "LONGITUDE": "-50.5229979", "LMAPS": "https://www.google.com/maps?q=&layer=c&cbll=-50.5229979,-20.4389769", "O_QUE_FAZER": "FINALIZADO", "ER_REGIAO_CIDADE_min": "Pontalinda_Votuporanga" }, "geometry": { "type": "Point", "coordinates": [ -50.5229979, -20.4389769 ] } },
{ "type": "Feature", "properties": { "CNPJ": "50573336000111", "IDCIDADE": "PONTALINDA", "NOMEFANTASIA": "EMPORIO_CENTRAL", "RAZAOSOCIAL": "ANTONIO_SANCHES_FILHO", "ENDEE": "RUA_MANOEL_NEO_DE_CARVALHO1411__CENTRO_15718-015", "LATITUDE": "-20.4405615", "LONGITUDE": "-50.5240164", "LMAPS": "https://www.google.com/maps?q=&layer=c&cbll=-50.5240164,-20.4405615", "O_QUE_FAZER": "FINALIZADO", "ER_REGIAO_CIDADE_min": "Pontalinda_Votuporanga" }, "geometry": { "type": "Point", "coordinates": [ -50.5240164, -20.4405615 ] } },
{ "type": "Feature", "properties": { "CNPJ": "54190640000130", "IDCIDADE": "PONTALINDA", "NOMEFANTASIA": "FARMA_PONTALINDA", "RAZAOSOCIAL": "FARMA_PONTALINDA_LTDA", "ENDEE": "RUA_MANOEL_NEO_DE_CARVALHO1417__CENTRO_15718-015", "LATITUDE": "-20.4406117", "LONGITUDE": "-50.5240272", "LMAPS": "https://www.google.com/maps?q=&layer=c&cbll=-50.5240272,-20.4406117", "O_QUE_FAZER": "FINALIZADO", "ER_REGIAO_CIDADE_min": "Pontalinda_Votuporanga" }, "geometry": { "type": "Point", "coordinates": [ -50.5240272, -20.4406117 ] } },
{ "type": "Feature", "properties": { "CNPJ": "55278709000145", "IDCIDADE": "PONTALINDA", "NOMEFANTASIA": "CASA_POPULAR", "RAZAOSOCIAL": "LUIZ_VIAN_PONTALINDA", "ENDEE": "RUA_MANOEL_NEO_DE_CARVALHO1511__CENTRO_15718-015", "LATITUDE": "-20.4413503", "LONGITUDE": "-50.5245523", "LMAPS": "https://www.google.com/maps?q=&layer=c&cbll=-50.5245523,-20.4413503", "O_QUE_FAZER": "FINALIZADO", "ER_REGIAO_CIDADE_min": "Pontalinda_Votuporanga" }, "geometry": { "type": "Point", "coordinates": [ -50.5245523, -20.4413503 ] } },
{ "type": "Feature", "properties": { "CNPJ": "14793121000142", "IDCIDADE": "PONTALINDA", "NOMEFANTASIA": "MINI MERCADO  BOM PREÇO", "RAZAOSOCIAL": "DEBORA CRISTINA RODRIGUES BARBOZA", "ENDEE": "MANOEL NÉO CARVALHO, 1625, CENTRO, 15718-015, PONTALINDA_15718-015", "LATITUDE": "-20.4422421", "LONGITUDE": "-50.525227", "LMAPS": "https://www.google.com/maps?q=&layer=c&cbll=-20.4422421,-50.525227", "O_QUE_FAZER": "FINALIZADO", "ER_REGIAO_CIDADE_min": "Pontalinda_Votuporanga" }, "geometry": { "type": "Point", "coordinates": [ -50.525227, -20.4422421 ] } },
{ "type": "Feature", "properties": { "CNPJ": "04929942000100", "IDCIDADE": "PONTALINDA", "NOMEFANTASIA": "MIL_COISA", "RAZAOSOCIAL": "DANILLO_LEAO_GASPARINO_PONTALINDA_ME", "ENDEE": "RUA_ITACOLOMI1634__CENTRO_15718-176", "LATITUDE": "-20.4405155", "LONGITUDE": "-50.5226899", "LMAPS": "https://www.google.com/maps?q=&layer=c&cbll=-50.5226899,-20.4405155", "O_QUE_FAZER": "FINALIZADO", "ER_REGIAO_CIDADE_min": "Pontalinda_Votuporanga" }, "geometry": { "type": "Point", "coordinates": [ -50.5226899, -20.4405155 ] } },
{ "type": "Feature", "properties": { "CNPJ": "06073716000103", "IDCIDADE": "PONTALINDA", "NOMEFANTASIA": "DEPOSITO_DE_GAS_E_AGUA_PONTALINDA", "RAZAOSOCIAL": "ROSELI_BARBOSA_GAS", "ENDEE": "AVENIDA_DOS_TRABALHADORES1260__CENTRO_15719-000", "LATITUDE": "-20.4404165", "LONGITUDE": "-50.5182748", "LMAPS": "https://www.google.com/maps?q=&layer=c&cbll=-50.5182748,-20.4404165", "O_QUE_FAZER": "FINALIZADO", "ER_REGIAO_CIDADE_min": "Pontalinda_Votuporanga" }, "geometry": { "type": "Point", "coordinates": [ -50.5182748, -20.4404165 ] } },
{ "type": "Feature", "properties": { "CNPJ": "40188459000185", "IDCIDADE": "PONTALINDA", "NOMEFANTASIA": "CASA_DE_CARNES_HOI_DOURADO", "RAZAOSOCIAL": "MARCOS_DAVI_GUERRA_LTDA", "ENDEE": "AVENIDA_ALTINO_LEAO1656__CENTRO_15718-000", "LATITUDE": "-20.4403902", "LONGITUDE": "-50.5238505", "LMAPS": "https://www.google.com/maps?q=&layer=c&cbll=-50.5238505,-20.4403902", "O_QUE_FAZER": "CARTEIRA", "ER_REGIAO_CIDADE_min": "Pontalinda_Votuporanga" }, "geometry": { "type": "Point", "coordinates": [ -50.5238505, -20.4403902 ] } },
{ "type": "Feature", "properties": { "CNPJ": "23683003000172", "IDCIDADE": "PONTALINDA", "NOMEFANTASIA": "AUTO_ELETRICO_TRIANGULO", "RAZAOSOCIAL": "FREITAS_&_SILVA_AUTO_ELETRICO_LTDA", "ENDEE": "AVENIDA_DOS_TRABALHADORES1232__CENTRO_15718-000", "LATITUDE": "-20.4404267", "LONGITUDE": "-50.5180601", "LMAPS": "https://www.google.com/maps?q=&layer=c&cbll=-50.5180601,-20.4404267", "O_QUE_FAZER": "CARTEIRA", "ER_REGIAO_CIDADE_min": "Pontalinda_Votuporanga" }, "geometry": { "type": "Point", "coordinates": [ -50.5180601, -20.4404267 ] } },
{ "type": "Feature", "properties": { "CNPJ": "45297920000151", "IDCIDADE": "PONTALINDA", "NOMEFANTASIA": "E_F_VIEL_CONSTRUTORA", "RAZAOSOCIAL": "EDILSON_FURLAN_VIEL", "ENDEE": "AVENIDA_DOS_TRABALHADORES1246__CENTRO_15718-000", "LATITUDE": "-20.4402804", "LONGITUDE": "-50.5182143", "LMAPS": "https://www.google.com/maps?q=&layer=c&cbll=-50.5182143,-20.4402804", "O_QUE_FAZER": "CARTEIRA", "ER_REGIAO_CIDADE_min": "Pontalinda_Votuporanga" }, "geometry": { "type": "Point", "coordinates": [ -50.5182143, -20.4402804 ] } },
{ "type": "Feature", "properties": { "CNPJ": "41470763000183", "IDCIDADE": "PONTALINDA", "NOMEFANTASIA": "VIEL_MATERIAIS_PARA_CONSTRUCAO", "RAZAOSOCIAL": "VIEL_MATERIAIS_PARA_CONSTRUCAO_LTDA", "ENDEE": "AVENIDA_DOS_TRABALHADORES1366__CENTRO_15718-000", "LATITUDE": "-20.4403229", "LONGITUDE": "-50.5182382", "LMAPS": "https://www.google.com/maps?q=&layer=c&cbll=-50.5182382,-20.4403229", "O_QUE_FAZER": "CARTEIRA", "ER_REGIAO_CIDADE_min": "Pontalinda_Votuporanga" }, "geometry": { "type": "Point", "coordinates": [ -50.5182382, -20.4403229 ] } },
{ "type": "Feature", "properties": { "CNPJ": "10962309000116", "IDCIDADE": "PONTALINDA", "NOMEFANTASIA": "JOANA_DARC_PEREIRA_DE_OLIVEIRA", "RAZAOSOCIAL": "JOANA_D_ARC_PEREIRA_DE_OLIVEIRA", "ENDEE": "RUA_ADALBERTO_BRANDAO1249__CENTRO_15718-000", "LATITUDE": "-20.4398254", "LONGITUDE": "-50.5225654", "LMAPS": "https://www.google.com/maps?q=&layer=c&cbll=-50.5225654,-20.4398254", "O_QUE_FAZER": "CARTEIRA", "ER_REGIAO_CIDADE_min": "Pontalinda_Votuporanga" }, "geometry": { "type": "Point", "coordinates": [ -50.5225654, -20.4398254 ] } },
{ "type": "Feature", "properties": { "CNPJ": "01097170000107", "IDCIDADE": "PONTALINDA", "NOMEFANTASIA": "AUTO_POSTO_PONTALINDA", "RAZAOSOCIAL": "AUTO_POSTO_PONTALINDA_LTDA", "ENDEE": "RUA_ADALBERTO_BRANDAO1334__CENTRO_15718-000", "LATITUDE": "-20.4406371", "LONGITUDE": "-50.5227762", "LMAPS": "https://www.google.com/maps?q=&layer=c&cbll=-50.5227762,-20.4406371", "O_QUE_FAZER": "CARTEIRA", "ER_REGIAO_CIDADE_min": "Pontalinda_Votuporanga" }, "geometry": { "type": "Point", "coordinates": [ -50.5227762, -20.4406371 ] } },
{ "type": "Feature", "properties": { "CNPJ": "17126402000130", "IDCIDADE": "PONTALINDA", "NOMEFANTASIA": "TOP_CELL", "RAZAOSOCIAL": "LUCAS_BARBOSA_DE_SOUZA_CELULAR", "ENDEE": "RUA_ADALBERTO_BRANDAO1491__CENTRO_15718-000", "LATITUDE": "-20.4416583", "LONGITUDE": "-50.5238868", "LMAPS": "https://www.google.com/maps?q=&layer=c&cbll=-50.5238868,-20.4416583", "O_QUE_FAZER": "CARTEIRA", "ER_REGIAO_CIDADE_min": "Pontalinda_Votuporanga" }, "geometry": { "type": "Point", "coordinates": [ -50.5238868, -20.4416583 ] } },
{ "type": "Feature", "properties": { "CNPJ": "34675304000170", "IDCIDADE": "PONTALINDA", "NOMEFANTASIA": "V,F_SOLUCOES", "RAZAOSOCIAL": "V.F._SOLUCOES_AMBIENTAIS_LTDA", "ENDEE": "RUA_ANTONIO_SCARPAZZA1275__CENTRO_15718-000", "LATITUDE": "-20.440279", "LONGITUDE": "-50.5182188", "LMAPS": "https://www.google.com/maps?q=&layer=c&cbll=-50.5182188,-20.440279", "O_QUE_FAZER": "CARTEIRA", "ER_REGIAO_CIDADE_min": "Pontalinda_Votuporanga" }, "geometry": { "type": "Point", "coordinates": [ -50.5182188, -20.440279 ] } },
{ "type": "Feature", "properties": { "CNPJ": "10356438000160", "IDCIDADE": "PONTALINDA", "NOMEFANTASIA": "NIK_SHOPPING", "RAZAOSOCIAL": "LUZIA_APARECIDA_DA_SILVA_-_ELETRODOMESTICO", "ENDEE": "RUA_FRANCA1416__CENTRO_15718-000", "LATITUDE": "-20.4436105", "LONGITUDE": "-50.5196293", "LMAPS": "https://www.google.com/maps?q=&layer=c&cbll=-50.5196293,-20.4436105", "O_QUE_FAZER": "CARTEIRA", "ER_REGIAO_CIDADE_min": "Pontalinda_Votuporanga" }, "geometry": { "type": "Point", "coordinates": [ -50.5196293, -20.4436105 ] } },
{ "type": "Feature", "properties": { "CNPJ": "11272854000143", "IDCIDADE": "PONTALINDA", "NOMEFANTASIA": "ESCRITORIO_CONTABIL_SAO_PEDRO", "RAZAOSOCIAL": "NILTON_CARLOS_TONHOLO", "ENDEE": "RUA_ITACOLOMI1555__CENTRO_15718-000", "LATITUDE": "-20.440835", "LONGITUDE": "-50.5221891", "LMAPS": "https://www.google.com/maps?q=&layer=c&cbll=-50.5221891,-20.440835", "O_QUE_FAZER": "CARTEIRA", "ER_REGIAO_CIDADE_min": "Pontalinda_Votuporanga" }, "geometry": { "type": "Point", "coordinates": [ -50.5221891, -20.440835 ] } },
{ "type": "Feature", "properties": { "CNPJ": "53770729000103", "IDCIDADE": "PONTALINDA", "NOMEFANTASIA": "DROGARIA_SAO_PEDRO", "RAZAOSOCIAL": "DROGARIA_SAO_PEDRO_PONTALINDA_LTDA", "ENDEE": "RUA_ITACOLOMI1660__CENTRO_15718-000", "LATITUDE": "-20.4402485", "LONGITUDE": "-50.5229335", "LMAPS": "https://www.google.com/maps?q=&layer=c&cbll=-50.5229335,-20.4402485", "O_QUE_FAZER": "CARTEIRA", "ER_REGIAO_CIDADE_min": "Pontalinda_Votuporanga" }, "geometry": { "type": "Point", "coordinates": [ -50.5229335, -20.4402485 ] } },
{ "type": "Feature", "properties": { "CNPJ": "17996048000102", "IDCIDADE": "PONTALINDA", "NOMEFANTASIA": "MERCADO_SAO_JOAO", "RAZAOSOCIAL": "SARA_REGINA_SIQUEIRA_CAPELA", "ENDEE": "RUA_ITACOLOMI1668__CENTRO_15718-000", "LATITUDE": "-20.4402665", "LONGITUDE": "-50.5229867", "LMAPS": "https://www.google.com/maps?q=&layer=c&cbll=-50.5229867,-20.4402665", "O_QUE_FAZER": "CARTEIRA", "ER_REGIAO_CIDADE_min": "Pontalinda_Votuporanga" }, "geometry": { "type": "Point", "coordinates": [ -50.5229867, -20.4402665 ] } },
{ "type": "Feature", "properties": { "CNPJ": "50876648000102", "IDCIDADE": "PONTALINDA", "NOMEFANTASIA": "SUPERMERCADO_SAO_JORGE", "RAZAOSOCIAL": "JURANDIR_APARECIDO_DE_JESUS_PIRES", "ENDEE": "RUA_ITACOLOMI1708__CENTRO_15718-000", "LATITUDE": "-20.4400314", "LONGITUDE": "-50.5232734", "LMAPS": "https://www.google.com/maps?q=&layer=c&cbll=-50.5232734,-20.4400314", "O_QUE_FAZER": "CARTEIRA", "ER_REGIAO_CIDADE_min": "Pontalinda_Votuporanga" }, "geometry": { "type": "Point", "coordinates": [ -50.5232734, -20.4400314 ] } },
{ "type": "Feature", "properties": { "CNPJ": "11169320000196", "IDCIDADE": "PONTALINDA", "NOMEFANTASIA": "ESCRITORIO_CONTABIL_OSTI", "RAZAOSOCIAL": "ESCRITORIO_CONTABIL_OSTI_&_OSTI_LTDA", "ENDEE": "RUA_MANOEL_NEO_DE_CARVALHO1325__CENTRO_15718-000", "LATITUDE": "-20.4395134", "LONGITUDE": "-50.523327", "LMAPS": "https://www.google.com/maps?q=&layer=c&cbll=-50.523327,-20.4395134", "O_QUE_FAZER": "CARTEIRA", "ER_REGIAO_CIDADE_min": "Pontalinda_Votuporanga" }, "geometry": { "type": "Point", "coordinates": [ -50.523327, -20.4395134 ] } },
{ "type": "Feature", "properties": { "CNPJ": "53245437000151", "IDCIDADE": "PONTALINDA", "NOMEFANTASIA": "DEPOSITO_SAO_JORGE", "RAZAOSOCIAL": "LUIZ_ROBERTO_PIRES_RAMIRES", "ENDEE": "RUA_TUPINAMBAS1195__CENTRO_15718-000", "LATITUDE": "-20.4386573", "LONGITUDE": "-50.5237818", "LMAPS": "https://www.google.com/maps?q=&layer=c&cbll=-50.5237818,-20.4386573", "O_QUE_FAZER": "CARTEIRA", "ER_REGIAO_CIDADE_min": "Pontalinda_Votuporanga" }, "geometry": { "type": "Point", "coordinates": [ -50.5237818, -20.4386573 ] } }
]
}
