{
"type": "FeatureCollection",
"name": "ER_REGIAO_CIDADE_min_Urânia_Votuporanga",
"crs": { "type": "name", "properties": { "name": "urn:ogc:def:crs:OGC:1.3:CRS84" } },
"xy_coordinate_resolution": 1e-15,
"features": [
{ "type": "Feature", "properties": { "fid": 600, "CNPJ": "00142822000107", "IDCIDADE": "URANIA", "NOMEFANTASIA": "AUTO_POSTO_URANIA", "RAZAOSOCIAL": "ADALTON_SANCHES_HENRIQUE", "ENDEE": "RUA_JOSE_FRANCISCO_PEREIRA0__CENTRO_15760-000", "LMAPS": "https://www.google.com/maps?q=&layer=c&cbll=-20.2468464,-50.6381372", "O_QUE_FAZER": "CARTEIRA", "ER_REGIAO_CIDADE_min": "Urânia_Votuporanga" }, "geometry": { "type": "Point", "coordinates": [ -50.6381372, -20.2468464 ] } },
{ "type": "Feature", "properties": { "fid": 2729, "CNPJ": "00559533000108", "IDCIDADE": "URANIA", "NOMEFANTASIA": "MARCOS_TRESSO_URANIA", "RAZAOSOCIAL": "AUTO_ELETRICA__TRESSO", "ENDEE": "AVENIDA_BRASIL1996__CENTRO_15760-000", "LMAPS": "https://www.google.com/maps?q=&layer=c&cbll=-20.2452554,-50.6439355", "O_QUE_FAZER": "FINALIZADO", "ER_REGIAO_CIDADE_min": "Urânia_Votuporanga" }, "geometry": { "type": "Point", "coordinates": [ -50.6439355, -20.2452554 ] } },
{ "type": "Feature", "properties": { "fid": 3183, "CNPJ": "00638386000161", "IDCIDADE": "URANIA", "NOMEFANTASIA": "VETERINARIA_NAKAO_LTDA", "RAZAOSOCIAL": "VETERINARIA_NAKAO", "ENDEE": "AVENIDA_BRASIL707__CENTRO_15760-000", "LMAPS": "https://www.google.com/maps?q=&layer=c&cbll=-20.2452554,-50.6439355", "O_QUE_FAZER": "FINALIZADO", "ER_REGIAO_CIDADE_min": "Urânia_Votuporanga" }, "geometry": { "type": "Point", "coordinates": [ -50.6439355, -20.2452554 ] } },
{ "type": "Feature", "properties": { "fid": 3493, "CNPJ": "00706719000142", "IDCIDADE": "URANIA", "NOMEFANTASIA": "M_A_DA_SILVA_VIVEIROS", "RAZAOSOCIAL": "DELLARE_MODAS", "ENDEE": "AVENIDA_BRASIL554__CENTRO_15760-000", "LMAPS": "https://www.google.com/maps?q=&layer=c&cbll=-20.2452554,-50.6439355", "O_QUE_FAZER": "FINALIZADO", "ER_REGIAO_CIDADE_min": "Urânia_Votuporanga" }, "geometry": { "type": "Point", "coordinates": [ -50.6439355, -20.2452554 ] } },
{ "type": "Feature", "properties": { "fid": 4580, "CNPJ": "00946978000140", "IDCIDADE": "URANIA", "NOMEFANTASIA": "SUELI_SMANIOTTO_DOS_SANTOS", "RAZAOSOCIAL": "MERCEARIA__DO_CIDAO", "ENDEE": "RUA_RIO_PRETO526__CENTRO_15760-000", "LMAPS": "https://www.google.com/maps?q=&layer=c&cbll=-20.2452554,-50.6439355", "O_QUE_FAZER": "FINALIZADO", "ER_REGIAO_CIDADE_min": "Urânia_Votuporanga" }, "geometry": { "type": "Point", "coordinates": [ -50.6439355, -20.2452554 ] } },
{ "type": "Feature", "properties": { "fid": 5263, "CNPJ": "01096693000120", "IDCIDADE": "URANIA", "NOMEFANTASIA": "ADEMIR_DONIZETI_SANCHES_HENRIQUE", "RAZAOSOCIAL": "SUPERMERCADO_CENTRAL", "ENDEE": "AVENIDA_PRESIDENTE_KENNEDY508__CENTRO_15760-000", "LMAPS": "https://www.google.com/maps?q=&layer=c&cbll=-20.2452554,-50.6439355", "O_QUE_FAZER": "FINALIZADO", "ER_REGIAO_CIDADE_min": "Urânia_Votuporanga" }, "geometry": { "type": "Point", "coordinates": [ -50.6439355, -20.2452554 ] } },
{ "type": "Feature", "properties": { "fid": 7918, "CNPJ": "01631337000160", "IDCIDADE": "URANIA", "NOMEFANTASIA": "MOVEIS_SANTA_LUZIA_URANIA_LTDA", "RAZAOSOCIAL": "MOVEIS__SANT_LUZIA", "ENDEE": "AVENIDA_BRASIL569__CENTRO_15760-000", "LMAPS": "https://www.google.com/maps?q=&layer=c&cbll=-20.2452554,-50.6439355", "O_QUE_FAZER": "FINALIZADO", "ER_REGIAO_CIDADE_min": "Urânia_Votuporanga" }, "geometry": { "type": "Point", "coordinates": [ -50.6439355, -20.2452554 ] } },
{ "type": "Feature", "properties": { "fid": 15245, "CNPJ": "03019343000196", "IDCIDADE": "URANIA", "NOMEFANTASIA": "T._A._TOMONARI_&_FILHAS_LTDA.", "RAZAOSOCIAL": "FARMACIA__PINHEIRO", "ENDEE": "AVENIDA_PRESIDENTE_KENNEDY528__CENTRO_15760-000", "LMAPS": "https://www.google.com/maps?q=&layer=c&cbll=-20.2469334,-50.6463833", "O_QUE_FAZER": "FINALIZADO", "ER_REGIAO_CIDADE_min": "Urânia_Votuporanga" }, "geometry": { "type": "Point", "coordinates": [ -50.6463833, -20.2469334 ] } },
{ "type": "Feature", "properties": { "fid": 18935, "CNPJ": "03620505000147", "IDCIDADE": "URANIA", "NOMEFANTASIA": "DARLICE_MACHADO_DE_MORAIS", "RAZAOSOCIAL": "AGRO_URANIA_MAESTRELLO", "ENDEE": "AVENIDA_PRESIDENTE_KENNEDY72__CENTRO_15760-000", "LMAPS": "https://www.google.com/maps?q=&layer=c&cbll=-20.2465017,-50.6474769", "O_QUE_FAZER": "FINALIZADO", "ER_REGIAO_CIDADE_min": "Urânia_Votuporanga" }, "geometry": { "type": "Point", "coordinates": [ -50.6474769, -20.2465017 ] } },
{ "type": "Feature", "properties": { "fid": 18992, "CNPJ": "03629584000157", "IDCIDADE": "URANIA", "NOMEFANTASIA": "WILSIN_ROBERTO_DE_OLIVEIRA", "RAZAOSOCIAL": "WILSON_ROBERTO_DE_OLIVEIRA-URANIA", "ENDEE": "RUA_SANTOS437__CENTRO_15760-000", "LMAPS": "https://www.google.com/maps?q=&layer=c&cbll=-20.2420281,-50.6456011", "O_QUE_FAZER": "CARTEIRA", "ER_REGIAO_CIDADE_min": "Urânia_Votuporanga" }, "geometry": { "type": "Point", "coordinates": [ -50.6456011, -20.2420281 ] } },
{ "type": "Feature", "properties": { "fid": 19058, "CNPJ": "03640189000175", "IDCIDADE": "URANIA", "NOMEFANTASIA": "CRISTO_REI_GAS_E_AGUA", "RAZAOSOCIAL": "UANDERSON_RODRIGO_FOSCHI", "ENDEE": "AVENIDA_BRASIL65__CENTRO_15760-000", "LMAPS": "https://www.google.com/maps?q=&layer=c&cbll=-20.2480604,-50.6444096", "O_QUE_FAZER": "CARTEIRA", "ER_REGIAO_CIDADE_min": "Urânia_Votuporanga" }, "geometry": { "type": "Point", "coordinates": [ -50.6444096, -20.2480604 ] } },
{ "type": "Feature", "properties": { "fid": 19344, "CNPJ": "03688382000186", "IDCIDADE": "URANIA", "NOMEFANTASIA": "DM_MANUTENCOES_PECAS_DIESEL", "RAZAOSOCIAL": "E._F._SANTIAGO_LTDA", "ENDEE": "AVENIDA_MARGINAL2282__DISTRITO_INDUSTRIAL_II_15760-000", "LMAPS": "https://www.google.com/maps?q=&layer=c&cbll=-20.2357368,-50.6491669", "O_QUE_FAZER": "CARTEIRA", "ER_REGIAO_CIDADE_min": "Urânia_Votuporanga" }, "geometry": { "type": "Point", "coordinates": [ -50.6491669, -20.2357368 ] } },
{ "type": "Feature", "properties": { "fid": 26310, "CNPJ": "04746168000100", "IDCIDADE": "URANIA", "NOMEFANTASIA": "JOAO_EDUARDO_VOLPI_DE_OLIVEIRA", "RAZAOSOCIAL": "VETERINARIA__VOLPI", "ENDEE": "AVENIDA_BRASIL719__CENTRO_15760-000", "LMAPS": "https://www.google.com/maps?q=&layer=c&cbll=-20.2452554,-50.6439355", "O_QUE_FAZER": "FINALIZADO", "ER_REGIAO_CIDADE_min": "Urânia_Votuporanga" }, "geometry": { "type": "Point", "coordinates": [ -50.6439355, -20.2452554 ] } },
{ "type": "Feature", "properties": { "fid": 27497, "CNPJ": "04917326000139", "IDCIDADE": "URANIA", "NOMEFANTASIA": "INFFOTREINI_PROVEDORES_E_INFORMATICA_LTDA", "RAZAOSOCIAL": "INFFONET_PROVEDOR", "ENDEE": "AVENIDA_ALEIXO_PIGARI707__CENTRO_15760-000", "LMAPS": "https://www.google.com/maps?q=&layer=c&cbll=-20.2460845,-50.6440468", "O_QUE_FAZER": "FINALIZADO", "ER_REGIAO_CIDADE_min": "Urânia_Votuporanga" }, "geometry": { "type": "Point", "coordinates": [ -50.6440468, -20.2460845 ] } },
{ "type": "Feature", "properties": { "fid": 28192, "CNPJ": "05006884000105", "IDCIDADE": "URANIA", "NOMEFANTASIA": "WILSON_BATISTA_BRITO-URANIA", "RAZAOSOCIAL": "BRITUS_INDUSTRIAS_E_COMERCIO__DE_REFRIGERACAO", "ENDEE": "AVENIDA_MARGINAL2334__DISTRITO_INDUSTRIAL_LL_15760-000", "LMAPS": "https://www.google.com/maps?q=&layer=c&cbll=-20.2452458,-50.6439365", "O_QUE_FAZER": "FINALIZADO", "ER_REGIAO_CIDADE_min": "Urânia_Votuporanga" }, "geometry": { "type": "Point", "coordinates": [ -50.6439365, -20.2452458 ] } },
{ "type": "Feature", "properties": { "fid": 29159, "CNPJ": "05142541000178", "IDCIDADE": "URANIA", "NOMEFANTASIA": "AUTO_PECAS_URANIA_LTDA", "RAZAOSOCIAL": "AUTO_SCAP", "ENDEE": "RUA_NATAL842__CENTRO_15760-000", "LMAPS": "https://www.google.com/maps?q=&layer=c&cbll=-20.2431266,-50.6413557", "O_QUE_FAZER": "FINALIZADO", "ER_REGIAO_CIDADE_min": "Urânia_Votuporanga" }, "geometry": { "type": "Point", "coordinates": [ -50.6413557, -20.2431266 ] } },
{ "type": "Feature", "properties": { "fid": 30111, "CNPJ": "05289114000117", "IDCIDADE": "URANIA", "NOMEFANTASIA": "URAMA", "RAZAOSOCIAL": "A._C._DIAS_MENDES", "ENDEE": "RODOVIA_EUCLIDES_DA_CUNHA0__DISTRITO_INDUSTRIAL_II_15760-000", "LMAPS": "https://www.google.com/maps?q=&layer=c&cbll=-20.2353516,-50.6510936", "O_QUE_FAZER": "CARTEIRA", "ER_REGIAO_CIDADE_min": "Urânia_Votuporanga" }, "geometry": { "type": "Point", "coordinates": [ -50.6510936, -20.2353516 ] } },
{ "type": "Feature", "properties": { "fid": 31440, "CNPJ": "05483147000101", "IDCIDADE": "URANIA", "NOMEFANTASIA": "LABORATORIO_DE_ANALISE_S_CLINICAS_JOAO_PAULO_II", "RAZAOSOCIAL": "LABORATORIO_DE_ANALISES_CLINICAS_JOAO_PAULO_SEGUNDO_LTDA", "ENDEE": "RUA_21_DE_NOVEMBRO715__CENTRO_15760-000", "LMAPS": "https://www.google.com/maps?q=&layer=c&cbll=-20.244842,-50.6445312", "O_QUE_FAZER": "CARTEIRA", "ER_REGIAO_CIDADE_min": "Urânia_Votuporanga" }, "geometry": { "type": "Point", "coordinates": [ -50.6445312, -20.244842 ] } },
{ "type": "Feature", "properties": { "fid": 31885, "CNPJ": "05545985000154", "IDCIDADE": "URANIA", "NOMEFANTASIA": "LUCIO_FLAVIO_BOLDRIN", "RAZAOSOCIAL": "AUTO_ELETRICO_AVENIDA", "ENDEE": "AVENIDA_BRASIL842__CENTRO_15760-000", "LMAPS": "https://www.google.com/maps?q=&layer=c&cbll=-20.2452554,-50.6439355", "O_QUE_FAZER": "FINALIZADO", "ER_REGIAO_CIDADE_min": "Urânia_Votuporanga" }, "geometry": { "type": "Point", "coordinates": [ -50.6439355, -20.2452554 ] } },
{ "type": "Feature", "properties": { "fid": 33531, "CNPJ": "05778486000107", "IDCIDADE": "URANIA", "NOMEFANTASIA": "QUITANDA_CHEIRO_VERDE", "RAZAOSOCIAL": "APARECIDO_HERNANDO", "ENDEE": "AVENIDA_PRESIDENTE_KENNEDY717__CENTRO_15760-000", "LMAPS": "https://www.google.com/maps?q=&layer=c&cbll=-20.2470762,-50.6440406", "O_QUE_FAZER": "CARTEIRA", "ER_REGIAO_CIDADE_min": "Urânia_Votuporanga" }, "geometry": { "type": "Point", "coordinates": [ -50.6440406, -20.2470762 ] } },
{ "type": "Feature", "properties": { "fid": 35784, "CNPJ": "06068272000100", "IDCIDADE": "URANIA", "NOMEFANTASIA": "MARLI_SEIKO_NAKAO_TOMINAGA", "RAZAOSOCIAL": "NAKAO_CAIXAS", "ENDEE": "AVENIDA_MARGINAL2286__DISTRITO_INDUSTRIAL_2_15760-000", "LMAPS": "https://www.google.com/maps?q=&layer=c&cbll=-20.2452544,-50.6439236", "O_QUE_FAZER": "FINALIZADO", "ER_REGIAO_CIDADE_min": "Urânia_Votuporanga" }, "geometry": { "type": "Point", "coordinates": [ -50.6439236, -20.2452544 ] } },
{ "type": "Feature", "properties": { "fid": 35975, "CNPJ": "06096880000128", "IDCIDADE": "URANIA", "NOMEFANTASIA": "LEMES_E_DO_PRADO_LTDA", "RAZAOSOCIAL": "AUTO_ESCOLA_FORMULA_1", "ENDEE": "AVENIDA_BRASIL711__CENTRO_15760-000", "LMAPS": "https://www.google.com/maps?q=&layer=c&cbll=-20.2452554,-50.6439355", "O_QUE_FAZER": "FINALIZADO", "ER_REGIAO_CIDADE_min": "Urânia_Votuporanga" }, "geometry": { "type": "Point", "coordinates": [ -50.6439355, -20.2452554 ] } },
{ "type": "Feature", "properties": { "fid": 36094, "CNPJ": "06111511000167", "IDCIDADE": "URANIA", "NOMEFANTASIA": "MARIN_MATERIAIS_PARA_CONSTRUCAO", "RAZAOSOCIAL": "MARIN_MATERIAIS_PARA_CONSTRUCAO_LTDA", "ENDEE": "AVENIDA_PRESIDENTE_KENNEDY687__CENTRO_15760-000", "LMAPS": "https://www.google.com/maps?q=&layer=c&cbll=-20.247474,-50.6430026", "O_QUE_FAZER": "CARTEIRA", "ER_REGIAO_CIDADE_min": "Urânia_Votuporanga" }, "geometry": { "type": "Point", "coordinates": [ -50.6430026, -20.247474 ] } },
{ "type": "Feature", "properties": { "fid": 38317, "CNPJ": "06880915000115", "IDCIDADE": "URANIA", "NOMEFANTASIA": "ROSANA_CRISTINA_BRUNO_FERRARI", "RAZAOSOCIAL": "DROGARIA_UNIAO", "ENDEE": "AVENIDA_BRASIL742__CENTRO_15760-000", "LMAPS": "https://www.google.com/maps?q=&layer=c&cbll=-20.2452554,-50.6439355", "O_QUE_FAZER": "FINALIZADO", "ER_REGIAO_CIDADE_min": "Urânia_Votuporanga" }, "geometry": { "type": "Point", "coordinates": [ -50.6439355, -20.2452554 ] } },
{ "type": "Feature", "properties": { "fid": 43137, "CNPJ": "07486295000105", "IDCIDADE": "URANIA", "NOMEFANTASIA": "AFONSO_A._DOS_SANTOS_-_VESTUARIO", "RAZAOSOCIAL": "CRIS_MODAS", "ENDEE": "AVENIDA_PRESIDENTE_KENNEDY336__CENTRO_15760-000", "LMAPS": "https://www.google.com/maps?q=&layer=c&cbll=-20.2479222,-50.6485207", "O_QUE_FAZER": "FINALIZADO", "ER_REGIAO_CIDADE_min": "Urânia_Votuporanga" }, "geometry": { "type": "Point", "coordinates": [ -50.6485207, -20.2479222 ] } },
{ "type": "Feature", "properties": { "fid": 43394, "CNPJ": "07528829000100", "IDCIDADE": "URANIA", "NOMEFANTASIA": "A._RODRIGUES_DOS_SANTOS_CELULARES", "RAZAOSOCIAL": "MULTIMARCAS_CELULARES", "ENDEE": "AVENIDA_PRESIDENTE_KENNEDY647__CENTRO_15760-000", "LMAPS": "https://www.google.com/maps?q=&layer=c&cbll=-20.2452554,-50.6439355", "O_QUE_FAZER": "FINALIZADO", "ER_REGIAO_CIDADE_min": "Urânia_Votuporanga" }, "geometry": { "type": "Point", "coordinates": [ -50.6439355, -20.2452554 ] } },
{ "type": "Feature", "properties": { "fid": 45020, "CNPJ": "07716115000126", "IDCIDADE": "URANIA", "NOMEFANTASIA": "H._C._N._KANDA", "RAZAOSOCIAL": "ESPACO__MULHER", "ENDEE": "AVENIDA_BARAO_DO_RIO_BRANCO1591__CENTRO_15760-000", "LMAPS": "https://www.google.com/maps?q=&layer=c&cbll=-20.2452554,-50.6439355", "O_QUE_FAZER": "FINALIZADO", "ER_REGIAO_CIDADE_min": "Urânia_Votuporanga" }, "geometry": { "type": "Point", "coordinates": [ -50.6439355, -20.2452554 ] } },
{ "type": "Feature", "properties": { "fid": 47248, "CNPJ": "07995736000196", "IDCIDADE": "URANIA", "NOMEFANTASIA": "CENE_-_ASSESSORIA_EMPRESARIAL_LTDA.", "RAZAOSOCIAL": "CN_NEGOCIOS_IMOBILIARIOS", "ENDEE": "AVENIDA_PRESIDENTE_KENNEDY1511__CENTRO_15760-000", "LMAPS": "https://www.google.com/maps?q=&layer=c&cbll=-20.248219,-50.6385028", "O_QUE_FAZER": "FINALIZADO", "ER_REGIAO_CIDADE_min": "Urânia_Votuporanga" }, "geometry": { "type": "Point", "coordinates": [ -50.6385028, -20.248219 ] } },
{ "type": "Feature", "properties": { "fid": 47415, "CNPJ": "08021666000138", "IDCIDADE": "URANIA", "NOMEFANTASIA": "S.V._DE_SOUZA", "RAZAOSOCIAL": "MERCADO_DOIS_IRMAOS", "ENDEE": "RUA_NATAL1695__CENTRO_15760-000", "LMAPS": "https://www.google.com/maps?q=&layer=c&cbll=-20.2424528,-50.6426635", "O_QUE_FAZER": "FINALIZADO", "ER_REGIAO_CIDADE_min": "Urânia_Votuporanga" }, "geometry": { "type": "Point", "coordinates": [ -50.6426635, -20.2424528 ] } },
{ "type": "Feature", "properties": { "fid": 56825, "CNPJ": "09281906000104", "IDCIDADE": "URANIA", "NOMEFANTASIA": "ROSENI_DE_SOUSA_ALMEIDA_DE_MACEDO", "RAZAOSOCIAL": "MERCADO_SAO_LUIZ", "ENDEE": "AVENIDA_BRASIL1300__NOSSA_DE_FATIMA_15760-000", "LMAPS": "https://www.google.com/maps?q=&layer=c&cbll=-20.2452554,-50.6439355", "O_QUE_FAZER": "FINALIZADO", "ER_REGIAO_CIDADE_min": "Urânia_Votuporanga" }, "geometry": { "type": "Point", "coordinates": [ -50.6439355, -20.2452554 ] } },
{ "type": "Feature", "properties": { "fid": 59108, "CNPJ": "09527432000120", "IDCIDADE": "URANIA", "NOMEFANTASIA": "MARIA_ELIDIA_BRUNELLI_DA_CRUZ", "RAZAOSOCIAL": "BAZAR_SANTO_EXPEDITO", "ENDEE": "AVENIDA_PRESIDENTE_KENNEDY1656__CENTRO_15760-000", "LMAPS": "https://www.google.com/maps?q=&layer=c&cbll=-20.248219,-50.6385028", "O_QUE_FAZER": "FINALIZADO", "ER_REGIAO_CIDADE_min": "Urânia_Votuporanga" }, "geometry": { "type": "Point", "coordinates": [ -50.6385028, -20.248219 ] } },
{ "type": "Feature", "properties": { "fid": 62867, "CNPJ": "10446059000242", "IDCIDADE": "URANIA", "NOMEFANTASIA": "PROCEDE_VISTORIAS", "RAZAOSOCIAL": "MK_JALES_SERVICOS_DE_FOTOS_E_VISTORIAS_LTDA", "ENDEE": "AVENIDA_GETULIO_VARGAS711__NOSSA_SENHORA_DE_FATIMA_15760-000", "LMAPS": "https://www.google.com/maps?q=&layer=c&cbll=-20.2485702,-50.6445087", "O_QUE_FAZER": "CARTEIRA", "ER_REGIAO_CIDADE_min": "Urânia_Votuporanga" }, "geometry": { "type": "Point", "coordinates": [ -50.6445087, -20.2485702 ] } },
{ "type": "Feature", "properties": { "fid": 66364, "CNPJ": "10815733000138", "IDCIDADE": "URANIA", "NOMEFANTASIA": "KAYLANE_CALCADOS_LTDA", "RAZAOSOCIAL": "KAYLANE_E_CALCADOS", "ENDEE": "AVENIDA_PRESIDENTE_KENNEDY538__CENTRO_15760-000", "LMAPS": "https://www.google.com/maps?q=&layer=c&cbll=-20.2473655,-50.6431595", "O_QUE_FAZER": "FINALIZADO", "ER_REGIAO_CIDADE_min": "Urânia_Votuporanga" }, "geometry": { "type": "Point", "coordinates": [ -50.6431595, -20.2473655 ] } },
{ "type": "Feature", "properties": { "fid": 68491, "CNPJ": "11049835000152", "IDCIDADE": "URANIA", "NOMEFANTASIA": "LUCASREGENTE_COMERCIO_DE_MOTORES_ELETRICOS_LTDA", "RAZAOSOCIAL": "LUCAS_REGENTE", "ENDEE": "AVENIDA_MARGINAL1625__CENTRO_15760-000", "LMAPS": "https://www.google.com/maps?q=&layer=c&cbll=-20.2368826,-50.6505284", "O_QUE_FAZER": "FINALIZADO", "ER_REGIAO_CIDADE_min": "Urânia_Votuporanga" }, "geometry": { "type": "Point", "coordinates": [ -50.6505284, -20.2368826 ] } },
{ "type": "Feature", "properties": { "fid": 68998, "CNPJ": "11117229000127", "IDCIDADE": "URANIA", "NOMEFANTASIA": "NESTOR_TRANSPORTES", "RAZAOSOCIAL": "NESTOR_&_NESTOR_TRANSPORTES_LTDA", "ENDEE": "AVENIDA_MARGINAL2252__DISTRITO_INDUSTRIAL_II_15760-000", "LMAPS": "https://www.google.com/maps?q=&layer=c&cbll=-20.2359298,-50.6496117", "O_QUE_FAZER": "CARTEIRA", "ER_REGIAO_CIDADE_min": "Urânia_Votuporanga" }, "geometry": { "type": "Point", "coordinates": [ -50.6496117, -20.2359298 ] } },
{ "type": "Feature", "properties": { "fid": 70627, "CNPJ": "11319240000170", "IDCIDADE": "URANIA", "NOMEFANTASIA": "G._DE_SOUZA_GUTIERREZ", "RAZAOSOCIAL": "GILSON__MOTOS", "ENDEE": "AVENIDA_BRASIL604__CENTRO_15760-000", "LMAPS": "https://www.google.com/maps?q=&layer=c&cbll=-20.2452554,-50.6439355", "O_QUE_FAZER": "FINALIZADO", "ER_REGIAO_CIDADE_min": "Urânia_Votuporanga" }, "geometry": { "type": "Point", "coordinates": [ -50.6439355, -20.2452554 ] } },
{ "type": "Feature", "properties": { "fid": 71709, "CNPJ": "11458663000170", "IDCIDADE": "URANIA", "NOMEFANTASIA": "LILIANI_VIDOTTI_DOS_REIS_BARBATTO", "RAZAOSOCIAL": "LZ_TECIDOS", "ENDEE": "AVENIDA_PRESIDENTE_KENNEDY749__CENTRO_15760-000", "LMAPS": "https://www.google.com/maps?q=&layer=c&cbll=-20.2468565,-50.64418", "O_QUE_FAZER": "FINALIZADO", "ER_REGIAO_CIDADE_min": "Urânia_Votuporanga" }, "geometry": { "type": "Point", "coordinates": [ -50.64418, -20.2468565 ] } },
{ "type": "Feature", "properties": { "fid": 73173, "CNPJ": "11686188000190", "IDCIDADE": "URANIA", "NOMEFANTASIA": "ROBERTO_FERNANDES_GARCIA_08644050818", "RAZAOSOCIAL": "FUNILARIA_PINTURA__ALEMAO", "ENDEE": "AVENIDA_MARGINAL2367__DISTRITO_INDUSTRIAL_LL_15760-000", "LMAPS": "https://www.google.com/maps?q=&layer=c&cbll=-20.2359571,-50.6494841", "O_QUE_FAZER": "FINALIZADO", "ER_REGIAO_CIDADE_min": "Urânia_Votuporanga" }, "geometry": { "type": "Point", "coordinates": [ -50.6494841, -20.2359571 ] } },
{ "type": "Feature", "properties": { "fid": 73239, "CNPJ": "11696243000122", "IDCIDADE": "URANIA", "NOMEFANTASIA": "ATUAL_MOVEIS", "RAZAOSOCIAL": "EDER_HENRIQUE_RODRIGUES", "ENDEE": "AVENIDA_PRESIDENTE_KENNEDY362__CENTRO_15760-000", "LMAPS": "https://www.google.com/maps?q=&layer=c&cbll=-20.2471818,-50.6446138", "O_QUE_FAZER": "CARTEIRA", "ER_REGIAO_CIDADE_min": "Urânia_Votuporanga" }, "geometry": { "type": "Point", "coordinates": [ -50.6446138, -20.2471818 ] } },
{ "type": "Feature", "properties": { "fid": 74612, "CNPJ": "11917847000151", "IDCIDADE": "URANIA", "NOMEFANTASIA": "EMERSON_ALVES_DO_PRADO", "RAZAOSOCIAL": "DROGARIA_PRADO", "ENDEE": "AVENIDA_BRASIL546__CENTRO_15760-000", "LMAPS": "https://www.google.com/maps?q=&layer=c&cbll=-20.2452554,-50.6439355", "O_QUE_FAZER": "FINALIZADO", "ER_REGIAO_CIDADE_min": "Urânia_Votuporanga" }, "geometry": { "type": "Point", "coordinates": [ -50.6439355, -20.2452554 ] } },
{ "type": "Feature", "properties": { "fid": 75322, "CNPJ": "12037011000125", "IDCIDADE": "URANIA", "NOMEFANTASIA": "ESCRITORIO_BRASIL", "RAZAOSOCIAL": "ESCRITORIO_BRASIL_ORGANIZACAO_CONTABIL_LTDA", "ENDEE": "AVENIDA_PRESIDENTE_KENNEDY933__CENTRO_15760-000", "LMAPS": "https://www.google.com/maps?q=&layer=c&cbll=-20.2472998,-50.6424326", "O_QUE_FAZER": "CARTEIRA", "ER_REGIAO_CIDADE_min": "Urânia_Votuporanga" }, "geometry": { "type": "Point", "coordinates": [ -50.6424326, -20.2472998 ] } },
{ "type": "Feature", "properties": { "fid": 75854, "CNPJ": "12133503000114", "IDCIDADE": "URANIA", "NOMEFANTASIA": "ELAINE_CRISTINA_ZIGAR_DE_OLIVEIRA_21361103817", "RAZAOSOCIAL": "BETEL_CENTER", "ENDEE": "AVENIDA_BRASIL164__CENTRO_15760-000", "LMAPS": "https://www.google.com/maps?q=&layer=c&cbll=-20.2452554,-50.6439355", "O_QUE_FAZER": "FINALIZADO", "ER_REGIAO_CIDADE_min": "Urânia_Votuporanga" }, "geometry": { "type": "Point", "coordinates": [ -50.6439355, -20.2452554 ] } },
{ "type": "Feature", "properties": { "fid": 79404, "CNPJ": "12820017000174", "IDCIDADE": "URANIA", "NOMEFANTASIA": "ANTONIO_ALAOR_TAQUETTO_E_CIA_LTDA", "RAZAOSOCIAL": "COMERCIAL__URANIA", "ENDEE": "RUA_GETULIO_VARGAS546__NOSSA_SENHORA_DE_FATIMA_15760-000", "LMAPS": "https://www.google.com/maps?q=&layer=c&cbll=-20.2483337,-50.6469648", "O_QUE_FAZER": "FINALIZADO", "ER_REGIAO_CIDADE_min": "Urânia_Votuporanga" }, "geometry": { "type": "Point", "coordinates": [ -50.6469648, -20.2483337 ] } },
{ "type": "Feature", "properties": { "fid": 79866, "CNPJ": "12925847000166", "IDCIDADE": "URANIA", "NOMEFANTASIA": "WCONECT_WIRE", "RAZAOSOCIAL": "WCONECT_WIRELESS_INFORMATICA_LTDA", "ENDEE": "AVENIDA_BRASIL606__CENTRO_15760-000", "LMAPS": "https://www.google.com/maps?q=&layer=c&cbll=-20.2433684,-50.6433749", "O_QUE_FAZER": "CARTEIRA", "ER_REGIAO_CIDADE_min": "Urânia_Votuporanga" }, "geometry": { "type": "Point", "coordinates": [ -50.6433749, -20.2433684 ] } },
{ "type": "Feature", "properties": { "fid": 82824, "CNPJ": "13477832000145", "IDCIDADE": "URANIA", "NOMEFANTASIA": "13.477.832_PAULO_ANDRE_DA_SILVA", "RAZAOSOCIAL": "LAVA_JATO_DO_PADE", "ENDEE": "AVENIDA_BRASIL640__CENTRO_15760-000", "LMAPS": "https://www.google.com/maps?q=&layer=c&cbll=-20.2452554,-50.6439355", "O_QUE_FAZER": "FINALIZADO", "ER_REGIAO_CIDADE_min": "Urânia_Votuporanga" }, "geometry": { "type": "Point", "coordinates": [ -50.6439355, -20.2452554 ] } },
{ "type": "Feature", "properties": { "fid": 84834, "CNPJ": "13839817000108", "IDCIDADE": "URANIA", "NOMEFANTASIA": "IGOL_INFORMATICA_LTDA", "RAZAOSOCIAL": "IGOR_IMPORTS", "ENDEE": "AVENIDA_PRESIDENTE_KENNEDY717__CENTRO_15760-000", "LMAPS": "https://www.google.com/maps?q=&layer=c&cbll=-20.2469464,-50.6439369", "O_QUE_FAZER": "FINALIZADO", "ER_REGIAO_CIDADE_min": "Urânia_Votuporanga" }, "geometry": { "type": "Point", "coordinates": [ -50.6439369, -20.2469464 ] } },
{ "type": "Feature", "properties": { "fid": 85315, "CNPJ": "13962836000119", "IDCIDADE": "URANIA", "NOMEFANTASIA": "EDVALDO_ROCHA_DA_SILVA_21938846842", "RAZAOSOCIAL": "NOVA_LUBRIFICANTES", "ENDEE": "AVENIDA_BRASIL985__CENTRO_15760-000", "LMAPS": "https://www.google.com/maps?q=&layer=c&cbll=-20.2452554,-50.6439355", "O_QUE_FAZER": "FINALIZADO", "ER_REGIAO_CIDADE_min": "Urânia_Votuporanga" }, "geometry": { "type": "Point", "coordinates": [ -50.6439355, -20.2452554 ] } },
{ "type": "Feature", "properties": { "fid": 85792, "CNPJ": "14051827000139", "IDCIDADE": "URANIA", "NOMEFANTASIA": "MARCIO_BRAZ_ACOUGUE", "RAZAOSOCIAL": "CASA_DE_CARNE_BRAZ", "ENDEE": "AVENIDA_BRASIL1114__CENTRO_15760-000", "LMAPS": "https://www.google.com/maps?q=&layer=c&cbll=-20.2405354,-50.6426598", "O_QUE_FAZER": "FINALIZADO", "ER_REGIAO_CIDADE_min": "Urânia_Votuporanga" }, "geometry": { "type": "Point", "coordinates": [ -50.6426598, -20.2405354 ] } },
{ "type": "Feature", "properties": { "fid": 86429, "CNPJ": "14170024000101", "IDCIDADE": "URANIA", "NOMEFANTASIA": "ANDRE_LUIS_DE_FREITAS_BEBIDAS", "RAZAOSOCIAL": "SERVE_JA", "ENDEE": "AVENIDA_BRASIL728__CENTRO_15760-000", "LMAPS": "https://www.google.com/maps?q=&layer=c&cbll=-20.2452554,-50.6439355", "O_QUE_FAZER": "FINALIZADO", "ER_REGIAO_CIDADE_min": "Urânia_Votuporanga" }, "geometry": { "type": "Point", "coordinates": [ -50.6439355, -20.2452554 ] } },
{ "type": "Feature", "properties": { "fid": 91945, "CNPJ": "15323357000188", "IDCIDADE": "URANIA", "NOMEFANTASIA": "RAFAEL_ROBERTO_CAJUELLA_VAZARIM_PET_SHOP", "RAZAOSOCIAL": "BICHO_MANIA", "ENDEE": "AVENIDA_BRASIL490__CENTRO_15760-000", "LMAPS": "https://www.google.com/maps?q=&layer=c&cbll=-20.2452554,-50.6439355", "O_QUE_FAZER": "FINALIZADO", "ER_REGIAO_CIDADE_min": "Urânia_Votuporanga" }, "geometry": { "type": "Point", "coordinates": [ -50.6439355, -20.2452554 ] } },
{ "type": "Feature", "properties": { "fid": 93431, "CNPJ": "15639047000177", "IDCIDADE": "URANIA", "NOMEFANTASIA": "ANTONIO_MARCOS_DA_SILVA_07058734801", "RAZAOSOCIAL": "TOP_CAR_URANIA", "ENDEE": "AVENIDA_BARAO_DO_RIO_BRANCO2075__CEN_15760-000", "LMAPS": "https://www.google.com/maps?q=&layer=c&cbll=-20.2469623,-50.6353734", "O_QUE_FAZER": "FINALIZADO", "ER_REGIAO_CIDADE_min": "Urânia_Votuporanga" }, "geometry": { "type": "Point", "coordinates": [ -50.6353734, -20.2469623 ] } },
{ "type": "Feature", "properties": { "fid": 102200, "CNPJ": "18045946000130", "IDCIDADE": "URANIA", "NOMEFANTASIA": "ADRIEL_CASSIO_OLIVEIRA_BORTOLI", "RAZAOSOCIAL": "SO_JEANS", "ENDEE": "AVENIDA_PRESIDENTE_KENNEDY470__CENTRO_15760-000", "LMAPS": "https://www.google.com/maps?q=&layer=c&cbll=-20.2467364,-50.6469957", "O_QUE_FAZER": "FINALIZADO", "ER_REGIAO_CIDADE_min": "Urânia_Votuporanga" }, "geometry": { "type": "Point", "coordinates": [ -50.6469957, -20.2467364 ] } },
{ "type": "Feature", "properties": { "fid": 103147, "CNPJ": "18249834000109", "IDCIDADE": "URANIA", "NOMEFANTASIA": "LEANDRO_FLORIANO_BARCELOS_21430789867", "RAZAOSOCIAL": "AUTO_VOLKS__BRASIL", "ENDEE": "AVENIDA_BRASIL885__CENTRO_15760-000", "LMAPS": "https://www.google.com/maps?q=&layer=c&cbll=-20.2452554,-50.6439355", "O_QUE_FAZER": "FINALIZADO", "ER_REGIAO_CIDADE_min": "Urânia_Votuporanga" }, "geometry": { "type": "Point", "coordinates": [ -50.6439355, -20.2452554 ] } },
{ "type": "Feature", "properties": { "fid": 108675, "CNPJ": "19436630000131", "IDCIDADE": "URANIA", "NOMEFANTASIA": "GOU_CLINICA_DE_ODONTOLOGIA", "RAZAOSOCIAL": "CLINICA_ODONTOLOGICA_PISSOLITO_LTDA", "ENDEE": "AVENIDA_PRESIDENTE_KENNEDY621__CENTRO_15760-000", "LMAPS": "https://www.google.com/maps?q=&layer=c&cbll=-20.2469366,-50.6448673", "O_QUE_FAZER": "CARTEIRA", "ER_REGIAO_CIDADE_min": "Urânia_Votuporanga" }, "geometry": { "type": "Point", "coordinates": [ -50.6448673, -20.2469366 ] } },
{ "type": "Feature", "properties": { "fid": 111113, "CNPJ": "19999915000180", "IDCIDADE": "URANIA", "NOMEFANTASIA": "MEDICAL_FARMA+FARMA", "RAZAOSOCIAL": "BIGOTTO_&_RISSATO_COMERCIO_DE_PRODUTOS_FARMACEUTICOS_LTDA", "ENDEE": "AVENIDA_PRESIDENTE_KENNEDY147__CENTRO_15760-000", "LMAPS": "https://www.google.com/maps?q=&layer=c&cbll=-20.2471323,-50.64449", "O_QUE_FAZER": "CARTEIRA", "ER_REGIAO_CIDADE_min": "Urânia_Votuporanga" }, "geometry": { "type": "Point", "coordinates": [ -50.64449, -20.2471323 ] } },
{ "type": "Feature", "properties": { "fid": 111778, "CNPJ": "20140093000167", "IDCIDADE": "URANIA", "NOMEFANTASIA": "FABIANA_FARIA_LANDIM_BERMAL_21666475882", "RAZAOSOCIAL": "GARDEN_CASA_VERDE", "ENDEE": "RUA_FORTALEZA1670__CENTRO_15760-000", "LMAPS": "https://www.google.com/maps?q=&layer=c&cbll=-20.2419906,-50.6428092", "O_QUE_FAZER": "FINALIZADO", "ER_REGIAO_CIDADE_min": "Urânia_Votuporanga" }, "geometry": { "type": "Point", "coordinates": [ -50.6428092, -20.2419906 ] } },
{ "type": "Feature", "properties": { "fid": 113077, "CNPJ": "20422623000160", "IDCIDADE": "URANIA", "NOMEFANTASIA": "FERNANDA_ROBERTA_FERREIRA_SANTANA_E_CIA_LTDA", "RAZAOSOCIAL": "NNEI_IMOVEIS", "ENDEE": "AVENIDA_PRESIDENTE_KENNEDY498__CENTRO_15760-000", "LMAPS": "https://www.google.com/maps?q=&layer=c&cbll=-20.2468176,-50.6467687", "O_QUE_FAZER": "FINALIZADO", "ER_REGIAO_CIDADE_min": "Urânia_Votuporanga" }, "geometry": { "type": "Point", "coordinates": [ -50.6467687, -20.2468176 ] } },
{ "type": "Feature", "properties": { "fid": 113078, "CNPJ": "20422623000240", "IDCIDADE": "URANIA", "NOMEFANTASIA": "NEI_IMOVEIS", "RAZAOSOCIAL": "FERNANDA_ROBERTA_FERREIRA_SANTANA_E_CIA_LTDA", "ENDEE": "AVENIDA_PRESIDENTE_KENNEDY489__CENTRO_15760-000", "LMAPS": "https://www.google.com/maps?q=&layer=c&cbll=-20.2466582,-50.6460282", "O_QUE_FAZER": "CARTEIRA", "ER_REGIAO_CIDADE_min": "Urânia_Votuporanga" }, "geometry": { "type": "Point", "coordinates": [ -50.6460282, -20.2466582 ] } },
{ "type": "Feature", "properties": { "fid": 116840, "CNPJ": "21286824000140", "IDCIDADE": "URANIA", "NOMEFANTASIA": "CRISTIANO_CONTE_DOS_SANTOS_26001504806", "RAZAOSOCIAL": "TALENTO__ELETRICA_E_HIDRAULICA", "ENDEE": "AVENIDA_BRASIL1194__NOSSA_SENHORA_DE_FATIMA_15760-000", "LMAPS": "https://www.google.com/maps?q=&layer=c&cbll=-20.2396894,-50.6425842", "O_QUE_FAZER": "FINALIZADO", "ER_REGIAO_CIDADE_min": "Urânia_Votuporanga" }, "geometry": { "type": "Point", "coordinates": [ -50.6425842, -20.2396894 ] } },
{ "type": "Feature", "properties": { "fid": 118533, "CNPJ": "21679122000126", "IDCIDADE": "URANIA", "NOMEFANTASIA": "EDINEIA_BELUSSI_DE_SOUZA_21469979829", "RAZAOSOCIAL": "NEIA_CABELEIREIRA", "ENDEE": "AVENIDA_BRASIL351__CENTRO_15760-000", "LMAPS": "https://www.google.com/maps?q=&layer=c&cbll=-20.2452554,-50.6439355", "O_QUE_FAZER": "FINALIZADO", "ER_REGIAO_CIDADE_min": "Urânia_Votuporanga" }, "geometry": { "type": "Point", "coordinates": [ -50.6439355, -20.2452554 ] } },
{ "type": "Feature", "properties": { "fid": 118691, "CNPJ": "21715375000108", "IDCIDADE": "URANIA", "NOMEFANTASIA": "ESCRITORIO_GARCIA", "RAZAOSOCIAL": "JOSE_CARLOS_GARCIA_CONTABILIDADE", "ENDEE": "AVENIDA_PRESIDENTE_KENNEDY194__CENTRO_15760-000", "LMAPS": "https://www.google.com/maps?q=&layer=c&cbll=-20.2469482,-50.645993", "O_QUE_FAZER": "CARTEIRA", "ER_REGIAO_CIDADE_min": "Urânia_Votuporanga" }, "geometry": { "type": "Point", "coordinates": [ -50.645993, -20.2469482 ] } },
{ "type": "Feature", "properties": { "fid": 121574, "CNPJ": "22320292000182", "IDCIDADE": "URANIA", "NOMEFANTASIA": "22.320.292_EVANDRO_LUIZ_GUTIERREZ", "RAZAOSOCIAL": "POSTO_DE_MOLAS__URANIA", "ENDEE": "AVENIDA_MARGINAL2222__PARQUE_INDUSTRIAL_II_15760-000", "LMAPS": "https://www.google.com/maps?q=&layer=c&cbll=-20.235959,-50.649488", "O_QUE_FAZER": "FINALIZADO", "ER_REGIAO_CIDADE_min": "Urânia_Votuporanga" }, "geometry": { "type": "Point", "coordinates": [ -50.649488, -20.235959 ] } },
{ "type": "Feature", "properties": { "fid": 125463, "CNPJ": "23146290000181", "IDCIDADE": "URANIA", "NOMEFANTASIA": "JEFERSON_COCHARRO_DOS_SANTOS_40601665880", "RAZAOSOCIAL": "BIM_CALCADOS", "ENDEE": "AVENIDA_BRASIL253__CENTRO_15760-000", "LMAPS": "https://www.google.com/maps?q=&layer=c&cbll=-20.2452554,-50.6439355", "O_QUE_FAZER": "FINALIZADO", "ER_REGIAO_CIDADE_min": "Urânia_Votuporanga" }, "geometry": { "type": "Point", "coordinates": [ -50.6439355, -20.2452554 ] } },
{ "type": "Feature", "properties": { "fid": 126962, "CNPJ": "23466072000124", "IDCIDADE": "URANIA", "NOMEFANTASIA": "ATTILIOS_CONVENIENCIA", "RAZAOSOCIAL": "GITTI_&_GITTE_LOJA_DE_CONVENIENCIA_LTDA", "ENDEE": "AVENIDA_BRASIL30__CENTRO_15760-000", "LMAPS": "https://www.google.com/maps?q=&layer=c&cbll=-20.2392007,-50.6427635", "O_QUE_FAZER": "CARTEIRA", "ER_REGIAO_CIDADE_min": "Urânia_Votuporanga" }, "geometry": { "type": "Point", "coordinates": [ -50.6427635, -20.2392007 ] } },
{ "type": "Feature", "properties": { "fid": 129313, "CNPJ": "23963970000198", "IDCIDADE": "URANIA", "NOMEFANTASIA": "ESCRITORIO_ANDRADE", "RAZAOSOCIAL": "ESCRITORIO_ANDRADE_CONTABILIDADE_LTDA", "ENDEE": "AVENIDA_PRESIDENTE_KENNEDY1485__CENTRO_15760-000", "LMAPS": "https://www.google.com/maps?q=&layer=c&cbll=-20.2466602,-50.6458215", "O_QUE_FAZER": "CARTEIRA", "ER_REGIAO_CIDADE_min": "Urânia_Votuporanga" }, "geometry": { "type": "Point", "coordinates": [ -50.6458215, -20.2466602 ] } },
{ "type": "Feature", "properties": { "fid": 130589, "CNPJ": "24219069000179", "IDCIDADE": "URANIA", "NOMEFANTASIA": "CARLOS_R._LOCATTE_FILHO_LTDA", "RAZAOSOCIAL": "LOCATE__TRANSPORTE", "ENDEE": "AVENIDA_MARGINAL2276__DISTRITO_INDUSTRIAL_LL_15760-000", "LMAPS": "https://www.google.com/maps?q=&layer=c&cbll=-20.2452245,-50.6439687", "O_QUE_FAZER": "FINALIZADO", "ER_REGIAO_CIDADE_min": "Urânia_Votuporanga" }, "geometry": { "type": "Point", "coordinates": [ -50.6439687, -20.2452245 ] } },
{ "type": "Feature", "properties": { "fid": 131417, "CNPJ": "24393287000125", "IDCIDADE": "URANIA", "NOMEFANTASIA": "MENESES_&_FREDERICO_COMERCIO_DE_ARTIGOS_DO_VESTUARIO_E_ACESSORIOS_LTDA", "RAZAOSOCIAL": "LUNA", "ENDEE": "AVENIDA_PRESIDENTE_KENNEDY1647__CENTRO_15760-000", "LMAPS": "https://www.google.com/maps?q=&layer=c&cbll=-20.248219,-50.6385028", "O_QUE_FAZER": "FINALIZADO", "ER_REGIAO_CIDADE_min": "Urânia_Votuporanga" }, "geometry": { "type": "Point", "coordinates": [ -50.6385028, -20.248219 ] } },
{ "type": "Feature", "properties": { "fid": 141300, "CNPJ": "26828791000136", "IDCIDADE": "URANIA", "NOMEFANTASIA": "26.828.791_BRUNO_ROSAN_CAMARGO", "RAZAOSOCIAL": "OPSON", "ENDEE": "AVENIDA_BRASIL1063__CENTRO_15760-000", "LMAPS": "https://www.google.com/maps?q=&layer=c&cbll=-20.2452554,-50.6439355", "O_QUE_FAZER": "FINALIZADO", "ER_REGIAO_CIDADE_min": "Urânia_Votuporanga" }, "geometry": { "type": "Point", "coordinates": [ -50.6439355, -20.2452554 ] } },
{ "type": "Feature", "properties": { "fid": 142492, "CNPJ": "27083592000109", "IDCIDADE": "URANIA", "NOMEFANTASIA": "ACADEMIA_LIFE_FITNESS_URANIA", "RAZAOSOCIAL": "FELIPE_CORDEIRO_FERREIRA_LTDA", "ENDEE": "RUA_21_DE_NOVEMBRO985__CENTRO_15760-000", "LMAPS": "https://www.google.com/maps?q=&layer=c&cbll=-20.2463935,-50.6448962", "O_QUE_FAZER": "CARTEIRA", "ER_REGIAO_CIDADE_min": "Urânia_Votuporanga" }, "geometry": { "type": "Point", "coordinates": [ -50.6448962, -20.2463935 ] } },
{ "type": "Feature", "properties": { "fid": 148550, "CNPJ": "28225136000119", "IDCIDADE": "URANIA", "NOMEFANTASIA": "GILBERTO_MARIA_36053985880", "RAZAOSOCIAL": "TOP_MOTOS", "ENDEE": "AVENIDA_BRASIL646__CENTRO_15760-000", "LMAPS": "https://www.google.com/maps?q=&layer=c&cbll=-20.2452554,-50.6439355", "O_QUE_FAZER": "FINALIZADO", "ER_REGIAO_CIDADE_min": "Urânia_Votuporanga" }, "geometry": { "type": "Point", "coordinates": [ -50.6439355, -20.2452554 ] } },
{ "type": "Feature", "properties": { "fid": 148568, "CNPJ": "28228256000170", "IDCIDADE": "URANIA", "NOMEFANTASIA": "ADEMILSON_CARLOS_ROSSI_25988629881", "RAZAOSOCIAL": "RESTAURANTE__ESPETARIA_M9DELO", "ENDEE": "AVENIDA_BRASIL35__PARQUE_DOS_FLAMBOYANT_15760-000", "LMAPS": "https://www.google.com/maps?q=&layer=c&cbll=-20.2452554,-50.6439355", "O_QUE_FAZER": "FINALIZADO", "ER_REGIAO_CIDADE_min": "Urânia_Votuporanga" }, "geometry": { "type": "Point", "coordinates": [ -50.6439355, -20.2452554 ] } },
{ "type": "Feature", "properties": { "fid": 149465, "CNPJ": "28385824000146", "IDCIDADE": "URANIA", "NOMEFANTASIA": "R._R._LOURENCO_URANIA_LTDA", "RAZAOSOCIAL": "CASA_LOURENCO", "ENDEE": "AVENIDA_BRASIL345__CENTRO_15760-000", "LMAPS": "https://www.google.com/maps?q=&layer=c&cbll=-20.2452554,-50.6439355", "O_QUE_FAZER": "FINALIZADO", "ER_REGIAO_CIDADE_min": "Urânia_Votuporanga" }, "geometry": { "type": "Point", "coordinates": [ -50.6439355, -20.2452554 ] } },
{ "type": "Feature", "properties": { "fid": 150710, "CNPJ": "28625452000188", "IDCIDADE": "URANIA", "NOMEFANTASIA": "FATIMA_PODSCLAN_FAUSTINO_07050717827", "RAZAOSOCIAL": "ASSIS_CHAVEIRO", "ENDEE": "AVENIDA_BRASIL895__CENTRO_15760-000", "LMAPS": "https://www.google.com/maps?q=&layer=c&cbll=-20.2452554,-50.6439355", "O_QUE_FAZER": "FINALIZADO", "ER_REGIAO_CIDADE_min": "Urânia_Votuporanga" }, "geometry": { "type": "Point", "coordinates": [ -50.6439355, -20.2452554 ] } },
{ "type": "Feature", "properties": { "fid": 153873, "CNPJ": "29208064000164", "IDCIDADE": "URANIA", "NOMEFANTASIA": "SEBASTIAO_MARQUES_PENHA", "RAZAOSOCIAL": "OTICA_RELOJOARIA_PENHA", "ENDEE": "AVENIDA_PRESIDENTE_KENNEDY777__CENTRO_15760-000", "LMAPS": "https://www.google.com/maps?q=&layer=c&cbll=-20.2484802,-50.64418", "O_QUE_FAZER": "FINALIZADO", "ER_REGIAO_CIDADE_min": "Urânia_Votuporanga" }, "geometry": { "type": "Point", "coordinates": [ -50.64418, -20.2484802 ] } },
{ "type": "Feature", "properties": { "fid": 166386, "CNPJ": "31679966000120", "IDCIDADE": "URANIA", "NOMEFANTASIA": "SEGANTINE_SOLUCOES_CONTABEIS", "RAZAOSOCIAL": "SEGANTINI_SOLUCOES_CONTABEIS_E_PATRIMONIAIS_LTDA", "ENDEE": "AVENIDA_PRESIDENTE_KENNEDY675__CENTRO_15760-000", "LMAPS": "https://www.google.com/maps?q=&layer=c&cbll=-20.2468984,-50.6444857", "O_QUE_FAZER": "CARTEIRA", "ER_REGIAO_CIDADE_min": "Urânia_Votuporanga" }, "geometry": { "type": "Point", "coordinates": [ -50.6444857, -20.2468984 ] } },
{ "type": "Feature", "properties": { "fid": 168673, "CNPJ": "32144157000187", "IDCIDADE": "URANIA", "NOMEFANTASIA": "RUIZ_&_RUIZ_URANIA_LTDA", "RAZAOSOCIAL": "GAS_E_AGU_A_DO_PIU", "ENDEE": "RUA_FORTALEZA1586__CENTRO_15760-000", "LMAPS": "https://www.google.com/maps?q=&layer=c&cbll=-20.2416826,-50.6435215", "O_QUE_FAZER": "FINALIZADO", "ER_REGIAO_CIDADE_min": "Urânia_Votuporanga" }, "geometry": { "type": "Point", "coordinates": [ -50.6435215, -20.2416826 ] } },
{ "type": "Feature", "properties": { "fid": 168787, "CNPJ": "32173884000172", "IDCIDADE": "URANIA", "NOMEFANTASIA": "32.173.884_RICARDO_TORRES_DOS_SANTOS", "RAZAOSOCIAL": "BIGODE_SERVICOS__AUTOMOTIVOS", "ENDEE": "RUA_GOIAS110__CENTRO_15760-000", "LMAPS": "https://www.google.com/maps?q=&layer=c&cbll=-20.2448183,-50.6498476", "O_QUE_FAZER": "FINALIZADO", "ER_REGIAO_CIDADE_min": "Urânia_Votuporanga" }, "geometry": { "type": "Point", "coordinates": [ -50.6498476, -20.2448183 ] } },
{ "type": "Feature", "properties": { "fid": 172546, "CNPJ": "32971410000176", "IDCIDADE": "URANIA", "NOMEFANTASIA": "ADRIANA_O._BORTOLI", "RAZAOSOCIAL": "UNIKA", "ENDEE": "AVENIDA_PRESIDENTE_KENNEDY462__CENTRO_15760-000", "LMAPS": "https://www.google.com/maps?q=&layer=c&cbll=-20.247267,-50.6439101", "O_QUE_FAZER": "FINALIZADO", "ER_REGIAO_CIDADE_min": "Urânia_Votuporanga" }, "geometry": { "type": "Point", "coordinates": [ -50.6439101, -20.247267 ] } },
{ "type": "Feature", "properties": { "fid": 172668, "CNPJ": "32996575000100", "IDCIDADE": "URANIA", "NOMEFANTASIA": "ODONTOLOGIA_DE_SUCESSO", "RAZAOSOCIAL": "THIAGO_APARECIDO_NALI", "ENDEE": "AVENIDA_BRASIL121__CENTRO_15760-000", "LMAPS": "https://www.google.com/maps?q=&layer=c&cbll=-20.2474832,-50.644513", "O_QUE_FAZER": "CARTEIRA", "ER_REGIAO_CIDADE_min": "Urânia_Votuporanga" }, "geometry": { "type": "Point", "coordinates": [ -50.644513, -20.2474832 ] } },
{ "type": "Feature", "properties": { "fid": 177336, "CNPJ": "33864798000179", "IDCIDADE": "URANIA", "NOMEFANTASIA": "33.864.798_VINICIUS_BRAZ_JOSE_HANSEN", "RAZAOSOCIAL": "RADIAR", "ENDEE": "RUA_SANTOS279__CENTRO_15760-000", "LMAPS": "https://www.google.com/maps?q=&layer=c&cbll=-20.2422648,-50.645898", "O_QUE_FAZER": "FINALIZADO", "ER_REGIAO_CIDADE_min": "Urânia_Votuporanga" }, "geometry": { "type": "Point", "coordinates": [ -50.645898, -20.2422648 ] } },
{ "type": "Feature", "properties": { "fid": 179592, "CNPJ": "34321470000179", "IDCIDADE": "URANIA", "NOMEFANTASIA": "MERCADO_DO_PIAU_LTDA", "RAZAOSOCIAL": "SUPERMERCADO__DO_PIUAU", "ENDEE": "AVENIDA_BRASIL687__CENTRO_15760-000", "LMAPS": "https://www.google.com/maps?q=&layer=c&cbll=-20.2452554,-50.6439355", "O_QUE_FAZER": "FINALIZADO", "ER_REGIAO_CIDADE_min": "Urânia_Votuporanga" }, "geometry": { "type": "Point", "coordinates": [ -50.6439355, -20.2452554 ] } },
{ "type": "Feature", "properties": { "fid": 183427, "CNPJ": "35062263000100", "IDCIDADE": "URANIA", "NOMEFANTASIA": "EDER_ABEL_GENASCULI_BUSARANHO", "RAZAOSOCIAL": "EDER_VEICULOS", "ENDEE": "AVENIDA_BRASIL188__LOTEAMENTO_PARQUE_DOS_FLAMBOYANS_15760-000", "LMAPS": "https://www.google.com/maps?q=&layer=c&cbll=-20.2402533,-50.6430456", "O_QUE_FAZER": "FINALIZADO", "ER_REGIAO_CIDADE_min": "Urânia_Votuporanga" }, "geometry": { "type": "Point", "coordinates": [ -50.6430456, -20.2402533 ] } },
{ "type": "Feature", "properties": { "fid": 183592, "CNPJ": "35093242000151", "IDCIDADE": "URANIA", "NOMEFANTASIA": "ASSUNCAO_TRANSPORTES", "RAZAOSOCIAL": "NILTON_ROBERTO_ASSUNCAO", "ENDEE": "RUA RIO PRETO, 310, CENTRO, 15760-000, URÂNIA, SP, BRASIL", "LMAPS": "https://www.google.com/maps?q=&layer=c&cbll=-20.2440236,-50.6468416", "O_QUE_FAZER": "CARTEIRA - FAMPE", "ER_REGIAO_CIDADE_min": "Urânia_Votuporanga" }, "geometry": { "type": "Point", "coordinates": [ -50.6468416, -20.2440236 ] } },
{ "type": "Feature", "properties": { "fid": 187683, "CNPJ": "36011933000121", "IDCIDADE": "URANIA", "NOMEFANTASIA": "H7_TORNEARIA_LTDA", "RAZAOSOCIAL": "H7", "ENDEE": "AVENIDA_MARGINAL138__CENTRO_15760-000", "LMAPS": "https://www.google.com/maps?q=&layer=c&cbll=-20.2368401,-50.6496848", "O_QUE_FAZER": "FINALIZADO", "ER_REGIAO_CIDADE_min": "Urânia_Votuporanga" }, "geometry": { "type": "Point", "coordinates": [ -50.6496848, -20.2368401 ] } },
{ "type": "Feature", "properties": { "fid": 203568, "CNPJ": "39918591000116", "IDCIDADE": "URANIA", "NOMEFANTASIA": "M_L_DA_SILVA_MUSSATO", "RAZAOSOCIAL": "SUPERMERCADO__QUALIDADE", "ENDEE": "AVENIDA_BRASIL974__URANIA_15760-000", "LMAPS": "https://www.google.com/maps?q=&layer=c&cbll=-20.2415177,-50.6433782", "O_QUE_FAZER": "FINALIZADO", "ER_REGIAO_CIDADE_min": "Urânia_Votuporanga" }, "geometry": { "type": "Point", "coordinates": [ -50.6433782, -20.2415177 ] } },
{ "type": "Feature", "properties": { "fid": 204468, "CNPJ": "40115824000121", "IDCIDADE": "URANIA", "NOMEFANTASIA": "JENNIFER_COCHARRO_DOS_SANTOS", "RAZAOSOCIAL": "PRIME_NEGOCIOS", "ENDEE": "AVENIDA_BRASIL158__CENTRO_15760-000", "LMAPS": "https://www.google.com/maps?q=&layer=c&cbll=-20.2452554,-50.6439355", "O_QUE_FAZER": "FINALIZADO", "ER_REGIAO_CIDADE_min": "Urânia_Votuporanga" }, "geometry": { "type": "Point", "coordinates": [ -50.6439355, -20.2452554 ] } },
{ "type": "Feature", "properties": { "fid": 207096, "CNPJ": "40837116000102", "IDCIDADE": "URANIA", "NOMEFANTASIA": "PANIFICADORA_E_CONFEITARIA_ABRANTES", "RAZAOSOCIAL": "PANIFICADORA_E_CONFEITARIA_ABRANTES_LTDA", "ENDEE": "RUA_RECIFE111__NOSSA_SENHORA_DE_FATIMA_15760-000", "LMAPS": "https://www.google.com/maps?q=&layer=c&cbll=-20.2501035,-50.6439674", "O_QUE_FAZER": "CARTEIRA", "ER_REGIAO_CIDADE_min": "Urânia_Votuporanga" }, "geometry": { "type": "Point", "coordinates": [ -50.6439674, -20.2501035 ] } },
{ "type": "Feature", "properties": { "fid": 207707, "CNPJ": "40977326000198", "IDCIDADE": "URANIA", "NOMEFANTASIA": "ODONTO_COMPANY", "RAZAOSOCIAL": "B_D_SERVICOS_ODONTOLOGICOS_LTDA", "ENDEE": "AVENIDA_BRASIL610__CENTRO_15760-000", "LMAPS": "https://www.google.com/maps?q=&layer=c&cbll=-20.2441643,-50.6438084", "O_QUE_FAZER": "CARTEIRA", "ER_REGIAO_CIDADE_min": "Urânia_Votuporanga" }, "geometry": { "type": "Point", "coordinates": [ -50.6438084, -20.2441643 ] } },
{ "type": "Feature", "properties": { "fid": 210048, "CNPJ": "41602671000100", "IDCIDADE": "URANIA", "NOMEFANTASIA": "RESTAURANTE_R.S._LTDA", "RAZAOSOCIAL": "DELICIAS_DA_CASA", "ENDEE": "AVENIDA_BRASIL496__CENTRO_15760-000", "LMAPS": "https://www.google.com/maps?q=&layer=c&cbll=-20.2452554,-50.6439355", "O_QUE_FAZER": "FINALIZADO", "ER_REGIAO_CIDADE_min": "Urânia_Votuporanga" }, "geometry": { "type": "Point", "coordinates": [ -50.6439355, -20.2452554 ] } },
{ "type": "Feature", "properties": { "fid": 211036, "CNPJ": "41827680000107", "IDCIDADE": "URANIA", "NOMEFANTASIA": "WELLINGTON_SOARES_GARCIA", "RAZAOSOCIAL": "AUTO_CENTER_URANIA", "ENDEE": "AVENIDA_BRASIL55__CENTRO_15760-000", "LMAPS": "https://www.google.com/maps?q=&layer=c&cbll=-20.2452554,-50.6439355", "O_QUE_FAZER": "FINALIZADO", "ER_REGIAO_CIDADE_min": "Urânia_Votuporanga" }, "geometry": { "type": "Point", "coordinates": [ -50.6439355, -20.2452554 ] } },
{ "type": "Feature", "properties": { "fid": 214855, "CNPJ": "42697372000169", "IDCIDADE": "URANIA", "NOMEFANTASIA": "42.697.372_NEILSON_APARECIDO_DE_CARVALHO", "RAZAOSOCIAL": "INDIO__CELULARES_E_PRESENTES", "ENDEE": "AVENIDA_PRESIDENTE_KENNEDY1664__CENTRO_15760-000", "LMAPS": "https://www.google.com/maps?q=&layer=c&cbll=-20.248219,-50.6385028", "O_QUE_FAZER": "FINALIZADO", "ER_REGIAO_CIDADE_min": "Urânia_Votuporanga" }, "geometry": { "type": "Point", "coordinates": [ -50.6385028, -20.248219 ] } },
{ "type": "Feature", "properties": { "fid": 215323, "CNPJ": "42809523000123", "IDCIDADE": "URANIA", "NOMEFANTASIA": "R._NORIKO_NAKAO_LTDA", "RAZAOSOCIAL": "SAUDE_BEM_STAR", "ENDEE": "AVENIDA_BRASIL264__CENTRO_15760-000", "LMAPS": "https://www.google.com/maps?q=&layer=c&cbll=-20.2452554,-50.6439355", "O_QUE_FAZER": "FINALIZADO", "ER_REGIAO_CIDADE_min": "Urânia_Votuporanga" }, "geometry": { "type": "Point", "coordinates": [ -50.6439355, -20.2452554 ] } },
{ "type": "Feature", "properties": { "fid": 216034, "CNPJ": "42967748000108", "IDCIDADE": "URANIA", "NOMEFANTASIA": "V.A._OSORIO", "RAZAOSOCIAL": "D_PAO_PADAR8Q_E_CONFEITARIA", "ENDEE": "AVENIDA_BRASIL730__CENTRO_15760-000", "LMAPS": "https://www.google.com/maps?q=&layer=c&cbll=-20.2452554,-50.6439355", "O_QUE_FAZER": "FINALIZADO", "ER_REGIAO_CIDADE_min": "Urânia_Votuporanga" }, "geometry": { "type": "Point", "coordinates": [ -50.6439355, -20.2452554 ] } },
{ "type": "Feature", "properties": { "fid": 222884, "CNPJ": "44345077000179", "IDCIDADE": "URANIA", "NOMEFANTASIA": "44.345.077_MARIA_INES_BARBOZA_DA_SILVA", "RAZAOSOCIAL": "ART_DECOR", "ENDEE": "AVENIDA_PRESIDENTE_KENNEDY470__CENTRO_15760-000", "LMAPS": "https://www.google.com/maps?q=&layer=c&cbll=-20.2467364,-50.6469957", "O_QUE_FAZER": "FINALIZADO", "ER_REGIAO_CIDADE_min": "Urânia_Votuporanga" }, "geometry": { "type": "Point", "coordinates": [ -50.6469957, -20.2467364 ] } },
{ "type": "Feature", "properties": { "fid": 223525, "CNPJ": "44471533000127", "IDCIDADE": "URANIA", "NOMEFANTASIA": "IMOBILIARIA_CORTI_LTDA", "RAZAOSOCIAL": "IMOBILIARIA__CORTE", "ENDEE": "AVENIDA_BRASIL849__CENTRO_15760-000", "LMAPS": "https://www.google.com/maps?q=&layer=c&cbll=-20.2452554,-50.6439355", "O_QUE_FAZER": "FINALIZADO", "ER_REGIAO_CIDADE_min": "Urânia_Votuporanga" }, "geometry": { "type": "Point", "coordinates": [ -50.6439355, -20.2452554 ] } },
{ "type": "Feature", "properties": { "fid": 226512, "CNPJ": "45134418000120", "IDCIDADE": "URANIA", "NOMEFANTASIA": "TOH_&_MEIRA_DROGARIA_SAO_LUIZ_LTDA", "RAZAOSOCIAL": "DROGARIA__SAO__LUIZ", "ENDEE": "AVENIDA_PRESIDENTE_KENNEDY462__CENTRO_15760-000", "LMAPS": "https://www.google.com/maps?q=&layer=c&cbll=-20.247267,-50.6439101", "O_QUE_FAZER": "FINALIZADO", "ER_REGIAO_CIDADE_min": "Urânia_Votuporanga" }, "geometry": { "type": "Point", "coordinates": [ -50.6439101, -20.247267 ] } },
{ "type": "Feature", "properties": { "fid": 229925, "CNPJ": "45860394000196", "IDCIDADE": "URANIA", "NOMEFANTASIA": null, "RAZAOSOCIAL": "ANDERSON_DA_SILVA_SANTOS_LTDA", "ENDEE": "RUA XINZI NAKAO, 2016, RESIDENCIAL JARDIM SAO PAULO, 15761-340, URÂNIA, SP, BRASIL", "LMAPS": "https://www.google.com/maps?q=&layer=c&cbll=-20.2452554,-50.6439355", "O_QUE_FAZER": "CARTEIRA - FAMPE", "ER_REGIAO_CIDADE_min": "Urânia_Votuporanga" }, "geometry": { "type": "Point", "coordinates": [ -50.6439355, -20.2452554 ] } },
{ "type": "Feature", "properties": { "fid": 233131, "CNPJ": "46499479000153", "IDCIDADE": "URANIA", "NOMEFANTASIA": "46.499.479_LEILIANE_VEIGAS_ASTOLPHI", "RAZAOSOCIAL": "IMPERIO_LANCHES", "ENDEE": "AVENIDA_BRASIL617__CENTRO_15760-000", "LMAPS": "https://www.google.com/maps?q=&layer=c&cbll=-20.2452554,-50.6439355", "O_QUE_FAZER": "FINALIZADO", "ER_REGIAO_CIDADE_min": "Urânia_Votuporanga" }, "geometry": { "type": "Point", "coordinates": [ -50.6439355, -20.2452554 ] } },
{ "type": "Feature", "properties": { "fid": 233676, "CNPJ": "46611000000129", "IDCIDADE": "URANIA", "NOMEFANTASIA": "FUNERARIA_URANIA", "RAZAOSOCIAL": "A_C_DE_OLIVEIRA-URANIA", "ENDEE": "RUA_21_DE_NOVEMBRO902__CENTRO_15760-000", "LMAPS": "https://www.google.com/maps?q=&layer=c&cbll=-20.2464504,-50.6451233", "O_QUE_FAZER": "CARTEIRA", "ER_REGIAO_CIDADE_min": "Urânia_Votuporanga" }, "geometry": { "type": "Point", "coordinates": [ -50.6451233, -20.2464504 ] } },
{ "type": "Feature", "properties": { "fid": 237533, "CNPJ": "47397151000199", "IDCIDADE": "URANIA", "NOMEFANTASIA": "VINICIUS_EDUARDO_DE_SOUZA_SANCHES_48386624833", "RAZAOSOCIAL": "VINICIUS_EDUARDO_SANCHES", "ENDEE": "1073_VIA_DE_ACESSO_JOSE_FRANCISCO_PEREIRA2280__CENTRO_15760-000", "LMAPS": "https://www.google.com/maps?q=&layer=c&cbll=-20.2461839,-50.6391171", "O_QUE_FAZER": "FINALIZADO", "ER_REGIAO_CIDADE_min": "Urânia_Votuporanga" }, "geometry": { "type": "Point", "coordinates": [ -50.6391171, -20.2461839 ] } },
{ "type": "Feature", "properties": { "fid": 241042, "CNPJ": "48134296000160", "IDCIDADE": "URANIA", "NOMEFANTASIA": "DSX_SOLAR", "RAZAOSOCIAL": "DSX_MARCELO_DE_OLIVEIRA_LTDA", "ENDEE": "AVENIDA_BRASIL137__CENTRO_15760-000", "LMAPS": "https://www.google.com/maps?q=&layer=c&cbll=-20.2500139,-50.6448753", "O_QUE_FAZER": "CARTEIRA - FAMPE", "ER_REGIAO_CIDADE_min": "Urânia_Votuporanga" }, "geometry": { "type": "Point", "coordinates": [ -50.6448753, -20.2500139 ] } },
{ "type": "Feature", "properties": { "fid": 246929, "CNPJ": "49391013000128", "IDCIDADE": "URANIA", "NOMEFANTASIA": "CASA_LOURENCO", "RAZAOSOCIAL": "R.R._LOURENCO_LTDA", "ENDEE": "AVENIDA_BRASIL345__CENTRO_15760-000", "LMAPS": "https://www.google.com/maps?q=&layer=c&cbll=-20.2418556,-50.6433939", "O_QUE_FAZER": "CARTEIRA", "ER_REGIAO_CIDADE_min": "Urânia_Votuporanga" }, "geometry": { "type": "Point", "coordinates": [ -50.6433939, -20.2418556 ] } },
{ "type": "Feature", "properties": { "fid": 248835, "CNPJ": "49784520000121", "IDCIDADE": "URANIA", "NOMEFANTASIA": "49.784.520_SUELI_BARCO_SANCHES", "RAZAOSOCIAL": "MERCEARIA__UNIAO", "ENDEE": "RUA_ALAGOS204__URANIA_15760-000", "LMAPS": "https://www.google.com/maps?q=&layer=c&cbll=-20.2534254,-50.6414222", "O_QUE_FAZER": "FINALIZADO", "ER_REGIAO_CIDADE_min": "Urânia_Votuporanga" }, "geometry": { "type": "Point", "coordinates": [ -50.6414222, -20.2534254 ] } },
{ "type": "Feature", "properties": { "fid": 251103, "CNPJ": "50213001000192", "IDCIDADE": "URANIA", "NOMEFANTASIA": "50.213.001_MIRIAN_PAULA_LEMES_CHAPICHI", "RAZAOSOCIAL": "CHAPINHA_SERVE_FESTA", "ENDEE": "AVENIDA_BRASIL710__CENTRO_15760-000", "LMAPS": "https://www.google.com/maps?q=&layer=c&cbll=-20.2452554,-50.6439355", "O_QUE_FAZER": "FINALIZADO", "ER_REGIAO_CIDADE_min": "Urânia_Votuporanga" }, "geometry": { "type": "Point", "coordinates": [ -50.6439355, -20.2452554 ] } },
{ "type": "Feature", "properties": { "fid": 251579, "CNPJ": "50306569000158", "IDCIDADE": "URANIA", "NOMEFANTASIA": "D_A_A_C_ARMACOES_LTDA", "RAZAOSOCIAL": "OPTICA_LUXURY", "ENDEE": "AVENIDA_PRESIDENTE_KENNEDY1790__CENTRO_15760-000", "LMAPS": "https://www.google.com/maps?q=&layer=c&cbll=-20.2474547,-50.6428964", "O_QUE_FAZER": "FINALIZADO", "ER_REGIAO_CIDADE_min": "Urânia_Votuporanga" }, "geometry": { "type": "Point", "coordinates": [ -50.6428964, -20.2474547 ] } },
{ "type": "Feature", "properties": { "fid": 252391, "CNPJ": "50482787000143", "IDCIDADE": "URANIA", "NOMEFANTASIA": "VITALLY_FITNESS", "RAZAOSOCIAL": "MARCIA_MARIA_DA_SILVA_RIBEIRO_ACADEMIA", "ENDEE": "AVENIDA_GETULIO_VARGAS252__NOSSA_SENHORA_DE_FATIMA_15760-000", "LMAPS": "https://www.google.com/maps?q=&layer=c&cbll=-20.2479111,-50.6481471", "O_QUE_FAZER": "CARTEIRA", "ER_REGIAO_CIDADE_min": "Urânia_Votuporanga" }, "geometry": { "type": "Point", "coordinates": [ -50.6481471, -20.2479111 ] } },
{ "type": "Feature", "properties": { "fid": 253575, "CNPJ": "50724028000140", "IDCIDADE": "URANIA", "NOMEFANTASIA": "COMERCIAL_EMPORIO_DO_LAR_LTDA", "RAZAOSOCIAL": "EMPORIO_DO_LAR", "ENDEE": "AVENIDA_PRESIDENTE_KENNEDY759__CENTRO_15760-000", "LMAPS": "https://www.google.com/maps?q=&layer=c&cbll=-20.2470085,-50.6437343", "O_QUE_FAZER": "FINALIZADO", "ER_REGIAO_CIDADE_min": "Urânia_Votuporanga" }, "geometry": { "type": "Point", "coordinates": [ -50.6437343, -20.2470085 ] } },
{ "type": "Feature", "properties": { "fid": 254558, "CNPJ": "50908798000142", "IDCIDADE": "URANIA", "NOMEFANTASIA": "MATHEUS_FLORIANO_DE_OLIVEIRA", "RAZAOSOCIAL": "FLORIAN_VET", "ENDEE": "AVENIDA_BRASIL1167__NOSSA_SENHORA_DE_FATIMA_15760-000", "LMAPS": "https://www.google.com/maps?q=&layer=c&cbll=-20.249132,-50.644725", "O_QUE_FAZER": "FINALIZADO", "ER_REGIAO_CIDADE_min": "Urânia_Votuporanga" }, "geometry": { "type": "Point", "coordinates": [ -50.644725, -20.249132 ] } },
{ "type": "Feature", "properties": { "fid": 255380, "CNPJ": "51065652000145", "IDCIDADE": "URANIA", "NOMEFANTASIA": "51.065.652_MOACIR_GOMES_MIRANDA", "RAZAOSOCIAL": "MIRANDA_OUTLET", "ENDEE": "AVENIDA_BRASIL1262__NOSSA_SENHORA_DE_FATIMA_15760-000", "LMAPS": "https://www.google.com/maps?q=&layer=c&cbll=-20.2390691,-50.6424091", "O_QUE_FAZER": "FINALIZADO", "ER_REGIAO_CIDADE_min": "Urânia_Votuporanga" }, "geometry": { "type": "Point", "coordinates": [ -50.6424091, -20.2390691 ] } },
{ "type": "Feature", "properties": { "fid": 255700, "CNPJ": "51116869000137", "IDCIDADE": "URANIA", "NOMEFANTASIA": "ACADEMIA_DE_GINASTICA_JULIO_CESAR_TREVIZAM_PEDRINI_LTDA", "RAZAOSOCIAL": "PEDRINI_FITNESS", "ENDEE": "RUA_CATANDUVA373__CENTRO_15760-000", "LMAPS": "https://www.google.com/maps?q=&layer=c&cbll=-20.2432339,-50.6454561", "O_QUE_FAZER": "FINALIZADO", "ER_REGIAO_CIDADE_min": "Urânia_Votuporanga" }, "geometry": { "type": "Point", "coordinates": [ -50.6454561, -20.2432339 ] } },
{ "type": "Feature", "properties": { "fid": 256208, "CNPJ": "51217468000173", "IDCIDADE": "URANIA", "NOMEFANTASIA": "51.217.468_CASSIO_LEANDRO_ALVES_ARANHA", "RAZAOSOCIAL": "BARBEARIA_CASSIO_ARANHA_KIDS", "ENDEE": "AVENIDA_BRASIL637__CENTRO_15760-000", "LMAPS": "https://www.google.com/maps?q=&layer=c&cbll=-20.2452554,-50.6439355", "O_QUE_FAZER": "FINALIZADO", "ER_REGIAO_CIDADE_min": "Urânia_Votuporanga" }, "geometry": { "type": "Point", "coordinates": [ -50.6439355, -20.2452554 ] } },
{ "type": "Feature", "properties": { "fid": 256463, "CNPJ": "51275046000154", "IDCIDADE": "URANIA", "NOMEFANTASIA": "51.275.046_SERGIO_ENDRIGO_RODRIGUES_DA_SILVA", "RAZAOSOCIAL": "SANTA_GULA_CAFE", "ENDEE": "AVENIDA_BARAO_DO_RIO_BRANCO1485__CENTRO_15760-000", "LMAPS": "https://www.google.com/maps?q=&layer=c&cbll=-20.2452554,-50.6439355", "O_QUE_FAZER": "FINALIZADO", "ER_REGIAO_CIDADE_min": "Urânia_Votuporanga" }, "geometry": { "type": "Point", "coordinates": [ -50.6439355, -20.2452554 ] } },
{ "type": "Feature", "properties": { "fid": 259273, "CNPJ": "51852796000141", "IDCIDADE": "URANIA", "NOMEFANTASIA": "ESCRITORIO_URANIA", "RAZAOSOCIAL": "ESCRITORIO_URANIA_S/S_LTDA", "ENDEE": "AVENIDA_BRASIL488__CENTRO_15760-000", "LMAPS": "https://www.google.com/maps?q=&layer=c&cbll=-20.2445434,-50.6437099", "O_QUE_FAZER": "CARTEIRA", "ER_REGIAO_CIDADE_min": "Urânia_Votuporanga" }, "geometry": { "type": "Point", "coordinates": [ -50.6437099, -20.2445434 ] } },
{ "type": "Feature", "properties": { "fid": 259275, "CNPJ": "51852812000104", "IDCIDADE": "URANIA", "NOMEFANTASIA": "JAIR_DE_OLIVEIRA_RUIZ", "RAZAOSOCIAL": "JAIR_PNEUS", "ENDEE": "AVENIDA_BRASIL756__CENTRO_15760-000", "LMAPS": "https://www.google.com/maps?q=&layer=c&cbll=-20.2452554,-50.6439355", "O_QUE_FAZER": "FINALIZADO", "ER_REGIAO_CIDADE_min": "Urânia_Votuporanga" }, "geometry": { "type": "Point", "coordinates": [ -50.6439355, -20.2452554 ] } },
{ "type": "Feature", "properties": { "fid": 260426, "CNPJ": "52067240000107", "IDCIDADE": "URANIA", "NOMEFANTASIA": "CJR_ACAITERIA_LTDA", "RAZAOSOCIAL": "DI_MATTEO", "ENDEE": "AVENIDA_BRASIL265__CENTRO_15760-000", "LMAPS": "https://www.google.com/maps?q=&layer=c&cbll=-20.2452554,-50.6439355", "O_QUE_FAZER": "FINALIZADO", "ER_REGIAO_CIDADE_min": "Urânia_Votuporanga" }, "geometry": { "type": "Point", "coordinates": [ -50.6439355, -20.2452554 ] } },
{ "type": "Feature", "properties": { "fid": 265633, "CNPJ": "53175672000102", "IDCIDADE": "URANIA", "NOMEFANTASIA": "53.175.672_WELLINGTON_ANTUNES_RIBEIRO", "RAZAOSOCIAL": "WEER_AUTOCAR", "ENDEE": "AVENIDA_BRASIL1052__CENTRO_15760-000", "LMAPS": "https://www.google.com/maps?q=&layer=c&cbll=-20.2452554,-50.6439355", "O_QUE_FAZER": "FINALIZADO", "ER_REGIAO_CIDADE_min": "Urânia_Votuporanga" }, "geometry": { "type": "Point", "coordinates": [ -50.6439355, -20.2452554 ] } },
{ "type": "Feature", "properties": { "fid": 266865, "CNPJ": "53471201000133", "IDCIDADE": "URANIA", "NOMEFANTASIA": "LUCAS_FELIX_SOLER", "RAZAOSOCIAL": "SUPERMERCADO", "ENDEE": "TRAVESSA_TV._NEVES1032__CENTRO_15760-000", "LMAPS": "https://www.google.com/maps?q=&layer=c&cbll=-20.2452365,-50.6439458", "O_QUE_FAZER": "FINALIZADO", "ER_REGIAO_CIDADE_min": "Urânia_Votuporanga" }, "geometry": { "type": "Point", "coordinates": [ -50.6439458, -20.2452365 ] } },
{ "type": "Feature", "properties": { "fid": 267126, "CNPJ": "53535166000179", "IDCIDADE": "URANIA", "NOMEFANTASIA": "LDA_FOGOS_LTDA", "RAZAOSOCIAL": "LDA_FOGOS_GIVAL", "ENDEE": "AVENIDA_MARGINAL1624__CENTRO_15760-000", "LMAPS": "https://www.google.com/maps?q=&layer=c&cbll=-20.2367348,-50.6508761", "O_QUE_FAZER": "FINALIZADO", "ER_REGIAO_CIDADE_min": "Urânia_Votuporanga" }, "geometry": { "type": "Point", "coordinates": [ -50.6508761, -20.2367348 ] } },
{ "type": "Feature", "properties": { "fid": 269862, "CNPJ": "54149469000116", "IDCIDADE": "URANIA", "NOMEFANTASIA": "URANIA_MULTI_MARCAS", "RAZAOSOCIAL": "JOAO_GABRIEL_DE_OLIVEIRA", "ENDEE": "AVENIDA_NATAL711__CENTRO_15760-000", "LMAPS": "https://www.google.com/maps?q=&layer=c&cbll=-20.242528,-50.6429698", "O_QUE_FAZER": "CARTEIRA", "ER_REGIAO_CIDADE_min": "Urânia_Votuporanga" }, "geometry": { "type": "Point", "coordinates": [ -50.6429698, -20.242528 ] } },
{ "type": "Feature", "properties": { "fid": 270622, "CNPJ": "54312182000165", "IDCIDADE": "URANIA", "NOMEFANTASIA": "54.312.182_ELIS_REGINA_MAURENCIO_LEONARDE", "RAZAOSOCIAL": "HOTEL_POUSAD_A_JARINA", "ENDEE": "RUA_RIO_PRETO257__CENTRO_15760-000", "LMAPS": "https://www.google.com/maps?q=&layer=c&cbll=-20.2452554,-50.6439355", "O_QUE_FAZER": "FINALIZADO", "ER_REGIAO_CIDADE_min": "Urânia_Votuporanga" }, "geometry": { "type": "Point", "coordinates": [ -50.6439355, -20.2452554 ] } },
{ "type": "Feature", "properties": { "fid": 270692, "CNPJ": "54330611000127", "IDCIDADE": "URANIA", "NOMEFANTASIA": "PINGUIM_SORVETES", "RAZAOSOCIAL": "PINGUIM_SORVETES_URANIA_LTDA", "ENDEE": "RUA_21_DE_NOVEMBRO246__CENTRO_15760-000", "LMAPS": "https://www.google.com/maps?q=&layer=c&cbll=-20.2446307,-50.6445096", "O_QUE_FAZER": "CARTEIRA", "ER_REGIAO_CIDADE_min": "Urânia_Votuporanga" }, "geometry": { "type": "Point", "coordinates": [ -50.6445096, -20.2446307 ] } },
{ "type": "Feature", "properties": { "fid": 270764, "CNPJ": "54345969000123", "IDCIDADE": "URANIA", "NOMEFANTASIA": "54.345.969_RODRIGO_DO_PRADO", "RAZAOSOCIAL": "HORTIFRUT_PRADO", "ENDEE": "AVENIDA_BRASIL52__CENTRO_15760-000", "LMAPS": "https://www.google.com/maps?q=&layer=c&cbll=-20.2452554,-50.6439355", "O_QUE_FAZER": "FINALIZADO", "ER_REGIAO_CIDADE_min": "Urânia_Votuporanga" }, "geometry": { "type": "Point", "coordinates": [ -50.6439355, -20.2452554 ] } },
{ "type": "Feature", "properties": { "fid": 271294, "CNPJ": "54458608000193", "IDCIDADE": "URANIA", "NOMEFANTASIA": "JR_MATERIAIS_PARA_CONSTRUCAO_URANIA_LTDA", "RAZAOSOCIAL": "JUNIOR_TINTAS", "ENDEE": "RUA_CATANDUVA373__CENTRO_15760-000", "LMAPS": "https://www.google.com/maps?q=&layer=c&cbll=-20.2432339,-50.6454561", "O_QUE_FAZER": "FINALIZADO", "ER_REGIAO_CIDADE_min": "Urânia_Votuporanga" }, "geometry": { "type": "Point", "coordinates": [ -50.6454561, -20.2432339 ] } },
{ "type": "Feature", "properties": { "fid": 271790, "CNPJ": "54567132000129", "IDCIDADE": "URANIA", "NOMEFANTASIA": "NARAYANA_CAROLINE_DOS_SANTOS_E_SILVA_LTDA", "RAZAOSOCIAL": "STUDIO_PERFORMANCE", "ENDEE": "RUA_FORTALEZA542__CENTRO_15760-000", "LMAPS": "https://www.google.com/maps?q=&layer=c&cbll=-20.2416346,-50.6437526", "O_QUE_FAZER": "FINALIZADO", "ER_REGIAO_CIDADE_min": "Urânia_Votuporanga" }, "geometry": { "type": "Point", "coordinates": [ -50.6437526, -20.2416346 ] } },
{ "type": "Feature", "properties": { "fid": 272680, "CNPJ": "54761376000148", "IDCIDADE": "URANIA", "NOMEFANTASIA": "54.761.376_ADONIAS_RAMALHO_DE_BRITO_JUNIOR", "RAZAOSOCIAL": "LIPOLI_ASSITEC", "ENDEE": "AVENIDA_BRASIL164__CENTRO_15760-000", "LMAPS": "https://www.google.com/maps?q=&layer=c&cbll=-20.2452554,-50.6439355", "O_QUE_FAZER": "FINALIZADO", "ER_REGIAO_CIDADE_min": "Urânia_Votuporanga" }, "geometry": { "type": "Point", "coordinates": [ -50.6439355, -20.2452554 ] } },
{ "type": "Feature", "properties": { "fid": 279507, "CNPJ": "56607804000108", "IDCIDADE": "URANIA", "NOMEFANTASIA": "GISELE_ARTICO_RODRIGUES", "RAZAOSOCIAL": "SUPERMERCADO_DOM_PEDRO", "ENDEE": "RUA_DA_GLORIA705__CENTRO_15760-000", "LMAPS": "https://www.google.com/maps?q=&layer=c&cbll=-20.2534117,-50.6414119", "O_QUE_FAZER": "FINALIZADO", "ER_REGIAO_CIDADE_min": "Urânia_Votuporanga" }, "geometry": { "type": "Point", "coordinates": [ -50.6414119, -20.2534117 ] } },
{ "type": "Feature", "properties": { "fid": 279899, "CNPJ": "56865199000175", "IDCIDADE": "URANIA", "NOMEFANTASIA": "WILLIAN_TADEU_RODRIGUES_E_CIA_LTDA", "RAZAOSOCIAL": "PANIFICADORA__SOBERANA", "ENDEE": "AVENIDA_BRASIL619__CENTRO_15760-000", "LMAPS": "https://www.google.com/maps?q=&layer=c&cbll=-20.2452554,-50.6439355", "O_QUE_FAZER": "FINALIZADO", "ER_REGIAO_CIDADE_min": "Urânia_Votuporanga" }, "geometry": { "type": "Point", "coordinates": [ -50.6439355, -20.2452554 ] } },
{ "type": "Feature", "properties": { "fid": 282017, "CNPJ": "57450898000117", "IDCIDADE": "URANIA", "NOMEFANTASIA": "GAZ_CRISTO_REI_LTDA", "RAZAOSOCIAL": "GAS_CRISTO_REIS", "ENDEE": "AVENIDA_BRASIL264__CENTRO_15760-000", "LMAPS": "https://www.google.com/maps?q=&layer=c&cbll=-20.2452554,-50.6439355", "O_QUE_FAZER": "FINALIZADO", "ER_REGIAO_CIDADE_min": "Urânia_Votuporanga" }, "geometry": { "type": "Point", "coordinates": [ -50.6439355, -20.2452554 ] } },
{ "type": "Feature", "properties": { "fid": 282922, "CNPJ": "57712302000100", "IDCIDADE": "URANIA", "NOMEFANTASIA": "57.712.302_ELAINE_APARECIDA_ALVES", "RAZAOSOCIAL": "CAMALEAO", "ENDEE": "AVENIDA_BRASIL454__CENTRO_15760-000", "LMAPS": "https://www.google.com/maps?q=&layer=c&cbll=-20.2452554,-50.6439355", "O_QUE_FAZER": "FINALIZADO", "ER_REGIAO_CIDADE_min": "Urânia_Votuporanga" }, "geometry": { "type": "Point", "coordinates": [ -50.6439355, -20.2452554 ] } },
{ "type": "Feature", "properties": { "fid": 283891, "CNPJ": "57990292000174", "IDCIDADE": "URANIA", "NOMEFANTASIA": "57.990.292_MARCIA_CRISTINA_BERMAL_SAMARTINO", "RAZAOSOCIAL": "JC_LUBRIFICANTE_E__BORRACHARIA", "ENDEE": "RUA_TANABI386__CENTRO_15760-000", "LMAPS": "https://www.google.com/maps?q=&layer=c&cbll=-20.2419983,-50.6421948", "O_QUE_FAZER": "FINALIZADO", "ER_REGIAO_CIDADE_min": "Urânia_Votuporanga" }, "geometry": { "type": "Point", "coordinates": [ -50.6421948, -20.2419983 ] } },
{ "type": "Feature", "properties": { "fid": 285927, "CNPJ": "58592716000105", "IDCIDADE": "URANIA", "NOMEFANTASIA": "58.592.716_PAULA_CAROLINE_VILAS_BOAS_SILVA_VITURI", "RAZAOSOCIAL": "VITURI_BARBEARIA", "ENDEE": "AVENIDA_BRASIL809__URANIA_15760-000", "LMAPS": "https://www.google.com/maps?q=&layer=c&cbll=-20.2431224,-50.6435553", "O_QUE_FAZER": "FINALIZADO", "ER_REGIAO_CIDADE_min": "Urânia_Votuporanga" }, "geometry": { "type": "Point", "coordinates": [ -50.6435553, -20.2431224 ] } },
{ "type": "Feature", "properties": { "fid": 288981, "CNPJ": "59612838000189", "IDCIDADE": "URANIA", "NOMEFANTASIA": "VALMIR_JOSE_PONZANI", "RAZAOSOCIAL": "AUGI_JOIAS", "ENDEE": "AVENIDA_PRESIDENTE_KENNEDY377__CENTRO_15760-000", "LMAPS": "https://www.google.com/maps?q=&layer=c&cbll=-20.246224,-50.6469148", "O_QUE_FAZER": "FINALIZADO", "ER_REGIAO_CIDADE_min": "Urânia_Votuporanga" }, "geometry": { "type": "Point", "coordinates": [ -50.6469148, -20.246224 ] } },
{ "type": "Feature", "properties": { "fid": 289295, "CNPJ": "59704665000129", "IDCIDADE": "URANIA", "NOMEFANTASIA": "VTKS_MECANICA_ESPECIALIZADA_VOLVO_LTDA", "RAZAOSOCIAL": "VOLTRUCKS_SERVICOS", "ENDEE": "RUA_TASHCAKI_AKAMATSU942__LOTEAMENTO_PARQUE_DOS_FLAMBOYANS_15503-005", "LMAPS": "https://www.google.com/maps?q=&layer=c&cbll=-20.239194,-50.641076", "O_QUE_FAZER": "FINALIZADO", "ER_REGIAO_CIDADE_min": "Urânia_Votuporanga" }, "geometry": { "type": "Point", "coordinates": [ -50.641076, -20.239194 ] } },
{ "type": "Feature", "properties": { "fid": 289402, "CNPJ": "59731300000193", "IDCIDADE": "URANIA", "NOMEFANTASIA": "59.731.300_ROBERTO_GOMES_DA_SILVA", "RAZAOSOCIAL": "AUTO_ELETRICO_NUKA", "ENDEE": "RUA_GOIAS110__CENTRO_15760-000", "LMAPS": "https://www.google.com/maps?q=&layer=c&cbll=-20.2448183,-50.6498476", "O_QUE_FAZER": "FINALIZADO", "ER_REGIAO_CIDADE_min": "Urânia_Votuporanga" }, "geometry": { "type": "Point", "coordinates": [ -50.6498476, -20.2448183 ] } },
{ "type": "Feature", "properties": { "fid": 289837, "CNPJ": "59862359000110", "IDCIDADE": "URANIA", "NOMEFANTASIA": "MARIA_MADALENA_NUNES_URANIA", "RAZAOSOCIAL": "MARY_MODAS", "ENDEE": "AVENIDA_PRESIDENTE_KENNEDY430__CENTRO_15760-000", "LMAPS": "https://www.google.com/maps?q=&layer=c&cbll=-20.2466845,-50.6474327", "O_QUE_FAZER": "FINALIZADO", "ER_REGIAO_CIDADE_min": "Urânia_Votuporanga" }, "geometry": { "type": "Point", "coordinates": [ -50.6474327, -20.2466845 ] } },
{ "type": "Feature", "properties": { "fid": 291566, "CNPJ": "60459835000136", "IDCIDADE": "URANIA", "NOMEFANTASIA": null, "RAZAOSOCIAL": "60.459.835_ALEXSANDRO_JUNIOR_SANTOS_TAVARES", "ENDEE": "RUA OSWALDO SHIGUETOSHI OBA, 1555, VICENTE FILIE, 15761-074, URÂNIA, SP, BRASIL", "LMAPS": "https://www.google.com/maps?q=&layer=c&cbll=-20.253576,-50.640329", "O_QUE_FAZER": "CARTEIRA - FAMPE", "ER_REGIAO_CIDADE_min": "Urânia_Votuporanga" }, "geometry": { "type": "Point", "coordinates": [ -50.640329, -20.253576 ] } },
{ "type": "Feature", "properties": { "fid": 291610, "CNPJ": "60477567000185", "IDCIDADE": "URANIA", "NOMEFANTASIA": "60.477.567_ADEMIR_WAGNER_POLIZELI", "RAZAOSOCIAL": "MULTI_SABOR", "ENDEE": "RUA_RIO_PRETO284__CENTRO_15760-000", "LMAPS": "https://www.google.com/maps?q=&layer=c&cbll=-20.2452554,-50.6439355", "O_QUE_FAZER": "FINALIZADO", "ER_REGIAO_CIDADE_min": "Urânia_Votuporanga" }, "geometry": { "type": "Point", "coordinates": [ -50.6439355, -20.2452554 ] } },
{ "type": "Feature", "properties": { "fid": 296873, "CNPJ": "62443355000102", "IDCIDADE": "URANIA", "NOMEFANTASIA": "62.443.355_JULIA_MARIA_BRANDAO_XAVIER", "RAZAOSOCIAL": "ESFIRRARIA", "ENDEE": "AVENIDA_PRESIDENTE_KENNEDY406__CENTRO_15760-000", "LMAPS": "https://www.google.com/maps?q=&layer=c&cbll=-20.2452554,-50.6439355", "O_QUE_FAZER": "FINALIZADO", "ER_REGIAO_CIDADE_min": "Urânia_Votuporanga" }, "geometry": { "type": "Point", "coordinates": [ -50.6439355, -20.2452554 ] } },
{ "type": "Feature", "properties": { "fid": 298182, "CNPJ": "63007338000195", "IDCIDADE": "URANIA", "NOMEFANTASIA": "63.007.338_PATRICK_ADRIANO_NOGUEIRA", "RAZAOSOCIAL": "CP__IMPORTS", "ENDEE": "AVENIDA_PRESIDENTE_KENNEDY1577__CENTRO_15760-000", "LMAPS": "https://www.google.com/maps?q=&layer=c&cbll=-20.2468944,-50.6447479", "O_QUE_FAZER": "FINALIZADO", "ER_REGIAO_CIDADE_min": "Urânia_Votuporanga" }, "geometry": { "type": "Point", "coordinates": [ -50.6447479, -20.2468944 ] } },
{ "type": "Feature", "properties": { "fid": 299985, "CNPJ": "64185230000155", "IDCIDADE": "URANIA", "NOMEFANTASIA": "64.185.230_IZADORA_DE_SOUZA_VILA", "RAZAOSOCIAL": "VILLAS_RESTAURANTE", "ENDEE": "AVENIDA_PRESIDENTE_KENNEDY1634__CENTRO_15760-000", "LMAPS": "https://www.google.com/maps?q=&layer=c&cbll=-20.2469951,-50.64424", "O_QUE_FAZER": "FINALIZADO", "ER_REGIAO_CIDADE_min": "Urânia_Votuporanga" }, "geometry": { "type": "Point", "coordinates": [ -50.64424, -20.2469951 ] } },
{ "type": "Feature", "properties": { "fid": 300545, "CNPJ": "64602964000192", "IDCIDADE": "URANIA", "NOMEFANTASIA": "EMERLEY_MAESTRELO", "RAZAOSOCIAL": "MIRLA_MODAS", "ENDEE": "AVENIDA_PRESIDENTE_KENNEDY1567__CENTRO_15760-000", "LMAPS": "https://www.google.com/maps?q=&layer=c&cbll=-20.2470036,-50.643617", "O_QUE_FAZER": "FINALIZADO", "ER_REGIAO_CIDADE_min": "Urânia_Votuporanga" }, "geometry": { "type": "Point", "coordinates": [ -50.643617, -20.2470036 ] } },
{ "type": "Feature", "properties": { "fid": 303313, "CNPJ": "65973950000148", "IDCIDADE": "URANIA", "NOMEFANTASIA": "J._RODRIGUES_SUPERMERCADO", "RAZAOSOCIAL": "JS_SUPERMERCADO", "ENDEE": "AVENIDA_PRESIDENTE_KENNEDY1577__CENTRO_15760-000", "LMAPS": "https://www.google.com/maps?q=&layer=c&cbll=-20.2468944,-50.6447479", "O_QUE_FAZER": "FINALIZADO", "ER_REGIAO_CIDADE_min": "Urânia_Votuporanga" }, "geometry": { "type": "Point", "coordinates": [ -50.6447479, -20.2468944 ] } },
{ "type": "Feature", "properties": { "fid": 309574, "CNPJ": "71816854000199", "IDCIDADE": "URANIA", "NOMEFANTASIA": "LUCIA_MITIYO_KITAMURA_AKAMATSU", "RAZAOSOCIAL": "LAJES_NOBRE", "ENDEE": "AVENIDA_MARGINAL0__PQUE_INDUSTRIAL_L_15760-000", "LMAPS": "https://www.google.com/maps?q=&layer=c&cbll=-20.2452554,-50.6439355", "O_QUE_FAZER": "FINALIZADO", "ER_REGIAO_CIDADE_min": "Urânia_Votuporanga" }, "geometry": { "type": "Point", "coordinates": [ -50.6439355, -20.2452554 ] } },
{ "type": "Feature", "properties": { "fid": 310669, "CNPJ": "73094187000103", "IDCIDADE": "URANIA", "NOMEFANTASIA": "73.094.187_AUGUSTO_CESAR_ZILIO", "RAZAOSOCIAL": "VIDRO_BOX", "ENDEE": "RUA_21_DE_NOVEMBRO145__CENTRO_15760-000", "LMAPS": "https://www.google.com/maps?q=&layer=c&cbll=-20.2452554,-50.6439355", "O_QUE_FAZER": "FINALIZADO", "ER_REGIAO_CIDADE_min": "Urânia_Votuporanga" }, "geometry": { "type": "Point", "coordinates": [ -50.6439355, -20.2452554 ] } }
]
}
