{
"type": "FeatureCollection",
"name": "ER_REGIAO_CIDADE_min_Piracicaba_Tupi_Piracicaba",
"crs": { "type": "name", "properties": { "name": "urn:ogc:def:crs:OGC:1.3:CRS84" } },
"xy_coordinate_resolution": 1e-15,
"features": [
{ "type": "Feature", "properties": { "fid": 208610, "CNPJ": "28719338000117", "IDCIDADE": "PIRACICABA", "NOMEFANTASIA": null, "RAZAOSOCIAL": "MRC DIESEL LTDA", "ENDEE": "RUA 10 DE AGOSTO, 317, CENTRO (TUPI), 13428-403, PIRACICABA, SP, BRASIL", "LMAPS": "https://www.google.com/maps?q=&layer=c&cbll=-22.7434641,-47.5254917", "O_QUE_FAZER": "CARTEIRA - FAMPE", "ER_REGIAO_CIDADE_min": "Piracicaba_Tupi_Piracicaba" }, "geometry": { "type": "Point", "coordinates": [ -47.5254917, -22.7434641 ] } }
]
}
