{
"type": "FeatureCollection",
"name": "ER_REGIAO_CIDADE_min_Bananal_Guaratinguetá",
"crs": { "type": "name", "properties": { "name": "urn:ogc:def:crs:OGC:1.3:CRS84" } },
"xy_coordinate_resolution": 1e-15,
"features": [
{ "type": "Feature", "properties": { "fid": 208383, "CNPJ": "07148159000105", "IDCIDADE": "IGARAPAVA", "NOMEFANTASIA": null, "RAZAOSOCIAL": "CARLOS CESAR NASSIF MOREIRA", "ENDEE": "RUA NITEROI, 66, CENTRO, 14540-000, IGARAPAVA, SP, BRASIL", "LMAPS": "https://www.google.com/maps?q=&layer=c&cbll=-22.6809806,-44.3197054", "O_QUE_FAZER": "CARTEIRA - FAMPE", "ER_REGIAO_CIDADE_min": "Bananal_Guaratinguetá" }, "geometry": { "type": "Point", "coordinates": [ -44.3197054, -22.6809806 ] } },
{ "type": "Feature", "properties": { "fid": 208392, "CNPJ": "35300165000163", "IDCIDADE": "BANANAL", "NOMEFANTASIA": null, "RAZAOSOCIAL": "35.300.165 JULIANA DE CASSIA MARQUES", "ENDEE": "RUA MANOEL DE AGUIAR, 41, LOJA 1, CENTRO, 12850-000, BANANAL, SP, BRASIL", "LMAPS": "https://www.google.com/maps?q=&layer=c&cbll=-22.6839604,-44.3235948", "O_QUE_FAZER": "CARTEIRA - FAMPE", "ER_REGIAO_CIDADE_min": "Bananal_Guaratinguetá" }, "geometry": { "type": "Point", "coordinates": [ -44.3235948, -22.6839604 ] } },
{ "type": "Feature", "properties": { "fid": 208393, "CNPJ": "20776527000110", "IDCIDADE": "BANANAL", "NOMEFANTASIA": "PHARMACIA POPULAR", "RAZAOSOCIAL": "DROGARIA MELO VALIM LTDA", "ENDEE": "RUA MANOEL DE AGUIAR, 156, CENTRO, 12850-000, BANANAL, SP, BRASIL", "LMAPS": "https://www.google.com/maps?q=&layer=c&cbll=-22.6840463,-44.324662", "O_QUE_FAZER": "CARTEIRA - FAMPE", "ER_REGIAO_CIDADE_min": "Bananal_Guaratinguetá" }, "geometry": { "type": "Point", "coordinates": [ -44.324662, -22.6840463 ] } },
{ "type": "Feature", "properties": { "fid": 260489, "CNPJ": "50791357000103", "IDCIDADE": "ELDORADO", "NOMEFANTASIA": "POUSADA_E_RESTAURANTE_RECANTO_DAS_AGUAS_LTDA", "RAZAOSOCIAL": "POUSADA_RECANTO_DAS_AGUAS_", "ENDEE": "ESTRADA_MUNICIPAL_DE_ELDORADO0__BANANAL_PEQUENO_11960-000", "LMAPS": "https://www.google.com/maps?q=&layer=c&cbll=-44.3227583,-22.6836488", "O_QUE_FAZER": "FINALIZADO", "ER_REGIAO_CIDADE_min": "Bananal_Guaratinguetá" }, "geometry": { "type": "Point", "coordinates": [ -44.3227583, -22.6836488 ] } },
{ "type": "Feature", "properties": { "fid": 260499, "CNPJ": "49866196000190", "IDCIDADE": "BANANAL", "NOMEFANTASIA": "49.866.196_VERA_LUCIA_LOPES_SANTIAGO", "RAZAOSOCIAL": "49.866.196_VERA_LUCIA_LOPES_SANTIAGO", "ENDEE": "AVENIDA_JOAO_BARBOSA_DE_CAMARGO1160__VILA_BOM_JARDIM_12850-000", "LMAPS": "https://www.google.com/maps?q=&layer=c&cbll=-44.3218223,-22.6921046", "O_QUE_FAZER": "FINALIZADO", "ER_REGIAO_CIDADE_min": "Bananal_Guaratinguetá" }, "geometry": { "type": "Point", "coordinates": [ -44.3218223, -22.6921046 ] } },
{ "type": "Feature", "properties": { "fid": 307137, "CNPJ": "09251937000104", "IDCIDADE": "BANANAL", "NOMEFANTASIA": "Restaurante Habeas Copos", "RAZAOSOCIAL": "LAURINDO JOSE PIRES DE ALMEIDA", "ENDEE": "RUA DR JOSE RANGEL DE ALMEIDA, 40, CENTRO, 12850-000, BANANAL, SP, BRASIL", "LMAPS": "https://www.google.com/maps?q=&layer=c&cbll=-22.6824007,-44.3213456", "O_QUE_FAZER": "CARTEIRA - FAMPE", "ER_REGIAO_CIDADE_min": "Bananal_Guaratinguetá" }, "geometry": { "type": "Point", "coordinates": [ -44.3213456, -22.6824007 ] } },
{ "type": "Feature", "properties": { "fid": 307138, "CNPJ": "33681097000102", "IDCIDADE": "BANANAL", "NOMEFANTASIA": "-", "RAZAOSOCIAL": "33.681.097 TALITA NOGUEIRA DE OLIVEIRA SANTOS", "ENDEE": "RUA MANOEL DE AGUIAR, 17, CENTRO, 12850-000, BANANAL, SP, BRASIL", "LMAPS": "https://www.google.com/maps?q=&layer=c&cbll=-22.6838428,-44.3233783", "O_QUE_FAZER": "CARTEIRA - FAMPE", "ER_REGIAO_CIDADE_min": "Bananal_Guaratinguetá" }, "geometry": { "type": "Point", "coordinates": [ -44.3233783, -22.6838428 ] } },
{ "type": "Feature", "properties": { "fid": 307139, "CNPJ": "42442307000192", "IDCIDADE": "BANANAL", "NOMEFANTASIA": "-", "RAZAOSOCIAL": "42.442.307 JEFERSON CASSIANO FERNANDES", "ENDEE": "RUA BARAO DE JOATINGA, 685, CENTRO, 12850-000, BANANAL, SP, BRASIL", "LMAPS": "https://www.google.com/maps?q=&layer=c&cbll=-22.679641,-44.3200905", "O_QUE_FAZER": "CARTEIRA - FAMPE", "ER_REGIAO_CIDADE_min": "Bananal_Guaratinguetá" }, "geometry": { "type": "Point", "coordinates": [ -44.3200905, -22.679641 ] } },
{ "type": "Feature", "properties": { "fid": 307140, "CNPJ": "24181200000156", "IDCIDADE": "BANANAL", "NOMEFANTASIA": "Lima Laje", "RAZAOSOCIAL": "LIMA LAJE CASA DA CONSTRUCAO LTDA", "ENDEE": "RUA ANTONIO GERVASIO DO NASCIMENTO, 50, BOM JARDIM, 12850-000, BANANAL, SP, BRASIL", "LMAPS": "https://www.google.com/maps?q=&layer=c&cbll=-22.689677,-44.3201651", "O_QUE_FAZER": "CARTEIRA - FAMPE", "ER_REGIAO_CIDADE_min": "Bananal_Guaratinguetá" }, "geometry": { "type": "Point", "coordinates": [ -44.3201651, -22.689677 ] } },
{ "type": "Feature", "properties": { "fid": 307141, "CNPJ": "55381952000194", "IDCIDADE": "BANANAL", "NOMEFANTASIA": "-", "RAZAOSOCIAL": "55.381.952 EDIMARA COSTA DA SILVA RAMOS", "ENDEE": "FAZENDA CACHOEIRA, SN, DO TURVO, 12850-000, BANANAL, SP, BRASIL", "LMAPS": "https://www.google.com/maps?q=&layer=c&cbll=-22.7036244,-44.3137912", "O_QUE_FAZER": "CARTEIRA - FAMPE", "ER_REGIAO_CIDADE_min": "Bananal_Guaratinguetá" }, "geometry": { "type": "Point", "coordinates": [ -44.3137912, -22.7036244 ] } }
]
}
