{
"type": "FeatureCollection",
"name": "ER_REGIAO_CIDADE_min_Fernão_Bauru",
"crs": { "type": "name", "properties": { "name": "urn:ogc:def:crs:OGC:1.3:CRS84" } },
"xy_coordinate_resolution": 1e-15,
"features": [
{ "type": "Feature", "properties": { "CNPJ": "30483592000100", "IDCIDADE": "FERNAO", "NOMEFANTASIA": "30.483.592_ANTONIO_CARLOS_FERREIRA", "RAZAOSOCIAL": "CARECA_LANCHES", "ENDEE": "RUA_ANTONIO_CABETTE220__CENTRO_17460-003", "LATITUDE": "-22.3605675", "LONGITUDE": "-49.5221497", "LMAPS": "https://www.google.com/maps?q=&layer=c&cbll=-49.5221497,-22.3605675", "O_QUE_FAZER": "FINALIZADO", "field_10": null, "field_11": null, "field_12": null, "field_13": null, "ER_REGIAO_CIDADE_min": "Fernão_Bauru" }, "geometry": { "type": "Point", "coordinates": [ -49.5221497, -22.3605675 ] } },
{ "type": "Feature", "properties": { "CNPJ": "68416611000159", "IDCIDADE": "FERNAO", "NOMEFANTASIA": "-", "RAZAOSOCIAL": "68.416.611_GABRIELA_FERNANDES", "ENDEE": "RUA SEBASTIAO ANDRE DA FONSECA, 20, CENTRO, 17460-019, FERNÃO, SP, BRASIL", "LATITUDE": "-22.3577331", "LONGITUDE": "-49.5234227", "LMAPS": "https://www.google.com/maps?q=&layer=c&cbll=-22.3577331,-49.5234227", "O_QUE_FAZER": "APLICAR T2", "field_10": null, "field_11": null, "field_12": null, "field_13": null, "ER_REGIAO_CIDADE_min": "Fernão_Bauru" }, "geometry": { "type": "Point", "coordinates": [ -49.5234227, -22.3577331 ] } },
{ "type": "Feature", "properties": { "CNPJ": "10294582000110", "IDCIDADE": "FERNAO", "NOMEFANTASIA": "AUTO_POSTO_8W", "RAZAOSOCIAL": "8_W_COMERCIO_DE_COMBUSTIVEIS_LTDA.", "ENDEE": "RUA_ANTONIO_CABETTE435__CENTRO_17460-003", "LATITUDE": "-22.3582483", "LONGITUDE": "-49.5232033", "LMAPS": "https://www.google.com/maps?q=&layer=c&cbll=-49.5232033,-22.3582483", "O_QUE_FAZER": "CARTEIRA", "field_10": null, "field_11": null, "field_12": null, "field_13": null, "ER_REGIAO_CIDADE_min": "Fernão_Bauru" }, "geometry": { "type": "Point", "coordinates": [ -49.5232033, -22.3582483 ] } },
{ "type": "Feature", "properties": { "CNPJ": "12361856000171", "IDCIDADE": "FERNAO", "NOMEFANTASIA": "CONVENIENCIA_FERNAO", "RAZAOSOCIAL": "CONVENIENCIA_FERNAO_PETRO_LTDA", "ENDEE": "RUA_ANTONIO_CABETTE325__CENTRO_17460-003", "LATITUDE": "-22.3602274", "LONGITUDE": "-49.5225362", "LMAPS": "https://www.google.com/maps?q=&layer=c&cbll=-49.5225362,-22.3602274", "O_QUE_FAZER": "CARTEIRA", "field_10": null, "field_11": null, "field_12": null, "field_13": null, "ER_REGIAO_CIDADE_min": "Fernão_Bauru" }, "geometry": { "type": "Point", "coordinates": [ -49.5225362, -22.3602274 ] } },
{ "type": "Feature", "properties": { "CNPJ": "03113303000109", "IDCIDADE": "FERNAO", "NOMEFANTASIA": "SUPERMERCADO_SIMILI", "RAZAOSOCIAL": "COMERCIO_DE_SECOS_E_MOLHADOS_SIMILI_FERNAO_LTDA", "ENDEE": "RUA_ANTONIO_MARIA_AGOSTINHO_SIMOES125__CENTRO_17460-005", "LATITUDE": "-22.3596164", "LONGITUDE": "-49.5215211", "LMAPS": "https://www.google.com/maps?q=&layer=c&cbll=-49.5215211,-22.3596164", "O_QUE_FAZER": "CARTEIRA", "field_10": null, "field_11": null, "field_12": null, "field_13": null, "ER_REGIAO_CIDADE_min": "Fernão_Bauru" }, "geometry": { "type": "Point", "coordinates": [ -49.5215211, -22.3596164 ] } }
]
}
