{
"type": "FeatureCollection",
"name": "ER_REGIAO_CIDADE_min_São Miguel Arcanjo_São Miguel Arcanjo_Sorocaba",
"crs": { "type": "name", "properties": { "name": "urn:ogc:def:crs:OGC:1.3:CRS84" } },
"xy_coordinate_resolution": 1e-15,
"features": [
{ "type": "Feature", "properties": { "fid": 109, "CNPJ": "00006358000121", "IDCIDADE": "SAO_MIGUEL_ARCANJO", "NOMEFANTASIA": "AUTOELETRICA_TX", "RAZAOSOCIAL": "ALTAMIR_HIDEO_SAKOMURA", "ENDEE": "RUA_MIGUEL_TERRA60__CENTRO_18230-000", "LMAPS": "https://www.google.com/maps?q=&layer=c&cbll=-23.8794767,-47.9916783", "O_QUE_FAZER": "CARTEIRA", "ER_REGIAO_CIDADE_min": "São Miguel Arcanjo_São Miguel Arcanjo_Sorocaba" }, "geometry": { "type": "Point", "coordinates": [ -47.9916783, -23.8794767 ] } },
{ "type": "Feature", "properties": { "fid": 2963, "CNPJ": "00606431000104", "IDCIDADE": "SAO_MIGUEL_ARCANJO", "NOMEFANTASIA": "PADARIA_SAO_MIGUEL", "RAZAOSOCIAL": "PADARIA_E_MERCEARIA_J_R_NASCIMENTO_LTDA", "ENDEE": "RUA_MARECHAL_CASTELO_BRANCO425__CENTRO_18230-000", "LMAPS": "https://www.google.com/maps?q=&layer=c&cbll=-23.8850437,-47.9961243", "O_QUE_FAZER": "CARTEIRA", "ER_REGIAO_CIDADE_min": "São Miguel Arcanjo_São Miguel Arcanjo_Sorocaba" }, "geometry": { "type": "Point", "coordinates": [ -47.9961243, -23.8850437 ] } },
{ "type": "Feature", "properties": { "fid": 4103, "CNPJ": "00851142000162", "IDCIDADE": "SAO_MIGUEL_ARCANJO", "NOMEFANTASIA": "LOJA_E_PAPELARIA_MARLENE", "RAZAOSOCIAL": "MPX_LOGISTICA_PRESENTES_LTDA", "ENDEE": "RUA_MARECHAL_CASTELO_BRANCO530__CENTRO_18230-000", "LMAPS": "https://www.google.com/maps?q=&layer=c&cbll=-23.8842669,-47.9974692", "O_QUE_FAZER": "CARTEIRA - FAMPE", "ER_REGIAO_CIDADE_min": "São Miguel Arcanjo_São Miguel Arcanjo_Sorocaba" }, "geometry": { "type": "Point", "coordinates": [ -47.9974692, -23.8842669 ] } },
{ "type": "Feature", "properties": { "fid": 4443, "CNPJ": "00921449000273", "IDCIDADE": "SAO_MIGUEL_ARCANJO", "NOMEFANTASIA": "CIA_TA_BARATO", "RAZAOSOCIAL": "MAURICIO_CANGUSSU_DE_SOUZA", "ENDEE": "RUA_CORONEL_FERNANDO_PRESTES796__CENTRO_18230-000", "LMAPS": "https://www.google.com/maps?q=&layer=c&cbll=-23.8787078,-47.9960455", "O_QUE_FAZER": "CARTEIRA", "ER_REGIAO_CIDADE_min": "São Miguel Arcanjo_São Miguel Arcanjo_Sorocaba" }, "geometry": { "type": "Point", "coordinates": [ -47.9960455, -23.8787078 ] } },
{ "type": "Feature", "properties": { "fid": 5644, "CNPJ": "01163384000126", "IDCIDADE": "SAO_MIGUEL_ARCANJO", "NOMEFANTASIA": "MR_EVENTOS", "RAZAOSOCIAL": "M._R._ORGANIZACAO_E_EVENTOS_LTDA", "ENDEE": "ACESSO_JOSE_ALVES_MACHADO263__VILA_TOMAZ_18230-000", "LMAPS": "https://www.google.com/maps?q=&layer=c&cbll=-23.8811919,-47.9890725", "O_QUE_FAZER": "CARTEIRA", "ER_REGIAO_CIDADE_min": "São Miguel Arcanjo_São Miguel Arcanjo_Sorocaba" }, "geometry": { "type": "Point", "coordinates": [ -47.9890725, -23.8811919 ] } },
{ "type": "Feature", "properties": { "fid": 6881, "CNPJ": "01426449000189", "IDCIDADE": "SAO_MIGUEL_ARCANJO", "NOMEFANTASIA": "PADARIA_ESPIRITO_SANTO", "RAZAOSOCIAL": "PADARIA_E_CONFEITARIA_S_M_A_LTDA", "ENDEE": "RUA_DOUTOR_JULIO_PRESTES962__CENTRO_18230-000", "LMAPS": "https://www.google.com/maps?q=&layer=c&cbll=-23.8798917,-47.99822", "O_QUE_FAZER": "CARTEIRA", "ER_REGIAO_CIDADE_min": "São Miguel Arcanjo_São Miguel Arcanjo_Sorocaba" }, "geometry": { "type": "Point", "coordinates": [ -47.99822, -23.8798917 ] } },
{ "type": "Feature", "properties": { "fid": 12391, "CNPJ": "02519785000139", "IDCIDADE": "SAO_MIGUEL_ARCANJO", "NOMEFANTASIA": "AGROPECUARIA_O_CELEIRO", "RAZAOSOCIAL": "COMERCIAL_AGROPECUARIA_CELEIRO_LTDA", "ENDEE": "AVENIDA_JOAO_PAULINO_DA_SILVA50__CENTRO_18230-000", "LMAPS": "https://www.google.com/maps?q=&layer=c&cbll=-23.884709,-47.9984708", "O_QUE_FAZER": "CARTEIRA", "ER_REGIAO_CIDADE_min": "São Miguel Arcanjo_São Miguel Arcanjo_Sorocaba" }, "geometry": { "type": "Point", "coordinates": [ -47.9984708, -23.884709 ] } },
{ "type": "Feature", "properties": { "fid": 15590, "CNPJ": "03073779000163", "IDCIDADE": "SAO_MIGUEL_ARCANJO", "NOMEFANTASIA": "SAMTEL_CELULARES", "RAZAOSOCIAL": "SAMTEL_LTDA", "ENDEE": "RUA_CORONEL_FERNANDO_PRESTES730__CENTRO_18230-000", "LMAPS": "https://www.google.com/maps?q=&layer=c&cbll=-23.8780589,-47.9957489", "O_QUE_FAZER": "CARTEIRA", "ER_REGIAO_CIDADE_min": "São Miguel Arcanjo_São Miguel Arcanjo_Sorocaba" }, "geometry": { "type": "Point", "coordinates": [ -47.9957489, -23.8780589 ] } },
{ "type": "Feature", "properties": { "fid": 15980, "CNPJ": "03137667000129", "IDCIDADE": "SAO_MIGUEL_ARCANJO", "NOMEFANTASIA": "LOJA_SONHO_MEU", "RAZAOSOCIAL": "HELIO_SUSSUMU_OKI", "ENDEE": "RUA_CONEGO_FRANCISCO_RIBEIRO953__CENTRO_18230-000", "LMAPS": "https://www.google.com/maps?q=&layer=c&cbll=-23.8802151,-47.9973529", "O_QUE_FAZER": "CARTEIRA", "ER_REGIAO_CIDADE_min": "São Miguel Arcanjo_São Miguel Arcanjo_Sorocaba" }, "geometry": { "type": "Point", "coordinates": [ -47.9973529, -23.8802151 ] } },
{ "type": "Feature", "properties": { "fid": 19129, "CNPJ": "03651256000157", "IDCIDADE": "SAO_MIGUEL_ARCANJO", "NOMEFANTASIA": "CRA_REPINTURA_AUTOMOTIVA", "RAZAOSOCIAL": "J.CARLOS_B.MARIANO", "ENDEE": "RUA_CASSIANO_VIEIRA675__JARDIM_CARRARO_18230-000", "LMAPS": "https://www.google.com/maps?q=&layer=c&cbll=-23.8736546,-48.0005284", "O_QUE_FAZER": "CARTEIRA", "ER_REGIAO_CIDADE_min": "São Miguel Arcanjo_São Miguel Arcanjo_Sorocaba" }, "geometry": { "type": "Point", "coordinates": [ -48.0005284, -23.8736546 ] } },
{ "type": "Feature", "properties": { "fid": 19354, "CNPJ": "03690178000108", "IDCIDADE": "SAO_MIGUEL_ARCANJO", "NOMEFANTASIA": "EMPORIO_DE_RACOES_DO_GORDO", "RAZAOSOCIAL": "HEBERTH_WILLIAM_DORTA_BERNARDES", "ENDEE": "RUA_CONEGO_FRANCISCO_RIBEIRO650__CENTRO_18230-000", "LMAPS": "https://www.google.com/maps?q=&layer=c&cbll=-23.8775733,-47.9965433", "O_QUE_FAZER": "CARTEIRA", "ER_REGIAO_CIDADE_min": "São Miguel Arcanjo_São Miguel Arcanjo_Sorocaba" }, "geometry": { "type": "Point", "coordinates": [ -47.9965433, -23.8775733 ] } },
{ "type": "Feature", "properties": { "fid": 20909, "CNPJ": "03954306000175", "IDCIDADE": "SAO_MIGUEL_ARCANJO", "NOMEFANTASIA": "ZOOM_MODAS", "RAZAOSOCIAL": "M._A._DA_SILVA_BOUTIQUE", "ENDEE": "RUA_CONEGO_FRANCISCO_RIBEIRO848__CENTRO_18230-000", "LMAPS": "https://www.google.com/maps?q=&layer=c&cbll=-23.8793023,-47.9971928", "O_QUE_FAZER": "CARTEIRA", "ER_REGIAO_CIDADE_min": "São Miguel Arcanjo_São Miguel Arcanjo_Sorocaba" }, "geometry": { "type": "Point", "coordinates": [ -47.9971928, -23.8793023 ] } },
{ "type": "Feature", "properties": { "fid": 23065, "CNPJ": "04268880000132", "IDCIDADE": "SAO_MIGUEL_ARCANJO", "NOMEFANTASIA": "SMANET", "RAZAOSOCIAL": "SMANET_INFORMATICA_LTDA", "ENDEE": "RUA_COMENDADOR_JOSE_GIORGI490__CENTRO_18230-000", "LMAPS": "https://www.google.com/maps?q=&layer=c&cbll=-23.8762544,-47.9939962", "O_QUE_FAZER": "CARTEIRA - FAMPE", "ER_REGIAO_CIDADE_min": "São Miguel Arcanjo_São Miguel Arcanjo_Sorocaba" }, "geometry": { "type": "Point", "coordinates": [ -47.9939962, -23.8762544 ] } },
{ "type": "Feature", "properties": { "fid": 23529, "CNPJ": "04342508000129", "IDCIDADE": "SAO_MIGUEL_ARCANJO", "NOMEFANTASIA": "RESTAURANTE_VEN-KA", "RAZAOSOCIAL": "RESTAURANTE_VEN-KA_LTDA", "ENDEE": "RUA_CORONEL_FERNANDO_PRESTES1136__CENTRO_18230-000", "LMAPS": "https://www.google.com/maps?q=&layer=c&cbll=-23.8815573,-47.997202", "O_QUE_FAZER": "CARTEIRA - FAMPE", "ER_REGIAO_CIDADE_min": "São Miguel Arcanjo_São Miguel Arcanjo_Sorocaba" }, "geometry": { "type": "Point", "coordinates": [ -47.997202, -23.8815573 ] } },
{ "type": "Feature", "properties": { "fid": 23666, "CNPJ": "04361897000130", "IDCIDADE": "SAO_MIGUEL_ARCANJO", "NOMEFANTASIA": "BAZAR_E_PAPELARIA_AQUARIUS", "RAZAOSOCIAL": "V._A._CUNHA_&_CIA_LTDA", "ENDEE": "RUA_CONEGO_FRANCISCO_RIBEIRO866__CENTRO_18230-000", "LMAPS": "https://www.google.com/maps?q=&layer=c&cbll=-23.8794054,-47.9974122", "O_QUE_FAZER": "CARTEIRA", "ER_REGIAO_CIDADE_min": "São Miguel Arcanjo_São Miguel Arcanjo_Sorocaba" }, "geometry": { "type": "Point", "coordinates": [ -47.9974122, -23.8794054 ] } },
{ "type": "Feature", "properties": { "fid": 24017, "CNPJ": "04413875000176", "IDCIDADE": "SAO_MIGUEL_ARCANJO", "NOMEFANTASIA": "PPM_AGROPECUARIA", "RAZAOSOCIAL": "ELIZABETH_DE_ABREU_GARCIA_LIMA", "ENDEE": "RUA_SIQUEIRA_CAMPOS1155__CENTRO_18230-000", "LMAPS": "https://www.google.com/maps?q=&layer=c&cbll=-23.8804692,-47.998857", "O_QUE_FAZER": "CARTEIRA", "ER_REGIAO_CIDADE_min": "São Miguel Arcanjo_São Miguel Arcanjo_Sorocaba" }, "geometry": { "type": "Point", "coordinates": [ -47.998857, -23.8804692 ] } },
{ "type": "Feature", "properties": { "fid": 24545, "CNPJ": "04496830000102", "IDCIDADE": "SAO_MIGUEL_ARCANJO", "NOMEFANTASIA": "ARMAZEM_BOUTIQUE", "RAZAOSOCIAL": "ROBERTA_MARIA_DOS_PASSOS_ROSA_DO_NASCIMENTO_AKUTSU", "ENDEE": "RUA_COMENDADOR_DANTE_CARRARO1163__CENTRO_18230-000", "LMAPS": "https://www.google.com/maps?q=&layer=c&cbll=-23.8823952,-47.9949688", "O_QUE_FAZER": "CARTEIRA", "ER_REGIAO_CIDADE_min": "São Miguel Arcanjo_São Miguel Arcanjo_Sorocaba" }, "geometry": { "type": "Point", "coordinates": [ -47.9949688, -23.8823952 ] } },
{ "type": "Feature", "properties": { "fid": 27554, "CNPJ": "04924653000118", "IDCIDADE": "SAO_MIGUEL_ARCANJO", "NOMEFANTASIA": "CHAMA_VIVA_ULTRAGAZ", "RAZAOSOCIAL": "PATRICIA_CRISTIANE_DA_SILVA_OLIVEIRA_BATISTA", "ENDEE": "RUA_JOAQUIM_ORTIZ_DE_CAMARGO845__CENTRO_18230-000", "LMAPS": "https://www.google.com/maps?q=&layer=c&cbll=-23.8827213,-48.0063298", "O_QUE_FAZER": "CARTEIRA", "ER_REGIAO_CIDADE_min": "São Miguel Arcanjo_São Miguel Arcanjo_Sorocaba" }, "geometry": { "type": "Point", "coordinates": [ -48.0063298, -23.8827213 ] } },
{ "type": "Feature", "properties": { "fid": 31663, "CNPJ": "05514293000149", "IDCIDADE": "SAO_MIGUEL_ARCANJO", "NOMEFANTASIA": "LM_COMERCIAL", "RAZAOSOCIAL": "LAERCIO_BENEDITO_MENDES", "ENDEE": "ACESSO_JOSE_ALVES_MACHADO345__CENTRO_18230-000", "LMAPS": "https://www.google.com/maps?q=&layer=c&cbll=-23.8817488,-47.9885292", "O_QUE_FAZER": "CARTEIRA", "ER_REGIAO_CIDADE_min": "São Miguel Arcanjo_São Miguel Arcanjo_Sorocaba" }, "geometry": { "type": "Point", "coordinates": [ -47.9885292, -23.8817488 ] } },
{ "type": "Feature", "properties": { "fid": 32808, "CNPJ": "05661580000181", "IDCIDADE": "SAO_MIGUEL_ARCANJO", "NOMEFANTASIA": "DIGNO_AGROPECUARIA", "RAZAOSOCIAL": "SIVALDO_MOREIRA_SANTOS", "ENDEE": "RUA_CONEGO_FRANCISCO_RIBEIRO1561__JARDIM_TAVARES_18230-000", "LMAPS": "https://www.google.com/maps?q=&layer=c&cbll=-23.8853917,-47.9992633", "O_QUE_FAZER": "CARTEIRA", "ER_REGIAO_CIDADE_min": "São Miguel Arcanjo_São Miguel Arcanjo_Sorocaba" }, "geometry": { "type": "Point", "coordinates": [ -47.9992633, -23.8853917 ] } },
{ "type": "Feature", "properties": { "fid": 34544, "CNPJ": "05905409000170", "IDCIDADE": "SAO_MIGUEL_ARCANJO", "NOMEFANTASIA": "TERRA_MATERIAIS_ELETRICOS", "RAZAOSOCIAL": "TERRA_MATERIAIS_ELETRICOS_E_HIDRAULICOS_LTDA", "ENDEE": "RUA_GOVERNADOR_PEDRO_DE_TOLEDO286__CENTRO_18230-000", "LMAPS": "https://www.google.com/maps?q=&layer=c&cbll=-23.8797588,-47.9946614", "O_QUE_FAZER": "CARTEIRA", "ER_REGIAO_CIDADE_min": "São Miguel Arcanjo_São Miguel Arcanjo_Sorocaba" }, "geometry": { "type": "Point", "coordinates": [ -47.9946614, -23.8797588 ] } },
{ "type": "Feature", "properties": { "fid": 34832, "CNPJ": "05944448000187", "IDCIDADE": "SAO_MIGUEL_ARCANJO", "NOMEFANTASIA": "PARAFUSOS_ARCANJO", "RAZAOSOCIAL": "REGINA_FOGACA_DE_ALMEIDA_&_CIA_LTDA", "ENDEE": "RUA_SADAMITA_IWASSAKI540__CENTRO_18230-000", "LMAPS": "https://www.google.com/maps?q=&layer=c&cbll=-23.8776203,-47.9927034", "O_QUE_FAZER": "CARTEIRA", "ER_REGIAO_CIDADE_min": "São Miguel Arcanjo_São Miguel Arcanjo_Sorocaba" }, "geometry": { "type": "Point", "coordinates": [ -47.9927034, -23.8776203 ] } },
{ "type": "Feature", "properties": { "fid": 35525, "CNPJ": "06030968000147", "IDCIDADE": "SAO_MIGUEL_ARCANJO", "NOMEFANTASIA": "TERRA_&_COMPANHIA_TERRAPLANAGEM", "RAZAOSOCIAL": "JORGE_AUGUSTO_JOSE_PEREIRA", "ENDEE": "RUA_JOSE_FRANCA215__RESIDENCIAL_MONTE_VERDE_18230-000", "LMAPS": "https://www.google.com/maps?q=&layer=c&cbll=-23.87488,-48.0049562", "O_QUE_FAZER": "CARTEIRA", "ER_REGIAO_CIDADE_min": "São Miguel Arcanjo_São Miguel Arcanjo_Sorocaba" }, "geometry": { "type": "Point", "coordinates": [ -48.0049562, -23.87488 ] } },
{ "type": "Feature", "properties": { "fid": 36070, "CNPJ": "06108784000152", "IDCIDADE": "SAO_MIGUEL_ARCANJO", "NOMEFANTASIA": "CONSULTORIO_DR._MARCOS_PEREZ", "RAZAOSOCIAL": "CONSULTORIO_MEDICO_E_ODONTOLOGICO_MARSIL_LTDA", "ENDEE": "RUA_MIGUEL_TERRA127__CENTRO_18230-000", "LMAPS": "https://www.google.com/maps?q=&layer=c&cbll=-23.8793782,-47.9923612", "O_QUE_FAZER": "CARTEIRA", "ER_REGIAO_CIDADE_min": "São Miguel Arcanjo_São Miguel Arcanjo_Sorocaba" }, "geometry": { "type": "Point", "coordinates": [ -47.9923612, -23.8793782 ] } },
{ "type": "Feature", "properties": { "fid": 37250, "CNPJ": "06257712000177", "IDCIDADE": "SAO_MIGUEL_ARCANJO", "NOMEFANTASIA": "LOJA_PRO_CINDY", "RAZAOSOCIAL": "APARECIDA_DE_FATIMA_GALVAO_TERRA", "ENDEE": "RUA_CORONEL_FERNANDO_PRESTES1220__CENTRO_18230-000", "LMAPS": "https://www.google.com/maps?q=&layer=c&cbll=-23.8822451,-47.997485", "O_QUE_FAZER": "CARTEIRA", "ER_REGIAO_CIDADE_min": "São Miguel Arcanjo_São Miguel Arcanjo_Sorocaba" }, "geometry": { "type": "Point", "coordinates": [ -47.997485, -23.8822451 ] } },
{ "type": "Feature", "properties": { "fid": 39315, "CNPJ": "07023388000195", "IDCIDADE": "SAO_MIGUEL_ARCANJO", "NOMEFANTASIA": "AKUTSU_VESTUARIOS", "RAZAOSOCIAL": "AKUTSU_VESTUARIOS_LTDA", "ENDEE": "RUA_DOUTOR_ARMANDO_SALES_DE_OLIVEIRA549__CENTRO_18230-000", "LMAPS": "https://www.google.com/maps?q=&layer=c&cbll=-23.8799064,-47.9972388", "O_QUE_FAZER": "CARTEIRA", "ER_REGIAO_CIDADE_min": "São Miguel Arcanjo_São Miguel Arcanjo_Sorocaba" }, "geometry": { "type": "Point", "coordinates": [ -47.9972388, -23.8799064 ] } },
{ "type": "Feature", "properties": { "fid": 41071, "CNPJ": "07246250000155", "IDCIDADE": "SAO_MIGUEL_ARCANJO", "NOMEFANTASIA": "LIGEIRINHO_GAS", "RAZAOSOCIAL": "THIAGO_STRIOGLI_ALVES_FERREIRA", "ENDEE": "RUA_MIGUEL_TERRA241__CENTRO_18230-000", "LMAPS": "https://www.google.com/maps?q=&layer=c&cbll=-23.87899,-47.99348", "O_QUE_FAZER": "CARTEIRA", "ER_REGIAO_CIDADE_min": "São Miguel Arcanjo_São Miguel Arcanjo_Sorocaba" }, "geometry": { "type": "Point", "coordinates": [ -47.99348, -23.87899 ] } },
{ "type": "Feature", "properties": { "fid": 43494, "CNPJ": "07545347000169", "IDCIDADE": "SAO_MIGUEL_ARCANJO", "NOMEFANTASIA": "PAULISTANA_MOVEIS_E_ELETRO", "RAZAOSOCIAL": "JOAO_OLIMPIO_DA_COSTA", "ENDEE": "RUA_CORONEL_FERNANDO_PRESTES776__CENTRO_18230-000", "LMAPS": "https://www.google.com/maps?q=&layer=c&cbll=-23.8784317,-47.99611", "O_QUE_FAZER": "CARTEIRA", "ER_REGIAO_CIDADE_min": "São Miguel Arcanjo_São Miguel Arcanjo_Sorocaba" }, "geometry": { "type": "Point", "coordinates": [ -47.99611, -23.8784317 ] } },
{ "type": "Feature", "properties": { "fid": 43935, "CNPJ": "07593097000132", "IDCIDADE": "SAO_MIGUEL_ARCANJO", "NOMEFANTASIA": "NORI_AUTOPECAS", "RAZAOSOCIAL": "FABIO_ALVES_TSUTSUI", "ENDEE": "RUA_DOS_EXPEDICIONARIOS535__CENTRO_18230-000", "LMAPS": "https://www.google.com/maps?q=&layer=c&cbll=-23.8783461,-47.9921382", "O_QUE_FAZER": "CARTEIRA", "ER_REGIAO_CIDADE_min": "São Miguel Arcanjo_São Miguel Arcanjo_Sorocaba" }, "geometry": { "type": "Point", "coordinates": [ -47.9921382, -23.8783461 ] } },
{ "type": "Feature", "properties": { "fid": 43960, "CNPJ": "07595298000179", "IDCIDADE": "SAO_MIGUEL_ARCANJO", "NOMEFANTASIA": "JFI_SILVICULTURA", "RAZAOSOCIAL": "MAURICIO_FERREIRA_DOS_SANTOS_MAQUINAS_AGRICOLAS", "ENDEE": "ACESSO_JOSE_ALVES_MACHADO575__VILA_TOMAZ_18230-000", "LMAPS": "https://www.google.com/maps?q=&layer=c&cbll=-23.8834357,-47.9869166", "O_QUE_FAZER": "CARTEIRA", "ER_REGIAO_CIDADE_min": "São Miguel Arcanjo_São Miguel Arcanjo_Sorocaba" }, "geometry": { "type": "Point", "coordinates": [ -47.9869166, -23.8834357 ] } },
{ "type": "Feature", "properties": { "fid": 46196, "CNPJ": "07842930000131", "IDCIDADE": "SAO_MIGUEL_ARCANJO", "NOMEFANTASIA": "CHUPIM_MOTOS", "RAZAOSOCIAL": "RODRIGO_PIRES_DE_OLIVEIRA_PECAS", "ENDEE": "RUA_COM_DANTE_CARRARO833__CENTRO_18230-000", "LMAPS": "https://www.google.com/maps?q=&layer=c&cbll=-23.8794833,-47.9940731", "O_QUE_FAZER": "CARTEIRA", "ER_REGIAO_CIDADE_min": "São Miguel Arcanjo_São Miguel Arcanjo_Sorocaba" }, "geometry": { "type": "Point", "coordinates": [ -47.9940731, -23.8794833 ] } },
{ "type": "Feature", "properties": { "fid": 46361, "CNPJ": "07861583000194", "IDCIDADE": "SAO_MIGUEL_ARCANJO", "NOMEFANTASIA": "ITABIKE", "RAZAOSOCIAL": "ITAMAR_DOS_SANTOS_PINTO", "ENDEE": "RUA_MARECHAL_CASTELO_BRANCO437__CENTRO_18230-000", "LMAPS": "https://www.google.com/maps?q=&layer=c&cbll=-23.8848967,-47.9967268", "O_QUE_FAZER": "CARTEIRA", "ER_REGIAO_CIDADE_min": "São Miguel Arcanjo_São Miguel Arcanjo_Sorocaba" }, "geometry": { "type": "Point", "coordinates": [ -47.9967268, -23.8848967 ] } },
{ "type": "Feature", "properties": { "fid": 46905, "CNPJ": "07935213000154", "IDCIDADE": "SAO_MIGUEL_ARCANJO", "NOMEFANTASIA": "HAKIM_PRESENTES", "RAZAOSOCIAL": "M._HAKIM", "ENDEE": "RUA_CORONEL_FERNANDO_PRESTES786__CENTRO_18230-000", "LMAPS": "https://www.google.com/maps?q=&layer=c&cbll=-23.8785874,-47.995884", "O_QUE_FAZER": "CARTEIRA", "ER_REGIAO_CIDADE_min": "São Miguel Arcanjo_São Miguel Arcanjo_Sorocaba" }, "geometry": { "type": "Point", "coordinates": [ -47.995884, -23.8785874 ] } },
{ "type": "Feature", "properties": { "fid": 48252, "CNPJ": "08149631000189", "IDCIDADE": "SAO_MIGUEL_ARCANJO", "NOMEFANTASIA": "ARMAZEM_NOSSO_CAMPO", "RAZAOSOCIAL": "IRACI_TEIXEIRA_DE_ARRUDA", "ENDEE": "RUA_MARECHAL_CASTELO_BRANCO355__CENTRO_18230-000", "LMAPS": "https://www.google.com/maps?q=&layer=c&cbll=-23.8851257,-47.9958866", "O_QUE_FAZER": "CARTEIRA", "ER_REGIAO_CIDADE_min": "São Miguel Arcanjo_São Miguel Arcanjo_Sorocaba" }, "geometry": { "type": "Point", "coordinates": [ -47.9958866, -23.8851257 ] } },
{ "type": "Feature", "properties": { "fid": 49082, "CNPJ": "08260227000188", "IDCIDADE": "SAO_MIGUEL_ARCANJO", "NOMEFANTASIA": "LOJA_RIBEIRO", "RAZAOSOCIAL": "ROBERTA_NORONHA_MUNIZ_AGUIAR", "ENDEE": "RUA_MARECHAL_CASTELO_BRANCO520__CENTRO_18230-000", "LMAPS": "https://www.google.com/maps?q=&layer=c&cbll=-23.8844763,-47.9974367", "O_QUE_FAZER": "CARTEIRA", "ER_REGIAO_CIDADE_min": "São Miguel Arcanjo_São Miguel Arcanjo_Sorocaba" }, "geometry": { "type": "Point", "coordinates": [ -47.9974367, -23.8844763 ] } },
{ "type": "Feature", "properties": { "fid": 50261, "CNPJ": "08424097000171", "IDCIDADE": "SAO_MIGUEL_ARCANJO", "NOMEFANTASIA": "MINI_MERCADO_APACHE", "RAZAOSOCIAL": "CONVENIENCIA_E_MINIMERCADO_APACHE_LTDA", "ENDEE": "RUA_JOAQUIM_ORTIZ_DE_CAMARGO254__CENTRO_18230-000", "LMAPS": "https://www.google.com/maps?q=&layer=c&cbll=-23.8810432,-48.0013714", "O_QUE_FAZER": "CARTEIRA", "ER_REGIAO_CIDADE_min": "São Miguel Arcanjo_São Miguel Arcanjo_Sorocaba" }, "geometry": { "type": "Point", "coordinates": [ -48.0013714, -23.8810432 ] } },
{ "type": "Feature", "properties": { "fid": 51658, "CNPJ": "08682310000145", "IDCIDADE": "SAO_MIGUEL_ARCANJO", "NOMEFANTASIA": "MOTO_PECAS_SAO_MIGUEL", "RAZAOSOCIAL": "FABIO_NUNES_PECAS", "ENDEE": "RUA_MANOEL_FOGACA392__CENTRO_18230-000", "LMAPS": "https://www.google.com/maps?q=&layer=c&cbll=-23.8777254,-47.9941823", "O_QUE_FAZER": "CARTEIRA", "ER_REGIAO_CIDADE_min": "São Miguel Arcanjo_São Miguel Arcanjo_Sorocaba" }, "geometry": { "type": "Point", "coordinates": [ -47.9941823, -23.8777254 ] } },
{ "type": "Feature", "properties": { "fid": 52857, "CNPJ": "08821962000113", "IDCIDADE": "SAO_MIGUEL_ARCANJO", "NOMEFANTASIA": "CLINICA_DR._WALDIR_CARNEIRO", "RAZAOSOCIAL": "WALDIR_CARNEIRO_VIEIRA", "ENDEE": "RUA_MANOEL_FOGACA542__CENTRO_18230-000", "LMAPS": "https://www.google.com/maps?q=&layer=c&cbll=-23.8773179,-47.9955136", "O_QUE_FAZER": "CARTEIRA", "ER_REGIAO_CIDADE_min": "São Miguel Arcanjo_São Miguel Arcanjo_Sorocaba" }, "geometry": { "type": "Point", "coordinates": [ -47.9955136, -23.8773179 ] } },
{ "type": "Feature", "properties": { "fid": 53079, "CNPJ": "08847328000150", "IDCIDADE": "SAO_MIGUEL_ARCANJO", "NOMEFANTASIA": "MACO_CAR", "RAZAOSOCIAL": "T._J._ARCANJO_COMERCIO_DE_PECAS_LTDA", "ENDEE": "RUA_DOUTOR_JULIO_PRESTES1116__CENTRO_18230-000", "LMAPS": "https://www.google.com/maps?q=&layer=c&cbll=-23.8810653,-47.9988485", "O_QUE_FAZER": "CARTEIRA", "ER_REGIAO_CIDADE_min": "São Miguel Arcanjo_São Miguel Arcanjo_Sorocaba" }, "geometry": { "type": "Point", "coordinates": [ -47.9988485, -23.8810653 ] } },
{ "type": "Feature", "properties": { "fid": 54404, "CNPJ": "09007716000195", "IDCIDADE": "SAO_MIGUEL_ARCANJO", "NOMEFANTASIA": "MAKES_SAO_MIGUEL", "RAZAOSOCIAL": "EMERSON_GONCALVES_DE_ALMEIDA", "ENDEE": "ACESSO_JOSE_ALVES_MACHADO232__CENTRO_18230-000", "LMAPS": "https://www.google.com/maps?q=&layer=c&cbll=-23.8809717,-47.989505", "O_QUE_FAZER": "CARTEIRA", "ER_REGIAO_CIDADE_min": "São Miguel Arcanjo_São Miguel Arcanjo_Sorocaba" }, "geometry": { "type": "Point", "coordinates": [ -47.989505, -23.8809717 ] } },
{ "type": "Feature", "properties": { "fid": 55953, "CNPJ": "09183536000164", "IDCIDADE": "SAO_MIGUEL_ARCANJO", "NOMEFANTASIA": "FRUTAS_E_LEGUMES_RIBEIRO", "RAZAOSOCIAL": "VALDECI_LEITE_RIBEIRO", "ENDEE": "RUA_JOSE_FRANCA395__RESIDENCIAL_MONTE_VERDE_18230-000", "LMAPS": "https://www.google.com/maps?q=&layer=c&cbll=-23.8747858,-48.0056401", "O_QUE_FAZER": "CARTEIRA", "ER_REGIAO_CIDADE_min": "São Miguel Arcanjo_São Miguel Arcanjo_Sorocaba" }, "geometry": { "type": "Point", "coordinates": [ -48.0056401, -23.8747858 ] } },
{ "type": "Feature", "properties": { "fid": 56022, "CNPJ": "09190969000147", "IDCIDADE": "SAO_MIGUEL_ARCANJO", "NOMEFANTASIA": "PADARIA_VILA_RICA", "RAZAOSOCIAL": "D._D._DO_AMARAL_SAO_MIGUEL_ARCANJO", "ENDEE": "RUA_ZENITH_GALVAO_TERRA269__JARDIM_FLORENCA_18230-000", "LMAPS": "https://www.google.com/maps?q=&layer=c&cbll=-23.8868061,-47.9897991", "O_QUE_FAZER": "CARTEIRA", "ER_REGIAO_CIDADE_min": "São Miguel Arcanjo_São Miguel Arcanjo_Sorocaba" }, "geometry": { "type": "Point", "coordinates": [ -47.9897991, -23.8868061 ] } },
{ "type": "Feature", "properties": { "fid": 56961, "CNPJ": "09296434000155", "IDCIDADE": "SAO_MIGUEL_ARCANJO", "NOMEFANTASIA": "VISUAL_MODAS", "RAZAOSOCIAL": "ANDERSON_ANTONIO_VIEIRA_VESTUARIO", "ENDEE": "RUA_CONEGO_FRANCISCO_RIBEIRO974__CENTRO_18230-000", "LMAPS": "https://www.google.com/maps?q=&layer=c&cbll=-23.880299,-47.9975791", "O_QUE_FAZER": "CARTEIRA", "ER_REGIAO_CIDADE_min": "São Miguel Arcanjo_São Miguel Arcanjo_Sorocaba" }, "geometry": { "type": "Point", "coordinates": [ -47.9975791, -23.880299 ] } },
{ "type": "Feature", "properties": { "fid": 58243, "CNPJ": "09437977000145", "IDCIDADE": "SAO_MIGUEL_ARCANJO", "NOMEFANTASIA": "MARUJO_GAS", "RAZAOSOCIAL": "OJURAM_COMERCIO_DE_GAS_LTDA", "ENDEE": "AVENIDA_KAORU_NOHAMA22__LOTEAMENTO_RESIDENCIAL_NOHAMA_18230-000", "LMAPS": "https://www.google.com/maps?q=&layer=c&cbll=-23.8738539,-48.006287", "O_QUE_FAZER": "CARTEIRA", "ER_REGIAO_CIDADE_min": "São Miguel Arcanjo_São Miguel Arcanjo_Sorocaba" }, "geometry": { "type": "Point", "coordinates": [ -48.006287, -23.8738539 ] } },
{ "type": "Feature", "properties": { "fid": 58380, "CNPJ": "09450884000150", "IDCIDADE": "SAO_MIGUEL_ARCANJO", "NOMEFANTASIA": "SUPERMERCADO_IRMAOS_PEREIRA", "RAZAOSOCIAL": "R._M._PEREIRA_SUPERMERCADOS_LTDA", "ENDEE": "RUA_DOUTOR_FERNANDO_COSTA1387__CENTRO_18230-000", "LMAPS": "https://www.google.com/maps?q=&layer=c&cbll=-23.8843259,-47.9968817", "O_QUE_FAZER": "CARTEIRA", "ER_REGIAO_CIDADE_min": "São Miguel Arcanjo_São Miguel Arcanjo_Sorocaba" }, "geometry": { "type": "Point", "coordinates": [ -47.9968817, -23.8843259 ] } },
{ "type": "Feature", "properties": { "fid": 61485, "CNPJ": "10304968000165", "IDCIDADE": "SAO_MIGUEL_ARCANJO", "NOMEFANTASIA": "SYD_CONTABIL", "RAZAOSOCIAL": "SYDCONTABIL_LTDA", "ENDEE": "RUA_DOUTOR_ARMANDO_SALES_DE_OLIVEIRA502__CENTRO_18230-000", "LMAPS": "https://www.google.com/maps?q=&layer=c&cbll=-23.8799695,-47.9967793", "O_QUE_FAZER": "CARTEIRA", "ER_REGIAO_CIDADE_min": "São Miguel Arcanjo_São Miguel Arcanjo_Sorocaba" }, "geometry": { "type": "Point", "coordinates": [ -47.9967793, -23.8799695 ] } },
{ "type": "Feature", "properties": { "fid": 62242, "CNPJ": "10381142000280", "IDCIDADE": "SAO_MIGUEL_ARCANJO", "NOMEFANTASIA": "RUNACAR", "RAZAOSOCIAL": "RUNA_CAR_CENTRO_AUTOMOTIVO_E_COMERCIO_DE_VEICULOS_LTDA", "ENDEE": "RUA_DOUTOR_FERNANDO_COSTA1106__CENTRO_18230-000", "LMAPS": "https://www.google.com/maps?q=&layer=c&cbll=-23.8816574,-47.9962569", "O_QUE_FAZER": "CARTEIRA", "ER_REGIAO_CIDADE_min": "São Miguel Arcanjo_São Miguel Arcanjo_Sorocaba" }, "geometry": { "type": "Point", "coordinates": [ -47.9962569, -23.8816574 ] } },
{ "type": "Feature", "properties": { "fid": 64111, "CNPJ": "10581970000181", "IDCIDADE": "SAO_MIGUEL_ARCANJO", "NOMEFANTASIA": "DISK_GENERICOS", "RAZAOSOCIAL": "DROGARIA_DISK_GENERICOS_LTDA", "ENDEE": "RUA_MARECHAL_CASTELO_BRANCO451__CENTRO_18230-000", "LMAPS": "https://www.google.com/maps?q=&layer=c&cbll=-23.884821,-47.9967937", "O_QUE_FAZER": "CARTEIRA", "ER_REGIAO_CIDADE_min": "São Miguel Arcanjo_São Miguel Arcanjo_Sorocaba" }, "geometry": { "type": "Point", "coordinates": [ -47.9967937, -23.884821 ] } },
{ "type": "Feature", "properties": { "fid": 65258, "CNPJ": "10703337000119", "IDCIDADE": "SAO_MIGUEL_ARCANJO", "NOMEFANTASIA": "RESTAURANTE_BOM_BOKADO", "RAZAOSOCIAL": "SOLANGE_RAFAELLA_AMGARTEN", "ENDEE": "RUA_OLIMPIO_FRANCA_DE_MATOS105__RESIDENCIAL_MONTE_VERDE_18230-000", "LMAPS": "https://www.google.com/maps?q=&layer=c&cbll=-23.8749908,-48.0044171", "O_QUE_FAZER": "CARTEIRA", "ER_REGIAO_CIDADE_min": "São Miguel Arcanjo_São Miguel Arcanjo_Sorocaba" }, "geometry": { "type": "Point", "coordinates": [ -48.0044171, -23.8749908 ] } },
{ "type": "Feature", "properties": { "fid": 66187, "CNPJ": "10799199000113", "IDCIDADE": "SAO_MIGUEL_ARCANJO", "NOMEFANTASIA": "LA_BONNA_PIZZARIA", "RAZAOSOCIAL": "LABONA_PIZZA_LTDA", "ENDEE": "RUA_GOVERNADOR_PEDRO_DE_TOLEDO318__CENTRO_18230-000", "LMAPS": "https://www.google.com/maps?q=&layer=c&cbll=-23.8796335,-47.9948999", "O_QUE_FAZER": "CARTEIRA", "ER_REGIAO_CIDADE_min": "São Miguel Arcanjo_São Miguel Arcanjo_Sorocaba" }, "geometry": { "type": "Point", "coordinates": [ -47.9948999, -23.8796335 ] } },
{ "type": "Feature", "properties": { "fid": 68999, "CNPJ": "11117310000107", "IDCIDADE": "SAO_MIGUEL_ARCANJO", "NOMEFANTASIA": "INFORNET", "RAZAOSOCIAL": "VAGNER_APARECIDO_DE_AZEVEDO", "ENDEE": "RUA_MIGUEL_TERRA143__CENTRO_18230-000", "LMAPS": "https://www.google.com/maps?q=&layer=c&cbll=-23.8792276,-47.9925205", "O_QUE_FAZER": "CARTEIRA", "ER_REGIAO_CIDADE_min": "São Miguel Arcanjo_São Miguel Arcanjo_Sorocaba" }, "geometry": { "type": "Point", "coordinates": [ -47.9925205, -23.8792276 ] } },
{ "type": "Feature", "properties": { "fid": 69190, "CNPJ": "11140904000139", "IDCIDADE": "SAO_MIGUEL_ARCANJO", "NOMEFANTASIA": "YEMBO_PECAS", "RAZAOSOCIAL": "ALVARO_DE_OLIVEIRA_YEMBO", "ENDEE": "RUA_JOAQUIM_ORTIZ_DE_CAMARGO1106__CENTRO_18230-000", "LMAPS": "https://www.google.com/maps?q=&layer=c&cbll=-23.8827285,-48.00837", "O_QUE_FAZER": "CARTEIRA", "ER_REGIAO_CIDADE_min": "São Miguel Arcanjo_São Miguel Arcanjo_Sorocaba" }, "geometry": { "type": "Point", "coordinates": [ -48.00837, -23.8827285 ] } },
{ "type": "Feature", "properties": { "fid": 74020, "CNPJ": "11821448000192", "IDCIDADE": "SAO_MIGUEL_ARCANJO", "NOMEFANTASIA": "CASA_DAS_BICICLETAS_BIKE_SHOP", "RAZAOSOCIAL": "E._F._FERREIRA_SAO_MIGUEL_ARCANJO", "ENDEE": "RUA_JOAQUIM_ORTIZ_DE_CAMARGO140__CENTRO_18230-000", "LMAPS": "https://www.google.com/maps?q=&layer=c&cbll=-23.8806884,-48.0002396", "O_QUE_FAZER": "CARTEIRA", "ER_REGIAO_CIDADE_min": "São Miguel Arcanjo_São Miguel Arcanjo_Sorocaba" }, "geometry": { "type": "Point", "coordinates": [ -48.0002396, -23.8806884 ] } },
{ "type": "Feature", "properties": { "fid": 75175, "CNPJ": "12007891000197", "IDCIDADE": "SAO MIGUEL ARCANJO", "NOMEFANTASIA": "TERRAPLENAGEM_UNIAO", "RAZAOSOCIAL": "NIVALDO_NUNES_VIEIRA_FILHO_SERVICOS", "ENDEE": "RUA JOSE FUJIWARA, 447, SOL POENTE, 18230-000, SÃO MIGUEL ARCANJO, SP, BRASIL", "LMAPS": "https://www.google.com/maps?q=&layer=c&cbll=-23.8767473,-48.0078845", "O_QUE_FAZER": "CARTEIRA - FAMPE", "ER_REGIAO_CIDADE_min": "São Miguel Arcanjo_São Miguel Arcanjo_Sorocaba" }, "geometry": { "type": "Point", "coordinates": [ -48.0078845, -23.8767473 ] } },
{ "type": "Feature", "properties": { "fid": 80014, "CNPJ": "12950249000228", "IDCIDADE": "SAO_MIGUEL_ARCANJO", "NOMEFANTASIA": "CAHS_HABITACAO", "RAZAOSOCIAL": "CASH_HABITACAO_ITAPETININGA_LTDA", "ENDEE": "RUA_CORONEL_FERNANDO_PRESTES618__CENTRO_18230-000", "LMAPS": "https://www.google.com/maps?q=&layer=c&cbll=-23.8772314,-47.9953419", "O_QUE_FAZER": "CARTEIRA", "ER_REGIAO_CIDADE_min": "São Miguel Arcanjo_São Miguel Arcanjo_Sorocaba" }, "geometry": { "type": "Point", "coordinates": [ -47.9953419, -23.8772314 ] } },
{ "type": "Feature", "properties": { "fid": 81291, "CNPJ": "13206434000194", "IDCIDADE": "SAO_MIGUEL_ARCANJO", "NOMEFANTASIA": "SMA_GESSO", "RAZAOSOCIAL": "DIEGO_RODRIGUES_NOGUEIRA", "ENDEE": "RUA_DOUTOR_FERNANDO_COSTA1406__CENTRO_18230-000", "LMAPS": "https://www.google.com/maps?q=&layer=c&cbll=-23.884329,-47.9970527", "O_QUE_FAZER": "CARTEIRA", "ER_REGIAO_CIDADE_min": "São Miguel Arcanjo_São Miguel Arcanjo_Sorocaba" }, "geometry": { "type": "Point", "coordinates": [ -47.9970527, -23.884329 ] } },
{ "type": "Feature", "properties": { "fid": 81674, "CNPJ": "13278669000191", "IDCIDADE": "SAO_MIGUEL_ARCANJO", "NOMEFANTASIA": "FARMAREIS", "RAZAOSOCIAL": "ALINE_CRISTIANE_MEDEIROS_PEDROSO_REIS_LTDA", "ENDEE": "RUA_ERNESTINA_DOS_SANTOS494__JARDIM_FLORENCA_18230-000", "LMAPS": "https://www.google.com/maps?q=&layer=c&cbll=-23.8866577,-47.9896837", "O_QUE_FAZER": "CARTEIRA", "ER_REGIAO_CIDADE_min": "São Miguel Arcanjo_São Miguel Arcanjo_Sorocaba" }, "geometry": { "type": "Point", "coordinates": [ -47.9896837, -23.8866577 ] } },
{ "type": "Feature", "properties": { "fid": 84084, "CNPJ": "13699648000140", "IDCIDADE": "SAO_MIGUEL_ARCANJO", "NOMEFANTASIA": "POTO_ACADEMY", "RAZAOSOCIAL": "POTO_ACADEMY_LTDA", "ENDEE": "RUA_MIGUEL_TERRA462__CENTRO_18230-000", "LMAPS": "https://www.google.com/maps?q=&layer=c&cbll=-23.8785133,-47.9956341", "O_QUE_FAZER": "CARTEIRA", "ER_REGIAO_CIDADE_min": "São Miguel Arcanjo_São Miguel Arcanjo_Sorocaba" }, "geometry": { "type": "Point", "coordinates": [ -47.9956341, -23.8785133 ] } },
{ "type": "Feature", "properties": { "fid": 84506, "CNPJ": "13779207000158", "IDCIDADE": "SAO_MIGUEL_ARCANJO", "NOMEFANTASIA": "DROGARIA_UNIAO", "RAZAOSOCIAL": "LAYLA_MARTINS_DO_AMARAL_LTDA", "ENDEE": "RUA_MANOEL_FOGACA425__CENTRO_18230-000", "LMAPS": "https://www.google.com/maps?q=&layer=c&cbll=-23.8777301,-47.9944633", "O_QUE_FAZER": "CARTEIRA", "ER_REGIAO_CIDADE_min": "São Miguel Arcanjo_São Miguel Arcanjo_Sorocaba" }, "geometry": { "type": "Point", "coordinates": [ -47.9944633, -23.8777301 ] } },
{ "type": "Feature", "properties": { "fid": 85365, "CNPJ": "13974724000188", "IDCIDADE": "SAO_MIGUEL_ARCANJO", "NOMEFANTASIA": "PILAR_VEICULOS", "RAZAOSOCIAL": "ANTONIO_FERREIRA_DO_NASCIMENTO", "ENDEE": "RUA_DOUTOR_JULIO_PRESTES878__CENTRO_18230-000", "LMAPS": "https://www.google.com/maps?q=&layer=c&cbll=-23.8790744,-47.998013", "O_QUE_FAZER": "CARTEIRA", "ER_REGIAO_CIDADE_min": "São Miguel Arcanjo_São Miguel Arcanjo_Sorocaba" }, "geometry": { "type": "Point", "coordinates": [ -47.998013, -23.8790744 ] } },
{ "type": "Feature", "properties": { "fid": 88170, "CNPJ": "14518672000106", "IDCIDADE": "SAO_MIGUEL_ARCANJO", "NOMEFANTASIA": "IDEAL_CONTABILIDADE", "RAZAOSOCIAL": "SONIA_REGINA_FERREIRA_DE_ALMEIDA", "ENDEE": "RUA_CORONEL_FERNANDO_PRESTES1157__CENTRO_18230-000", "LMAPS": "https://www.google.com/maps?q=&layer=c&cbll=-23.8818049,-47.9971845", "O_QUE_FAZER": "CARTEIRA", "ER_REGIAO_CIDADE_min": "São Miguel Arcanjo_São Miguel Arcanjo_Sorocaba" }, "geometry": { "type": "Point", "coordinates": [ -47.9971845, -23.8818049 ] } },
{ "type": "Feature", "properties": { "fid": 88462, "CNPJ": "14575791000192", "IDCIDADE": "SAO MIGUEL ARCANJO", "NOMEFANTASIA": null, "RAZAOSOCIAL": "BOIADEIRO_SERVICOS_LTDA", "ENDEE": "RUA ALCIDINO DOS SANTOS TERRA, 56, VILA FRANCISCO PEZZATO, 18234-200, SÃO MIGUEL ARCANJO, SP, BRASIL", "LMAPS": "https://www.google.com/maps?q=&layer=c&cbll=-23.8831025,-48.0062736", "O_QUE_FAZER": "CARTEIRA - FAMPE", "ER_REGIAO_CIDADE_min": "São Miguel Arcanjo_São Miguel Arcanjo_Sorocaba" }, "geometry": { "type": "Point", "coordinates": [ -48.0062736, -23.8831025 ] } },
{ "type": "Feature", "properties": { "fid": 92604, "CNPJ": "15468623000241", "IDCIDADE": "SAO_MIGUEL_ARCANJO", "NOMEFANTASIA": "LANCHONETE_ED_DOG", "RAZAOSOCIAL": "ED_DOG_LANCHES_PILAR_LTDA", "ENDEE": "RUA_MANOEL_FOGACA570__CENTRO_18230-000", "LMAPS": "https://www.google.com/maps?q=&layer=c&cbll=-23.8770828,-47.9964379", "O_QUE_FAZER": "CARTEIRA", "ER_REGIAO_CIDADE_min": "São Miguel Arcanjo_São Miguel Arcanjo_Sorocaba" }, "geometry": { "type": "Point", "coordinates": [ -47.9964379, -23.8770828 ] } },
{ "type": "Feature", "properties": { "fid": 94234, "CNPJ": "15828022000111", "IDCIDADE": "SAO_MIGUEL_ARCANJO", "NOMEFANTASIA": "AMIGO_PET", "RAZAOSOCIAL": "MARCELA_PASSOS_DA_SILVA", "ENDEE": "RUA_DOUTOR_FERNANDO_COSTA537__CENTRO_18230-000", "LMAPS": "https://www.google.com/maps?q=&layer=c&cbll=-23.87688,-47.9942344", "O_QUE_FAZER": "CARTEIRA", "ER_REGIAO_CIDADE_min": "São Miguel Arcanjo_São Miguel Arcanjo_Sorocaba" }, "geometry": { "type": "Point", "coordinates": [ -47.9942344, -23.87688 ] } },
{ "type": "Feature", "properties": { "fid": 98157, "CNPJ": "17237734000191", "IDCIDADE": "SAO MIGUEL ARCANJO", "NOMEFANTASIA": null, "RAZAOSOCIAL": "LUZINEIDE_OLIVEIRA_NASCIMENTO_GOES", "ENDEE": "ACESSO JOSE ALVES MACHADO, 97, TAPIXI, 18230-000, SÃO MIGUEL ARCANJO, SP, BRASIL", "LMAPS": "https://www.google.com/maps?q=&layer=c&cbll=-23.880051,-47.9903407", "O_QUE_FAZER": "CARTEIRA - FAMPE", "ER_REGIAO_CIDADE_min": "São Miguel Arcanjo_São Miguel Arcanjo_Sorocaba" }, "geometry": { "type": "Point", "coordinates": [ -47.9903407, -23.880051 ] } },
{ "type": "Feature", "properties": { "fid": 100367, "CNPJ": "17702544000106", "IDCIDADE": "SAO MIGUEL ARCANJO", "NOMEFANTASIA": "-", "RAZAOSOCIAL": "17.702.544_ANTONIO_DONIZETI_BARBOSA", "ENDEE": "RUA SADAMITA IVASSAKI, 1055, CENTRO, 18230-000, SÃO MIGUEL ARCANJO, SP, BRASIL", "LMAPS": "https://www.google.com/maps?q=&layer=c&cbll=-23.8820895,-47.9939904", "O_QUE_FAZER": "CARTEIRA - FAMPE", "ER_REGIAO_CIDADE_min": "São Miguel Arcanjo_São Miguel Arcanjo_Sorocaba" }, "geometry": { "type": "Point", "coordinates": [ -47.9939904, -23.8820895 ] } },
{ "type": "Feature", "properties": { "fid": 106635, "CNPJ": "18988209000170", "IDCIDADE": "SAO_MIGUEL_ARCANJO", "NOMEFANTASIA": "CFC_SAO_MIGUEL", "RAZAOSOCIAL": "AUTO_ESCOLA_SAO_MIGUEL_LTDA", "ENDEE": "RUA_DOUTOR_ARMANDO_SALES_DE_OLIVEIRA418__CENTRO_18230-000", "LMAPS": "https://www.google.com/maps?q=&layer=c&cbll=-23.8801779,-47.9959793", "O_QUE_FAZER": "CARTEIRA - FAMPE", "ER_REGIAO_CIDADE_min": "São Miguel Arcanjo_São Miguel Arcanjo_Sorocaba" }, "geometry": { "type": "Point", "coordinates": [ -47.9959793, -23.8801779 ] } },
{ "type": "Feature", "properties": { "fid": 108641, "CNPJ": "19426445000166", "IDCIDADE": "SAO_MIGUEL_ARCANJO", "NOMEFANTASIA": "CONSULTORIO_ODONTOLOGICO_DR._HAROLDO", "RAZAOSOCIAL": "HAROLDO_NARDI", "ENDEE": "RUA_CORONEL_FERNANDO_PRESTES938__CENTRO_18230-000", "LMAPS": "https://www.google.com/maps?q=&layer=c&cbll=-23.8796873,-47.9966629", "O_QUE_FAZER": "CARTEIRA", "ER_REGIAO_CIDADE_min": "São Miguel Arcanjo_São Miguel Arcanjo_Sorocaba" }, "geometry": { "type": "Point", "coordinates": [ -47.9966629, -23.8796873 ] } },
{ "type": "Feature", "properties": { "fid": 110129, "CNPJ": "19776124000191", "IDCIDADE": "SAO_MIGUEL_ARCANJO", "NOMEFANTASIA": "EQUIPSOM_ACESSORIOS", "RAZAOSOCIAL": "EDUARDO_BENTO_MARIANO", "ENDEE": "RUA_COMENDADOR_JOSE_GIORGI351__CENTRO_18230-000", "LMAPS": "https://www.google.com/maps?q=&layer=c&cbll=-23.8767883,-47.9926817", "O_QUE_FAZER": "CARTEIRA", "ER_REGIAO_CIDADE_min": "São Miguel Arcanjo_São Miguel Arcanjo_Sorocaba" }, "geometry": { "type": "Point", "coordinates": [ -47.9926817, -23.8767883 ] } },
{ "type": "Feature", "properties": { "fid": 111230, "CNPJ": "20026189000107", "IDCIDADE": "SAO_MIGUEL_ARCANJO", "NOMEFANTASIA": "COLEGIO_SAO_MIGUEL_ARCANJO", "RAZAOSOCIAL": "HUGO_FOGACA_BALBONI_SAO_MIGUEL", "ENDEE": "RUA_DOUTOR_FERNANDO_COSTA930__CENTRO_18230-000", "LMAPS": "https://www.google.com/maps?q=&layer=c&cbll=-23.8800831,-47.9958509", "O_QUE_FAZER": "CARTEIRA", "ER_REGIAO_CIDADE_min": "São Miguel Arcanjo_São Miguel Arcanjo_Sorocaba" }, "geometry": { "type": "Point", "coordinates": [ -47.9958509, -23.8800831 ] } },
{ "type": "Feature", "properties": { "fid": 112738, "CNPJ": "20354695000117", "IDCIDADE": "SAO_MIGUEL_ARCANJO", "NOMEFANTASIA": "LOJA_PANDY", "RAZAOSOCIAL": "COMERCIAL_FABRESAN_DE_CONFECCOES_LTDA", "ENDEE": "RUA_MANOEL_FOGACA597__CENTRO_18230-000", "LMAPS": "https://www.google.com/maps?q=&layer=c&cbll=-23.8772546,-47.9959698", "O_QUE_FAZER": "CARTEIRA", "ER_REGIAO_CIDADE_min": "São Miguel Arcanjo_São Miguel Arcanjo_Sorocaba" }, "geometry": { "type": "Point", "coordinates": [ -47.9959698, -23.8772546 ] } },
{ "type": "Feature", "properties": { "fid": 112786, "CNPJ": "20361635000121", "IDCIDADE": "SAO_MIGUEL_ARCANJO", "NOMEFANTASIA": "GANES_&_TOYS", "RAZAOSOCIAL": "GABRIEL_DEOCLECIO_RIBEIRO", "ENDEE": "RUA_DOUTOR_JULIO_PRESTES936__CENTRO_18230-000", "LMAPS": "https://www.google.com/maps?q=&layer=c&cbll=-23.8797544,-47.9981121", "O_QUE_FAZER": "CARTEIRA", "ER_REGIAO_CIDADE_min": "São Miguel Arcanjo_São Miguel Arcanjo_Sorocaba" }, "geometry": { "type": "Point", "coordinates": [ -47.9981121, -23.8797544 ] } },
{ "type": "Feature", "properties": { "fid": 112931, "CNPJ": "20392062000101", "IDCIDADE": "SAO_MIGUEL_ARCANJO", "NOMEFANTASIA": null, "RAZAOSOCIAL": "CERVEJARIA_DE_SAO_MIGUEL_ARCANJO_INDUSTRIA_E_COMERCIO_DE_BEBIDAS_LTDA", "ENDEE": "RUA_JUVENAL DOS SANTOS TERRA_29_RES MONTE VERDE_18230-000_SAO_MIGUEL_ARCANJO", "LMAPS": "https://www.google.com/maps?q=&layer=c&cbll=-23.8747776,-48.0071922", "O_QUE_FAZER": "FINALIZADO", "ER_REGIAO_CIDADE_min": "São Miguel Arcanjo_São Miguel Arcanjo_Sorocaba" }, "geometry": { "type": "Point", "coordinates": [ -48.0071922, -23.8747776 ] } },
{ "type": "Feature", "properties": { "fid": 117542, "CNPJ": "21446389000173", "IDCIDADE": "SAO_MIGUEL_ARCANJO", "NOMEFANTASIA": "LOVE_STORE", "RAZAOSOCIAL": "MARIANA_VASAKI_STRIOGLI_SAVOLDI", "ENDEE": "RUA_ARMANDO_SALES_DE_OLIVEIRA493__CENTRO_18230-000", "LMAPS": "https://www.google.com/maps?q=&layer=c&cbll=-23.8800736,-47.9964057", "O_QUE_FAZER": "CARTEIRA", "ER_REGIAO_CIDADE_min": "São Miguel Arcanjo_São Miguel Arcanjo_Sorocaba" }, "geometry": { "type": "Point", "coordinates": [ -47.9964057, -23.8800736 ] } },
{ "type": "Feature", "properties": { "fid": 118085, "CNPJ": "21571785000122", "IDCIDADE": "SAO_MIGUEL_ARCANJO", "NOMEFANTASIA": "ALFA_ASSESSORIA_CONTABIL", "RAZAOSOCIAL": "PATRICIA_FRANCA_VOLTA", "ENDEE": "RUA_MONSENHOR_HENRIQUE_VOLTA492__CENTRO_18230-000", "LMAPS": "https://www.google.com/maps?q=&layer=c&cbll=-23.8786666,-47.9965173", "O_QUE_FAZER": "CARTEIRA", "ER_REGIAO_CIDADE_min": "São Miguel Arcanjo_São Miguel Arcanjo_Sorocaba" }, "geometry": { "type": "Point", "coordinates": [ -47.9965173, -23.8786666 ] } },
{ "type": "Feature", "properties": { "fid": 118469, "CNPJ": "21660180000108", "IDCIDADE": "SAO_MIGUEL_ARCANJO", "NOMEFANTASIA": "CLINICA_VETERINARIA_MUNDO_ANIMAL", "RAZAOSOCIAL": "NATALIA_GARCIA_MEDEIROS_DE_LIMA_GERINGER", "ENDEE": "RUA_SIQUEIRA_CAMPOS1181__CENTRO_18230-000", "LMAPS": "https://www.google.com/maps?q=&layer=c&cbll=-23.8806731,-47.9990179", "O_QUE_FAZER": "CARTEIRA", "ER_REGIAO_CIDADE_min": "São Miguel Arcanjo_São Miguel Arcanjo_Sorocaba" }, "geometry": { "type": "Point", "coordinates": [ -47.9990179, -23.8806731 ] } },
{ "type": "Feature", "properties": { "fid": 119047, "CNPJ": "21793536000181", "IDCIDADE": "SAO_MIGUEL_ARCANJO", "NOMEFANTASIA": "TOTAL_CONTABILIDADE", "RAZAOSOCIAL": "JR_DA_SILVA_ASSESSORIA_CONTABIL_E_EMPRESARIAL", "ENDEE": "RUA_MIGUEL_TERRA313__CENTRO_18230-000", "LMAPS": "https://www.google.com/maps?q=&layer=c&cbll=-23.8788304,-47.9941572", "O_QUE_FAZER": "CARTEIRA", "ER_REGIAO_CIDADE_min": "São Miguel Arcanjo_São Miguel Arcanjo_Sorocaba" }, "geometry": { "type": "Point", "coordinates": [ -47.9941572, -23.8788304 ] } },
{ "type": "Feature", "properties": { "fid": 120213, "CNPJ": "22035248000120", "IDCIDADE": "SAO_MIGUEL_ARCANJO", "NOMEFANTASIA": "CITY_MODAS", "RAZAOSOCIAL": "A_T_TRINDADE_VESTUARIOS", "ENDEE": "RUA_MONSENHOR_HENRIQUE_VOLTA270__CENTRO_18230-000", "LMAPS": "https://www.google.com/maps?q=&layer=c&cbll=-23.8792093,-47.9943903", "O_QUE_FAZER": "CARTEIRA", "ER_REGIAO_CIDADE_min": "São Miguel Arcanjo_São Miguel Arcanjo_Sorocaba" }, "geometry": { "type": "Point", "coordinates": [ -47.9943903, -23.8792093 ] } },
{ "type": "Feature", "properties": { "fid": 121732, "CNPJ": "22358750000172", "IDCIDADE": "SAO_MIGUEL_ARCANJO", "NOMEFANTASIA": "UTE_CLINICA", "RAZAOSOCIAL": "VALDICLEY_LOPES_MACHADO", "ENDEE": "RUA_DOUTOR_FERNANDO_COSTA1077__CENTRO_18230-000", "LMAPS": "https://www.google.com/maps?q=&layer=c&cbll=-23.8814916,-47.9957593", "O_QUE_FAZER": "CARTEIRA", "ER_REGIAO_CIDADE_min": "São Miguel Arcanjo_São Miguel Arcanjo_Sorocaba" }, "geometry": { "type": "Point", "coordinates": [ -47.9957593, -23.8814916 ] } },
{ "type": "Feature", "properties": { "fid": 122022, "CNPJ": "22417552000132", "IDCIDADE": "SAO_MIGUEL_ARCANJO", "NOMEFANTASIA": "PROTECAO_SEGURANCA_E_SAUDE_OCUPACIONAL", "RAZAOSOCIAL": "PROTECAO_EM_SEGURANCA_DO_TRABALHO_LTDA.", "ENDEE": "RUA_ARMANDO_SALLES_DE_OLIVEIRA493__CENTRO_18230-000", "LMAPS": "https://www.google.com/maps?q=&layer=c&cbll=-23.880001,-47.9966571", "O_QUE_FAZER": "CARTEIRA", "ER_REGIAO_CIDADE_min": "São Miguel Arcanjo_São Miguel Arcanjo_Sorocaba" }, "geometry": { "type": "Point", "coordinates": [ -47.9966571, -23.880001 ] } },
{ "type": "Feature", "properties": { "fid": 124371, "CNPJ": "22911065000121", "IDCIDADE": "SAO_MIGUEL_ARCANJO", "NOMEFANTASIA": "VOAR_BARATO", "RAZAOSOCIAL": "ARMANDO_PANNUNZIO_NETO", "ENDEE": "RUA_ARMANDO_SALES_DE_OLIVEIRA601__CENTRO_18230-000", "LMAPS": "https://www.google.com/maps?q=&layer=c&cbll=-23.8782458,-47.9956457", "O_QUE_FAZER": "CARTEIRA", "ER_REGIAO_CIDADE_min": "São Miguel Arcanjo_São Miguel Arcanjo_Sorocaba" }, "geometry": { "type": "Point", "coordinates": [ -47.9956457, -23.8782458 ] } },
{ "type": "Feature", "properties": { "fid": 125753, "CNPJ": "23210419000173", "IDCIDADE": "SAO_MIGUEL_ARCANJO", "NOMEFANTASIA": "3_VISAO_PERICIAS_E_VISTORIAS_AUTOMOTIVAS", "RAZAOSOCIAL": "MP_CONFIANCA_VISTORIAS_LTDA", "ENDEE": "RUA_DOUTOR_FERNANDO_COSTA920__CENTRO_18230-000", "LMAPS": "https://www.google.com/maps?q=&layer=c&cbll=-23.879939,-47.99557", "O_QUE_FAZER": "CARTEIRA", "ER_REGIAO_CIDADE_min": "São Miguel Arcanjo_São Miguel Arcanjo_Sorocaba" }, "geometry": { "type": "Point", "coordinates": [ -47.99557, -23.879939 ] } },
{ "type": "Feature", "properties": { "fid": 127724, "CNPJ": "23624093000120", "IDCIDADE": "SAO_MIGUEL_ARCANJO", "NOMEFANTASIA": "IDEAL_FITNESS", "RAZAOSOCIAL": "HENRIQUE_PEREIRA_ALMEIDA_SILVA", "ENDEE": "RUA_JOSE_FRANCA255__RESIDENCIAL_MONTE_VERDE_18230-000", "LMAPS": "https://www.google.com/maps?q=&layer=c&cbll=-23.8748168,-48.0052733", "O_QUE_FAZER": "CARTEIRA", "ER_REGIAO_CIDADE_min": "São Miguel Arcanjo_São Miguel Arcanjo_Sorocaba" }, "geometry": { "type": "Point", "coordinates": [ -48.0052733, -23.8748168 ] } },
{ "type": "Feature", "properties": { "fid": 127883, "CNPJ": "23659752000164", "IDCIDADE": "SAO_MIGUEL_ARCANJO", "NOMEFANTASIA": "MM_TRANSPORTES", "RAZAOSOCIAL": "ROQUE_DE_MEDEIROS_TRANSPORTES_E_LOCACOES", "ENDEE": "RUA_JOSE_FRANCA93__RESIDENCIAL_MONTE_VERDE_18230-000", "LMAPS": "https://www.google.com/maps?q=&layer=c&cbll=-23.875515,-48.0038833", "O_QUE_FAZER": "CARTEIRA", "ER_REGIAO_CIDADE_min": "São Miguel Arcanjo_São Miguel Arcanjo_Sorocaba" }, "geometry": { "type": "Point", "coordinates": [ -48.0038833, -23.875515 ] } },
{ "type": "Feature", "properties": { "fid": 128488, "CNPJ": "23781989000113", "IDCIDADE": "SAO_MIGUEL_ARCANJO", "NOMEFANTASIA": "PIT_BULL_ACOS", "RAZAOSOCIAL": "VALDEMIR_PEDROSO_RODRIGUES", "ENDEE": "AVENIDA_NESTOR_FOGACA70__CENTRO_18230-000", "LMAPS": "https://www.google.com/maps?q=&layer=c&cbll=-23.8839215,-47.9928163", "O_QUE_FAZER": "CARTEIRA", "ER_REGIAO_CIDADE_min": "São Miguel Arcanjo_São Miguel Arcanjo_Sorocaba" }, "geometry": { "type": "Point", "coordinates": [ -47.9928163, -23.8839215 ] } },
{ "type": "Feature", "properties": { "fid": 129520, "CNPJ": "24009449000189", "IDCIDADE": "SAO_MIGUEL_ARCANJO", "NOMEFANTASIA": "CONEXFLEX", "RAZAOSOCIAL": "NELSON_DE_JESUS_MANOEL_COMERCIO_E_SERVICO", "ENDEE": "RUA_MIGUEL_TERRA162__CENTRO_18230-000", "LMAPS": "https://www.google.com/maps?q=&layer=c&cbll=-23.8789879,-47.9926011", "O_QUE_FAZER": "CARTEIRA", "ER_REGIAO_CIDADE_min": "São Miguel Arcanjo_São Miguel Arcanjo_Sorocaba" }, "geometry": { "type": "Point", "coordinates": [ -47.9926011, -23.8789879 ] } },
{ "type": "Feature", "properties": { "fid": 133377, "CNPJ": "24778994000130", "IDCIDADE": "SAO MIGUEL ARCANJO", "NOMEFANTASIA": "XURUCO_SERVICOS_&_TRANSPORTES", "RAZAOSOCIAL": "A._RODRIGUES_AMGARTEN_SERVICOS_&_TRANSPORTES_LTDA", "ENDEE": "RUA JUVENAL DOS SANTOS TERRA, 78, MONTE VERDE, 18230-000, SÃO MIGUEL ARCANJO, SP, BRASIL", "LMAPS": "https://www.google.com/maps?q=&layer=c&cbll=-23.8750498,-48.0075669", "O_QUE_FAZER": "CARTEIRA - FAMPE", "ER_REGIAO_CIDADE_min": "São Miguel Arcanjo_São Miguel Arcanjo_Sorocaba" }, "geometry": { "type": "Point", "coordinates": [ -48.0075669, -23.8750498 ] } },
{ "type": "Feature", "properties": { "fid": 133570, "CNPJ": "24817220000170", "IDCIDADE": "SAO MIGUEL ARCANJO", "NOMEFANTASIA": null, "RAZAOSOCIAL": "J_G_DIAS_DA_SILVA_TERRAPLENAGEM", "ENDEE": "SITIO SAO JOSE, SN, SUBURBIO, 18230-000, SÃO MIGUEL ARCANJO, SP, BRASIL", "LMAPS": "https://www.google.com/maps?q=&layer=c&cbll=-23.9226248,-47.9614096", "O_QUE_FAZER": "CARTEIRA - FAMPE", "ER_REGIAO_CIDADE_min": "São Miguel Arcanjo_São Miguel Arcanjo_Sorocaba" }, "geometry": { "type": "Point", "coordinates": [ -47.9614096, -23.9226248 ] } },
{ "type": "Feature", "properties": { "fid": 134643, "CNPJ": "25019021000180", "IDCIDADE": "SAO_MIGUEL_ARCANJO", "NOMEFANTASIA": "RESTAURANTE_ARACAMP", "RAZAOSOCIAL": "MONICA_PEREIRA_LOPES_TAKAHASHI", "ENDEE": "RUA_MANOEL_FOGACA296__CENTRO_18230-000", "LMAPS": "https://www.google.com/maps?q=&layer=c&cbll=-23.8779541,-47.9931991", "O_QUE_FAZER": "CARTEIRA", "ER_REGIAO_CIDADE_min": "São Miguel Arcanjo_São Miguel Arcanjo_Sorocaba" }, "geometry": { "type": "Point", "coordinates": [ -47.9931991, -23.8779541 ] } },
{ "type": "Feature", "properties": { "fid": 137125, "CNPJ": "26052960000199", "IDCIDADE": "SAO MIGUEL ARCANJO", "NOMEFANTASIA": "POUSADA_VILLA_DA_MATA", "RAZAOSOCIAL": "POUSADA_VILLA_DA_MATA_LTDA", "ENDEE": "AVENIDA NESTOR FOGACA, 352, CENTRO, 18230-000, SÃO MIGUEL ARCANJO, SP, BRASIL", "LMAPS": "https://www.google.com/maps?q=&layer=c&cbll=-23.8831337,-47.9954942", "O_QUE_FAZER": "CARTEIRA - FAMPE", "ER_REGIAO_CIDADE_min": "São Miguel Arcanjo_São Miguel Arcanjo_Sorocaba" }, "geometry": { "type": "Point", "coordinates": [ -47.9954942, -23.8831337 ] } },
{ "type": "Feature", "properties": { "fid": 140388, "CNPJ": "26649261000120", "IDCIDADE": "SAO_MIGUEL_ARCANJO", "NOMEFANTASIA": "LOJA_VALE_A_PENAY", "RAZAOSOCIAL": "R._R._MULLER_MAGAZINE", "ENDEE": "RUA_CORONEL_FERNANDO_PRESTES809__CENTRO_18230-000", "LMAPS": "https://www.google.com/maps?q=&layer=c&cbll=-23.8788528,-47.9957372", "O_QUE_FAZER": "CARTEIRA", "ER_REGIAO_CIDADE_min": "São Miguel Arcanjo_São Miguel Arcanjo_Sorocaba" }, "geometry": { "type": "Point", "coordinates": [ -47.9957372, -23.8788528 ] } },
{ "type": "Feature", "properties": { "fid": 142211, "CNPJ": "27022165000110", "IDCIDADE": "SAO_MIGUEL_ARCANJO", "NOMEFANTASIA": "ARCANJO_&_CAPITAL_CONTABILIDADE", "RAZAOSOCIAL": "MAGALI_L._MEDEIROS_CONTABILIDADE", "ENDEE": "RUA_MANOEL_FOGACA338__CENTRO_18230-000", "LMAPS": "https://www.google.com/maps?q=&layer=c&cbll=-23.8777018,-47.9937403", "O_QUE_FAZER": "CARTEIRA - FAMPE", "ER_REGIAO_CIDADE_min": "São Miguel Arcanjo_São Miguel Arcanjo_Sorocaba" }, "geometry": { "type": "Point", "coordinates": [ -47.9937403, -23.8777018 ] } },
{ "type": "Feature", "properties": { "fid": 142472, "CNPJ": "27080461000178", "IDCIDADE": "SAO_MIGUEL_ARCANJO", "NOMEFANTASIA": "SUPERMERCADO_SOL_POENTE", "RAZAOSOCIAL": "SUPERMERCADO_SOL_POENTE_LTDA", "ENDEE": "RUA_JOSE_VIEIRA504__JARDIM_SOL_POENTE_18230-000", "LMAPS": "https://www.google.com/maps?q=&layer=c&cbll=-23.8777029,-48.006525", "O_QUE_FAZER": "CARTEIRA", "ER_REGIAO_CIDADE_min": "São Miguel Arcanjo_São Miguel Arcanjo_Sorocaba" }, "geometry": { "type": "Point", "coordinates": [ -48.006525, -23.8777029 ] } },
{ "type": "Feature", "properties": { "fid": 142818, "CNPJ": "27156716000139", "IDCIDADE": "SAO_MIGUEL_ARCANJO", "NOMEFANTASIA": "ODONTO_EXCELENCE", "RAZAOSOCIAL": "DANILO_FERNANDO_RODRIGUES_DE_ALMEIDA_-_ODONTOLOGIA", "ENDEE": "RUA_MONSENHOR_HENRIQUE_VOLTA300__CENTRO_18230-000", "LMAPS": "https://www.google.com/maps?q=&layer=c&cbll=-23.8791445,-47.9946125", "O_QUE_FAZER": "CARTEIRA", "ER_REGIAO_CIDADE_min": "São Miguel Arcanjo_São Miguel Arcanjo_Sorocaba" }, "geometry": { "type": "Point", "coordinates": [ -47.9946125, -23.8791445 ] } },
{ "type": "Feature", "properties": { "fid": 143063, "CNPJ": "27203210000133", "IDCIDADE": "SAO_MIGUEL_ARCANJO", "NOMEFANTASIA": "AGRO_SAO_MIGUEL", "RAZAOSOCIAL": "ANDRE_LUIZ_SEABRA_DOS_SANTOS", "ENDEE": "RUA_MANOEL_FOGACA385__CENTRO_18230-000", "LMAPS": "https://www.google.com/maps?q=&layer=c&cbll=-23.8778611,-47.9940668", "O_QUE_FAZER": "CARTEIRA", "ER_REGIAO_CIDADE_min": "São Miguel Arcanjo_São Miguel Arcanjo_Sorocaba" }, "geometry": { "type": "Point", "coordinates": [ -47.9940668, -23.8778611 ] } },
{ "type": "Feature", "properties": { "fid": 146405, "CNPJ": "27834552000151", "IDCIDADE": "SAO_MIGUEL_ARCANJO", "NOMEFANTASIA": "EDU_ACO", "RAZAOSOCIAL": "CIBELE_CARACA_MARTINS_DOS_SANTOS", "ENDEE": "RUA_ALEX_HAKIM_ELIAS30__RESERVA_DOS_MANACAS_18230-000", "LMAPS": "https://www.google.com/maps?q=&layer=c&cbll=-23.8761901,-48.0103719", "O_QUE_FAZER": "CARTEIRA - FAMPE", "ER_REGIAO_CIDADE_min": "São Miguel Arcanjo_São Miguel Arcanjo_Sorocaba" }, "geometry": { "type": "Point", "coordinates": [ -48.0103719, -23.8761901 ] } },
{ "type": "Feature", "properties": { "fid": 147193, "CNPJ": "27984787000120", "IDCIDADE": "SAO_MIGUEL_ARCANJO", "NOMEFANTASIA": "B._FILHO_IMOVEIS", "RAZAOSOCIAL": "A_ALVES_BEZERRA_&_CIA_LTDA", "ENDEE": "RUA_DOUTOR_FERNANDO_COSTA699__CENTRO_18230-000", "LMAPS": "https://www.google.com/maps?q=&layer=c&cbll=-23.8782141,-47.9948029", "O_QUE_FAZER": "CARTEIRA", "ER_REGIAO_CIDADE_min": "São Miguel Arcanjo_São Miguel Arcanjo_Sorocaba" }, "geometry": { "type": "Point", "coordinates": [ -47.9948029, -23.8782141 ] } },
{ "type": "Feature", "properties": { "fid": 148808, "CNPJ": "28270118000159", "IDCIDADE": "SAO_MIGUEL_ARCANJO", "NOMEFANTASIA": "OTICA_ENFOQUE", "RAZAOSOCIAL": "CARICATI_&_RODRIGUES_LTDA", "ENDEE": "RUA_MIGUEL_TERRA478__CENTRO_18230-000", "LMAPS": "https://www.google.com/maps?q=&layer=c&cbll=-23.8782502,-47.9956655", "O_QUE_FAZER": "CARTEIRA", "ER_REGIAO_CIDADE_min": "São Miguel Arcanjo_São Miguel Arcanjo_Sorocaba" }, "geometry": { "type": "Point", "coordinates": [ -47.9956655, -23.8782502 ] } },
{ "type": "Feature", "properties": { "fid": 149838, "CNPJ": "28453086000127", "IDCIDADE": "SAO_MIGUEL_ARCANJO", "NOMEFANTASIA": "FTF_CONFECCOES_SAO_MIGUEL_ARCANJO", "RAZAOSOCIAL": "FTF_CONFECCOES_S._MIGUEL_ARCANJO_LTDA", "ENDEE": "RUA_ANTONIO_BITTAR97__JARDIM_MONTE_VERDE_18230-000", "LMAPS": "https://www.google.com/maps?q=&layer=c&cbll=-23.8785869,-48.0041995", "O_QUE_FAZER": "CARTEIRA", "ER_REGIAO_CIDADE_min": "São Miguel Arcanjo_São Miguel Arcanjo_Sorocaba" }, "geometry": { "type": "Point", "coordinates": [ -48.0041995, -23.8785869 ] } },
{ "type": "Feature", "properties": { "fid": 159198, "CNPJ": "30270702000156", "IDCIDADE": "SAO_MIGUEL_ARCANJO", "NOMEFANTASIA": "VAZ_AUTOMECANICA", "RAZAOSOCIAL": "ROGERIO_VAZ", "ENDEE": "RUA_JOAQUIM_ORTIZ_DE_CAMARGO745__CENTRO_18230-000", "LMAPS": "https://www.google.com/maps?q=&layer=c&cbll=-23.8825509,-48.0055336", "O_QUE_FAZER": "CARTEIRA", "ER_REGIAO_CIDADE_min": "São Miguel Arcanjo_São Miguel Arcanjo_Sorocaba" }, "geometry": { "type": "Point", "coordinates": [ -48.0055336, -23.8825509 ] } },
{ "type": "Feature", "properties": { "fid": 163800, "CNPJ": "31149090000100", "IDCIDADE": "SAO_MIGUEL_ARCANJO", "NOMEFANTASIA": "LOJA_DE_MOVEIS_SAO_MIGUEL", "RAZAOSOCIAL": "GANEM_MAZI_MOVEIS_LTDA", "ENDEE": "RUA_MONSENHOR_HENRIQUE_VOLTA380__CENTRO_18230-000", "LMAPS": "https://www.google.com/maps?q=&layer=c&cbll=-23.8787984,-47.9954666", "O_QUE_FAZER": "CARTEIRA", "ER_REGIAO_CIDADE_min": "São Miguel Arcanjo_São Miguel Arcanjo_Sorocaba" }, "geometry": { "type": "Point", "coordinates": [ -47.9954666, -23.8787984 ] } },
{ "type": "Feature", "properties": { "fid": 165021, "CNPJ": "31422194000147", "IDCIDADE": "SAO_MIGUEL_ARCANJO", "NOMEFANTASIA": "GOMES_PARAFUSOS", "RAZAOSOCIAL": "DENILSON_GOMES_DA_SILVA_COMERCIO", "ENDEE": "RUA_MANOEL_FOGACA282__CENTRO_18230-000", "LMAPS": "https://www.google.com/maps?q=&layer=c&cbll=-23.8779083,-47.9930967", "O_QUE_FAZER": "CARTEIRA", "ER_REGIAO_CIDADE_min": "São Miguel Arcanjo_São Miguel Arcanjo_Sorocaba" }, "geometry": { "type": "Point", "coordinates": [ -47.9930967, -23.8779083 ] } },
{ "type": "Feature", "properties": { "fid": 168138, "CNPJ": "32024995000117", "IDCIDADE": "SAO_MIGUEL_ARCANJO", "NOMEFANTASIA": "ALMEIDA_AGRICOLA", "RAZAOSOCIAL": "EDNO_GONCALVES_DE_ALMEIDA", "ENDEE": "ACESSO_JOSE_ALVES_MACHADO298__CENTRO_18230-000", "LMAPS": "https://www.google.com/maps?q=&layer=c&cbll=-23.8816549,-47.9892016", "O_QUE_FAZER": "CARTEIRA", "ER_REGIAO_CIDADE_min": "São Miguel Arcanjo_São Miguel Arcanjo_Sorocaba" }, "geometry": { "type": "Point", "coordinates": [ -47.9892016, -23.8816549 ] } },
{ "type": "Feature", "properties": { "fid": 170302, "CNPJ": "32508728000115", "IDCIDADE": "SAO_MIGUEL_ARCANJO", "NOMEFANTASIA": "HOTEL_SKINA", "RAZAOSOCIAL": "VALTER_DOS_REIS_PEREIRA_HOTEL", "ENDEE": "RUA_DOUTOR_JULIO_PRESTES1040__CENTRO_18230-000", "LMAPS": "https://www.google.com/maps?q=&layer=c&cbll=-23.8806834,-47.9985368", "O_QUE_FAZER": "CARTEIRA", "ER_REGIAO_CIDADE_min": "São Miguel Arcanjo_São Miguel Arcanjo_Sorocaba" }, "geometry": { "type": "Point", "coordinates": [ -47.9985368, -23.8806834 ] } },
{ "type": "Feature", "properties": { "fid": 171015, "CNPJ": "32664073000174", "IDCIDADE": "SAO MIGUEL ARCANJO", "NOMEFANTASIA": null, "RAZAOSOCIAL": "CIDINEIA_DO_NASCIMENTO_RODRIGUES", "ENDEE": "AREA SITIO VITORIA, SN, BREJAUVA, 18238-899, SÃO MIGUEL ARCANJO, SP, BRASIL", "LMAPS": "https://www.google.com/maps?q=&layer=c&cbll=-23.8647244,-47.9762632", "O_QUE_FAZER": "CARTEIRA - FAMPE", "ER_REGIAO_CIDADE_min": "São Miguel Arcanjo_São Miguel Arcanjo_Sorocaba" }, "geometry": { "type": "Point", "coordinates": [ -47.9762632, -23.8647244 ] } },
{ "type": "Feature", "properties": { "fid": 175262, "CNPJ": "33486315000140", "IDCIDADE": "SAO_MIGUEL_ARCANJO", "NOMEFANTASIA": "ELEVA_ENGENHARIA_CIVIL", "RAZAOSOCIAL": "ELEVA_ENGENHARIA_CIVIL_LTDA.", "ENDEE": "ACESSO_JOSE_ALVES_MACHADO295__VILA_TOMAZ_18230-000", "LMAPS": "https://www.google.com/maps?q=&layer=c&cbll=-23.8814731,-47.9888064", "O_QUE_FAZER": "CARTEIRA", "ER_REGIAO_CIDADE_min": "São Miguel Arcanjo_São Miguel Arcanjo_Sorocaba" }, "geometry": { "type": "Point", "coordinates": [ -47.9888064, -23.8814731 ] } },
{ "type": "Feature", "properties": { "fid": 175393, "CNPJ": "33507051000163", "IDCIDADE": "SAO_MIGUEL_ARCANJO", "NOMEFANTASIA": "PADARIA_JAPAO", "RAZAOSOCIAL": "SAO_MIGUEL_MERCEARIA_&_CONVENIENCIA_LTDA", "ENDEE": "RUA_CAMPOS_SALES308__CENTRO_18230-000", "LMAPS": "https://www.google.com/maps?q=&layer=c&cbll=-23.8824737,-47.9947177", "O_QUE_FAZER": "CARTEIRA - FAMPE", "ER_REGIAO_CIDADE_min": "São Miguel Arcanjo_São Miguel Arcanjo_Sorocaba" }, "geometry": { "type": "Point", "coordinates": [ -47.9947177, -23.8824737 ] } },
{ "type": "Feature", "properties": { "fid": 176779, "CNPJ": "33763458000151", "IDCIDADE": "SAO_MIGUEL_ARCANJO", "NOMEFANTASIA": "NANDO_DOG", "RAZAOSOCIAL": "RENATA_FOGACA_SALVINO_LANCHONETE", "ENDEE": "RUA_SIQUEIRA_CAMPOS786__CENTRO_18230-000", "LMAPS": "https://www.google.com/maps?q=&layer=c&cbll=-23.8772201,-47.9979799", "O_QUE_FAZER": "CARTEIRA", "ER_REGIAO_CIDADE_min": "São Miguel Arcanjo_São Miguel Arcanjo_Sorocaba" }, "geometry": { "type": "Point", "coordinates": [ -47.9979799, -23.8772201 ] } },
{ "type": "Feature", "properties": { "fid": 177405, "CNPJ": "33875173000102", "IDCIDADE": "SAO_MIGUEL_ARCANJO", "NOMEFANTASIA": "PANIFICADORA_REI_DOS_PAES", "RAZAOSOCIAL": "CESAR_AUGUSTO_BELTRAMINI", "ENDEE": "RUA_SADAMITA_IWASSAKI909__CENTRO_18230-000", "LMAPS": "https://www.google.com/maps?q=&layer=c&cbll=-23.8808284,-47.9936075", "O_QUE_FAZER": "CARTEIRA", "ER_REGIAO_CIDADE_min": "São Miguel Arcanjo_São Miguel Arcanjo_Sorocaba" }, "geometry": { "type": "Point", "coordinates": [ -47.9936075, -23.8808284 ] } },
{ "type": "Feature", "properties": { "fid": 180943, "CNPJ": "34577594000110", "IDCIDADE": "SAO_MIGUEL_ARCANJO", "NOMEFANTASIA": "AGRIBEM", "RAZAOSOCIAL": "AGRIBEM_PRODUTOS_PARA_AGRICULTURA_LTDA", "ENDEE": "RUA_LINDOLFO_MARQUES_VALADAO31__VILA_CRESO_FRAGA_MOREIRA_18230-000", "LMAPS": "https://www.google.com/maps?q=&layer=c&cbll=-23.8733759,-48.0022897", "O_QUE_FAZER": "CARTEIRA - FAMPE", "ER_REGIAO_CIDADE_min": "São Miguel Arcanjo_São Miguel Arcanjo_Sorocaba" }, "geometry": { "type": "Point", "coordinates": [ -48.0022897, -23.8733759 ] } },
{ "type": "Feature", "properties": { "fid": 181624, "CNPJ": "34713523000369", "IDCIDADE": "SAO_MIGUEL_ARCANJO", "NOMEFANTASIA": "CACAU_SHOW", "RAZAOSOCIAL": "CHOCOLATERIA_E_BOMBONIERE_GREGO_LTDA", "ENDEE": "RUA_CORONEL_FERNANDO_PRESTES855__CENTRO_18230-000", "LMAPS": "https://www.google.com/maps?q=&layer=c&cbll=-23.879195,-47.9960983", "O_QUE_FAZER": "CARTEIRA", "ER_REGIAO_CIDADE_min": "São Miguel Arcanjo_São Miguel Arcanjo_Sorocaba" }, "geometry": { "type": "Point", "coordinates": [ -47.9960983, -23.879195 ] } },
{ "type": "Feature", "properties": { "fid": 183239, "CNPJ": "35026091000119", "IDCIDADE": "SAO MIGUEL ARCANJO", "NOMEFANTASIA": null, "RAZAOSOCIAL": "ELZA_SOARES_LOBO_33197648889", "ENDEE": "10A RUA RUA OLIMPIO RODRIGUES GAVIAO, 75, CASA RUA, GAVIAO, 18230-000, SÃO MIGUEL ARCANJO, SP, BRASIL", "LMAPS": "https://www.google.com/maps?q=&layer=c&cbll=-24.042893,-48.007923", "O_QUE_FAZER": "CARTEIRA - FAMPE", "ER_REGIAO_CIDADE_min": "São Miguel Arcanjo_São Miguel Arcanjo_Sorocaba" }, "geometry": { "type": "Point", "coordinates": [ -48.007923, -24.042893 ] } },
{ "type": "Feature", "properties": { "fid": 183278, "CNPJ": "35031825000158", "IDCIDADE": "SAO_MIGUEL_ARCANJO", "NOMEFANTASIA": "DESPACHANTE_FERPA", "RAZAOSOCIAL": "NILTON_JOSE_DE_CAMARGO", "ENDEE": "RUA_MIGUEL_TERRA410__CENTRO_18230-000", "LMAPS": "https://www.google.com/maps?q=&layer=c&cbll=-23.8784807,-47.9950405", "O_QUE_FAZER": "CARTEIRA", "ER_REGIAO_CIDADE_min": "São Miguel Arcanjo_São Miguel Arcanjo_Sorocaba" }, "geometry": { "type": "Point", "coordinates": [ -47.9950405, -23.8784807 ] } },
{ "type": "Feature", "properties": { "fid": 187537, "CNPJ": "35976089000100", "IDCIDADE": "SAO_MIGUEL_ARCANJO", "NOMEFANTASIA": "MED_FARMA", "RAZAOSOCIAL": "MED_FARMA_DROGARIA_E_PERFUMARIA_SMA_LTDA", "ENDEE": "RUA_MANOEL_FOGACA620__CENTRO_18230-000", "LMAPS": "https://www.google.com/maps?q=&layer=c&cbll=-23.8772225,-47.9960026", "O_QUE_FAZER": "CARTEIRA", "ER_REGIAO_CIDADE_min": "São Miguel Arcanjo_São Miguel Arcanjo_Sorocaba" }, "geometry": { "type": "Point", "coordinates": [ -47.9960026, -23.8772225 ] } },
{ "type": "Feature", "properties": { "fid": 189735, "CNPJ": "36444187000240", "IDCIDADE": "SAO_MIGUEL_ARCANJO", "NOMEFANTASIA": "SPNETFIBRA", "RAZAOSOCIAL": "SPNETFIBRA_PROVEDOR_NETWORKING_LTDA", "ENDEE": "RUA_MIGUEL_TERRA409__CENTRO_18230-000", "LMAPS": "https://www.google.com/maps?q=&layer=c&cbll=-23.8785596,-47.994969", "O_QUE_FAZER": "CARTEIRA", "ER_REGIAO_CIDADE_min": "São Miguel Arcanjo_São Miguel Arcanjo_Sorocaba" }, "geometry": { "type": "Point", "coordinates": [ -47.994969, -23.8785596 ] } },
{ "type": "Feature", "properties": { "fid": 193133, "CNPJ": "37308761000204", "IDCIDADE": "SAO_MIGUEL_ARCANJO", "NOMEFANTASIA": "VAI_DE_NET", "RAZAOSOCIAL": "RM_TELECOM_-_SERVICOS_DE_INTERNET_E_COMUNICACAO_MULTIMIDIA_LTDA", "ENDEE": "RUA_DOUTOR_FERNANDO_COSTA551__CENTRO_18230-000", "LMAPS": "https://www.google.com/maps?q=&layer=c&cbll=-23.877025,-47.9943133", "O_QUE_FAZER": "CARTEIRA", "ER_REGIAO_CIDADE_min": "São Miguel Arcanjo_São Miguel Arcanjo_Sorocaba" }, "geometry": { "type": "Point", "coordinates": [ -47.9943133, -23.877025 ] } },
{ "type": "Feature", "properties": { "fid": 198211, "CNPJ": "38283173000137", "IDCIDADE": "SAO_MIGUEL_ARCANJO", "NOMEFANTASIA": "CAIXARIA_2_IRMAOS", "RAZAOSOCIAL": "EDUARDO_SCHREINER_DOS_SANTOS", "ENDEE": "RUA_JOAQUIM_ORTIZ_DE_CAMARGO795__CENTRO_18230-000", "LMAPS": "https://www.google.com/maps?q=&layer=c&cbll=-23.882588,-48.006183", "O_QUE_FAZER": "CARTEIRA", "ER_REGIAO_CIDADE_min": "São Miguel Arcanjo_São Miguel Arcanjo_Sorocaba" }, "geometry": { "type": "Point", "coordinates": [ -48.006183, -23.882588 ] } },
{ "type": "Feature", "properties": { "fid": 199640, "CNPJ": "38817441000153", "IDCIDADE": "SAO_MIGUEL_ARCANJO", "NOMEFANTASIA": "PHARMACIA_SAO_JOSE", "RAZAOSOCIAL": "PHARMACIA_SAO_JOSE_SMA_LTDA", "ENDEE": "RUA_MANOEL_FOGACA482__CENTRO_18230-000", "LMAPS": "https://www.google.com/maps?q=&layer=c&cbll=-23.8773901,-47.9949554", "O_QUE_FAZER": "CARTEIRA", "ER_REGIAO_CIDADE_min": "São Miguel Arcanjo_São Miguel Arcanjo_Sorocaba" }, "geometry": { "type": "Point", "coordinates": [ -47.9949554, -23.8773901 ] } },
{ "type": "Feature", "properties": { "fid": 199671, "CNPJ": "38822967000121", "IDCIDADE": "SAO_MIGUEL_ARCANJO", "NOMEFANTASIA": "LM_BATERIAS", "RAZAOSOCIAL": "CESAR_LUIZ_BORGES", "ENDEE": "RUA_MANOEL_FOGACA483__CENTRO_18230-000", "LMAPS": "https://www.google.com/maps?q=&layer=c&cbll=-23.8775069,-47.995261", "O_QUE_FAZER": "CARTEIRA - FAMPE", "ER_REGIAO_CIDADE_min": "São Miguel Arcanjo_São Miguel Arcanjo_Sorocaba" }, "geometry": { "type": "Point", "coordinates": [ -47.995261, -23.8775069 ] } },
{ "type": "Feature", "properties": { "fid": 199820, "CNPJ": "38903757000168", "IDCIDADE": "SAO_MIGUEL_ARCANJO", "NOMEFANTASIA": "ODONTOLOGIA_SAO_MIGUEL", "RAZAOSOCIAL": "ODONTOLOGIA_SAO_MIGUEL_ARCANJO_LTDA", "ENDEE": "RUA_MIGUEL_TERRA337__CENTRO_18230-000", "LMAPS": "https://www.google.com/maps?q=&layer=c&cbll=-23.8788416,-47.9943568", "O_QUE_FAZER": "CARTEIRA", "ER_REGIAO_CIDADE_min": "São Miguel Arcanjo_São Miguel Arcanjo_Sorocaba" }, "geometry": { "type": "Point", "coordinates": [ -47.9943568, -23.8788416 ] } },
{ "type": "Feature", "properties": { "fid": 200200, "CNPJ": "39228068000168", "IDCIDADE": "SAO_MIGUEL_ARCANJO", "NOMEFANTASIA": "RAIO_DE_SOL", "RAZAOSOCIAL": "RAIO_DE_SOL_MODA_INFANTIL_SMA_LTDA", "ENDEE": "RUA_DOUTOR_ARMANDO_SALES_DE_OLIVEIRA531__CENTRO_18230-000", "LMAPS": "https://www.google.com/maps?q=&layer=c&cbll=-23.8799836,-47.9970136", "O_QUE_FAZER": "CARTEIRA", "ER_REGIAO_CIDADE_min": "São Miguel Arcanjo_São Miguel Arcanjo_Sorocaba" }, "geometry": { "type": "Point", "coordinates": [ -47.9970136, -23.8799836 ] } },
{ "type": "Feature", "properties": { "fid": 205798, "CNPJ": "40489040000163", "IDCIDADE": "SAO_MIGUEL_ARCANJO", "NOMEFANTASIA": "KM_LUBRIFICANTES", "RAZAOSOCIAL": "PEREIRA_&_MENDES_LUBRIFICANTES_AUTOMOTIVOS_LTDA", "ENDEE": "RUA_CAMPOS_SALES1007__CENTRO_18230-000", "LMAPS": "https://www.google.com/maps?q=&layer=c&cbll=-23.88134,-48.0014067", "O_QUE_FAZER": "CARTEIRA", "ER_REGIAO_CIDADE_min": "São Miguel Arcanjo_São Miguel Arcanjo_Sorocaba" }, "geometry": { "type": "Point", "coordinates": [ -48.0014067, -23.88134 ] } },
{ "type": "Feature", "properties": { "fid": 211250, "CNPJ": "41866730000157", "IDCIDADE": "SAO_MIGUEL_ARCANJO", "NOMEFANTASIA": "MADERSILVA", "RAZAOSOCIAL": "MADER_SILVA_SOB_MEDIDA_LTDA", "ENDEE": "RUA_DOS_EXPEDICIONARIOS433__CENTRO_18230-000", "LMAPS": "https://www.google.com/maps?q=&layer=c&cbll=-23.8780867,-47.991995", "O_QUE_FAZER": "CARTEIRA", "ER_REGIAO_CIDADE_min": "São Miguel Arcanjo_São Miguel Arcanjo_Sorocaba" }, "geometry": { "type": "Point", "coordinates": [ -47.991995, -23.8780867 ] } },
{ "type": "Feature", "properties": { "fid": 211520, "CNPJ": "41932560000161", "IDCIDADE": "SAO MIGUEL ARCANJO", "NOMEFANTASIA": null, "RAZAOSOCIAL": "MARCO_AURELIO_DOS_SANTOS_35438892814", "ENDEE": "ACESSO JOSE ALVES MACHADO, 662, VILA THOMAS, 18230-000, SÃO MIGUEL ARCANJO, SP, BRASIL", "LMAPS": "https://www.google.com/maps?q=&layer=c&cbll=-23.8851432,-47.9858714", "O_QUE_FAZER": "CARTEIRA - FAMPE", "ER_REGIAO_CIDADE_min": "São Miguel Arcanjo_São Miguel Arcanjo_Sorocaba" }, "geometry": { "type": "Point", "coordinates": [ -47.9858714, -23.8851432 ] } },
{ "type": "Feature", "properties": { "fid": 213258, "CNPJ": "42332561000138", "IDCIDADE": "SAO MIGUEL ARCANJO", "NOMEFANTASIA": "-", "RAZAOSOCIAL": "42.332.561_MARIANE_ALVES_DA_SILVA_SOARES", "ENDEE": "RUA ERNESTINA DOS SANTOS, 843, JARDIM FLORENCA, 18236-158, SÃO MIGUEL ARCANJO, SP, BRASIL", "LMAPS": "https://www.google.com/maps?q=&layer=c&cbll=-23.8885941,-47.9913498", "O_QUE_FAZER": "CARTEIRA - FAMPE", "ER_REGIAO_CIDADE_min": "São Miguel Arcanjo_São Miguel Arcanjo_Sorocaba" }, "geometry": { "type": "Point", "coordinates": [ -47.9913498, -23.8885941 ] } },
{ "type": "Feature", "properties": { "fid": 213893, "CNPJ": "42472566000166", "IDCIDADE": "SAO_MIGUEL_ARCANJO", "NOMEFANTASIA": "MAGAZINE_COSTA", "RAZAOSOCIAL": "EVANDRO_SILVA_DE_GAMARROS", "ENDEE": "RUA_MIGUEL_TERRA545__CENTRO_18230-000", "LMAPS": "https://www.google.com/maps?q=&layer=c&cbll=-23.8782618,-47.9962753", "O_QUE_FAZER": "CARTEIRA", "ER_REGIAO_CIDADE_min": "São Miguel Arcanjo_São Miguel Arcanjo_Sorocaba" }, "geometry": { "type": "Point", "coordinates": [ -47.9962753, -23.8782618 ] } },
{ "type": "Feature", "properties": { "fid": 215556, "CNPJ": "42859094000107", "IDCIDADE": "SAO_MIGUEL_ARCANJO", "NOMEFANTASIA": "CASA_DE_RACOES_LOBO", "RAZAOSOCIAL": "DORIELSON_DE_ALMEIDA_CARVALHO", "ENDEE": "RUA_ZENITH_GALVAO_TERRA279__JARDIM_FLORENCA_18230-000", "LMAPS": "https://www.google.com/maps?q=&layer=c&cbll=-23.8868007,-47.9897625", "O_QUE_FAZER": "CARTEIRA", "ER_REGIAO_CIDADE_min": "São Miguel Arcanjo_São Miguel Arcanjo_Sorocaba" }, "geometry": { "type": "Point", "coordinates": [ -47.9897625, -23.8868007 ] } },
{ "type": "Feature", "properties": { "fid": 220342, "CNPJ": "43822359000157", "IDCIDADE": "SAO_MIGUEL_ARCANJO", "NOMEFANTASIA": "ALINE_MOURA_IMOVEIS", "RAZAOSOCIAL": "DE_MOURA_ASSESSORIA_IMOBILIARIA_LTDA", "ENDEE": "RUA_DOUTOR_ARMANDO_SALES_DE_OLIVEIRA502__CENTRO_18230-000", "LMAPS": "https://www.google.com/maps?q=&layer=c&cbll=-23.879961,-47.9967739", "O_QUE_FAZER": "CARTEIRA", "ER_REGIAO_CIDADE_min": "São Miguel Arcanjo_São Miguel Arcanjo_Sorocaba" }, "geometry": { "type": "Point", "coordinates": [ -47.9967739, -23.879961 ] } },
{ "type": "Feature", "properties": { "fid": 222287, "CNPJ": "44216984000118", "IDCIDADE": "SAO_MIGUEL_ARCANJO", "NOMEFANTASIA": "DROGARIA_SAO_MIGUEL", "RAZAOSOCIAL": "DROGARIA_SAO_MIGUEL_ARCANJO_LTDA", "ENDEE": "RUA_BENTO_FRANCA579__CENTRO_18230-000", "LMAPS": "https://www.google.com/maps?q=&layer=c&cbll=-23.8808932,-47.997352", "O_QUE_FAZER": "CARTEIRA", "ER_REGIAO_CIDADE_min": "São Miguel Arcanjo_São Miguel Arcanjo_Sorocaba" }, "geometry": { "type": "Point", "coordinates": [ -47.997352, -23.8808932 ] } },
{ "type": "Feature", "properties": { "fid": 226589, "CNPJ": "45153578000116", "IDCIDADE": "SAO_MIGUEL_ARCANJO", "NOMEFANTASIA": "OTICAS_CAROL", "RAZAOSOCIAL": "FRANCA_CARICATTI_OTICA_LTDA", "ENDEE": "RUA_MIGUEL_TERRA566__CENTRO_18230-000", "LMAPS": "https://www.google.com/maps?q=&layer=c&cbll=-23.8780611,-47.9964906", "O_QUE_FAZER": "CARTEIRA", "ER_REGIAO_CIDADE_min": "São Miguel Arcanjo_São Miguel Arcanjo_Sorocaba" }, "geometry": { "type": "Point", "coordinates": [ -47.9964906, -23.8780611 ] } },
{ "type": "Feature", "properties": { "fid": 226801, "CNPJ": "45200703000100", "IDCIDADE": "SAO_MIGUEL_ARCANJO", "NOMEFANTASIA": "AGROPECUARIA_NORONHA", "RAZAOSOCIAL": "ALYSSON_JOSE_NORONHA", "ENDEE": "RUA_MAXIMINO_APOLINARIO90__NOHAMA_18230-000", "LMAPS": "https://www.google.com/maps?q=&layer=c&cbll=-23.8728804,-48.0087024", "O_QUE_FAZER": "CARTEIRA", "ER_REGIAO_CIDADE_min": "São Miguel Arcanjo_São Miguel Arcanjo_Sorocaba" }, "geometry": { "type": "Point", "coordinates": [ -48.0087024, -23.8728804 ] } },
{ "type": "Feature", "properties": { "fid": 231574, "CNPJ": "46182707000167", "IDCIDADE": "SAO_MIGUEL_ARCANJO", "NOMEFANTASIA": "ARMAZEM_AGRICOLA", "RAZAOSOCIAL": "M.L.MATTOS_LTDA", "ENDEE": "RUA_CORONEL_FERNANDO_PRESTES1385__CENTRO_18230-000", "LMAPS": "https://www.google.com/maps?q=&layer=c&cbll=-23.8836661,-47.9978767", "O_QUE_FAZER": "CARTEIRA", "ER_REGIAO_CIDADE_min": "São Miguel Arcanjo_São Miguel Arcanjo_Sorocaba" }, "geometry": { "type": "Point", "coordinates": [ -47.9978767, -23.8836661 ] } },
{ "type": "Feature", "properties": { "fid": 239532, "CNPJ": "47823242000149", "IDCIDADE": "SAO_MIGUEL_ARCANJO", "NOMEFANTASIA": "PASTELARIA_VITORIA", "RAZAOSOCIAL": "PASTELARIA_VITORIA_SMA_LTDA", "ENDEE": "RUA_MANOEL_FOGACA483__CENTRO_18230-000", "LMAPS": "https://www.google.com/maps?q=&layer=c&cbll=-23.877513,-47.995231", "O_QUE_FAZER": "CARTEIRA", "ER_REGIAO_CIDADE_min": "São Miguel Arcanjo_São Miguel Arcanjo_Sorocaba" }, "geometry": { "type": "Point", "coordinates": [ -47.995231, -23.877513 ] } },
{ "type": "Feature", "properties": { "fid": 244259, "CNPJ": "48767470000101", "IDCIDADE": "SAO_MIGUEL_ARCANJO", "NOMEFANTASIA": "MERCADO_+_BARATO", "RAZAOSOCIAL": "MERCADO_MAIS_BARATO_DE_SAO_MIGUEL_ARCANJO_LTDA", "ENDEE": "RUA_MANOEL_FOGACA348__CENTRO_18230-000", "LMAPS": "https://www.google.com/maps?q=&layer=c&cbll=-23.8778052,-47.9938609", "O_QUE_FAZER": "CARTEIRA", "ER_REGIAO_CIDADE_min": "São Miguel Arcanjo_São Miguel Arcanjo_Sorocaba" }, "geometry": { "type": "Point", "coordinates": [ -47.9938609, -23.8778052 ] } },
{ "type": "Feature", "properties": { "fid": 245328, "CNPJ": "49000417000143", "IDCIDADE": "SAO_MIGUEL_ARCANJO", "NOMEFANTASIA": "DESPACHANTE_/_AUTOESCOLA_MONT-CAR", "RAZAOSOCIAL": "CENTRO_DE_FORMACAO_DE_CONDUTORES_MONT_CAR_LTDA", "ENDEE": "AVENIDA_NESTOR_FOGACA518__CENTRO_18230-000", "LMAPS": "https://www.google.com/maps?q=&layer=c&cbll=-23.8827703,-47.9970318", "O_QUE_FAZER": "CARTEIRA", "ER_REGIAO_CIDADE_min": "São Miguel Arcanjo_São Miguel Arcanjo_Sorocaba" }, "geometry": { "type": "Point", "coordinates": [ -47.9970318, -23.8827703 ] } },
{ "type": "Feature", "properties": { "fid": 246400, "CNPJ": "49267972000136", "IDCIDADE": "SAO_MIGUEL_ARCANJO", "NOMEFANTASIA": "FACHOLLI_ODONTOLOGIA", "RAZAOSOCIAL": "FACHOLLI_ODONTOLOGIA_LTDA", "ENDEE": "RUA_MIGUEL_TERRA153__CENTRO_18230-000", "LMAPS": "https://www.google.com/maps?q=&layer=c&cbll=-23.8791634,-47.9926073", "O_QUE_FAZER": "CARTEIRA", "ER_REGIAO_CIDADE_min": "São Miguel Arcanjo_São Miguel Arcanjo_Sorocaba" }, "geometry": { "type": "Point", "coordinates": [ -47.9926073, -23.8791634 ] } },
{ "type": "Feature", "properties": { "fid": 247204, "CNPJ": "49456188000176", "IDCIDADE": "SAO_MIGUEL_ARCANJO", "NOMEFANTASIA": "POUSADA_GABRIEL", "RAZAOSOCIAL": "POUSADA_GABRIEL_LTDA", "ENDEE": "RUA_DOUTOR_JULIO_PRESTES983__CENTRO_18230-000", "LMAPS": "https://www.google.com/maps?q=&layer=c&cbll=-23.8801633,-47.9981884", "O_QUE_FAZER": "CARTEIRA", "ER_REGIAO_CIDADE_min": "São Miguel Arcanjo_São Miguel Arcanjo_Sorocaba" }, "geometry": { "type": "Point", "coordinates": [ -47.9981884, -23.8801633 ] } },
{ "type": "Feature", "properties": { "fid": 247319, "CNPJ": "49482457000179", "IDCIDADE": "SAO_MIGUEL_ARCANJO", "NOMEFANTASIA": "SAMFARMA", "RAZAOSOCIAL": "SAMFARMA_SAUDE_E_MEDICAMENTOS_LTDA", "ENDEE": "RUA_MIGUEL_TERRA106__CENTRO_18230-000", "LMAPS": "https://www.google.com/maps?q=&layer=c&cbll=-23.8793006,-47.992108", "O_QUE_FAZER": "CARTEIRA", "ER_REGIAO_CIDADE_min": "São Miguel Arcanjo_São Miguel Arcanjo_Sorocaba" }, "geometry": { "type": "Point", "coordinates": [ -47.992108, -23.8793006 ] } },
{ "type": "Feature", "properties": { "fid": 247577, "CNPJ": "49538387000123", "IDCIDADE": "SAO MIGUEL ARCANJO", "NOMEFANTASIA": "-", "RAZAOSOCIAL": "49.538.387_SERGIO_TSUTOMU_IVASAKI", "ENDEE": "RUA ARMANDO SALES DE OLIVERA, 519, CENTRO, 18230-000, SÃO MIGUEL ARCANJO, SP, BRASIL", "LMAPS": "https://www.google.com/maps?q=&layer=c&cbll=-23.8800051,-47.9970456", "O_QUE_FAZER": "CARTEIRA - FAMPE", "ER_REGIAO_CIDADE_min": "São Miguel Arcanjo_São Miguel Arcanjo_Sorocaba" }, "geometry": { "type": "Point", "coordinates": [ -47.9970456, -23.8800051 ] } },
{ "type": "Feature", "properties": { "fid": 248718, "CNPJ": "49764946000202", "IDCIDADE": "SAO_MIGUEL_ARCANJO", "NOMEFANTASIA": "SOL_POENTE", "RAZAOSOCIAL": "SOL_POENTE_ATACADO_E_VAREJO_LTDA", "ENDEE": "RUA_JOAQUIM_ORTIZ_DE_CAMARGO715__CENTRO_18230-000", "LMAPS": "https://www.google.com/maps?q=&layer=c&cbll=-23.8824144,-48.0051439", "O_QUE_FAZER": "CARTEIRA - FAMPE", "ER_REGIAO_CIDADE_min": "São Miguel Arcanjo_São Miguel Arcanjo_Sorocaba" }, "geometry": { "type": "Point", "coordinates": [ -48.0051439, -23.8824144 ] } },
{ "type": "Feature", "properties": { "fid": 249499, "CNPJ": "49909938000118", "IDCIDADE": "SAO_MIGUEL_ARCANJO", "NOMEFANTASIA": "JU_LANCHES", "RAZAOSOCIAL": "JU-LANCHES_LTDA", "ENDEE": "RUA_DOUTOR_FERNANDO_COSTA1485__VILA_APARECIDA_18230-000", "LMAPS": "https://www.google.com/maps?q=&layer=c&cbll=-23.8848941,-47.9970396", "O_QUE_FAZER": "CARTEIRA", "ER_REGIAO_CIDADE_min": "São Miguel Arcanjo_São Miguel Arcanjo_Sorocaba" }, "geometry": { "type": "Point", "coordinates": [ -47.9970396, -23.8848941 ] } },
{ "type": "Feature", "properties": { "fid": 251779, "CNPJ": "50350305000100", "IDCIDADE": "SAO_MIGUEL_ARCANJO", "NOMEFANTASIA": "GRILO_ELETROMECANICA", "RAZAOSOCIAL": "EDSON_PINTO_ALVIM", "ENDEE": "RUA_DOUTOR_JULIO_PRESTES1711__CENTRO_18230-000", "LMAPS": "https://www.google.com/maps?q=&layer=c&cbll=-23.8865142,-47.9993267", "O_QUE_FAZER": "CARTEIRA", "ER_REGIAO_CIDADE_min": "São Miguel Arcanjo_São Miguel Arcanjo_Sorocaba" }, "geometry": { "type": "Point", "coordinates": [ -47.9993267, -23.8865142 ] } },
{ "type": "Feature", "properties": { "fid": 267345, "CNPJ": "53582862000136", "IDCIDADE": "SAO_MIGUEL_ARCANJO", "NOMEFANTASIA": "DROGA_LIMA", "RAZAOSOCIAL": "DROGA_LIMA_LTDA", "ENDEE": "RUA_MIGUEL_TERRA538__CENTRO_18230-000", "LMAPS": "https://www.google.com/maps?q=&layer=c&cbll=-23.8781326,-47.9962085", "O_QUE_FAZER": "CARTEIRA", "ER_REGIAO_CIDADE_min": "São Miguel Arcanjo_São Miguel Arcanjo_Sorocaba" }, "geometry": { "type": "Point", "coordinates": [ -47.9962085, -23.8781326 ] } },
{ "type": "Feature", "properties": { "fid": 270685, "CNPJ": "54328109000181", "IDCIDADE": "SAO MIGUEL ARCANJO", "NOMEFANTASIA": null, "RAZAOSOCIAL": "LABORATORIO_DE_ANALISES_CLINICAS_SAO_MIGUEL_LTDA", "ENDEE": "RUA JULIO PRESTES, 1011, CENTRO, 18230-000, SÃO MIGUEL ARCANJO, SP, BRASIL", "LMAPS": "https://www.google.com/maps?q=&layer=c&cbll=-23.8804306,-47.9982833", "O_QUE_FAZER": "CARTEIRA - FAMPE", "ER_REGIAO_CIDADE_min": "São Miguel Arcanjo_São Miguel Arcanjo_Sorocaba" }, "geometry": { "type": "Point", "coordinates": [ -47.9982833, -23.8804306 ] } },
{ "type": "Feature", "properties": { "fid": 272989, "CNPJ": "54827480000198", "IDCIDADE": "SAO_MIGUEL_ARCANJO", "NOMEFANTASIA": "MERCADO_XAVIER", "RAZAOSOCIAL": "CARLOS_XAVIER_DE_OLIVEIRA", "ENDEE": "RUA_BENEDITO_ANTONIO_DE_SOUZA469__VILA_APARECIDA_18230-000", "LMAPS": "https://www.google.com/maps?q=&layer=c&cbll=-23.8854469,-47.9974918", "O_QUE_FAZER": "CARTEIRA", "ER_REGIAO_CIDADE_min": "São Miguel Arcanjo_São Miguel Arcanjo_Sorocaba" }, "geometry": { "type": "Point", "coordinates": [ -47.9974918, -23.8854469 ] } },
{ "type": "Feature", "properties": { "fid": 276809, "CNPJ": "55720682000107", "IDCIDADE": "SAO MIGUEL ARCANJO", "NOMEFANTASIA": "-", "RAZAOSOCIAL": "55.720.682_HENRIQUE_ALVES_ARANTES", "ENDEE": "10A RUA DOM AGUIRRE, 616, CENTRO, 18230-000, SÃO MIGUEL ARCANJO, SP, BRASIL", "LMAPS": "https://www.google.com/maps?q=&layer=c&cbll=-23.8773753,-47.9918218", "O_QUE_FAZER": "CARTEIRA - FAMPE", "ER_REGIAO_CIDADE_min": "São Miguel Arcanjo_São Miguel Arcanjo_Sorocaba" }, "geometry": { "type": "Point", "coordinates": [ -47.9918218, -23.8773753 ] } },
{ "type": "Feature", "properties": { "fid": 280053, "CNPJ": "56919251000129", "IDCIDADE": "SAO_MIGUEL_ARCANJO", "NOMEFANTASIA": "CAMARGO_AUTOPECAS", "RAZAOSOCIAL": "JAACK_AUTO_PECAS_LTDA", "ENDEE": "RUA_MIGUEL_TERRA170__CENTRO_18230-000", "LMAPS": "https://www.google.com/maps?q=&layer=c&cbll=-23.8790376,-47.9926604", "O_QUE_FAZER": "CARTEIRA", "ER_REGIAO_CIDADE_min": "São Miguel Arcanjo_São Miguel Arcanjo_Sorocaba" }, "geometry": { "type": "Point", "coordinates": [ -47.9926604, -23.8790376 ] } },
{ "type": "Feature", "properties": { "fid": 280095, "CNPJ": "56929163000108", "IDCIDADE": "SAO MIGUEL ARCANJO", "NOMEFANTASIA": "-", "RAZAOSOCIAL": "56.929.163_RONALDO_FOGACA", "ENDEE": "RUA MANOEL FOGACA, 677, CENTRO, 18230-023, SÃO MIGUEL ARCANJO, SP, BRASIL", "LMAPS": "https://www.google.com/maps?q=&layer=c&cbll=-23.8771265,-47.9969068", "O_QUE_FAZER": "CARTEIRA - FAMPE", "ER_REGIAO_CIDADE_min": "São Miguel Arcanjo_São Miguel Arcanjo_Sorocaba" }, "geometry": { "type": "Point", "coordinates": [ -47.9969068, -23.8771265 ] } },
{ "type": "Feature", "properties": { "fid": 288814, "CNPJ": "59548933000160", "IDCIDADE": "SAO_MIGUEL_ARCANJO", "NOMEFANTASIA": "CASA_DA_MARMITA", "RAZAOSOCIAL": "VALERIA_RASKEVICIUS", "ENDEE": "RUA_DOUTOR_FERNANDO_COSTA858__VILA_APARECIDA_18230-000", "LMAPS": "https://www.google.com/maps?q=&layer=c&cbll=-23.8849,-47.99689", "O_QUE_FAZER": "CARTEIRA", "ER_REGIAO_CIDADE_min": "São Miguel Arcanjo_São Miguel Arcanjo_Sorocaba" }, "geometry": { "type": "Point", "coordinates": [ -47.99689, -23.8849 ] } },
{ "type": "Feature", "properties": { "fid": 289865, "CNPJ": "59868331000271", "IDCIDADE": "SAO_MIGUEL_ARCANJO", "NOMEFANTASIA": "LOJA_SANTA_RITA", "RAZAOSOCIAL": "RITA_DO_R_P_TOLEDO", "ENDEE": "RUA_GOVERNADOR_PEDRO_DE_TOLEDO541__CENTRO_18230-000", "LMAPS": "https://www.google.com/maps?q=&layer=c&cbll=-23.8791483,-47.99717", "O_QUE_FAZER": "CARTEIRA", "ER_REGIAO_CIDADE_min": "São Miguel Arcanjo_São Miguel Arcanjo_Sorocaba" }, "geometry": { "type": "Point", "coordinates": [ -47.99717, -23.8791483 ] } },
{ "type": "Feature", "properties": { "fid": 291321, "CNPJ": "60377561000136", "IDCIDADE": "SAO_MIGUEL_ARCANJO", "NOMEFANTASIA": "AKUTSO_PRESENTES", "RAZAOSOCIAL": "AKUTSU_PRESENTES_LTDA", "ENDEE": "RUA_CONEGO_FRANCISCO_RIBEIRO927__CENTRO_18230-000", "LMAPS": "https://www.google.com/maps?q=&layer=c&cbll=-23.880115,-47.9973099", "O_QUE_FAZER": "CARTEIRA", "ER_REGIAO_CIDADE_min": "São Miguel Arcanjo_São Miguel Arcanjo_Sorocaba" }, "geometry": { "type": "Point", "coordinates": [ -47.9973099, -23.880115 ] } },
{ "type": "Feature", "properties": { "fid": 291322, "CNPJ": "60377942000115", "IDCIDADE": "SAO_MIGUEL_ARCANJO", "NOMEFANTASIA": "J._RAMOS_CONSTRUCAO_&_FERRAGENS", "RAZAOSOCIAL": "J_RAMOS_CONSTRUCAO_E_FERRAGENS_LTDA", "ENDEE": "RUA_JOAQUIM_ORTIZ_DE_CAMARGO16__CENTRO_18230-000", "LMAPS": "https://www.google.com/maps?q=&layer=c&cbll=-23.8803445,-47.9992388", "O_QUE_FAZER": "CARTEIRA", "ER_REGIAO_CIDADE_min": "São Miguel Arcanjo_São Miguel Arcanjo_Sorocaba" }, "geometry": { "type": "Point", "coordinates": [ -47.9992388, -23.8803445 ] } },
{ "type": "Feature", "properties": { "fid": 294225, "CNPJ": "61389539000179", "IDCIDADE": "SAO MIGUEL ARCANJO", "NOMEFANTASIA": "ARCANJOS_&_CAPITAL_CONTABILIDADE", "RAZAOSOCIAL": "KELLY_NUNES_CONTABILIDADE_LTDA", "ENDEE": "RUA MIGUEL TERRA, 127, CENTRO, 18230-019, SÃO MIGUEL ARCANJO, SP, BRASIL", "LMAPS": "https://www.google.com/maps?q=&layer=c&cbll=-23.8793418,-47.9923541", "O_QUE_FAZER": "CARTEIRA - FAMPE", "ER_REGIAO_CIDADE_min": "São Miguel Arcanjo_São Miguel Arcanjo_Sorocaba" }, "geometry": { "type": "Point", "coordinates": [ -47.9923541, -23.8793418 ] } },
{ "type": "Feature", "properties": { "fid": 299768, "CNPJ": "64085988000111", "IDCIDADE": "SAO_MIGUEL_ARCANJO", "NOMEFANTASIA": "VALDIR_MATERIAL_DE_CONSTRUCAO", "RAZAOSOCIAL": "VALDIR_DA_CRUZ_ROMUALDO", "ENDEE": "RUA_ZENITH_GALVAO_TERRA300__JARDIM_FLORENCA_18230-000", "LMAPS": "https://www.google.com/maps?q=&layer=c&cbll=-23.8869008,-47.9896438", "O_QUE_FAZER": "CARTEIRA", "ER_REGIAO_CIDADE_min": "São Miguel Arcanjo_São Miguel Arcanjo_Sorocaba" }, "geometry": { "type": "Point", "coordinates": [ -47.9896438, -23.8869008 ] } },
{ "type": "Feature", "properties": { "fid": 300858, "CNPJ": "64755580000100", "IDCIDADE": "SAO_MIGUEL_ARCANJO", "NOMEFANTASIA": "LEGARIOS_BANANAS_E_SORVETES", "RAZAOSOCIAL": "PEDRO_DE_MEDEIROS", "ENDEE": "RUA_BENEDITO_ANTONIO_DE_SOUZA429__VILA_APARECIDA_18230-000", "LMAPS": "https://www.google.com/maps?q=&layer=c&cbll=-23.885519,-47.9972717", "O_QUE_FAZER": "CARTEIRA", "ER_REGIAO_CIDADE_min": "São Miguel Arcanjo_São Miguel Arcanjo_Sorocaba" }, "geometry": { "type": "Point", "coordinates": [ -47.9972717, -23.885519 ] } },
{ "type": "Feature", "properties": { "fid": 301569, "CNPJ": "65060044000152", "IDCIDADE": "SAO MIGUEL ARCANJO", "NOMEFANTASIA": null, "RAZAOSOCIAL": "65.060.044_RICARDO_ALVES", "ENDEE": "RUA DURVAL RODRIGUES, 230, CASA, PORTAL CALIFORNIA, 18232-200, SÃO MIGUEL ARCANJO, SP, BRASIL", "LMAPS": "https://www.google.com/maps?q=&layer=c&cbll=-23.8773813,-48.0099584", "O_QUE_FAZER": "CARTEIRA - FAMPE", "ER_REGIAO_CIDADE_min": "São Miguel Arcanjo_São Miguel Arcanjo_Sorocaba" }, "geometry": { "type": "Point", "coordinates": [ -48.0099584, -23.8773813 ] } },
{ "type": "Feature", "properties": { "fid": 302337, "CNPJ": "65564110000121", "IDCIDADE": "SAO MIGUEL ARCANJO", "NOMEFANTASIA": null, "RAZAOSOCIAL": "65.564.110_EDUARDO_FERREIRA_CARDOSO", "ENDEE": "RUA COMENDADOR JOSE GIORGI, 753, CENTRO, 18230-029, SÃO MIGUEL ARCANJO, SP, BRASIL", "LMAPS": "https://www.google.com/maps?q=&layer=c&cbll=-23.8756932,-47.9964813", "O_QUE_FAZER": "CARTEIRA - FAMPE", "ER_REGIAO_CIDADE_min": "São Miguel Arcanjo_São Miguel Arcanjo_Sorocaba" }, "geometry": { "type": "Point", "coordinates": [ -47.9964813, -23.8756932 ] } },
{ "type": "Feature", "properties": { "fid": 305060, "CNPJ": "66896357000108", "IDCIDADE": "SAO MIGUEL ARCANJO", "NOMEFANTASIA": null, "RAZAOSOCIAL": "66.896.357_RAFAEL_APARECIDO_DOS_SANTOS_RODRIGUES", "ENDEE": "MARGINAL FADEL JABOUR, 61, CASA FUNDOS, VILA BELA, 18230-086, SÃO MIGUEL ARCANJO, SP, BRASIL", "LMAPS": "https://www.google.com/maps?q=&layer=c&cbll=-23.878205,-48.000494", "O_QUE_FAZER": "CARTEIRA - FAMPE", "ER_REGIAO_CIDADE_min": "São Miguel Arcanjo_São Miguel Arcanjo_Sorocaba" }, "geometry": { "type": "Point", "coordinates": [ -48.000494, -23.878205 ] } },
{ "type": "Feature", "properties": { "fid": 306441, "CNPJ": "67587170000195", "IDCIDADE": "SAO_MIGUEL_ARCANJO", "NOMEFANTASIA": "STAR_MODAS", "RAZAOSOCIAL": "FERRI-S_M_ARCANJO_VESTUARIO_LTDA", "ENDEE": "RUA_MIGUEL_TERRA500__CENTRO_18230-000", "LMAPS": "https://www.google.com/maps?q=&layer=c&cbll=-23.8782655,-47.995866", "O_QUE_FAZER": "CARTEIRA", "ER_REGIAO_CIDADE_min": "São Miguel Arcanjo_São Miguel Arcanjo_Sorocaba" }, "geometry": { "type": "Point", "coordinates": [ -47.995866, -23.8782655 ] } },
{ "type": "Feature", "properties": { "fid": 309232, "CNPJ": "71558233000152", "IDCIDADE": "SAO_MIGUEL_ARCANJO", "NOMEFANTASIA": "SUDOESTE_SEGUROS", "RAZAOSOCIAL": "SUDOESTE_CORRETORA_DE_SEGUROS_LTDA", "ENDEE": "RUA_ARMANDO_SALLES_DE_OLIVEIRA500__CENTRO_18230-000", "LMAPS": "https://www.google.com/maps?q=&layer=c&cbll=-23.8799552,-47.9966692", "O_QUE_FAZER": "CARTEIRA", "ER_REGIAO_CIDADE_min": "São Miguel Arcanjo_São Miguel Arcanjo_Sorocaba" }, "geometry": { "type": "Point", "coordinates": [ -47.9966692, -23.8799552 ] } },
{ "type": "Feature", "properties": { "fid": 311521, "CNPJ": "74584053000133", "IDCIDADE": "SAO_MIGUEL_ARCANJO", "NOMEFANTASIA": "ACOUGUE_SAO_MATHEUS", "RAZAOSOCIAL": "AMADEU_DE_OLIVEIRA_ACOUGUE", "ENDEE": "RUA_CORONEL_FERNANDO_PRESTES944__CENTRO_18230-000", "LMAPS": "https://www.google.com/maps?q=&layer=c&cbll=-23.8799316,-47.9964367", "O_QUE_FAZER": "CARTEIRA", "ER_REGIAO_CIDADE_min": "São Miguel Arcanjo_São Miguel Arcanjo_Sorocaba" }, "geometry": { "type": "Point", "coordinates": [ -47.9964367, -23.8799316 ] } },
{ "type": "Feature", "properties": { "fid": 311834, "CNPJ": "96220199000132", "IDCIDADE": "SAO_MIGUEL_ARCANJO", "NOMEFANTASIA": "DB_PNEUS", "RAZAOSOCIAL": "SUPERPNEUS_COMERCIAL_LTDA", "ENDEE": "RUA_ANTONIO_P.NALESSO33__CENTRO_18230-000", "LMAPS": "https://www.google.com/maps?q=&layer=c&cbll=-23.8800523,-47.9910719", "O_QUE_FAZER": "CARTEIRA", "ER_REGIAO_CIDADE_min": "São Miguel Arcanjo_São Miguel Arcanjo_Sorocaba" }, "geometry": { "type": "Point", "coordinates": [ -47.9910719, -23.8800523 ] } }
]
}
