{
"type": "FeatureCollection",
"name": "ER_REGIAO_CIDADE_min_Iaras_Bauru",
"crs": { "type": "name", "properties": { "name": "urn:ogc:def:crs:OGC:1.3:CRS84" } },
"xy_coordinate_resolution": 1e-15,
"features": [
{ "type": "Feature", "properties": { "CNPJ": "47460111000144", "IDCIDADE": "IARAS", "NOMEFANTASIA": "TMJ CONFECCOES", "RAZAOSOCIAL": "INDUSTRIA CUNHA & SILVA LTDA", "ENDEE": "RUA MARECHAL DEODORO, 254, SAO BENEDITO, 18775-058, IARAS, SP, BRASIL", "LATITUDE": "-22.8732951", "LONGITUDE": "-49.1614842", "LMAPS": "https://www.google.com/maps?q=&layer=c&cbll=-22.8732951,-49.1614842", "O_QUE_FAZER": "CARTEIRA - FAMPE", "field_10": null, "field_11": null, "field_12": null, "field_13": null, "ER_REGIAO_CIDADE_min": "Iaras_Bauru" }, "geometry": { "type": "Point", "coordinates": [ -49.1614842, -22.8732951 ] } },
{ "type": "Feature", "properties": { "CNPJ": "57281519000102", "IDCIDADE": "IARAS", "NOMEFANTASIA": null, "RAZAOSOCIAL": "MPF VARIEDADES E COMERCIO DANTAS RIBEIRO LTDA", "ENDEE": "RUA ESTER NUNES SAGIO, 11, SANTA LUZIA, 18775-094, IARAS, SP, BRASIL", "LATITUDE": "-22.8765093", "LONGITUDE": "-49.1539179", "LMAPS": "https://www.google.com/maps?q=&layer=c&cbll=-22.8765093,-49.1539179", "O_QUE_FAZER": "CARTEIRA - FAMPE", "field_10": null, "field_11": null, "field_12": null, "field_13": null, "ER_REGIAO_CIDADE_min": "Iaras_Bauru" }, "geometry": { "type": "Point", "coordinates": [ -49.1539179, -22.8765093 ] } },
{ "type": "Feature", "properties": { "CNPJ": "53209324000109", "IDCIDADE": "IARAS", "NOMEFANTASIA": "WILL STORE", "RAZAOSOCIAL": "WILLIAN JOSE DIAS", "ENDEE": "RUA GONCALVES DIAS, 92, SAO BENEDITO, 18775-064, IARAS, SP, BRASIL", "LATITUDE": "-22.8771059", "LONGITUDE": "-49.1573249", "LMAPS": "https://www.google.com/maps?q=&layer=c&cbll=-22.8771059,-49.1573249", "O_QUE_FAZER": "CARTEIRA - FAMPE", "field_10": null, "field_11": null, "field_12": null, "field_13": null, "ER_REGIAO_CIDADE_min": "Iaras_Bauru" }, "geometry": { "type": "Point", "coordinates": [ -49.1573249, -22.8771059 ] } },
{ "type": "Feature", "properties": { "CNPJ": "27570048000191", "IDCIDADE": "IARAS", "NOMEFANTASIA": "CONSTRUAGRO", "RAZAOSOCIAL": "MARCIA SELMA AMARAL PEREIRA MONTEIRO", "ENDEE": "ESTRADA VELHA DE AVARE, SN, KM 1, CHACARA DAS FLORES, 18779-899, IARAS, SP, BRASIL", "LATITUDE": "-22.8807981", "LONGITUDE": "-49.1509013", "LMAPS": "https://www.google.com/maps?q=&layer=c&cbll=-22.8807981,-49.1509013", "O_QUE_FAZER": "CARTEIRA - FAMPE", "field_10": null, "field_11": null, "field_12": null, "field_13": null, "ER_REGIAO_CIDADE_min": "Iaras_Bauru" }, "geometry": { "type": "Point", "coordinates": [ -49.1509013, -22.8807981 ] } }
]
}
