{
"type": "FeatureCollection",
"name": "ER_REGIAO_CIDADE_min_Braúna_Araçatuba",
"crs": { "type": "name", "properties": { "name": "urn:ogc:def:crs:OGC:1.3:CRS84" } },
"xy_coordinate_resolution": 1e-15,
"features": [
{ "type": "Feature", "properties": { "CNPJ": "55733059000180", "IDCIDADE": "BRAÚNA", "NOMEFANTASIA": "FARMACIA CENTRAL", "RAZAOSOCIAL": "IVONETE ZACARONE CARLOS TERCEIRO", "ENDEE": "AVENIDA BARAO DO RIO BRANCO, 330, CENTRO, 16290-000, BRAÚNA, SP, BRASIL", "LATITUDE": "-21.4996523", "LONGITUDE": "-50.3158882", "LMAPS": "https://www.google.com/maps?q=&layer=c&cbll=-21.4996523,-50.3158882", "O_QUE_FAZER": "CARTEIRA - FAMPE", "field_10": null, "field_11": null, "field_12": null, "field_13": null, "ER_REGIAO_CIDADE_min": "Braúna_Araçatuba" }, "geometry": { "type": "Point", "coordinates": [ -50.3158882, -21.4996523 ] } },
{ "type": "Feature", "properties": { "CNPJ": "56195769000167", "IDCIDADE": "BRAÚNA", "NOMEFANTASIA": "FARINHEIRA ADSUMUS", "RAZAOSOCIAL": "FARINHEIRA ADSUMUS LTDA", "ENDEE": "ESTANCIA MORADA NOBRE, S/N, GUAPORANGA, 16290-000, BRAÚNA, SP, BRASIL", "LATITUDE": "-21.5013243", "LONGITUDE": "-50.3167422", "LMAPS": "https://www.google.com/maps?q=&layer=c&cbll=-21.5013243,-50.3167422", "O_QUE_FAZER": "CARTEIRA - FAMPE", "field_10": null, "field_11": null, "field_12": null, "field_13": null, "ER_REGIAO_CIDADE_min": "Braúna_Araçatuba" }, "geometry": { "type": "Point", "coordinates": [ -50.3167422, -21.5013243 ] } },
{ "type": "Feature", "properties": { "CNPJ": "55549314000130", "IDCIDADE": "BRAÚNA", "NOMEFANTASIA": null, "RAZAOSOCIAL": "TAYNARA DA SILVA FIRME RIBEIRO LTDA", "ENDEE": "RUA ANTONIO MARQUES DE SOUZA, 55, CONJUNTO HABITACIONAL BRAUNA II, 16292-054, BRAÚNA, SP, BRASIL", "LATITUDE": "-21.5037299", "LONGITUDE": "-50.3240218", "LMAPS": "https://www.google.com/maps?q=&layer=c&cbll=-21.5037299,-50.3240218", "O_QUE_FAZER": "CARTEIRA - FAMPE", "field_10": null, "field_11": null, "field_12": null, "field_13": null, "ER_REGIAO_CIDADE_min": "Braúna_Araçatuba" }, "geometry": { "type": "Point", "coordinates": [ -50.3240218, -21.5037299 ] } },
{ "type": "Feature", "properties": { "CNPJ": "39822543000120", "IDCIDADE": "BRAÚNA", "NOMEFANTASIA": null, "RAZAOSOCIAL": "DROGARIA VALENTA LTDA", "ENDEE": "AVENIDA BARAO DO RIO BRANCO, 985, CENTRO, 16290-005, BRAÚNA, SP, BRASIL", "LATITUDE": "-21.5042709", "LONGITUDE": "-50.3189276", "LMAPS": "https://www.google.com/maps?q=&layer=c&cbll=-21.5042709,-50.3189276", "O_QUE_FAZER": "CARTEIRA - FAMPE", "field_10": null, "field_11": null, "field_12": null, "field_13": null, "ER_REGIAO_CIDADE_min": "Braúna_Araçatuba" }, "geometry": { "type": "Point", "coordinates": [ -50.3189276, -21.5042709 ] } }
]
}
