{
"type": "FeatureCollection",
"name": "ER_REGIAO_CIDADE_min_Mairiporã_Mairiporã_Guarulhos",
"crs": { "type": "name", "properties": { "name": "urn:ogc:def:crs:OGC:1.3:CRS84" } },
"xy_coordinate_resolution": 1e-15,
"features": [
{ "type": "Feature", "properties": { "fid": 5868, "CNPJ": "27478548000106", "IDCIDADE": "MAIRIPORÃ", "NOMEFANTASIA": "FABIOLA FONTOURA SILVA SALOMAO", "RAZAOSOCIAL": "FABIOLA FONTOURA S. SALOMAO", "ENDEE": "RUA MOTOMO MAEDA, 32, CENTRO, 07600-039, MAIRIPORÃ, SP, BRASIL", "LMAPS": "https://www.google.com/maps?q=&layer=c&cbll=-23.3189386,-46.5834221", "O_QUE_FAZER": "APLICAR T2", "ER_REGIAO_CIDADE_min": "Mairiporã_Mairiporã_Guarulhos" }, "geometry": { "type": "Point", "coordinates": [ -46.5834221, -23.3189386 ] } },
{ "type": "Feature", "properties": { "fid": 210623, "CNPJ": "18490329000143", "IDCIDADE": "MAIRIPORÃ", "NOMEFANTASIA": "ISO GESTO EDUCACIONAL", "RAZAOSOCIAL": "I.S.O. INSTITUTO SUPERIOR OURIMED LTDA", "ENDEE": "ALAMEDA DAS HORTENCIAS, S/N, CASA 412, PIRUCAIA, 07636-385, MAIRIPORÃ, SP, BRASIL", "LMAPS": "https://www.google.com/maps?q=&layer=c&cbll=-23.3079627,-46.5320328", "O_QUE_FAZER": "CARTEIRA - FAMPE", "ER_REGIAO_CIDADE_min": "Mairiporã_Mairiporã_Guarulhos" }, "geometry": { "type": "Point", "coordinates": [ -46.5320328, -23.3079627 ] } },
{ "type": "Feature", "properties": { "fid": 210624, "CNPJ": "08689544000114", "IDCIDADE": "MAIRIPORÃ", "NOMEFANTASIA": "ESPACO CANTAREIRA", "RAZAOSOCIAL": "ESPACO CANTAREIRA BUFFET LTDA", "ENDEE": "ALAMEDA DAS ACACIAS, 350, SAO VICENTE, 07607-595, MAIRIPORÃ, SP, BRASIL", "LMAPS": "https://www.google.com/maps?q=&layer=c&cbll=-23.3082798,-46.5397616", "O_QUE_FAZER": "CARTEIRA - FAMPE", "ER_REGIAO_CIDADE_min": "Mairiporã_Mairiporã_Guarulhos" }, "geometry": { "type": "Point", "coordinates": [ -46.5397616, -23.3082798 ] } },
{ "type": "Feature", "properties": { "fid": 210637, "CNPJ": "02393004000102", "IDCIDADE": "MAIRIPORÃ", "NOMEFANTASIA": null, "RAZAOSOCIAL": "SEDIME SERVICOS DE DIAGNOSTICOS MEDICOS LTDA", "ENDEE": "RUA SALOMAO CHAMMA, 16, CIDADE JARDIM, 07600-340, MAIRIPORÃ, SP, BRASIL", "LMAPS": "https://www.google.com/maps?q=&layer=c&cbll=-23.314157,-46.5869716", "O_QUE_FAZER": "CARTEIRA - FAMPE", "ER_REGIAO_CIDADE_min": "Mairiporã_Mairiporã_Guarulhos" }, "geometry": { "type": "Point", "coordinates": [ -46.5869716, -23.314157 ] } },
{ "type": "Feature", "properties": { "fid": 210654, "CNPJ": "28439546000162", "IDCIDADE": "MAIRIPORÃ", "NOMEFANTASIA": "R.G.V.", "RAZAOSOCIAL": "R.G.V.ESCOLA DE IDIOMAS LTDA", "ENDEE": "AVENIDA TABELIAO PASSSARELA, 755, CENTRO, 07600-000, MAIRIPORÃ, SP, BRASIL", "LMAPS": "https://www.google.com/maps?q=&layer=c&cbll=-23.3190953,-46.5890689", "O_QUE_FAZER": "CARTEIRA - FAMPE", "ER_REGIAO_CIDADE_min": "Mairiporã_Mairiporã_Guarulhos" }, "geometry": { "type": "Point", "coordinates": [ -46.5890689, -23.3190953 ] } },
{ "type": "Feature", "properties": { "fid": 210664, "CNPJ": "43827285000141", "IDCIDADE": "MAIRIPORÃ", "NOMEFANTASIA": "BWORK 52", "RAZAOSOCIAL": "BWORK ASSESSORIA EMPRESARIAL LTDA", "ENDEE": "RUA BRASIL, 52, SALA 01 ANDAR 01, CENTRO, 07600-165, MAIRIPORÃ, SP, BRASIL", "LMAPS": "https://www.google.com/maps?q=&layer=c&cbll=-23.3207432,-46.5874253", "O_QUE_FAZER": "CARTEIRA - FAMPE", "ER_REGIAO_CIDADE_min": "Mairiporã_Mairiporã_Guarulhos" }, "geometry": { "type": "Point", "coordinates": [ -46.5874253, -23.3207432 ] } },
{ "type": "Feature", "properties": { "fid": 210665, "CNPJ": "09353279000161", "IDCIDADE": "MAIRIPORÃ", "NOMEFANTASIA": "DONA FARINHA", "RAZAOSOCIAL": "HELLEN CARPES CORREA", "ENDEE": "RUA CARDOSO CESAR, 52, A, CENTRO, 07600-000, MAIRIPORÃ, SP, BRASIL", "LMAPS": "https://www.google.com/maps?q=&layer=c&cbll=-23.3207818,-46.5873542", "O_QUE_FAZER": "CARTEIRA - FAMPE", "ER_REGIAO_CIDADE_min": "Mairiporã_Mairiporã_Guarulhos" }, "geometry": { "type": "Point", "coordinates": [ -46.5873542, -23.3207818 ] } },
{ "type": "Feature", "properties": { "fid": 210667, "CNPJ": "09548674000108", "IDCIDADE": "MAIRIPORÃ", "NOMEFANTASIA": "CAMPOS & ASSOCIADOS CONTABILIDADE", "RAZAOSOCIAL": "CAMPOS E ASSOCIADOS CONTABILIDADE LTDA", "ENDEE": "RUA OLAVO BILAC, 231, CENTRO, 07600-072, MAIRIPORÃ, SP, BRASIL", "LMAPS": "https://www.google.com/maps?q=&layer=c&cbll=-23.3210353,-46.5832424", "O_QUE_FAZER": "CARTEIRA - FAMPE", "ER_REGIAO_CIDADE_min": "Mairiporã_Mairiporã_Guarulhos" }, "geometry": { "type": "Point", "coordinates": [ -46.5832424, -23.3210353 ] } },
{ "type": "Feature", "properties": { "fid": 210668, "CNPJ": "13471753000127", "IDCIDADE": "MAIRIPORÃ", "NOMEFANTASIA": null, "RAZAOSOCIAL": "13.471.753 JULIANA GOMES", "ENDEE": "RUA ROSA DE ALMEIDA BUENO, 120, CENTRO, 07600-096, MAIRIPORÃ, SP, BRASIL", "LMAPS": "https://www.google.com/maps?q=&layer=c&cbll=-23.3213365,-46.586294", "O_QUE_FAZER": "CARTEIRA - FAMPE", "ER_REGIAO_CIDADE_min": "Mairiporã_Mairiporã_Guarulhos" }, "geometry": { "type": "Point", "coordinates": [ -46.586294, -23.3213365 ] } },
{ "type": "Feature", "properties": { "fid": 210674, "CNPJ": "37823211000134", "IDCIDADE": "MAIRIPORÃ", "NOMEFANTASIA": null, "RAZAOSOCIAL": "J.P. AQUINO SERVICOS DE ELETRICA E PINTURA LTDA", "ENDEE": "RUA FELICIO FELIX DO PRADO, 74, CASA 2, CENTRO, 07600-144, MAIRIPORÃ, SP, BRASIL", "LMAPS": "https://www.google.com/maps?q=&layer=c&cbll=-23.3240398,-46.5865112", "O_QUE_FAZER": "CARTEIRA - FAMPE", "ER_REGIAO_CIDADE_min": "Mairiporã_Mairiporã_Guarulhos" }, "geometry": { "type": "Point", "coordinates": [ -46.5865112, -23.3240398 ] } },
{ "type": "Feature", "properties": { "fid": 210682, "CNPJ": "21099042000100", "IDCIDADE": "MAIRIPORÃ", "NOMEFANTASIA": "ENGEKOM ENGENHARIA", "RAZAOSOCIAL": "ENGEKOM ENGENHARIA LTDA", "ENDEE": "RUA BRAULIO BARBOSA DE MARI, 00000, FUNDOSNUMERO 25, CAPOAVINHA, 07629-120, MAIRIPORÃ, SP, BRASIL", "LMAPS": "https://www.google.com/maps?q=&layer=c&cbll=-23.3291216,-46.5769375", "O_QUE_FAZER": "CARTEIRA - FAMPE", "ER_REGIAO_CIDADE_min": "Mairiporã_Mairiporã_Guarulhos" }, "geometry": { "type": "Point", "coordinates": [ -46.5769375, -23.3291216 ] } },
{ "type": "Feature", "properties": { "fid": 210772, "CNPJ": "31306476000189", "IDCIDADE": "MAIRIPORÃ", "NOMEFANTASIA": null, "RAZAOSOCIAL": "RENALDO M. VALENCA - COMERCIO DE GAS", "ENDEE": "ESTRADA SANTA INES, 400, BRO SANTA INES, 07600-000, MAIRIPORÃ, SP, BRASIL", "LMAPS": "https://www.google.com/maps?q=&layer=c&cbll=-23.3743804,-46.6623875", "O_QUE_FAZER": "CARTEIRA - FAMPE", "ER_REGIAO_CIDADE_min": "Mairiporã_Mairiporã_Guarulhos" }, "geometry": { "type": "Point", "coordinates": [ -46.6623875, -23.3743804 ] } },
{ "type": "Feature", "properties": { "fid": 268781, "CNPJ": "45592136000176", "IDCIDADE": "MAIRIPORA", "NOMEFANTASIA": "HAWAII_5.0_MOTEL_LTDA", "RAZAOSOCIAL": "PACIFIC._POSTO_DE_COM._E_SERV._LTDA", "ENDEE": "RODOVIA_FERNAO_DIAS_S/N__VOTORANTIM_07600-000", "LMAPS": "https://www.google.com/maps?q=&layer=c&cbll=-46.5726927,-23.2936706", "O_QUE_FAZER": "FINALIZADO", "ER_REGIAO_CIDADE_min": "Mairiporã_Mairiporã_Guarulhos" }, "geometry": { "type": "Point", "coordinates": [ -46.5726927, -23.2936706 ] } },
{ "type": "Feature", "properties": { "fid": 268808, "CNPJ": "10858456000140", "IDCIDADE": "MAIRIPORA", "NOMEFANTASIA": "F.T._DESENTUPIDORA_E_TRANSPORTES_LTDA", "RAZAOSOCIAL": "F.T._DESENTUPIDORA_E_TRANSPORTES_LTDA", "ENDEE": "RUA_ROSA_PIERRE_BRILHA71__VILA_ROSA_07600-000", "LMAPS": "https://www.google.com/maps?q=&layer=c&cbll=-46.5828133,-23.3106366", "O_QUE_FAZER": "FINALIZADO", "ER_REGIAO_CIDADE_min": "Mairiporã_Mairiporã_Guarulhos" }, "geometry": { "type": "Point", "coordinates": [ -46.5828133, -23.3106366 ] } },
{ "type": "Feature", "properties": { "fid": 268814, "CNPJ": "47143053000125", "IDCIDADE": "MAIRIPORA", "NOMEFANTASIA": "47.143.053_JOSE_HENRIQUE_TEIXEIRA_LEITE", "RAZAOSOCIAL": "TEIAUDIOVISUAL", "ENDEE": "RUA_SIGUEMI_AIACYDA390__CAPOAVINHA_07629-650", "LMAPS": "https://www.google.com/maps?q=&layer=c&cbll=-46.5702577,-23.3123403", "O_QUE_FAZER": "FINALIZADO", "ER_REGIAO_CIDADE_min": "Mairiporã_Mairiporã_Guarulhos" }, "geometry": { "type": "Point", "coordinates": [ -46.5702577, -23.3123403 ] } },
{ "type": "Feature", "properties": { "fid": 268819, "CNPJ": "50354878000101", "IDCIDADE": "MAIRIPORA", "NOMEFANTASIA": "50.354.878_SUELEN_DE_OLIVEIRA_ALVES_MILOCHE", "RAZAOSOCIAL": "CANDY_DOCERIA_E_SALGADOS", "ENDEE": "RUA_QUINZE_DE_NOVEMBRO71__CENTRO_07600-057", "LMAPS": "https://www.google.com/maps?q=&layer=c&cbll=-46.5824575,-23.3157583", "O_QUE_FAZER": "FINALIZADO", "ER_REGIAO_CIDADE_min": "Mairiporã_Mairiporã_Guarulhos" }, "geometry": { "type": "Point", "coordinates": [ -46.5824575, -23.3157583 ] } },
{ "type": "Feature", "properties": { "fid": 268823, "CNPJ": "32581990000195", "IDCIDADE": "MAIRIPORA", "NOMEFANTASIA": "MEGA_INSTRUMENTOS_LTDA.", "RAZAOSOCIAL": "MEGA_INSTRUMENTOS", "ENDEE": "AVENIDA_TABELIAO_PASSARELLA288__CENTRO_07600-027", "LMAPS": "https://www.google.com/maps?q=&layer=c&cbll=-46.5850716,-23.3178315", "O_QUE_FAZER": "FINALIZADO", "ER_REGIAO_CIDADE_min": "Mairiporã_Mairiporã_Guarulhos" }, "geometry": { "type": "Point", "coordinates": [ -46.5850716, -23.3178315 ] } },
{ "type": "Feature", "properties": { "fid": 268830, "CNPJ": "44660577000103", "IDCIDADE": "MAIRIPORA", "NOMEFANTASIA": "SP_DRONES_E_COMERCIO_LTDA", "RAZAOSOCIAL": "SP_DRONES_E_COMERCIO_LTDA", "ENDEE": "AVENIDA_LEONOR_DE_OLIVEIRA233__CENTRO_07600-231", "LMAPS": "https://www.google.com/maps?q=&layer=c&cbll=-46.5927435,-23.3200571", "O_QUE_FAZER": "FINALIZADO", "ER_REGIAO_CIDADE_min": "Mairiporã_Mairiporã_Guarulhos" }, "geometry": { "type": "Point", "coordinates": [ -46.5927435, -23.3200571 ] } },
{ "type": "Feature", "properties": { "fid": 268844, "CNPJ": "17906332000132", "IDCIDADE": "MAIRIPORA", "NOMEFANTASIA": "VERSATIL_RADIOCOMUNICACAO_LTDA", "RAZAOSOCIAL": "VERSATIL_RADIO", "ENDEE": "RUA_BENTO_FELIX_PEREIRA204__JARDIM_ESTHER_07600-000", "LMAPS": "https://www.google.com/maps?q=&layer=c&cbll=-46.5930291,-23.3244759", "O_QUE_FAZER": "FINALIZADO", "ER_REGIAO_CIDADE_min": "Mairiporã_Mairiporã_Guarulhos" }, "geometry": { "type": "Point", "coordinates": [ -46.5930291, -23.3244759 ] } },
{ "type": "Feature", "properties": { "fid": 268849, "CNPJ": "36539394000106", "IDCIDADE": "MAIRIPORA", "NOMEFANTASIA": "36.539.394_RONALDO_ANTONIO_DA_SILVA", "RAZAOSOCIAL": "DR_TRANSPORTES", "ENDEE": "RUA_DONA_MARIA_DAS_DORES_NASCIMENTO_CHAMMA62__BARREIRO_07611-010", "LMAPS": "https://www.google.com/maps?q=&layer=c&cbll=-46.5882127,-23.3255236", "O_QUE_FAZER": "FINALIZADO", "ER_REGIAO_CIDADE_min": "Mairiporã_Mairiporã_Guarulhos" }, "geometry": { "type": "Point", "coordinates": [ -46.5882127, -23.3255236 ] } },
{ "type": "Feature", "properties": { "fid": 268858, "CNPJ": "04360495000110", "IDCIDADE": "MAIRIPORA", "NOMEFANTASIA": "HANNAH_LEBRUM_COMERCIAL_LTDA", "RAZAOSOCIAL": "HANNAH_LEBRUM_COMERCIAL_LTDA", "ENDEE": "AVENIDA_SERRA_MORENA330__LAVAPES_07611-015", "LMAPS": "https://www.google.com/maps?q=&layer=c&cbll=-46.5923431,-23.3281789", "O_QUE_FAZER": "FINALIZADO", "ER_REGIAO_CIDADE_min": "Mairiporã_Mairiporã_Guarulhos" }, "geometry": { "type": "Point", "coordinates": [ -46.5923431, -23.3281789 ] } },
{ "type": "Feature", "properties": { "fid": 268866, "CNPJ": "20091323000145", "IDCIDADE": "MAIRIPORA", "NOMEFANTASIA": "R._O._S._SOUZA_ELETRICA", "RAZAOSOCIAL": "R._O._S._SOUZA_ELETRICA", "ENDEE": "RUA_ZULEIKA_VIEIRA_KHAIRALLA53__JARDIM_ESPERANCA_07600-000", "LMAPS": "https://www.google.com/maps?q=&layer=c&cbll=-46.5815913,-23.3296711", "O_QUE_FAZER": "FINALIZADO", "ER_REGIAO_CIDADE_min": "Mairiporã_Mairiporã_Guarulhos" }, "geometry": { "type": "Point", "coordinates": [ -46.5815913, -23.3296711 ] } },
{ "type": "Feature", "properties": { "fid": 268914, "CNPJ": "50304629000101", "IDCIDADE": "MAIRIPORA", "NOMEFANTASIA": "50.304.629_LILIANE_THOME_RAMOS_DA_SILVA", "RAZAOSOCIAL": "_LILIANE_THOME_RAMOS_DA_SILVA", "ENDEE": "RUA_SANTO_ANTONIO_JD_NERY109__CAPOAVINHA_07629-366", "LMAPS": "https://www.google.com/maps?q=&layer=c&cbll=-46.6351075,-23.3541273", "O_QUE_FAZER": "FINALIZADO", "ER_REGIAO_CIDADE_min": "Mairiporã_Mairiporã_Guarulhos" }, "geometry": { "type": "Point", "coordinates": [ -46.6351075, -23.3541273 ] } },
{ "type": "Feature", "properties": { "fid": 301261, "CNPJ": "33260964000128", "IDCIDADE": "MAIRIPORA", "NOMEFANTASIA": "-", "RAZAOSOCIAL": "33.260.964 THAIS ALESSANDRA TAVERNA", "ENDEE": "RUA ANTONIO MATIAS, 12, RIO ACIMA, 07632-585, MAIRIPORÃ, SP, BRASIL", "LMAPS": "https://www.google.com/maps?q=&layer=c&cbll=-23.2813979,-46.5137172", "O_QUE_FAZER": "CARTEIRA - FAMPE", "ER_REGIAO_CIDADE_min": "Mairiporã_Mairiporã_Guarulhos" }, "geometry": { "type": "Point", "coordinates": [ -46.5137172, -23.2813979 ] } },
{ "type": "Feature", "properties": { "fid": 301274, "CNPJ": "66918631000100", "IDCIDADE": "MAIRIPORA", "NOMEFANTASIA": "-", "RAZAOSOCIAL": "66.918.631 LUIS FERNANDO MOREIRA DO PRADO", "ENDEE": "RUA ANTONIO MATIAS, 345, RIO ACIMA, 07632-585, MAIRIPORÃ, SP, BRASIL", "LMAPS": "https://www.google.com/maps?q=&layer=c&cbll=-23.2834526,-46.5131371", "O_QUE_FAZER": "CARTEIRA - FAMPE", "ER_REGIAO_CIDADE_min": "Mairiporã_Mairiporã_Guarulhos" }, "geometry": { "type": "Point", "coordinates": [ -46.5131371, -23.2834526 ] } },
{ "type": "Feature", "properties": { "fid": 301298, "CNPJ": "62198311000164", "IDCIDADE": "MAIRIPORA", "NOMEFANTASIA": "-", "RAZAOSOCIAL": "62.198.311 MARCOS VINICIUS FERREIRA ARRUDA MORELATO", "ENDEE": "10A RUA ESTRADA MARIO FREITAS DA SILVA - MATO DENTRO, S/N, 03, MATO DENTRO, 07600-994, MAIRIPORÃ, SP, BRASIL", "LMAPS": "https://www.google.com/maps?q=&layer=c&cbll=-23.2885351,-46.6384622", "O_QUE_FAZER": "CARTEIRA - FAMPE", "ER_REGIAO_CIDADE_min": "Mairiporã_Mairiporã_Guarulhos" }, "geometry": { "type": "Point", "coordinates": [ -46.6384622, -23.2885351 ] } },
{ "type": "Feature", "properties": { "fid": 301300, "CNPJ": "67548576000169", "IDCIDADE": "MAIRIPORA", "NOMEFANTASIA": "-", "RAZAOSOCIAL": "67.548.576 HEITOR JASSON PEREZ", "ENDEE": "ESTRADA OLHO D'AGUA, 300, MATO DENTRO, 07656-005, MAIRIPORÃ, SP, BRASIL", "LMAPS": "https://www.google.com/maps?q=&layer=c&cbll=-23.2890668,-46.6141782", "O_QUE_FAZER": "CARTEIRA - FAMPE", "ER_REGIAO_CIDADE_min": "Mairiporã_Mairiporã_Guarulhos" }, "geometry": { "type": "Point", "coordinates": [ -46.6141782, -23.2890668 ] } },
{ "type": "Feature", "properties": { "fid": 301377, "CNPJ": "65879815000138", "IDCIDADE": "MAIRIPORA", "NOMEFANTASIA": "-", "RAZAOSOCIAL": "65.879.815 LUCAS WALTER PAMPANI NEVES", "ENDEE": "RUA JORGE HALLAK, 370, CENTRO, 07600-285, MAIRIPORÃ, SP, BRASIL", "LMAPS": "https://www.google.com/maps?q=&layer=c&cbll=-23.3130787,-46.5880993", "O_QUE_FAZER": "CARTEIRA - FAMPE", "ER_REGIAO_CIDADE_min": "Mairiporã_Mairiporã_Guarulhos" }, "geometry": { "type": "Point", "coordinates": [ -46.5880993, -23.3130787 ] } },
{ "type": "Feature", "properties": { "fid": 301387, "CNPJ": "48500741000168", "IDCIDADE": "MAIRIPORA", "NOMEFANTASIA": "-", "RAZAOSOCIAL": "MARCELO OLIVEIRA DE SOUZA 14638019803", "ENDEE": "RUA PEDRO GALRAO DE FRANCA, 150, CHACARA ARANTES, 07600-744, MAIRIPORÃ, SP, BRASIL", "LMAPS": "https://www.google.com/maps?q=&layer=c&cbll=-23.315828,-46.5922411", "O_QUE_FAZER": "CARTEIRA - FAMPE", "ER_REGIAO_CIDADE_min": "Mairiporã_Mairiporã_Guarulhos" }, "geometry": { "type": "Point", "coordinates": [ -46.5922411, -23.315828 ] } },
{ "type": "Feature", "properties": { "fid": 301389, "CNPJ": "40029352000194", "IDCIDADE": "MAIRIPORA", "NOMEFANTASIA": "-", "RAZAOSOCIAL": "DAILY SHOP LTDA", "ENDEE": "TRAVESSA JOANINA RUFFOLO, 0, CHACARA ARANTES, 07600-748, MAIRIPORÃ, SP, BRASIL", "LMAPS": "https://www.google.com/maps?q=&layer=c&cbll=-23.3164008,-46.5941668", "O_QUE_FAZER": "CARTEIRA - FAMPE", "ER_REGIAO_CIDADE_min": "Mairiporã_Mairiporã_Guarulhos" }, "geometry": { "type": "Point", "coordinates": [ -46.5941668, -23.3164008 ] } },
{ "type": "Feature", "properties": { "fid": 301390, "CNPJ": "62929854000104", "IDCIDADE": "MAIRIPORA", "NOMEFANTASIA": "-", "RAZAOSOCIAL": "62.929.854 DENIELL LUNAN BIRCOL PEREIRA DA SILVA", "ENDEE": "TRAVESSA JOANINA RUFFOLO, 206, CHACARA ARANTES, 07600-748, MAIRIPORÃ, SP, BRASIL", "LMAPS": "https://www.google.com/maps?q=&layer=c&cbll=-23.3164008,-46.5941668", "O_QUE_FAZER": "CARTEIRA - FAMPE", "ER_REGIAO_CIDADE_min": "Mairiporã_Mairiporã_Guarulhos" }, "geometry": { "type": "Point", "coordinates": [ -46.5941668, -23.3164008 ] } },
{ "type": "Feature", "properties": { "fid": 301396, "CNPJ": "03571100000166", "IDCIDADE": "MAIRIPORA", "NOMEFANTASIA": "-", "RAZAOSOCIAL": "BAZAR E ARMARINHOS ROSE LTDA", "ENDEE": "RUA MOTOMO MAEDA, 32, B, CENTRO, 07600-000, MAIRIPORÃ, SP, BRASIL", "LMAPS": "https://www.google.com/maps?q=&layer=c&cbll=-23.3189386,-46.5834221", "O_QUE_FAZER": "CARTEIRA - FAMPE", "ER_REGIAO_CIDADE_min": "Mairiporã_Mairiporã_Guarulhos" }, "geometry": { "type": "Point", "coordinates": [ -46.5834221, -23.3189386 ] } },
{ "type": "Feature", "properties": { "fid": 301397, "CNPJ": "40383717000184", "IDCIDADE": "MAIRIPORA", "NOMEFANTASIA": "-", "RAZAOSOCIAL": "40.383.717 PATRICIA SODRE SOUZA", "ENDEE": "RUA DUQUE DE CAXIAS, 37, SALA 17, CENTRO, 07600-270, MAIRIPORÃ, SP, BRASIL", "LMAPS": "https://www.google.com/maps?q=&layer=c&cbll=-23.3193497,-46.5879714", "O_QUE_FAZER": "CARTEIRA - FAMPE", "ER_REGIAO_CIDADE_min": "Mairiporã_Mairiporã_Guarulhos" }, "geometry": { "type": "Point", "coordinates": [ -46.5879714, -23.3193497 ] } },
{ "type": "Feature", "properties": { "fid": 301399, "CNPJ": "63819628000133", "IDCIDADE": "MAIRIPORA", "NOMEFANTASIA": "-", "RAZAOSOCIAL": "63.819.628 TAUANI MARINSKA DA SILVA", "ENDEE": "RUA SAO JOAO, 529, CAPOAVINHA, 07629-358, MAIRIPORÃ, SP, BRASIL", "LMAPS": "https://www.google.com/maps?q=&layer=c&cbll=-23.3202438,-46.572512", "O_QUE_FAZER": "CARTEIRA - FAMPE", "ER_REGIAO_CIDADE_min": "Mairiporã_Mairiporã_Guarulhos" }, "geometry": { "type": "Point", "coordinates": [ -46.572512, -23.3202438 ] } },
{ "type": "Feature", "properties": { "fid": 301401, "CNPJ": "43529147000186", "IDCIDADE": "MAIRIPORA", "NOMEFANTASIA": "-", "RAZAOSOCIAL": "43.529.147 ANA PAULA SILVA DE SOUZA MACHADO", "ENDEE": "RUA SAO PAULO, 314, ANEXO N. 220, CENTRO, 07600-069, MAIRIPORÃ, SP, BRASIL", "LMAPS": "https://www.google.com/maps?q=&layer=c&cbll=-23.3208522,-46.5827164", "O_QUE_FAZER": "CARTEIRA - FAMPE", "ER_REGIAO_CIDADE_min": "Mairiporã_Mairiporã_Guarulhos" }, "geometry": { "type": "Point", "coordinates": [ -46.5827164, -23.3208522 ] } },
{ "type": "Feature", "properties": { "fid": 301402, "CNPJ": "36336433000160", "IDCIDADE": "MAIRIPORA", "NOMEFANTASIA": "-", "RAZAOSOCIAL": "36.336.433 ROSEMAIRA MARIA SANTOS DANIEL", "ENDEE": "RUA CARDOSO CESAR, 147, CENTRO, 07600-162, MAIRIPORÃ, SP, BRASIL", "LMAPS": "https://www.google.com/maps?q=&layer=c&cbll=-23.3209254,-46.5871294", "O_QUE_FAZER": "CARTEIRA - FAMPE", "ER_REGIAO_CIDADE_min": "Mairiporã_Mairiporã_Guarulhos" }, "geometry": { "type": "Point", "coordinates": [ -46.5871294, -23.3209254 ] } },
{ "type": "Feature", "properties": { "fid": 301404, "CNPJ": "42333140000121", "IDCIDADE": "MAIRIPORA", "NOMEFANTASIA": "-", "RAZAOSOCIAL": "42.333.140 JOSELI TEIXEIRA DOS SANTOS", "ENDEE": "RUA LAUDEMIRO RAMOS, 125, SALA 4, CENTRO, 07600-099, MAIRIPORÃ, SP, BRASIL", "LMAPS": "https://www.google.com/maps?q=&layer=c&cbll=-23.3213508,-46.586694", "O_QUE_FAZER": "CARTEIRA - FAMPE", "ER_REGIAO_CIDADE_min": "Mairiporã_Mairiporã_Guarulhos" }, "geometry": { "type": "Point", "coordinates": [ -46.586694, -23.3213508 ] } },
{ "type": "Feature", "properties": { "fid": 301406, "CNPJ": "58944962000189", "IDCIDADE": "MAIRIPORA", "NOMEFANTASIA": "-", "RAZAOSOCIAL": "58.944.962 DIEGO SANTONI SOARES", "ENDEE": "RUA JACARANDA, 294, RIO ACIMA, 07632-210, MAIRIPORÃ, SP, BRASIL", "LMAPS": "https://www.google.com/maps?q=&layer=c&cbll=-23.321673,-46.5695835", "O_QUE_FAZER": "CARTEIRA - FAMPE", "ER_REGIAO_CIDADE_min": "Mairiporã_Mairiporã_Guarulhos" }, "geometry": { "type": "Point", "coordinates": [ -46.5695835, -23.321673 ] } },
{ "type": "Feature", "properties": { "fid": 301410, "CNPJ": "23387965000184", "IDCIDADE": "MAIRIPORA", "NOMEFANTASIA": "-", "RAZAOSOCIAL": "ESPACO NOVA CONQUISTA LTDA", "ENDEE": "ESTRADA ARMANDO BARBOSA DE ALMEIDA, 2000, CASA 01, CHACARA ARANTES, 07600-740, MAIRIPORÃ, SP, BRASIL", "LMAPS": "https://www.google.com/maps?q=&layer=c&cbll=-23.3242501,-46.6074208", "O_QUE_FAZER": "CARTEIRA - FAMPE", "ER_REGIAO_CIDADE_min": "Mairiporã_Mairiporã_Guarulhos" }, "geometry": { "type": "Point", "coordinates": [ -46.6074208, -23.3242501 ] } },
{ "type": "Feature", "properties": { "fid": 301414, "CNPJ": "54271877000146", "IDCIDADE": "MAIRIPORA", "NOMEFANTASIA": "-", "RAZAOSOCIAL": "54.271.877 RAFAELA DOS SANTOS PEREIRA", "ENDEE": "AVENIDA DONA LIVIA VALL SILVA ANDRE, 344, LUIZ FAGUNDES, 07625-005, MAIRIPORÃ, SP, BRASIL", "LMAPS": "https://www.google.com/maps?q=&layer=c&cbll=-23.327691,-46.5825052", "O_QUE_FAZER": "CARTEIRA - FAMPE", "ER_REGIAO_CIDADE_min": "Mairiporã_Mairiporã_Guarulhos" }, "geometry": { "type": "Point", "coordinates": [ -46.5825052, -23.327691 ] } },
{ "type": "Feature", "properties": { "fid": 301415, "CNPJ": "59904159000183", "IDCIDADE": "MAIRIPORA", "NOMEFANTASIA": "-", "RAZAOSOCIAL": "59.904.159 ROBERTO QUEIROZ OLIVEIRA", "ENDEE": "AVENIDA DOS COQUEIROS, 90, BARREIRO, 07611-400, MAIRIPORÃ, SP, BRASIL", "LMAPS": "https://www.google.com/maps?q=&layer=c&cbll=-23.329246,-46.5997095", "O_QUE_FAZER": "CARTEIRA - FAMPE", "ER_REGIAO_CIDADE_min": "Mairiporã_Mairiporã_Guarulhos" }, "geometry": { "type": "Point", "coordinates": [ -46.5997095, -23.329246 ] } },
{ "type": "Feature", "properties": { "fid": 301419, "CNPJ": "46596445000187", "IDCIDADE": "MAIRIPORA", "NOMEFANTASIA": "-", "RAZAOSOCIAL": "46.596.445 KAWE FABRICIO SILVA DE BRITO", "ENDEE": "RUA JOAO ANTONIO PEREIRA, 170, CASA 1, BARREIRO, 07611-100, MAIRIPORÃ, SP, BRASIL", "LMAPS": "https://www.google.com/maps?q=&layer=c&cbll=-23.332145,-46.592325", "O_QUE_FAZER": "CARTEIRA - FAMPE", "ER_REGIAO_CIDADE_min": "Mairiporã_Mairiporã_Guarulhos" }, "geometry": { "type": "Point", "coordinates": [ -46.592325, -23.332145 ] } },
{ "type": "Feature", "properties": { "fid": 301425, "CNPJ": "34811609000162", "IDCIDADE": "MAIRIPORA", "NOMEFANTASIA": "-", "RAZAOSOCIAL": "34.811.609 MARGARETH KIMIE ISHIBASHI RIBEIRO", "ENDEE": "AVENIDA VEREADOR BELARMINO PEREIRA DE CARVALHO, 1280, ROSEIRA, 07618-830, MAIRIPORÃ, SP, BRASIL", "LMAPS": "https://www.google.com/maps?q=&layer=c&cbll=-23.3386111,-46.6014321", "O_QUE_FAZER": "CARTEIRA - FAMPE", "ER_REGIAO_CIDADE_min": "Mairiporã_Mairiporã_Guarulhos" }, "geometry": { "type": "Point", "coordinates": [ -46.6014321, -23.3386111 ] } },
{ "type": "Feature", "properties": { "fid": 301439, "CNPJ": "37897994000109", "IDCIDADE": "MAIRIPORA", "NOMEFANTASIA": "-", "RAZAOSOCIAL": "37.897.994 ANA PAULA DA PAIXAO FONTELES", "ENDEE": "ALAMEDA DO NASCENTE, 353, CASA 353, SANTA INES, 07609-480, MAIRIPORÃ, SP, BRASIL", "LMAPS": "https://www.google.com/maps?q=&layer=c&cbll=-23.3529923,-46.6595114", "O_QUE_FAZER": "CARTEIRA - FAMPE", "ER_REGIAO_CIDADE_min": "Mairiporã_Mairiporã_Guarulhos" }, "geometry": { "type": "Point", "coordinates": [ -46.6595114, -23.3529923 ] } },
{ "type": "Feature", "properties": { "fid": 301440, "CNPJ": "21250604000166", "IDCIDADE": "MAIRIPORA", "NOMEFANTASIA": "Talita Cumi Comercio de Gas", "RAZAOSOCIAL": "EDILAINE S B DE OLIVEIRA COMERCIO DE GAS E AGUA", "ENDEE": "RUA IPES, 220, CAPOAVINHA, 07629-306, MAIRIPORÃ, SP, BRASIL", "LMAPS": "https://www.google.com/maps?q=&layer=c&cbll=-23.3580473,-46.5311997", "O_QUE_FAZER": "CARTEIRA - FAMPE", "ER_REGIAO_CIDADE_min": "Mairiporã_Mairiporã_Guarulhos" }, "geometry": { "type": "Point", "coordinates": [ -46.5311997, -23.3580473 ] } }
]
}
