{
"type": "FeatureCollection",
"name": "ER_REGIAO_CIDADE_min_Piracicaba_Guamium_Piracicaba",
"crs": { "type": "name", "properties": { "name": "urn:ogc:def:crs:OGC:1.3:CRS84" } },
"xy_coordinate_resolution": 1e-15,
"features": [
{ "type": "Feature", "properties": { "fid": 208069, "CNPJ": "05642909000167", "IDCIDADE": "PIRACICABA", "NOMEFANTASIA": null, "RAZAOSOCIAL": "EXPRESSO FRATERNO LTDA", "ENDEE": "RUA DOUTOR DIMAS CERA OMETTO, 1876, LOTE C, TANQUINHO (GUAMIUM), 13433-002, PIRACICABA, SP, BRASIL", "LMAPS": "https://www.google.com/maps?q=&layer=c&cbll=-22.5684903,-47.6082723", "O_QUE_FAZER": "CARTEIRA - FAMPE", "ER_REGIAO_CIDADE_min": "Piracicaba_Guamium_Piracicaba" }, "geometry": { "type": "Point", "coordinates": [ -47.6082723, -22.5684903 ] } }
]
}
