{
"type": "FeatureCollection",
"name": "ER_REGIAO_CIDADE_min_Itaberá_Itaberá_Ourinhos",
"crs": { "type": "name", "properties": { "name": "urn:ogc:def:crs:OGC:1.3:CRS84" } },
"xy_coordinate_resolution": 1e-15,
"features": [
{ "type": "Feature", "properties": { "fid": 1323, "CNPJ": "00265632000187", "IDCIDADE": "ITABERA", "NOMEFANTASIA": "FARMATERAPICA", "RAZAOSOCIAL": "FARMATERAPICA_FARMACIA_DE_MANIPULACAO_LTDA", "ENDEE": "PRACA_AMADOR_PEREIRA_DE_ALMEIDA24__CENTRO_18440-000", "LMAPS": "https://www.google.com/maps?q=&layer=c&cbll=-23.8619537,-49.1365882", "O_QUE_FAZER": "CARTEIRA", "ER_REGIAO_CIDADE_min": "Itaberá_Itaberá_Ourinhos" }, "geometry": { "type": "Point", "coordinates": [ -49.1365882, -23.8619537 ] } },
{ "type": "Feature", "properties": { "fid": 3745, "CNPJ": "00765064000183", "IDCIDADE": "ITABERA", "NOMEFANTASIA": "-", "RAZAOSOCIAL": "00.765.064_AMARILDO_PRESTES", "ENDEE": "AVENIDA CARLOS R SANTOS, 220, CENTRO, 18440-000, ITABERÁ, SP, BRASIL", "LMAPS": "https://www.google.com/maps?q=&layer=c&cbll=-23.8636723,-49.1390759", "O_QUE_FAZER": "CARTEIRA - FAMPE", "ER_REGIAO_CIDADE_min": "Itaberá_Itaberá_Ourinhos" }, "geometry": { "type": "Point", "coordinates": [ -49.1390759, -23.8636723 ] } },
{ "type": "Feature", "properties": { "fid": 5021, "CNPJ": "01043310000156", "IDCIDADE": "ITABERA", "NOMEFANTASIA": "PORTAL_MODAS", "RAZAOSOCIAL": "MARIA_APARECIDA_DE_OLIVEIRA_MUZEL", "ENDEE": "RUA_CORONEL_JOSE_PEDRO_DE_LIMA158__CENTRO_18440-000", "LMAPS": "https://www.google.com/maps?q=&layer=c&cbll=-23.8606563,-49.1377015", "O_QUE_FAZER": "CARTEIRA", "ER_REGIAO_CIDADE_min": "Itaberá_Itaberá_Ourinhos" }, "geometry": { "type": "Point", "coordinates": [ -49.1377015, -23.8606563 ] } },
{ "type": "Feature", "properties": { "fid": 7453, "CNPJ": "01538129000110", "IDCIDADE": "ITABERA", "NOMEFANTASIA": "OSVALDO_DA_SILVA_CUMINATO", "RAZAOSOCIAL": "OSVALDO_DA_SILVA_CUMINATO", "ENDEE": "RUA_ANTONIO_J_ESTEVES201__JARDIM_CAROLINA_18440-000", "LMAPS": "https://www.google.com/maps?q=&layer=c&cbll=-23.8569929,-49.1417371", "O_QUE_FAZER": "FINALIZADO", "ER_REGIAO_CIDADE_min": "Itaberá_Itaberá_Ourinhos" }, "geometry": { "type": "Point", "coordinates": [ -49.1417371, -23.8569929 ] } },
{ "type": "Feature", "properties": { "fid": 13086, "CNPJ": "02656847000154", "IDCIDADE": "ITABERA", "NOMEFANTASIA": "MOVEIS_AVENIDA", "RAZAOSOCIAL": "BOLETTI_&_BOLETTI_LTDA", "ENDEE": "AVENIDA_PREFEITO_CARLOS_RODRIGUES_DOS_SANTOS197__CENTRO_18440-000", "LMAPS": "https://www.google.com/maps?q=&layer=c&cbll=-23.8637359,-49.1384885", "O_QUE_FAZER": "CARTEIRA", "ER_REGIAO_CIDADE_min": "Itaberá_Itaberá_Ourinhos" }, "geometry": { "type": "Point", "coordinates": [ -49.1384885, -23.8637359 ] } },
{ "type": "Feature", "properties": { "fid": 18206, "CNPJ": "03497333000166", "IDCIDADE": "ITABERA", "NOMEFANTASIA": "DROGARIA_PADRAO", "RAZAOSOCIAL": "DROGARIA_E_PERFUMARIA_PADRAO_DE_ITABERA_LTDA", "ENDEE": "AVENIDA_PREFEITO_CARLOS_RODRIGUES_DOS_SANTOS56__CENTRO_18440-000", "LMAPS": "https://www.google.com/maps?q=&layer=c&cbll=-23.8628776,-49.1377455", "O_QUE_FAZER": "CARTEIRA", "ER_REGIAO_CIDADE_min": "Itaberá_Itaberá_Ourinhos" }, "geometry": { "type": "Point", "coordinates": [ -49.1377455, -23.8628776 ] } },
{ "type": "Feature", "properties": { "fid": 18729, "CNPJ": "03584154000166", "IDCIDADE": "ITABERA", "NOMEFANTASIA": "PAPELANDIA", "RAZAOSOCIAL": "JEANETE_ALVES_DE_LIMA_OLIVEIRA_ITABERA", "ENDEE": "RUA_JOSEPHINA_SILVA_MELLO324__CENTRO_18440-000", "LMAPS": "https://www.google.com/maps?q=&layer=c&cbll=-23.8631867,-49.1379383", "O_QUE_FAZER": "CARTEIRA", "ER_REGIAO_CIDADE_min": "Itaberá_Itaberá_Ourinhos" }, "geometry": { "type": "Point", "coordinates": [ -49.1379383, -23.8631867 ] } },
{ "type": "Feature", "properties": { "fid": 18938, "CNPJ": "03620715000135", "IDCIDADE": "ITABERA", "NOMEFANTASIA": "TRIANGULO_AUTOCENTER", "RAZAOSOCIAL": "TRIANGULO_AUTOCENTER_LTDA", "ENDEE": "RUA_CRUZEIRO378__CENTRO_18440-000", "LMAPS": "https://www.google.com/maps?q=&layer=c&cbll=-23.8584645,-49.139092", "O_QUE_FAZER": "CARTEIRA", "ER_REGIAO_CIDADE_min": "Itaberá_Itaberá_Ourinhos" }, "geometry": { "type": "Point", "coordinates": [ -49.139092, -23.8584645 ] } },
{ "type": "Feature", "properties": { "fid": 19221, "CNPJ": "03667881000197", "IDCIDADE": "ITABERA", "NOMEFANTASIA": "CENTRO_DE_FORMACAO_DE_CONDUTORES_ITABERA", "RAZAOSOCIAL": "CENTRO_DE_FORMACAO_DE_CONDUTORES_ITABERA_LTDA", "ENDEE": "RUA_CORONEL_JOSE_PEDRO_DE_LIMA32__CENTRO_18440-000", "LMAPS": "https://www.google.com/maps?q=&layer=c&cbll=-23.8570194,-49.1407319", "O_QUE_FAZER": "CARTEIRA", "ER_REGIAO_CIDADE_min": "Itaberá_Itaberá_Ourinhos" }, "geometry": { "type": "Point", "coordinates": [ -49.1407319, -23.8570194 ] } },
{ "type": "Feature", "properties": { "fid": 24077, "CNPJ": "04422793000198", "IDCIDADE": "ITABERA", "NOMEFANTASIA": "AUTO_ELETRICA_ITABERA", "RAZAOSOCIAL": "ISMAEL_VICTOR_DA_SILVA_ITABERA", "ENDEE": "RUA_CORONEL_JOSE_PEDRO_DE_LIMA89__CENTRO_18440-000", "LMAPS": "https://www.google.com/maps?q=&layer=c&cbll=-23.8583547,-49.1397759", "O_QUE_FAZER": "CARTEIRA", "ER_REGIAO_CIDADE_min": "Itaberá_Itaberá_Ourinhos" }, "geometry": { "type": "Point", "coordinates": [ -49.1397759, -23.8583547 ] } },
{ "type": "Feature", "properties": { "fid": 24517, "CNPJ": "04494069000170", "IDCIDADE": "ITABERA", "NOMEFANTASIA": "PADARIA_SANTA_INES", "RAZAOSOCIAL": "JORGE_APARECIDO_DE_PROENCA", "ENDEE": "RUA_PADRE_MANOEL_JOAQUIM_RODRIGUES20__JARDIM_SANTA_INES_18440-000", "LMAPS": "https://www.google.com/maps?q=&layer=c&cbll=-23.855745,-49.1505733", "O_QUE_FAZER": "CARTEIRA", "ER_REGIAO_CIDADE_min": "Itaberá_Itaberá_Ourinhos" }, "geometry": { "type": "Point", "coordinates": [ -49.1505733, -23.855745 ] } },
{ "type": "Feature", "properties": { "fid": 28419, "CNPJ": "05038466000108", "IDCIDADE": "ITABERA", "NOMEFANTASIA": "JR_INFORMATICA_&_SIATEMAS", "RAZAOSOCIAL": "PAULO_R.DE_ALMEIDA_JUNIOR_-_ITABERA", "ENDEE": "RUA_CORONEL_AMANTINO404__CENTRO_18440-000", "LMAPS": "https://www.google.com/maps?q=&layer=c&cbll=-23.8621944,-49.1380029", "O_QUE_FAZER": "CARTEIRA", "ER_REGIAO_CIDADE_min": "Itaberá_Itaberá_Ourinhos" }, "geometry": { "type": "Point", "coordinates": [ -49.1380029, -23.8621944 ] } },
{ "type": "Feature", "properties": { "fid": 33651, "CNPJ": "05793132000212", "IDCIDADE": "ITABERA", "NOMEFANTASIA": "FUNERARIA_PREVER", "RAZAOSOCIAL": "PANHOZZI_ARRUDA_E_CIA_FUNERARIA_E_PLANOS_FUNERARIOS_LTDA", "ENDEE": "AVENIDA_PREFEITO_CARLOS_RODRIGUES_DOS_SANTOS49__CENTRO_18440-000", "LMAPS": "https://www.google.com/maps?q=&layer=c&cbll=-23.86293,-49.1374917", "O_QUE_FAZER": "CARTEIRA", "ER_REGIAO_CIDADE_min": "Itaberá_Itaberá_Ourinhos" }, "geometry": { "type": "Point", "coordinates": [ -49.1374917, -23.86293 ] } },
{ "type": "Feature", "properties": { "fid": 41084, "CNPJ": "07248458000103", "IDCIDADE": "ITABERA", "NOMEFANTASIA": "FARMACIA_ERVA_DOCE", "RAZAOSOCIAL": "FARMACIA_ERVA_DOCE_DE_ITABERA_LTDA", "ENDEE": "AVENIDA_PREFEITO_CARLOS_RODRIGUES_DOS_SANTOS184__CENTRO_18440-000", "LMAPS": "https://www.google.com/maps?q=&layer=c&cbll=-23.8635264,-49.1387471", "O_QUE_FAZER": "CARTEIRA", "ER_REGIAO_CIDADE_min": "Itaberá_Itaberá_Ourinhos" }, "geometry": { "type": "Point", "coordinates": [ -49.1387471, -23.8635264 ] } },
{ "type": "Feature", "properties": { "fid": 43475, "CNPJ": "07543540000160", "IDCIDADE": "ITABERA", "NOMEFANTASIA": "LOJA_DO_DIVINO", "RAZAOSOCIAL": "TEREZA_RODRIGUES_GARCIA", "ENDEE": "AVENIDA_LUIZ_TOLEDO370__CENTRO_18440-000", "LMAPS": "https://www.google.com/maps?q=&layer=c&cbll=-23.8644599,-49.1398249", "O_QUE_FAZER": "CARTEIRA", "ER_REGIAO_CIDADE_min": "Itaberá_Itaberá_Ourinhos" }, "geometry": { "type": "Point", "coordinates": [ -49.1398249, -23.8644599 ] } },
{ "type": "Feature", "properties": { "fid": 47159, "CNPJ": "07980267000131", "IDCIDADE": "ITABERA", "NOMEFANTASIA": "EMPORIO_SAO_LUIZ", "RAZAOSOCIAL": "EMPORIO_SAO_LUIZ_ITABERA_LTDA", "ENDEE": "RUA_CORONEL_JOSE_PEDRO_DE_LIMA6__CENTRO_18440-000", "LMAPS": "https://www.google.com/maps?q=&layer=c&cbll=-23.8568198,-49.1411136", "O_QUE_FAZER": "CARTEIRA", "ER_REGIAO_CIDADE_min": "Itaberá_Itaberá_Ourinhos" }, "geometry": { "type": "Point", "coordinates": [ -49.1411136, -23.8568198 ] } },
{ "type": "Feature", "properties": { "fid": 51515, "CNPJ": "08662235000150", "IDCIDADE": "ITABERA", "NOMEFANTASIA": null, "RAZAOSOCIAL": "NANDOS_SUPERMERCADO_LTDA", "ENDEE": "RUA DOMINGOS JORGE VELHO, 19, ANEXO 29, JARDIM SAO LUIZ, 18440-000, ITABERÁ, SP, BRASIL", "LMAPS": "https://www.google.com/maps?q=&layer=c&cbll=-23.8606679,-49.1339033", "O_QUE_FAZER": "CARTEIRA - FAMPE", "ER_REGIAO_CIDADE_min": "Itaberá_Itaberá_Ourinhos" }, "geometry": { "type": "Point", "coordinates": [ -49.1339033, -23.8606679 ] } },
{ "type": "Feature", "properties": { "fid": 54961, "CNPJ": "09078519000167", "IDCIDADE": "ITABERA", "NOMEFANTASIA": "M_&_N_CONFECCOES", "RAZAOSOCIAL": "LUIZ_ISRAEL_CARVALHO_MACEDO", "ENDEE": "RUA_23_DE_MAIO330__CENTRO_18440-000", "LMAPS": "https://www.google.com/maps?q=&layer=c&cbll=-23.8638719,-49.1381406", "O_QUE_FAZER": "CARTEIRA", "ER_REGIAO_CIDADE_min": "Itaberá_Itaberá_Ourinhos" }, "geometry": { "type": "Point", "coordinates": [ -49.1381406, -23.8638719 ] } },
{ "type": "Feature", "properties": { "fid": 58287, "CNPJ": "09442167000187", "IDCIDADE": "ITABERA", "NOMEFANTASIA": "JR_INFORMATICA_E_PAPELARIA", "RAZAOSOCIAL": "SHEILA_CRISTIANE_DE_CARVALHO_ALMEIDA", "ENDEE": "RUA_DOUTOR_BARBOSA15__JARDIM_SANTA_INES_I_18440-000", "LMAPS": "https://www.google.com/maps?q=&layer=c&cbll=-23.8575253,-49.1503796", "O_QUE_FAZER": "CARTEIRA", "ER_REGIAO_CIDADE_min": "Itaberá_Itaberá_Ourinhos" }, "geometry": { "type": "Point", "coordinates": [ -49.1503796, -23.8575253 ] } },
{ "type": "Feature", "properties": { "fid": 58853, "CNPJ": "09502516000109", "IDCIDADE": "ITABERA", "NOMEFANTASIA": "ELETRO_GRILLO", "RAZAOSOCIAL": "ADENIR_JESUS_BARBOSA", "ENDEE": "RUA_CORONEL_JOSE_PEDRO_DE_LIMA281__CENTRO_18440-000", "LMAPS": "https://www.google.com/maps?q=&layer=c&cbll=-23.8611653,-49.1371963", "O_QUE_FAZER": "CARTEIRA", "ER_REGIAO_CIDADE_min": "Itaberá_Itaberá_Ourinhos" }, "geometry": { "type": "Point", "coordinates": [ -49.1371963, -23.8611653 ] } },
{ "type": "Feature", "properties": { "fid": 58993, "CNPJ": "09515111000105", "IDCIDADE": "ITABERA", "NOMEFANTASIA": "RESTAURANTE_DA_JO", "RAZAOSOCIAL": "JOSIANE_ANTUNES_DOS_SANTOS_LIMA", "ENDEE": "RUA_CORONEL_JOSE_PEDRO3__CENTRO_18440-000", "LMAPS": "https://www.google.com/maps?q=&layer=c&cbll=-23.8565095,-49.1409419", "O_QUE_FAZER": "CARTEIRA", "ER_REGIAO_CIDADE_min": "Itaberá_Itaberá_Ourinhos" }, "geometry": { "type": "Point", "coordinates": [ -49.1409419, -23.8565095 ] } },
{ "type": "Feature", "properties": { "fid": 60610, "CNPJ": "10209565000137", "IDCIDADE": "ITABERA", "NOMEFANTASIA": "MARCENARIA_FREIRE", "RAZAOSOCIAL": "MARCENARIA_FREIRE_ITABERA_LTDA", "ENDEE": "RUA_PREFEITO_ALFREDO_DE_OLIVEIRA115__JARDIM_SANTA_INES_18440-000", "LMAPS": "https://www.google.com/maps?q=&layer=c&cbll=-23.857708,-49.1527314", "O_QUE_FAZER": "CARTEIRA", "ER_REGIAO_CIDADE_min": "Itaberá_Itaberá_Ourinhos" }, "geometry": { "type": "Point", "coordinates": [ -49.1527314, -23.857708 ] } },
{ "type": "Feature", "properties": { "fid": 60676, "CNPJ": "10218052000192", "IDCIDADE": "ITABERA", "NOMEFANTASIA": "MEGA_UTIL", "RAZAOSOCIAL": "MEGA_UTIL_LTDA", "ENDEE": "PRACA_AMADOR_P_DE_ALMEIDA66__CENTRO_18440-000", "LMAPS": "https://www.google.com/maps?q=&layer=c&cbll=-23.8616816,-49.1368083", "O_QUE_FAZER": "CARTEIRA", "ER_REGIAO_CIDADE_min": "Itaberá_Itaberá_Ourinhos" }, "geometry": { "type": "Point", "coordinates": [ -49.1368083, -23.8616816 ] } },
{ "type": "Feature", "properties": { "fid": 66138, "CNPJ": "10794449000122", "IDCIDADE": "ITABERA", "NOMEFANTASIA": null, "RAZAOSOCIAL": "PARAIBA_&_SANTOS_ARMARINHOS_LTDA", "ENDEE": "RUA CORONEL JOSE PEDRO DE LIMA, 112, LOJA 2, CENTRO, 18440-015, ITABERÁ, SP, BRASIL", "LMAPS": "https://www.google.com/maps?q=&layer=c&cbll=-23.8602779,-49.1382654", "O_QUE_FAZER": "CARTEIRA - FAMPE", "ER_REGIAO_CIDADE_min": "Itaberá_Itaberá_Ourinhos" }, "geometry": { "type": "Point", "coordinates": [ -49.1382654, -23.8602779 ] } },
{ "type": "Feature", "properties": { "fid": 67500, "CNPJ": "10933938000118", "IDCIDADE": "ITABERA", "NOMEFANTASIA": "MATTE_VARIEDADES", "RAZAOSOCIAL": "MATTE_COMERCIO_DE_VARIEDADES_ITABERA_LTDA", "ENDEE": "RUA_CORONEL_JOSE_PEDRO_DE_LIMA320__CENTRO_18440-000", "LMAPS": "https://www.google.com/maps?q=&layer=c&cbll=-23.8614875,-49.1371041", "O_QUE_FAZER": "CARTEIRA", "ER_REGIAO_CIDADE_min": "Itaberá_Itaberá_Ourinhos" }, "geometry": { "type": "Point", "coordinates": [ -49.1371041, -23.8614875 ] } },
{ "type": "Feature", "properties": { "fid": 67624, "CNPJ": "10956351000124", "IDCIDADE": "ITABERA", "NOMEFANTASIA": "CRAVO_&_CANELA_COSMETICOS", "RAZAOSOCIAL": "LETICIA_APARECIDA_DE_FREITAS_ROSSI_PEIXOTO", "ENDEE": "RUA_CORONEL_JOSE_PEDRO_DE_LIMA248__CENTRO_18440-000", "LMAPS": "https://www.google.com/maps?q=&layer=c&cbll=-23.8608931,-49.1376346", "O_QUE_FAZER": "CARTEIRA - FAMPE", "ER_REGIAO_CIDADE_min": "Itaberá_Itaberá_Ourinhos" }, "geometry": { "type": "Point", "coordinates": [ -49.1376346, -23.8608931 ] } },
{ "type": "Feature", "properties": { "fid": 69123, "CNPJ": "11133508000184", "IDCIDADE": "ITABERA", "NOMEFANTASIA": "VIDRACARIA_ITABERA", "RAZAOSOCIAL": "JOSE_ANTONIO_ALVES_RABELO", "ENDEE": "RUA_ANGELO_VALCAZARA500__CENTRO_18440-000", "LMAPS": "https://www.google.com/maps?q=&layer=c&cbll=-23.8622335,-49.1425534", "O_QUE_FAZER": "CARTEIRA", "ER_REGIAO_CIDADE_min": "Itaberá_Itaberá_Ourinhos" }, "geometry": { "type": "Point", "coordinates": [ -49.1425534, -23.8622335 ] } },
{ "type": "Feature", "properties": { "fid": 72962, "CNPJ": "11651136000188", "IDCIDADE": "ITABERA", "NOMEFANTASIA": "CAVALO_DE_ACO_MOTO_PECAS", "RAZAOSOCIAL": "JAIR_BENEDITO_GARCIA_ITABERA", "ENDEE": "AVENIDA_JOAO_SIMON_SOLA135__CENTRO_18440-000", "LMAPS": "https://www.google.com/maps?q=&layer=c&cbll=-23.8615169,-49.1433924", "O_QUE_FAZER": "CARTEIRA", "ER_REGIAO_CIDADE_min": "Itaberá_Itaberá_Ourinhos" }, "geometry": { "type": "Point", "coordinates": [ -49.1433924, -23.8615169 ] } },
{ "type": "Feature", "properties": { "fid": 77933, "CNPJ": "12524679000105", "IDCIDADE": "ITABERA", "NOMEFANTASIA": "MACEDO_EMBALAGENS", "RAZAOSOCIAL": "JOAO_APARECIDO_DOS_SANTOS_ITABERA", "ENDEE": "RUA_CORONEL_AMANTINO195__CENTRO_18440-000", "LMAPS": "https://www.google.com/maps?q=&layer=c&cbll=-23.8613193,-49.1366096", "O_QUE_FAZER": "CARTEIRA", "ER_REGIAO_CIDADE_min": "Itaberá_Itaberá_Ourinhos" }, "geometry": { "type": "Point", "coordinates": [ -49.1366096, -23.8613193 ] } },
{ "type": "Feature", "properties": { "fid": 82618, "CNPJ": "13440462000171", "IDCIDADE": "ITABERA", "NOMEFANTASIA": "DUDALINE_MULTIMARCAS", "RAZAOSOCIAL": "ALINE_CRISTIANE_FERREIRA_DA_SILVA", "ENDEE": "AVENIDA_PREFEITO_CARLOS_RODRIGUES_DOS_SANTOS132__CENTRO_18440-000", "LMAPS": "https://www.google.com/maps?q=&layer=c&cbll=-23.8632843,-49.138271", "O_QUE_FAZER": "CARTEIRA", "ER_REGIAO_CIDADE_min": "Itaberá_Itaberá_Ourinhos" }, "geometry": { "type": "Point", "coordinates": [ -49.138271, -23.8632843 ] } },
{ "type": "Feature", "properties": { "fid": 86255, "CNPJ": "14136268000160", "IDCIDADE": "ITABERA", "NOMEFANTASIA": "MOVEIS_CASA_NOVA", "RAZAOSOCIAL": "ALIPIO_GARCIA_NOGUEIRA", "ENDEE": "AVENIDA_PREFEITO_CARLOS_RODRIGUES_DOS_SANTOS212__CENTRO_18440-000", "LMAPS": "https://www.google.com/maps?q=&layer=c&cbll=-23.8635355,-49.1389424", "O_QUE_FAZER": "CARTEIRA", "ER_REGIAO_CIDADE_min": "Itaberá_Itaberá_Ourinhos" }, "geometry": { "type": "Point", "coordinates": [ -49.1389424, -23.8635355 ] } },
{ "type": "Feature", "properties": { "fid": 89820, "CNPJ": "14864598000171", "IDCIDADE": "ITABERA", "NOMEFANTASIA": null, "RAZAOSOCIAL": "FIA_DOCES_E_SALGADOS_ITABERA_LTDA", "ENDEE": "RUA AMERICO BRASILIENSE, 39, JARDIM SAO PEDRO, 18446-014, ITABERÁ, SP, BRASIL", "LMAPS": "https://www.google.com/maps?q=&layer=c&cbll=-23.8668135,-49.1414129", "O_QUE_FAZER": "CARTEIRA - FAMPE", "ER_REGIAO_CIDADE_min": "Itaberá_Itaberá_Ourinhos" }, "geometry": { "type": "Point", "coordinates": [ -49.1414129, -23.8668135 ] } },
{ "type": "Feature", "properties": { "fid": 92756, "CNPJ": "15499987000108", "IDCIDADE": "ITABERA", "NOMEFANTASIA": "MOVEIS_CASA_NOVA", "RAZAOSOCIAL": "MICHELE_PROENCA_NOGUEIRA", "ENDEE": "RUA_CORONEL_JOSE_PEDRO_DE_LIMA171__CENTRO_18440-000", "LMAPS": "https://www.google.com/maps?q=&layer=c&cbll=-23.8602908,-49.1377831", "O_QUE_FAZER": "CARTEIRA", "ER_REGIAO_CIDADE_min": "Itaberá_Itaberá_Ourinhos" }, "geometry": { "type": "Point", "coordinates": [ -49.1377831, -23.8602908 ] } },
{ "type": "Feature", "properties": { "fid": 96050, "CNPJ": "16830649000250", "IDCIDADE": "ITABERA", "NOMEFANTASIA": "RIMAFER_CONTABILIDADE", "RAZAOSOCIAL": "RIMAFER_CONTABILIDADE_LTDA", "ENDEE": "AVENIDA_JOAO_SIMON_SOLA12__CENTRO_18440-000", "LMAPS": "https://www.google.com/maps?q=&layer=c&cbll=-23.8625359,-49.142727", "O_QUE_FAZER": "CARTEIRA", "ER_REGIAO_CIDADE_min": "Itaberá_Itaberá_Ourinhos" }, "geometry": { "type": "Point", "coordinates": [ -49.142727, -23.8625359 ] } },
{ "type": "Feature", "properties": { "fid": 97254, "CNPJ": "17066345000140", "IDCIDADE": "ITABERA", "NOMEFANTASIA": "LEAL_ELETRICA_E_HIDRAULICA", "RAZAOSOCIAL": "REGINA_QUEILA_DA_SILVA_LEAL", "ENDEE": "RUA CEL JOSE PEDRO DE LIMA, 125, CENTRO, 18440-000, ITABERÁ, SP, BRASIL", "LMAPS": "https://www.google.com/maps?q=&layer=c&cbll=-23.859848,-49.1382799", "O_QUE_FAZER": "CARTEIRA - FAMPE", "ER_REGIAO_CIDADE_min": "Itaberá_Itaberá_Ourinhos" }, "geometry": { "type": "Point", "coordinates": [ -49.1382799, -23.859848 ] } },
{ "type": "Feature", "properties": { "fid": 99206, "CNPJ": "17460740000103", "IDCIDADE": "ITABERA", "NOMEFANTASIA": "HOTEL_RANCHO_DAS_PEDRAS", "RAZAOSOCIAL": "RANCHO_DAS_PEDRAS_HOTEL_LTDA", "ENDEE": "RODOVIA_EDUARDO_SAIGH0__RIBEIRAO_BONITO_18440-000", "LMAPS": "https://www.google.com/maps?q=&layer=c&cbll=-23.8550391,-49.1476966", "O_QUE_FAZER": "CARTEIRA", "ER_REGIAO_CIDADE_min": "Itaberá_Itaberá_Ourinhos" }, "geometry": { "type": "Point", "coordinates": [ -49.1476966, -23.8550391 ] } },
{ "type": "Feature", "properties": { "fid": 99507, "CNPJ": "17521948000195", "IDCIDADE": "ITABERA", "NOMEFANTASIA": "ELETRO_AR", "RAZAOSOCIAL": "ELETRO_AR_PRESTADORA_DE_SERVICOS_LTDA", "ENDEE": "RUA_23_DE_MAIO300__CENTRO_18440-000", "LMAPS": "https://www.google.com/maps?q=&layer=c&cbll=-23.8638634,-49.1383917", "O_QUE_FAZER": "CARTEIRA", "ER_REGIAO_CIDADE_min": "Itaberá_Itaberá_Ourinhos" }, "geometry": { "type": "Point", "coordinates": [ -49.1383917, -23.8638634 ] } },
{ "type": "Feature", "properties": { "fid": 99785, "CNPJ": "17585920000111", "IDCIDADE": "ITABERA", "NOMEFANTASIA": "PADARIA_PAO_&_DOCE", "RAZAOSOCIAL": "MARIA_NEUSA_DE_OLIVEIRA_XAVIER", "ENDEE": "AVENIDA_PREFEITO_CARLOS_RODRIGUES_DOS_SANTOS336__CENTRO_18440-000", "LMAPS": "https://www.google.com/maps?q=&layer=c&cbll=-23.8642706,-49.139838", "O_QUE_FAZER": "CARTEIRA", "ER_REGIAO_CIDADE_min": "Itaberá_Itaberá_Ourinhos" }, "geometry": { "type": "Point", "coordinates": [ -49.139838, -23.8642706 ] } },
{ "type": "Feature", "properties": { "fid": 105425, "CNPJ": "18727840000116", "IDCIDADE": "ITABERA", "NOMEFANTASIA": "ITABERA_MULTIMARCAS", "RAZAOSOCIAL": "NILTON_APARECIDO_DA_COSTA", "ENDEE": "RUA_CORONEL_JOSE_PEDRO_DE_LIMA220__CENTRO_18440-000", "LMAPS": "https://www.google.com/maps?q=&layer=c&cbll=-23.860813,-49.1377785", "O_QUE_FAZER": "CARTEIRA", "ER_REGIAO_CIDADE_min": "Itaberá_Itaberá_Ourinhos" }, "geometry": { "type": "Point", "coordinates": [ -49.1377785, -23.860813 ] } },
{ "type": "Feature", "properties": { "fid": 107487, "CNPJ": "19164913000171", "IDCIDADE": "ITABERA", "NOMEFANTASIA": "-", "RAZAOSOCIAL": "19.164.913_CIRSO_ANTUNES", "ENDEE": "AREA RURAL, SN, AREA RURAL DE ITABERA, 18449-899, ITABERÁ, SP, BRASIL", "LMAPS": "https://www.google.com/maps?q=&layer=c&cbll=-23.8621607,-49.136532", "O_QUE_FAZER": "CARTEIRA - FAMPE", "ER_REGIAO_CIDADE_min": "Itaberá_Itaberá_Ourinhos" }, "geometry": { "type": "Point", "coordinates": [ -49.136532, -23.8621607 ] } },
{ "type": "Feature", "properties": { "fid": 110962, "CNPJ": "19965053000256", "IDCIDADE": "ITABERA", "NOMEFANTASIA": "JUNITEX", "RAZAOSOCIAL": "F_S_V_COMERCIO_E_SERVICOS_ADMINISTRATIVOS_LTDA", "ENDEE": "RUA_CORONEL_JOSE_PEDRO_DE_LIMA305__CENTRO_18440-000", "LMAPS": "https://www.google.com/maps?q=&layer=c&cbll=-23.8613892,-49.1369364", "O_QUE_FAZER": "CARTEIRA", "ER_REGIAO_CIDADE_min": "Itaberá_Itaberá_Ourinhos" }, "geometry": { "type": "Point", "coordinates": [ -49.1369364, -23.8613892 ] } },
{ "type": "Feature", "properties": { "fid": 111634, "CNPJ": "20114264000183", "IDCIDADE": "ITABERA", "NOMEFANTASIA": "CHEFF_CAFE_SABORES", "RAZAOSOCIAL": "CHEFF_CAFE_RESTAURANTE_ITABERA_LTDA", "ENDEE": "RUA_CORONEL_AMANTINO530__CENTRO_18440-000", "LMAPS": "https://www.google.com/maps?q=&layer=c&cbll=-23.8627816,-49.1389381", "O_QUE_FAZER": "CARTEIRA - FAMPE", "ER_REGIAO_CIDADE_min": "Itaberá_Itaberá_Ourinhos" }, "geometry": { "type": "Point", "coordinates": [ -49.1389381, -23.8627816 ] } },
{ "type": "Feature", "properties": { "fid": 112351, "CNPJ": "20276935000102", "IDCIDADE": "ITABERA", "NOMEFANTASIA": "OFICINA_POR_DO_SOL", "RAZAOSOCIAL": "SANTINA_CORREIA_MARCELO", "ENDEE": "RODOVIA_EDUARDO_SAIGH0__RURAL_QUARENTEI_18440-000", "LMAPS": "https://www.google.com/maps?q=&layer=c&cbll=-23.8546179,-49.1493095", "O_QUE_FAZER": "CARTEIRA", "ER_REGIAO_CIDADE_min": "Itaberá_Itaberá_Ourinhos" }, "geometry": { "type": "Point", "coordinates": [ -49.1493095, -23.8546179 ] } },
{ "type": "Feature", "properties": { "fid": 113851, "CNPJ": "20619368000140", "IDCIDADE": "ITABERA", "NOMEFANTASIA": "SERGIO_GARCIA_CONTABILIDADE", "RAZAOSOCIAL": "SERGIO_PEREIRA_GARCIA", "ENDEE": "ALAMEDA FRANCISCO ESTEVES, 119, SUBSL ., CENTRO, 18440-012, ITABERÁ, SP, BRASIL", "LMAPS": "https://www.google.com/maps?q=&layer=c&cbll=-23.8621198,-49.1335172", "O_QUE_FAZER": "CARTEIRA - FAMPE", "ER_REGIAO_CIDADE_min": "Itaberá_Itaberá_Ourinhos" }, "geometry": { "type": "Point", "coordinates": [ -49.1335172, -23.8621198 ] } },
{ "type": "Feature", "properties": { "fid": 115646, "CNPJ": "21036662000191", "IDCIDADE": "ITABERA", "NOMEFANTASIA": null, "RAZAOSOCIAL": "HIVANDRO_ALEXANDRE_NOGUEIRA", "ENDEE": "RUA SAO JUDAS TADEU, 45, RESIDENCIAL CANADA, 18443-126, ITABERÁ, SP, BRASIL", "LMAPS": "https://www.google.com/maps?q=&layer=c&cbll=-23.8588946,-49.1530148", "O_QUE_FAZER": "CARTEIRA - FAMPE", "ER_REGIAO_CIDADE_min": "Itaberá_Itaberá_Ourinhos" }, "geometry": { "type": "Point", "coordinates": [ -49.1530148, -23.8588946 ] } },
{ "type": "Feature", "properties": { "fid": 116183, "CNPJ": "21151095000114", "IDCIDADE": "ITABERA", "NOMEFANTASIA": "MERCADO_BOM_JESUS", "RAZAOSOCIAL": "ANNE_GRACIELLA_DOS_SANTOS_FERRAZ_28930419810", "ENDEE": "RUA FRANCISCO ANTONIO DA SILVA, 504, VILA DOM SILVIO, 18440-000, ITABERÁ, SP, BRASIL", "LMAPS": "https://www.google.com/maps?q=&layer=c&cbll=-23.8675067,-49.140906", "O_QUE_FAZER": "CARTEIRA - FAMPE", "ER_REGIAO_CIDADE_min": "Itaberá_Itaberá_Ourinhos" }, "geometry": { "type": "Point", "coordinates": [ -49.140906, -23.8675067 ] } },
{ "type": "Feature", "properties": { "fid": 118620, "CNPJ": "21698911000104", "IDCIDADE": "ITABERA", "NOMEFANTASIA": "OTICA_MARIANA", "RAZAOSOCIAL": "VIVIANE_CONCEICAO_FERREIRA", "ENDEE": "RUA_CORONEL_AMANTINO376__CENTRO_18440-000", "LMAPS": "https://www.google.com/maps?q=&layer=c&cbll=-23.8620394,-49.1378579", "O_QUE_FAZER": "CARTEIRA", "ER_REGIAO_CIDADE_min": "Itaberá_Itaberá_Ourinhos" }, "geometry": { "type": "Point", "coordinates": [ -49.1378579, -23.8620394 ] } },
{ "type": "Feature", "properties": { "fid": 119899, "CNPJ": "21970020000165", "IDCIDADE": "ITABERA", "NOMEFANTASIA": "MERCADO_SANTA_INES", "RAZAOSOCIAL": "BENITO_RAFAEL_DE_OLIVEIRA", "ENDEE": "AVENIDA_JOAO_SIMON_SOLA5__JARDIM_SANTA_INES_I_18440-000", "LMAPS": "https://www.google.com/maps?q=&layer=c&cbll=-23.8571476,-49.1507167", "O_QUE_FAZER": "CARTEIRA", "ER_REGIAO_CIDADE_min": "Itaberá_Itaberá_Ourinhos" }, "geometry": { "type": "Point", "coordinates": [ -49.1507167, -23.8571476 ] } },
{ "type": "Feature", "properties": { "fid": 125402, "CNPJ": "23123648000150", "IDCIDADE": "ITABERA", "NOMEFANTASIA": "LIMA_GAS", "RAZAOSOCIAL": "DANILO_ALVES_DE_LIMA_OLIVEIRA", "ENDEE": "RUA_PREFEITO_ALFREDO_DE_OLIVEIRA105__JARDIM_SANTA_INES_18440-000", "LMAPS": "https://www.google.com/maps?q=&layer=c&cbll=-23.8579467,-49.1525914", "O_QUE_FAZER": "CARTEIRA", "ER_REGIAO_CIDADE_min": "Itaberá_Itaberá_Ourinhos" }, "geometry": { "type": "Point", "coordinates": [ -49.1525914, -23.8579467 ] } },
{ "type": "Feature", "properties": { "fid": 132955, "CNPJ": "24690831000109", "IDCIDADE": "ITABERA", "NOMEFANTASIA": "PONTO_FORTE_ELETRICA_E_SERVICOS", "RAZAOSOCIAL": "PONTO_FORTE_ELETRICA_E_SERVICOS_LTDA", "ENDEE": "RUA_CORONEL_JOSE_PEDRO_DE_LIMA165__CENTRO_18440-000", "LMAPS": "https://www.google.com/maps?q=&layer=c&cbll=-23.8601859,-49.1379503", "O_QUE_FAZER": "CARTEIRA", "ER_REGIAO_CIDADE_min": "Itaberá_Itaberá_Ourinhos" }, "geometry": { "type": "Point", "coordinates": [ -49.1379503, -23.8601859 ] } },
{ "type": "Feature", "properties": { "fid": 134743, "CNPJ": "25037173000105", "IDCIDADE": "ITABERA", "NOMEFANTASIA": "ATACADO_MATOCHECK", "RAZAOSOCIAL": "COMERCIO_ATACADISTA_E_VAREJISTA_DE_CARNES_MATOCHEK_LTDA", "ENDEE": "RODOVIA SP 249, KM 03, SENTIDO ITABERA A ITAPEVA LOTE 07, DISTRITO INDUSTRIAL, 18440-000, ITABERÁ, SP, BRASIL", "LMAPS": "https://www.google.com/maps?q=&layer=c&cbll=-23.8660379,-49.1382788", "O_QUE_FAZER": "CARTEIRA - FAMPE", "ER_REGIAO_CIDADE_min": "Itaberá_Itaberá_Ourinhos" }, "geometry": { "type": "Point", "coordinates": [ -49.1382788, -23.8660379 ] } },
{ "type": "Feature", "properties": { "fid": 136611, "CNPJ": "25447284000190", "IDCIDADE": "ITABERA", "NOMEFANTASIA": "-", "RAZAOSOCIAL": "25.447.284_VALDERI_MACHADO", "ENDEE": "AREA RURAL, SN, AREA RURAL DE ITABERA, 18449-899, ITABERÁ, SP, BRASIL", "LMAPS": "https://www.google.com/maps?q=&layer=c&cbll=-23.8621607,-49.136532", "O_QUE_FAZER": "CARTEIRA - FAMPE", "ER_REGIAO_CIDADE_min": "Itaberá_Itaberá_Ourinhos" }, "geometry": { "type": "Point", "coordinates": [ -49.136532, -23.8621607 ] } },
{ "type": "Feature", "properties": { "fid": 136903, "CNPJ": "25999860000101", "IDCIDADE": "ITABERA", "NOMEFANTASIA": "-", "RAZAOSOCIAL": "25.999.860_ANGELA_MARIA_FORTALEZA_DE_SOUZA", "ENDEE": "RUA SANTA CATARINA, 515, VILA DOM SILVIO, 18440-000, ITABERÁ, SP, BRASIL", "LMAPS": "https://www.google.com/maps?q=&layer=c&cbll=-23.8682382,-49.1389742", "O_QUE_FAZER": "CARTEIRA - FAMPE", "ER_REGIAO_CIDADE_min": "Itaberá_Itaberá_Ourinhos" }, "geometry": { "type": "Point", "coordinates": [ -49.1389742, -23.8682382 ] } },
{ "type": "Feature", "properties": { "fid": 142082, "CNPJ": "26994568000169", "IDCIDADE": "ITABERA", "NOMEFANTASIA": "LUCIENE_APARECIDA_NUNES_GONCALVES_14416732880", "RAZAOSOCIAL": "RBL_TRANSPORTES", "ENDEE": "RUA_7129__CHACARA_SANTA_ELISA_18440-000", "LMAPS": "https://www.google.com/maps?q=&layer=c&cbll=-23.8581657,-49.1534254", "O_QUE_FAZER": "FINALIZADO", "ER_REGIAO_CIDADE_min": "Itaberá_Itaberá_Ourinhos" }, "geometry": { "type": "Point", "coordinates": [ -49.1534254, -23.8581657 ] } },
{ "type": "Feature", "properties": { "fid": 143686, "CNPJ": "27320279000147", "IDCIDADE": "ITABERA", "NOMEFANTASIA": "ENGGEO_ENGENHARIA_&_MEIO_AMBIENTE", "RAZAOSOCIAL": "RODNEY_BOZOKI_DE_BRITO", "ENDEE": "AVENIDA_PREFEITO_CARLOS_RODRIGUES_DOS_SANTOS102__CENTRO_18440-000", "LMAPS": "https://www.google.com/maps?q=&layer=c&cbll=-23.8630472,-49.1380708", "O_QUE_FAZER": "CARTEIRA", "ER_REGIAO_CIDADE_min": "Itaberá_Itaberá_Ourinhos" }, "geometry": { "type": "Point", "coordinates": [ -49.1380708, -23.8630472 ] } },
{ "type": "Feature", "properties": { "fid": 143845, "CNPJ": "27350711000142", "IDCIDADE": "ITABERA", "NOMEFANTASIA": "MOVELARIA_FERREIRA", "RAZAOSOCIAL": "KAE_FELLIPE_RODRIGUES", "ENDEE": "RUA_JOAQUIM_CAETANO_DA_ROSA313__JARDIM_CAROLINA_18440-000", "LMAPS": "https://www.google.com/maps?q=&layer=c&cbll=-23.8562126,-49.1432118", "O_QUE_FAZER": "CARTEIRA", "ER_REGIAO_CIDADE_min": "Itaberá_Itaberá_Ourinhos" }, "geometry": { "type": "Point", "coordinates": [ -49.1432118, -23.8562126 ] } },
{ "type": "Feature", "properties": { "fid": 145750, "CNPJ": "27702756000139", "IDCIDADE": "ITABERA", "NOMEFANTASIA": "EMPORIO_CAFE_COM_FLOR", "RAZAOSOCIAL": "LEANDRO_ALES_DOS_SANTOS", "ENDEE": "PRACA_AMADOR_PEREIRA_DE_ALMEIDA248__CENTRO_18440-000", "LMAPS": "https://www.google.com/maps?q=&layer=c&cbll=-23.8625404,-49.1368567", "O_QUE_FAZER": "CARTEIRA", "ER_REGIAO_CIDADE_min": "Itaberá_Itaberá_Ourinhos" }, "geometry": { "type": "Point", "coordinates": [ -49.1368567, -23.8625404 ] } },
{ "type": "Feature", "properties": { "fid": 145859, "CNPJ": "27729073000175", "IDCIDADE": "ITABERA", "NOMEFANTASIA": "MARIA_BONITA", "RAZAOSOCIAL": "ALESSANDRA_FRANCIELE_DA_SILVEIRA", "ENDEE": "RUA_CORONEL_ACACIO_PIEDADE415__CENTRO_18440-000", "LMAPS": "https://www.google.com/maps?q=&layer=c&cbll=-23.8627994,-49.1368897", "O_QUE_FAZER": "CARTEIRA", "ER_REGIAO_CIDADE_min": "Itaberá_Itaberá_Ourinhos" }, "geometry": { "type": "Point", "coordinates": [ -49.1368897, -23.8627994 ] } },
{ "type": "Feature", "properties": { "fid": 155437, "CNPJ": "29554533000105", "IDCIDADE": "ITABERA", "NOMEFANTASIA": "DROGARIA_DOM_FARMA", "RAZAOSOCIAL": "JESSICA_RODRIGUES_CARDOSO", "ENDEE": "AVENIDA_JOAO_SIMON_SOLA1735__CENTRO_18440-000", "LMAPS": "https://www.google.com/maps?q=&layer=c&cbll=-23.865307,-49.1400679", "O_QUE_FAZER": "CARTEIRA", "ER_REGIAO_CIDADE_min": "Itaberá_Itaberá_Ourinhos" }, "geometry": { "type": "Point", "coordinates": [ -49.1400679, -23.865307 ] } },
{ "type": "Feature", "properties": { "fid": 163782, "CNPJ": "31146117000101", "IDCIDADE": "ITABERA", "NOMEFANTASIA": "SCHIMIDT", "RAZAOSOCIAL": "CIRO_SCHIMIDT_DE_LIMA_NETO", "ENDEE": "RUA_CORONEL_ACACIO_PIEDADE267__CENTRO_18440-000", "LMAPS": "https://www.google.com/maps?q=&layer=c&cbll=-23.8616225,-49.1379016", "O_QUE_FAZER": "CARTEIRA", "ER_REGIAO_CIDADE_min": "Itaberá_Itaberá_Ourinhos" }, "geometry": { "type": "Point", "coordinates": [ -49.1379016, -23.8616225 ] } },
{ "type": "Feature", "properties": { "fid": 166530, "CNPJ": "31712548000198", "IDCIDADE": "ITABERA", "NOMEFANTASIA": "DROGARIA_ESTRELA", "RAZAOSOCIAL": "DROGARIA_ESTRELA_ITABERA_LTDA", "ENDEE": "AVENIDA_PREFEITO_CARLOS_RODRIGUES_DOS_SANTOS103__CENTRO_18440-000", "LMAPS": "https://www.google.com/maps?q=&layer=c&cbll=-23.8632422,-49.1381097", "O_QUE_FAZER": "CARTEIRA", "ER_REGIAO_CIDADE_min": "Itaberá_Itaberá_Ourinhos" }, "geometry": { "type": "Point", "coordinates": [ -49.1381097, -23.8632422 ] } },
{ "type": "Feature", "properties": { "fid": 168405, "CNPJ": "32095660000190", "IDCIDADE": "ITABERA", "NOMEFANTASIA": "TOP_PARABRISAS", "RAZAOSOCIAL": "TOP_PARABRISAS_-_COMERCIO_DE_AUTO_VIDROS_E_ACESSORIOS_PARA_VEICULOS_LTDA", "ENDEE": "AVENIDA SERVILHANO SILVA, 295, VILA BANDEIRANTES, 18440-000, ITABERÁ, SP, BRASIL", "LMAPS": "https://www.google.com/maps?q=&layer=c&cbll=-23.8621607,-49.136532", "O_QUE_FAZER": "CARTEIRA - FAMPE", "ER_REGIAO_CIDADE_min": "Itaberá_Itaberá_Ourinhos" }, "geometry": { "type": "Point", "coordinates": [ -49.136532, -23.8621607 ] } },
{ "type": "Feature", "properties": { "fid": 172332, "CNPJ": "32927015000196", "IDCIDADE": "ITABERA", "NOMEFANTASIA": "PALADAR_RESTAURANTE", "RAZAOSOCIAL": "ALEKSANDRA_CRISTINE_DA_SILVA", "ENDEE": "RUA_CORONEL_JOSE_PEDRO_DE_LIMA32__CENTRO_18440-000", "LMAPS": "https://www.google.com/maps?q=&layer=c&cbll=-23.8619388,-49.1366347", "O_QUE_FAZER": "CARTEIRA", "ER_REGIAO_CIDADE_min": "Itaberá_Itaberá_Ourinhos" }, "geometry": { "type": "Point", "coordinates": [ -49.1366347, -23.8619388 ] } },
{ "type": "Feature", "properties": { "fid": 172629, "CNPJ": "32989298000109", "IDCIDADE": "ITABERA", "NOMEFANTASIA": "ACADEMIA_EVOLVTION", "RAZAOSOCIAL": "EVOLVTION_D.C_LTDA", "ENDEE": "RUA_QUINZE_DE_NOVEMBRO490__CENTRO_18440-000", "LMAPS": "https://www.google.com/maps?q=&layer=c&cbll=-23.8624517,-49.1401717", "O_QUE_FAZER": "CARTEIRA", "ER_REGIAO_CIDADE_min": "Itaberá_Itaberá_Ourinhos" }, "geometry": { "type": "Point", "coordinates": [ -49.1401717, -23.8624517 ] } },
{ "type": "Feature", "properties": { "fid": 176965, "CNPJ": "33795599000156", "IDCIDADE": "ITABERA", "NOMEFANTASIA": "NGT_COMERCIO_E_SERVICOS", "RAZAOSOCIAL": "LUAN_DE_FREITAS_PINHEIRO_NAGATA", "ENDEE": "RUA JOSIAS CARDOSO, 14, CENTRO, 18440-000, ITABERÁ, SP, BRASIL", "LMAPS": "https://www.google.com/maps?q=&layer=c&cbll=-23.8621198,-49.1335172", "O_QUE_FAZER": "CARTEIRA - FAMPE", "ER_REGIAO_CIDADE_min": "Itaberá_Itaberá_Ourinhos" }, "geometry": { "type": "Point", "coordinates": [ -49.1335172, -23.8621198 ] } },
{ "type": "Feature", "properties": { "fid": 182440, "CNPJ": "34864486000128", "IDCIDADE": "ITABERA", "NOMEFANTASIA": "QUALY_VIDROS", "RAZAOSOCIAL": "QUALY_VIDROS_&_DECORACOES_LTDA", "ENDEE": "RUA_JOSE_PEREIRA_DE_FREITAS211__JARDIM_ESPANHA_III_18440-000", "LMAPS": "https://www.google.com/maps?q=&layer=c&cbll=-23.8624435,-49.1436796", "O_QUE_FAZER": "CARTEIRA", "ER_REGIAO_CIDADE_min": "Itaberá_Itaberá_Ourinhos" }, "geometry": { "type": "Point", "coordinates": [ -49.1436796, -23.8624435 ] } },
{ "type": "Feature", "properties": { "fid": 183535, "CNPJ": "35082273000107", "IDCIDADE": "ITABERA", "NOMEFANTASIA": "MINIMERCADO_SAO_JUDAS_TADEU", "RAZAOSOCIAL": "MINIMERCADO_SAO_JUDAS_TADEU_LTDA", "ENDEE": "RUA DOMINGOS JORGE VELHO, 102, VILA BANDEIRANTES, 18440-000, ITABERÁ, SP, BRASIL", "LMAPS": "https://www.google.com/maps?q=&layer=c&cbll=-23.8621607,-49.136532", "O_QUE_FAZER": "CARTEIRA - FAMPE", "ER_REGIAO_CIDADE_min": "Itaberá_Itaberá_Ourinhos" }, "geometry": { "type": "Point", "coordinates": [ -49.136532, -23.8621607 ] } },
{ "type": "Feature", "properties": { "fid": 184911, "CNPJ": "35414601000125", "IDCIDADE": "ITABERA", "NOMEFANTASIA": "-", "RAZAOSOCIAL": "35.414.601_LUCAS_JOSE_DINIZ_FERREIRA", "ENDEE": "RUA ELEOTERIO RODRIGUES DE LIMA, 180, CONJ HAB ITABERA F, 18440-000, ITABERÁ, SP, BRASIL", "LMAPS": "https://www.google.com/maps?q=&layer=c&cbll=-23.8579114,-49.1398329", "O_QUE_FAZER": "CARTEIRA - FAMPE", "ER_REGIAO_CIDADE_min": "Itaberá_Itaberá_Ourinhos" }, "geometry": { "type": "Point", "coordinates": [ -49.1398329, -23.8579114 ] } },
{ "type": "Feature", "properties": { "fid": 187752, "CNPJ": "36029008000128", "IDCIDADE": "ITABERA", "NOMEFANTASIA": "-", "RAZAOSOCIAL": "36.029.008_ANA_JULIA_NUNES_DE_OLIVEIRA", "ENDEE": "RUA CORONEL AMANTINO, 158, CENTRO, 18440-031, ITABERÁ, SP, BRASIL", "LMAPS": "https://www.google.com/maps?q=&layer=c&cbll=-23.8638789,-49.1400111", "O_QUE_FAZER": "CARTEIRA - FAMPE", "ER_REGIAO_CIDADE_min": "Itaberá_Itaberá_Ourinhos" }, "geometry": { "type": "Point", "coordinates": [ -49.1400111, -23.8638789 ] } },
{ "type": "Feature", "properties": { "fid": 198258, "CNPJ": "38292891000170", "IDCIDADE": "ITABERA", "NOMEFANTASIA": "RESTAURANTE_DONA_VANDA", "RAZAOSOCIAL": "LUIZ_CARLOS_FERREIRA_DA_ROSA", "ENDEE": "RODOVIA_EDUARDO_SAIGH0__RIBEIRAO_BONITO_18440-000", "LMAPS": "https://www.google.com/maps?q=&layer=c&cbll=-23.8552983,-49.1504233", "O_QUE_FAZER": "CARTEIRA - FAMPE", "ER_REGIAO_CIDADE_min": "Itaberá_Itaberá_Ourinhos" }, "geometry": { "type": "Point", "coordinates": [ -49.1504233, -23.8552983 ] } },
{ "type": "Feature", "properties": { "fid": 205821, "CNPJ": "40495524000115", "IDCIDADE": "ITABERA", "NOMEFANTASIA": "MERCADO_E_ACOUGUE_CENTRAL", "RAZAOSOCIAL": "CARLOS_AUGUSTO_NOBREGA_MINIMERCADO", "ENDEE": "RUA_CORONEL_ACACIO_PIEDADE466__CENTRO_18440-000", "LMAPS": "https://www.google.com/maps?q=&layer=c&cbll=-23.8630489,-49.1368098", "O_QUE_FAZER": "CARTEIRA", "ER_REGIAO_CIDADE_min": "Itaberá_Itaberá_Ourinhos" }, "geometry": { "type": "Point", "coordinates": [ -49.1368098, -23.8630489 ] } },
{ "type": "Feature", "properties": { "fid": 207170, "CNPJ": "40853479000123", "IDCIDADE": "ITABERA", "NOMEFANTASIA": "MERCADINHO_CONFIANCA", "RAZAOSOCIAL": "MINIMERCADO_CONFIANCA_DE_ITABERA_LTDA", "ENDEE": "RUA_JOSE_PEREIRA_DE_FREITAS251__JARDIM_ESPANHA_III_18440-000", "LMAPS": "https://www.google.com/maps?q=&layer=c&cbll=-23.8626633,-49.1439483", "O_QUE_FAZER": "CARTEIRA", "ER_REGIAO_CIDADE_min": "Itaberá_Itaberá_Ourinhos" }, "geometry": { "type": "Point", "coordinates": [ -49.1439483, -23.8626633 ] } },
{ "type": "Feature", "properties": { "fid": 213332, "CNPJ": "42349231000155", "IDCIDADE": "ITABERA", "NOMEFANTASIA": "-", "RAZAOSOCIAL": "42.349.231_FABIANA_APARECIDA_DE_ALMEIDA", "ENDEE": "RUA BRAS CUBAS, 36, VILA BANDEIRANTES, 18440-064, ITABERÁ, SP, BRASIL", "LMAPS": "https://www.google.com/maps?q=&layer=c&cbll=-23.8621607,-49.136532", "O_QUE_FAZER": "CARTEIRA - FAMPE", "ER_REGIAO_CIDADE_min": "Itaberá_Itaberá_Ourinhos" }, "geometry": { "type": "Point", "coordinates": [ -49.136532, -23.8621607 ] } },
{ "type": "Feature", "properties": { "fid": 213974, "CNPJ": "42493068000108", "IDCIDADE": "ITABERA", "NOMEFANTASIA": "DROGARIA_CANADA", "RAZAOSOCIAL": "DROGARIA_E_PERFUMARIA_CANADA_DE_ITABERA_LTDA", "ENDEE": "RUA_JOSE_CILICO_GONCALVES63__RESIDENCIAL_CANADA_18440-000", "LMAPS": "https://www.google.com/maps?q=&layer=c&cbll=-23.8589546,-49.1527327", "O_QUE_FAZER": "CARTEIRA - FAMPE", "ER_REGIAO_CIDADE_min": "Itaberá_Itaberá_Ourinhos" }, "geometry": { "type": "Point", "coordinates": [ -49.1527327, -23.8589546 ] } },
{ "type": "Feature", "properties": { "fid": 220871, "CNPJ": "43935888000167", "IDCIDADE": "ITABERA", "NOMEFANTASIA": null, "RAZAOSOCIAL": "PATRICIA_APARECIDA_CARDOSO_DE_LIMA_37027337878", "ENDEE": "RUA RUA AGROVILA 3, 153, AGROVILA 3, 18440-000, ITABERÁ, SP, BRASIL", "LMAPS": "https://www.google.com/maps?q=&layer=c&cbll=-23.8621607,-49.136532", "O_QUE_FAZER": "CARTEIRA - FAMPE", "ER_REGIAO_CIDADE_min": "Itaberá_Itaberá_Ourinhos" }, "geometry": { "type": "Point", "coordinates": [ -49.136532, -23.8621607 ] } },
{ "type": "Feature", "properties": { "fid": 223218, "CNPJ": "44411633000168", "IDCIDADE": "ITABERA", "NOMEFANTASIA": "GAS_+", "RAZAOSOCIAL": "THAIS_LEME_DE_MORAIS_MACEDO", "ENDEE": "RUA_SETE_DE_SETEMBRO480__CENTRO_18440-000", "LMAPS": "https://www.google.com/maps?q=&layer=c&cbll=-23.8626433,-49.1422517", "O_QUE_FAZER": "CARTEIRA", "ER_REGIAO_CIDADE_min": "Itaberá_Itaberá_Ourinhos" }, "geometry": { "type": "Point", "coordinates": [ -49.1422517, -23.8626433 ] } },
{ "type": "Feature", "properties": { "fid": 223795, "CNPJ": "44535913000188", "IDCIDADE": "ITABERA", "NOMEFANTASIA": "CANADA_MERCADO_E_ACOUGUE", "RAZAOSOCIAL": "MINIMERCADO_NUNES_ITABERA_LTDA", "ENDEE": "RUA_JOANA_FRANCISCA_SIMON_SOLA44__RESIDENCIAL_CANADA_18440-000", "LMAPS": "https://www.google.com/maps?q=&layer=c&cbll=-23.8571817,-49.1558567", "O_QUE_FAZER": "CARTEIRA", "ER_REGIAO_CIDADE_min": "Itaberá_Itaberá_Ourinhos" }, "geometry": { "type": "Point", "coordinates": [ -49.1558567, -23.8571817 ] } },
{ "type": "Feature", "properties": { "fid": 223972, "CNPJ": "44570617000118", "IDCIDADE": "ITABERA", "NOMEFANTASIA": "QUALIS_IMPLANTES", "RAZAOSOCIAL": "QUALIS_ITABERA_SERVICOS_ODONTOLOGICOS_LTDA", "ENDEE": "RUA_TREZE_DE_MAIO266__CENTRO_18440-000", "LMAPS": "https://www.google.com/maps?q=&layer=c&cbll=-23.8639633,-49.13784", "O_QUE_FAZER": "CARTEIRA", "ER_REGIAO_CIDADE_min": "Itaberá_Itaberá_Ourinhos" }, "geometry": { "type": "Point", "coordinates": [ -49.13784, -23.8639633 ] } },
{ "type": "Feature", "properties": { "fid": 226081, "CNPJ": "45033886000108", "IDCIDADE": "ITABERA", "NOMEFANTASIA": "GRUPO_CONFORTO_FUNERARIA", "RAZAOSOCIAL": "FUNERARIA_CONFORTO_LTDA", "ENDEE": "RUA_JOSEPHINA_SILVA_MELLO433__CENTRO_18440-000", "LMAPS": "https://www.google.com/maps?q=&layer=c&cbll=-23.8636782,-49.13748", "O_QUE_FAZER": "CARTEIRA - FAMPE", "ER_REGIAO_CIDADE_min": "Itaberá_Itaberá_Ourinhos" }, "geometry": { "type": "Point", "coordinates": [ -49.13748, -23.8636782 ] } },
{ "type": "Feature", "properties": { "fid": 226887, "CNPJ": "45219799000140", "IDCIDADE": "ITABERA", "NOMEFANTASIA": "-", "RAZAOSOCIAL": "45.219.799_LUCAN_GUTIERES_CARDOSO_SILVA", "ENDEE": "RUA PAULINO LOBO DE FREITAS, 07, RESIDENCIAL CANADA, 18440-000, ITABERÁ, SP, BRASIL", "LMAPS": "https://www.google.com/maps?q=&layer=c&cbll=-23.8577276,-49.1546243", "O_QUE_FAZER": "CARTEIRA - FAMPE", "ER_REGIAO_CIDADE_min": "Itaberá_Itaberá_Ourinhos" }, "geometry": { "type": "Point", "coordinates": [ -49.1546243, -23.8577276 ] } },
{ "type": "Feature", "properties": { "fid": 228771, "CNPJ": "45640028000121", "IDCIDADE": "ITABERA", "NOMEFANTASIA": "CASA_DE_CARNES_FORTES", "RAZAOSOCIAL": "DANILO_AUGUSTO_GONCALVES", "ENDEE": "RUA_JACOMO_FALSARELA84__JARDIM_SANTA_INES_I_18440-000", "LMAPS": "https://www.google.com/maps?q=&layer=c&cbll=-23.8579803,-49.1505721", "O_QUE_FAZER": "CARTEIRA", "ER_REGIAO_CIDADE_min": "Itaberá_Itaberá_Ourinhos" }, "geometry": { "type": "Point", "coordinates": [ -49.1505721, -23.8579803 ] } },
{ "type": "Feature", "properties": { "fid": 229346, "CNPJ": "45752211000119", "IDCIDADE": "ITABERA", "NOMEFANTASIA": null, "RAZAOSOCIAL": "ANDERSON_DE_OLIVEIRA_SANTOS_39296085888", "ENDEE": "RUA SANTO ANTONIO, 20, VILA CRUZEIRO, 18440-000, ITABERÁ, SP, BRASIL", "LMAPS": "https://www.google.com/maps?q=&layer=c&cbll=-23.8577849,-49.1387712", "O_QUE_FAZER": "CARTEIRA - FAMPE", "ER_REGIAO_CIDADE_min": "Itaberá_Itaberá_Ourinhos" }, "geometry": { "type": "Point", "coordinates": [ -49.1387712, -23.8577849 ] } },
{ "type": "Feature", "properties": { "fid": 230636, "CNPJ": "45997828000102", "IDCIDADE": "ITABERA", "NOMEFANTASIA": "ADEGA_GOLD_BEER", "RAZAOSOCIAL": "GOLD_BEER_ADEGA_ITABERA_LTDA", "ENDEE": "RUA_CORONEL_JOSE_PEDRO_DE_LIMA50__CENTRO_18440-000", "LMAPS": "https://www.google.com/maps?q=&layer=c&cbll=-23.8573521,-49.1406799", "O_QUE_FAZER": "CARTEIRA - FAMPE", "ER_REGIAO_CIDADE_min": "Itaberá_Itaberá_Ourinhos" }, "geometry": { "type": "Point", "coordinates": [ -49.1406799, -23.8573521 ] } },
{ "type": "Feature", "properties": { "fid": 236439, "CNPJ": "47167702000128", "IDCIDADE": "ITABERA", "NOMEFANTASIA": null, "RAZAOSOCIAL": "GEAN_MAIKON_FLORENTINO_39888508881", "ENDEE": "RUA MOYSES OLIMPIO DE FREITAS, 347, JARDIM CAROLINA, 18440-000, ITABERÁ, SP, BRASIL", "LMAPS": "https://www.google.com/maps?q=&layer=c&cbll=-23.858802,-49.1449855", "O_QUE_FAZER": "CARTEIRA - FAMPE", "ER_REGIAO_CIDADE_min": "Itaberá_Itaberá_Ourinhos" }, "geometry": { "type": "Point", "coordinates": [ -49.1449855, -23.858802 ] } },
{ "type": "Feature", "properties": { "fid": 242571, "CNPJ": "48428782000190", "IDCIDADE": "ITABERA", "NOMEFANTASIA": "-", "RAZAOSOCIAL": "48.428.782_JOICE_GONCALVES_MONTEIRO", "ENDEE": "RUA FRANCISCO ANTONIO DA SILVA, 474, LOJA, CENTRO, 18440-007, ITABERÁ, SP, BRASIL", "LMAPS": "https://www.google.com/maps?q=&layer=c&cbll=-23.8634872,-49.1396901", "O_QUE_FAZER": "CARTEIRA - FAMPE", "ER_REGIAO_CIDADE_min": "Itaberá_Itaberá_Ourinhos" }, "geometry": { "type": "Point", "coordinates": [ -49.1396901, -23.8634872 ] } },
{ "type": "Feature", "properties": { "fid": 246485, "CNPJ": "49286744000103", "IDCIDADE": "ITABERA", "NOMEFANTASIA": null, "RAZAOSOCIAL": "EURIDES_BENEDITO_GOMES", "ENDEE": "ESTRADA DISTRITO INDUSTRIAL 0LT 1 E 2 SP 249, SN, AQUINOS, 18440-000, ITABERÁ, SP, BRASIL", "LMAPS": "https://www.google.com/maps?q=&layer=c&cbll=-23.841984,-49.1616712", "O_QUE_FAZER": "CARTEIRA - FAMPE", "ER_REGIAO_CIDADE_min": "Itaberá_Itaberá_Ourinhos" }, "geometry": { "type": "Point", "coordinates": [ -49.1616712, -23.841984 ] } },
{ "type": "Feature", "properties": { "fid": 248919, "CNPJ": "49801073000171", "IDCIDADE": "ITABERA", "NOMEFANTASIA": "BMA_EMPREENDIMENTOS_LTDA", "RAZAOSOCIAL": "BMA_EMPREENDIMENTOS_LTDA_-_49.801.073/0001-71", "ENDEE": "RUA_SAO_JUDAS_TADEU3__RESIDENCIAL_CANADA_18443-126", "LMAPS": "https://www.google.com/maps?q=&layer=c&cbll=-23.8581682,-49.1534951", "O_QUE_FAZER": "FINALIZADO", "ER_REGIAO_CIDADE_min": "Itaberá_Itaberá_Ourinhos" }, "geometry": { "type": "Point", "coordinates": [ -49.1534951, -23.8581682 ] } },
{ "type": "Feature", "properties": { "fid": 250532, "CNPJ": "50098312000158", "IDCIDADE": "ITABERA", "NOMEFANTASIA": "SOPHITA_BUSSNESS_HOTEL", "RAZAOSOCIAL": "SOPHITA_BUSINESS_HOTEL_LTDA", "ENDEE": "RUA_CORONEL_JOSE_PEDRO_DE_LIMA17__CENTRO_18440-000", "LMAPS": "https://www.google.com/maps?q=&layer=c&cbll=-23.8570202,-49.1410403", "O_QUE_FAZER": "CARTEIRA", "ER_REGIAO_CIDADE_min": "Itaberá_Itaberá_Ourinhos" }, "geometry": { "type": "Point", "coordinates": [ -49.1410403, -23.8570202 ] } },
{ "type": "Feature", "properties": { "fid": 256891, "CNPJ": "51369976000177", "IDCIDADE": "ITABERA", "NOMEFANTASIA": "GARAGEM_OFICINA", "RAZAOSOCIAL": "MARIO_S._DE_SIQUEIRA", "ENDEE": "RUA_JOSE_PEREIRA_DE_FREITAS171__JARDIM_ESPANHA_III_18440-000", "LMAPS": "https://www.google.com/maps?q=&layer=c&cbll=-23.8622711,-49.1433133", "O_QUE_FAZER": "CARTEIRA", "ER_REGIAO_CIDADE_min": "Itaberá_Itaberá_Ourinhos" }, "geometry": { "type": "Point", "coordinates": [ -49.1433133, -23.8622711 ] } },
{ "type": "Feature", "properties": { "fid": 257261, "CNPJ": "51441896000185", "IDCIDADE": "ITABERA", "NOMEFANTASIA": "ARENA_DE_ESPORTES_E_ENTRETENIMENTO_NOGUEIRA", "RAZAOSOCIAL": "ARENA_DE_ESPORTES_E_ENTRETENIMENTO_NOGUEIRA_LTDA", "ENDEE": "RUA DAS HORTENCIAS,, 120, AGUA DA CRUZINHA, 18440-000, ITABERÁ, SP, BRASIL", "LMAPS": "https://www.google.com/maps?q=&layer=c&cbll=-23.8549035,-49.1566303", "O_QUE_FAZER": "CARTEIRA - FAMPE", "ER_REGIAO_CIDADE_min": "Itaberá_Itaberá_Ourinhos" }, "geometry": { "type": "Point", "coordinates": [ -49.1566303, -23.8549035 ] } },
{ "type": "Feature", "properties": { "fid": 263191, "CNPJ": "52639773000116", "IDCIDADE": "ITABERA", "NOMEFANTASIA": "JP_CONFECCOES", "RAZAOSOCIAL": "PATRICIA_DA_SILVA_ARAUJO_CONFECCOES", "ENDEE": "RUA_JOANA_FRANCISCA_SIMON_SOLA60__RESIDENCIAL_CANADA_18440-000", "LMAPS": "https://www.google.com/maps?q=&layer=c&cbll=-23.8572479,-49.1566669", "O_QUE_FAZER": "CARTEIRA - FAMPE", "ER_REGIAO_CIDADE_min": "Itaberá_Itaberá_Ourinhos" }, "geometry": { "type": "Point", "coordinates": [ -49.1566669, -23.8572479 ] } },
{ "type": "Feature", "properties": { "fid": 265183, "CNPJ": "53061146000103", "IDCIDADE": "ITABERA", "NOMEFANTASIA": "SAMANTA_ESPACO_GOURMET", "RAZAOSOCIAL": "ANDRE_LUIS_P._DE_LIMA", "ENDEE": "AVENIDA_PREFEITO_CARLOS_RODRIGUES_DOS_SANTOS339__CENTRO_18440-000", "LMAPS": "https://www.google.com/maps?q=&layer=c&cbll=-23.8645214,-49.1397936", "O_QUE_FAZER": "CARTEIRA", "ER_REGIAO_CIDADE_min": "Itaberá_Itaberá_Ourinhos" }, "geometry": { "type": "Point", "coordinates": [ -49.1397936, -23.8645214 ] } },
{ "type": "Feature", "properties": { "fid": 265743, "CNPJ": "53196120000172", "IDCIDADE": "ITABERA", "NOMEFANTASIA": "MINI_MERCADO_MORAIS", "RAZAOSOCIAL": "ELIEL_PIRES_DE_MORAIS", "ENDEE": "RUA_FRANCISCO_ANTONIO_DA_SILVA157__CENTRO_18440-000", "LMAPS": "https://www.google.com/maps?q=&layer=c&cbll=-23.8629374,-49.1400115", "O_QUE_FAZER": "CARTEIRA", "ER_REGIAO_CIDADE_min": "Itaberá_Itaberá_Ourinhos" }, "geometry": { "type": "Point", "coordinates": [ -49.1400115, -23.8629374 ] } },
{ "type": "Feature", "properties": { "fid": 268890, "CNPJ": "53938091000177", "IDCIDADE": "ITABERA", "NOMEFANTASIA": "ITAPHARMA", "RAZAOSOCIAL": "ITAPHARMA_DROGARIA_E_PERFUMARIA_DE_ITABERA_LTDA", "ENDEE": "AVENIDA_PREFEITO_CARLOS_RODRIGUES_DOS_SANTOS268__CENTRO_18440-000", "LMAPS": "https://www.google.com/maps?q=&layer=c&cbll=-23.8624099,-49.1366942", "O_QUE_FAZER": "CARTEIRA", "ER_REGIAO_CIDADE_min": "Itaberá_Itaberá_Ourinhos" }, "geometry": { "type": "Point", "coordinates": [ -49.1366942, -23.8624099 ] } },
{ "type": "Feature", "properties": { "fid": 269683, "CNPJ": "54114794000143", "IDCIDADE": "ITABERA", "NOMEFANTASIA": "COLEGIO_CARPE_DIEM_ITABERA", "RAZAOSOCIAL": "COLEGIO_EDUCARPE_ITABERA_LTDA", "ENDEE": "AVENIDA_PREFEITO_CARLOS_RODRIGUES_DOS_SANTOS160__CENTRO_18440-000", "LMAPS": "https://www.google.com/maps?q=&layer=c&cbll=-23.8632602,-49.13841", "O_QUE_FAZER": "CARTEIRA", "ER_REGIAO_CIDADE_min": "Itaberá_Itaberá_Ourinhos" }, "geometry": { "type": "Point", "coordinates": [ -49.13841, -23.8632602 ] } },
{ "type": "Feature", "properties": { "fid": 271431, "CNPJ": "54491595000154", "IDCIDADE": "ITABERA", "NOMEFANTASIA": "MINIOUTLET", "RAZAOSOCIAL": "MINI_OUTLET_ITABERA_LTDA", "ENDEE": "RUA_CORONEL_JOSE_PEDRO_DE_LIMA308__CENTRO_18440-000", "LMAPS": "https://www.google.com/maps?q=&layer=c&cbll=-23.8614868,-49.1371069", "O_QUE_FAZER": "CARTEIRA", "ER_REGIAO_CIDADE_min": "Itaberá_Itaberá_Ourinhos" }, "geometry": { "type": "Point", "coordinates": [ -49.1371069, -23.8614868 ] } },
{ "type": "Feature", "properties": { "fid": 277366, "CNPJ": "55869184000112", "IDCIDADE": "ITABERA", "NOMEFANTASIA": "MILENIUM_ACADEMIA_DE_GINASTICA_ITABERA", "RAZAOSOCIAL": "MILENIUM_ACADEMIA_DE_GINASTICA_ITABERA_LTDA", "ENDEE": "PRACA_AMADOR_PEREIRA_DE_ALMEIDA134__CENTRO_18440-000", "LMAPS": "https://www.google.com/maps?q=&layer=c&cbll=-23.861595,-49.1375027", "O_QUE_FAZER": "CARTEIRA - FAMPE", "ER_REGIAO_CIDADE_min": "Itaberá_Itaberá_Ourinhos" }, "geometry": { "type": "Point", "coordinates": [ -49.1375027, -23.861595 ] } },
{ "type": "Feature", "properties": { "fid": 289304, "CNPJ": "59706508000152", "IDCIDADE": "ITABERA", "NOMEFANTASIA": null, "RAZAOSOCIAL": "59.706.508_PEDRO_AUGUSTO_MENEGUELLI_SANTOS", "ENDEE": "RUA ANGELO VALCAZARA, 290, CENTRO, 18440-021, ITABERÁ, SP, BRASIL", "LMAPS": "https://www.google.com/maps?q=&layer=c&cbll=-23.8618695,-49.1418734", "O_QUE_FAZER": "CARTEIRA - FAMPE", "ER_REGIAO_CIDADE_min": "Itaberá_Itaberá_Ourinhos" }, "geometry": { "type": "Point", "coordinates": [ -49.1418734, -23.8618695 ] } },
{ "type": "Feature", "properties": { "fid": 290808, "CNPJ": "60192328000189", "IDCIDADE": "ITABERA", "NOMEFANTASIA": null, "RAZAOSOCIAL": "EJL_PULVERIZACOES_ITABERA_LTDA", "ENDEE": "RUA JACOMO FALSARELLA, 74, JARDIM SANTA INES I, 18443-056, ITABERÁ, SP, BRASIL", "LMAPS": "https://www.google.com/maps?q=&layer=c&cbll=-23.8537224,-49.1464757", "O_QUE_FAZER": "CARTEIRA - FAMPE", "ER_REGIAO_CIDADE_min": "Itaberá_Itaberá_Ourinhos" }, "geometry": { "type": "Point", "coordinates": [ -49.1464757, -23.8537224 ] } },
{ "type": "Feature", "properties": { "fid": 295567, "CNPJ": "61914339000198", "IDCIDADE": "ITABERA", "NOMEFANTASIA": "ITABERA_MATERIAIS_DE_CONSTRUCAO", "RAZAOSOCIAL": "ITABERA-COMERCIO_DE_MATERIAIS_PARA_CONSTRUCAO_LTDA", "ENDEE": "RUA_CORONEL_AMANTINO654__CENTRO_18440-000", "LMAPS": "https://www.google.com/maps?q=&layer=c&cbll=-23.86355,-49.1399489", "O_QUE_FAZER": "CARTEIRA", "ER_REGIAO_CIDADE_min": "Itaberá_Itaberá_Ourinhos" }, "geometry": { "type": "Point", "coordinates": [ -49.1399489, -23.86355 ] } },
{ "type": "Feature", "properties": { "fid": 303486, "CNPJ": "66044132000123", "IDCIDADE": "ITABERA", "NOMEFANTASIA": "BAR_DO_ZECA", "RAZAOSOCIAL": "BENEDITO_JOSE_ANTONIO_DE_OLIVEIRA_ITABERA", "ENDEE": "RUA_PREFEITO_ALFREDO_DE_OLIVEIRA140__JARDIM_SANTA_INES_18440-000", "LMAPS": "https://www.google.com/maps?q=&layer=c&cbll=-23.8570267,-49.1529", "O_QUE_FAZER": "CARTEIRA", "ER_REGIAO_CIDADE_min": "Itaberá_Itaberá_Ourinhos" }, "geometry": { "type": "Point", "coordinates": [ -49.1529, -23.8570267 ] } },
{ "type": "Feature", "properties": { "fid": 304570, "CNPJ": "66704075000161", "IDCIDADE": "ITABERA", "NOMEFANTASIA": null, "RAZAOSOCIAL": "66.704.075_PEDRO_HENRIQUE_MORELATO_CALDEIRONI_DE_ALMEIDA", "ENDEE": "RUA CORONEL VENANCIO, 411, CENTRO, 18440-025, ITABERÁ, SP, BRASIL", "LMAPS": "https://www.google.com/maps?q=&layer=c&cbll=-23.8628821,-49.1419024", "O_QUE_FAZER": "CARTEIRA - FAMPE", "ER_REGIAO_CIDADE_min": "Itaberá_Itaberá_Ourinhos" }, "geometry": { "type": "Point", "coordinates": [ -49.1419024, -23.8628821 ] } },
{ "type": "Feature", "properties": { "fid": 308121, "CNPJ": "68357961000191", "IDCIDADE": "ITABERA", "NOMEFANTASIA": "PAPELARIA_GL", "RAZAOSOCIAL": "PAPELARIA_G_L_LTDA", "ENDEE": "PRACA_AMADOR_PEREIRA_DE_ALMEIDA124__CENTRO_18440-000", "LMAPS": "https://www.google.com/maps?q=&layer=c&cbll=-23.8618128,-49.1374979", "O_QUE_FAZER": "CARTEIRA - FAMPE", "ER_REGIAO_CIDADE_min": "Itaberá_Itaberá_Ourinhos" }, "geometry": { "type": "Point", "coordinates": [ -49.1374979, -23.8618128 ] } },
{ "type": "Feature", "properties": { "fid": 308158, "CNPJ": "68379742000294", "IDCIDADE": "ITABERA", "NOMEFANTASIA": "FAVORYTA_MULTIMARCAS", "RAZAOSOCIAL": "JANIRA_ALVES_DE_LIMA_SILVA", "ENDEE": "RUA_CORONEL_AMANTINO472__CENTRO_18440-000", "LMAPS": "https://www.google.com/maps?q=&layer=c&cbll=-23.8625663,-49.1385176", "O_QUE_FAZER": "CARTEIRA", "ER_REGIAO_CIDADE_min": "Itaberá_Itaberá_Ourinhos" }, "geometry": { "type": "Point", "coordinates": [ -49.1385176, -23.8625663 ] } }
]
}
