{
"type": "FeatureCollection",
"name": "ER_REGIAO_CIDADE_min_Cabreúva_Jacaré_Campinas",
"crs": { "type": "name", "properties": { "name": "urn:ogc:def:crs:OGC:1.3:CRS84" } },
"xy_coordinate_resolution": 1e-15,
"features": [
{ "type": "Feature", "properties": { "CNPJ": "03642153000120", "IDCIDADE": "CABREUVA", "NOMEFANTASIA": "MARMORARIA_CABREUVA", "RAZAOSOCIAL": "MATEUS_ALAN_DA_SILVA", "ENDEE": "RUA_ANTONIO_ORTEGA440__PINHAL_13315-240", "LMAPS": "https://www.google.com/maps?q=&layer=c&cbll=-47.0959216,-23.2546151", "O_QUE_FAZER": "CARTEIRA", "ER_REGIAO_CIDADE_min": "Cabreúva_Jacaré_Campinas" }, "geometry": { "type": "Point", "coordinates": [ -47.0959216, -23.2546151 ] } },
{ "type": "Feature", "properties": { "CNPJ": "50394268000123", "IDCIDADE": "CABREUVA", "NOMEFANTASIA": "MERCADINHO_PINHAL", "RAZAOSOCIAL": "MERCADO_E_MERCEARIA_PINHAL_LTDA", "ENDEE": "RUA_DAS_PALMEIRAS82__JARDIM_DAS_PAINEIRAS_13315-270", "LMAPS": "https://www.google.com/maps?q=&layer=c&cbll=-47.0950565,-23.25627", "O_QUE_FAZER": "CARTEIRA", "ER_REGIAO_CIDADE_min": "Cabreúva_Jacaré_Campinas" }, "geometry": { "type": "Point", "coordinates": [ -47.0950565, -23.25627 ] } },
{ "type": "Feature", "properties": { "CNPJ": "28483427000107", "IDCIDADE": "CABREUVA", "NOMEFANTASIA": "GALERIA_DOS_OCULOS", "RAZAOSOCIAL": "R._B._FIRMINO_PRODUTOS_OPTICOS_LTDA", "ENDEE": "RUA_MARANHAO1003__JACARE_13315-970", "LMAPS": "https://www.google.com/maps?q=&layer=c&cbll=-47.0557865,-23.2535572", "O_QUE_FAZER": "CARTEIRA", "ER_REGIAO_CIDADE_min": "Cabreúva_Jacaré_Campinas" }, "geometry": { "type": "Point", "coordinates": [ -47.0557865, -23.2535572 ] } },
{ "type": "Feature", "properties": { "CNPJ": "03217440000193", "IDCIDADE": "CABREUVA", "NOMEFANTASIA": "CASA_BIANCA", "RAZAOSOCIAL": "KEITH_CARVALHO_&_CIA_LTDA", "ENDEE": "RUA_MARANHAO1033__JACARE_13315-970", "LMAPS": "https://www.google.com/maps?q=&layer=c&cbll=-47.055711,-23.2541409", "O_QUE_FAZER": "CARTEIRA", "ER_REGIAO_CIDADE_min": "Cabreúva_Jacaré_Campinas" }, "geometry": { "type": "Point", "coordinates": [ -47.055711, -23.2541409 ] } },
{ "type": "Feature", "properties": { "CNPJ": "07306589000108", "IDCIDADE": "CABREUVA", "NOMEFANTASIA": "MULT_FARMA", "RAZAOSOCIAL": "DANIEL_MOREIRA_DA_SILVA_DROGARIA_LTDA", "ENDEE": "RUA_MARANHAO1080__JACARE_13315-970", "LMAPS": "https://www.google.com/maps?q=&layer=c&cbll=-47.0559137,-23.2543204", "O_QUE_FAZER": "CARTEIRA", "ER_REGIAO_CIDADE_min": "Cabreúva_Jacaré_Campinas" }, "geometry": { "type": "Point", "coordinates": [ -47.0559137, -23.2543204 ] } },
{ "type": "Feature", "properties": { "CNPJ": "60564614000128", "IDCIDADE": "CABREUVA", "NOMEFANTASIA": "JH_LAJES", "RAZAOSOCIAL": "J.H._LAJES_LTDA", "ENDEE": "RUA_MARANHAO1151__JACARE_13315-970", "LMAPS": "https://www.google.com/maps?q=&layer=c&cbll=-47.0556213,-23.2551487", "O_QUE_FAZER": "CARTEIRA", "ER_REGIAO_CIDADE_min": "Cabreúva_Jacaré_Campinas" }, "geometry": { "type": "Point", "coordinates": [ -47.0556213, -23.2551487 ] } },
{ "type": "Feature", "properties": { "CNPJ": "10671728000107", "IDCIDADE": "CABREUVA", "NOMEFANTASIA": "SKINAO_DA_RACAO", "RAZAOSOCIAL": "SKINAO_DA_RACAO_LTDA", "ENDEE": "RUA_MARANHAO1183__JACARE_13315-970", "LMAPS": "https://www.google.com/maps?q=&layer=c&cbll=-47.0555897,-23.2554892", "O_QUE_FAZER": "CARTEIRA", "ER_REGIAO_CIDADE_min": "Cabreúva_Jacaré_Campinas" }, "geometry": { "type": "Point", "coordinates": [ -47.0555897, -23.2554892 ] } },
{ "type": "Feature", "properties": { "CNPJ": "04919240000145", "IDCIDADE": "CABREUVA", "NOMEFANTASIA": "DROGARIA_SP_FARMA", "RAZAOSOCIAL": "JULIANO_DE_OLIVEIRA_MUNHOZ", "ENDEE": "RUA_MARANHAO1190__JACARE_13315-970", "LMAPS": "https://www.google.com/maps?q=&layer=c&cbll=-47.0558333,-23.2550175", "O_QUE_FAZER": "CARTEIRA", "ER_REGIAO_CIDADE_min": "Cabreúva_Jacaré_Campinas" }, "geometry": { "type": "Point", "coordinates": [ -47.0558333, -23.2550175 ] } },
{ "type": "Feature", "properties": { "CNPJ": "01487013000108", "IDCIDADE": "CABREUVA", "NOMEFANTASIA": "UNIART_OTICA", "RAZAOSOCIAL": "NEWTON_YUKIO_HIRAYAMA", "ENDEE": "RUA_MARANHAO1190__JACARE_13315-970", "LMAPS": "https://www.google.com/maps?q=&layer=c&cbll=-47.0560247,-23.2550581", "O_QUE_FAZER": "CARTEIRA", "ER_REGIAO_CIDADE_min": "Cabreúva_Jacaré_Campinas" }, "geometry": { "type": "Point", "coordinates": [ -47.0560247, -23.2550581 ] } },
{ "type": "Feature", "properties": { "CNPJ": "30872625000104", "IDCIDADE": "CABREUVA", "NOMEFANTASIA": "UTI_CELULARES", "RAZAOSOCIAL": "U.T.I_ASSISTENCIA_TECNICA_PARA_CELULARES_LTDA", "ENDEE": "RUA_MARANHAO1190__JACARE_13315-970", "LMAPS": "https://www.google.com/maps?q=&layer=c&cbll=-47.0559925,-23.2551049", "O_QUE_FAZER": "CARTEIRA", "ER_REGIAO_CIDADE_min": "Cabreúva_Jacaré_Campinas" }, "geometry": { "type": "Point", "coordinates": [ -47.0559925, -23.2551049 ] } },
{ "type": "Feature", "properties": { "CNPJ": "47873620000107", "IDCIDADE": "CABREUVA", "NOMEFANTASIA": "ECOCAR_ESTETICA_AUTOMOTIVA", "RAZAOSOCIAL": "ECOCAR_ESTETICA_AUTOMOTIVA_LTDA", "ENDEE": "RUA_MARANHAO810__JACARE_13315-970", "LMAPS": "https://www.google.com/maps?q=&layer=c&cbll=-47.0561888,-23.2519934", "O_QUE_FAZER": "CARTEIRA", "ER_REGIAO_CIDADE_min": "Cabreúva_Jacaré_Campinas" }, "geometry": { "type": "Point", "coordinates": [ -47.0561888, -23.2519934 ] } },
{ "type": "Feature", "properties": { "CNPJ": "28263532000130", "IDCIDADE": "CABREUVA", "NOMEFANTASIA": "EDMAIS", "RAZAOSOCIAL": "CONFECCOES_EDICABREUVA_LTDA", "ENDEE": "RUA_MARANHAO886__JACARE_13315-970", "LMAPS": "https://www.google.com/maps?q=&layer=c&cbll=-47.0563794,-23.2526998", "O_QUE_FAZER": "CARTEIRA", "ER_REGIAO_CIDADE_min": "Cabreúva_Jacaré_Campinas" }, "geometry": { "type": "Point", "coordinates": [ -47.0563794, -23.2526998 ] } },
{ "type": "Feature", "properties": { "CNPJ": "53258267000140", "IDCIDADE": "CABREUVA", "NOMEFANTASIA": "MERCADO_BOM_PRECO", "RAZAOSOCIAL": "J_S_CARVALHO_DOS_SANTOS_MERCADO_LTDA", "ENDEE": "RUA_MARANHAO980__JACARE_13315-970", "LMAPS": "https://www.google.com/maps?q=&layer=c&cbll=-47.0560464,-23.2536042", "O_QUE_FAZER": "CARTEIRA", "ER_REGIAO_CIDADE_min": "Cabreúva_Jacaré_Campinas" }, "geometry": { "type": "Point", "coordinates": [ -47.0560464, -23.2536042 ] } },
{ "type": "Feature", "properties": { "CNPJ": "40768739000162", "IDCIDADE": "CABREUVA", "NOMEFANTASIA": "TOCA_BEER", "RAZAOSOCIAL": "VINICIUS_SIMIONATO_CONTARIN", "ENDEE": "AVENIDA_PORTUGAL20__PINHAL_13317-216", "LMAPS": "https://www.google.com/maps?q=&layer=c&cbll=-47.0956013,-23.2546147", "O_QUE_FAZER": "CARTEIRA", "ER_REGIAO_CIDADE_min": "Cabreúva_Jacaré_Campinas" }, "geometry": { "type": "Point", "coordinates": [ -47.0956013, -23.2546147 ] } },
{ "type": "Feature", "properties": { "CNPJ": "45908530000170", "IDCIDADE": "CABREUVA", "NOMEFANTASIA": "DEPOSITO_SANTA_CATARINA", "RAZAOSOCIAL": "DEPOSITO_SANTA_CATARINA_DE_CABREUVA_LTDA", "ENDEE": "PRACA_SANTA_CATARINA31__PINHAL_13317-218", "LMAPS": "https://www.google.com/maps?q=&layer=c&cbll=-47.095095,-23.2545189", "O_QUE_FAZER": "CARTEIRA", "ER_REGIAO_CIDADE_min": "Cabreúva_Jacaré_Campinas" }, "geometry": { "type": "Point", "coordinates": [ -47.095095, -23.2545189 ] } },
{ "type": "Feature", "properties": { "CNPJ": "14792086000147", "IDCIDADE": "CABREUVA", "NOMEFANTASIA": "NOVA_ELETROSTATICA", "RAZAOSOCIAL": "J.L._DE_SOUZA_PINTURAS", "ENDEE": "PRACA_SANTA_CATARINA51__PINHAL_13317-218", "LMAPS": "https://www.google.com/maps?q=&layer=c&cbll=-47.0951633,-23.2547017", "O_QUE_FAZER": "CARTEIRA", "ER_REGIAO_CIDADE_min": "Cabreúva_Jacaré_Campinas" }, "geometry": { "type": "Point", "coordinates": [ -47.0951633, -23.2547017 ] } },
{ "type": "Feature", "properties": { "CNPJ": "45202679000130", "IDCIDADE": "CABREUVA", "NOMEFANTASIA": "PADARIA_E_MERCEARIA_PINHAL", "RAZAOSOCIAL": "JOSE_DUARTE_DOS_ANJOS_LUCIO_MERCEARIA_LTDA", "ENDEE": "RUA_ALECRIM22__PINHAL_13317-224", "LMAPS": "https://www.google.com/maps?q=&layer=c&cbll=-47.094464,-23.2558137", "O_QUE_FAZER": "CARTEIRA", "ER_REGIAO_CIDADE_min": "Cabreúva_Jacaré_Campinas" }, "geometry": { "type": "Point", "coordinates": [ -47.094464, -23.2558137 ] } },
{ "type": "Feature", "properties": { "CNPJ": "45687487000160", "IDCIDADE": "CABREUVA", "NOMEFANTASIA": "ALUG_SERV_SP", "RAZAOSOCIAL": "ALUG_SERV_LOCACAO_DE_EQUIPAMENTOS_DE_LIMPEZA_E_SERVICOS_LTDA.", "ENDEE": "AVENIDA_VEREADOR_HERMELINDO_ZACCHI2070__PINHAL_13317-228", "LMAPS": "https://www.google.com/maps?q=&layer=c&cbll=-47.094889,-23.2543827", "O_QUE_FAZER": "CARTEIRA", "ER_REGIAO_CIDADE_min": "Cabreúva_Jacaré_Campinas" }, "geometry": { "type": "Point", "coordinates": [ -47.094889, -23.2543827 ] } },
{ "type": "Feature", "properties": { "CNPJ": "27435044000109", "IDCIDADE": "CABREUVA", "NOMEFANTASIA": "TR_MONTAGENS_INDUSTRIAIS", "RAZAOSOCIAL": "THIAGO_HENRIQUE_NASCIMENTO_MONTAGENS", "ENDEE": "AVENIDA_VEREADOR_HERMELINDO_ZACCHI85__PINHAL_13317-228", "LMAPS": "https://www.google.com/maps?q=&layer=c&cbll=-47.094578,-23.2546703", "O_QUE_FAZER": "CARTEIRA", "ER_REGIAO_CIDADE_min": "Cabreúva_Jacaré_Campinas" }, "geometry": { "type": "Point", "coordinates": [ -47.094578, -23.2546703 ] } },
{ "type": "Feature", "properties": { "CNPJ": "47862710000194", "IDCIDADE": "CABREUVA", "NOMEFANTASIA": "AM_MATERIAIS", "RAZAOSOCIAL": "AM_MATERIAIS_PARA_CONSTRUCAO_LTDA", "ENDEE": "AVENIDA_PASCHOAL_SANTI1033__VILAREJO_13317-654", "LMAPS": "https://www.google.com/maps?q=&layer=c&cbll=-47.059928,-23.2761276", "O_QUE_FAZER": "CARTEIRA", "ER_REGIAO_CIDADE_min": "Cabreúva_Jacaré_Campinas" }, "geometry": { "type": "Point", "coordinates": [ -47.059928, -23.2761276 ] } },
{ "type": "Feature", "properties": { "CNPJ": "43371472000163", "IDCIDADE": "CABREUVA", "NOMEFANTASIA": "CASA_DE_RACAO_OLIVEIRA", "RAZAOSOCIAL": "PRISCILA_FERREIRA_DE_SOUZA_CASA_DE_RACAO", "ENDEE": "AVENIDA_PASCHOAL_SANTI328__VILAREJO_13317-654", "LMAPS": "https://www.google.com/maps?q=&layer=c&cbll=-47.0580564,-23.2698752", "O_QUE_FAZER": "CARTEIRA", "ER_REGIAO_CIDADE_min": "Cabreúva_Jacaré_Campinas" }, "geometry": { "type": "Point", "coordinates": [ -47.0580564, -23.2698752 ] } },
{ "type": "Feature", "properties": { "CNPJ": "37996008000160", "IDCIDADE": "CABREUVA", "NOMEFANTASIA": "DROGARIA_MENDES_FARMA", "RAZAOSOCIAL": "DROGARIA_MENDESFARMA_LTDA.", "ENDEE": "AVENIDA_PASCHOAL_SANTI371__VILAREJO_13317-654", "LMAPS": "https://www.google.com/maps?q=&layer=c&cbll=-47.0582111,-23.2704949", "O_QUE_FAZER": "CARTEIRA", "ER_REGIAO_CIDADE_min": "Cabreúva_Jacaré_Campinas" }, "geometry": { "type": "Point", "coordinates": [ -47.0582111, -23.2704949 ] } },
{ "type": "Feature", "properties": { "CNPJ": "02751815000138", "IDCIDADE": "CABREUVA", "NOMEFANTASIA": "ARMARINHOS_TRES_IRMAOS", "RAZAOSOCIAL": "MARIA_DA_GLORIA_PEREIRA_DA_SILVA_SABINO_CABREUVA", "ENDEE": "AVENIDA_PASCHOAL_SANTI405__VILAREJO_13317-654", "LMAPS": "https://www.google.com/maps?q=&layer=c&cbll=-47.0582146,-23.2708283", "O_QUE_FAZER": "CARTEIRA", "ER_REGIAO_CIDADE_min": "Cabreúva_Jacaré_Campinas" }, "geometry": { "type": "Point", "coordinates": [ -47.0582146, -23.2708283 ] } },
{ "type": "Feature", "properties": { "CNPJ": "55534704000136", "IDCIDADE": "CABREUVA", "NOMEFANTASIA": "LAU_HIDRAULICA_E_ELETRICA", "RAZAOSOCIAL": "HIDRAULICA_E_ELETRICA_LAU_LTDA", "ENDEE": "AVENIDA_PASCHOAL_SANTI49__VILAREJO_13317-654", "LMAPS": "https://www.google.com/maps?q=&layer=c&cbll=-47.0588606,-23.2730324", "O_QUE_FAZER": "CARTEIRA", "ER_REGIAO_CIDADE_min": "Cabreúva_Jacaré_Campinas" }, "geometry": { "type": "Point", "coordinates": [ -47.0588606, -23.2730324 ] } },
{ "type": "Feature", "properties": { "CNPJ": "43879509000169", "IDCIDADE": "CABREUVA", "NOMEFANTASIA": "SEVERTECH", "RAZAOSOCIAL": "SEVERTECH_COMERCIO_E_SERVICOS_LTDA", "ENDEE": "AVENIDA_PASCHOAL_SANTI571__VILLAREJO_SOPE_SERRA_13317-654", "LMAPS": "https://www.google.com/maps?q=&layer=c&cbll=-47.0587324,-23.2722358", "O_QUE_FAZER": "CARTEIRA", "ER_REGIAO_CIDADE_min": "Cabreúva_Jacaré_Campinas" }, "geometry": { "type": "Point", "coordinates": [ -47.0587324, -23.2722358 ] } },
{ "type": "Feature", "properties": { "CNPJ": "11161724000133", "IDCIDADE": "CABREUVA", "NOMEFANTASIA": "BAIL_MATERIAIS_PARA_CONSTRUCAO", "RAZAOSOCIAL": "BAIL_MATERIAIS_PARA_CONSTRUCAO_LTDA.", "ENDEE": "AVENIDA_PASCHOAL_SANTI665__VILLAREJO_SOPE_SERRA_13317-654", "LMAPS": "https://www.google.com/maps?q=&layer=c&cbll=-47.0589015,-23.2730279", "O_QUE_FAZER": "CARTEIRA", "ER_REGIAO_CIDADE_min": "Cabreúva_Jacaré_Campinas" }, "geometry": { "type": "Point", "coordinates": [ -47.0589015, -23.2730279 ] } },
{ "type": "Feature", "properties": { "CNPJ": "08752296000109", "IDCIDADE": "CABREUVA", "NOMEFANTASIA": "CENTRAL_LUSTRES", "RAZAOSOCIAL": "LORISVAL_DE_MEDEIROS_CONSTRUCAO", "ENDEE": "AVENIDA_PASCHOAL_SANTI692__VILAREJO_13317-654", "LMAPS": "https://www.google.com/maps?q=&layer=c&cbll=-47.0593347,-23.2731222", "O_QUE_FAZER": "CARTEIRA", "ER_REGIAO_CIDADE_min": "Cabreúva_Jacaré_Campinas" }, "geometry": { "type": "Point", "coordinates": [ -47.0593347, -23.2731222 ] } },
{ "type": "Feature", "properties": { "CNPJ": "24028894000196", "IDCIDADE": "CABREUVA", "NOMEFANTASIA": "PADARIA_POLONIA", "RAZAOSOCIAL": "PADARIA_POLONIA_CABREUVA_LTDA", "ENDEE": "AVENIDA_PASCHOAL_SANTI794__VILAREJO_13317-654", "LMAPS": "https://www.google.com/maps?q=&layer=c&cbll=-47.0595176,-23.2740866", "O_QUE_FAZER": "CARTEIRA", "ER_REGIAO_CIDADE_min": "Cabreúva_Jacaré_Campinas" }, "geometry": { "type": "Point", "coordinates": [ -47.0595176, -23.2740866 ] } },
{ "type": "Feature", "properties": { "CNPJ": "27461192000190", "IDCIDADE": "CABREUVA", "NOMEFANTASIA": "SERGINHO_CARNES", "RAZAOSOCIAL": "CASA_DE_CARNES_MENDES_E_GONCALVES_LTDA", "ENDEE": "AVENIDA_PASCHOAL_SANTI957__VILAREJO_13317-654", "LMAPS": "https://www.google.com/maps?q=&layer=c&cbll=-47.0598136,-23.2756119", "O_QUE_FAZER": "CARTEIRA", "ER_REGIAO_CIDADE_min": "Cabreúva_Jacaré_Campinas" }, "geometry": { "type": "Point", "coordinates": [ -47.0598136, -23.2756119 ] } },
{ "type": "Feature", "properties": { "CNPJ": "40644457000153", "IDCIDADE": "CABREUVA", "NOMEFANTASIA": "COMPRE_MAIS", "RAZAOSOCIAL": "COMERCIAL_JESSE_LTDA", "ENDEE": "AVENIDA_VEREADOR_JOSE_DONATO1385__VILAREJO_13317-654", "LMAPS": "https://www.google.com/maps?q=&layer=c&cbll=-47.0572197,-23.2666903", "O_QUE_FAZER": "CARTEIRA", "ER_REGIAO_CIDADE_min": "Cabreúva_Jacaré_Campinas" }, "geometry": { "type": "Point", "coordinates": [ -47.0572197, -23.2666903 ] } },
{ "type": "Feature", "properties": { "CNPJ": "03442004000118", "IDCIDADE": "CABREUVA", "NOMEFANTASIA": "GAS_MAIS", "RAZAOSOCIAL": "MARIA_CRISTINA_NISTA_ZAMORA", "ENDEE": "RUA_LITUANIA10__VILAREJO_13317-666", "LMAPS": "https://www.google.com/maps?q=&layer=c&cbll=-47.0592035,-23.2735539", "O_QUE_FAZER": "CARTEIRA", "ER_REGIAO_CIDADE_min": "Cabreúva_Jacaré_Campinas" }, "geometry": { "type": "Point", "coordinates": [ -47.0592035, -23.2735539 ] } },
{ "type": "Feature", "properties": { "CNPJ": "10673301000130", "IDCIDADE": "CABREUVA", "NOMEFANTASIA": "GPL_VISTORIAS", "RAZAOSOCIAL": "GPL_VISTORIAS_LTDA", "ENDEE": "AVENIDA_VEREADOR_JOSE_DONATO1294__JACARE_13317-680", "LMAPS": "https://www.google.com/maps?q=&layer=c&cbll=-47.0540404,-23.2537568", "O_QUE_FAZER": "CARTEIRA", "ER_REGIAO_CIDADE_min": "Cabreúva_Jacaré_Campinas" }, "geometry": { "type": "Point", "coordinates": [ -47.0540404, -23.2537568 ] } },
{ "type": "Feature", "properties": { "CNPJ": "54097613000118", "IDCIDADE": "CABREUVA", "NOMEFANTASIA": "EJET_CARTUCHOS", "RAZAOSOCIAL": "SUELI_DE_FATIMA_SETIMIO", "ENDEE": "AVENIDA_VEREADOR_JOSE_DONATO340__JACARE_13317-680", "LMAPS": "https://www.google.com/maps?q=&layer=c&cbll=-47.0553445,-23.2458221", "O_QUE_FAZER": "CARTEIRA", "ER_REGIAO_CIDADE_min": "Cabreúva_Jacaré_Campinas" }, "geometry": { "type": "Point", "coordinates": [ -47.0553445, -23.2458221 ] } },
{ "type": "Feature", "properties": { "CNPJ": "13585085000169", "IDCIDADE": "CABREUVA", "NOMEFANTASIA": "CENTRO_AUTOMOTIVO_MICHELIN", "RAZAOSOCIAL": "VERA_LUCIA_BENASSI_COELHO_CABREUVA", "ENDEE": "AVENIDA_VEREADOR_JOSE_DONATO352__JACARE_13317-680", "LMAPS": "https://www.google.com/maps?q=&layer=c&cbll=-47.0553229,-23.245887", "O_QUE_FAZER": "CARTEIRA", "ER_REGIAO_CIDADE_min": "Cabreúva_Jacaré_Campinas" }, "geometry": { "type": "Point", "coordinates": [ -47.0553229, -23.245887 ] } },
{ "type": "Feature", "properties": { "CNPJ": "40339054000109", "IDCIDADE": "CABREUVA", "NOMEFANTASIA": "RENNA_AUTO_PECAS", "RAZAOSOCIAL": "RENNA_AUTO_PECAS_LTDA", "ENDEE": "AVENIDA_VEREADOR_JOSE_DONATO85__JACARE_13317-680", "LMAPS": "https://www.google.com/maps?q=&layer=c&cbll=-47.0570385,-23.2442523", "O_QUE_FAZER": "CARTEIRA", "ER_REGIAO_CIDADE_min": "Cabreúva_Jacaré_Campinas" }, "geometry": { "type": "Point", "coordinates": [ -47.0570385, -23.2442523 ] } },
{ "type": "Feature", "properties": { "CNPJ": "21262915000145", "IDCIDADE": "CABREUVA", "NOMEFANTASIA": "RED_CAR_AUTO_CENTER", "RAZAOSOCIAL": "EDILSON_ALVES_DE_LIMA_SERVICOS_AUTOMOTIVOS", "ENDEE": "AVENIDA_VEREADOR_JOSE_DONATO990__JACARE_13317-680", "LMAPS": "https://www.google.com/maps?q=&layer=c&cbll=-47.0532501,-23.2517613", "O_QUE_FAZER": "CARTEIRA", "ER_REGIAO_CIDADE_min": "Cabreúva_Jacaré_Campinas" }, "geometry": { "type": "Point", "coordinates": [ -47.0532501, -23.2517613 ] } },
{ "type": "Feature", "properties": { "CNPJ": "13693895000139", "IDCIDADE": "CABREUVA", "NOMEFANTASIA": "MERCADO_AE_VITORIA", "RAZAOSOCIAL": "MERCADO_AE_VITORIA_CABREUVA_LTDA", "ENDEE": "RUA_TURQUIA158__VILAREJO_13317-682", "LMAPS": "https://www.google.com/maps?q=&layer=c&cbll=-47.0546872,-23.270044", "O_QUE_FAZER": "CARTEIRA", "ER_REGIAO_CIDADE_min": "Cabreúva_Jacaré_Campinas" }, "geometry": { "type": "Point", "coordinates": [ -47.0546872, -23.270044 ] } },
{ "type": "Feature", "properties": { "CNPJ": "33664478000175", "IDCIDADE": "CABREUVA", "NOMEFANTASIA": "AQUINO_GAS", "RAZAOSOCIAL": "R.S._DE_AQUINO_-_GAS_VILAREJO", "ENDEE": "RUA_TURQUIA238__VILAREJO_13317-682", "LMAPS": "https://www.google.com/maps?q=&layer=c&cbll=-47.0538792,-23.270431", "O_QUE_FAZER": "CARTEIRA", "ER_REGIAO_CIDADE_min": "Cabreúva_Jacaré_Campinas" }, "geometry": { "type": "Point", "coordinates": [ -47.0538792, -23.270431 ] } },
{ "type": "Feature", "properties": { "CNPJ": "13532750000156", "IDCIDADE": "CABREUVA", "NOMEFANTASIA": "DROGARIA_NICOLA", "RAZAOSOCIAL": "BANDEIRA_DE_MOURA_&_CUSTODIO_LTDA", "ENDEE": "RUA_IRAQUE45__VILLAREJO_SOPE_DA_SERRA_13317-694", "LMAPS": "https://www.google.com/maps?q=&layer=c&cbll=-47.0575152,-23.2648473", "O_QUE_FAZER": "CARTEIRA", "ER_REGIAO_CIDADE_min": "Cabreúva_Jacaré_Campinas" }, "geometry": { "type": "Point", "coordinates": [ -47.0575152, -23.2648473 ] } },
{ "type": "Feature", "properties": { "CNPJ": "21156744000170", "IDCIDADE": "CABREUVA", "NOMEFANTASIA": "PONTO_30", "RAZAOSOCIAL": "JANETE_DOS_SANTOS_OLIVEIRA", "ENDEE": "RUA_IRAQUE47__VILLAREJO_SOPE_SERRA_13317-694", "LMAPS": "https://www.google.com/maps?q=&layer=c&cbll=-47.0576117,-23.2650647", "O_QUE_FAZER": "CARTEIRA", "ER_REGIAO_CIDADE_min": "Cabreúva_Jacaré_Campinas" }, "geometry": { "type": "Point", "coordinates": [ -47.0576117, -23.2650647 ] } },
{ "type": "Feature", "properties": { "CNPJ": "11160908000189", "IDCIDADE": "CABREUVA", "NOMEFANTASIA": "VS_MERCADO", "RAZAOSOCIAL": "MINIMERCADO_PAES_LANDIM_LTDA.", "ENDEE": "RUA_JUIZ_DE_FORA76__NOVO_BONFIM_13317-772", "LMAPS": "https://www.google.com/maps?q=&layer=c&cbll=-47.0603629,-23.276983", "O_QUE_FAZER": "CARTEIRA", "ER_REGIAO_CIDADE_min": "Cabreúva_Jacaré_Campinas" }, "geometry": { "type": "Point", "coordinates": [ -47.0603629, -23.276983 ] } },
{ "type": "Feature", "properties": { "CNPJ": "30365104000160", "IDCIDADE": "CABREUVA", "NOMEFANTASIA": "PRADO_MOTORS", "RAZAOSOCIAL": "PRADO_MOTORS_LTDA", "ENDEE": "AVENIDA_ALBERTO_PERATELLO131__CENTRO_13318-002", "LMAPS": "https://www.google.com/maps?q=&layer=c&cbll=-47.0666511,-23.2453387", "O_QUE_FAZER": "CARTEIRA", "ER_REGIAO_CIDADE_min": "Cabreúva_Jacaré_Campinas" }, "geometry": { "type": "Point", "coordinates": [ -47.0666511, -23.2453387 ] } },
{ "type": "Feature", "properties": { "CNPJ": "09044156000149", "IDCIDADE": "CABREUVA", "NOMEFANTASIA": "MOITAL_MADEIRAS", "RAZAOSOCIAL": "MOITAL_MADEIRAS_&_TELHAS_LTDA", "ENDEE": "AVENIDA_ALBERTO_PERATELLO368__CENTRO_13318-002", "LMAPS": "https://www.google.com/maps?q=&layer=c&cbll=-47.0640763,-23.2449104", "O_QUE_FAZER": "CARTEIRA", "ER_REGIAO_CIDADE_min": "Cabreúva_Jacaré_Campinas" }, "geometry": { "type": "Point", "coordinates": [ -47.0640763, -23.2449104 ] } },
{ "type": "Feature", "properties": { "CNPJ": "21393476000100", "IDCIDADE": "CABREUVA", "NOMEFANTASIA": "HB_CASTELHANO", "RAZAOSOCIAL": "HB_CASTELHANO_LTDA", "ENDEE": "AVENIDA_ALBERTO_PERATELLO379__CENTRO_13318-002", "LMAPS": "https://www.google.com/maps?q=&layer=c&cbll=-47.063972,-23.2446575", "O_QUE_FAZER": "CARTEIRA", "ER_REGIAO_CIDADE_min": "Cabreúva_Jacaré_Campinas" }, "geometry": { "type": "Point", "coordinates": [ -47.063972, -23.2446575 ] } },
{ "type": "Feature", "properties": { "CNPJ": "25989646000174", "IDCIDADE": "CABREUVA", "NOMEFANTASIA": "ULTRA_VISAO", "RAZAOSOCIAL": "CABREUVA_VISTORIAS_VEICULARES_LTDA", "ENDEE": "AVENIDA_ALBERTO_PERATELLO423__CENTRO_13318-002", "LMAPS": "https://www.google.com/maps?q=&layer=c&cbll=-47.0635142,-23.2446635", "O_QUE_FAZER": "CARTEIRA", "ER_REGIAO_CIDADE_min": "Cabreúva_Jacaré_Campinas" }, "geometry": { "type": "Point", "coordinates": [ -47.0635142, -23.2446635 ] } },
{ "type": "Feature", "properties": { "CNPJ": "15105898000130", "IDCIDADE": "CABREUVA", "NOMEFANTASIA": "RECANTO_GAUCHO_RESTAURANTE", "RAZAOSOCIAL": "RESTAURANTE_RECANTO_GAUCHO_CABREUVA_LTDA", "ENDEE": "AVENIDA_ALBERTO_PERATELLO561__JACARE_13318-002", "LMAPS": "https://www.google.com/maps?q=&layer=c&cbll=-47.0621228,-23.2443114", "O_QUE_FAZER": "CARTEIRA", "ER_REGIAO_CIDADE_min": "Cabreúva_Jacaré_Campinas" }, "geometry": { "type": "Point", "coordinates": [ -47.0621228, -23.2443114 ] } },
{ "type": "Feature", "properties": { "CNPJ": "40046727000124", "IDCIDADE": "CABREUVA", "NOMEFANTASIA": "JAKA_GRILL", "RAZAOSOCIAL": "CARLOS_EDUARDO_BASSE_RESTAURANTE", "ENDEE": "AVENIDA_ALBERTO_PERATELLO575__CENTRO_13318-002", "LMAPS": "https://www.google.com/maps?q=&layer=c&cbll=-47.0614928,-23.2446527", "O_QUE_FAZER": "CARTEIRA", "ER_REGIAO_CIDADE_min": "Cabreúva_Jacaré_Campinas" }, "geometry": { "type": "Point", "coordinates": [ -47.0614928, -23.2446527 ] } },
{ "type": "Feature", "properties": { "CNPJ": "09136774000119", "IDCIDADE": "CABREUVA", "NOMEFANTASIA": "AGROPRATES", "RAZAOSOCIAL": "COMERCIAL_AGROPRATES_LTDA", "ENDEE": "AVENIDA_ALBERTO_PERATELLO653__JACARE_13318-002", "LMAPS": "https://www.google.com/maps?q=&layer=c&cbll=-47.0612763,-23.2439542", "O_QUE_FAZER": "CARTEIRA", "ER_REGIAO_CIDADE_min": "Cabreúva_Jacaré_Campinas" }, "geometry": { "type": "Point", "coordinates": [ -47.0612763, -23.2439542 ] } },
{ "type": "Feature", "properties": { "CNPJ": "19190987000182", "IDCIDADE": "CABREUVA", "NOMEFANTASIA": "BELLA_COLCHOES", "RAZAOSOCIAL": "BELLA_COLCHOES_LTDA", "ENDEE": "AVENIDA_ALBERTO_PERATELLO663__JACARE_13318-002", "LMAPS": "https://www.google.com/maps?q=&layer=c&cbll=-47.0612015,-23.2439908", "O_QUE_FAZER": "CARTEIRA", "ER_REGIAO_CIDADE_min": "Cabreúva_Jacaré_Campinas" }, "geometry": { "type": "Point", "coordinates": [ -47.0612015, -23.2439908 ] } },
{ "type": "Feature", "properties": { "CNPJ": "10362603000197", "IDCIDADE": "CABREUVA", "NOMEFANTASIA": "ROQUE_CALCADOS", "RAZAOSOCIAL": "ROQUE_CALCADOS_E_ROUPAS_LTDA", "ENDEE": "AVENIDA_ALBERTO_PERATELLO685__JACARE_13318-002", "LMAPS": "https://www.google.com/maps?q=&layer=c&cbll=-47.0610588,-23.2439378", "O_QUE_FAZER": "CARTEIRA", "ER_REGIAO_CIDADE_min": "Cabreúva_Jacaré_Campinas" }, "geometry": { "type": "Point", "coordinates": [ -47.0610588, -23.2439378 ] } },
{ "type": "Feature", "properties": { "CNPJ": "08052190000100", "IDCIDADE": "CABREUVA", "NOMEFANTASIA": "FARMA_KATIVA", "RAZAOSOCIAL": "FARMA_KATIVA_FARMACIA_COM_MANIPULACAO_LTDA", "ENDEE": "AVENIDA_ALBERTO_PERATELLO689__JACARE_13318-002", "LMAPS": "https://www.google.com/maps?q=&layer=c&cbll=-47.060858,-23.2440013", "O_QUE_FAZER": "CARTEIRA", "ER_REGIAO_CIDADE_min": "Cabreúva_Jacaré_Campinas" }, "geometry": { "type": "Point", "coordinates": [ -47.060858, -23.2440013 ] } },
{ "type": "Feature", "properties": { "CNPJ": "47980235000150", "IDCIDADE": "CABREUVA", "NOMEFANTASIA": "CRESCI_E_PERDI_CABREUVA", "RAZAOSOCIAL": "ALMEIDA_&_OLIVEIRA_COMERCIO_DE_ROUPAS_LTDA", "ENDEE": "AVENIDA_ALBERTO_PERATELLO695__JACARE_13318-002", "LMAPS": "https://www.google.com/maps?q=&layer=c&cbll=-47.0608631,-23.2438334", "O_QUE_FAZER": "CARTEIRA", "ER_REGIAO_CIDADE_min": "Cabreúva_Jacaré_Campinas" }, "geometry": { "type": "Point", "coordinates": [ -47.0608631, -23.2438334 ] } },
{ "type": "Feature", "properties": { "CNPJ": "35071946000123", "IDCIDADE": "CABREUVA", "NOMEFANTASIA": "EMPORIO_BAOBA", "RAZAOSOCIAL": "EMPORIO_CABREUVA_COMERCIO_DE_ALIMENTOS_LTDA", "ENDEE": "AVENIDA_ALBERTO_PERATELLO705__CENTRO_13318-002", "LMAPS": "https://www.google.com/maps?q=&layer=c&cbll=-47.0607315,-23.2439963", "O_QUE_FAZER": "CARTEIRA", "ER_REGIAO_CIDADE_min": "Cabreúva_Jacaré_Campinas" }, "geometry": { "type": "Point", "coordinates": [ -47.0607315, -23.2439963 ] } },
{ "type": "Feature", "properties": { "CNPJ": "02609959000154", "IDCIDADE": "CABREUVA", "NOMEFANTASIA": "CASA_DE_CARNES_SAO_JOSE", "RAZAOSOCIAL": "CASA_DE_CARNES_SAO_JOSE_JACARE_LTDA", "ENDEE": "AVENIDA_ALBERTO_PERATELLO741__JACARE_13318-002", "LMAPS": "https://www.google.com/maps?q=&layer=c&cbll=-47.0603823,-23.2438318", "O_QUE_FAZER": "CARTEIRA", "ER_REGIAO_CIDADE_min": "Cabreúva_Jacaré_Campinas" }, "geometry": { "type": "Point", "coordinates": [ -47.0603823, -23.2438318 ] } },
{ "type": "Feature", "properties": { "CNPJ": "02043101000175", "IDCIDADE": "CABREUVA", "NOMEFANTASIA": "PASTELARIA_ORIENTAL", "RAZAOSOCIAL": "AKIRA_YOSHIKAWA_&_CIA_LTDA", "ENDEE": "AVENIDA_ALBERTO_PERATELLO747__JACARE_13318-002", "LMAPS": "https://www.google.com/maps?q=&layer=c&cbll=-47.0603586,-23.2437872", "O_QUE_FAZER": "CARTEIRA", "ER_REGIAO_CIDADE_min": "Cabreúva_Jacaré_Campinas" }, "geometry": { "type": "Point", "coordinates": [ -47.0603586, -23.2437872 ] } },
{ "type": "Feature", "properties": { "CNPJ": "04813613000107", "IDCIDADE": "CABREUVA", "NOMEFANTASIA": "PAPYRUSON", "RAZAOSOCIAL": "PAPYRUSON_COMERCIO_DE_ARTIGOS_DE_PAPELARIA_LTDA.", "ENDEE": "AVENIDA_ALBERTO_PERATELLO835__JACARE_13318-002", "LMAPS": "https://www.google.com/maps?q=&layer=c&cbll=-47.0602292,-23.2437167", "O_QUE_FAZER": "CARTEIRA", "ER_REGIAO_CIDADE_min": "Cabreúva_Jacaré_Campinas" }, "geometry": { "type": "Point", "coordinates": [ -47.0602292, -23.2437167 ] } },
{ "type": "Feature", "properties": { "CNPJ": "49561392000157", "IDCIDADE": "CABREUVA", "NOMEFANTASIA": "FALGAT_CONTABILIDADE", "RAZAOSOCIAL": "FALGAT_ORGANIZACAO_CONTABIL_E_ASSUNTOS_FISCAIS_-_SOCIEDADE_SIMPLES_LTDA.", "ENDEE": "AVENIDA_ALBERTO_PERATELLO85__CENTRO_13318-002", "LMAPS": "https://www.google.com/maps?q=&layer=c&cbll=-47.0628316,-23.2444451", "O_QUE_FAZER": "CARTEIRA", "ER_REGIAO_CIDADE_min": "Cabreúva_Jacaré_Campinas" }, "geometry": { "type": "Point", "coordinates": [ -47.0628316, -23.2444451 ] } },
{ "type": "Feature", "properties": { "CNPJ": "30498722000189", "IDCIDADE": "CABREUVA", "NOMEFANTASIA": "OS_MONGES_PRODUTOS_NATURAIS", "RAZAOSOCIAL": "OS_MONGES_COMERCIO_DE_PRODUTOS_NATURAIS_LTDA.", "ENDEE": "AVENIDA_ALBERTO_PERATELLO855__CENTRO_13318-002", "LMAPS": "https://www.google.com/maps?q=&layer=c&cbll=-47.0595942,-23.2436392", "O_QUE_FAZER": "CARTEIRA", "ER_REGIAO_CIDADE_min": "Cabreúva_Jacaré_Campinas" }, "geometry": { "type": "Point", "coordinates": [ -47.0595942, -23.2436392 ] } },
{ "type": "Feature", "properties": { "CNPJ": "21810489000137", "IDCIDADE": "CABREUVA", "NOMEFANTASIA": "AGROTCHE", "RAZAOSOCIAL": "AGROPETCHE_PRODUTOS_AGROPECUARIOS_LTDA", "ENDEE": "AVENIDA_ALBERTO_PERATELLO855__JACARE_13318-002", "LMAPS": "https://www.google.com/maps?q=&layer=c&cbll=-47.0597537,-23.243315", "O_QUE_FAZER": "CARTEIRA", "ER_REGIAO_CIDADE_min": "Cabreúva_Jacaré_Campinas" }, "geometry": { "type": "Point", "coordinates": [ -47.0597537, -23.243315 ] } },
{ "type": "Feature", "properties": { "CNPJ": "44035656000115", "IDCIDADE": "CABREUVA", "NOMEFANTASIA": "OGGI", "RAZAOSOCIAL": "FARINELLI_COMERCIO_DE_ALIMENTOS_LTDA", "ENDEE": "AVENIDA_ALBERTO_PERATELLO855__JACARE_13318-002", "LMAPS": "https://www.google.com/maps?q=&layer=c&cbll=-47.059601,-23.2435626", "O_QUE_FAZER": "CARTEIRA", "ER_REGIAO_CIDADE_min": "Cabreúva_Jacaré_Campinas" }, "geometry": { "type": "Point", "coordinates": [ -47.059601, -23.2435626 ] } },
{ "type": "Feature", "properties": { "CNPJ": "33294024000150", "IDCIDADE": "CABREUVA", "NOMEFANTASIA": "RIQUER_VEL", "RAZAOSOCIAL": "R_E_GARCIA_COMERCIO_DE_VEICULOS", "ENDEE": "AVENIDA_ALBERTO_PERATELLO901__JACARE_13318-002", "LMAPS": "https://www.google.com/maps?q=&layer=c&cbll=-47.0589062,-23.2435158", "O_QUE_FAZER": "CARTEIRA", "ER_REGIAO_CIDADE_min": "Cabreúva_Jacaré_Campinas" }, "geometry": { "type": "Point", "coordinates": [ -47.0589062, -23.2435158 ] } },
{ "type": "Feature", "properties": { "CNPJ": "08101595000183", "IDCIDADE": "CABREUVA", "NOMEFANTASIA": "ALM_ELETRONICOS", "RAZAOSOCIAL": "A_L_M_DOS_SANTOS_ANTENAS", "ENDEE": "AVENIDA_ALBERTO_PERATELLO942__JACARE_13318-002", "LMAPS": "https://www.google.com/maps?q=&layer=c&cbll=-47.0584708,-23.2434096", "O_QUE_FAZER": "CARTEIRA", "ER_REGIAO_CIDADE_min": "Cabreúva_Jacaré_Campinas" }, "geometry": { "type": "Point", "coordinates": [ -47.0584708, -23.2434096 ] } },
{ "type": "Feature", "properties": { "CNPJ": "07582974000170", "IDCIDADE": "CABREUVA", "NOMEFANTASIA": "PISCINAZUL", "RAZAOSOCIAL": "SILVANA_MOITAL_HENRIQUE_PISCINA", "ENDEE": "AVENIDA_ALBERTO_PERATELLO943__JACARE_13318-002", "LMAPS": "https://www.google.com/maps?q=&layer=c&cbll=-47.0584274,-23.2433363", "O_QUE_FAZER": "CARTEIRA", "ER_REGIAO_CIDADE_min": "Cabreúva_Jacaré_Campinas" }, "geometry": { "type": "Point", "coordinates": [ -47.0584274, -23.2433363 ] } },
{ "type": "Feature", "properties": { "CNPJ": "49596935000333", "IDCIDADE": "CABREUVA", "NOMEFANTASIA": "EMPRESA_FUNERARIA_FAUSTO_CAETANO", "RAZAOSOCIAL": "EMPRESA_FUNERARIA_FAUSTO_CAETANO_LTDA", "ENDEE": "RUA_DOMINGOS_ARCHIJA115__CENTRO_13318-016", "LMAPS": "https://www.google.com/maps?q=&layer=c&cbll=-47.0619565,-23.2431772", "O_QUE_FAZER": "CARTEIRA", "ER_REGIAO_CIDADE_min": "Cabreúva_Jacaré_Campinas" }, "geometry": { "type": "Point", "coordinates": [ -47.0619565, -23.2431772 ] } },
{ "type": "Feature", "properties": { "CNPJ": "34933248000127", "IDCIDADE": "CABREUVA", "NOMEFANTASIA": "PADARIA_A_BRASILEIRA", "RAZAOSOCIAL": "LETICIA_AUGUSTO_DA_COSTA_SIMOES", "ENDEE": "RUA_DOMINGOS_ARCHIJA197__CENTRO_13318-016", "LMAPS": "https://www.google.com/maps?q=&layer=c&cbll=-47.0620161,-23.2425969", "O_QUE_FAZER": "CARTEIRA", "ER_REGIAO_CIDADE_min": "Cabreúva_Jacaré_Campinas" }, "geometry": { "type": "Point", "coordinates": [ -47.0620161, -23.2425969 ] } },
{ "type": "Feature", "properties": { "CNPJ": "24989138000123", "IDCIDADE": "CABREUVA", "NOMEFANTASIA": "JACAPAR_II", "RAZAOSOCIAL": "JACAPAR_PARAFUSOS_E_FERRAMENTAS_LTDA.", "ENDEE": "RUA_DOMINGOS_ARCHIJA221__CENTRO_13318-016", "LMAPS": "https://www.google.com/maps?q=&layer=c&cbll=-47.0621033,-23.2420791", "O_QUE_FAZER": "CARTEIRA", "ER_REGIAO_CIDADE_min": "Cabreúva_Jacaré_Campinas" }, "geometry": { "type": "Point", "coordinates": [ -47.0621033, -23.2420791 ] } },
{ "type": "Feature", "properties": { "CNPJ": "02484108000122", "IDCIDADE": "CABREUVA", "NOMEFANTASIA": "AUTO_CENTER_AVENIDA", "RAZAOSOCIAL": "AUTO_CENTER_E_BORRACHARIA_AVENIDA_LTDA", "ENDEE": "AVENIDA_SAO_PAULO1026__CENTRO_13318-040", "LMAPS": "https://www.google.com/maps?q=&layer=c&cbll=-47.0571485,-23.2435701", "O_QUE_FAZER": "CARTEIRA", "ER_REGIAO_CIDADE_min": "Cabreúva_Jacaré_Campinas" }, "geometry": { "type": "Point", "coordinates": [ -47.0571485, -23.2435701 ] } },
{ "type": "Feature", "properties": { "CNPJ": "36527318000172", "IDCIDADE": "CABREUVA", "NOMEFANTASIA": "BORRACHARIA_PICA_PAU", "RAZAOSOCIAL": "J.J.F._DO_NASCIMENTO_SANTOS_-_BORRACHARIA", "ENDEE": "AVENIDA_SAO_PAULO200__CENTRO_13318-040", "LMAPS": "https://www.google.com/maps?q=&layer=c&cbll=-47.0641833,-23.2456668", "O_QUE_FAZER": "CARTEIRA", "ER_REGIAO_CIDADE_min": "Cabreúva_Jacaré_Campinas" }, "geometry": { "type": "Point", "coordinates": [ -47.0641833, -23.2456668 ] } },
{ "type": "Feature", "properties": { "CNPJ": "11219457000108", "IDCIDADE": "CABREUVA", "NOMEFANTASIA": "RACE_PNEUS", "RAZAOSOCIAL": "FERNANDO_SEVERINO_DA_SILVA", "ENDEE": "AVENIDA_SAO_PAULO290__CENTRO_13318-040", "LMAPS": "https://www.google.com/maps?q=&layer=c&cbll=-47.0646034,-23.245817", "O_QUE_FAZER": "CARTEIRA", "ER_REGIAO_CIDADE_min": "Cabreúva_Jacaré_Campinas" }, "geometry": { "type": "Point", "coordinates": [ -47.0646034, -23.245817 ] } },
{ "type": "Feature", "properties": { "CNPJ": "10694514000148", "IDCIDADE": "CABREUVA", "NOMEFANTASIA": "MOTTA_ENSINO_FUNDAMENTAL", "RAZAOSOCIAL": "MOTTA_ENSINO_FUNDAMENTAL_LTDA", "ENDEE": "AVENIDA_SAO_PAULO542__CENTRO_13318-040", "LMAPS": "https://www.google.com/maps?q=&layer=c&cbll=-47.0625061,-23.2451848", "O_QUE_FAZER": "CARTEIRA", "ER_REGIAO_CIDADE_min": "Cabreúva_Jacaré_Campinas" }, "geometry": { "type": "Point", "coordinates": [ -47.0625061, -23.2451848 ] } },
{ "type": "Feature", "properties": { "CNPJ": "13238133000142", "IDCIDADE": "CABREUVA", "NOMEFANTASIA": "SANTOS_&_OLIVEIRA_IDIOMAS", "RAZAOSOCIAL": "SANTOS_&_OLIVEIRA_IDIOMAS_E_NEGOCIOS_LTDA", "ENDEE": "AVENIDA_SAO_PAULO554__CENTRO_13318-040", "LMAPS": "https://www.google.com/maps?q=&layer=c&cbll=-47.0620471,-23.2450657", "O_QUE_FAZER": "CARTEIRA", "ER_REGIAO_CIDADE_min": "Cabreúva_Jacaré_Campinas" }, "geometry": { "type": "Point", "coordinates": [ -47.0620471, -23.2450657 ] } },
{ "type": "Feature", "properties": { "CNPJ": "37713334000112", "IDCIDADE": "CABREUVA", "NOMEFANTASIA": "JL_DE_SOUZA_CAFETERIA", "RAZAOSOCIAL": "JL_DE_SOUZA_CAFETERIA", "ENDEE": "AVENIDA_SAO_PAULO678__CENTRO_13318-040", "LMAPS": "https://www.google.com/maps?q=&layer=c&cbll=-47.059237,-23.244266", "O_QUE_FAZER": "CARTEIRA", "ER_REGIAO_CIDADE_min": "Cabreúva_Jacaré_Campinas" }, "geometry": { "type": "Point", "coordinates": [ -47.059237, -23.244266 ] } },
{ "type": "Feature", "properties": { "CNPJ": "36552981000127", "IDCIDADE": "CABREUVA", "NOMEFANTASIA": "REAL_FELIX", "RAZAOSOCIAL": "NOVO_MUNDO_REAL_UTILIDADES_DOMESTICAS_LTDA", "ENDEE": "AVENIDA_SAO_PAULO698__JACARE_13318-040", "LMAPS": "https://www.google.com/maps?q=&layer=c&cbll=-47.06078,-23.2446881", "O_QUE_FAZER": "CARTEIRA", "ER_REGIAO_CIDADE_min": "Cabreúva_Jacaré_Campinas" }, "geometry": { "type": "Point", "coordinates": [ -47.06078, -23.2446881 ] } },
{ "type": "Feature", "properties": { "CNPJ": "37211176000100", "IDCIDADE": "CABREUVA", "NOMEFANTASIA": "DROGARIA_TOTAL", "RAZAOSOCIAL": "RLS_FARMACIA_CABREUVA_LTDA", "ENDEE": "AVENIDA_SAO_PAULO716__JACARE_13318-040", "LMAPS": "https://www.google.com/maps?q=&layer=c&cbll=-47.0605781,-23.2449815", "O_QUE_FAZER": "CARTEIRA", "ER_REGIAO_CIDADE_min": "Cabreúva_Jacaré_Campinas" }, "geometry": { "type": "Point", "coordinates": [ -47.0605781, -23.2449815 ] } },
{ "type": "Feature", "properties": { "CNPJ": "10520241000115", "IDCIDADE": "CABREUVA", "NOMEFANTASIA": "INFOCELL", "RAZAOSOCIAL": "DANIEL_PEDRO_DOS_SANTOS", "ENDEE": "AVENIDA_SAO_PAULO740__JACARE_13318-040", "LMAPS": "https://www.google.com/maps?q=&layer=c&cbll=-47.0601647,-23.2446663", "O_QUE_FAZER": "CARTEIRA", "ER_REGIAO_CIDADE_min": "Cabreúva_Jacaré_Campinas" }, "geometry": { "type": "Point", "coordinates": [ -47.0601647, -23.2446663 ] } },
{ "type": "Feature", "properties": { "CNPJ": "04630454000105", "IDCIDADE": "CABREUVA", "NOMEFANTASIA": "AZUL_CALCADOS", "RAZAOSOCIAL": "LOJA_JACARE_CALCADOS_LTDA", "ENDEE": "AVENIDA_SAO_PAULO750__JACARE_13318-040", "LMAPS": "https://www.google.com/maps?q=&layer=c&cbll=-47.0602018,-23.2448041", "O_QUE_FAZER": "CARTEIRA", "ER_REGIAO_CIDADE_min": "Cabreúva_Jacaré_Campinas" }, "geometry": { "type": "Point", "coordinates": [ -47.0602018, -23.2448041 ] } },
{ "type": "Feature", "properties": { "CNPJ": "04624738000180", "IDCIDADE": "CABREUVA", "NOMEFANTASIA": "PAPELARIA_PAPEL_&_CIA", "RAZAOSOCIAL": "PAPELARIA_PAPELECIA_JACARE_LTDA", "ENDEE": "AVENIDA_SAO_PAULO762__JACARE_13318-040", "LMAPS": "https://www.google.com/maps?q=&layer=c&cbll=-47.0604097,-23.2447077", "O_QUE_FAZER": "CARTEIRA", "ER_REGIAO_CIDADE_min": "Cabreúva_Jacaré_Campinas" }, "geometry": { "type": "Point", "coordinates": [ -47.0604097, -23.2447077 ] } },
{ "type": "Feature", "properties": { "CNPJ": "18021533000115", "IDCIDADE": "CABREUVA", "NOMEFANTASIA": "LUANA_MODAS", "RAZAOSOCIAL": "LUANA_RIBAS_PEREIRA_MOITAL", "ENDEE": "AVENIDA_SAO_PAULO770__CENTRO_13318-040", "LMAPS": "https://www.google.com/maps?q=&layer=c&cbll=-47.06007,-23.2446813", "O_QUE_FAZER": "CARTEIRA", "ER_REGIAO_CIDADE_min": "Cabreúva_Jacaré_Campinas" }, "geometry": { "type": "Point", "coordinates": [ -47.06007, -23.2446813 ] } },
{ "type": "Feature", "properties": { "CNPJ": "08608204000111", "IDCIDADE": "CABREUVA", "NOMEFANTASIA": "A_NORDESTINA", "RAZAOSOCIAL": "JZS_PRODUTOS_ALIMENTICIOS_LTDA", "ENDEE": "AVENIDA_SAO_PAULO806__CENTRO_13318-040", "LMAPS": "https://www.google.com/maps?q=&layer=c&cbll=-47.0589317,-23.2444", "O_QUE_FAZER": "CARTEIRA", "ER_REGIAO_CIDADE_min": "Cabreúva_Jacaré_Campinas" }, "geometry": { "type": "Point", "coordinates": [ -47.0589317, -23.2444 ] } },
{ "type": "Feature", "properties": { "CNPJ": "28370301000126", "IDCIDADE": "CABREUVA", "NOMEFANTASIA": "KIDSTOK", "RAZAOSOCIAL": "A._B._G._ZWAIZDIS_ROUPAS_LTDA", "ENDEE": "AVENIDA_SAO_PAULO806__CENTRO_13318-040", "LMAPS": "https://www.google.com/maps?q=&layer=c&cbll=-47.0589389,-23.2444975", "O_QUE_FAZER": "CARTEIRA", "ER_REGIAO_CIDADE_min": "Cabreúva_Jacaré_Campinas" }, "geometry": { "type": "Point", "coordinates": [ -47.0589389, -23.2444975 ] } },
{ "type": "Feature", "properties": { "CNPJ": "02069405000101", "IDCIDADE": "CABREUVA", "NOMEFANTASIA": "MULTIFARMA", "RAZAOSOCIAL": "JFM_DROGARIAS_LTDA", "ENDEE": "AVENIDA_SAO_PAULO806__JACARE_13318-040", "LMAPS": "https://www.google.com/maps?q=&layer=c&cbll=-47.0589709,-23.2442447", "O_QUE_FAZER": "CARTEIRA", "ER_REGIAO_CIDADE_min": "Cabreúva_Jacaré_Campinas" }, "geometry": { "type": "Point", "coordinates": [ -47.0589709, -23.2442447 ] } },
{ "type": "Feature", "properties": { "CNPJ": "24057773000172", "IDCIDADE": "CABREUVA", "NOMEFANTASIA": "SUBWAY", "RAZAOSOCIAL": "LANCHONETE_SHAVI_LTDA", "ENDEE": "AVENIDA_SAO_PAULO806__JACARE_13318-040", "LMAPS": "https://www.google.com/maps?q=&layer=c&cbll=-47.0587911,-23.2442508", "O_QUE_FAZER": "CARTEIRA", "ER_REGIAO_CIDADE_min": "Cabreúva_Jacaré_Campinas" }, "geometry": { "type": "Point", "coordinates": [ -47.0587911, -23.2442508 ] } },
{ "type": "Feature", "properties": { "CNPJ": "27278515000104", "IDCIDADE": "CABREUVA", "NOMEFANTASIA": "CAMILO_MOTOS", "RAZAOSOCIAL": "CAMILO_MOTOS_LTDA", "ENDEE": "AVENIDA_SAO_PAULO818__JACARE_13318-040", "LMAPS": "https://www.google.com/maps?q=&layer=c&cbll=-47.059518,-23.2443079", "O_QUE_FAZER": "CARTEIRA", "ER_REGIAO_CIDADE_min": "Cabreúva_Jacaré_Campinas" }, "geometry": { "type": "Point", "coordinates": [ -47.059518, -23.2443079 ] } },
{ "type": "Feature", "properties": { "CNPJ": "31822854000187", "IDCIDADE": "CABREUVA", "NOMEFANTASIA": "CACAU_SHOW", "RAZAOSOCIAL": "TMGL_CHOCOLATES_FINOS_LTDA", "ENDEE": "AVENIDA_SAO_PAULO864__JACARE_13318-040", "LMAPS": "https://www.google.com/maps?q=&layer=c&cbll=-47.0592274,-23.2441232", "O_QUE_FAZER": "CARTEIRA", "ER_REGIAO_CIDADE_min": "Cabreúva_Jacaré_Campinas" }, "geometry": { "type": "Point", "coordinates": [ -47.0592274, -23.2441232 ] } },
{ "type": "Feature", "properties": { "CNPJ": "09248165000151", "IDCIDADE": "CABREUVA", "NOMEFANTASIA": "CASA_DO_JARDINEIRO", "RAZAOSOCIAL": "GERSON_ROBSON_FURLAN_&_CIA._LTDA", "ENDEE": "AVENIDA_SAO_PAULO916__CENTRO_13318-040", "LMAPS": "https://www.google.com/maps?q=&layer=c&cbll=-47.0587873,-23.2442989", "O_QUE_FAZER": "CARTEIRA", "ER_REGIAO_CIDADE_min": "Cabreúva_Jacaré_Campinas" }, "geometry": { "type": "Point", "coordinates": [ -47.0587873, -23.2442989 ] } },
{ "type": "Feature", "properties": { "CNPJ": "12686182000185", "IDCIDADE": "CABREUVA", "NOMEFANTASIA": "MOTORES_ELETRICO_NASCIMENTO", "RAZAOSOCIAL": "J.L._DO_NASCIMENTO", "ENDEE": "RUA_AMAPA40__CENTRO_13318-044", "LMAPS": "https://www.google.com/maps?q=&layer=c&cbll=-47.0645956,-23.2458554", "O_QUE_FAZER": "CARTEIRA", "ER_REGIAO_CIDADE_min": "Cabreúva_Jacaré_Campinas" }, "geometry": { "type": "Point", "coordinates": [ -47.0645956, -23.2458554 ] } },
{ "type": "Feature", "properties": { "CNPJ": "67155259000182", "IDCIDADE": "CABREUVA", "NOMEFANTASIA": "FISIOCENTER_CABREUVA", "RAZAOSOCIAL": "FISIOCENTER_CABREUVA_LTDA", "ENDEE": "AVENIDA_CABREUVA126__CENTRO_13318-060", "LMAPS": "https://www.google.com/maps?q=&layer=c&cbll=-47.0619588,-23.2461298", "O_QUE_FAZER": "CARTEIRA", "ER_REGIAO_CIDADE_min": "Cabreúva_Jacaré_Campinas" }, "geometry": { "type": "Point", "coordinates": [ -47.0619588, -23.2461298 ] } },
{ "type": "Feature", "properties": { "CNPJ": "48649491000122", "IDCIDADE": "CABREUVA", "NOMEFANTASIA": "GLOVAN_CABREUVA_ALUGUEL_DE_EQUIPAMENTOS", "RAZAOSOCIAL": "GLOVAN_CABREUVA_ALUGUEL_DE_EQUIPAMENTOS_LTDA", "ENDEE": "AVENIDA_CABREUVA180__CENTRO_13318-060", "LMAPS": "https://www.google.com/maps?q=&layer=c&cbll=-47.061907,-23.2464657", "O_QUE_FAZER": "CARTEIRA", "ER_REGIAO_CIDADE_min": "Cabreúva_Jacaré_Campinas" }, "geometry": { "type": "Point", "coordinates": [ -47.061907, -23.2464657 ] } },
{ "type": "Feature", "properties": { "CNPJ": "03270918000149", "IDCIDADE": "CABREUVA", "NOMEFANTASIA": "AGUA_PURA", "RAZAOSOCIAL": "JORGE_AKIRA_SATO_CABREUVA", "ENDEE": "AVENIDA_ITALIA100__CENTRO_13318-076", "LMAPS": "https://www.google.com/maps?q=&layer=c&cbll=-47.0604497,-23.2453563", "O_QUE_FAZER": "CARTEIRA", "ER_REGIAO_CIDADE_min": "Cabreúva_Jacaré_Campinas" }, "geometry": { "type": "Point", "coordinates": [ -47.0604497, -23.2453563 ] } },
{ "type": "Feature", "properties": { "CNPJ": "12157146000124", "IDCIDADE": "CABREUVA", "NOMEFANTASIA": "CIA_DAS_INDUSTRIAS", "RAZAOSOCIAL": "ATN_COMERCIO_DE_ARTIGOS_DE_BORRACHA_LTDA", "ENDEE": "AVENIDA_ITALIA58__JACARE_13318-076", "LMAPS": "https://www.google.com/maps?q=&layer=c&cbll=-47.0605955,-23.2450083", "O_QUE_FAZER": "CARTEIRA", "ER_REGIAO_CIDADE_min": "Cabreúva_Jacaré_Campinas" }, "geometry": { "type": "Point", "coordinates": [ -47.0605955, -23.2450083 ] } },
{ "type": "Feature", "properties": { "CNPJ": "41321702000154", "IDCIDADE": "CABREUVA", "NOMEFANTASIA": "SA_PEREIRA_SOCIEDADE_UNIPESSOAL", "RAZAOSOCIAL": "SA_PEREIRA_SOCIEDADE_UNIPESSOAL_LIMITADA", "ENDEE": "AVENIDA_ITALIA63__CENTRO_13318-076", "LMAPS": "https://www.google.com/maps?q=&layer=c&cbll=-47.0606833,-23.2452533", "O_QUE_FAZER": "CARTEIRA", "ER_REGIAO_CIDADE_min": "Cabreúva_Jacaré_Campinas" }, "geometry": { "type": "Point", "coordinates": [ -47.0606833, -23.2452533 ] } },
{ "type": "Feature", "properties": { "CNPJ": "00167356000386", "IDCIDADE": "CABREUVA", "NOMEFANTASIA": "O_BOTICARIO", "RAZAOSOCIAL": "CAMAGUI_COMERCIO_DE_PRODUTOS_COSMETICOS_LTDA", "ENDEE": "AVENIDA_ITALIA640__JACARE_13318-076", "LMAPS": "https://www.google.com/maps?q=&layer=c&cbll=-47.0604288,-23.2446922", "O_QUE_FAZER": "CARTEIRA", "ER_REGIAO_CIDADE_min": "Cabreúva_Jacaré_Campinas" }, "geometry": { "type": "Point", "coordinates": [ -47.0604288, -23.2446922 ] } },
{ "type": "Feature", "properties": { "CNPJ": "04969578000101", "IDCIDADE": "CABREUVA", "NOMEFANTASIA": "OTICA_PUPILA", "RAZAOSOCIAL": "OTICA_PUPILA_CABREUVA_LTDA", "ENDEE": "AVENIDA_ITALIA66__JACARE_13318-076", "LMAPS": "https://www.google.com/maps?q=&layer=c&cbll=-47.0604946,-23.2450467", "O_QUE_FAZER": "CARTEIRA", "ER_REGIAO_CIDADE_min": "Cabreúva_Jacaré_Campinas" }, "geometry": { "type": "Point", "coordinates": [ -47.0604946, -23.2450467 ] } },
{ "type": "Feature", "properties": { "CNPJ": "11864465000107", "IDCIDADE": "CABREUVA", "NOMEFANTASIA": "REMAX", "RAZAOSOCIAL": "ADM_LOCACAO_&_VENDAS_DE_IMOVEIS_LTDA", "ENDEE": "AVENIDA_ITALIA678__JACARE_13318-076", "LMAPS": "https://www.google.com/maps?q=&layer=c&cbll=-47.0608685,-23.2447466", "O_QUE_FAZER": "CARTEIRA", "ER_REGIAO_CIDADE_min": "Cabreúva_Jacaré_Campinas" }, "geometry": { "type": "Point", "coordinates": [ -47.0608685, -23.2447466 ] } },
{ "type": "Feature", "properties": { "CNPJ": "04230097000180", "IDCIDADE": "CABREUVA", "NOMEFANTASIA": "MARISSA_MODAS", "RAZAOSOCIAL": "MARIA_SATO_CABREUVA", "ENDEE": "AVENIDA_ITALIA8185__JACARE_13318-076", "LMAPS": "https://www.google.com/maps?q=&layer=c&cbll=-47.0603631,-23.2451755", "O_QUE_FAZER": "CARTEIRA", "ER_REGIAO_CIDADE_min": "Cabreúva_Jacaré_Campinas" }, "geometry": { "type": "Point", "coordinates": [ -47.0603631, -23.2451755 ] } },
{ "type": "Feature", "properties": { "CNPJ": "25402798000129", "IDCIDADE": "CABREUVA", "NOMEFANTASIA": "PARAFUSO_E_CIA", "RAZAOSOCIAL": "ELENA_MARIA_GODOY_PEIXOTO", "ENDEE": "AVENIDA_ITALIA88__CENTRO_13318-076", "LMAPS": "https://www.google.com/maps?q=&layer=c&cbll=-47.0604763,-23.2452605", "O_QUE_FAZER": "CARTEIRA", "ER_REGIAO_CIDADE_min": "Cabreúva_Jacaré_Campinas" }, "geometry": { "type": "Point", "coordinates": [ -47.0604763, -23.2452605 ] } },
{ "type": "Feature", "properties": { "CNPJ": "50166116000173", "IDCIDADE": "CABREUVA", "NOMEFANTASIA": "MOCA_BONITA", "RAZAOSOCIAL": "LUCIANA_FONTES_PERFUMARIA_E_COSMETICOS_LTDA", "ENDEE": "AVENIDA_ITALIA94__CENTRO_13318-076", "LMAPS": "https://www.google.com/maps?q=&layer=c&cbll=-47.05805,-23.2461383", "O_QUE_FAZER": "CARTEIRA", "ER_REGIAO_CIDADE_min": "Cabreúva_Jacaré_Campinas" }, "geometry": { "type": "Point", "coordinates": [ -47.05805, -23.2461383 ] } },
{ "type": "Feature", "properties": { "CNPJ": "49518112000128", "IDCIDADE": "CABREUVA", "NOMEFANTASIA": "IMPERIO_DOS_CHINELOS", "RAZAOSOCIAL": "IMPERIO_DOS_CHINELOS_LTDA", "ENDEE": "RUA_BRAZ_LOPES_FILHO136__JACARE_13318-078", "LMAPS": "https://www.google.com/maps?q=&layer=c&cbll=-47.0593016,-23.2450916", "O_QUE_FAZER": "CARTEIRA", "ER_REGIAO_CIDADE_min": "Cabreúva_Jacaré_Campinas" }, "geometry": { "type": "Point", "coordinates": [ -47.0593016, -23.2450916 ] } },
{ "type": "Feature", "properties": { "CNPJ": "01480578000155", "IDCIDADE": "CABREUVA", "NOMEFANTASIA": "OTICA_E_IMAGEM_WILSON", "RAZAOSOCIAL": "WILSON_YOSHIO_HIRAYAMA", "ENDEE": "RUA_BRAZ_LOPES_FILHO23__JACARE_13318-078", "LMAPS": "https://www.google.com/maps?q=&layer=c&cbll=-47.0602329,-23.2450221", "O_QUE_FAZER": "CARTEIRA", "ER_REGIAO_CIDADE_min": "Cabreúva_Jacaré_Campinas" }, "geometry": { "type": "Point", "coordinates": [ -47.0602329, -23.2450221 ] } },
{ "type": "Feature", "properties": { "CNPJ": "07255069000105", "IDCIDADE": "CABREUVA", "NOMEFANTASIA": "SIMONE_MODAS", "RAZAOSOCIAL": "SIMONE_RODRIGUES_DE_LIMA", "ENDEE": "RUA_BRAZ_LOPES_FILHO30__JACARE_13318-078", "LMAPS": "https://www.google.com/maps?q=&layer=c&cbll=-47.0599918,-23.2449415", "O_QUE_FAZER": "CARTEIRA", "ER_REGIAO_CIDADE_min": "Cabreúva_Jacaré_Campinas" }, "geometry": { "type": "Point", "coordinates": [ -47.0599918, -23.2449415 ] } },
{ "type": "Feature", "properties": { "CNPJ": "06147705000112", "IDCIDADE": "CABREUVA", "NOMEFANTASIA": "ACADEMIA_ATITUDE", "RAZAOSOCIAL": "HAROLDO_CARLOS_SAKAMOTO", "ENDEE": "RUA_BRAZ_LOPES_FILHO40__JACARE_13318-078", "LMAPS": "https://www.google.com/maps?q=&layer=c&cbll=-47.0600385,-23.2450815", "O_QUE_FAZER": "CARTEIRA", "ER_REGIAO_CIDADE_min": "Cabreúva_Jacaré_Campinas" }, "geometry": { "type": "Point", "coordinates": [ -47.0600385, -23.2450815 ] } },
{ "type": "Feature", "properties": { "CNPJ": "05668713000141", "IDCIDADE": "CABREUVA", "NOMEFANTASIA": "CENTRO_DIGITAL_INFORMATICA", "RAZAOSOCIAL": "CENTRO_DIGITAL_DE_INFORMATICA_LTDA", "ENDEE": "RUA_BRAZ_LOPES_FILHO56__JACARE_13318-078", "LMAPS": "https://www.google.com/maps?q=&layer=c&cbll=-47.0598653,-23.2450717", "O_QUE_FAZER": "CARTEIRA", "ER_REGIAO_CIDADE_min": "Cabreúva_Jacaré_Campinas" }, "geometry": { "type": "Point", "coordinates": [ -47.0598653, -23.2450717 ] } },
{ "type": "Feature", "properties": { "CNPJ": "18669495000101", "IDCIDADE": "CABREUVA", "NOMEFANTASIA": "DESPACHANTE_TORRES", "RAZAOSOCIAL": "ADI_PEREIRA_TORRES", "ENDEE": "RUA_BRAZ_LOPES_FILHO66__JACARE_13318-078", "LMAPS": "https://www.google.com/maps?q=&layer=c&cbll=-47.059803,-23.2451236", "O_QUE_FAZER": "CARTEIRA", "ER_REGIAO_CIDADE_min": "Cabreúva_Jacaré_Campinas" }, "geometry": { "type": "Point", "coordinates": [ -47.059803, -23.2451236 ] } },
{ "type": "Feature", "properties": { "CNPJ": "19810929000104", "IDCIDADE": "CABREUVA", "NOMEFANTASIA": "EXCLUSIVA", "RAZAOSOCIAL": "SILENE_PEREIRA_DE_MORAIS", "ENDEE": "RUA_BRAZ_LOPES_FILHO96__JACARE_13318-078", "LMAPS": "https://www.google.com/maps?q=&layer=c&cbll=-47.0593724,-23.2450875", "O_QUE_FAZER": "CARTEIRA", "ER_REGIAO_CIDADE_min": "Cabreúva_Jacaré_Campinas" }, "geometry": { "type": "Point", "coordinates": [ -47.0593724, -23.2450875 ] } },
{ "type": "Feature", "properties": { "CNPJ": "04358525000154", "IDCIDADE": "CABREUVA", "NOMEFANTASIA": "PODIUM_ACADEMIA", "RAZAOSOCIAL": "PODIUM_ACADEMIA_LTDA", "ENDEE": "RUA_PARA220__CENTRO_13318-090", "LMAPS": "https://www.google.com/maps?q=&layer=c&cbll=-47.058877,-23.254054", "O_QUE_FAZER": "CARTEIRA", "ER_REGIAO_CIDADE_min": "Cabreúva_Jacaré_Campinas" }, "geometry": { "type": "Point", "coordinates": [ -47.058877, -23.254054 ] } },
{ "type": "Feature", "properties": { "CNPJ": "27603004000110", "IDCIDADE": "CABREUVA", "NOMEFANTASIA": "SOCIAL_MODAS", "RAZAOSOCIAL": "KETLIN_RAISSA_DE_OLIVEIRA", "ENDEE": "RUA_MINAS_GERAIS120__JACARE_13318-096", "LMAPS": "https://www.google.com/maps?q=&layer=c&cbll=-47.0589939,-23.2450228", "O_QUE_FAZER": "CARTEIRA", "ER_REGIAO_CIDADE_min": "Cabreúva_Jacaré_Campinas" }, "geometry": { "type": "Point", "coordinates": [ -47.0589939, -23.2450228 ] } },
{ "type": "Feature", "properties": { "CNPJ": "37035914000106", "IDCIDADE": "CABREUVA", "NOMEFANTASIA": "OUTLET_STRIX", "RAZAOSOCIAL": "STRIX_SUPLEMENTOS_ALIMENTICIOS_LTDA", "ENDEE": "RUA_MINAS_GERAIS124__JACARE_13318-096", "LMAPS": "https://www.google.com/maps?q=&layer=c&cbll=-47.0589613,-23.2451673", "O_QUE_FAZER": "CARTEIRA", "ER_REGIAO_CIDADE_min": "Cabreúva_Jacaré_Campinas" }, "geometry": { "type": "Point", "coordinates": [ -47.0589613, -23.2451673 ] } },
{ "type": "Feature", "properties": { "CNPJ": "14123664000152", "IDCIDADE": "CABREUVA", "NOMEFANTASIA": "VAREJAO_LE_VERFRU", "RAZAOSOCIAL": "VAREJAO_LE_VERFRU_LTDA", "ENDEE": "RUA_MINAS_GERAIS1245__CENTRO_13318-096", "LMAPS": "https://www.google.com/maps?q=&layer=c&cbll=-47.0578723,-23.2553525", "O_QUE_FAZER": "CARTEIRA", "ER_REGIAO_CIDADE_min": "Cabreúva_Jacaré_Campinas" }, "geometry": { "type": "Point", "coordinates": [ -47.0578723, -23.2553525 ] } },
{ "type": "Feature", "properties": { "CNPJ": "27148959000125", "IDCIDADE": "CABREUVA", "NOMEFANTASIA": "OUSE", "RAZAOSOCIAL": "SILVANIA_PEREIRA_MORAIS", "ENDEE": "RUA_MINAS_GERAIS128__JACARE_13318-096", "LMAPS": "https://www.google.com/maps?q=&layer=c&cbll=-47.0590932,-23.2450583", "O_QUE_FAZER": "CARTEIRA", "ER_REGIAO_CIDADE_min": "Cabreúva_Jacaré_Campinas" }, "geometry": { "type": "Point", "coordinates": [ -47.0590932, -23.2450583 ] } },
{ "type": "Feature", "properties": { "CNPJ": "33661388000120", "IDCIDADE": "CABREUVA", "NOMEFANTASIA": "OTICA_HD", "RAZAOSOCIAL": "I._NOVAIS_OTICA_LTDA", "ENDEE": "RUA_MINAS_GERAIS128__JACARE_13318-096", "LMAPS": "https://www.google.com/maps?q=&layer=c&cbll=-47.058963,-23.2452328", "O_QUE_FAZER": "CARTEIRA", "ER_REGIAO_CIDADE_min": "Cabreúva_Jacaré_Campinas" }, "geometry": { "type": "Point", "coordinates": [ -47.058963, -23.2452328 ] } },
{ "type": "Feature", "properties": { "CNPJ": "30829255000122", "IDCIDADE": "CABREUVA", "NOMEFANTASIA": "TAMB_COSMETICOS", "RAZAOSOCIAL": "TAMB_COSMETICOS_E_PERFUMARIA_LTDA", "ENDEE": "RUA_MINAS_GERAIS161__JACARE_13318-096", "LMAPS": "https://www.google.com/maps?q=&layer=c&cbll=-47.0592144,-23.2452685", "O_QUE_FAZER": "CARTEIRA", "ER_REGIAO_CIDADE_min": "Cabreúva_Jacaré_Campinas" }, "geometry": { "type": "Point", "coordinates": [ -47.0592144, -23.2452685 ] } },
{ "type": "Feature", "properties": { "CNPJ": "30828489000155", "IDCIDADE": "CABREUVA", "NOMEFANTASIA": "OTICAS_IPANEMA", "RAZAOSOCIAL": "CENTRO_OTICO_CABREUVA_LTDA.", "ENDEE": "RUA_MINAS_GERAIS161__JACARE_13318-096", "LMAPS": "https://www.google.com/maps?q=&layer=c&cbll=-47.0587578,-23.2454189", "O_QUE_FAZER": "CARTEIRA", "ER_REGIAO_CIDADE_min": "Cabreúva_Jacaré_Campinas" }, "geometry": { "type": "Point", "coordinates": [ -47.0587578, -23.2454189 ] } },
{ "type": "Feature", "properties": { "CNPJ": "29205924000106", "IDCIDADE": "CABREUVA", "NOMEFANTASIA": "ARAMAICO_ENGENHARIA_E_CONSTRUCAO", "RAZAOSOCIAL": "ARAMAICO_ENGENHARIA_E_CONSTRUCAO_LTDA", "ENDEE": "RUA_MINAS_GERAIS161__JACARE_13318-096", "LMAPS": "https://www.google.com/maps?q=&layer=c&cbll=-47.0584606,-23.2454503", "O_QUE_FAZER": "CARTEIRA", "ER_REGIAO_CIDADE_min": "Cabreúva_Jacaré_Campinas" }, "geometry": { "type": "Point", "coordinates": [ -47.0584606, -23.2454503 ] } },
{ "type": "Feature", "properties": { "CNPJ": "03411933000160", "IDCIDADE": "CABREUVA", "NOMEFANTASIA": "SLOT_LOCACAO_E_COMERCIO_DE_EQUIPAMENTOS_ELETRONICOS", "RAZAOSOCIAL": "SLOT_LOCACAO_E_COMERCIO_DE_EQUIPAMENTOS_ELETRONICOS_LTDA", "ENDEE": "RUA_MINAS_GERAIS161__JACARE_13318-096", "LMAPS": "https://www.google.com/maps?q=&layer=c&cbll=-47.05859,-23.2454916", "O_QUE_FAZER": "CARTEIRA", "ER_REGIAO_CIDADE_min": "Cabreúva_Jacaré_Campinas" }, "geometry": { "type": "Point", "coordinates": [ -47.05859, -23.2454916 ] } },
{ "type": "Feature", "properties": { "CNPJ": "11392991000111", "IDCIDADE": "CABREUVA", "NOMEFANTASIA": "DOCERIA_SANTOS_CABREUVA", "RAZAOSOCIAL": "DOCERIA_SANTOS_CABREUVA_LTDA", "ENDEE": "RUA_MINAS_GERAIS181__JACARE_13318-096", "LMAPS": "https://www.google.com/maps?q=&layer=c&cbll=-47.0587174,-23.2456077", "O_QUE_FAZER": "CARTEIRA", "ER_REGIAO_CIDADE_min": "Cabreúva_Jacaré_Campinas" }, "geometry": { "type": "Point", "coordinates": [ -47.0587174, -23.2456077 ] } },
{ "type": "Feature", "properties": { "CNPJ": "31372472000107", "IDCIDADE": "CABREUVA", "NOMEFANTASIA": "CVC_TURISMO", "RAZAOSOCIAL": "NOVA_OPCAO_TURISMO_CABREUVA_LTDA", "ENDEE": "RUA_MINAS_GERAIS181__JACARE_13318-096", "LMAPS": "https://www.google.com/maps?q=&layer=c&cbll=-47.0586727,-23.2456165", "O_QUE_FAZER": "CARTEIRA", "ER_REGIAO_CIDADE_min": "Cabreúva_Jacaré_Campinas" }, "geometry": { "type": "Point", "coordinates": [ -47.0586727, -23.2456165 ] } },
{ "type": "Feature", "properties": { "CNPJ": "23984945000190", "IDCIDADE": "CABREUVA", "NOMEFANTASIA": "CASA_DE_BOLOS", "RAZAOSOCIAL": "BOLOS_CABREUVA_LTDA", "ENDEE": "RUA_MINAS_GERAIS260__JACARE_13318-096", "LMAPS": "https://www.google.com/maps?q=&layer=c&cbll=-47.0582982,-23.2459804", "O_QUE_FAZER": "CARTEIRA", "ER_REGIAO_CIDADE_min": "Cabreúva_Jacaré_Campinas" }, "geometry": { "type": "Point", "coordinates": [ -47.0582982, -23.2459804 ] } },
{ "type": "Feature", "properties": { "CNPJ": "05961720000137", "IDCIDADE": "CABREUVA", "NOMEFANTASIA": "VANDER_CANDIDO_FERREIRA_ESCOLA", "RAZAOSOCIAL": "VANDER_CANDIDO_FERREIRA_ESCOLA", "ENDEE": "RUA_MINAS_GERAIS376__CENTRO_13318-096", "LMAPS": "https://www.google.com/maps?q=&layer=c&cbll=-47.0584651,-23.2470518", "O_QUE_FAZER": "CARTEIRA", "ER_REGIAO_CIDADE_min": "Cabreúva_Jacaré_Campinas" }, "geometry": { "type": "Point", "coordinates": [ -47.0584651, -23.2470518 ] } },
{ "type": "Feature", "properties": { "CNPJ": "11299503000126", "IDCIDADE": "CABREUVA", "NOMEFANTASIA": "RHA_MODAS", "RAZAOSOCIAL": "RHA_MODAS_LTDA", "ENDEE": "RUA_MINAS_GERAIS44__CENTRO_13318-096", "LMAPS": "https://www.google.com/maps?q=&layer=c&cbll=-47.0592104,-23.2444896", "O_QUE_FAZER": "CARTEIRA", "ER_REGIAO_CIDADE_min": "Cabreúva_Jacaré_Campinas" }, "geometry": { "type": "Point", "coordinates": [ -47.0592104, -23.2444896 ] } },
{ "type": "Feature", "properties": { "CNPJ": "15612516000164", "IDCIDADE": "CABREUVA", "NOMEFANTASIA": "L.M._F._USINAGEM", "RAZAOSOCIAL": "CLAUDINEI_FERNANDES_DA_SILVA_USINAGEM_LTDA", "ENDEE": "RUA_MINAS_GERAIS657__CENTRO_13318-096", "LMAPS": "https://www.google.com/maps?q=&layer=c&cbll=-47.0578898,-23.2495965", "O_QUE_FAZER": "CARTEIRA", "ER_REGIAO_CIDADE_min": "Cabreúva_Jacaré_Campinas" }, "geometry": { "type": "Point", "coordinates": [ -47.0578898, -23.2495965 ] } },
{ "type": "Feature", "properties": { "CNPJ": "33761770000297", "IDCIDADE": "CABREUVA", "NOMEFANTASIA": "BRASIL_CACAU", "RAZAOSOCIAL": "DREAM_COMERCIO_DE_CHOCOLATES_E_DOCES_LTDA", "ENDEE": "RUA_ANTONIO_FURQUIM220__JACARE_13318-108", "LMAPS": "https://www.google.com/maps?q=&layer=c&cbll=-47.0582814,-23.2454225", "O_QUE_FAZER": "CARTEIRA", "ER_REGIAO_CIDADE_min": "Cabreúva_Jacaré_Campinas" }, "geometry": { "type": "Point", "coordinates": [ -47.0582814, -23.2454225 ] } },
{ "type": "Feature", "properties": { "CNPJ": "22470796000189", "IDCIDADE": "CABREUVA", "NOMEFANTASIA": "FEDERZONI_PROJETOS", "RAZAOSOCIAL": "M._S._FEDERZONI", "ENDEE": "RUA_ANTONIO_FURQUIM220__JACARE_13318-108", "LMAPS": "https://www.google.com/maps?q=&layer=c&cbll=-47.0581427,-23.2455138", "O_QUE_FAZER": "CARTEIRA", "ER_REGIAO_CIDADE_min": "Cabreúva_Jacaré_Campinas" }, "geometry": { "type": "Point", "coordinates": [ -47.0581427, -23.2455138 ] } },
{ "type": "Feature", "properties": { "CNPJ": "38067189000102", "IDCIDADE": "CABREUVA", "NOMEFANTASIA": "CRUZEIRO_DO_SUL_VIRTUAL", "RAZAOSOCIAL": "T&M_CONSULTORIAS_LTDA", "ENDEE": "RUA_ANTONIO_FURQUIM220__JACARE_13318-108", "LMAPS": "https://www.google.com/maps?q=&layer=c&cbll=-47.0581951,-23.2459207", "O_QUE_FAZER": "CARTEIRA", "ER_REGIAO_CIDADE_min": "Cabreúva_Jacaré_Campinas" }, "geometry": { "type": "Point", "coordinates": [ -47.0581951, -23.2459207 ] } },
{ "type": "Feature", "properties": { "CNPJ": "22890307000148", "IDCIDADE": "CABREUVA", "NOMEFANTASIA": "PACLIMP", "RAZAOSOCIAL": "PACLIMP_PRODUTOS_E_MATERIAIS_DE_LIMPEZA_E_HIGIENE_JACARE_LTDA.", "ENDEE": "RUA_ANTONIO_FURQUIM260__JACARE_13318-108", "LMAPS": "https://www.google.com/maps?q=&layer=c&cbll=-47.0583972,-23.2459988", "O_QUE_FAZER": "CARTEIRA", "ER_REGIAO_CIDADE_min": "Cabreúva_Jacaré_Campinas" }, "geometry": { "type": "Point", "coordinates": [ -47.0583972, -23.2459988 ] } },
{ "type": "Feature", "properties": { "CNPJ": "03501063000110", "IDCIDADE": "CABREUVA", "NOMEFANTASIA": "PASTELARIA_JACARE", "RAZAOSOCIAL": "OSVALDO_RAMALHO_COSTA", "ENDEE": "RUA_MARANHAO1190__CENTRO_13318-122", "LMAPS": "https://www.google.com/maps?q=&layer=c&cbll=-47.0560063,-23.2549631", "O_QUE_FAZER": "CARTEIRA", "ER_REGIAO_CIDADE_min": "Cabreúva_Jacaré_Campinas" }, "geometry": { "type": "Point", "coordinates": [ -47.0560063, -23.2549631 ] } },
{ "type": "Feature", "properties": { "CNPJ": "31562653000198", "IDCIDADE": "CABREUVA", "NOMEFANTASIA": "SPINA_BRINQUEDOS", "RAZAOSOCIAL": "TALITA_GODOI_SPINA", "ENDEE": "RUA_MARANHAO123__JACARE_13318-122", "LMAPS": "https://www.google.com/maps?q=&layer=c&cbll=-47.0562801,-23.2459267", "O_QUE_FAZER": "CARTEIRA", "ER_REGIAO_CIDADE_min": "Cabreúva_Jacaré_Campinas" }, "geometry": { "type": "Point", "coordinates": [ -47.0562801, -23.2459267 ] } },
{ "type": "Feature", "properties": { "CNPJ": "32114007000120", "IDCIDADE": "CABREUVA", "NOMEFANTASIA": "PREMIUM_LUBRIFICANTES", "RAZAOSOCIAL": "SUPER_PREMIUM_LUBRIFICANTES_LTDA", "ENDEE": "RUA_MARANHAO167__JACARE_13318-122", "LMAPS": "https://www.google.com/maps?q=&layer=c&cbll=-47.0562392,-23.2462527", "O_QUE_FAZER": "CARTEIRA", "ER_REGIAO_CIDADE_min": "Cabreúva_Jacaré_Campinas" }, "geometry": { "type": "Point", "coordinates": [ -47.0562392, -23.2462527 ] } },
{ "type": "Feature", "properties": { "CNPJ": "05674151000149", "IDCIDADE": "CABREUVA", "NOMEFANTASIA": "JADE_CLINICA_ODONTOLOGICA", "RAZAOSOCIAL": "CLINICA_ODONTOLOGICA_JADE_LTDA", "ENDEE": "RUA_MARANHAO187__JACARE_13318-122", "LMAPS": "https://www.google.com/maps?q=&layer=c&cbll=-47.0562746,-23.2464265", "O_QUE_FAZER": "CARTEIRA", "ER_REGIAO_CIDADE_min": "Cabreúva_Jacaré_Campinas" }, "geometry": { "type": "Point", "coordinates": [ -47.0562746, -23.2464265 ] } },
{ "type": "Feature", "properties": { "CNPJ": "07455543000142", "IDCIDADE": "CABREUVA", "NOMEFANTASIA": "REINALDO_MOTO_PECAS", "RAZAOSOCIAL": "ALINE_&_REINALDO_COMERCIO_DE_MOTOPECAS_LTDA", "ENDEE": "RUA_MARANHAO270__JACARE_13318-122", "LMAPS": "https://www.google.com/maps?q=&layer=c&cbll=-47.0560066,-23.2473748", "O_QUE_FAZER": "CARTEIRA", "ER_REGIAO_CIDADE_min": "Cabreúva_Jacaré_Campinas" }, "geometry": { "type": "Point", "coordinates": [ -47.0560066, -23.2473748 ] } },
{ "type": "Feature", "properties": { "CNPJ": "60148525000109", "IDCIDADE": "CABREUVA", "NOMEFANTASIA": "TRES_IRMAS", "RAZAOSOCIAL": "LOJA_TRES_IRMAS_JACARE_LTDA", "ENDEE": "RUA_MARANHAO283__JACARE_13318-122", "LMAPS": "https://www.google.com/maps?q=&layer=c&cbll=-47.0563637,-23.2476244", "O_QUE_FAZER": "CARTEIRA", "ER_REGIAO_CIDADE_min": "Cabreúva_Jacaré_Campinas" }, "geometry": { "type": "Point", "coordinates": [ -47.0563637, -23.2476244 ] } },
{ "type": "Feature", "properties": { "CNPJ": "32591879000180", "IDCIDADE": "CABREUVA", "NOMEFANTASIA": "OTICAS_DINIZ", "RAZAOSOCIAL": "COELHO_&_MIRANDA_OTICAS_LTDA", "ENDEE": "RUA_MARANHAO316__JACARE_13318-122", "LMAPS": "https://www.google.com/maps?q=&layer=c&cbll=-47.056367,-23.2475308", "O_QUE_FAZER": "CARTEIRA", "ER_REGIAO_CIDADE_min": "Cabreúva_Jacaré_Campinas" }, "geometry": { "type": "Point", "coordinates": [ -47.056367, -23.2475308 ] } },
{ "type": "Feature", "properties": { "CNPJ": "47252248000103", "IDCIDADE": "CABREUVA", "NOMEFANTASIA": "MIX_DA_ECONOMIA", "RAZAOSOCIAL": "ALIMENTOS_MELO_UEHARA_LTDA", "ENDEE": "RUA_MARANHAO316__JACARE_13318-122", "LMAPS": "https://www.google.com/maps?q=&layer=c&cbll=-47.0563293,-23.2476303", "O_QUE_FAZER": "CARTEIRA", "ER_REGIAO_CIDADE_min": "Cabreúva_Jacaré_Campinas" }, "geometry": { "type": "Point", "coordinates": [ -47.0563293, -23.2476303 ] } },
{ "type": "Feature", "properties": { "CNPJ": "11281031000184", "IDCIDADE": "CABREUVA", "NOMEFANTASIA": "LOJA_LILA", "RAZAOSOCIAL": "ERENILDA_XAVIER", "ENDEE": "RUA_MARANHAO326__JACARE_13318-122", "LMAPS": "https://www.google.com/maps?q=&layer=c&cbll=-47.0563787,-23.2477864", "O_QUE_FAZER": "CARTEIRA", "ER_REGIAO_CIDADE_min": "Cabreúva_Jacaré_Campinas" }, "geometry": { "type": "Point", "coordinates": [ -47.0563787, -23.2477864 ] } },
{ "type": "Feature", "properties": { "CNPJ": "09235423000165", "IDCIDADE": "CABREUVA", "NOMEFANTASIA": "DOCERIA_BEIJA_FLOR", "RAZAOSOCIAL": "VANDA_LUCIA_MENDES_COSTA", "ENDEE": "RUA_MARANHAO369__JACARE_13318-122", "LMAPS": "https://www.google.com/maps?q=&layer=c&cbll=-47.0561044,-23.2479696", "O_QUE_FAZER": "CARTEIRA", "ER_REGIAO_CIDADE_min": "Cabreúva_Jacaré_Campinas" }, "geometry": { "type": "Point", "coordinates": [ -47.0561044, -23.2479696 ] } },
{ "type": "Feature", "properties": { "CNPJ": "07237178000108", "IDCIDADE": "CABREUVA", "NOMEFANTASIA": "ADAPT_SKATEBOARD", "RAZAOSOCIAL": "S.A._DE_FREITAS", "ENDEE": "RUA_MARANHAO383__JACARE_13318-122", "LMAPS": "https://www.google.com/maps?q=&layer=c&cbll=-47.0561888,-23.2483653", "O_QUE_FAZER": "CARTEIRA", "ER_REGIAO_CIDADE_min": "Cabreúva_Jacaré_Campinas" }, "geometry": { "type": "Point", "coordinates": [ -47.0561888, -23.2483653 ] } },
{ "type": "Feature", "properties": { "CNPJ": "16540393000166", "IDCIDADE": "CABREUVA", "NOMEFANTASIA": "LINDA_BRAS", "RAZAOSOCIAL": "SOLANGE_DONIZETI_DOMINGUES_CABREUVA", "ENDEE": "RUA_MARANHAO418__JACARE_13318-122", "LMAPS": "https://www.google.com/maps?q=&layer=c&cbll=-47.0562381,-23.2486805", "O_QUE_FAZER": "CARTEIRA", "ER_REGIAO_CIDADE_min": "Cabreúva_Jacaré_Campinas" }, "geometry": { "type": "Point", "coordinates": [ -47.0562381, -23.2486805 ] } },
{ "type": "Feature", "properties": { "CNPJ": "01983571000156", "IDCIDADE": "CABREUVA", "NOMEFANTASIA": "KRACKS_SPORT", "RAZAOSOCIAL": "JENILDO_CEDRO_CAVALCANTI_&_CIA_LTDA", "ENDEE": "RUA_MARANHAO422__JACARE_13318-122", "LMAPS": "https://www.google.com/maps?q=&layer=c&cbll=-47.0563872,-23.2487173", "O_QUE_FAZER": "CARTEIRA", "ER_REGIAO_CIDADE_min": "Cabreúva_Jacaré_Campinas" }, "geometry": { "type": "Point", "coordinates": [ -47.0563872, -23.2487173 ] } },
{ "type": "Feature", "properties": { "CNPJ": "43361854000106", "IDCIDADE": "CABREUVA", "NOMEFANTASIA": "PACHECO_MATERIAIS_DE_CONSTRUCAO", "RAZAOSOCIAL": "RFP_MATERIAIS_PARA_CONSTRUCAO_LTDA", "ENDEE": "RUA_MARANHAO434__JACARE_13318-122", "LMAPS": "https://www.google.com/maps?q=&layer=c&cbll=-47.0563653,-23.2489014", "O_QUE_FAZER": "CARTEIRA", "ER_REGIAO_CIDADE_min": "Cabreúva_Jacaré_Campinas" }, "geometry": { "type": "Point", "coordinates": [ -47.0563653, -23.2489014 ] } },
{ "type": "Feature", "properties": { "CNPJ": "35079603000105", "IDCIDADE": "CABREUVA", "NOMEFANTASIA": "CELESTIAL_ANGEL", "RAZAOSOCIAL": "CELESTIAL_ANGEL_MODA_FEMININA_LTDA", "ENDEE": "RUA_MARANHAO442__CENTRO_13318-122", "LMAPS": "https://www.google.com/maps?q=&layer=c&cbll=-47.0563357,-23.2490883", "O_QUE_FAZER": "CARTEIRA", "ER_REGIAO_CIDADE_min": "Cabreúva_Jacaré_Campinas" }, "geometry": { "type": "Point", "coordinates": [ -47.0563357, -23.2490883 ] } },
{ "type": "Feature", "properties": { "CNPJ": "20508484000272", "IDCIDADE": "CABREUVA", "NOMEFANTASIA": "ITALIA_MODAS", "RAZAOSOCIAL": "ITALIA_MODA_PREMIUM_LTDA", "ENDEE": "RUA_MARANHAO451__JACARE_13318-122", "LMAPS": "https://www.google.com/maps?q=&layer=c&cbll=-47.0564182,-23.2487506", "O_QUE_FAZER": "CARTEIRA", "ER_REGIAO_CIDADE_min": "Cabreúva_Jacaré_Campinas" }, "geometry": { "type": "Point", "coordinates": [ -47.0564182, -23.2487506 ] } },
{ "type": "Feature", "properties": { "CNPJ": "10366445000143", "IDCIDADE": "CABREUVA", "NOMEFANTASIA": "CASA_BELA", "RAZAOSOCIAL": "BERNARDINA_ALVES_DO_PRADO", "ENDEE": "RUA_MARANHAO459__JACARE_13318-122", "LMAPS": "https://www.google.com/maps?q=&layer=c&cbll=-47.0560991,-23.248944", "O_QUE_FAZER": "CARTEIRA", "ER_REGIAO_CIDADE_min": "Cabreúva_Jacaré_Campinas" }, "geometry": { "type": "Point", "coordinates": [ -47.0560991, -23.248944 ] } },
{ "type": "Feature", "properties": { "CNPJ": "23178017000139", "IDCIDADE": "CABREUVA", "NOMEFANTASIA": "FRAN_CARDOZO", "RAZAOSOCIAL": "GIOVANNA_MODAS_CABREUVA_LTDA", "ENDEE": "RUA_MARANHAO464__CENTRO_13318-122", "LMAPS": "https://www.google.com/maps?q=&layer=c&cbll=-47.0562804,-23.2492345", "O_QUE_FAZER": "CARTEIRA", "ER_REGIAO_CIDADE_min": "Cabreúva_Jacaré_Campinas" }, "geometry": { "type": "Point", "coordinates": [ -47.0562804, -23.2492345 ] } },
{ "type": "Feature", "properties": { "CNPJ": "26740061000189", "IDCIDADE": "CABREUVA", "NOMEFANTASIA": "EMBALAGENS_CABREUVA", "RAZAOSOCIAL": "DESCARTAVEIS_CABREUVA_LTDA", "ENDEE": "RUA_MARANHAO470__JACARE_13318-122", "LMAPS": "https://www.google.com/maps?q=&layer=c&cbll=-47.0562522,-23.2491427", "O_QUE_FAZER": "CARTEIRA", "ER_REGIAO_CIDADE_min": "Cabreúva_Jacaré_Campinas" }, "geometry": { "type": "Point", "coordinates": [ -47.0562522, -23.2491427 ] } },
{ "type": "Feature", "properties": { "CNPJ": "07760682000260", "IDCIDADE": "CABREUVA", "NOMEFANTASIA": "FRALDAS_JACARE", "RAZAOSOCIAL": "FTS_ECOAMB_COMERCIO_DE_PRODUTOS_DE_HIGIENE_LTDA", "ENDEE": "RUA_MARANHAO476__JACARE_13318-122", "LMAPS": "https://www.google.com/maps?q=&layer=c&cbll=-47.056243,-23.2492932", "O_QUE_FAZER": "CARTEIRA", "ER_REGIAO_CIDADE_min": "Cabreúva_Jacaré_Campinas" }, "geometry": { "type": "Point", "coordinates": [ -47.056243, -23.2492932 ] } },
{ "type": "Feature", "properties": { "CNPJ": "49871100000182", "IDCIDADE": "CABREUVA", "NOMEFANTASIA": "OTICAS_E_JOIAS_KA_ALMEIDA", "RAZAOSOCIAL": "OTICA_E_JOIAS_KA_ALMEIDA_LTDA", "ENDEE": "RUA_MARANHAO478__JACARE_13318-122", "LMAPS": "https://www.google.com/maps?q=&layer=c&cbll=-47.0562252,-23.249307", "O_QUE_FAZER": "CARTEIRA", "ER_REGIAO_CIDADE_min": "Cabreúva_Jacaré_Campinas" }, "geometry": { "type": "Point", "coordinates": [ -47.0562252, -23.249307 ] } },
{ "type": "Feature", "properties": { "CNPJ": "03566103000292", "IDCIDADE": "CABREUVA", "NOMEFANTASIA": "AUTO_ESCOLA_OLIVEIRA", "RAZAOSOCIAL": "CENTRO_DE_FORMACAO_DE_CONDUTORES_AUTO_ESCOLA_OLIVEIRA_LTDA", "ENDEE": "RUA_MARANHAO480__JACARE_13318-122", "LMAPS": "https://www.google.com/maps?q=&layer=c&cbll=-47.0561936,-23.24941", "O_QUE_FAZER": "CARTEIRA", "ER_REGIAO_CIDADE_min": "Cabreúva_Jacaré_Campinas" }, "geometry": { "type": "Point", "coordinates": [ -47.0561936, -23.24941 ] } },
{ "type": "Feature", "properties": { "CNPJ": "33133119000191", "IDCIDADE": "CABREUVA", "NOMEFANTASIA": "CASA_DE_CARNES_ALIANCA", "RAZAOSOCIAL": "JOSEILMA_MARIA_DA_SILVA_SANTOS", "ENDEE": "RUA_MARANHAO484__JACARE_13318-122", "LMAPS": "https://www.google.com/maps?q=&layer=c&cbll=-47.0562833,-23.249372", "O_QUE_FAZER": "CARTEIRA", "ER_REGIAO_CIDADE_min": "Cabreúva_Jacaré_Campinas" }, "geometry": { "type": "Point", "coordinates": [ -47.0562833, -23.249372 ] } },
{ "type": "Feature", "properties": { "CNPJ": "49449660000143", "IDCIDADE": "CABREUVA", "NOMEFANTASIA": "FARMA_DOURADO", "RAZAOSOCIAL": "M.FERRAZ_PRODUTOS_FARMACEUTICOS_LTDA", "ENDEE": "RUA_MARANHAO500__JACARE_13318-122", "LMAPS": "https://www.google.com/maps?q=&layer=c&cbll=-47.0562726,-23.249528", "O_QUE_FAZER": "CARTEIRA", "ER_REGIAO_CIDADE_min": "Cabreúva_Jacaré_Campinas" }, "geometry": { "type": "Point", "coordinates": [ -47.0562726, -23.249528 ] } },
{ "type": "Feature", "properties": { "CNPJ": "04900365000123", "IDCIDADE": "CABREUVA", "NOMEFANTASIA": "POEIRA_AUTO_PECAS", "RAZAOSOCIAL": "MARIA_PEREIRA_DOS_SANTOS_CABREUVA", "ENDEE": "RUA_MARANHAO507__JACARE_13318-122", "LMAPS": "https://www.google.com/maps?q=&layer=c&cbll=-47.0561264,-23.2490776", "O_QUE_FAZER": "CARTEIRA", "ER_REGIAO_CIDADE_min": "Cabreúva_Jacaré_Campinas" }, "geometry": { "type": "Point", "coordinates": [ -47.0561264, -23.2490776 ] } },
{ "type": "Feature", "properties": { "CNPJ": "14051836000120", "IDCIDADE": "CABREUVA", "NOMEFANTASIA": "MECEDO'S", "RAZAOSOCIAL": "AMERICAN_GLOBAL_MACEDO'S_COMERCIO_DO_VESTUARIO_LTDA", "ENDEE": "RUA_MARANHAO516__JACARE_13318-122", "LMAPS": "https://www.google.com/maps?q=&layer=c&cbll=-47.0565212,-23.2484405", "O_QUE_FAZER": "CARTEIRA", "ER_REGIAO_CIDADE_min": "Cabreúva_Jacaré_Campinas" }, "geometry": { "type": "Point", "coordinates": [ -47.0565212, -23.2484405 ] } },
{ "type": "Feature", "properties": { "CNPJ": "37099178000141", "IDCIDADE": "CABREUVA", "NOMEFANTASIA": "LCC_LABORATORIO", "RAZAOSOCIAL": "LCC_-_LABORATORIO_CENTRAL_DE_CABREUVA_LTDA", "ENDEE": "RUA_MARANHAO569__CENTRO_13318-122", "LMAPS": "https://www.google.com/maps?q=&layer=c&cbll=-47.0560007,-23.2502972", "O_QUE_FAZER": "CARTEIRA", "ER_REGIAO_CIDADE_min": "Cabreúva_Jacaré_Campinas" }, "geometry": { "type": "Point", "coordinates": [ -47.0560007, -23.2502972 ] } },
{ "type": "Feature", "properties": { "CNPJ": "22151786000180", "IDCIDADE": "CABREUVA", "NOMEFANTASIA": "AQUILES_BIKE", "RAZAOSOCIAL": "THIAGO_ALVES_DOS_SANTOS_BICICLETARIA", "ENDEE": "RUA_MARANHAO699__CENTRO_13318-122", "LMAPS": "https://www.google.com/maps?q=&layer=c&cbll=-47.055978,-23.2509034", "O_QUE_FAZER": "CARTEIRA", "ER_REGIAO_CIDADE_min": "Cabreúva_Jacaré_Campinas" }, "geometry": { "type": "Point", "coordinates": [ -47.055978, -23.2509034 ] } },
{ "type": "Feature", "properties": { "CNPJ": "07837972000184", "IDCIDADE": "CABREUVA", "NOMEFANTASIA": "ESTELA_MODAS", "RAZAOSOCIAL": "MUNIZ_&_SOUZA_MODAS_LTDA", "ENDEE": "RUA_MARANHAO709__CENTRO_13318-122", "LMAPS": "https://www.google.com/maps?q=&layer=c&cbll=-47.0560072,-23.2509461", "O_QUE_FAZER": "CARTEIRA", "ER_REGIAO_CIDADE_min": "Cabreúva_Jacaré_Campinas" }, "geometry": { "type": "Point", "coordinates": [ -47.0560072, -23.2509461 ] } },
{ "type": "Feature", "properties": { "CNPJ": "48741453000103", "IDCIDADE": "CABREUVA", "NOMEFANTASIA": "NEXT_CAR", "RAZAOSOCIAL": "NEXT_CAR_CENTRO_AUTOMOTIVO_LTDA", "ENDEE": "RUA_MARANHAO713__CENTRO_13318-122", "LMAPS": "https://www.google.com/maps?q=&layer=c&cbll=-47.0560759,-23.2510626", "O_QUE_FAZER": "CARTEIRA", "ER_REGIAO_CIDADE_min": "Cabreúva_Jacaré_Campinas" }, "geometry": { "type": "Point", "coordinates": [ -47.0560759, -23.2510626 ] } },
{ "type": "Feature", "properties": { "CNPJ": "05508952000134", "IDCIDADE": "CABREUVA", "NOMEFANTASIA": "EDU_AUTO_CAR", "RAZAOSOCIAL": "AUTO_ELETRICA_E_MECANICA_DUTRA_&_PAIN_LTDA.", "ENDEE": "RUA_MARANHAO728__CENTRO_13318-122", "LMAPS": "https://www.google.com/maps?q=&layer=c&cbll=-47.0561964,-23.2513704", "O_QUE_FAZER": "CARTEIRA", "ER_REGIAO_CIDADE_min": "Cabreúva_Jacaré_Campinas" }, "geometry": { "type": "Point", "coordinates": [ -47.0561964, -23.2513704 ] } },
{ "type": "Feature", "properties": { "CNPJ": "24995907000104", "IDCIDADE": "CABREUVA", "NOMEFANTASIA": "LIP_ORAL_ODONTOLOGIA_APLICADA", "RAZAOSOCIAL": "LIP_ORAL_ESTETICA_E_ODONTOLOGIA_LTDA", "ENDEE": "RUA_MARANHAO752__CENTRO_13318-122", "LMAPS": "https://www.google.com/maps?q=&layer=c&cbll=-47.0561892,-23.250809", "O_QUE_FAZER": "CARTEIRA", "ER_REGIAO_CIDADE_min": "Cabreúva_Jacaré_Campinas" }, "geometry": { "type": "Point", "coordinates": [ -47.0561892, -23.250809 ] } },
{ "type": "Feature", "properties": { "CNPJ": "31976819000112", "IDCIDADE": "CABREUVA", "NOMEFANTASIA": "OPEN_IT_GROUP", "RAZAOSOCIAL": "OPEN_IT_GROUP_TECNOLOGIA_COMUNICACAO_E_DESENVOLVIMENTO_DE_SOFTWARE_LTDA", "ENDEE": "RUA_MARANHAO753__CENTRO_13318-122", "LMAPS": "https://www.google.com/maps?q=&layer=c&cbll=-47.0554239,-23.2517865", "O_QUE_FAZER": "CARTEIRA", "ER_REGIAO_CIDADE_min": "Cabreúva_Jacaré_Campinas" }, "geometry": { "type": "Point", "coordinates": [ -47.0554239, -23.2517865 ] } },
{ "type": "Feature", "properties": { "CNPJ": "11627771000120", "IDCIDADE": "CABREUVA", "NOMEFANTASIA": "DALLAQUA_VISTORIAS", "RAZAOSOCIAL": "DIEGO_DALLAQUA_MOTTA", "ENDEE": "RUA_MARANHAO819__CENTRO_13318-122", "LMAPS": "https://www.google.com/maps?q=&layer=c&cbll=-47.0560249,-23.2520075", "O_QUE_FAZER": "CARTEIRA", "ER_REGIAO_CIDADE_min": "Cabreúva_Jacaré_Campinas" }, "geometry": { "type": "Point", "coordinates": [ -47.0560249, -23.2520075 ] } },
{ "type": "Feature", "properties": { "CNPJ": "17325530000102", "IDCIDADE": "CABREUVA", "NOMEFANTASIA": "JUNDFLOOR", "RAZAOSOCIAL": "ALINE_CRISTINA_DE_OLIVEIRA_MOVEIS_PLANEJADOS", "ENDEE": "RUA_MARANHAO980__CENTRO_13318-122", "LMAPS": "https://www.google.com/maps?q=&layer=c&cbll=-47.0563307,-23.2536069", "O_QUE_FAZER": "CARTEIRA", "ER_REGIAO_CIDADE_min": "Cabreúva_Jacaré_Campinas" }, "geometry": { "type": "Point", "coordinates": [ -47.0563307, -23.2536069 ] } },
{ "type": "Feature", "properties": { "CNPJ": "03743244000152", "IDCIDADE": "CABREUVA", "NOMEFANTASIA": "CODIGO_3", "RAZAOSOCIAL": "ANDRE_LUIS_DE_OLIVEIRA_LIMA", "ENDEE": "RUA_MARANHAO1190__JACARE_13318-127", "LMAPS": "https://www.google.com/maps?q=&layer=c&cbll=-47.05614,-23.2554867", "O_QUE_FAZER": "CARTEIRA", "ER_REGIAO_CIDADE_min": "Cabreúva_Jacaré_Campinas" }, "geometry": { "type": "Point", "coordinates": [ -47.05614, -23.2554867 ] } },
{ "type": "Feature", "properties": { "CNPJ": "14319640000173", "IDCIDADE": "CABREUVA", "NOMEFANTASIA": "AGROPECUARIA_AGRO_VIDA", "RAZAOSOCIAL": "AGROPECUARIA_AGRO_VIDA_CABREUVA_LTDA.", "ENDEE": "RUA_VEREADOR_JOAO_PEDRO_DA_SILVA101__JACARE_13318-127", "LMAPS": "https://www.google.com/maps?q=&layer=c&cbll=-47.0562598,-23.2557596", "O_QUE_FAZER": "CARTEIRA", "ER_REGIAO_CIDADE_min": "Cabreúva_Jacaré_Campinas" }, "geometry": { "type": "Point", "coordinates": [ -47.0562598, -23.2557596 ] } },
{ "type": "Feature", "properties": { "CNPJ": "31297280000175", "IDCIDADE": "CABREUVA", "NOMEFANTASIA": "MAIS_ODONTO", "RAZAOSOCIAL": "LVA_TORRES_ODONTOLOGIA_LTDA", "ENDEE": "RUA_VEREADOR_JOAO_PEDRO_DA_SILVA121__CENTRO_13318-127", "LMAPS": "https://www.google.com/maps?q=&layer=c&cbll=-47.0562016,-23.2556188", "O_QUE_FAZER": "CARTEIRA", "ER_REGIAO_CIDADE_min": "Cabreúva_Jacaré_Campinas" }, "geometry": { "type": "Point", "coordinates": [ -47.0562016, -23.2556188 ] } },
{ "type": "Feature", "properties": { "CNPJ": "31636011000196", "IDCIDADE": "CABREUVA", "NOMEFANTASIA": "DROGARIA_CABREUVA", "RAZAOSOCIAL": "DROGARIA_CABREUVA_LTDA.", "ENDEE": "RUA_VEREADOR_JOAO_PEDRO_DA_SILVA248__CENTRO_13318-127", "LMAPS": "https://www.google.com/maps?q=&layer=c&cbll=-47.0575497,-23.2552236", "O_QUE_FAZER": "CARTEIRA", "ER_REGIAO_CIDADE_min": "Cabreúva_Jacaré_Campinas" }, "geometry": { "type": "Point", "coordinates": [ -47.0575497, -23.2552236 ] } },
{ "type": "Feature", "properties": { "CNPJ": "33866190000183", "IDCIDADE": "CABREUVA", "NOMEFANTASIA": "CROSS_NUTRITION_BOX", "RAZAOSOCIAL": "T.A.Z._CASTRO_TREINAMENTO_FUNCIONAL_LTDA", "ENDEE": "RUA_VEREADOR_JOAO_PEDRO_DA_SILVA258__CENTRO_13318-127", "LMAPS": "https://www.google.com/maps?q=&layer=c&cbll=-47.0575035,-23.2553165", "O_QUE_FAZER": "CARTEIRA", "ER_REGIAO_CIDADE_min": "Cabreúva_Jacaré_Campinas" }, "geometry": { "type": "Point", "coordinates": [ -47.0575035, -23.2553165 ] } },
{ "type": "Feature", "properties": { "CNPJ": "02173903000108", "IDCIDADE": "CABREUVA", "NOMEFANTASIA": "PADARIA_SANTO_ANTONIO", "RAZAOSOCIAL": "RR_PADARIA_E_CONFEITARIA_LTDA", "ENDEE": "RUA_VEREADOR_JOAO_PEDRO_DA_SILVA261__CENTRO_13318-127", "LMAPS": "https://www.google.com/maps?q=&layer=c&cbll=-47.0575811,-23.2555911", "O_QUE_FAZER": "CARTEIRA", "ER_REGIAO_CIDADE_min": "Cabreúva_Jacaré_Campinas" }, "geometry": { "type": "Point", "coordinates": [ -47.0575811, -23.2555911 ] } },
{ "type": "Feature", "properties": { "CNPJ": "08738902000131", "IDCIDADE": "CABREUVA", "NOMEFANTASIA": "PHAPITTOS_PREMIUM", "RAZAOSOCIAL": "FENICIOS_MICHELIN_LANCHONETE_LTDA", "ENDEE": "RUA_VEREADOR_JOAO_PEDRO_DA_SILVA54__CENTRO_13318-127", "LMAPS": "https://www.google.com/maps?q=&layer=c&cbll=-47.0557115,-23.2557063", "O_QUE_FAZER": "CARTEIRA", "ER_REGIAO_CIDADE_min": "Cabreúva_Jacaré_Campinas" }, "geometry": { "type": "Point", "coordinates": [ -47.0557115, -23.2557063 ] } },
{ "type": "Feature", "properties": { "CNPJ": "00508011000187", "IDCIDADE": "CABREUVA", "NOMEFANTASIA": "RAF_FREIOS", "RAZAOSOCIAL": "RAF_FREIOS_LTDA", "ENDEE": "RUA_FERNANDO_NUNES336__JARDIM_DA_SERRA_13318-130", "LMAPS": "https://www.google.com/maps?q=&layer=c&cbll=-47.0551599,-23.2491803", "O_QUE_FAZER": "CARTEIRA", "ER_REGIAO_CIDADE_min": "Cabreúva_Jacaré_Campinas" }, "geometry": { "type": "Point", "coordinates": [ -47.0551599, -23.2491803 ] } },
{ "type": "Feature", "properties": { "CNPJ": "01760216000118", "IDCIDADE": "CABREUVA", "NOMEFANTASIA": "AUTO_MECANICA_CUNHA", "RAZAOSOCIAL": "REGINALDO_MARQUES_FERREIRA_CABREUVA", "ENDEE": "RUA_FERNANDO_NUNES6__JACARE_13318-130", "LMAPS": "https://www.google.com/maps?q=&layer=c&cbll=-47.0552126,-23.2462262", "O_QUE_FAZER": "CARTEIRA", "ER_REGIAO_CIDADE_min": "Cabreúva_Jacaré_Campinas" }, "geometry": { "type": "Point", "coordinates": [ -47.0552126, -23.2462262 ] } },
{ "type": "Feature", "properties": { "CNPJ": "38301433000150", "IDCIDADE": "CABREUVA", "NOMEFANTASIA": "PADARIA_DOCE_SABOR", "RAZAOSOCIAL": "PADARIA_DOCE_SABOR_DE_CABREUVA_LTDA", "ENDEE": "RUA_FERNANDO_NUNES730__JARDIM_DA_SERRA_13318-130", "LMAPS": "https://www.google.com/maps?q=&layer=c&cbll=-47.0552854,-23.2530665", "O_QUE_FAZER": "CARTEIRA", "ER_REGIAO_CIDADE_min": "Cabreúva_Jacaré_Campinas" }, "geometry": { "type": "Point", "coordinates": [ -47.0552854, -23.2530665 ] } },
{ "type": "Feature", "properties": { "CNPJ": "32259568000118", "IDCIDADE": "CABREUVA", "NOMEFANTASIA": "OUTLET_DA_GULA", "RAZAOSOCIAL": "LAIS_VANESSA_ZACCHI_SOUZA", "ENDEE": "RUA_ADEMAR_CLEMENTE_NUNES132__JACARE_13318-136", "LMAPS": "https://www.google.com/maps?q=&layer=c&cbll=-47.0547067,-23.2507384", "O_QUE_FAZER": "CARTEIRA", "ER_REGIAO_CIDADE_min": "Cabreúva_Jacaré_Campinas" }, "geometry": { "type": "Point", "coordinates": [ -47.0547067, -23.2507384 ] } },
{ "type": "Feature", "properties": { "CNPJ": "09465237000112", "IDCIDADE": "CABREUVA", "NOMEFANTASIA": "MEGA_CARNES", "RAZAOSOCIAL": "BRUGNOLO_ACOUGUE_LTDA", "ENDEE": "RUA_ADEMAR_CLEMENTE_NUNES154__JACARE_13318-136", "LMAPS": "https://www.google.com/maps?q=&layer=c&cbll=-47.054524,-23.2507738", "O_QUE_FAZER": "CARTEIRA", "ER_REGIAO_CIDADE_min": "Cabreúva_Jacaré_Campinas" }, "geometry": { "type": "Point", "coordinates": [ -47.054524, -23.2507738 ] } },
{ "type": "Feature", "properties": { "CNPJ": "40645386000103", "IDCIDADE": "CABREUVA", "NOMEFANTASIA": "OTICA_OUTLET_DOS_OCULOS", "RAZAOSOCIAL": "ALEXANDRE_ARAUJO", "ENDEE": "RUA_ADEMAR_CLEMENTE_NUNES91__JARDIM_DA_SERRA_13318-136", "LMAPS": "https://www.google.com/maps?q=&layer=c&cbll=-47.0552017,-23.2505284", "O_QUE_FAZER": "CARTEIRA", "ER_REGIAO_CIDADE_min": "Cabreúva_Jacaré_Campinas" }, "geometry": { "type": "Point", "coordinates": [ -47.0552017, -23.2505284 ] } },
{ "type": "Feature", "properties": { "CNPJ": "15337590000110", "IDCIDADE": "CABREUVA", "NOMEFANTASIA": "TOP_GUARD_SEGUROS", "RAZAOSOCIAL": "TOP_GUARD_CORRETORA_DE_SEGUROS_LTDA", "ENDEE": "RUA_GUAXINDUVA49__JARDIM_DA_SERRA_13318-138", "LMAPS": "https://www.google.com/maps?q=&layer=c&cbll=-47.0545266,-23.2493692", "O_QUE_FAZER": "CARTEIRA", "ER_REGIAO_CIDADE_min": "Cabreúva_Jacaré_Campinas" }, "geometry": { "type": "Point", "coordinates": [ -47.0545266, -23.2493692 ] } },
{ "type": "Feature", "properties": { "CNPJ": "12260632000173", "IDCIDADE": "CABREUVA", "NOMEFANTASIA": "KIKO_BIKE", "RAZAOSOCIAL": "CLODOALDO_DA_ROSA", "ENDEE": "RUA_GUAXINDUVA86__JARDIM_DA_SERRA_13318-138", "LMAPS": "https://www.google.com/maps?q=&layer=c&cbll=-47.0543595,-23.2495391", "O_QUE_FAZER": "CARTEIRA", "ER_REGIAO_CIDADE_min": "Cabreúva_Jacaré_Campinas" }, "geometry": { "type": "Point", "coordinates": [ -47.0543595, -23.2495391 ] } },
{ "type": "Feature", "properties": { "CNPJ": "10402118000108", "IDCIDADE": "CABREUVA", "NOMEFANTASIA": "GRAFISETE", "RAZAOSOCIAL": "R_&_M_GRAFICA_E_IMPRESSOS_LTDA", "ENDEE": "RUA_GUAXINDUVA92__JARDIM_DA_SERRA_13318-138", "LMAPS": "https://www.google.com/maps?q=&layer=c&cbll=-47.0540798,-23.2496289", "O_QUE_FAZER": "CARTEIRA", "ER_REGIAO_CIDADE_min": "Cabreúva_Jacaré_Campinas" }, "geometry": { "type": "Point", "coordinates": [ -47.0540798, -23.2496289 ] } },
{ "type": "Feature", "properties": { "CNPJ": "00647168000193", "IDCIDADE": "CABREUVA", "NOMEFANTASIA": "PAPELARIA_X1_PAPIRO", "RAZAOSOCIAL": "V._SANTOS_SILVA_PAPELARIA_LTDA", "ENDEE": "RUA_CONCORDIA23__JACARE_13318-140", "LMAPS": "https://www.google.com/maps?q=&layer=c&cbll=-47.0560071,-23.2484468", "O_QUE_FAZER": "CARTEIRA", "ER_REGIAO_CIDADE_min": "Cabreúva_Jacaré_Campinas" }, "geometry": { "type": "Point", "coordinates": [ -47.0560071, -23.2484468 ] } },
{ "type": "Feature", "properties": { "CNPJ": "10317990000140", "IDCIDADE": "CABREUVA", "NOMEFANTASIA": "MOTO_K", "RAZAOSOCIAL": "MOTOK_-_MOTO_PECAS_E_MECANICA_LTDA", "ENDEE": "RUA_FRANCISCO_NUNES10__JARDIM_DA_SERRA_13318-142", "LMAPS": "https://www.google.com/maps?q=&layer=c&cbll=-47.0545151,-23.2473273", "O_QUE_FAZER": "CARTEIRA", "ER_REGIAO_CIDADE_min": "Cabreúva_Jacaré_Campinas" }, "geometry": { "type": "Point", "coordinates": [ -47.0545151, -23.2473273 ] } },
{ "type": "Feature", "properties": { "CNPJ": "10802762000165", "IDCIDADE": "CABREUVA", "NOMEFANTASIA": "LOCADORA_CABREUVA", "RAZAOSOCIAL": "LOCADORA_CABREUVA_LTDA", "ENDEE": "RUA_FRANCISCO_NUNES120__JARDIM_DA_SERRA_13318-142", "LMAPS": "https://www.google.com/maps?q=&layer=c&cbll=-47.0545344,-23.2483147", "O_QUE_FAZER": "CARTEIRA", "ER_REGIAO_CIDADE_min": "Cabreúva_Jacaré_Campinas" }, "geometry": { "type": "Point", "coordinates": [ -47.0545344, -23.2483147 ] } },
{ "type": "Feature", "properties": { "CNPJ": "31124716000124", "IDCIDADE": "CABREUVA", "NOMEFANTASIA": "VIDRACARIA_MACHADO", "RAZAOSOCIAL": "VIDRACARIA_MACHADO_LTDA.", "ENDEE": "RUA_FRANCISCO_NUNES200__JARDIM_DA_SERRA_13318-142", "LMAPS": "https://www.google.com/maps?q=&layer=c&cbll=-47.054541,-23.249052", "O_QUE_FAZER": "CARTEIRA", "ER_REGIAO_CIDADE_min": "Cabreúva_Jacaré_Campinas" }, "geometry": { "type": "Point", "coordinates": [ -47.054541, -23.249052 ] } },
{ "type": "Feature", "properties": { "CNPJ": "10521933000188", "IDCIDADE": "CABREUVA", "NOMEFANTASIA": "EQUIPE_CONTABILIDADE", "RAZAOSOCIAL": "ANTONIO_A._DA_CRUZ_CABREUVA", "ENDEE": "RUA_FRANCISCO_NUNES324__JARDIM_DA_SERRA_13318-142", "LMAPS": "https://www.google.com/maps?q=&layer=c&cbll=-47.0546088,-23.2501742", "O_QUE_FAZER": "CARTEIRA", "ER_REGIAO_CIDADE_min": "Cabreúva_Jacaré_Campinas" }, "geometry": { "type": "Point", "coordinates": [ -47.0546088, -23.2501742 ] } },
{ "type": "Feature", "properties": { "CNPJ": "02036979000183", "IDCIDADE": "CABREUVA", "NOMEFANTASIA": "INTERVIDROS", "RAZAOSOCIAL": "INTERNACIONAL_SATELITE_TELECOMUNICACOES_E_VIDRACARIA_LTDA", "ENDEE": "RUA_FRANCISCO_NUNES401__JARDIM_DA_SERRA_13318-142", "LMAPS": "https://www.google.com/maps?q=&layer=c&cbll=-47.0543342,-23.2510301", "O_QUE_FAZER": "CARTEIRA", "ER_REGIAO_CIDADE_min": "Cabreúva_Jacaré_Campinas" }, "geometry": { "type": "Point", "coordinates": [ -47.0543342, -23.2510301 ] } },
{ "type": "Feature", "properties": { "CNPJ": "12127482000124", "IDCIDADE": "CABREUVA", "NOMEFANTASIA": "INEDITUS", "RAZAOSOCIAL": "INEDITUS_AUTO_VIDROS_LTDA", "ENDEE": "RUA_FRANCISCO_NUNES409__JARDIM_DA_SERRA_13318-142", "LMAPS": "https://www.google.com/maps?q=&layer=c&cbll=-47.0541154,-23.2510732", "O_QUE_FAZER": "CARTEIRA", "ER_REGIAO_CIDADE_min": "Cabreúva_Jacaré_Campinas" }, "geometry": { "type": "Point", "coordinates": [ -47.0541154, -23.2510732 ] } },
{ "type": "Feature", "properties": { "CNPJ": "48343714000129", "IDCIDADE": "CABREUVA", "NOMEFANTASIA": "ENGETEC", "RAZAOSOCIAL": "ENGETEQ_MEDICINA_E_SEGURANCA_DO_TRABALHO_LTDA", "ENDEE": "RUA_LUIZ_NUNES26__JARDIM_DA_SERRA_13318-152", "LMAPS": "https://www.google.com/maps?q=&layer=c&cbll=-47.0538564,-23.2485618", "O_QUE_FAZER": "CARTEIRA", "ER_REGIAO_CIDADE_min": "Cabreúva_Jacaré_Campinas" }, "geometry": { "type": "Point", "coordinates": [ -47.0538564, -23.2485618 ] } },
{ "type": "Feature", "properties": { "CNPJ": "07653151000198", "IDCIDADE": "CABREUVA", "NOMEFANTASIA": "GS_LAB", "RAZAOSOCIAL": "GS_LAB_-_LABORATORIO_DE_ANALISES_CLINICAS_LTDA", "ENDEE": "RUA_LUIZ_NUNES366__JARDIM_DA_SERRA_13318-152", "LMAPS": "https://www.google.com/maps?q=&layer=c&cbll=-47.054016,-23.2516972", "O_QUE_FAZER": "CARTEIRA", "ER_REGIAO_CIDADE_min": "Cabreúva_Jacaré_Campinas" }, "geometry": { "type": "Point", "coordinates": [ -47.054016, -23.2516972 ] } },
{ "type": "Feature", "properties": { "CNPJ": "42352464000107", "IDCIDADE": "CABREUVA", "NOMEFANTASIA": "PAES_DOCES_&_CIA", "RAZAOSOCIAL": "PAES_DOCES_&_CIA_LTDA", "ENDEE": "RUA_CURURU31__JACARE_13318-153", "LMAPS": "https://www.google.com/maps?q=&layer=c&cbll=-47.0530939,-23.2520682", "O_QUE_FAZER": "CARTEIRA", "ER_REGIAO_CIDADE_min": "Cabreúva_Jacaré_Campinas" }, "geometry": { "type": "Point", "coordinates": [ -47.0530939, -23.2520682 ] } },
{ "type": "Feature", "properties": { "CNPJ": "55895212000176", "IDCIDADE": "CABREUVA", "NOMEFANTASIA": "SUPERMERCADO_PAGBEM", "RAZAOSOCIAL": "SUPERMERCADO_PAGBEM_CABREUVA_LTDA", "ENDEE": "AVENIDA_VEREADOR_JOSE_DONATO1419__JACARE_13319-010", "LMAPS": "https://www.google.com/maps?q=&layer=c&cbll=-47.05683,-23.2672159", "O_QUE_FAZER": "CARTEIRA", "ER_REGIAO_CIDADE_min": "Cabreúva_Jacaré_Campinas" }, "geometry": { "type": "Point", "coordinates": [ -47.05683, -23.2672159 ] } },
{ "type": "Feature", "properties": { "CNPJ": "03566103000373", "IDCIDADE": "CABREUVA", "NOMEFANTASIA": "AUTO_ESCOLA_OLIVEIRA", "RAZAOSOCIAL": "CENTRO_DE_FORMACAO_DE_CONDUTORES_AUTO_ESCOLA_OLIVEIRA_LTDA", "ENDEE": "AVENIDA_VEREADOR_JOSE_DONATO1422__JACARE_13319-010", "LMAPS": "https://www.google.com/maps?q=&layer=c&cbll=-47.0548694,-23.2551766", "O_QUE_FAZER": "CARTEIRA", "ER_REGIAO_CIDADE_min": "Cabreúva_Jacaré_Campinas" }, "geometry": { "type": "Point", "coordinates": [ -47.0548694, -23.2551766 ] } },
{ "type": "Feature", "properties": { "CNPJ": "01508374000185", "IDCIDADE": "CABREUVA", "NOMEFANTASIA": "DROGARIA_VILAREJO", "RAZAOSOCIAL": "AILTON_DUARTE", "ENDEE": "AVENIDA_VEREADOR_JOSE_DONATO1425__JACARE_13319-010", "LMAPS": "https://www.google.com/maps?q=&layer=c&cbll=-47.056904,-23.267349", "O_QUE_FAZER": "CARTEIRA", "ER_REGIAO_CIDADE_min": "Cabreúva_Jacaré_Campinas" }, "geometry": { "type": "Point", "coordinates": [ -47.056904, -23.267349 ] } },
{ "type": "Feature", "properties": { "CNPJ": "07092606000143", "IDCIDADE": "CABREUVA", "NOMEFANTASIA": "CASA_DE_RACAO_SANTOS", "RAZAOSOCIAL": "CASA_DE_RACAO_SANTOS_LTDA", "ENDEE": "AVENIDA_VEREADOR_JOSE_DONATO1497__JACARE_13319-010", "LMAPS": "https://www.google.com/maps?q=&layer=c&cbll=-47.0565768,-23.2676612", "O_QUE_FAZER": "CARTEIRA", "ER_REGIAO_CIDADE_min": "Cabreúva_Jacaré_Campinas" }, "geometry": { "type": "Point", "coordinates": [ -47.0565768, -23.2676612 ] } },
{ "type": "Feature", "properties": { "CNPJ": "33015158000194", "IDCIDADE": "CABREUVA", "NOMEFANTASIA": "IWA_SUSHI", "RAZAOSOCIAL": "JULIANA_NASCIMENTO_DE_JESUS_RESTAURANTE", "ENDEE": "AVENIDA_VEREADOR_JOSE_DONATO165__JACARE_13319-010", "LMAPS": "https://www.google.com/maps?q=&layer=c&cbll=-47.0570714,-23.2442103", "O_QUE_FAZER": "CARTEIRA", "ER_REGIAO_CIDADE_min": "Cabreúva_Jacaré_Campinas" }, "geometry": { "type": "Point", "coordinates": [ -47.0570714, -23.2442103 ] } },
{ "type": "Feature", "properties": { "CNPJ": "24125842000138", "IDCIDADE": "CABREUVA", "NOMEFANTASIA": "COIFE_ODONTO", "RAZAOSOCIAL": "CENTRO_ODONTOLOGICO_C_&_M_LTDA", "ENDEE": "AVENIDA_VEREADOR_JOSE_DONATO165__JACARE_13319-010", "LMAPS": "https://www.google.com/maps?q=&layer=c&cbll=-47.0566894,-23.2445046", "O_QUE_FAZER": "CARTEIRA", "ER_REGIAO_CIDADE_min": "Cabreúva_Jacaré_Campinas" }, "geometry": { "type": "Point", "coordinates": [ -47.0566894, -23.2445046 ] } },
{ "type": "Feature", "properties": { "CNPJ": "32477801000139", "IDCIDADE": "CABREUVA", "NOMEFANTASIA": "ANTONIO_GAS", "RAZAOSOCIAL": "EDUARDA_DOS_SANTOS_OLIVEIRA_GAS", "ENDEE": "AVENIDA_VEREADOR_JOSE_DONATO171__JACARE_13319-010", "LMAPS": "https://www.google.com/maps?q=&layer=c&cbll=-47.056202,-23.2446889", "O_QUE_FAZER": "CARTEIRA", "ER_REGIAO_CIDADE_min": "Cabreúva_Jacaré_Campinas" }, "geometry": { "type": "Point", "coordinates": [ -47.056202, -23.2446889 ] } },
{ "type": "Feature", "properties": { "CNPJ": "10908868000148", "IDCIDADE": "CABREUVA", "NOMEFANTASIA": "MP_TINTAS", "RAZAOSOCIAL": "M._P._DANIEL_COMERCIO_DE_TINTAS", "ENDEE": "AVENIDA_VEREADOR_JOSE_DONATO303__JACARE_13319-010", "LMAPS": "https://www.google.com/maps?q=&layer=c&cbll=-47.0554173,-23.2454697", "O_QUE_FAZER": "CARTEIRA", "ER_REGIAO_CIDADE_min": "Cabreúva_Jacaré_Campinas" }, "geometry": { "type": "Point", "coordinates": [ -47.0554173, -23.2454697 ] } },
{ "type": "Feature", "properties": { "CNPJ": "20872407000116", "IDCIDADE": "CABREUVA", "NOMEFANTASIA": "AGUA_3_IRMAOS", "RAZAOSOCIAL": "AGUA_3_IRMAOS_LTDA.", "ENDEE": "AVENIDA_VEREADOR_JOSE_DONATO303__JACARE_13319-010", "LMAPS": "https://www.google.com/maps?q=&layer=c&cbll=-47.0553858,-23.2455376", "O_QUE_FAZER": "CARTEIRA", "ER_REGIAO_CIDADE_min": "Cabreúva_Jacaré_Campinas" }, "geometry": { "type": "Point", "coordinates": [ -47.0553858, -23.2455376 ] } },
{ "type": "Feature", "properties": { "CNPJ": "06945781000173", "IDCIDADE": "CABREUVA", "NOMEFANTASIA": "ANIMAIS_E_JARDIM", "RAZAOSOCIAL": "BS4_COMERCIO_DE_PRODUTOS_AGROPECUARIOS_SOCIEDADE_UNIPESSOAL_LTDA.", "ENDEE": "AVENIDA_VEREADOR_JOSE_DONATO370__JACARE_13319-010", "LMAPS": "https://www.google.com/maps?q=&layer=c&cbll=-47.0553574,-23.2458762", "O_QUE_FAZER": "CARTEIRA", "ER_REGIAO_CIDADE_min": "Cabreúva_Jacaré_Campinas" }, "geometry": { "type": "Point", "coordinates": [ -47.0553574, -23.2458762 ] } },
{ "type": "Feature", "properties": { "CNPJ": "00004908000173", "IDCIDADE": "CABREUVA", "NOMEFANTASIA": "VER_CENTER", "RAZAOSOCIAL": "OLAVO_CARDEIRA_PEDRO", "ENDEE": "AVENIDA_VEREADOR_JOSE_DONATO510__JACARE_13319-010", "LMAPS": "https://www.google.com/maps?q=&layer=c&cbll=-47.0540602,-23.2483049", "O_QUE_FAZER": "CARTEIRA", "ER_REGIAO_CIDADE_min": "Cabreúva_Jacaré_Campinas" }, "geometry": { "type": "Point", "coordinates": [ -47.0540602, -23.2483049 ] } },
{ "type": "Feature", "properties": { "CNPJ": "43172904000107", "IDCIDADE": "CABREUVA", "NOMEFANTASIA": "MERCADINHO_DA_TIA", "RAZAOSOCIAL": "MERCADINHO_DA_TIA_LTDA", "ENDEE": "AVENIDA_VEREADOR_JOSE_DONATO535__JACARE_13319-010", "LMAPS": "https://www.google.com/maps?q=&layer=c&cbll=-47.0543033,-23.2472421", "O_QUE_FAZER": "CARTEIRA", "ER_REGIAO_CIDADE_min": "Cabreúva_Jacaré_Campinas" }, "geometry": { "type": "Point", "coordinates": [ -47.0543033, -23.2472421 ] } },
{ "type": "Feature", "properties": { "CNPJ": "04919240000226", "IDCIDADE": "CABREUVA", "NOMEFANTASIA": "SP_FARMA", "RAZAOSOCIAL": "JULIANO_DE_OLIVEIRA_MUNHOZ", "ENDEE": "AVENIDA_VEREADOR_JOSE_DONATO535__JACARE_13319-010", "LMAPS": "https://www.google.com/maps?q=&layer=c&cbll=-47.0543278,-23.2472672", "O_QUE_FAZER": "CARTEIRA", "ER_REGIAO_CIDADE_min": "Cabreúva_Jacaré_Campinas" }, "geometry": { "type": "Point", "coordinates": [ -47.0543278, -23.2472672 ] } },
{ "type": "Feature", "properties": { "CNPJ": "05758291000103", "IDCIDADE": "CABREUVA", "NOMEFANTASIA": "VIDRACARIA_CONCORDIA", "RAZAOSOCIAL": "COMERCIO_DE_VIDROS_E_ACESSORIOS_CONCORDIA_LTDA.", "ENDEE": "AVENIDA_VEREADOR_JOSE_DONATO557__JACARE_13319-010", "LMAPS": "https://www.google.com/maps?q=&layer=c&cbll=-47.0543932,-23.2475034", "O_QUE_FAZER": "CARTEIRA", "ER_REGIAO_CIDADE_min": "Cabreúva_Jacaré_Campinas" }, "geometry": { "type": "Point", "coordinates": [ -47.0543932, -23.2475034 ] } },
{ "type": "Feature", "properties": { "CNPJ": "10281824000130", "IDCIDADE": "CABREUVA", "NOMEFANTASIA": "CAMACON", "RAZAOSOCIAL": "FEMACON_CONSTRUCOES_LTDA", "ENDEE": "AVENIDA_VEREADOR_JOSE_DONATO577__JACARE_13319-010", "LMAPS": "https://www.google.com/maps?q=&layer=c&cbll=-47.0538306,-23.2475403", "O_QUE_FAZER": "CARTEIRA", "ER_REGIAO_CIDADE_min": "Cabreúva_Jacaré_Campinas" }, "geometry": { "type": "Point", "coordinates": [ -47.0538306, -23.2475403 ] } },
{ "type": "Feature", "properties": { "CNPJ": "02861195000190", "IDCIDADE": "CABREUVA", "NOMEFANTASIA": "ELETRCON", "RAZAOSOCIAL": "ELETROCON_COMERCIO_DE_ELETRONICOS_LTDA", "ENDEE": "AVENIDA_VEREADOR_JOSE_DONATO603__JACARE_13319-010", "LMAPS": "https://www.google.com/maps?q=&layer=c&cbll=-47.0541973,-23.2478384", "O_QUE_FAZER": "CARTEIRA", "ER_REGIAO_CIDADE_min": "Cabreúva_Jacaré_Campinas" }, "geometry": { "type": "Point", "coordinates": [ -47.0541973, -23.2478384 ] } },
{ "type": "Feature", "properties": { "CNPJ": "28391082000161", "IDCIDADE": "CABREUVA", "NOMEFANTASIA": "PRIME_CONTABILIDADE", "RAZAOSOCIAL": "PRIME_&_PRIME_APOIO_ADMINISTRATIVO_E_NEGOCIOS_EMPRESARIAIS_LTDA", "ENDEE": "AVENIDA_VEREADOR_JOSE_DONATO603__JACARE_13319-010", "LMAPS": "https://www.google.com/maps?q=&layer=c&cbll=-47.0542911,-23.2479809", "O_QUE_FAZER": "CARTEIRA", "ER_REGIAO_CIDADE_min": "Cabreúva_Jacaré_Campinas" }, "geometry": { "type": "Point", "coordinates": [ -47.0542911, -23.2479809 ] } },
{ "type": "Feature", "properties": { "CNPJ": "13423530000194", "IDCIDADE": "CABREUVA", "NOMEFANTASIA": "HSERV", "RAZAOSOCIAL": "H_SERV_CLEAN_COMERCIO_DE_PRODUTOS_DE_LIMPEZA_LTDA", "ENDEE": "AVENIDA_VEREADOR_JOSE_DONATO625__JACARE_13319-010", "LMAPS": "https://www.google.com/maps?q=&layer=c&cbll=-47.0539116,-23.2480494", "O_QUE_FAZER": "CARTEIRA", "ER_REGIAO_CIDADE_min": "Cabreúva_Jacaré_Campinas" }, "geometry": { "type": "Point", "coordinates": [ -47.0539116, -23.2480494 ] } },
{ "type": "Feature", "properties": { "CNPJ": "08062512000194", "IDCIDADE": "CABREUVA", "NOMEFANTASIA": "CENTRO_VETERINARIO_CBV", "RAZAOSOCIAL": "DANIELA_SANCHEZ_MATHIAS", "ENDEE": "AVENIDA_VEREADOR_JOSE_DONATO645__JACARE_13319-010", "LMAPS": "https://www.google.com/maps?q=&layer=c&cbll=-47.0536549,-23.2480692", "O_QUE_FAZER": "CARTEIRA", "ER_REGIAO_CIDADE_min": "Cabreúva_Jacaré_Campinas" }, "geometry": { "type": "Point", "coordinates": [ -47.0536549, -23.2480692 ] } },
{ "type": "Feature", "properties": { "CNPJ": "07795197000141", "IDCIDADE": "CABREUVA", "NOMEFANTASIA": "DROGARIA_AVENIDA", "RAZAOSOCIAL": "KLEBER_FERRAZ_DE_FREITAS", "ENDEE": "AVENIDA_VEREADOR_JOSE_DONATO715__JACARE_13319-010", "LMAPS": "https://www.google.com/maps?q=&layer=c&cbll=-47.0535013,-23.2487903", "O_QUE_FAZER": "CARTEIRA", "ER_REGIAO_CIDADE_min": "Cabreúva_Jacaré_Campinas" }, "geometry": { "type": "Point", "coordinates": [ -47.0535013, -23.2487903 ] } },
{ "type": "Feature", "properties": { "CNPJ": "04383260000144", "IDCIDADE": "CABREUVA", "NOMEFANTASIA": "CANTINHO_DO_PAO", "RAZAOSOCIAL": "PEREIRA_E_VERDERIO_PADARIA_LTDA", "ENDEE": "AVENIDA_VEREADOR_JOSE_DONATO725__JACARE_13319-010", "LMAPS": "https://www.google.com/maps?q=&layer=c&cbll=-47.0535418,-23.2488578", "O_QUE_FAZER": "CARTEIRA", "ER_REGIAO_CIDADE_min": "Cabreúva_Jacaré_Campinas" }, "geometry": { "type": "Point", "coordinates": [ -47.0535418, -23.2488578 ] } },
{ "type": "Feature", "properties": { "CNPJ": "06907517000145", "IDCIDADE": "CABREUVA", "NOMEFANTASIA": "PET_CENTER_JACARE", "RAZAOSOCIAL": "MILTON_YUJI_HIRANO", "ENDEE": "AVENIDA_VEREADOR_JOSE_DONATO853__JACARE_13319-010", "LMAPS": "https://www.google.com/maps?q=&layer=c&cbll=-47.0528869,-23.249843", "O_QUE_FAZER": "CARTEIRA", "ER_REGIAO_CIDADE_min": "Cabreúva_Jacaré_Campinas" }, "geometry": { "type": "Point", "coordinates": [ -47.0528869, -23.249843 ] } },
{ "type": "Feature", "properties": { "CNPJ": "34003817000135", "IDCIDADE": "CABREUVA", "NOMEFANTASIA": "CONSULTORIO_GONTIJO", "RAZAOSOCIAL": "ODONTO_GONTIJO_CABREUVA_LTDA", "ENDEE": "AVENIDA_VEREADOR_JOSE_DONATO863__JACARE_13319-010", "LMAPS": "https://www.google.com/maps?q=&layer=c&cbll=-47.052862,-23.2500004", "O_QUE_FAZER": "CARTEIRA", "ER_REGIAO_CIDADE_min": "Cabreúva_Jacaré_Campinas" }, "geometry": { "type": "Point", "coordinates": [ -47.052862, -23.2500004 ] } },
{ "type": "Feature", "properties": { "CNPJ": "44816782000107", "IDCIDADE": "CABREUVA", "NOMEFANTASIA": "44.816.782_LAUDIANNI_APARECIDA_GOMES_DA_SILVA_BRAZ", "RAZAOSOCIAL": "44.816.782_LAUDIANNI_APARECIDA_GOMES_DA_SILVA_BRAZ", "ENDEE": "RUA_CEARA163__JACARE_13318-000", "LMAPS": "https://www.google.com/maps?q=&layer=c&cbll=-47.0596296,-23.2544523", "O_QUE_FAZER": "FINALIZADO", "ER_REGIAO_CIDADE_min": "Cabreúva_Jacaré_Campinas" }, "geometry": { "type": "Point", "coordinates": [ -47.0596296, -23.2544523 ] } },
{ "type": "Feature", "properties": { "CNPJ": "46956903000141", "IDCIDADE": "CABREUVA", "NOMEFANTASIA": "BRUNO_ISMAEL_DOS_SANTOS_OLIVEIRA_37287387867", "RAZAOSOCIAL": "BRUNO_ISMAEL_OLIVEIRA", "ENDEE": "RUA_VEREADOR_JOAO_PEDRO_DA_SILVA20__CENTRO_13318-127", "LMAPS": "https://www.google.com/maps?q=&layer=c&cbll=-47.0552094,-23.2554941", "O_QUE_FAZER": "FINALIZADO", "ER_REGIAO_CIDADE_min": "Cabreúva_Jacaré_Campinas" }, "geometry": { "type": "Point", "coordinates": [ -47.0552094, -23.2554941 ] } },
{ "type": "Feature", "properties": { "CNPJ": "61942377000154", "IDCIDADE": "CABREUVA", "NOMEFANTASIA": "61.942.377_APARECIDO_DE_ARAUJO_LAMEU", "RAZAOSOCIAL": "HDL_ACESSORIA_PREDIAL", "ENDEE": "RUA_ALEXANDRITA284__JARDIM_COLINA_DA_SERRA_II_13318-274", "LMAPS": "https://www.google.com/maps?q=&layer=c&cbll=-47.0493063,-23.2607658", "O_QUE_FAZER": "FINALIZADO", "ER_REGIAO_CIDADE_min": "Cabreúva_Jacaré_Campinas" }, "geometry": { "type": "Point", "coordinates": [ -47.0493063, -23.2607658 ] } }
]
}
