{
"type": "FeatureCollection",
"name": "ER_REGIAO_CIDADE_min_Casa Branca_Casa Branca_São João da Boa Vista",
"crs": { "type": "name", "properties": { "name": "urn:ogc:def:crs:OGC:1.3:CRS84" } },
"xy_coordinate_resolution": 1e-15,
"features": [
{ "type": "Feature", "properties": { "CNPJ": "49646067000197", "IDCIDADE": "CASA BRANCA", "NOMEFANTASIA": "JOSE LUIZ DE ALMEIDA FILHO", "RAZAOSOCIAL": "JOSE LUIZ DE ALMEIDA FILHO LTDA", "ENDEE": "RUA FELICIO PAGANINI, 294, CIDADE JARDIM I, 13703-138, CASA BRANCA, SP, BRASIL", "LATITUDE": "-21.7794868", "LONGITUDE": "-47.0943809", "LMAPS": "https://www.google.com/maps?q=&layer=c&cbll=-21.7794868,-47.0943809", "O_QUE_FAZER": "APLICAR T2", "field_10": null, "field_11": null, "field_12": null, "field_13": null, "ER_REGIAO_CIDADE_min": "Casa Branca_Casa Branca_São João da Boa Vista" }, "geometry": { "type": "Point", "coordinates": [ -47.0943809, -21.7794868 ] } },
{ "type": "Feature", "properties": { "CNPJ": "28508322000165", "IDCIDADE": "GUARACAI", "NOMEFANTASIA": "-", "RAZAOSOCIAL": "DANIELA GUIMARAES FABRICACAO DE MAQUINAS E EQUIPAMENTOS", "ENDEE": "RUA_THEODOMIRO EMERIQUE_20_JARDIM ALVORADA_13700-000_MIRANTE_DO_PARANAPANEMA", "LATITUDE": "-21.777112", "LONGITUDE": "-47.0712725", "LMAPS": "https://www.google.com/maps?q=&layer=c&cbll=-21.777112,-47.0712725", "O_QUE_FAZER": "FINALIZADO", "field_10": null, "field_11": null, "field_12": null, "field_13": null, "ER_REGIAO_CIDADE_min": "Casa Branca_Casa Branca_São João da Boa Vista" }, "geometry": { "type": "Point", "coordinates": [ -47.0712725, -21.777112 ] } },
{ "type": "Feature", "properties": { "CNPJ": "03856463000148", "IDCIDADE": "CASA BRANCA", "NOMEFANTASIA": "ALESSANDRO CRUZ CASA BRANCA", "RAZAOSOCIAL": "ALESSANDRO CRUZ CASA BRANCA", "ENDEE": "RUA ADHEMAR DE BARROS, 17, VILA FRANCESCHETTI, 13700-000, CASA BRANCA, SP, BRASIL", "LATITUDE": "-21.7774899", "LONGITUDE": "-47.0766905", "LMAPS": "https://www.google.com/maps?q=&layer=c&cbll=-21.7774899,-47.0766905", "O_QUE_FAZER": "FINALIZADO", "field_10": null, "field_11": null, "field_12": null, "field_13": null, "ER_REGIAO_CIDADE_min": "Casa Branca_Casa Branca_São João da Boa Vista" }, "geometry": { "type": "Point", "coordinates": [ -47.0766905, -21.7774899 ] } },
{ "type": "Feature", "properties": { "CNPJ": "04139356000161", "IDCIDADE": "CASA_BRANCA", "NOMEFANTASIA": "MARIA_JOSE_RIGAMONTE", "RAZAOSOCIAL": "CHINAS_LANCHES", "ENDEE": "RUA_SETE_DE_SETEMBRO34__CENTRO_13700-000", "LATITUDE": "-21.7731091", "LONGITUDE": "-47.0826933", "LMAPS": "https://www.google.com/maps?q=&layer=c&cbll=-47.0826933,-21.7731091", "O_QUE_FAZER": "FINALIZADO", "field_10": null, "field_11": null, "field_12": null, "field_13": null, "ER_REGIAO_CIDADE_min": "Casa Branca_Casa Branca_São João da Boa Vista" }, "geometry": { "type": "Point", "coordinates": [ -47.0826933, -21.7731091 ] } },
{ "type": "Feature", "properties": { "CNPJ": "33111019000164", "IDCIDADE": "CASA_BRANCA", "NOMEFANTASIA": "NIVALDO_SANTOS_26251059842", "RAZAOSOCIAL": "SOS_CELULAR", "ENDEE": "RUA_DUQUE_CAXIAS400__CENTRO_13700-000", "LATITUDE": "-21.7755723", "LONGITUDE": "-47.0830071", "LMAPS": "https://www.google.com/maps?q=&layer=c&cbll=-47.0830071,-21.7755723", "O_QUE_FAZER": "FINALIZADO", "field_10": null, "field_11": null, "field_12": null, "field_13": null, "ER_REGIAO_CIDADE_min": "Casa Branca_Casa Branca_São João da Boa Vista" }, "geometry": { "type": "Point", "coordinates": [ -47.0830071, -21.7755723 ] } },
{ "type": "Feature", "properties": { "CNPJ": "11654544000193", "IDCIDADE": "CASA_BRANCA", "NOMEFANTASIA": "DIGICORES_COMUNICACAO_VISUAL_LTDA", "RAZAOSOCIAL": "DIGICORES", "ENDEE": "RUA_ANTONIO_RIBEIRO_FIALHO291__DIST_INDUSTRIAL_II_13700-000", "LATITUDE": "-21.7846124", "LONGITUDE": "-47.0700296", "LMAPS": "https://www.google.com/maps?q=&layer=c&cbll=-47.0700296,-21.7846124", "O_QUE_FAZER": "FINALIZADO", "field_10": null, "field_11": null, "field_12": null, "field_13": null, "ER_REGIAO_CIDADE_min": "Casa Branca_Casa Branca_São João da Boa Vista" }, "geometry": { "type": "Point", "coordinates": [ -47.0700296, -21.7846124 ] } },
{ "type": "Feature", "properties": { "CNPJ": "17532211000178", "IDCIDADE": "CASA BRANCA", "NOMEFANTASIA": null, "RAZAOSOCIAL": "MARCIEL LEONARDO CASTOLDO", "ENDEE": "RUA ARLINDO PERES MACIEL, 245, DISTRITO INDUSTRIAL COMERCIAL E RESIDENCIAL DOUTO, 13705-764, CASA BRANCA, SP, BRASIL", "LATITUDE": "-21.754575", "LONGITUDE": "-47.0727907", "LMAPS": "https://www.google.com/maps?q=&layer=c&cbll=-21.754575,-47.0727907", "O_QUE_FAZER": "CARTEIRA - FAMPE", "field_10": null, "field_11": null, "field_12": null, "field_13": null, "ER_REGIAO_CIDADE_min": "Casa Branca_Casa Branca_São João da Boa Vista" }, "geometry": { "type": "Point", "coordinates": [ -47.0727907, -21.754575 ] } },
{ "type": "Feature", "properties": { "CNPJ": "49333515000100", "IDCIDADE": "CASA BRANCA", "NOMEFANTASIA": "PECAS E MECANICA AGRICOLA NOSSA SENHORA APARECIDA", "RAZAOSOCIAL": "FERMOSELI E DIAS SERVICOS DE MECANICA LTDA", "ENDEE": "RUA ARLINDO PERES MACIEL, 20, DIST IND COM E RES DR THEOFILO S. FILHO, 13705-764, CASA BRANCA, SP, BRASIL", "LATITUDE": "-21.75531", "LONGITUDE": "-47.07252", "LMAPS": "https://www.google.com/maps?q=&layer=c&cbll=-21.75531,-47.07252", "O_QUE_FAZER": "CARTEIRA - FAMPE", "field_10": null, "field_11": null, "field_12": null, "field_13": null, "ER_REGIAO_CIDADE_min": "Casa Branca_Casa Branca_São João da Boa Vista" }, "geometry": { "type": "Point", "coordinates": [ -47.07252, -21.75531 ] } },
{ "type": "Feature", "properties": { "CNPJ": "52037794000161", "IDCIDADE": "CASA BRANCA", "NOMEFANTASIA": null, "RAZAOSOCIAL": "ALINE BARBOSA BARROS RECREACAO", "ENDEE": "RUA PEDRO PIMENTA, 413, PARQUE SAO PAULO, 13705-656, CASA BRANCA, SP, BRASIL", "LATITUDE": "-21.7592328", "LONGITUDE": "-47.0796282", "LMAPS": "https://www.google.com/maps?q=&layer=c&cbll=-21.7592328,-47.0796282", "O_QUE_FAZER": "CARTEIRA - FAMPE", "field_10": null, "field_11": null, "field_12": null, "field_13": null, "ER_REGIAO_CIDADE_min": "Casa Branca_Casa Branca_São João da Boa Vista" }, "geometry": { "type": "Point", "coordinates": [ -47.0796282, -21.7592328 ] } },
{ "type": "Feature", "properties": { "CNPJ": "12275108000176", "IDCIDADE": "CASA BRANCA", "NOMEFANTASIA": "PJS RESTAURACOES ESPECIAIS", "RAZAOSOCIAL": "PJS RESTAURACOES ESPECIAIS LTDA", "ENDEE": "RUA SEBASTIAO DE CASTRO, 480, ZONAL RURAL, ESTANCIA COESA, 13700-000, CASA BRANCA, SP, BRASIL", "LATITUDE": "-21.7600203", "LONGITUDE": "-47.0921901", "LMAPS": "https://www.google.com/maps?q=&layer=c&cbll=-21.7600203,-47.0921901", "O_QUE_FAZER": "CARTEIRA - FAMPE", "field_10": null, "field_11": null, "field_12": null, "field_13": null, "ER_REGIAO_CIDADE_min": "Casa Branca_Casa Branca_São João da Boa Vista" }, "geometry": { "type": "Point", "coordinates": [ -47.0921901, -21.7600203 ] } },
{ "type": "Feature", "properties": { "CNPJ": "12880550000121", "IDCIDADE": "CASA BRANCA", "NOMEFANTASIA": null, "RAZAOSOCIAL": "MARIO EIJI HIZUKURI", "ENDEE": "RUA SAO BENTO, 468, JARDIM MACAUBA, 13700-000, CASA BRANCA, SP, BRASIL", "LATITUDE": "-21.7656983", "LONGITUDE": "-47.095017", "LMAPS": "https://www.google.com/maps?q=&layer=c&cbll=-21.7656983,-47.095017", "O_QUE_FAZER": "CARTEIRA - FAMPE", "field_10": null, "field_11": null, "field_12": null, "field_13": null, "ER_REGIAO_CIDADE_min": "Casa Branca_Casa Branca_São João da Boa Vista" }, "geometry": { "type": "Point", "coordinates": [ -47.095017, -21.7656983 ] } },
{ "type": "Feature", "properties": { "CNPJ": "06814160000150", "IDCIDADE": "CASA BRANCA", "NOMEFANTASIA": "SOLARIS TOLDOS E PERSIANAS", "RAZAOSOCIAL": "SOLARIS TOLDOS E PERSIANAS LTDA.", "ENDEE": "PRACA BARAO DO RIO PARDO, 326, CENTRO, 13700-071, CASA BRANCA, SP, BRASIL", "LATITUDE": "-21.7701721", "LONGITUDE": "-47.0891664", "LMAPS": "https://www.google.com/maps?q=&layer=c&cbll=-21.7701721,-47.0891664", "O_QUE_FAZER": "CARTEIRA - FAMPE", "field_10": null, "field_11": null, "field_12": null, "field_13": null, "ER_REGIAO_CIDADE_min": "Casa Branca_Casa Branca_São João da Boa Vista" }, "geometry": { "type": "Point", "coordinates": [ -47.0891664, -21.7701721 ] } },
{ "type": "Feature", "properties": { "CNPJ": "44776980000194", "IDCIDADE": "CASA BRANCA", "NOMEFANTASIA": "CASA DE CARNES BOM JESUS", "RAZAOSOCIAL": "D M COMERCIO DE CARNES LTDA", "ENDEE": "RUA CAPITAO HORTA, 254, CENTRO, 13700-065, CASA BRANCA, SP, BRASIL", "LATITUDE": "-21.7722724", "LONGITUDE": "-47.0845831", "LMAPS": "https://www.google.com/maps?q=&layer=c&cbll=-21.7722724,-47.0845831", "O_QUE_FAZER": "CARTEIRA - FAMPE", "field_10": null, "field_11": null, "field_12": null, "field_13": null, "ER_REGIAO_CIDADE_min": "Casa Branca_Casa Branca_São João da Boa Vista" }, "geometry": { "type": "Point", "coordinates": [ -47.0845831, -21.7722724 ] } },
{ "type": "Feature", "properties": { "CNPJ": "39848610000185", "IDCIDADE": "CASA BRANCA", "NOMEFANTASIA": "CLAUDINHA SALGADOS", "RAZAOSOCIAL": "CFL SALGADOS LTDA", "ENDEE": "RUA CAPITAO HORTA, 191, LOJA 1, CENTRO, 13700-065, CASA BRANCA, SP, BRASIL", "LATITUDE": "-21.7727715", "LONGITUDE": "-47.0841903", "LMAPS": "https://www.google.com/maps?q=&layer=c&cbll=-21.7727715,-47.0841903", "O_QUE_FAZER": "CARTEIRA - FAMPE", "field_10": null, "field_11": null, "field_12": null, "field_13": null, "ER_REGIAO_CIDADE_min": "Casa Branca_Casa Branca_São João da Boa Vista" }, "geometry": { "type": "Point", "coordinates": [ -47.0841903, -21.7727715 ] } },
{ "type": "Feature", "properties": { "CNPJ": "51127164000115", "IDCIDADE": "CASA BRANCA", "NOMEFANTASIA": "PIZZARIA PORTAL BOM SABOR", "RAZAOSOCIAL": "RENAN NEIRA MARIANO LTDA", "ENDEE": "PRACA BARAO DE MOGI GUACU, 12, CENTRO, 13700-000, CASA BRANCA, SP, BRASIL", "LATITUDE": "-21.7730696", "LONGITUDE": "-47.0850474", "LMAPS": "https://www.google.com/maps?q=&layer=c&cbll=-21.7730696,-47.0850474", "O_QUE_FAZER": "CARTEIRA - FAMPE", "field_10": null, "field_11": null, "field_12": null, "field_13": null, "ER_REGIAO_CIDADE_min": "Casa Branca_Casa Branca_São João da Boa Vista" }, "geometry": { "type": "Point", "coordinates": [ -47.0850474, -21.7730696 ] } },
{ "type": "Feature", "properties": { "CNPJ": "42428792000140", "IDCIDADE": "CASA BRANCA", "NOMEFANTASIA": null, "RAZAOSOCIAL": "42.428.792 MAINE ARIELA URSOLI DA SILVEIRA", "ENDEE": "RUA CORONEL JOSE JULIO, 650, CENTRO, 13700-077, CASA BRANCA, SP, BRASIL", "LATITUDE": "-21.7750508", "LONGITUDE": "-47.0828074", "LMAPS": "https://www.google.com/maps?q=&layer=c&cbll=-21.7750508,-47.0828074", "O_QUE_FAZER": "CARTEIRA - FAMPE", "field_10": null, "field_11": null, "field_12": null, "field_13": null, "ER_REGIAO_CIDADE_min": "Casa Branca_Casa Branca_São João da Boa Vista" }, "geometry": { "type": "Point", "coordinates": [ -47.0828074, -21.7750508 ] } },
{ "type": "Feature", "properties": { "CNPJ": "00204612000104", "IDCIDADE": "CASA BRANCA", "NOMEFANTASIA": "CASA FAZ FERRAMENTAS E CONSTRUCAO", "RAZAOSOCIAL": "JOSE ARAUJO NETO FERRAMENTAS", "ENDEE": "AVENIDA LUIZ PIZZA, 82, CENTRO, 13700000, CASA BRANCA, SP, BRASIL", "LATITUDE": "-21.7753001", "LONGITUDE": "-47.0862684", "LMAPS": "https://www.google.com/maps?q=&layer=c&cbll=-21.7753001,-47.0862684", "O_QUE_FAZER": "CARTEIRA - FAMPE", "field_10": null, "field_11": null, "field_12": null, "field_13": null, "ER_REGIAO_CIDADE_min": "Casa Branca_Casa Branca_São João da Boa Vista" }, "geometry": { "type": "Point", "coordinates": [ -47.0862684, -21.7753001 ] } },
{ "type": "Feature", "properties": { "CNPJ": "25047987000120", "IDCIDADE": "CASA BRANCA", "NOMEFANTASIA": "AGROPECUARIA CAVELANHA", "RAZAOSOCIAL": "MONIA CARLA P V CAVELANHA TRANSPORTES", "ENDEE": "AVENIDA DOUTOR FRANCISCO NOGUEIRA DE LIMA, 901, DO DESTERRO, 13700000, CASA BRANCA, SP, BRASIL", "LATITUDE": "-21.7753173", "LONGITUDE": "-47.079524", "LMAPS": "https://www.google.com/maps?q=&layer=c&cbll=-21.7753173,-47.079524", "O_QUE_FAZER": "CARTEIRA - FAMPE", "field_10": null, "field_11": null, "field_12": null, "field_13": null, "ER_REGIAO_CIDADE_min": "Casa Branca_Casa Branca_São João da Boa Vista" }, "geometry": { "type": "Point", "coordinates": [ -47.079524, -21.7753173 ] } },
{ "type": "Feature", "properties": { "CNPJ": "29107781000108", "IDCIDADE": "CASA BRANCA", "NOMEFANTASIA": "MENEZELLO PROJETOS E CONSTRUCOES", "RAZAOSOCIAL": "MENEZELLO PROJETOS E CONSTRUCOES LTDA", "ENDEE": "RUA CORONEL JOSE JULIO, 599, CENTRO, 13700-077, CASA BRANCA, SP, BRASIL", "LATITUDE": "-21.7756202", "LONGITUDE": "-47.0825956", "LMAPS": "https://www.google.com/maps?q=&layer=c&cbll=-21.7756202,-47.0825956", "O_QUE_FAZER": "CARTEIRA - FAMPE", "field_10": null, "field_11": null, "field_12": null, "field_13": null, "ER_REGIAO_CIDADE_min": "Casa Branca_Casa Branca_São João da Boa Vista" }, "geometry": { "type": "Point", "coordinates": [ -47.0825956, -21.7756202 ] } },
{ "type": "Feature", "properties": { "CNPJ": "01597156000164", "IDCIDADE": "CASA BRANCA", "NOMEFANTASIA": "AZUL PAPELARIA", "RAZAOSOCIAL": "ADRIANA CRISTINA DE SOUZA PALHAVAM", "ENDEE": "RUA CORONEL JOSE JULIO, 431, CENTRO, 13700077, CASA BRANCA, SP, BRASIL", "LATITUDE": "-21.7766056", "LONGITUDE": "-47.081377", "LMAPS": "https://www.google.com/maps?q=&layer=c&cbll=-21.7766056,-47.081377", "O_QUE_FAZER": "CARTEIRA - FAMPE", "field_10": null, "field_11": null, "field_12": null, "field_13": null, "ER_REGIAO_CIDADE_min": "Casa Branca_Casa Branca_São João da Boa Vista" }, "geometry": { "type": "Point", "coordinates": [ -47.081377, -21.7766056 ] } },
{ "type": "Feature", "properties": { "CNPJ": "03221275000143", "IDCIDADE": "CASA BRANCA", "NOMEFANTASIA": "ESCRITORIO SAO BENTO", "RAZAOSOCIAL": "ESCRITORIO CONTABIL SAO BENTO SOCIEDADE SIMPLES LTDA.", "ENDEE": "RUA LACERDA FRANCO, 357, SALA A, CENTRO, 13700-000, CASA BRANCA, SP, BRASIL", "LATITUDE": "-21.7786894", "LONGITUDE": "-47.0810195", "LMAPS": "https://www.google.com/maps?q=&layer=c&cbll=-21.7786894,-47.0810195", "O_QUE_FAZER": "CARTEIRA - FAMPE", "field_10": null, "field_11": null, "field_12": null, "field_13": null, "ER_REGIAO_CIDADE_min": "Casa Branca_Casa Branca_São João da Boa Vista" }, "geometry": { "type": "Point", "coordinates": [ -47.0810195, -21.7786894 ] } },
{ "type": "Feature", "properties": { "CNPJ": "10780277000138", "IDCIDADE": "CASA BRANCA", "NOMEFANTASIA": "CLIMATEC", "RAZAOSOCIAL": "CLIMATEC PECAS E SERVICOS MECANICOS LTDA", "ENDEE": "AVENIDA RENATO PISTELLI, 27, CENTRO, 13700000, CASA BRANCA, SP, BRASIL", "LATITUDE": "-21.7797708", "LONGITUDE": "-47.0737305", "LMAPS": "https://www.google.com/maps?q=&layer=c&cbll=-21.7797708,-47.0737305", "O_QUE_FAZER": "CARTEIRA - FAMPE", "field_10": null, "field_11": null, "field_12": null, "field_13": null, "ER_REGIAO_CIDADE_min": "Casa Branca_Casa Branca_São João da Boa Vista" }, "geometry": { "type": "Point", "coordinates": [ -47.0737305, -21.7797708 ] } },
{ "type": "Feature", "properties": { "CNPJ": "14748705000104", "IDCIDADE": "CASA BRANCA", "NOMEFANTASIA": "OFICINA DO GORDO", "RAZAOSOCIAL": "ANDRE LUIZ VIEIRA DOS SANTOS", "ENDEE": "RUA FAMILIA GALANTE, 228, NAZARE, 13700000, CASA BRANCA, SP, BRASIL", "LATITUDE": "-21.7816267", "LONGITUDE": "-47.0689292", "LMAPS": "https://www.google.com/maps?q=&layer=c&cbll=-21.7816267,-47.0689292", "O_QUE_FAZER": "CARTEIRA - FAMPE", "field_10": null, "field_11": null, "field_12": null, "field_13": null, "ER_REGIAO_CIDADE_min": "Casa Branca_Casa Branca_São João da Boa Vista" }, "geometry": { "type": "Point", "coordinates": [ -47.0689292, -21.7816267 ] } },
{ "type": "Feature", "properties": { "CNPJ": "46248755000100", "IDCIDADE": "CASA BRANCA", "NOMEFANTASIA": null, "RAZAOSOCIAL": "J. L. CHEREDA REPRESENTACOES COMERCIAIS", "ENDEE": "RUA DUQUE DE CAXIAS, 1600, CHACARA BOA VISTA, 13703-304, CASA BRANCA, SP, BRASIL", "LATITUDE": "-21.7836181", "LONGITUDE": "-47.0908915", "LMAPS": "https://www.google.com/maps?q=&layer=c&cbll=-21.7836181,-47.0908915", "O_QUE_FAZER": "CARTEIRA - FAMPE", "field_10": null, "field_11": null, "field_12": null, "field_13": null, "ER_REGIAO_CIDADE_min": "Casa Branca_Casa Branca_São João da Boa Vista" }, "geometry": { "type": "Point", "coordinates": [ -47.0908915, -21.7836181 ] } },
{ "type": "Feature", "properties": { "CNPJ": "72825318000112", "IDCIDADE": "CASA BRANCA", "NOMEFANTASIA": "JARRAO", "RAZAOSOCIAL": "FABIO ANTONIALLI GIORDAN & CIA LTDA", "ENDEE": "RUA DR MOACIR TRONCOSO PERES, 355, CXPST 87, RESIDENCIAL ARLINDO PERES, 13700-000, CASA BRANCA, SP, BRASIL", "LATITUDE": "-21.786324", "LONGITUDE": "-47.089434", "LMAPS": "https://www.google.com/maps?q=&layer=c&cbll=-21.786324,-47.089434", "O_QUE_FAZER": "CARTEIRA - FAMPE", "field_10": null, "field_11": null, "field_12": null, "field_13": null, "ER_REGIAO_CIDADE_min": "Casa Branca_Casa Branca_São João da Boa Vista" }, "geometry": { "type": "Point", "coordinates": [ -47.089434, -21.786324 ] } }
]
}
