{
"type": "FeatureCollection",
"name": "ER_REGIAO_CIDADE_min_Salto Grande_Marília",
"crs": { "type": "name", "properties": { "name": "urn:ogc:def:crs:OGC:1.3:CRS84" } },
"xy_coordinate_resolution": 1e-15,
"features": [
{ "type": "Feature", "properties": { "fid": 375, "CNPJ": "00023335000125", "IDCIDADE": "SALTO_GRANDE", "NOMEFANTASIA": "PANIFICADORA_PAO_NOSSO", "RAZAOSOCIAL": "JOSE_CARLOS_CARVALHO_DA_SILVA_PANIFICADORA_LTDA", "ENDEE": "RUA_RUI_BARBOSA932__CENTRO_19920-033", "LMAPS": "https://www.google.com/maps?q=&layer=c&cbll=-22.8868959,-49.9826345", "O_QUE_FAZER": "CARTEIRA", "ER_REGIAO_CIDADE_min": "Salto Grande_Marília" }, "geometry": { "type": "Point", "coordinates": [ -49.9826345, -22.8868959 ] } },
{ "type": "Feature", "properties": { "fid": 8447, "CNPJ": "01750225000128", "IDCIDADE": "SALTO_GRANDE", "NOMEFANTASIA": "FL", "RAZAOSOCIAL": "COMERCIAL_FL_DE_SALTO_GRANDE_LTDA", "ENDEE": "AVENIDA_DEPUTADO_FEDERAL_ANTONIO_SYLVIO_CUNHA_BUENO1501__VILA_SALTO_GRANDE_19920-224", "LMAPS": "https://www.google.com/maps?q=&layer=c&cbll=-22.882897,-49.9811575", "O_QUE_FAZER": "CARTEIRA", "ER_REGIAO_CIDADE_min": "Salto Grande_Marília" }, "geometry": { "type": "Point", "coordinates": [ -49.9811575, -22.882897 ] } },
{ "type": "Feature", "properties": { "fid": 15741, "CNPJ": "03099080000172", "IDCIDADE": "SALTO_GRANDE", "NOMEFANTASIA": "BARBALHO_MOVEIS", "RAZAOSOCIAL": "ROSELY_S._DE_CARVALHO_BARBALHO", "ENDEE": "AVENIDA_DEPUTADO_FEDERAL_ANTONIO_SYLVIO_CUNHA_BUENO1573__VILA_SALTO_GRANDE_19920-224", "LMAPS": "https://www.google.com/maps?q=&layer=c&cbll=-22.8823054,-49.9810555", "O_QUE_FAZER": "CARTEIRA", "ER_REGIAO_CIDADE_min": "Salto Grande_Marília" }, "geometry": { "type": "Point", "coordinates": [ -49.9810555, -22.8823054 ] } },
{ "type": "Feature", "properties": { "fid": 20638, "CNPJ": "03905308000174", "IDCIDADE": "SALTO_GRANDE", "NOMEFANTASIA": "SACOLAO_ANDRINO", "RAZAOSOCIAL": "SACOLAO_ANDRINO_DE_HORTIFRUTIGRANJEIROS_LTDA", "ENDEE": "RUA_RUI_BARBOSA911__CENTRO_19920-033", "LMAPS": "https://www.google.com/maps?q=&layer=c&cbll=-22.8869653,-49.9827193", "O_QUE_FAZER": "CARTEIRA", "ER_REGIAO_CIDADE_min": "Salto Grande_Marília" }, "geometry": { "type": "Point", "coordinates": [ -49.9827193, -22.8869653 ] } },
{ "type": "Feature", "properties": { "fid": 26666, "CNPJ": "04793957000193", "IDCIDADE": "SALTO_GRANDE", "NOMEFANTASIA": "VITORIA_PRESENTES", "RAZAOSOCIAL": "ELAINE_CARLA_MARTINS_DE_SOUZA", "ENDEE": "RUA_RUI_BARBOSA904__CENTRO_19920-033", "LMAPS": "https://www.google.com/maps?q=&layer=c&cbll=-22.8862383,-49.9823983", "O_QUE_FAZER": "CARTEIRA", "ER_REGIAO_CIDADE_min": "Salto Grande_Marília" }, "geometry": { "type": "Point", "coordinates": [ -49.9823983, -22.8862383 ] } },
{ "type": "Feature", "properties": { "fid": 34172, "CNPJ": "05859180000185", "IDCIDADE": "SALTO_GRANDE", "NOMEFANTASIA": "KI_DA_HORA_MODAS", "RAZAOSOCIAL": "CRISLEIDY_LOPES_NASCIMENTO", "ENDEE": "RUA_RUI_BARBOSA880__CENTRO_19920-033", "LMAPS": "https://www.google.com/maps?q=&layer=c&cbll=-22.8869837,-49.9826789", "O_QUE_FAZER": "CARTEIRA", "ER_REGIAO_CIDADE_min": "Salto Grande_Marília" }, "geometry": { "type": "Point", "coordinates": [ -49.9826789, -22.8869837 ] } },
{ "type": "Feature", "properties": { "fid": 40343, "CNPJ": "07154535000166", "IDCIDADE": "SALTO_GRANDE", "NOMEFANTASIA": "FESTA_BARBALHO", "RAZAOSOCIAL": "MARCOS_BARBALHO_SOBRINHO", "ENDEE": "AVENIDA_DEPUTADO_FEDERAL_ANTONIO_SYLVIO_CUNHA_BUENO1555__VILA_SALTO_GRANDE_19920-224", "LMAPS": "https://www.google.com/maps?q=&layer=c&cbll=-22.88242,-49.9807567", "O_QUE_FAZER": "CARTEIRA", "ER_REGIAO_CIDADE_min": "Salto Grande_Marília" }, "geometry": { "type": "Point", "coordinates": [ -49.9807567, -22.88242 ] } },
{ "type": "Feature", "properties": { "fid": 48104, "CNPJ": "08108130000154", "IDCIDADE": "SALTO_GRANDE", "NOMEFANTASIA": "ADEGA_KING", "RAZAOSOCIAL": "CINTIA_DE_CASSIA_CONCIANI", "ENDEE": "RUA_MARLENE_SPERANZA_DOS_SANTOS_DOMINGUES1120__VILA_SALTO_GRANDE_19920-192", "LMAPS": "https://www.google.com/maps?q=&layer=c&cbll=-22.881196,-49.9759719", "O_QUE_FAZER": "CARTEIRA", "ER_REGIAO_CIDADE_min": "Salto Grande_Marília" }, "geometry": { "type": "Point", "coordinates": [ -49.9759719, -22.881196 ] } },
{ "type": "Feature", "properties": { "fid": 53702, "CNPJ": "08929075000163", "IDCIDADE": "SALTO_GRANDE", "NOMEFANTASIA": "GG_MOTORES", "RAZAOSOCIAL": "RICARDO_G._DOS_SANTOS", "ENDEE": "AVENIDA_DEPUTADO_FEDERAL_ANTONIO_SYLVIO_CUNHA_BUENO2341__VILA_SALTO_GRANDE_19920-224", "LMAPS": "https://www.google.com/maps?q=&layer=c&cbll=-22.8756683,-49.9770417", "O_QUE_FAZER": "CARTEIRA", "ER_REGIAO_CIDADE_min": "Salto Grande_Marília" }, "geometry": { "type": "Point", "coordinates": [ -49.9770417, -22.8756683 ] } },
{ "type": "Feature", "properties": { "fid": 70960, "CNPJ": "11366817000102", "IDCIDADE": "SALTO_GRANDE", "NOMEFANTASIA": "JUNINHO_AR_CONDICIONADO", "RAZAOSOCIAL": "VALDIR_ROSA_JUNIOR", "ENDEE": "AVENIDA_DEPUTADO_FEDERAL_ANTONIO_SYLVIO_CUNHA_BUENO2166__VILA_SALTO_GRANDE_19920-224", "LMAPS": "https://www.google.com/maps?q=&layer=c&cbll=-22.8772636,-49.9772651", "O_QUE_FAZER": "CARTEIRA", "ER_REGIAO_CIDADE_min": "Salto Grande_Marília" }, "geometry": { "type": "Point", "coordinates": [ -49.9772651, -22.8772636 ] } },
{ "type": "Feature", "properties": { "fid": 86282, "CNPJ": "14142899000191", "IDCIDADE": "SALTO GRANDE", "NOMEFANTASIA": "-", "RAZAOSOCIAL": "14.142.899_ADRIANA_FABIANA_DA_SILVA_COLDIBELI", "ENDEE": "RUA RUA MARECHAL DEODORO DA FONSECA, 430, CENTRO, 19920-013, SALTO GRANDE, SP, BRASIL", "LMAPS": "https://www.google.com/maps?q=&layer=c&cbll=-22.8894536,-49.9840945", "O_QUE_FAZER": "CARTEIRA - FAMPE", "ER_REGIAO_CIDADE_min": "Salto Grande_Marília" }, "geometry": { "type": "Point", "coordinates": [ -49.9840945, -22.8894536 ] } },
{ "type": "Feature", "properties": { "fid": 91106, "CNPJ": "15157832000193", "IDCIDADE": "SALTO_GRANDE", "NOMEFANTASIA": "HELTON_PORTOES", "RAZAOSOCIAL": "HELTON_LOPES_CABRAL", "ENDEE": "AVENIDA_DEPUTADO_FEDERAL_ANTONIO_SYLVIO_CUNHA_BUENO2506__VILA_SALTO_GRANDE_19920-224", "LMAPS": "https://www.google.com/maps?q=&layer=c&cbll=-22.8747142,-49.9757302", "O_QUE_FAZER": "CARTEIRA", "ER_REGIAO_CIDADE_min": "Salto Grande_Marília" }, "geometry": { "type": "Point", "coordinates": [ -49.9757302, -22.8747142 ] } },
{ "type": "Feature", "properties": { "fid": 123218, "CNPJ": "22660311000110", "IDCIDADE": "SALTO_GRANDE", "NOMEFANTASIA": "VTEC_VISTORIAS", "RAZAOSOCIAL": "VTEC_VISTORIA_VEICULAR_LTDA", "ENDEE": "AVENIDA_DEPUTADO_FEDERAL_ANTONIO_SYLVIO_CUNHA_BUENO2005__VILA_SALTO_GRANDE_19920-224", "LMAPS": "https://www.google.com/maps?q=&layer=c&cbll=-22.8783983,-49.9786533", "O_QUE_FAZER": "CARTEIRA", "ER_REGIAO_CIDADE_min": "Salto Grande_Marília" }, "geometry": { "type": "Point", "coordinates": [ -49.9786533, -22.8783983 ] } },
{ "type": "Feature", "properties": { "fid": 123846, "CNPJ": "22779610000178", "IDCIDADE": "SALTO GRANDE", "NOMEFANTASIA": "-", "RAZAOSOCIAL": "22.779.610_LUCAS_MIOTTO_DA_SILVA", "ENDEE": "RUA RUI BARBOSA - ATE 1028/1029, 577, CENTRO, 19920-033, SALTO GRANDE, SP, BRASIL", "LMAPS": "https://www.google.com/maps?q=&layer=c&cbll=-22.8833411,-49.9811603", "O_QUE_FAZER": "CARTEIRA - FAMPE", "ER_REGIAO_CIDADE_min": "Salto Grande_Marília" }, "geometry": { "type": "Point", "coordinates": [ -49.9811603, -22.8833411 ] } },
{ "type": "Feature", "properties": { "fid": 131680, "CNPJ": "24441219000194", "IDCIDADE": "SALTO_GRANDE", "NOMEFANTASIA": "MINI_MERCADO_JARDIM", "RAZAOSOCIAL": "INIVALDO_PEREIRA_DA_SILVA", "ENDEE": "RUA_VITTORIO_CALIA18__CDHU_II_19920-204", "LMAPS": "https://www.google.com/maps?q=&layer=c&cbll=-22.8825396,-49.9752244", "O_QUE_FAZER": "CARTEIRA", "ER_REGIAO_CIDADE_min": "Salto Grande_Marília" }, "geometry": { "type": "Point", "coordinates": [ -49.9752244, -22.8825396 ] } },
{ "type": "Feature", "properties": { "fid": 141160, "CNPJ": "26793382000141", "IDCIDADE": "SALTO_GRANDE", "NOMEFANTASIA": "NOGUEIRA_BIKES", "RAZAOSOCIAL": "BICICLETARIA_ANDRINO_E_NOGUEIRA_LTDA", "ENDEE": "RUA_RUI_BARBOSA688__CENTRO_19920-033", "LMAPS": "https://www.google.com/maps?q=&layer=c&cbll=-22.8888632,-49.9829498", "O_QUE_FAZER": "CARTEIRA", "ER_REGIAO_CIDADE_min": "Salto Grande_Marília" }, "geometry": { "type": "Point", "coordinates": [ -49.9829498, -22.8888632 ] } },
{ "type": "Feature", "properties": { "fid": 172452, "CNPJ": "32951630000138", "IDCIDADE": "SALTO_GRANDE", "NOMEFANTASIA": "IMOBILIARIA_SARAUSA", "RAZAOSOCIAL": "SARAUSA_&_MARTINS_NEGOCIOS_IMOBILIARIOS_LTDA", "ENDEE": "AVENIDA_DEPUTADO_FEDERAL_ANTONIO_SYLVIO_CUNHA_BUENO1411__VILA_SALTO_GRANDE_19920-224", "LMAPS": "https://www.google.com/maps?q=&layer=c&cbll=-22.88375,-49.981515", "O_QUE_FAZER": "CARTEIRA", "ER_REGIAO_CIDADE_min": "Salto Grande_Marília" }, "geometry": { "type": "Point", "coordinates": [ -49.981515, -22.88375 ] } },
{ "type": "Feature", "properties": { "fid": 188304, "CNPJ": "36146107000190", "IDCIDADE": "SALTO_GRANDE", "NOMEFANTASIA": "PAO_NOSSO_CAFE", "RAZAOSOCIAL": "PADARIA_E_CONFEITARIA_CAMARGO_E_PINHEIRO_LTDA", "ENDEE": "RUA_RUI_BARBOSA910__CENTRO_19920-033", "LMAPS": "https://www.google.com/maps?q=&layer=c&cbll=-22.8887542,-49.9832799", "O_QUE_FAZER": "CARTEIRA", "ER_REGIAO_CIDADE_min": "Salto Grande_Marília" }, "geometry": { "type": "Point", "coordinates": [ -49.9832799, -22.8887542 ] } },
{ "type": "Feature", "properties": { "fid": 193329, "CNPJ": "37347260000229", "IDCIDADE": "SALTO_GRANDE", "NOMEFANTASIA": "SAFRA_MAIS", "RAZAOSOCIAL": "AGRICOLA_PIRES_LTDA", "ENDEE": "AVENIDA_DEPUTADO_FEDERAL_ANTONIO_SYLVIO_CUNHA_BUENO2181__VILA_SALTO_GRANDE_19920-224", "LMAPS": "https://www.google.com/maps?q=&layer=c&cbll=-22.8768907,-49.9779106", "O_QUE_FAZER": "CARTEIRA", "ER_REGIAO_CIDADE_min": "Salto Grande_Marília" }, "geometry": { "type": "Point", "coordinates": [ -49.9779106, -22.8768907 ] } },
{ "type": "Feature", "properties": { "fid": 201424, "CNPJ": "39467341000107", "IDCIDADE": "SALTO_GRANDE", "NOMEFANTASIA": "JB_AGRICOLA", "RAZAOSOCIAL": "JB_CASA_DAS_PECAS_AGRICOLAS_LTDA", "ENDEE": "AVENIDA_DEPUTADO_FEDERAL_ANTONIO_SYLVIO_CUNHA_BUENO2182__VILA_SALTO_GRANDE_19920-224", "LMAPS": "https://www.google.com/maps?q=&layer=c&cbll=-22.8772778,-49.9772027", "O_QUE_FAZER": "CARTEIRA", "ER_REGIAO_CIDADE_min": "Salto Grande_Marília" }, "geometry": { "type": "Point", "coordinates": [ -49.9772027, -22.8772778 ] } },
{ "type": "Feature", "properties": { "fid": 204529, "CNPJ": "40132032000165", "IDCIDADE": "SALTO_GRANDE", "NOMEFANTASIA": "ADRIEL_MARQUES_VIEIRA", "RAZAOSOCIAL": "STUDIO_MARQUES", "ENDEE": "RUA_PADRE_SEGUNDO_ANTONIO_PIOTTI47__CONJ._HAB._NOSSO_TETO_19920-100", "LMAPS": "https://www.google.com/maps?q=&layer=c&cbll=-22.8902544,-49.984175", "O_QUE_FAZER": "FINALIZADO", "ER_REGIAO_CIDADE_min": "Salto Grande_Marília" }, "geometry": { "type": "Point", "coordinates": [ -49.984175, -22.8902544 ] } },
{ "type": "Feature", "properties": { "fid": 209794, "CNPJ": "41549433000188", "IDCIDADE": "SALTO_GRANDE", "NOMEFANTASIA": "CONSTRUSALT", "RAZAOSOCIAL": "M._GONCALVES_DOS_SANTOS_MATERIAIS_DE_CONSTRUCAO_LTDA", "ENDEE": "AVENIDA_DEPUTADO_FEDERAL_ANTONIO_SYLVIO_CUNHA_BUENO1911__VILA_SALTO_GRANDE_19920-224", "LMAPS": "https://www.google.com/maps?q=&layer=c&cbll=-22.8791617,-49.9791737", "O_QUE_FAZER": "CARTEIRA", "ER_REGIAO_CIDADE_min": "Salto Grande_Marília" }, "geometry": { "type": "Point", "coordinates": [ -49.9791737, -22.8791617 ] } },
{ "type": "Feature", "properties": { "fid": 242706, "CNPJ": "48461301000149", "IDCIDADE": "SALTO_GRANDE", "NOMEFANTASIA": "ORIGINAL_MULTI", "RAZAOSOCIAL": "LEAL_&_BRITO_VEICULOS_LTDA", "ENDEE": "RUA_HAMILTON_VIGANO39__PARQUE_DAS_NACOES_19920-130", "LMAPS": "https://www.google.com/maps?q=&layer=c&cbll=-22.8829583,-49.9805081", "O_QUE_FAZER": "CARTEIRA", "ER_REGIAO_CIDADE_min": "Salto Grande_Marília" }, "geometry": { "type": "Point", "coordinates": [ -49.9805081, -22.8829583 ] } },
{ "type": "Feature", "properties": { "fid": 254870, "CNPJ": "50969664000131", "IDCIDADE": "SALTO_GRANDE", "NOMEFANTASIA": "PANIFICADORA_PROGRESSO", "RAZAOSOCIAL": "THARIANY_DOS_SANTOS_PANIFICACAO", "ENDEE": "RUA_DOUTOR_JOSE_FERRAZ_DA_ROSA682__VILA_SAO_PAULO_19920-180", "LMAPS": "https://www.google.com/maps?q=&layer=c&cbll=-22.8842835,-49.9769515", "O_QUE_FAZER": "CARTEIRA", "ER_REGIAO_CIDADE_min": "Salto Grande_Marília" }, "geometry": { "type": "Point", "coordinates": [ -49.9769515, -22.8842835 ] } },
{ "type": "Feature", "properties": { "fid": 267387, "CNPJ": "53590956000238", "IDCIDADE": "SALTO_GRANDE", "NOMEFANTASIA": "DROGARIA_CURE_VIDA", "RAZAOSOCIAL": "LEONARDO_&_LEONARDO_DROGARIA_LTDA", "ENDEE": "RUA_RUI_BARBOSA891__CENTRO_19920-033", "LMAPS": "https://www.google.com/maps?q=&layer=c&cbll=-22.8871792,-49.982803", "O_QUE_FAZER": "CARTEIRA", "ER_REGIAO_CIDADE_min": "Salto Grande_Marília" }, "geometry": { "type": "Point", "coordinates": [ -49.982803, -22.8871792 ] } },
{ "type": "Feature", "properties": { "fid": 271054, "CNPJ": "54408786000100", "IDCIDADE": "SALTO_GRANDE", "NOMEFANTASIA": "GONCALVES_MC", "RAZAOSOCIAL": "LGL_MATERIAIS_DE_CONSTRUCAO_LTDA", "ENDEE": "RUA_RUI_BARBOSA629__CENTRO_19920-033", "LMAPS": "https://www.google.com/maps?q=&layer=c&cbll=-22.889102,-49.983754", "O_QUE_FAZER": "CARTEIRA", "ER_REGIAO_CIDADE_min": "Salto Grande_Marília" }, "geometry": { "type": "Point", "coordinates": [ -49.983754, -22.889102 ] } },
{ "type": "Feature", "properties": { "fid": 279647, "CNPJ": "56690571000150", "IDCIDADE": "SALTO_GRANDE", "NOMEFANTASIA": "FARMACIA_SANTO_ANTONIO", "RAZAOSOCIAL": "DROGARIA_GALVAO_POCAY_LTDA", "ENDEE": "RUA_RUI_BARBOSA599__CENTRO_19920-033", "LMAPS": "https://www.google.com/maps?q=&layer=c&cbll=-22.8894461,-49.9838434", "O_QUE_FAZER": "CARTEIRA", "ER_REGIAO_CIDADE_min": "Salto Grande_Marília" }, "geometry": { "type": "Point", "coordinates": [ -49.9838434, -22.8894461 ] } },
{ "type": "Feature", "properties": { "fid": 282426, "CNPJ": "57566119000143", "IDCIDADE": "SALTO_GRANDE", "NOMEFANTASIA": "AUTO_ELETRICA_SALTO_GRANDE", "RAZAOSOCIAL": "MARINHO_AUTO_ELETRICA_PECAS_E_MECANICA_LTDA", "ENDEE": "AVENIDA_DEPUTADO_FEDERAL_ANTONIO_SYLVIO_CUNHA_BUENO2214__VILA_SALTO_GRANDE_19920-224", "LMAPS": "https://www.google.com/maps?q=&layer=c&cbll=-22.8771607,-49.9770847", "O_QUE_FAZER": "CARTEIRA", "ER_REGIAO_CIDADE_min": "Salto Grande_Marília" }, "geometry": { "type": "Point", "coordinates": [ -49.9770847, -22.8771607 ] } },
{ "type": "Feature", "properties": { "fid": 301774, "CNPJ": "65228250000129", "IDCIDADE": "SALTO GRANDE", "NOMEFANTASIA": null, "RAZAOSOCIAL": "65.228.250_KAIQUE_DOS_SANTOS_CASCALES", "ENDEE": "RUA JOSE BONIFACIO, 2472, CASA, CENTRO, 19920-035, SALTO GRANDE, SP, BRASIL", "LMAPS": "https://www.google.com/maps?q=&layer=c&cbll=-22.8743619,-49.9769475", "O_QUE_FAZER": "CARTEIRA - FAMPE", "ER_REGIAO_CIDADE_min": "Salto Grande_Marília" }, "geometry": { "type": "Point", "coordinates": [ -49.9769475, -22.8743619 ] } },
{ "type": "Feature", "properties": { "fid": 304887, "CNPJ": "66825365000163", "IDCIDADE": "SALTO_GRANDE", "NOMEFANTASIA": "ROSE_CONFECCOES", "RAZAOSOCIAL": "A_LOURENCO_COMERCIO_DE_CONFECCOES_E_CALCADOS_LTDA", "ENDEE": "RUA_RUI_BARBOSA840__CENTRO_19920-033", "LMAPS": "https://www.google.com/maps?q=&layer=c&cbll=-22.8874617,-49.9826382", "O_QUE_FAZER": "CARTEIRA", "ER_REGIAO_CIDADE_min": "Salto Grande_Marília" }, "geometry": { "type": "Point", "coordinates": [ -49.9826382, -22.8874617 ] } },
{ "type": "Feature", "properties": { "fid": 310199, "CNPJ": "72828122000181", "IDCIDADE": "SALTO_GRANDE", "NOMEFANTASIA": "ADEMIR_MC", "RAZAOSOCIAL": "ADEMIR_MATERIAIS_DE_CONSTRUCAO_LTDA", "ENDEE": "RUA_RUI_BARBOSA905__CENTRO_19920-033", "LMAPS": "https://www.google.com/maps?q=&layer=c&cbll=-22.8871162,-49.9827921", "O_QUE_FAZER": "CARTEIRA", "ER_REGIAO_CIDADE_min": "Salto Grande_Marília" }, "geometry": { "type": "Point", "coordinates": [ -49.9827921, -22.8871162 ] } },
{ "type": "Feature", "properties": { "fid": 311769, "CNPJ": "96172333000177", "IDCIDADE": "SALTO_GRANDE", "NOMEFANTASIA": "MERCADO_SAO_SEBASTIAO", "RAZAOSOCIAL": "MERCEARIA_SAO_SEBASTIAO_SALTO_GRANDE_LTDA", "ENDEE": "RUA_DOUTOR_JOSE_FERRAZ_DA_ROSA318__VILA_SAO_PAULO_19920-180", "LMAPS": "https://www.google.com/maps?q=&layer=c&cbll=-22.8854575,-49.9797677", "O_QUE_FAZER": "CARTEIRA", "ER_REGIAO_CIDADE_min": "Salto Grande_Marília" }, "geometry": { "type": "Point", "coordinates": [ -49.9797677, -22.8854575 ] } }
]
}
