{
"type": "FeatureCollection",
"name": "ER_REGIAO_CIDADE_min_Cajamar_Jordanésia_Jundiaí",
"crs": { "type": "name", "properties": { "name": "urn:ogc:def:crs:OGC:1.3:CRS84" } },
"xy_coordinate_resolution": 1e-15,
"features": [
{ "type": "Feature", "properties": { "fid": 1825, "CNPJ": "00368058000192", "IDCIDADE": "CAJAMAR", "NOMEFANTASIA": "CENTERGAS", "RAZAOSOCIAL": "MARCELO_DA_ROCHA_SANTIAGO", "ENDEE": "RUA AGUDOS (VL ABRAO), 114, ALTOS DE JORDANESIA (JORDANESIA), 07786-800, CAJAMAR, SP, BRASIL", "LMAPS": "https://www.google.com/maps?q=&layer=c&cbll=-23.3373201,-46.8304159", "O_QUE_FAZER": "CARTEIRA - FAMPE", "ER_REGIAO_CIDADE_min": "Cajamar_Jordanésia_Jundiaí" }, "geometry": { "type": "Point", "coordinates": [ -46.8304159, -23.3373201 ] } },
{ "type": "Feature", "properties": { "fid": 1913, "CNPJ": "00388794000102", "IDCIDADE": "CAJAMAR", "NOMEFANTASIA": "WD_MATERIAS", "RAZAOSOCIAL": "WD_MATERIAIS_PARA_CONSTRUCAO_LTDA", "ENDEE": "RUA_AVELINO_TOLEDO_DE_LIMA143__JORDANESIA_07776-455", "LMAPS": "https://www.google.com/maps?q=&layer=c&cbll=-23.3337341,-46.8387678", "O_QUE_FAZER": "CARTEIRA", "ER_REGIAO_CIDADE_min": "Cajamar_Jordanésia_Jundiaí" }, "geometry": { "type": "Point", "coordinates": [ -46.8387678, -23.3337341 ] } },
{ "type": "Feature", "properties": { "fid": 2536, "CNPJ": "00524679000118", "IDCIDADE": "CAJAMAR", "NOMEFANTASIA": "BIO_QUALITY", "RAZAOSOCIAL": "BIO_QUALITY_PRODUTOS_ECOLOGICOS_LTDA", "ENDEE": "AVENIDA JOAQUIM JANUS PENTEADO, 261, ALTOS DE JORDANÉSIA, 07786-520, CAJAMAR, SP, BRASIL", "LMAPS": "https://www.google.com/maps?q=&layer=c&cbll=-23.3367414,-46.8351612", "O_QUE_FAZER": "FINALIZADO", "ER_REGIAO_CIDADE_min": "Cajamar_Jordanésia_Jundiaí" }, "geometry": { "type": "Point", "coordinates": [ -46.8351612, -23.3367414 ] } },
{ "type": "Feature", "properties": { "fid": 8589, "CNPJ": "01777338000117", "IDCIDADE": "CAJAMAR", "NOMEFANTASIA": "LANCHONETE_FLOR_DE_JORDANESIA", "RAZAOSOCIAL": "LANCHONETE_FLOR_DE_JORDANESIA_LTDA", "ENDEE": "AVENIDA_JORDANO_MENDES262__JORDANESIA_07776-015", "LMAPS": "https://www.google.com/maps?q=&layer=c&cbll=-23.3344624,-46.8376861", "O_QUE_FAZER": "CARTEIRA", "ER_REGIAO_CIDADE_min": "Cajamar_Jordanésia_Jundiaí" }, "geometry": { "type": "Point", "coordinates": [ -46.8376861, -23.3344624 ] } },
{ "type": "Feature", "properties": { "fid": 8671, "CNPJ": "01790025000107", "IDCIDADE": "CAJAMAR", "NOMEFANTASIA": "EDAN_INFORMATICA", "RAZAOSOCIAL": "EDAN_INFORMATICA_LTDA", "ENDEE": "RUA_VEREADOR_JOAQUIM_SOARES_DE_ARAUJO98__JORDANESIA_07776-440", "LMAPS": "https://www.google.com/maps?q=&layer=c&cbll=-23.334754,-46.8379732", "O_QUE_FAZER": "CARTEIRA", "ER_REGIAO_CIDADE_min": "Cajamar_Jordanésia_Jundiaí" }, "geometry": { "type": "Point", "coordinates": [ -46.8379732, -23.334754 ] } },
{ "type": "Feature", "properties": { "fid": 10355, "CNPJ": "02129637000108", "IDCIDADE": "CAJAMAR", "NOMEFANTASIA": "BAZAR_DA_SONIA", "RAZAOSOCIAL": "SONIA_DONIZETI_NUNES_ANTONIO_MERCEARIA", "ENDEE": "RUA_ADAMANTINA22__ALTOS_DE_JORDANESIA_07786-795", "LMAPS": "https://www.google.com/maps?q=&layer=c&cbll=-23.3366183,-46.8329096", "O_QUE_FAZER": "CARTEIRA", "ER_REGIAO_CIDADE_min": "Cajamar_Jordanésia_Jundiaí" }, "geometry": { "type": "Point", "coordinates": [ -46.8329096, -23.3366183 ] } },
{ "type": "Feature", "properties": { "fid": 12341, "CNPJ": "02509445000127", "IDCIDADE": "CAJAMAR", "NOMEFANTASIA": "DUARTEC_MOTORES_ELETRICOS", "RAZAOSOCIAL": "ELETRICA_MOTORES_JORDANESIA_LTDA", "ENDEE": "AVENIDA_ARNALDO_ROJEK245__ALTOS_DE_JORDANESIA_07786-525", "LMAPS": "https://www.google.com/maps?q=&layer=c&cbll=-23.3364042,-46.8358581", "O_QUE_FAZER": "CARTEIRA", "ER_REGIAO_CIDADE_min": "Cajamar_Jordanésia_Jundiaí" }, "geometry": { "type": "Point", "coordinates": [ -46.8358581, -23.3364042 ] } },
{ "type": "Feature", "properties": { "fid": 12486, "CNPJ": "02542131000126", "IDCIDADE": "CAJAMAR", "NOMEFANTASIA": null, "RAZAOSOCIAL": "TEC_RAD_PRESTACAO_DE_SERVICOS_DE_RADIOLOGIA_LTDA", "ENDEE": "AVENIDA JORDANO MENDES, 246, JORDANESIA (JORDANESIA), 07776-480, CAJAMAR, SP, BRASIL", "LMAPS": "https://www.google.com/maps?q=&layer=c&cbll=-23.333768,-46.8379919", "O_QUE_FAZER": "CARTEIRA - FAMPE", "ER_REGIAO_CIDADE_min": "Cajamar_Jordanésia_Jundiaí" }, "geometry": { "type": "Point", "coordinates": [ -46.8379919, -23.333768 ] } },
{ "type": "Feature", "properties": { "fid": 13488, "CNPJ": "02734346000149", "IDCIDADE": "CAJAMAR", "NOMEFANTASIA": "CENTERGAS", "RAZAOSOCIAL": "DULCILA_FERNANDES_DE_SOUZA", "ENDEE": "RUA_MARIA_ANUNCIADA_DE_MOURA6__JORDANESIA_07776-205", "LMAPS": "https://www.google.com/maps?q=&layer=c&cbll=-23.3380285,-46.8406172", "O_QUE_FAZER": "CARTEIRA", "ER_REGIAO_CIDADE_min": "Cajamar_Jordanésia_Jundiaí" }, "geometry": { "type": "Point", "coordinates": [ -46.8406172, -23.3380285 ] } },
{ "type": "Feature", "properties": { "fid": 18819, "CNPJ": "03600268000152", "IDCIDADE": "CAJAMAR", "NOMEFANTASIA": "DROGA_VILA_JORDANESIA", "RAZAOSOCIAL": "DROGARIAS_KONO_LTDA", "ENDEE": "AVENIDA_ANTONIO_CANDIDO_MACHADO1260__JORDANESIA_07776-195", "LMAPS": "https://www.google.com/maps?q=&layer=c&cbll=-23.3380001,-46.8404666", "O_QUE_FAZER": "CARTEIRA", "ER_REGIAO_CIDADE_min": "Cajamar_Jordanésia_Jundiaí" }, "geometry": { "type": "Point", "coordinates": [ -46.8404666, -23.3380001 ] } },
{ "type": "Feature", "properties": { "fid": 22619, "CNPJ": "04191874000124", "IDCIDADE": "CAJAMAR", "NOMEFANTASIA": "P&S_SERVICOS_DE_LIMPEZA_ESPECIALIZADOS", "RAZAOSOCIAL": "P&S_SERVICOS_DE_LIMPEZA_ESPECIALIZADOS_LTDA", "ENDEE": "RUA RUBENS BARBOSA (JD N JORDANESIA), 181, JORDANESIA (JORDANESIA), 07776-390, CAJAMAR, SP, BRASIL", "LMAPS": "https://www.google.com/maps?q=&layer=c&cbll=-23.3385571,-46.8385522", "O_QUE_FAZER": "CARTEIRA - FAMPE", "ER_REGIAO_CIDADE_min": "Cajamar_Jordanésia_Jundiaí" }, "geometry": { "type": "Point", "coordinates": [ -46.8385522, -23.3385571 ] } },
{ "type": "Feature", "properties": { "fid": 27228, "CNPJ": "04881241000148", "IDCIDADE": "CAJAMAR", "NOMEFANTASIA": "CFC_CRISTAL", "RAZAOSOCIAL": "CENTRO_DE_FORMACAO_DE_CONDUTORES_A/B_DE_JORDANESIA_SS_LTDA", "ENDEE": "RUA_OSWALDO_DE_LORENZI92__JORDANESIA_07776-420", "LMAPS": "https://www.google.com/maps?q=&layer=c&cbll=-23.3363635,-46.8374544", "O_QUE_FAZER": "CARTEIRA", "ER_REGIAO_CIDADE_min": "Cajamar_Jordanésia_Jundiaí" }, "geometry": { "type": "Point", "coordinates": [ -46.8374544, -23.3363635 ] } },
{ "type": "Feature", "properties": { "fid": 28509, "CNPJ": "05052767000188", "IDCIDADE": "CAJAMAR", "NOMEFANTASIA": "RMA_MODAS", "RAZAOSOCIAL": "RMA_MODAS_LTDA", "ENDEE": "RUA_VEREADOR_JOAQUIM_SOARES_DE_ARAUJO89__JORDANESIA_07776-440", "LMAPS": "https://www.google.com/maps?q=&layer=c&cbll=-23.3348219,-46.8378932", "O_QUE_FAZER": "CARTEIRA", "ER_REGIAO_CIDADE_min": "Cajamar_Jordanésia_Jundiaí" }, "geometry": { "type": "Point", "coordinates": [ -46.8378932, -23.3348219 ] } },
{ "type": "Feature", "properties": { "fid": 30739, "CNPJ": "05372942000114", "IDCIDADE": "CAJAMAR", "NOMEFANTASIA": "MERCADINHO_PANDA", "RAZAOSOCIAL": "ELENITA_DOS_SANTOS_CUNHA", "ENDEE": "RUA_JOANOPOLIS277__JORDANESIA_07787-105", "LMAPS": "https://www.google.com/maps?q=&layer=c&cbll=-23.3360668,-46.8265029", "O_QUE_FAZER": "CARTEIRA", "ER_REGIAO_CIDADE_min": "Cajamar_Jordanésia_Jundiaí" }, "geometry": { "type": "Point", "coordinates": [ -46.8265029, -23.3360668 ] } },
{ "type": "Feature", "properties": { "fid": 31337, "CNPJ": "05466993000105", "IDCIDADE": "CAJAMAR", "NOMEFANTASIA": "EYOR_SERVICOS_ADMINISTRATIVOS", "RAZAOSOCIAL": "EYOR_SERVICOS_ADMINISTRATIVOS_LTDA", "ENDEE": "AVENIDA JOAQUIM JANUS PENTEADO, 325, SALA 01, ALTOS DE JORDANESIA, 07786-520, CAJAMAR, SP, BRASIL", "LMAPS": "https://www.google.com/maps?q=&layer=c&cbll=-23.337294,-46.8351691", "O_QUE_FAZER": "CARTEIRA - FAMPE", "ER_REGIAO_CIDADE_min": "Cajamar_Jordanésia_Jundiaí" }, "geometry": { "type": "Point", "coordinates": [ -46.8351691, -23.337294 ] } },
{ "type": "Feature", "properties": { "fid": 32460, "CNPJ": "05617050000136", "IDCIDADE": "CAJAMAR", "NOMEFANTASIA": "SONI_MODAS", "RAZAOSOCIAL": "SONILDA_DA_PENHA_XAVIER_LOJA", "ENDEE": "AVENIDA_VEREADOR_JOAQUIM_PEREIRA_BARBOSA113__JORDANESIA_07776-450", "LMAPS": "https://www.google.com/maps?q=&layer=c&cbll=-23.3342818,-46.8382968", "O_QUE_FAZER": "CARTEIRA", "ER_REGIAO_CIDADE_min": "Cajamar_Jordanésia_Jundiaí" }, "geometry": { "type": "Point", "coordinates": [ -46.8382968, -23.3342818 ] } },
{ "type": "Feature", "properties": { "fid": 33610, "CNPJ": "05788523000168", "IDCIDADE": "CAJAMAR", "NOMEFANTASIA": "LL_TINTAS", "RAZAOSOCIAL": "L._L._NARCISO", "ENDEE": "RUA_VEREADOR_JOAQUIM_SOARES_DE_ARAUJO94__JORDANESIA_07776-440", "LMAPS": "https://www.google.com/maps?q=&layer=c&cbll=-23.3347507,-46.8379426", "O_QUE_FAZER": "CARTEIRA", "ER_REGIAO_CIDADE_min": "Cajamar_Jordanésia_Jundiaí" }, "geometry": { "type": "Point", "coordinates": [ -46.8379426, -23.3347507 ] } },
{ "type": "Feature", "properties": { "fid": 38099, "CNPJ": "06645370000162", "IDCIDADE": "CAJAMAR", "NOMEFANTASIA": "RESTAURANTE_GALEGOS", "RAZAOSOCIAL": "IVANILDO_INACIO_DE_SOUSA", "ENDEE": "AVENIDA_DEOVAIR_CRUZ_DE_OLIVEIRA398__JORDANESIA_07776-435", "LMAPS": "https://www.google.com/maps?q=&layer=c&cbll=-23.3360871,-46.8400833", "O_QUE_FAZER": "CARTEIRA", "ER_REGIAO_CIDADE_min": "Cajamar_Jordanésia_Jundiaí" }, "geometry": { "type": "Point", "coordinates": [ -46.8400833, -23.3360871 ] } },
{ "type": "Feature", "properties": { "fid": 40397, "CNPJ": "07161112000173", "IDCIDADE": "CAJAMAR", "NOMEFANTASIA": null, "RAZAOSOCIAL": "ANDRE_LANDIVA_24650027837", "ENDEE": "RUA ANA MARIA TENORIO, 37, JORDANESIA, 07786-445, CAJAMAR, SP, BRASIL", "LMAPS": "https://www.google.com/maps?q=&layer=c&cbll=-23.3329218,-46.8299715", "O_QUE_FAZER": "CARTEIRA - FAMPE", "ER_REGIAO_CIDADE_min": "Cajamar_Jordanésia_Jundiaí" }, "geometry": { "type": "Point", "coordinates": [ -46.8299715, -23.3329218 ] } },
{ "type": "Feature", "properties": { "fid": 43055, "CNPJ": "07476571000146", "IDCIDADE": "CAJAMAR", "NOMEFANTASIA": "JORDAN_PARK_ESTACIONAMENTO", "RAZAOSOCIAL": "JORDAN_PARK_ESTACIONAMENTO_SERVICOS_DE_LAVAGEM_E_LUBRIFICACAO_LTDA", "ENDEE": "AVENIDA_VEREADOR_JOAQUIM_PEREIRA_BARBOSA238__JORDANESIA_07776-450", "LMAPS": "https://www.google.com/maps?q=&layer=c&cbll=-23.3344967,-46.8395133", "O_QUE_FAZER": "CARTEIRA", "ER_REGIAO_CIDADE_min": "Cajamar_Jordanésia_Jundiaí" }, "geometry": { "type": "Point", "coordinates": [ -46.8395133, -23.3344967 ] } },
{ "type": "Feature", "properties": { "fid": 47978, "CNPJ": "08091517000145", "IDCIDADE": "CAJAMAR", "NOMEFANTASIA": "SALGADOS_LIMA", "RAZAOSOCIAL": "LIMA_-_COMERCIO_DE_SALGADOS_LTDA", "ENDEE": "RUA_ANTONIO_DE_BARROS224__JORDANESIA_07786-880", "LMAPS": "https://www.google.com/maps?q=&layer=c&cbll=-23.335424,-46.8308874", "O_QUE_FAZER": "CARTEIRA", "ER_REGIAO_CIDADE_min": "Cajamar_Jordanésia_Jundiaí" }, "geometry": { "type": "Point", "coordinates": [ -46.8308874, -23.335424 ] } },
{ "type": "Feature", "properties": { "fid": 50906, "CNPJ": "08562029000179", "IDCIDADE": "CAJAMAR", "NOMEFANTASIA": "PET_TCHAU_TCHAU_CAO", "RAZAOSOCIAL": "EDUARDO_ANDRE_FERNANDES_VETERINARIA", "ENDEE": "RUA_VEREADOR_MARIO_MARCOLONGO194__JORDANESIA_07776-430", "LMAPS": "https://www.google.com/maps?q=&layer=c&cbll=-23.3354906,-46.8387392", "O_QUE_FAZER": "CARTEIRA", "ER_REGIAO_CIDADE_min": "Cajamar_Jordanésia_Jundiaí" }, "geometry": { "type": "Point", "coordinates": [ -46.8387392, -23.3354906 ] } },
{ "type": "Feature", "properties": { "fid": 51363, "CNPJ": "08640069000191", "IDCIDADE": "CAJAMAR", "NOMEFANTASIA": "REAL_FESTAS", "RAZAOSOCIAL": "BELIZIARIO_BALDO_COMERCIO_DE_ARTIGOS_PARA_FESTA_LTDA", "ENDEE": "RUA_VEREADOR_JOAQUIM_SOARES_DE_ARAUJO163__JORDANESIA_07776-440", "LMAPS": "https://www.google.com/maps?q=&layer=c&cbll=-23.3350106,-46.8385626", "O_QUE_FAZER": "CARTEIRA", "ER_REGIAO_CIDADE_min": "Cajamar_Jordanésia_Jundiaí" }, "geometry": { "type": "Point", "coordinates": [ -46.8385626, -23.3350106 ] } },
{ "type": "Feature", "properties": { "fid": 59579, "CNPJ": "09588298000177", "IDCIDADE": "CAJAMAR", "NOMEFANTASIA": "BOA_FORMA_ACADEMIA", "RAZAOSOCIAL": "ACADEMIA_MODELO_LTDA", "ENDEE": "AVENIDA_PEDRO_CELESTINO_LEITE_PENTEADO513__SANTA_TEREZINHA_07786-480", "LMAPS": "https://www.google.com/maps?q=&layer=c&cbll=-23.3335123,-46.8313418", "O_QUE_FAZER": "CARTEIRA", "ER_REGIAO_CIDADE_min": "Cajamar_Jordanésia_Jundiaí" }, "geometry": { "type": "Point", "coordinates": [ -46.8313418, -23.3335123 ] } },
{ "type": "Feature", "properties": { "fid": 64061, "CNPJ": "10577002000100", "IDCIDADE": "CAJAMAR", "NOMEFANTASIA": "WM_AUTO_PECAS", "RAZAOSOCIAL": "KCF_DE_OLIVEIRA_AUTO_PECAS", "ENDEE": "RUA_ANTONIO_DE_BARROS637__JORDANESIA_07786-880", "LMAPS": "https://www.google.com/maps?q=&layer=c&cbll=-23.3385829,-46.8290713", "O_QUE_FAZER": "CARTEIRA", "ER_REGIAO_CIDADE_min": "Cajamar_Jordanésia_Jundiaí" }, "geometry": { "type": "Point", "coordinates": [ -46.8290713, -23.3385829 ] } },
{ "type": "Feature", "properties": { "fid": 64674, "CNPJ": "10644402000182", "IDCIDADE": "CAJAMAR", "NOMEFANTASIA": "DALI_JOIAS", "RAZAOSOCIAL": "FABIANA_JOIAS_LTDA", "ENDEE": "RUA_VEREADOR_MARIO_MARCOLONGO84__JORDANESIA_07776-430", "LMAPS": "https://www.google.com/maps?q=&layer=c&cbll=-23.3351851,-46.837558", "O_QUE_FAZER": "CARTEIRA", "ER_REGIAO_CIDADE_min": "Cajamar_Jordanésia_Jundiaí" }, "geometry": { "type": "Point", "coordinates": [ -46.837558, -23.3351851 ] } },
{ "type": "Feature", "properties": { "fid": 65522, "CNPJ": "10729805000124", "IDCIDADE": "CAJAMAR", "NOMEFANTASIA": "NATASHA_PRESENTES", "RAZAOSOCIAL": "NATASHI_PRESENTES_COMERCIO_DE_UTILIDADES_LTDA", "ENDEE": "AVENIDA_VEREADOR_JOAQUIM_PEREIRA_BARBOSA217__JORDANESIA_07776-450", "LMAPS": "https://www.google.com/maps?q=&layer=c&cbll=-23.3345385,-46.8392906", "O_QUE_FAZER": "CARTEIRA", "ER_REGIAO_CIDADE_min": "Cajamar_Jordanésia_Jundiaí" }, "geometry": { "type": "Point", "coordinates": [ -46.8392906, -23.3345385 ] } },
{ "type": "Feature", "properties": { "fid": 67204, "CNPJ": "10902342000150", "IDCIDADE": "CAJAMAR", "NOMEFANTASIA": "JOIA_BRASIL", "RAZAOSOCIAL": "CONSTRUTORA_JOIA_BRASIL_LTDA", "ENDEE": "AVENIDA_DEOVAIR_CRUZ_DE_OLIVEIRA445__JORDANESIA_07776-435", "LMAPS": "https://www.google.com/maps?q=&layer=c&cbll=-23.3365468,-46.8398545", "O_QUE_FAZER": "CARTEIRA", "ER_REGIAO_CIDADE_min": "Cajamar_Jordanésia_Jundiaí" }, "geometry": { "type": "Point", "coordinates": [ -46.8398545, -23.3365468 ] } },
{ "type": "Feature", "properties": { "fid": 69469, "CNPJ": "11175088000107", "IDCIDADE": "CAJAMAR", "NOMEFANTASIA": "EVOLUTION_JORDANESIA", "RAZAOSOCIAL": "KELNEN_CRISTIANO_DA_SILVEIRA_JOSE", "ENDEE": "RUA_VEREADOR_MARIO_MARCOLONGO108__JORDANESIA_07776-430", "LMAPS": "https://www.google.com/maps?q=&layer=c&cbll=-23.3351722,-46.8380142", "O_QUE_FAZER": "CARTEIRA", "ER_REGIAO_CIDADE_min": "Cajamar_Jordanésia_Jundiaí" }, "geometry": { "type": "Point", "coordinates": [ -46.8380142, -23.3351722 ] } },
{ "type": "Feature", "properties": { "fid": 72175, "CNPJ": "11516899001198", "IDCIDADE": "CAJAMAR", "NOMEFANTASIA": "META_LABORATORIO", "RAZAOSOCIAL": "UNIDADE_DE_DIAGNOSTICOS_LABORATORIAIS_LTDA", "ENDEE": "RUA_VEREADOR_MARIO_MARCOLONGO144__JORDANESIA_07776-430", "LMAPS": "https://www.google.com/maps?q=&layer=c&cbll=-23.3352626,-46.8382824", "O_QUE_FAZER": "CARTEIRA", "ER_REGIAO_CIDADE_min": "Cajamar_Jordanésia_Jundiaí" }, "geometry": { "type": "Point", "coordinates": [ -46.8382824, -23.3352626 ] } },
{ "type": "Feature", "properties": { "fid": 72822, "CNPJ": "11628012000181", "IDCIDADE": "CAJAMAR", "NOMEFANTASIA": "DALCIN_CARNES", "RAZAOSOCIAL": "ACOUGUE_DAS_MENINAS_DALCIN_LTDA", "ENDEE": "AVENIDA_DOUTOR_JOSE_LUIS_LEME_MACIEL68__SANTA_TEREZINHA_07786-450", "LMAPS": "https://www.google.com/maps?q=&layer=c&cbll=-23.3335727,-46.8301767", "O_QUE_FAZER": "CARTEIRA", "ER_REGIAO_CIDADE_min": "Cajamar_Jordanésia_Jundiaí" }, "geometry": { "type": "Point", "coordinates": [ -46.8301767, -23.3335727 ] } },
{ "type": "Feature", "properties": { "fid": 73651, "CNPJ": "11757058000109", "IDCIDADE": "CAJAMAR", "NOMEFANTASIA": "MUNDIAL_BEBIDAS", "RAZAOSOCIAL": "A.G._POLI_COMERCIO_VAREJISTA_DE_BEBIDAS_LTDA", "ENDEE": "RUA_AVELINO_TOLEDO_DE_LIMA265__JORDANESIA_07776-455", "LMAPS": "https://www.google.com/maps?q=&layer=c&cbll=-23.3340083,-46.8399623", "O_QUE_FAZER": "CARTEIRA", "ER_REGIAO_CIDADE_min": "Cajamar_Jordanésia_Jundiaí" }, "geometry": { "type": "Point", "coordinates": [ -46.8399623, -23.3340083 ] } },
{ "type": "Feature", "properties": { "fid": 74320, "CNPJ": "11874728000169", "IDCIDADE": "CAJAMAR", "NOMEFANTASIA": "N&A_CALCADOS", "RAZAOSOCIAL": "SOUZA_&_SOUZA_COMERCIO_DE_CALCADOS_E_BOLSAS_LTDA", "ENDEE": "AVENIDA_VEREADOR_JOAQUIM_PEREIRA_BARBOSA251__JORDANESIA_07776-450", "LMAPS": "https://www.google.com/maps?q=&layer=c&cbll=-23.3347514,-46.8402072", "O_QUE_FAZER": "CARTEIRA", "ER_REGIAO_CIDADE_min": "Cajamar_Jordanésia_Jundiaí" }, "geometry": { "type": "Point", "coordinates": [ -46.8402072, -23.3347514 ] } },
{ "type": "Feature", "properties": { "fid": 76625, "CNPJ": "12301943000133", "IDCIDADE": "CAJAMAR", "NOMEFANTASIA": "HOSPEDARIA_JORDANESIA", "RAZAOSOCIAL": "VERA_JANE_DELAI_HOSPEDARIA", "ENDEE": "RUA_AVELINO_TOLEDO_DE_LIMA184__JORDANESIA_07776-455", "LMAPS": "https://www.google.com/maps?q=&layer=c&cbll=-23.3337939,-46.8391353", "O_QUE_FAZER": "CARTEIRA", "ER_REGIAO_CIDADE_min": "Cajamar_Jordanésia_Jundiaí" }, "geometry": { "type": "Point", "coordinates": [ -46.8391353, -23.3337939 ] } },
{ "type": "Feature", "properties": { "fid": 77000, "CNPJ": "12369165000114", "IDCIDADE": "JUNDIAI", "NOMEFANTASIA": "FIRE_FOX", "RAZAOSOCIAL": "M.F._SUPORTE_EM_INFORMATICA_LTDA", "ENDEE": "RUA_FLAVIO_MATIAZZO84__PARQUE_BRASILIA_13211-110", "LMAPS": "https://www.google.com/maps?q=&layer=c&cbll=-23.3219286,-46.8490415", "O_QUE_FAZER": "CARTEIRA", "ER_REGIAO_CIDADE_min": "Cajamar_Jordanésia_Jundiaí" }, "geometry": { "type": "Point", "coordinates": [ -46.8490415, -23.3219286 ] } },
{ "type": "Feature", "properties": { "fid": 79069, "CNPJ": "12744208000102", "IDCIDADE": "CAJAMAR", "NOMEFANTASIA": "-", "RAZAOSOCIAL": "12.744.208_LUIS_HENRIQUE_COSTA_XAVIER", "ENDEE": "RUA SAO ROQUE, 32, ALTOS DE JORDANESIA (JORDANESIA), 07786-840, CAJAMAR, SP, BRASIL", "LMAPS": "https://www.google.com/maps?q=&layer=c&cbll=-23.335823,-46.831131", "O_QUE_FAZER": "CARTEIRA - FAMPE", "ER_REGIAO_CIDADE_min": "Cajamar_Jordanésia_Jundiaí" }, "geometry": { "type": "Point", "coordinates": [ -46.831131, -23.335823 ] } },
{ "type": "Feature", "properties": { "fid": 79409, "CNPJ": "12821000000131", "IDCIDADE": "CAJAMAR", "NOMEFANTASIA": "CAJAFIRE", "RAZAOSOCIAL": "MAYRON_JUSTINO_DE_OLIVEIRA", "ENDEE": "RUA_DAS_CISALPINAS32__SAO_ROBERTO_07787-005", "LMAPS": "https://www.google.com/maps?q=&layer=c&cbll=-23.3336411,-46.8303014", "O_QUE_FAZER": "CARTEIRA", "ER_REGIAO_CIDADE_min": "Cajamar_Jordanésia_Jundiaí" }, "geometry": { "type": "Point", "coordinates": [ -46.8303014, -23.3336411 ] } },
{ "type": "Feature", "properties": { "fid": 80199, "CNPJ": "12989511000167", "IDCIDADE": "CAJAMAR", "NOMEFANTASIA": "MECANICA_LINO", "RAZAOSOCIAL": "RENATA_MARIA_DE_QUEIROZ_SIQUEIRA_MOTOS", "ENDEE": "RUA_AVELINO_TOLEDO_DE_LIMA163__JORDANESIA_07776-455", "LMAPS": "https://www.google.com/maps?q=&layer=c&cbll=-23.3337747,-46.8389831", "O_QUE_FAZER": "CARTEIRA", "ER_REGIAO_CIDADE_min": "Cajamar_Jordanésia_Jundiaí" }, "geometry": { "type": "Point", "coordinates": [ -46.8389831, -23.3337747 ] } },
{ "type": "Feature", "properties": { "fid": 82384, "CNPJ": "13401743000115", "IDCIDADE": "CAJAMAR", "NOMEFANTASIA": "D_VEICULOS", "RAZAOSOCIAL": "VILMAR_MARTINS_MACHADO_VEICULOS", "ENDEE": "AVENIDA_DEOVAIR_CRUZ_DE_OLIVEIRA408__JORDANESIA_07776-435", "LMAPS": "https://www.google.com/maps?q=&layer=c&cbll=-23.3363036,-46.8402946", "O_QUE_FAZER": "CARTEIRA", "ER_REGIAO_CIDADE_min": "Cajamar_Jordanésia_Jundiaí" }, "geometry": { "type": "Point", "coordinates": [ -46.8402946, -23.3363036 ] } },
{ "type": "Feature", "properties": { "fid": 83578, "CNPJ": "13605400000172", "IDCIDADE": "ESPIRITO_SANTO_DO_PINHAL", "NOMEFANTASIA": null, "RAZAOSOCIAL": "PRODUTORA_TOP_TV_ON_BRASIL_LTDA", "ENDEE": "AVENIDA_DOMINGO ALONSO LOPEZ_65_ALTOS DE JORDANÉSIA_07786-495_JUQUIRATIBA", "LMAPS": "https://www.google.com/maps?q=&layer=c&cbll=-23.3411544,-46.8337604", "O_QUE_FAZER": "FINALIZADO", "ER_REGIAO_CIDADE_min": "Cajamar_Jordanésia_Jundiaí" }, "geometry": { "type": "Point", "coordinates": [ -46.8337604, -23.3411544 ] } },
{ "type": "Feature", "properties": { "fid": 84371, "CNPJ": "13752713000153", "IDCIDADE": "CAJAMAR", "NOMEFANTASIA": "LOJA_199", "RAZAOSOCIAL": "KATHIANE_LUANA_PATACA_DA_SILVA", "ENDEE": "AVENIDA_VEREADOR_JOAQUIM_PEREIRA_BARBOSA299__JORDANESIA_07776-450", "LMAPS": "https://www.google.com/maps?q=&layer=c&cbll=-23.3346997,-46.8401614", "O_QUE_FAZER": "CARTEIRA", "ER_REGIAO_CIDADE_min": "Cajamar_Jordanésia_Jundiaí" }, "geometry": { "type": "Point", "coordinates": [ -46.8401614, -23.3346997 ] } },
{ "type": "Feature", "properties": { "fid": 91535, "CNPJ": "15237786000132", "IDCIDADE": "CAJAMAR", "NOMEFANTASIA": "JOVECAR", "RAZAOSOCIAL": "BRUNO_HENRIQUE_OLIVEIRA_AUTO-PECAS", "ENDEE": "RUA_ADAMANTINA40__ALTOS_DE_JORDANESIA_07786-795", "LMAPS": "https://www.google.com/maps?q=&layer=c&cbll=-23.3365367,-46.8326831", "O_QUE_FAZER": "CARTEIRA", "ER_REGIAO_CIDADE_min": "Cajamar_Jordanésia_Jundiaí" }, "geometry": { "type": "Point", "coordinates": [ -46.8326831, -23.3365367 ] } },
{ "type": "Feature", "properties": { "fid": 92169, "CNPJ": "15371193000164", "IDCIDADE": "Cajamar", "NOMEFANTASIA": "Mercadinho_Romildo", "RAZAOSOCIAL": "YASMIN_&_AUDILENE_MERCEARIA_LTDA", "ENDEE": "RUA JOSE MARQUES FERREIRA (PRQ S ROBERTO II), 204, SAO ROBERTO (JORDANESIA), 07787100, CAJAMAR, SP, BRASIL", "LMAPS": "https://www.google.com/maps?q=&layer=c&cbll=-23.3361778,-46.8249779", "O_QUE_FAZER": "CARTEIRA - FAMPE", "ER_REGIAO_CIDADE_min": "Cajamar_Jordanésia_Jundiaí" }, "geometry": { "type": "Point", "coordinates": [ -46.8249779, -23.3361778 ] } },
{ "type": "Feature", "properties": { "fid": 95466, "CNPJ": "16701457000163", "IDCIDADE": "CAJAMAR", "NOMEFANTASIA": "LOJAS_MIRIAM", "RAZAOSOCIAL": "JOSE_GERALDO_DE_SOUZA_SANTOS-ROUPAS", "ENDEE": "AVENIDA_VEREADOR_JOAQUIM_PEREIRA_BARBOSA183__JORDANESIA_07776-450", "LMAPS": "https://www.google.com/maps?q=&layer=c&cbll=-23.3340634,-46.8390801", "O_QUE_FAZER": "CARTEIRA", "ER_REGIAO_CIDADE_min": "Cajamar_Jordanésia_Jundiaí" }, "geometry": { "type": "Point", "coordinates": [ -46.8390801, -23.3340634 ] } },
{ "type": "Feature", "properties": { "fid": 96201, "CNPJ": "16858265000165", "IDCIDADE": "ELDORADO", "NOMEFANTASIA": "16.858.265_DALVA_COUTINHO_MARCOMINI", "RAZAOSOCIAL": "BAR_DA_DALVA", "ENDEE": "RUA_ELDORADO51__NOVA_ELDORADO_11960-000", "LMAPS": "https://www.google.com/maps?q=&layer=c&cbll=-23.3320643,-46.8306691", "O_QUE_FAZER": "FINALIZADO", "ER_REGIAO_CIDADE_min": "Cajamar_Jordanésia_Jundiaí" }, "geometry": { "type": "Point", "coordinates": [ -46.8306691, -23.3320643 ] } },
{ "type": "Feature", "properties": { "fid": 97852, "CNPJ": "17178471000197", "IDCIDADE": "CAJAMAR", "NOMEFANTASIA": "LOJA_M&F", "RAZAOSOCIAL": "LOJA_M&F_LTDA", "ENDEE": "AVENIDA_VEREADOR_JOAQUIM_PEREIRA_BARBOSA234__JORDANESIA_07776-450", "LMAPS": "https://www.google.com/maps?q=&layer=c&cbll=-23.3346834,-46.8401638", "O_QUE_FAZER": "CARTEIRA", "ER_REGIAO_CIDADE_min": "Cajamar_Jordanésia_Jundiaí" }, "geometry": { "type": "Point", "coordinates": [ -46.8401638, -23.3346834 ] } },
{ "type": "Feature", "properties": { "fid": 107434, "CNPJ": "19154682000115", "IDCIDADE": "CAJAMAR", "NOMEFANTASIA": "NEW_SORRISO", "RAZAOSOCIAL": "CLINICA_DENTARIA_NEW_SORRISO_LTDA", "ENDEE": "AVENIDA_VEREADOR_JOAQUIM_PEREIRA_BARBOSA244__JORDANESIA_07776-450", "LMAPS": "https://www.google.com/maps?q=&layer=c&cbll=-23.3346549,-46.8403147", "O_QUE_FAZER": "CARTEIRA", "ER_REGIAO_CIDADE_min": "Cajamar_Jordanésia_Jundiaí" }, "geometry": { "type": "Point", "coordinates": [ -46.8403147, -23.3346549 ] } },
{ "type": "Feature", "properties": { "fid": 112169, "CNPJ": "20237473000114", "IDCIDADE": "CAJAMAR", "NOMEFANTASIA": "WILSON_MORAES_AUTO_PECAS", "RAZAOSOCIAL": "WILSON_MORAES_AUTO_PECAS", "ENDEE": "RUA_ANTONIO_DE_BARROS637__ALTOS_DE_JORDANESIA_07786-740", "LMAPS": "https://www.google.com/maps?q=&layer=c&cbll=-23.3385939,-46.8289354", "O_QUE_FAZER": "FINALIZADO", "ER_REGIAO_CIDADE_min": "Cajamar_Jordanésia_Jundiaí" }, "geometry": { "type": "Point", "coordinates": [ -46.8289354, -23.3385939 ] } },
{ "type": "Feature", "properties": { "fid": 112490, "CNPJ": "20302248000114", "IDCIDADE": "CAJAMAR", "NOMEFANTASIA": "FISHER_E_LIMA", "RAZAOSOCIAL": "FISCHER_E_LIMA_COMERCIO_DE_PECAS_E_SERVICOS_AUTOMOTIVOS_LTDA", "ENDEE": "RUA_AVELINO_TOLEDO_DE_LIMA104__JORDANESIA_07776-455", "LMAPS": "https://www.google.com/maps?q=&layer=c&cbll=-23.3333283,-46.8384582", "O_QUE_FAZER": "CARTEIRA", "ER_REGIAO_CIDADE_min": "Cajamar_Jordanésia_Jundiaí" }, "geometry": { "type": "Point", "coordinates": [ -46.8384582, -23.3333283 ] } },
{ "type": "Feature", "properties": { "fid": 112546, "CNPJ": "20314466000179", "IDCIDADE": "CAJAMAR", "NOMEFANTASIA": "ZISA_EXCLUSIVE", "RAZAOSOCIAL": "ZISA_PET_COMERCIO_E_DISTRIBUICAO_LTDA", "ENDEE": "AVENIDA_DOMINGO_ALONSO_LOPEZ242__ALTOS_DE_JORDANESIA_07786-495", "LMAPS": "https://www.google.com/maps?q=&layer=c&cbll=-23.3350419,-46.8344281", "O_QUE_FAZER": "CARTEIRA", "ER_REGIAO_CIDADE_min": "Cajamar_Jordanésia_Jundiaí" }, "geometry": { "type": "Point", "coordinates": [ -46.8344281, -23.3350419 ] } },
{ "type": "Feature", "properties": { "fid": 113530, "CNPJ": "20514495000184", "IDCIDADE": "CAJAMAR", "NOMEFANTASIA": "BEM_FARMA_LOJA_1", "RAZAOSOCIAL": "BARAO_-_COMERCIO_DE_PRODUTOS_FARMACEUTICOS_LTDA", "ENDEE": "AVENIDA_DOMINGO_ALONSO_LOPEZ107__ALTOS_DE_JORDANESIA_07786-495", "LMAPS": "https://www.google.com/maps?q=&layer=c&cbll=-23.334896,-46.8358595", "O_QUE_FAZER": "CARTEIRA", "ER_REGIAO_CIDADE_min": "Cajamar_Jordanésia_Jundiaí" }, "geometry": { "type": "Point", "coordinates": [ -46.8358595, -23.334896 ] } },
{ "type": "Feature", "properties": { "fid": 116162, "CNPJ": "21146465000125", "IDCIDADE": "CAJAMAR", "NOMEFANTASIA": "VISTORIA_CAJAMAR", "RAZAOSOCIAL": "AUTO_VISAO_CAJAMAR_VISTORIAS_EM_AUTOMOVEIS_LTDA", "ENDEE": "RUA_VEREADOR_JOAQUIM_SOARES_DE_ARAUJO267__JORDANESIA_07776-440", "LMAPS": "https://www.google.com/maps?q=&layer=c&cbll=-23.3353204,-46.8398306", "O_QUE_FAZER": "CARTEIRA", "ER_REGIAO_CIDADE_min": "Cajamar_Jordanésia_Jundiaí" }, "geometry": { "type": "Point", "coordinates": [ -46.8398306, -23.3353204 ] } },
{ "type": "Feature", "properties": { "fid": 120002, "CNPJ": "21989495000101", "IDCIDADE": "CAJAMAR", "NOMEFANTASIA": "SEVEN_MODAS", "RAZAOSOCIAL": "GILMARIO_CAMPELO_VITORIANO", "ENDEE": "AVENIDA_JORDANO_MENDES372__JORDANESIA_07776-015", "LMAPS": "https://www.google.com/maps?q=&layer=c&cbll=-23.3347685,-46.8378579", "O_QUE_FAZER": "CARTEIRA - FAMPE", "ER_REGIAO_CIDADE_min": "Cajamar_Jordanésia_Jundiaí" }, "geometry": { "type": "Point", "coordinates": [ -46.8378579, -23.3347685 ] } },
{ "type": "Feature", "properties": { "fid": 124319, "CNPJ": "22895628000135", "IDCIDADE": "CAJAMAR", "NOMEFANTASIA": "AGV_MOTOS_PECAS", "RAZAOSOCIAL": "ALEXSANDRA_SOUZA_DA_SILVA_MOTOS", "ENDEE": "RUA_VEREADOR_JOAQUIM_SOARES_DE_ARAUJO301__JORDANESIA_07776-440", "LMAPS": "https://www.google.com/maps?q=&layer=c&cbll=-23.3354855,-46.8400963", "O_QUE_FAZER": "CARTEIRA", "ER_REGIAO_CIDADE_min": "Cajamar_Jordanésia_Jundiaí" }, "geometry": { "type": "Point", "coordinates": [ -46.8400963, -23.3354855 ] } },
{ "type": "Feature", "properties": { "fid": 124908, "CNPJ": "23019586000131", "IDCIDADE": "CAJAMAR", "NOMEFANTASIA": "ESFIHA_JORDANESIA", "RAZAOSOCIAL": "SIDNEI_ADRIANO_DE_FARIAS_LANCHONETE", "ENDEE": "AVENIDA_VEREADOR_JOAQUIM_PEREIRA_BARBOSA237__JORDANESIA_07776-450", "LMAPS": "https://www.google.com/maps?q=&layer=c&cbll=-23.33454,-46.8396497", "O_QUE_FAZER": "CARTEIRA", "ER_REGIAO_CIDADE_min": "Cajamar_Jordanésia_Jundiaí" }, "geometry": { "type": "Point", "coordinates": [ -46.8396497, -23.33454 ] } },
{ "type": "Feature", "properties": { "fid": 128304, "CNPJ": "23744910000184", "IDCIDADE": "CAJAMAR", "NOMEFANTASIA": null, "RAZAOSOCIAL": "ESTILO_&_SABOR_COMERCIO_LTDA", "ENDEE": "RUA VEREADOR JOSE MENDES (COND PENTEADO), 183, JORDANESIA (JORDANESIA), 07776-460, CAJAMAR, SP, BRASIL", "LMAPS": "https://www.google.com/maps?q=&layer=c&cbll=-23.3333679,-46.8402877", "O_QUE_FAZER": "CARTEIRA - FAMPE", "ER_REGIAO_CIDADE_min": "Cajamar_Jordanésia_Jundiaí" }, "geometry": { "type": "Point", "coordinates": [ -46.8402877, -23.3333679 ] } },
{ "type": "Feature", "properties": { "fid": 132307, "CNPJ": "24554139000145", "IDCIDADE": "CAJAMAR", "NOMEFANTASIA": "ANA_FIORE_PERFUMARIA", "RAZAOSOCIAL": "ANA_ROBERTA_COSTA", "ENDEE": "AVENIDA_VEREADOR_JOAQUIM_PEREIRA_BARBOSA215__JORDANESIA_07776-450", "LMAPS": "https://www.google.com/maps?q=&layer=c&cbll=-23.3346848,-46.8392978", "O_QUE_FAZER": "CARTEIRA", "ER_REGIAO_CIDADE_min": "Cajamar_Jordanésia_Jundiaí" }, "geometry": { "type": "Point", "coordinates": [ -46.8392978, -23.3346848 ] } },
{ "type": "Feature", "properties": { "fid": 134022, "CNPJ": "24905397000129", "IDCIDADE": "CAJAMAR", "NOMEFANTASIA": "ATUEXPRESS", "RAZAOSOCIAL": "ATUEX_EXPRESS_-_LOGISTICA,_TRANSPORTE,_DISTRIBUICAO_E_COMERCIO_LTDA", "ENDEE": "AVENIDA VEREADOR JOAQUIM PEREIRA BARBOSA (COND PENTEADO), 800, SALA 03, JORDANESIA (JORDANESIA), 07776-450, CAJAMAR, SP, BRASIL", "LMAPS": "https://www.google.com/maps?q=&layer=c&cbll=-23.3351305,-46.8419637", "O_QUE_FAZER": "CARTEIRA - FAMPE", "ER_REGIAO_CIDADE_min": "Cajamar_Jordanésia_Jundiaí" }, "geometry": { "type": "Point", "coordinates": [ -46.8419637, -23.3351305 ] } },
{ "type": "Feature", "properties": { "fid": 134438, "CNPJ": "24981160000127", "IDCIDADE": "CAJAMAR", "NOMEFANTASIA": "CONSULTORIO_DRA._MARINA_MARQUES", "RAZAOSOCIAL": "MA_MARQUES_CONSULTORIO_ODONTOLOGICO_E_ORTODONTIA", "ENDEE": "AVENIDA_DEOVAIR_CRUZ_DE_OLIVEIRA322__JORDANESIA_07776-435", "LMAPS": "https://www.google.com/maps?q=&layer=c&cbll=-23.3354223,-46.8403479", "O_QUE_FAZER": "CARTEIRA", "ER_REGIAO_CIDADE_min": "Cajamar_Jordanésia_Jundiaí" }, "geometry": { "type": "Point", "coordinates": [ -46.8403479, -23.3354223 ] } },
{ "type": "Feature", "properties": { "fid": 136349, "CNPJ": "25348759000190", "IDCIDADE": "ESPIRITO_SANTO_DO_PINHAL", "NOMEFANTASIA": null, "RAZAOSOCIAL": "TELMO_ALEXANDRE_DE_ARAUJO_BARROS", "ENDEE": "AVENIDA_DOMINGO ALONSO LOPEZ_65_ALTOS DE JORDANÉSIA_07786-495_JUQUIRATIBA", "LMAPS": "https://www.google.com/maps?q=&layer=c&cbll=-23.3411544,-46.8337604", "O_QUE_FAZER": "FINALIZADO", "ER_REGIAO_CIDADE_min": "Cajamar_Jordanésia_Jundiaí" }, "geometry": { "type": "Point", "coordinates": [ -46.8337604, -23.3411544 ] } },
{ "type": "Feature", "properties": { "fid": 139225, "CNPJ": "26430832000131", "IDCIDADE": "CAJAMAR", "NOMEFANTASIA": "MERCADINHO_SAO_ROBERTO", "RAZAOSOCIAL": "MERCADINHO_SAO_ROBERTO_CAJAMAR_LTDA", "ENDEE": "RUA_DAS_CISALPINAS56__SAO_ROBERTO_07787-005", "LMAPS": "https://www.google.com/maps?q=&layer=c&cbll=-23.3338901,-46.8303149", "O_QUE_FAZER": "CARTEIRA", "ER_REGIAO_CIDADE_min": "Cajamar_Jordanésia_Jundiaí" }, "geometry": { "type": "Point", "coordinates": [ -46.8303149, -23.3338901 ] } },
{ "type": "Feature", "properties": { "fid": 139796, "CNPJ": "26545326000198", "IDCIDADE": "CAJAMAR", "NOMEFANTASIA": "GFAC_NEGOCIOS", "RAZAOSOCIAL": "GISELI_FERRAZ_ANEZIO_DE_CAMPOS_SERVICOS_LTDA", "ENDEE": "AVENIDA_VEREADOR_JOAQUIM_PEREIRA_BARBOSA93__JORDANESIA_07776-450", "LMAPS": "https://www.google.com/maps?q=&layer=c&cbll=-23.3342378,-46.8381383", "O_QUE_FAZER": "CARTEIRA", "ER_REGIAO_CIDADE_min": "Cajamar_Jordanésia_Jundiaí" }, "geometry": { "type": "Point", "coordinates": [ -46.8381383, -23.3342378 ] } },
{ "type": "Feature", "properties": { "fid": 154008, "CNPJ": "29232747000157", "IDCIDADE": "CAJAMAR", "NOMEFANTASIA": "EKOMINDS", "RAZAOSOCIAL": "EKOMINDS_MONTAGENS_DE_MAQUINAS_E_EQUIPAMENTOS_LTDA", "ENDEE": "RUA_PEDRO_BINATTO45__JORDANESIA_07776-470", "LMAPS": "https://www.google.com/maps?q=&layer=c&cbll=-23.332269,-46.8387553", "O_QUE_FAZER": "CARTEIRA", "ER_REGIAO_CIDADE_min": "Cajamar_Jordanésia_Jundiaí" }, "geometry": { "type": "Point", "coordinates": [ -46.8387553, -23.332269 ] } },
{ "type": "Feature", "properties": { "fid": 157461, "CNPJ": "29946671000121", "IDCIDADE": "CAJAMAR", "NOMEFANTASIA": "PSICMED", "RAZAOSOCIAL": "CLINICA_PSICOLOGICA_E_MEDICA_PSICMED_DE_CAJAMAR_LTDA", "ENDEE": "RUA_MANUEL_ANTONIO_GOMES266__JORDANESIA_07776-410", "LMAPS": "https://www.google.com/maps?q=&layer=c&cbll=-23.3374734,-46.839128", "O_QUE_FAZER": "CARTEIRA", "ER_REGIAO_CIDADE_min": "Cajamar_Jordanésia_Jundiaí" }, "geometry": { "type": "Point", "coordinates": [ -46.839128, -23.3374734 ] } },
{ "type": "Feature", "properties": { "fid": 158654, "CNPJ": "30168527000190", "IDCIDADE": "CAJAMAR", "NOMEFANTASIA": "MOLECA_BRINQUEDOS", "RAZAOSOCIAL": "MONICA_FERREIRA_DA_ROCHA_NUNES_TRIBUNA", "ENDEE": "AVENIDA_VEREADOR_JOAQUIM_PEREIRA_BARBOSA126__JORDANESIA_07776-450", "LMAPS": "https://www.google.com/maps?q=&layer=c&cbll=-23.3342664,-46.8383543", "O_QUE_FAZER": "CARTEIRA", "ER_REGIAO_CIDADE_min": "Cajamar_Jordanésia_Jundiaí" }, "geometry": { "type": "Point", "coordinates": [ -46.8383543, -23.3342664 ] } },
{ "type": "Feature", "properties": { "fid": 169355, "CNPJ": "32278005000177", "IDCIDADE": "CAJAMAR", "NOMEFANTASIA": "SANZTEC_INDUSTRIAL_ELETRONICA", "RAZAOSOCIAL": "ANTONIO_MARCOS_DE_ARAUJO", "ENDEE": "AVENIDA BRAUNA (PRQ RES JORDANESIA), 77, COLINA MARIA LUIZA (JORDANESIA), 07787-320, CAJAMAR, SP, BRASIL", "LMAPS": "https://www.google.com/maps?q=&layer=c&cbll=-23.3438669,-46.8251861", "O_QUE_FAZER": "CARTEIRA - FAMPE", "ER_REGIAO_CIDADE_min": "Cajamar_Jordanésia_Jundiaí" }, "geometry": { "type": "Point", "coordinates": [ -46.8251861, -23.3438669 ] } },
{ "type": "Feature", "properties": { "fid": 170165, "CNPJ": "32479041000107", "IDCIDADE": "CAJAMAR", "NOMEFANTASIA": "DM_PROTECAO", "RAZAOSOCIAL": "DM_PROTECAO_COMERCIO_DE_EPI_E_SOLUCOES_EM_SEGURANCA_DO_TRABALHO_LTDA", "ENDEE": "RUA_PREFEITO_ANTONIO_GARRIDO133__JORDANESIA_07776-425", "LMAPS": "https://www.google.com/maps?q=&layer=c&cbll=-23.3361022,-46.8379977", "O_QUE_FAZER": "CARTEIRA", "ER_REGIAO_CIDADE_min": "Cajamar_Jordanésia_Jundiaí" }, "geometry": { "type": "Point", "coordinates": [ -46.8379977, -23.3361022 ] } },
{ "type": "Feature", "properties": { "fid": 173933, "CNPJ": "33226338000115", "IDCIDADE": "CAJAMAR", "NOMEFANTASIA": "POWER_LIVE_ACADEMIA", "RAZAOSOCIAL": "RIBEIRO_&_VIEIRA_ACADEMIA_LTDA", "ENDEE": "AVENIDA_JORDANO_MENDES736__JORDANESIA_07776-015", "LMAPS": "https://www.google.com/maps?q=&layer=c&cbll=-23.3381358,-46.8374025", "O_QUE_FAZER": "CARTEIRA", "ER_REGIAO_CIDADE_min": "Cajamar_Jordanésia_Jundiaí" }, "geometry": { "type": "Point", "coordinates": [ -46.8374025, -23.3381358 ] } },
{ "type": "Feature", "properties": { "fid": 174887, "CNPJ": "33417160000190", "IDCIDADE": "CAJAMAR", "NOMEFANTASIA": "GRAND_SORRISOS", "RAZAOSOCIAL": "GRANSORRISO_ODONTOLOGIA_LTDA", "ENDEE": "AVENIDA_DEOVAIR_CRUZ_DE_OLIVEIRA418__JORDANESIA_07776-435", "LMAPS": "https://www.google.com/maps?q=&layer=c&cbll=-23.3363031,-46.8400128", "O_QUE_FAZER": "CARTEIRA", "ER_REGIAO_CIDADE_min": "Cajamar_Jordanésia_Jundiaí" }, "geometry": { "type": "Point", "coordinates": [ -46.8400128, -23.3363031 ] } },
{ "type": "Feature", "properties": { "fid": 177727, "CNPJ": "33941751000161", "IDCIDADE": "CAJAMAR", "NOMEFANTASIA": "FIBRA_NETWORK", "RAZAOSOCIAL": "MARIA_IVANILDA_DANTAS_MODESTO", "ENDEE": "RUA_DAS_QUARESMEIRAS75__PARQUE_SAO_ROBERTO_II_07787-010", "LMAPS": "https://www.google.com/maps?q=&layer=c&cbll=-23.3355841,-46.8289259", "O_QUE_FAZER": "CARTEIRA", "ER_REGIAO_CIDADE_min": "Cajamar_Jordanésia_Jundiaí" }, "geometry": { "type": "Point", "coordinates": [ -46.8289259, -23.3355841 ] } },
{ "type": "Feature", "properties": { "fid": 182114, "CNPJ": "34803108000134", "IDCIDADE": "CAJAMAR", "NOMEFANTASIA": "CEARA_BATERIAS", "RAZAOSOCIAL": "RBB_COMERCIO_DE_BATERIAS_LTDA", "ENDEE": "AVENIDA_JORDANO_MENDES310__JORDANESIA_07776-015", "LMAPS": "https://www.google.com/maps?q=&layer=c&cbll=-23.3338052,-46.837622", "O_QUE_FAZER": "CARTEIRA", "ER_REGIAO_CIDADE_min": "Cajamar_Jordanésia_Jundiaí" }, "geometry": { "type": "Point", "coordinates": [ -46.837622, -23.3338052 ] } },
{ "type": "Feature", "properties": { "fid": 183340, "CNPJ": "35044400000183", "IDCIDADE": "CAJAMAR", "NOMEFANTASIA": "CHURRASCARIA_DO_LUIZ", "RAZAOSOCIAL": "RESTAURANTE,_CHURRASCARIA_SILVA_&_TEIXEIRA_LTDA", "ENDEE": "AVENIDA_DEOVAIR_CRUZ_DE_OLIVEIRA199__JORDANESIA_07776-435", "LMAPS": "https://www.google.com/maps?q=&layer=c&cbll=-23.3343191,-46.8405097", "O_QUE_FAZER": "CARTEIRA", "ER_REGIAO_CIDADE_min": "Cajamar_Jordanésia_Jundiaí" }, "geometry": { "type": "Point", "coordinates": [ -46.8405097, -23.3343191 ] } },
{ "type": "Feature", "properties": { "fid": 187908, "CNPJ": "36063308000123", "IDCIDADE": "CAJAMAR", "NOMEFANTASIA": "SRA_GARCONS", "RAZAOSOCIAL": "SRA_GARCONS_RESTAURANTE_E_EVENTOS_LTDA", "ENDEE": "AVENIDA DEOVAIR CRUZ DE OLIVEIRA, 95, JORDANESIA (JORDANESIA), 07776-435, CAJAMAR, SP, BRASIL", "LMAPS": "https://www.google.com/maps?q=&layer=c&cbll=-23.3333437,-46.84076", "O_QUE_FAZER": "CARTEIRA - FAMPE", "ER_REGIAO_CIDADE_min": "Cajamar_Jordanésia_Jundiaí" }, "geometry": { "type": "Point", "coordinates": [ -46.84076, -23.3333437 ] } },
{ "type": "Feature", "properties": { "fid": 189642, "CNPJ": "36429393000109", "IDCIDADE": "CAJAMAR", "NOMEFANTASIA": "ODONTO_CLINIC", "RAZAOSOCIAL": "CAJAMAR_ODONTOLOGIA_AVANCADA_LTDA", "ENDEE": "RUA_AVELINO_TOLEDO_DE_LIMA174__JORDANESIA_07776-455", "LMAPS": "https://www.google.com/maps?q=&layer=c&cbll=-23.3337156,-46.8390739", "O_QUE_FAZER": "CARTEIRA", "ER_REGIAO_CIDADE_min": "Cajamar_Jordanésia_Jundiaí" }, "geometry": { "type": "Point", "coordinates": [ -46.8390739, -23.3337156 ] } },
{ "type": "Feature", "properties": { "fid": 200060, "CNPJ": "39033972000118", "IDCIDADE": "CAJAMAR", "NOMEFANTASIA": "PEROLA_INDUSTRIA_E_COMERCIO", "RAZAOSOCIAL": "PEROLA_INDUSTRIA_E_COMERCIO_LTDA", "ENDEE": "AVENIDA_ARNALDO_ROJEK317__ALTOS_DE_JORDANESIA_07786-525", "LMAPS": "https://www.google.com/maps?q=&layer=c&cbll=-23.3372931,-46.8355124", "O_QUE_FAZER": "CARTEIRA", "ER_REGIAO_CIDADE_min": "Cajamar_Jordanésia_Jundiaí" }, "geometry": { "type": "Point", "coordinates": [ -46.8355124, -23.3372931 ] } },
{ "type": "Feature", "properties": { "fid": 205728, "CNPJ": "40468777000108", "IDCIDADE": "CAJAMAR", "NOMEFANTASIA": "-", "RAZAOSOCIAL": "40.468.777_DARIO_CLAUDIO_COSTA_NOVO_SOBRINHO", "ENDEE": "RUA MARIA MUNHOZ MISSE (JD S JOAO), 152, ALTOS DE JORDANESIA (JORDANESIA), 07786-565, CAJAMAR, SP, BRASIL", "LMAPS": "https://www.google.com/maps?q=&layer=c&cbll=-23.339301,-46.8340954", "O_QUE_FAZER": "CARTEIRA - FAMPE", "ER_REGIAO_CIDADE_min": "Cajamar_Jordanésia_Jundiaí" }, "geometry": { "type": "Point", "coordinates": [ -46.8340954, -23.339301 ] } },
{ "type": "Feature", "properties": { "fid": 207107, "CNPJ": "40838858000144", "IDCIDADE": "CAJAMAR", "NOMEFANTASIA": "AGRITICO", "RAZAOSOCIAL": "MAGALI_SILVA_DE_ALMEIDA_ROSA", "ENDEE": "AVENIDA_DEOVAIR_CRUZ_DE_OLIVEIRA441__JORDANESIA_07776-435", "LMAPS": "https://www.google.com/maps?q=&layer=c&cbll=-23.3372979,-46.839686", "O_QUE_FAZER": "CARTEIRA", "ER_REGIAO_CIDADE_min": "Cajamar_Jordanésia_Jundiaí" }, "geometry": { "type": "Point", "coordinates": [ -46.839686, -23.3372979 ] } },
{ "type": "Feature", "properties": { "fid": 209456, "CNPJ": "41457497000159", "IDCIDADE": "CAJAMAR", "NOMEFANTASIA": "MD_PLASTIC_MANUTENCAO_E_INSTALACAO", "RAZAOSOCIAL": "MD_PLASTIC_MANUTENCAO_E_INSTALACAO_LTDA", "ENDEE": "AVENIDA DOUTOR JOSE LUIS LEME MACIEL, 236, SAO ROBERTO (JORDANESIA), 07787000, CAJAMAR, SP, BRASIL", "LMAPS": "https://www.google.com/maps?q=&layer=c&cbll=-23.333453,-46.8280741", "O_QUE_FAZER": "CARTEIRA - FAMPE", "ER_REGIAO_CIDADE_min": "Cajamar_Jordanésia_Jundiaí" }, "geometry": { "type": "Point", "coordinates": [ -46.8280741, -23.333453 ] } },
{ "type": "Feature", "properties": { "fid": 213943, "CNPJ": "42479849000130", "IDCIDADE": "CAJAMAR", "NOMEFANTASIA": "SOUL_SUSHI", "RAZAOSOCIAL": "B._A._P._DA_SILVA_SUSHI_LTDA", "ENDEE": "RUA_POMPEIA12__ALTOS_DE_JORDANESIA_07786-575", "LMAPS": "https://www.google.com/maps?q=&layer=c&cbll=-23.3378571,-46.8344787", "O_QUE_FAZER": "CARTEIRA", "ER_REGIAO_CIDADE_min": "Cajamar_Jordanésia_Jundiaí" }, "geometry": { "type": "Point", "coordinates": [ -46.8344787, -23.3378571 ] } },
{ "type": "Feature", "properties": { "fid": 215771, "CNPJ": "42906947000106", "IDCIDADE": "CAJAMAR", "NOMEFANTASIA": "RR_AUTO_CENTER", "RAZAOSOCIAL": "RUBENS_LOPES_DOS_REIS_JUNIOR", "ENDEE": "RUA_RUBENS_BARBOSA124__JORDANESIA_07776-390", "LMAPS": "https://www.google.com/maps?q=&layer=c&cbll=-23.3383237,-46.8378682", "O_QUE_FAZER": "CARTEIRA", "ER_REGIAO_CIDADE_min": "Cajamar_Jordanésia_Jundiaí" }, "geometry": { "type": "Point", "coordinates": [ -46.8378682, -23.3383237 ] } },
{ "type": "Feature", "properties": { "fid": 217665, "CNPJ": "43282570000124", "IDCIDADE": "CAJAMAR", "NOMEFANTASIA": "EMPORIUM_DA_VILLA", "RAZAOSOCIAL": "VALEN_JORDANESIA_-_COMERCIO_DE_ROUPAS_E_CALCADOS_LTDA", "ENDEE": "AVENIDA_VEREADOR_JOAQUIM_PEREIRA_BARBOSA261__JORDANESIA_07776-450", "LMAPS": "https://www.google.com/maps?q=&layer=c&cbll=-23.3347948,-46.8402234", "O_QUE_FAZER": "CARTEIRA", "ER_REGIAO_CIDADE_min": "Cajamar_Jordanésia_Jundiaí" }, "geometry": { "type": "Point", "coordinates": [ -46.8402234, -23.3347948 ] } },
{ "type": "Feature", "properties": { "fid": 218427, "CNPJ": "43437762000162", "IDCIDADE": "CAJAMAR", "NOMEFANTASIA": "MAFERCRED", "RAZAOSOCIAL": "MAFERCRED_INTERMEDIACAO_DE_EMPRESTIMOS_LTDA", "ENDEE": "AVENIDA_VEREADOR_JOAQUIM_PEREIRA_BARBOSA93__JORDANESIA_07776-450", "LMAPS": "https://www.google.com/maps?q=&layer=c&cbll=-23.3342028,-46.8381729", "O_QUE_FAZER": "CARTEIRA", "ER_REGIAO_CIDADE_min": "Cajamar_Jordanésia_Jundiaí" }, "geometry": { "type": "Point", "coordinates": [ -46.8381729, -23.3342028 ] } },
{ "type": "Feature", "properties": { "fid": 220499, "CNPJ": "43861182000106", "IDCIDADE": "CAJAMAR", "NOMEFANTASIA": "43.861.182_NATHAN_QUADRATTI_GUERRA", "RAZAOSOCIAL": "L&Z_SOCCER_STORE", "ENDEE": "RUA_JAU506__ALTOS_DE_JORDANESIA_(JORDANESIA)_07786-555", "LMAPS": "https://www.google.com/maps?q=&layer=c&cbll=-23.3389291,-46.835823", "O_QUE_FAZER": "FINALIZADO", "ER_REGIAO_CIDADE_min": "Cajamar_Jordanésia_Jundiaí" }, "geometry": { "type": "Point", "coordinates": [ -46.835823, -23.3389291 ] } },
{ "type": "Feature", "properties": { "fid": 221541, "CNPJ": "44068660000180", "IDCIDADE": "CAJAMAR", "NOMEFANTASIA": "VITRINE_KIDS", "RAZAOSOCIAL": "LOJAS_VITRINE_KIDS_COMERCIO_DE_ROUPAS_E_ACESSORIOS_LTDA", "ENDEE": "RUA_VEREADOR_MARIO_MARCOLONGO124__JORDANESIA_07776-430", "LMAPS": "https://www.google.com/maps?q=&layer=c&cbll=-23.3353577,-46.8379963", "O_QUE_FAZER": "CARTEIRA", "ER_REGIAO_CIDADE_min": "Cajamar_Jordanésia_Jundiaí" }, "geometry": { "type": "Point", "coordinates": [ -46.8379963, -23.3353577 ] } },
{ "type": "Feature", "properties": { "fid": 234253, "CNPJ": "46729590000199", "IDCIDADE": "CAJAMAR", "NOMEFANTASIA": "CEARA_GELADEIRAS", "RAZAOSOCIAL": "CEARA_COMERCIO_E_MANUTENCAO_DE_GELADEIRAS_LTDA", "ENDEE": "AVENIDA_DOUTOR_JOSE_LUIS_LEME_MACIEL229__SANTA_TEREZINHA_07786-450", "LMAPS": "https://www.google.com/maps?q=&layer=c&cbll=-23.3333012,-46.8284044", "O_QUE_FAZER": "CARTEIRA", "ER_REGIAO_CIDADE_min": "Cajamar_Jordanésia_Jundiaí" }, "geometry": { "type": "Point", "coordinates": [ -46.8284044, -23.3333012 ] } },
{ "type": "Feature", "properties": { "fid": 241802, "CNPJ": "48285645000144", "IDCIDADE": "CAJAMAR", "NOMEFANTASIA": "BARTH_FACILITIES_LTDA", "RAZAOSOCIAL": "BARTI_FACILITE_", "ENDEE": "AVENIDA_ITAJOBI592__SAO_ROBERTO_07787-115", "LMAPS": "https://www.google.com/maps?q=&layer=c&cbll=-23.3370048,-46.8269806", "O_QUE_FAZER": "FINALIZADO", "ER_REGIAO_CIDADE_min": "Cajamar_Jordanésia_Jundiaí" }, "geometry": { "type": "Point", "coordinates": [ -46.8269806, -23.3370048 ] } },
{ "type": "Feature", "properties": { "fid": 244548, "CNPJ": "48826141000194", "IDCIDADE": "CAJAMAR", "NOMEFANTASIA": "GENERAL_DO_OLEO", "RAZAOSOCIAL": "CASA_DO_OLEO_E_LUBRIFICANTES_CAJAMAR_LTDA", "ENDEE": "RUA_MANUEL_ANTONIO_GOMES195__JORDANESIA_07776-410", "LMAPS": "https://www.google.com/maps?q=&layer=c&cbll=-23.3373719,-46.8382858", "O_QUE_FAZER": "CARTEIRA", "ER_REGIAO_CIDADE_min": "Cajamar_Jordanésia_Jundiaí" }, "geometry": { "type": "Point", "coordinates": [ -46.8382858, -23.3373719 ] } },
{ "type": "Feature", "properties": { "fid": 245511, "CNPJ": "49061877000181", "IDCIDADE": "CAJAMAR", "NOMEFANTASIA": "MILLE_MODAS", "RAZAOSOCIAL": "MILLE_MODAS_STORE_LTDA", "ENDEE": "RUA_VEREADOR_MARIO_MARCOLONGO124__JORDANESIA_07776-430", "LMAPS": "https://www.google.com/maps?q=&layer=c&cbll=-23.3352435,-46.8380785", "O_QUE_FAZER": "CARTEIRA", "ER_REGIAO_CIDADE_min": "Cajamar_Jordanésia_Jundiaí" }, "geometry": { "type": "Point", "coordinates": [ -46.8380785, -23.3352435 ] } },
{ "type": "Feature", "properties": { "fid": 246401, "CNPJ": "49268195000144", "IDCIDADE": "CAJAMAR", "NOMEFANTASIA": "FELIX_CONSTRUTORA", "RAZAOSOCIAL": "PAULO_FELIX_CONSTRUTORA_LTDA", "ENDEE": "RUA RUBENS BARBOSA, 124, JORDANESIA (JORDANESIA), 07776-390, CAJAMAR, SP, BRASIL", "LMAPS": "https://www.google.com/maps?q=&layer=c&cbll=-23.3383184,-46.8378434", "O_QUE_FAZER": "CARTEIRA - FAMPE", "ER_REGIAO_CIDADE_min": "Cajamar_Jordanésia_Jundiaí" }, "geometry": { "type": "Point", "coordinates": [ -46.8378434, -23.3383184 ] } },
{ "type": "Feature", "properties": { "fid": 247934, "CNPJ": "49603440000122", "IDCIDADE": "CAJAMAR", "NOMEFANTASIA": "3VS_PRINTER", "RAZAOSOCIAL": "3VS_PRINTER_LTDA", "ENDEE": "RUA_VEREADOR_MARIO_MARCOLONGO93__JORDANESIA_07776-430", "LMAPS": "https://www.google.com/maps?q=&layer=c&cbll=-23.3353275,-46.8377086", "O_QUE_FAZER": "CARTEIRA", "ER_REGIAO_CIDADE_min": "Cajamar_Jordanésia_Jundiaí" }, "geometry": { "type": "Point", "coordinates": [ -46.8377086, -23.3353275 ] } },
{ "type": "Feature", "properties": { "fid": 249983, "CNPJ": "49997675000146", "IDCIDADE": "CAJAMAR", "NOMEFANTASIA": "DM_LOCADORA", "RAZAOSOCIAL": "DM_LOCADORA_DE_EQUIPAMENTOS_PARA_CONSTRUCAO_CIVIL_LTDA", "ENDEE": "RUA_PREFEITO_ANTONIO_GARRIDO133__JORDANESIA_07776-425", "LMAPS": "https://www.google.com/maps?q=&layer=c&cbll=-23.3361383,-46.8377681", "O_QUE_FAZER": "CARTEIRA", "ER_REGIAO_CIDADE_min": "Cajamar_Jordanésia_Jundiaí" }, "geometry": { "type": "Point", "coordinates": [ -46.8377681, -23.3361383 ] } },
{ "type": "Feature", "properties": { "fid": 250581, "CNPJ": "50107563000151", "IDCIDADE": "CAJAMAR", "NOMEFANTASIA": "ARAKEN", "RAZAOSOCIAL": "ARAKEN_COMPRA_E_VENDA_DE_CAMINHOES_&_CIA_LTDA", "ENDEE": "AVENIDA_ARNALDO_ROJEK132__ALTOS_DE_JORDANESIA_07786-525", "LMAPS": "https://www.google.com/maps?q=&layer=c&cbll=-23.3367305,-46.835796", "O_QUE_FAZER": "CARTEIRA", "ER_REGIAO_CIDADE_min": "Cajamar_Jordanésia_Jundiaí" }, "geometry": { "type": "Point", "coordinates": [ -46.835796, -23.3367305 ] } },
{ "type": "Feature", "properties": { "fid": 253991, "CNPJ": "50793031000115", "IDCIDADE": "CAJAMAR", "NOMEFANTASIA": "PADARIA_PAO_DOURADO", "RAZAOSOCIAL": "RESTAURANTE_E_PADARIA_PAO_DOURADO_LTDA", "ENDEE": "AVENIDA_VEREADOR_JOAQUIM_PEREIRA_BARBOSA207__JORDANESIA_07776-450", "LMAPS": "https://www.google.com/maps?q=&layer=c&cbll=-23.3346019,-46.839152", "O_QUE_FAZER": "CARTEIRA", "ER_REGIAO_CIDADE_min": "Cajamar_Jordanésia_Jundiaí" }, "geometry": { "type": "Point", "coordinates": [ -46.839152, -23.3346019 ] } },
{ "type": "Feature", "properties": { "fid": 254430, "CNPJ": "50887206000153", "IDCIDADE": "CAJAMAR", "NOMEFANTASIA": "MARQUES_LOG_TRANSPORTES", "RAZAOSOCIAL": "MARQUES_LOG_TRANSPORTES_LTDA", "ENDEE": "RUA DOMINGO ALONSO LOPEZ, 65, ANDAR 1 SALA C 03, ALTOS DE JORDANESIA, 07786-495, CAJAMAR, SP, BRASIL", "LMAPS": "https://www.google.com/maps?q=&layer=c&cbll=-23.334898,-46.8360916", "O_QUE_FAZER": "CARTEIRA - FAMPE", "ER_REGIAO_CIDADE_min": "Cajamar_Jordanésia_Jundiaí" }, "geometry": { "type": "Point", "coordinates": [ -46.8360916, -23.334898 ] } },
{ "type": "Feature", "properties": { "fid": 257932, "CNPJ": "51571847000167", "IDCIDADE": "CAJAMAR", "NOMEFANTASIA": "HUXLEY_CARNEIRO_DA_SILVA", "RAZAOSOCIAL": "51.571.847_HUXLEY_CARNEIRO_DA_SILVA", "ENDEE": "RUA ARACARIGUAMA, 136, COLINA MARIA LUIZA, 07787-490, CAJAMAR, SP, BRASIL", "LMAPS": "https://www.google.com/maps?q=&layer=c&cbll=-23.3448906,-46.8290901", "O_QUE_FAZER": "FINALIZADO", "ER_REGIAO_CIDADE_min": "Cajamar_Jordanésia_Jundiaí" }, "geometry": { "type": "Point", "coordinates": [ -46.8290901, -23.3448906 ] } },
{ "type": "Feature", "properties": { "fid": 258987, "CNPJ": "51796111000197", "IDCIDADE": "CAJAMAR", "NOMEFANTASIA": "OTICA_VIVI", "RAZAOSOCIAL": "OTICA_VIVI_LTDA", "ENDEE": "AVENIDA_VEREADOR_JOAQUIM_PEREIRA_BARBOSA128__JORDANESIA_07776-450", "LMAPS": "https://www.google.com/maps?q=&layer=c&cbll=-23.3342918,-46.8382995", "O_QUE_FAZER": "CARTEIRA", "ER_REGIAO_CIDADE_min": "Cajamar_Jordanésia_Jundiaí" }, "geometry": { "type": "Point", "coordinates": [ -46.8382995, -23.3342918 ] } },
{ "type": "Feature", "properties": { "fid": 259439, "CNPJ": "51880564000105", "IDCIDADE": "ESPIRITO_SANTO_DO_PINHAL", "NOMEFANTASIA": "-", "RAZAOSOCIAL": "51.880.564_DANILO_CARLOS_SILVA_DE_SOUZA", "ENDEE": "RUA_DAS SIBIPIRUNAS_157_SÃO ROBERTO_07787-015_JUQUIRATIBA", "LMAPS": "https://www.google.com/maps?q=&layer=c&cbll=-23.3364441,-46.8285457", "O_QUE_FAZER": "FINALIZADO", "ER_REGIAO_CIDADE_min": "Cajamar_Jordanésia_Jundiaí" }, "geometry": { "type": "Point", "coordinates": [ -46.8285457, -23.3364441 ] } },
{ "type": "Feature", "properties": { "fid": 262183, "CNPJ": "52440730000107", "IDCIDADE": "CAJAMAR", "NOMEFANTASIA": "CASA_DE_BOLOS_CAJAMAR", "RAZAOSOCIAL": "JORDANESIA_BOLOS_CASEIROS_LTDA", "ENDEE": "AVENIDA_VEREADOR_JOAQUIM_PEREIRA_BARBOSA93__JORDANESIA_07776-450", "LMAPS": "https://www.google.com/maps?q=&layer=c&cbll=-23.3342381,-46.8381051", "O_QUE_FAZER": "CARTEIRA", "ER_REGIAO_CIDADE_min": "Cajamar_Jordanésia_Jundiaí" }, "geometry": { "type": "Point", "coordinates": [ -46.8381051, -23.3342381 ] } },
{ "type": "Feature", "properties": { "fid": 262240, "CNPJ": "52451812000157", "IDCIDADE": "CAJAMAR", "NOMEFANTASIA": "JS_TINTAS", "RAZAOSOCIAL": "COMERCIAL_JOSE_SILVA_LTDA", "ENDEE": "RUA_VEREADOR_MARIO_MARCOLONGO152__JORDANESIA_07776-430", "LMAPS": "https://www.google.com/maps?q=&layer=c&cbll=-23.3353418,-46.8385002", "O_QUE_FAZER": "CARTEIRA", "ER_REGIAO_CIDADE_min": "Cajamar_Jordanésia_Jundiaí" }, "geometry": { "type": "Point", "coordinates": [ -46.8385002, -23.3353418 ] } },
{ "type": "Feature", "properties": { "fid": 262566, "CNPJ": "52507010000111", "IDCIDADE": "CAJAMAR", "NOMEFANTASIA": null, "RAZAOSOCIAL": "ARENA_SHOW_RESTAURANTE_LTDA", "ENDEE": "RUA DR. JOSE LUIZ LEME MACIEL, 223, GALPAO249, SAO ROBERTO, 07787-000, CAJAMAR, SP, BRASIL", "LMAPS": "https://www.google.com/maps?q=&layer=c&cbll=-23.3330975,-46.8285486", "O_QUE_FAZER": "CARTEIRA - FAMPE", "ER_REGIAO_CIDADE_min": "Cajamar_Jordanésia_Jundiaí" }, "geometry": { "type": "Point", "coordinates": [ -46.8285486, -23.3330975 ] } },
{ "type": "Feature", "properties": { "fid": 262772, "CNPJ": "52552631000117", "IDCIDADE": "CAJAMAR", "NOMEFANTASIA": "-", "RAZAOSOCIAL": "52.552.631_JESSICA_CAROLINE_DE_ANDRADE_SILVA", "ENDEE": "RUA ELIANA RAMIRES DE LIMA, 138, CASA VILA DAS AMERICAS, JORDANESIA (JORDANESIA), 07776-220, CAJAMAR, SP, BRASIL", "LMAPS": "https://www.google.com/maps?q=&layer=c&cbll=-23.3397575,-46.8420312", "O_QUE_FAZER": "CARTEIRA - FAMPE", "ER_REGIAO_CIDADE_min": "Cajamar_Jordanésia_Jundiaí" }, "geometry": { "type": "Point", "coordinates": [ -46.8420312, -23.3397575 ] } },
{ "type": "Feature", "properties": { "fid": 263226, "CNPJ": "52647499000127", "IDCIDADE": "CAJAMAR", "NOMEFANTASIA": "ND-CAR_AUTO_PECAS", "RAZAOSOCIAL": "ND-CAR_AUTO_PECAS_LTDA", "ENDEE": "AVENIDA_PEDRO_CELESTINO_LEITE_PENTEADO244__SANTA_TEREZINHA_07786-480", "LMAPS": "https://www.google.com/maps?q=&layer=c&cbll=-23.3339159,-46.8341508", "O_QUE_FAZER": "CARTEIRA", "ER_REGIAO_CIDADE_min": "Cajamar_Jordanésia_Jundiaí" }, "geometry": { "type": "Point", "coordinates": [ -46.8341508, -23.3339159 ] } },
{ "type": "Feature", "properties": { "fid": 263990, "CNPJ": "52805838000156", "IDCIDADE": "CAJAMAR", "NOMEFANTASIA": "MERCADAO_DOS_OCULOS", "RAZAOSOCIAL": "BELEMAR_OTICA_LTDA", "ENDEE": "RUA_VEREADOR_MARIO_MARCOLONGO134__JORDANESIA_07776-430", "LMAPS": "https://www.google.com/maps?q=&layer=c&cbll=-23.3353388,-46.8382604", "O_QUE_FAZER": "CARTEIRA", "ER_REGIAO_CIDADE_min": "Cajamar_Jordanésia_Jundiaí" }, "geometry": { "type": "Point", "coordinates": [ -46.8382604, -23.3353388 ] } },
{ "type": "Feature", "properties": { "fid": 265396, "CNPJ": "53122164000158", "IDCIDADE": "CAJAMAR", "NOMEFANTASIA": "JORDAN_AUTO_PECAS", "RAZAOSOCIAL": "JORDANCAR_AUTO_PECAS_LTDA", "ENDEE": "RUA_VEREADOR_JOAQUIM_SOARES_DE_ARAUJO298__JORDANESIA_07776-440", "LMAPS": "https://www.google.com/maps?q=&layer=c&cbll=-23.3352918,-46.8398474", "O_QUE_FAZER": "CARTEIRA", "ER_REGIAO_CIDADE_min": "Cajamar_Jordanésia_Jundiaí" }, "geometry": { "type": "Point", "coordinates": [ -46.8398474, -23.3352918 ] } },
{ "type": "Feature", "properties": { "fid": 266979, "CNPJ": "53498687000101", "IDCIDADE": "CAJAMAR", "NOMEFANTASIA": "-", "RAZAOSOCIAL": "53.498.687_JOAO_VICTOR_PIRES_RODRIGUES", "ENDEE": "RUA VEREADOR REINALDO LEAL DE SOUSA, 1140, GALPAO, ROSEIRA (JORDANESIA), 07784-500, CAJAMAR, SP, BRASIL", "LMAPS": "https://www.google.com/maps?q=&layer=c&cbll=-23.3131864,-46.8272799", "O_QUE_FAZER": "CARTEIRA - FAMPE", "ER_REGIAO_CIDADE_min": "Cajamar_Jordanésia_Jundiaí" }, "geometry": { "type": "Point", "coordinates": [ -46.8272799, -23.3131864 ] } },
{ "type": "Feature", "properties": { "fid": 267707, "CNPJ": "53670088000115", "IDCIDADE": "CAJAMAR", "NOMEFANTASIA": "ADEGA_ALTAS_HORAS", "RAZAOSOCIAL": "ADEGA_E_NARGUILARIA_ALTAS_HORAS_LTDA", "ENDEE": "RUA_DAS_CISALPINAS106__SAO_ROBERTO_07787-005", "LMAPS": "https://www.google.com/maps?q=&layer=c&cbll=-23.3343608,-46.8301393", "O_QUE_FAZER": "CARTEIRA", "ER_REGIAO_CIDADE_min": "Cajamar_Jordanésia_Jundiaí" }, "geometry": { "type": "Point", "coordinates": [ -46.8301393, -23.3343608 ] } },
{ "type": "Feature", "properties": { "fid": 267944, "CNPJ": "53730923000165", "IDCIDADE": "CAJAMAR", "NOMEFANTASIA": "IMPERIO_DO_REAL", "RAZAOSOCIAL": "J._G._G._S._UTILIDADES_LTDA", "ENDEE": "AVENIDA_VEREADOR_JOAQUIM_PEREIRA_BARBOSA257__JORDANESIA_07776-450", "LMAPS": "https://www.google.com/maps?q=&layer=c&cbll=-23.3344736,-46.8397413", "O_QUE_FAZER": "CARTEIRA", "ER_REGIAO_CIDADE_min": "Cajamar_Jordanésia_Jundiaí" }, "geometry": { "type": "Point", "coordinates": [ -46.8397413, -23.3344736 ] } },
{ "type": "Feature", "properties": { "fid": 273776, "CNPJ": "55008114000170", "IDCIDADE": "CAJAMAR", "NOMEFANTASIA": "KEN_FARMA", "RAZAOSOCIAL": "KEN-FARMA_DROGARIA_LTDA", "ENDEE": "AVENIDA_VEREADOR_JOAQUIM_PEREIRA_BARBOSA483__JORDANESIA_07776-450", "LMAPS": "https://www.google.com/maps?q=&layer=c&cbll=-23.33516,-46.8418283", "O_QUE_FAZER": "CARTEIRA", "ER_REGIAO_CIDADE_min": "Cajamar_Jordanésia_Jundiaí" }, "geometry": { "type": "Point", "coordinates": [ -46.8418283, -23.33516 ] } },
{ "type": "Feature", "properties": { "fid": 277205, "CNPJ": "55817559000109", "IDCIDADE": "CAJAMAR", "NOMEFANTASIA": "OPTICALIA", "RAZAOSOCIAL": "ARIANE_FONTOLAN_LTDA", "ENDEE": "AVENIDA_VEREADOR_JOAQUIM_PEREIRA_BARBOSA227__JORDANESIA_07776-450", "LMAPS": "https://www.google.com/maps?q=&layer=c&cbll=-23.3346573,-46.8393214", "O_QUE_FAZER": "CARTEIRA", "ER_REGIAO_CIDADE_min": "Cajamar_Jordanésia_Jundiaí" }, "geometry": { "type": "Point", "coordinates": [ -46.8393214, -23.3346573 ] } },
{ "type": "Feature", "properties": { "fid": 288144, "CNPJ": "59339435000108", "IDCIDADE": "CAJAMAR", "NOMEFANTASIA": null, "RAZAOSOCIAL": "59.339.435_LUIZ_CARLOS_DE_LIMA", "ENDEE": "RUA PREFEITO ANTONIO GARRIDO, 237, JORDANESIA (JORDANESIA), 07776-425, CAJAMAR, SP, BRASIL", "LMAPS": "https://www.google.com/maps?q=&layer=c&cbll=-23.3363326,-46.8389474", "O_QUE_FAZER": "CARTEIRA - FAMPE", "ER_REGIAO_CIDADE_min": "Cajamar_Jordanésia_Jundiaí" }, "geometry": { "type": "Point", "coordinates": [ -46.8389474, -23.3363326 ] } },
{ "type": "Feature", "properties": { "fid": 290513, "CNPJ": "60083918000173", "IDCIDADE": "CAJAMAR", "NOMEFANTASIA": null, "RAZAOSOCIAL": "60.083.918_GILTENBERGUE_MARQUES_DOS_SANTOS", "ENDEE": "RUA ABILIO BUENO DA SILVA, 14, EMPRESARIAL PAOLETTI (JORDANESIA), 07785-030, CAJAMAR, SP, BRASIL", "LMAPS": "https://www.google.com/maps?q=&layer=c&cbll=-23.3146276,-46.8542288", "O_QUE_FAZER": "CARTEIRA - FAMPE", "ER_REGIAO_CIDADE_min": "Cajamar_Jordanésia_Jundiaí" }, "geometry": { "type": "Point", "coordinates": [ -46.8542288, -23.3146276 ] } },
{ "type": "Feature", "properties": { "fid": 291946, "CNPJ": "60596692000104", "IDCIDADE": "CAJAMAR", "NOMEFANTASIA": "JT_Marketing_e_Administracao_LTDA", "RAZAOSOCIAL": "J&T_MARKETING_E_ADMINISTRACAO_LTDA", "ENDEE": "RUA_TRES21__CENTRO_07750-791", "LMAPS": "https://www.google.com/maps?q=&layer=c&cbll=-23.3405697,-46.84022", "O_QUE_FAZER": "FINALIZADO", "ER_REGIAO_CIDADE_min": "Cajamar_Jordanésia_Jundiaí" }, "geometry": { "type": "Point", "coordinates": [ -46.84022, -23.3405697 ] } },
{ "type": "Feature", "properties": { "fid": 293589, "CNPJ": "61159075000104", "IDCIDADE": "CAJAMAR", "NOMEFANTASIA": "LOJA_AURORA", "RAZAOSOCIAL": "LOJA_AURORA_LTDA", "ENDEE": "RUA_ADAMANTINA102__ALTOS_DE_JORDANESIA_07786-795", "LMAPS": "https://www.google.com/maps?q=&layer=c&cbll=-23.3365751,-46.832072", "O_QUE_FAZER": "CARTEIRA", "ER_REGIAO_CIDADE_min": "Cajamar_Jordanésia_Jundiaí" }, "geometry": { "type": "Point", "coordinates": [ -46.832072, -23.3365751 ] } },
{ "type": "Feature", "properties": { "fid": 295022, "CNPJ": "61702643000171", "IDCIDADE": "CAJAMAR", "NOMEFANTASIA": "CFC_POLCAR", "RAZAOSOCIAL": "CENTRO_DE_FORMACAO_DE_CONDUTORES_B_POLCAR_LTDA", "ENDEE": "RUA_MANUEL_ANTONIO_GOMES266__JORDANESIA_07776-410", "LMAPS": "https://www.google.com/maps?q=&layer=c&cbll=-23.3373738,-46.8390782", "O_QUE_FAZER": "CARTEIRA", "ER_REGIAO_CIDADE_min": "Cajamar_Jordanésia_Jundiaí" }, "geometry": { "type": "Point", "coordinates": [ -46.8390782, -23.3373738 ] } },
{ "type": "Feature", "properties": { "fid": 302262, "CNPJ": "65531491000142", "IDCIDADE": "CAJAMAR", "NOMEFANTASIA": "JR_DIESEL_TECH", "RAZAOSOCIAL": "JR_DIESEL_TECH_MANUTENCAO_DE_VEICULOS_AUTOMOTORES_LTDA", "ENDEE": "RUA DR. ANTONIO LEME NUNES GALVAO, 60, GALPAO1, JORDANESIA (JORDANESIA), 07776-230, CAJAMAR, SP, BRASIL", "LMAPS": "https://www.google.com/maps?q=&layer=c&cbll=-23.3399238,-46.8427823", "O_QUE_FAZER": "CARTEIRA - FAMPE", "ER_REGIAO_CIDADE_min": "Cajamar_Jordanésia_Jundiaí" }, "geometry": { "type": "Point", "coordinates": [ -46.8427823, -23.3399238 ] } },
{ "type": "Feature", "properties": { "fid": 306601, "CNPJ": "67648700000168", "IDCIDADE": "CAJAMAR", "NOMEFANTASIA": null, "RAZAOSOCIAL": "67.648.700_LIGIA_OLIVEIRA_RODRIGUES_TOMAZ", "ENDEE": "RUA VICENTE PAULO DA COSTA, 165, ALTOS DE JORDANESIA (JORDANESIA), 07786-775, CAJAMAR, SP, BRASIL", "LMAPS": "https://www.google.com/maps?q=&layer=c&cbll=-23.3370628,-46.831326", "O_QUE_FAZER": "APLICAR T2", "ER_REGIAO_CIDADE_min": "Cajamar_Jordanésia_Jundiaí" }, "geometry": { "type": "Point", "coordinates": [ -46.831326, -23.3370628 ] } },
{ "type": "Feature", "properties": { "fid": 306894, "CNPJ": "67777775000149", "IDCIDADE": "CAJAMAR", "NOMEFANTASIA": "UNO_PIZZERIA", "RAZAOSOCIAL": "GC_FOOD_SERVICE_LTDA_LTDA", "ENDEE": "AVENIDA DEOVAIR CRUZ DE OLIVEIRA, 137, COND PENTEADO, JORDANESIA (JORDANESIA), 07776-435, CAJAMAR, SP, BRASIL", "LMAPS": "https://www.google.com/maps?q=&layer=c&cbll=-23.3337208,-46.8405209", "O_QUE_FAZER": "CARTEIRA - FAMPE", "ER_REGIAO_CIDADE_min": "Cajamar_Jordanésia_Jundiaí" }, "geometry": { "type": "Point", "coordinates": [ -46.8405209, -23.3337208 ] } },
{ "type": "Feature", "properties": { "fid": 308951, "CNPJ": "69216976000100", "IDCIDADE": "CAJAMAR", "NOMEFANTASIA": "DROGARIA_SAO_ROBERTO", "RAZAOSOCIAL": "SAMPAIO_SILVA_&_KONO_LTDA", "ENDEE": "AVENIDA_DOUTOR_JOSE_LUIS_LEME_MACIEL60__SANTA_TEREZINHA_07787-000", "LMAPS": "https://www.google.com/maps?q=&layer=c&cbll=-23.3335594,-46.8301654", "O_QUE_FAZER": "CARTEIRA", "ER_REGIAO_CIDADE_min": "Cajamar_Jordanésia_Jundiaí" }, "geometry": { "type": "Point", "coordinates": [ -46.8301654, -23.3335594 ] } },
{ "type": "Feature", "properties": { "fid": 312841, "CNPJ": "66972001000106", "IDCIDADE": "Cajamar", "NOMEFANTASIA": "COMERCIAL COSTA", "RAZAOSOCIAL": "COMERCIAL COSTA COMERCIO DE MATERIAL DE EMBALAGENS LTDA", "ENDEE": "RUA MARIO TREVIZAN (JD N JORDANESIA), 86, GALPAO01, JORDANESIA (JORDANESIA), 07776-380, CAJAMAR, SP, BRASIL", "LMAPS": "https://www.google.com/maps?q=&layer=c&cbll=-23.3388058,-46.8406054", "O_QUE_FAZER": "FINALIZADO", "ER_REGIAO_CIDADE_min": "Cajamar_Jordanésia_Jundiaí" }, "geometry": { "type": "Point", "coordinates": [ -46.8406054, -23.3388058 ] } }
]
}
