{
"type": "FeatureCollection",
"name": "ER_REGIAO_CIDADE_min_Morungaba_Campinas",
"crs": { "type": "name", "properties": { "name": "urn:ogc:def:crs:OGC:1.3:CRS84" } },
"xy_coordinate_resolution": 1e-15,
"features": [
{ "type": "Feature", "properties": { "CNPJ": "18348410000193", "IDCIDADE": "MORUNGABA", "NOMEFANTASIA": "ERICA_PERES_GEROTI", "RAZAOSOCIAL": "ATELIE_DAS_CAMISETAS", "ENDEE": "RUA_28_DE_MARCO73__SAO_BENEDITO_13260-000", "LATITUDE": "-22.8746809", "LONGITUDE": "-46.7937537", "LMAPS": "https://www.google.com/maps?q=&layer=c&cbll=-46.7937537,-22.8746809", "O_QUE_FAZER": "FINALIZADO", "field_10": null, "field_11": null, "field_12": null, "field_13": null, "ER_REGIAO_CIDADE_min": "Morungaba_Campinas" }, "geometry": { "type": "Point", "coordinates": [ -46.7937537, -22.8746809 ] } },
{ "type": "Feature", "properties": { "CNPJ": "19001154000126", "IDCIDADE": "MORUNGABA", "NOMEFANTASIA": "LUCILENE_A._DE_MORAIS", "RAZAOSOCIAL": "LUCILENE_A._DE_MORAIS", "ENDEE": "RUA_JOAO_ARANHA72__CENTRO_13260-000", "LATITUDE": "-22.8807159", "LONGITUDE": "-46.7930663", "LMAPS": "https://www.google.com/maps?q=&layer=c&cbll=-46.7930663,-22.8807159", "O_QUE_FAZER": "FINALIZADO", "field_10": null, "field_11": null, "field_12": null, "field_13": null, "ER_REGIAO_CIDADE_min": "Morungaba_Campinas" }, "geometry": { "type": "Point", "coordinates": [ -46.7930663, -22.8807159 ] } },
{ "type": "Feature", "properties": { "CNPJ": "58483654000101", "IDCIDADE": "MORUNGABA", "NOMEFANTASIA": "58.483.654_EDGAR_GOMES_DA_SILVA", "RAZAOSOCIAL": "EDGAR_GOMES_DA_SILVA", "ENDEE": "RUA_MANOEL_JOAQUIM_TEIXEIRA352__VILA_NOVA_13260-044", "LATITUDE": "-22.8755961", "LONGITUDE": "-46.7889952", "LMAPS": "https://www.google.com/maps?q=&layer=c&cbll=-46.7889952,-22.8755961", "O_QUE_FAZER": "FINALIZADO", "field_10": null, "field_11": null, "field_12": null, "field_13": null, "ER_REGIAO_CIDADE_min": "Morungaba_Campinas" }, "geometry": { "type": "Point", "coordinates": [ -46.7889952, -22.8755961 ] } },
{ "type": "Feature", "properties": { "CNPJ": "10299325000170", "IDCIDADE": "LIMEIRA", "NOMEFANTASIA": "GESSO_LAR", "RAZAOSOCIAL": "GESSO_LAR_ARTEFATOS_EM_GESSO_LTDA", "ENDEE": "PRACA_JOAO_PESSOA75__CENTRO_13480-788", "LATITUDE": "-22.880012", "LONGITUDE": "-46.792873", "LMAPS": "https://www.google.com/maps?q=&layer=c&cbll=-46.792873,-22.880012", "O_QUE_FAZER": "CARTEIRA", "field_10": null, "field_11": null, "field_12": null, "field_13": null, "ER_REGIAO_CIDADE_min": "Morungaba_Campinas" }, "geometry": { "type": "Point", "coordinates": [ -46.792873, -22.880012 ] } },
{ "type": "Feature", "properties": { "CNPJ": "57106726000120", "IDCIDADE": "MORUNGABA", "NOMEFANTASIA": null, "RAZAOSOCIAL": "JUMAE_ARTEFATOS_DE_CIMENTO_LTDA", "ENDEE": "RUA JOAQUIM SERAFIM, 1221, SAO BENEDITO, 13265-008, MORUNGABA, SP, BRASIL", "LATITUDE": "-22.8675306", "LONGITUDE": "-46.7914064", "LMAPS": "https://www.google.com/maps?q=&layer=c&cbll=-22.8675306,-46.7914064", "O_QUE_FAZER": "CARTEIRA - FAMPE", "field_10": null, "field_11": null, "field_12": null, "field_13": null, "ER_REGIAO_CIDADE_min": "Morungaba_Campinas" }, "geometry": { "type": "Point", "coordinates": [ -46.7914064, -22.8675306 ] } },
{ "type": "Feature", "properties": { "CNPJ": "20506710000103", "IDCIDADE": "MORUNGABA", "NOMEFANTASIA": "-", "RAZAOSOCIAL": "TAYANE_VANNUCCI_DIAS_26252485802", "ENDEE": "AVENIDA DR. RAMIRO GUIMARAES, 225, FUNDOS, CLUBE DE CAMPO, 13260-000, MORUNGABA, SP, BRASIL", "LATITUDE": "-22.8837391", "LONGITUDE": "-46.7866948", "LMAPS": "https://www.google.com/maps?q=&layer=c&cbll=-22.8837391,-46.7866948", "O_QUE_FAZER": "CARTEIRA - FAMPE", "field_10": null, "field_11": null, "field_12": null, "field_13": null, "ER_REGIAO_CIDADE_min": "Morungaba_Campinas" }, "geometry": { "type": "Point", "coordinates": [ -46.7866948, -22.8837391 ] } },
{ "type": "Feature", "properties": { "CNPJ": "67747927000160", "IDCIDADE": "MORUNGABA", "NOMEFANTASIA": "-", "RAZAOSOCIAL": "67.747.927_CAIQUE_OLIVEIRA", "ENDEE": "RUA DOM PEDRO I, 114, VILA NOVA, 13260-032, MORUNGABA, SP, BRASIL", "LATITUDE": "-22.8770321", "LONGITUDE": "-46.7900684", "LMAPS": "https://www.google.com/maps?q=&layer=c&cbll=-22.8770321,-46.7900684", "O_QUE_FAZER": "CARTEIRA - FAMPE", "field_10": null, "field_11": null, "field_12": null, "field_13": null, "ER_REGIAO_CIDADE_min": "Morungaba_Campinas" }, "geometry": { "type": "Point", "coordinates": [ -46.7900684, -22.8770321 ] } },
{ "type": "Feature", "properties": { "CNPJ": "12541044000108", "IDCIDADE": "MORUNGABA", "NOMEFANTASIA": "-", "RAZAOSOCIAL": "12.541.044_MARCOS_APARECIDO_DE_OLIVEIRA", "ENDEE": "RUA SEBASTIAO TITO, 137, VILA MARIANA, 13262-020, MORUNGABA, SP, BRASIL", "LATITUDE": "-22.8741655", "LONGITUDE": "-46.7880817", "LMAPS": "https://www.google.com/maps?q=&layer=c&cbll=-22.8741655,-46.7880817", "O_QUE_FAZER": "CARTEIRA - FAMPE", "field_10": null, "field_11": null, "field_12": null, "field_13": null, "ER_REGIAO_CIDADE_min": "Morungaba_Campinas" }, "geometry": { "type": "Point", "coordinates": [ -46.7880817, -22.8741655 ] } }
]
}
