{
"type": "FeatureCollection",
"name": "ER_REGIAO_CIDADE_min_Campo Limpo Paulista_Campo Limpo Paulista_Guarulhos",
"crs": { "type": "name", "properties": { "name": "urn:ogc:def:crs:OGC:1.3:CRS84" } },
"xy_coordinate_resolution": 1e-15,
"features": [
{ "type": "Feature", "properties": { "CNPJ": "49390172000108", "IDCIDADE": "CAMPO_LIMPO_PAULISTA", "NOMEFANTASIA": "PANIFICADORA_CENTRAL", "RAZAOSOCIAL": "PANIFICADORA_CENTRAL", "ENDEE": "FRANCISCO_MIGUEL_208_CENTRO_CAMPO_LIMPO_PAULISTA_13230-001", "LMAPS": "https://www.google.com/maps?q=&layer=c&cbll=-23.2070011,-46.7867887", "O_QUE_FAZER": "APLICAR T2", "ER_REGIAO_CIDADE_min": "Campo Limpo Paulista_Campo Limpo Paulista_Guarulhos" }, "geometry": { "type": "Point", "coordinates": [ -46.7867887, -23.2070011 ] } },
{ "type": "Feature", "properties": { "CNPJ": "34384069000188", "IDCIDADE": "CAMPO_LIMPO_PAULISTA", "NOMEFANTASIA": "ELETRICA_PRESTES", "RAZAOSOCIAL": "ELETRICA_PRESTES", "ENDEE": "FRANCISCO_MIGUEL_448_CENTRO_CAMPO_LIMPO_PAULISTA_13230-001", "LMAPS": "https://www.google.com/maps?q=&layer=c&cbll=-23.2080991,-46.7853079", "O_QUE_FAZER": "APLICAR T2", "ER_REGIAO_CIDADE_min": "Campo Limpo Paulista_Campo Limpo Paulista_Guarulhos" }, "geometry": { "type": "Point", "coordinates": [ -46.7853079, -23.2080991 ] } },
{ "type": "Feature", "properties": { "CNPJ": "52690329000125", "IDCIDADE": "CAMPO_LIMPO_PAULISTA", "NOMEFANTASIA": "SAVOYA_CAR", "RAZAOSOCIAL": "SAVOYA_CAR", "ENDEE": "FRANCISCO_MIGUEL_7463_CENTRO_CAMPO_LIMPO_PAULISTA_13230-001", "LMAPS": "https://www.google.com/maps?q=&layer=c&cbll=-23.206642,-46.7871237", "O_QUE_FAZER": "APLICAR T2", "ER_REGIAO_CIDADE_min": "Campo Limpo Paulista_Campo Limpo Paulista_Guarulhos" }, "geometry": { "type": "Point", "coordinates": [ -46.7871237, -23.206642 ] } },
{ "type": "Feature", "properties": { "CNPJ": "24064098000109", "IDCIDADE": "CAMPO_LIMPO_PAULISTA", "NOMEFANTASIA": "KEL_BOLOS", "RAZAOSOCIAL": "KEL_BOLOS", "ENDEE": "RUA_JOAO_BATISTA_ARSENIO_ROSSI_153_CENTRO_13230-010_CAMPO_LIMPO_PAULISTA_BRASIL_13230-005", "LMAPS": "https://www.google.com/maps?q=&layer=c&cbll=-23.2060861,-46.7894223", "O_QUE_FAZER": "APLICAR T2", "ER_REGIAO_CIDADE_min": "Campo Limpo Paulista_Campo Limpo Paulista_Guarulhos" }, "geometry": { "type": "Point", "coordinates": [ -46.7894223, -23.2060861 ] } },
{ "type": "Feature", "properties": { "CNPJ": "57606157000182", "IDCIDADE": "CAMPO_LIMPO_PAULISTA", "NOMEFANTASIA": "CAELIS", "RAZAOSOCIAL": "CAELIS", "ENDEE": "JOAO_BATISTA_ARSENIO_ROSSI_19_CENTRO_CAMPO_LIMPO_PAULISTA_13230-010", "LMAPS": "https://www.google.com/maps?q=&layer=c&cbll=-23.206675,-46.7893405", "O_QUE_FAZER": "APLICAR T2", "ER_REGIAO_CIDADE_min": "Campo Limpo Paulista_Campo Limpo Paulista_Guarulhos" }, "geometry": { "type": "Point", "coordinates": [ -46.7893405, -23.206675 ] } },
{ "type": "Feature", "properties": { "CNPJ": "48427224000100", "IDCIDADE": "CAMPO_LIMPO_PAULISTA", "NOMEFANTASIA": "STUDIO_RENOVAR", "RAZAOSOCIAL": "STUDIO_RENOVAR", "ENDEE": "JOAO_BATISTA_ARSENIO_ROSSI_78_CENTRO_CAMPO_LIMPO_PAULISTA_13230-010", "LMAPS": "https://www.google.com/maps?q=&layer=c&cbll=-23.2063844,-46.7890704", "O_QUE_FAZER": "APLICAR T2", "ER_REGIAO_CIDADE_min": "Campo Limpo Paulista_Campo Limpo Paulista_Guarulhos" }, "geometry": { "type": "Point", "coordinates": [ -46.7890704, -23.2063844 ] } },
{ "type": "Feature", "properties": { "CNPJ": "51197755000169", "IDCIDADE": "CAMPO_LIMPO_PAULISTA", "NOMEFANTASIA": "VANESSA_BARCELOS", "RAZAOSOCIAL": "VANESSA_BARCELOS", "ENDEE": "SETIMO_PATELLI_71_CENTRO_CAMPO_LIMPO_PAULISTA_13230-015", "LMAPS": "https://www.google.com/maps?q=&layer=c&cbll=-23.2066138,-46.7887257", "O_QUE_FAZER": "APLICAR T2", "ER_REGIAO_CIDADE_min": "Campo Limpo Paulista_Campo Limpo Paulista_Guarulhos" }, "geometry": { "type": "Point", "coordinates": [ -46.7887257, -23.2066138 ] } },
{ "type": "Feature", "properties": { "CNPJ": "45697674000125", "IDCIDADE": "CAMPO_LIMPO_PAULISTA", "NOMEFANTASIA": "JS", "RAZAOSOCIAL": "JS", "ENDEE": "SETIMO_PATELLI_84_CENTRO_CAMPO_LIMPO_PAULISTA_13230-015", "LMAPS": "https://www.google.com/maps?q=&layer=c&cbll=-23.20631,-46.7884491", "O_QUE_FAZER": "APLICAR T2", "ER_REGIAO_CIDADE_min": "Campo Limpo Paulista_Campo Limpo Paulista_Guarulhos" }, "geometry": { "type": "Point", "coordinates": [ -46.7884491, -23.20631 ] } },
{ "type": "Feature", "properties": { "CNPJ": "39977135000147", "IDCIDADE": "CAMPO_LIMPO_PAULISTA", "NOMEFANTASIA": "FLASH_INFORMATICA", "RAZAOSOCIAL": "FLASH_INFORMATICA", "ENDEE": "MARIA_MAIOLINO_DE_SOUZA_55_CENTRO_CAMPO_LIMPO_PAULISTA_13230-020", "LMAPS": "https://www.google.com/maps?q=&layer=c&cbll=-23.2067287,-46.7880324", "O_QUE_FAZER": "APLICAR T2", "ER_REGIAO_CIDADE_min": "Campo Limpo Paulista_Campo Limpo Paulista_Guarulhos" }, "geometry": { "type": "Point", "coordinates": [ -46.7880324, -23.2067287 ] } },
{ "type": "Feature", "properties": { "CNPJ": "30475506000118", "IDCIDADE": "CAMPO_LIMPO_PAULISTA", "NOMEFANTASIA": "ANA_MILA_ESMALTERIA", "RAZAOSOCIAL": "ANA_MILA_ESMALTERIA", "ENDEE": "MARIA_MAIOLINO_DE_SOUZA_65_CENTRO_CAMPO_LIMPO_PAULISTA_13230-020", "LMAPS": "https://www.google.com/maps?q=&layer=c&cbll=-23.206612,-46.7881283", "O_QUE_FAZER": "APLICAR T2", "ER_REGIAO_CIDADE_min": "Campo Limpo Paulista_Campo Limpo Paulista_Guarulhos" }, "geometry": { "type": "Point", "coordinates": [ -46.7881283, -23.206612 ] } },
{ "type": "Feature", "properties": { "CNPJ": "44210229000126", "IDCIDADE": "CAMPO_LIMPO_PAULISTA", "NOMEFANTASIA": "MARIDU_MUSIC", "RAZAOSOCIAL": "MARIDU_MUSIC", "ENDEE": "MARIA_MAIOLINO_DE_SOUZA_88_CENTRO_CAMPO_LIMPO_PAULISTA_13230-020", "LMAPS": "https://www.google.com/maps?q=&layer=c&cbll=-23.2063315,-46.7878025", "O_QUE_FAZER": "APLICAR T2", "ER_REGIAO_CIDADE_min": "Campo Limpo Paulista_Campo Limpo Paulista_Guarulhos" }, "geometry": { "type": "Point", "coordinates": [ -46.7878025, -23.2063315 ] } },
{ "type": "Feature", "properties": { "CNPJ": "10421587000166", "IDCIDADE": "CAMPO_LIMPO_PAULISTA", "NOMEFANTASIA": "PAPELARIA_PAPELANDIA", "RAZAOSOCIAL": "PAPELARIA_PAPELANDIA", "ENDEE": "RUA_MARIA_MAIOLINO_DE_SOUZA_110_CENTRO_13230-020_CAMPO_LIMPO_PAULISTA_BRASIL_13230-020", "LMAPS": "https://www.google.com/maps?q=&layer=c&cbll=-23.2071312,-46.7878307", "O_QUE_FAZER": "APLICAR T2", "ER_REGIAO_CIDADE_min": "Campo Limpo Paulista_Campo Limpo Paulista_Guarulhos" }, "geometry": { "type": "Point", "coordinates": [ -46.7878307, -23.2071312 ] } },
{ "type": "Feature", "properties": { "CNPJ": "54755861000109", "IDCIDADE": "CAMPO_LIMPO_PAULISTA", "NOMEFANTASIA": "OUTLET_DAS_CAMISAS", "RAZAOSOCIAL": "OUTLET_DAS_CAMISAS", "ENDEE": "HERMANN_69_CENTRO_CAMPO_LIMPO_PAULISTA_13230-025", "LMAPS": "https://www.google.com/maps?q=&layer=c&cbll=-23.2070687,-46.7875453", "O_QUE_FAZER": "APLICAR T2", "ER_REGIAO_CIDADE_min": "Campo Limpo Paulista_Campo Limpo Paulista_Guarulhos" }, "geometry": { "type": "Point", "coordinates": [ -46.7875453, -23.2070687 ] } },
{ "type": "Feature", "properties": { "CNPJ": "56898561000104", "IDCIDADE": "CAMPO_LIMPO_PAULISTA", "NOMEFANTASIA": "REUSE_MARIA_BRECHO", "RAZAOSOCIAL": "REUSE_MARIA_BRECHO", "ENDEE": "NOSSA_SENHORA_DO_ROSARIO_127_CENTRO_CAMPO_LIMPO_PAULISTA_13230-035", "LMAPS": "https://www.google.com/maps?q=&layer=c&cbll=-23.2075519,-46.7873295", "O_QUE_FAZER": "APLICAR T2", "ER_REGIAO_CIDADE_min": "Campo Limpo Paulista_Campo Limpo Paulista_Guarulhos" }, "geometry": { "type": "Point", "coordinates": [ -46.7873295, -23.2075519 ] } },
{ "type": "Feature", "properties": { "CNPJ": "41214498000172", "IDCIDADE": "CAMPO_LIMPO_PAULISTA", "NOMEFANTASIA": "Q_HORIZONTE", "RAZAOSOCIAL": "Q_HORIZONTE", "ENDEE": "NOSSA_SENHORA_DO_ROSARIO_127_CENTRO_CAMPO_LIMPO_PAULISTA_13230-035", "LMAPS": "https://www.google.com/maps?q=&layer=c&cbll=-23.2075519,-46.7873295", "O_QUE_FAZER": "APLICAR T2", "ER_REGIAO_CIDADE_min": "Campo Limpo Paulista_Campo Limpo Paulista_Guarulhos" }, "geometry": { "type": "Point", "coordinates": [ -46.7873295, -23.2075519 ] } },
{ "type": "Feature", "properties": { "CNPJ": "27429709000244", "IDCIDADE": "CAMPO_LIMPO_PAULISTA", "NOMEFANTASIA": "EMPORIO__SO_SABOR", "RAZAOSOCIAL": "EMPORIO__SO_SABOR", "ENDEE": "NOSSA_SENHORA_DO_ROSARIO_15_CENTRO_CAMPO_LIMPO_PAULISTA_13230-035", "LMAPS": "https://www.google.com/maps?q=&layer=c&cbll=-23.2077426,-46.7862805", "O_QUE_FAZER": "APLICAR T2", "ER_REGIAO_CIDADE_min": "Campo Limpo Paulista_Campo Limpo Paulista_Guarulhos" }, "geometry": { "type": "Point", "coordinates": [ -46.7862805, -23.2077426 ] } },
{ "type": "Feature", "properties": { "CNPJ": "50735537000178", "IDCIDADE": "CAMPO_LIMPO_PAULISTA", "NOMEFANTASIA": "CASA_DA_CASTANHA", "RAZAOSOCIAL": "CASA_DA_CASTANHA", "ENDEE": "NOSSA_SENHORA_DO_ROSARIO_159_CENTRO_CAMPO_LIMPO_PAULISTA_13230-035", "LMAPS": "https://www.google.com/maps?q=&layer=c&cbll=-23.2074284,-46.7875927", "O_QUE_FAZER": "APLICAR T2", "ER_REGIAO_CIDADE_min": "Campo Limpo Paulista_Campo Limpo Paulista_Guarulhos" }, "geometry": { "type": "Point", "coordinates": [ -46.7875927, -23.2074284 ] } },
{ "type": "Feature", "properties": { "CNPJ": "53218505000193", "IDCIDADE": "CAMPO_LIMPO_PAULISTA", "NOMEFANTASIA": "AME_FLORES", "RAZAOSOCIAL": "AME_FLORES", "ENDEE": "NOSSA_SENHORA_DO_ROSARIO_170_CENTRO_CAMPO_LIMPO_PAULISTA_13230-035", "LMAPS": "https://www.google.com/maps?q=&layer=c&cbll=-23.2072404,-46.7876749", "O_QUE_FAZER": "APLICAR T2", "ER_REGIAO_CIDADE_min": "Campo Limpo Paulista_Campo Limpo Paulista_Guarulhos" }, "geometry": { "type": "Point", "coordinates": [ -46.7876749, -23.2072404 ] } },
{ "type": "Feature", "properties": { "CNPJ": "41109719000142", "IDCIDADE": "CAMPO_LIMPO_PAULISTA", "NOMEFANTASIA": "FABI_FRALDAS", "RAZAOSOCIAL": "FABI_FRALDAS", "ENDEE": "NOSSA_SENHORA_DO_ROSARIO_176_CENTRO_CAMPO_LIMPO_PAULISTA_13230-035", "LMAPS": "https://www.google.com/maps?q=&layer=c&cbll=-23.2072637,-46.787744", "O_QUE_FAZER": "APLICAR T2", "ER_REGIAO_CIDADE_min": "Campo Limpo Paulista_Campo Limpo Paulista_Guarulhos" }, "geometry": { "type": "Point", "coordinates": [ -46.787744, -23.2072637 ] } },
{ "type": "Feature", "properties": { "CNPJ": "34942910000105", "IDCIDADE": "CAMPO_LIMPO_PAULISTA", "NOMEFANTASIA": "CHAVEIRO_CAMPO_LIMPO", "RAZAOSOCIAL": "CHAVEIRO_CAMPO_LIMPO", "ENDEE": "NOSSA_SENHORA_DO_ROSARIO_200_CENTRO_CAMPO_LIMPO_PAULISTA_13230-035", "LMAPS": "https://www.google.com/maps?q=&layer=c&cbll=-23.2071739,-46.7881811", "O_QUE_FAZER": "APLICAR T2", "ER_REGIAO_CIDADE_min": "Campo Limpo Paulista_Campo Limpo Paulista_Guarulhos" }, "geometry": { "type": "Point", "coordinates": [ -46.7881811, -23.2071739 ] } },
{ "type": "Feature", "properties": { "CNPJ": "59734273000102", "IDCIDADE": "CAMPO_LIMPO_PAULISTA", "NOMEFANTASIA": "NINA_ROSE", "RAZAOSOCIAL": "NINA_ROSE", "ENDEE": "NOSSA_SENHORA_DO_ROSARIO_250_CENTRO_CAMPO_LIMPO_PAULISTA_13230-035", "LMAPS": "https://www.google.com/maps?q=&layer=c&cbll=-23.2070729,-46.7886501", "O_QUE_FAZER": "APLICAR T2", "ER_REGIAO_CIDADE_min": "Campo Limpo Paulista_Campo Limpo Paulista_Guarulhos" }, "geometry": { "type": "Point", "coordinates": [ -46.7886501, -23.2070729 ] } },
{ "type": "Feature", "properties": { "CNPJ": "49901933000149", "IDCIDADE": "CAMPO_LIMPO_PAULISTA", "NOMEFANTASIA": "CAMPOS_VIAGENS", "RAZAOSOCIAL": "CAMPOS_VIAGENS", "ENDEE": "NOSSA_SENHORA_DO_ROSARIO_34_CENTRO_CAMPO_LIMPO_PAULISTA_13230-035", "LMAPS": "https://www.google.com/maps?q=&layer=c&cbll=-23.2074687,-46.7863636", "O_QUE_FAZER": "APLICAR T2", "ER_REGIAO_CIDADE_min": "Campo Limpo Paulista_Campo Limpo Paulista_Guarulhos" }, "geometry": { "type": "Point", "coordinates": [ -46.7863636, -23.2074687 ] } },
{ "type": "Feature", "properties": { "CNPJ": "32929422000132", "IDCIDADE": "CAMPO_LIMPO_PAULISTA", "NOMEFANTASIA": "BELLA_PRESENTES", "RAZAOSOCIAL": "BELLA_PRESENTES", "ENDEE": "AVENIDA_PRESIDENTE_VARGAS_40_VILA_TAVARES_13230-100_CAMPO_LIMPO_PAULISTA_BRASIL_13230-100", "LMAPS": "https://www.google.com/maps?q=&layer=c&cbll=-23.2051579,-46.7882736", "O_QUE_FAZER": "APLICAR T2", "ER_REGIAO_CIDADE_min": "Campo Limpo Paulista_Campo Limpo Paulista_Guarulhos" }, "geometry": { "type": "Point", "coordinates": [ -46.7882736, -23.2051579 ] } },
{ "type": "Feature", "properties": { "CNPJ": "44404712000141", "IDCIDADE": "CAMPO_LIMPO_PAULISTA", "NOMEFANTASIA": "BARBEARIA_ZION", "RAZAOSOCIAL": "BARBEARIA_ZION", "ENDEE": "PRESIDENTE_VARGAS_158_VILA_TAVARES_CAMPO_LIMPO_PAULISTA_13230-100", "LMAPS": "https://www.google.com/maps?q=&layer=c&cbll=-23.2043444,-46.7890828", "O_QUE_FAZER": "APLICAR T2", "ER_REGIAO_CIDADE_min": "Campo Limpo Paulista_Campo Limpo Paulista_Guarulhos" }, "geometry": { "type": "Point", "coordinates": [ -46.7890828, -23.2043444 ] } },
{ "type": "Feature", "properties": { "CNPJ": "54734258000140", "IDCIDADE": "CAMPO_LIMPO_PAULISTA", "NOMEFANTASIA": "CAFE_COM_PROSA", "RAZAOSOCIAL": "CAFE_COM_PROSA", "ENDEE": "PRESIDENTE_VARGAS_56_VILA_TAVARES_CAMPO_LIMPO_PAULISTA_13230-100", "LMAPS": "https://www.google.com/maps?q=&layer=c&cbll=-23.2050343,-46.7883823", "O_QUE_FAZER": "APLICAR T2", "ER_REGIAO_CIDADE_min": "Campo Limpo Paulista_Campo Limpo Paulista_Guarulhos" }, "geometry": { "type": "Point", "coordinates": [ -46.7883823, -23.2050343 ] } },
{ "type": "Feature", "properties": { "CNPJ": "60280310000139", "IDCIDADE": "CAMPO_LIMPO_PAULISTA", "NOMEFANTASIA": "ELETRONICA_FERREIRA", "RAZAOSOCIAL": "ELETRONICA_FERREIRA", "ENDEE": "PRESIDENTE_VARGAS_61_VILA_TAVARES_CAMPO_LIMPO_PAULISTA_13230-100", "LMAPS": "https://www.google.com/maps?q=&layer=c&cbll=-23.2052382,-46.7886441", "O_QUE_FAZER": "APLICAR T2", "ER_REGIAO_CIDADE_min": "Campo Limpo Paulista_Campo Limpo Paulista_Guarulhos" }, "geometry": { "type": "Point", "coordinates": [ -46.7886441, -23.2052382 ] } },
{ "type": "Feature", "properties": { "CNPJ": "30515493000163", "IDCIDADE": "CAMPO_LIMPO_PAULISTA", "NOMEFANTASIA": "DELICIAS_DA_SA", "RAZAOSOCIAL": "DELICIAS_DA_SA", "ENDEE": "ANTONIO_RAPOSO_TAVARES_83_VILA_THOMAZINA_CAMPO_LIMPO_PAULISTA_13230-360", "LMAPS": "https://www.google.com/maps?q=&layer=c&cbll=-23.2077154,-46.7870484", "O_QUE_FAZER": "APLICAR T2", "ER_REGIAO_CIDADE_min": "Campo Limpo Paulista_Campo Limpo Paulista_Guarulhos" }, "geometry": { "type": "Point", "coordinates": [ -46.7870484, -23.2077154 ] } },
{ "type": "Feature", "properties": { "CNPJ": "26200825000143", "IDCIDADE": "CAMPO_LIMPO_PAULISTA", "NOMEFANTASIA": "TECDIO", "RAZAOSOCIAL": "TECDIO", "ENDEE": "DOM_PEDRO_I_1613_JARDIM_GUANCIALE_CAMPO_LIMPO_PAULISTA_13236-000", "LMAPS": "https://www.google.com/maps?q=&layer=c&cbll=-23.2045952,-46.7988164", "O_QUE_FAZER": "APLICAR T2", "ER_REGIAO_CIDADE_min": "Campo Limpo Paulista_Campo Limpo Paulista_Guarulhos" }, "geometry": { "type": "Point", "coordinates": [ -46.7988164, -23.2045952 ] } },
{ "type": "Feature", "properties": { "CNPJ": "07689913000106", "IDCIDADE": "CAMPO_LIMPO_PAULISTA", "NOMEFANTASIA": "RESTAURANTE_PRESTES", "RAZAOSOCIAL": "RESTAURANTE_PRESTES", "ENDEE": "DOM_PEDRO_I_1640_JARDIM_GUANCIALE_CAMPO_LIMPO_PAULISTA_13236-000", "LMAPS": "https://www.google.com/maps?q=&layer=c&cbll=-23.2050715,-46.8004467", "O_QUE_FAZER": "APLICAR T2", "ER_REGIAO_CIDADE_min": "Campo Limpo Paulista_Campo Limpo Paulista_Guarulhos" }, "geometry": { "type": "Point", "coordinates": [ -46.8004467, -23.2050715 ] } },
{ "type": "Feature", "properties": { "CNPJ": "48050381000140", "IDCIDADE": "CAMPO_LIMPO_PAULISTA", "NOMEFANTASIA": "ADEGA_REALI", "RAZAOSOCIAL": "ADEGA_REALI", "ENDEE": "DOM_PEDRO_I_1650_JARDIM_GUANCIALE_CAMPO_LIMPO_PAULISTA_13236-000", "LMAPS": "https://www.google.com/maps?q=&layer=c&cbll=-23.205121,-46.8005279", "O_QUE_FAZER": "APLICAR T2", "ER_REGIAO_CIDADE_min": "Campo Limpo Paulista_Campo Limpo Paulista_Guarulhos" }, "geometry": { "type": "Point", "coordinates": [ -46.8005279, -23.205121 ] } },
{ "type": "Feature", "properties": { "CNPJ": "30493823000167", "IDCIDADE": "CAMPO_LIMPO_PAULISTA", "NOMEFANTASIA": "FERNANDO__CALHAS", "RAZAOSOCIAL": "FERNANDO__CALHAS", "ENDEE": "DOM_PEDRO_I_1820_JARDIM_GUANCIALE_CAMPO_LIMPO_PAULISTA_13236-000", "LMAPS": "https://www.google.com/maps?q=&layer=c&cbll=-23.2057321,-46.8016169", "O_QUE_FAZER": "APLICAR T2", "ER_REGIAO_CIDADE_min": "Campo Limpo Paulista_Campo Limpo Paulista_Guarulhos" }, "geometry": { "type": "Point", "coordinates": [ -46.8016169, -23.2057321 ] } },
{ "type": "Feature", "properties": { "CNPJ": "54439016000124", "IDCIDADE": "CAMPO_LIMPO_PAULISTA", "NOMEFANTASIA": "BRITAS_BAR", "RAZAOSOCIAL": "54.439.016_GISELE_RITA", "ENDEE": "SAO_PAULO_485_JARDIM_SANTA_LUCIA_CAMPO_LIMPO_PAULISTA_13236-210", "LMAPS": "https://www.google.com/maps?q=&layer=c&cbll=-23.2145921,-46.7982551", "O_QUE_FAZER": "APLICAR T2", "ER_REGIAO_CIDADE_min": "Campo Limpo Paulista_Campo Limpo Paulista_Guarulhos" }, "geometry": { "type": "Point", "coordinates": [ -46.7982551, -23.2145921 ] } },
{ "type": "Feature", "properties": { "CNPJ": "04663663000147", "IDCIDADE": "CAMPO_LIMPO_PAULISTA", "NOMEFANTASIA": "AGRO_E_PESCA_SAO_FRANCISCO", "RAZAOSOCIAL": "HENRO_MAPRI_LTDA", "ENDEE": "COLIBRI_480_JARDIM_SANTA_LUCIA_CAMPO_LIMPO_PAULISTA_13236-170", "LMAPS": "https://www.google.com/maps?q=&layer=c&cbll=-23.2144841,-46.7985955", "O_QUE_FAZER": "APLICAR T2", "ER_REGIAO_CIDADE_min": "Campo Limpo Paulista_Campo Limpo Paulista_Guarulhos" }, "geometry": { "type": "Point", "coordinates": [ -46.7985955, -23.2144841 ] } },
{ "type": "Feature", "properties": { "CNPJ": "66175007000152", "IDCIDADE": "CAMPO_LIMPO_PAULISTA", "NOMEFANTASIA": "JUNIOR_CABELAREIRO", "RAZAOSOCIAL": "66.175.007_DORIVAL_ANDREACA_JUNIOR", "ENDEE": "SAO_PAULO_155_JARDIM_SANTA_LUCIA_CAMPO_LIMPO_PAULISTA_13236-210", "LMAPS": "https://www.google.com/maps?q=&layer=c&cbll=-23.21437,-46.7954136", "O_QUE_FAZER": "APLICAR T2", "ER_REGIAO_CIDADE_min": "Campo Limpo Paulista_Campo Limpo Paulista_Guarulhos" }, "geometry": { "type": "Point", "coordinates": [ -46.7954136, -23.21437 ] } },
{ "type": "Feature", "properties": { "CNPJ": "43077507000156", "IDCIDADE": "CAMPO_LIMPO_PAULISTA", "NOMEFANTASIA": "OTICA_BIAGI", "RAZAOSOCIAL": "OTICA_BIAGI_LTDA", "ENDEE": "MARIA_JOSE_RODRIGUES_1335_JARDIM_SANTA_LUCIA_CAMPO_LIMPO_PAULISTA_13236-200", "LMAPS": "https://www.google.com/maps?q=&layer=c&cbll=-23.2135595,-46.7939632", "O_QUE_FAZER": "APLICAR T2", "ER_REGIAO_CIDADE_min": "Campo Limpo Paulista_Campo Limpo Paulista_Guarulhos" }, "geometry": { "type": "Point", "coordinates": [ -46.7939632, -23.2135595 ] } },
{ "type": "Feature", "properties": { "CNPJ": "01897130000131", "IDCIDADE": "CAMPO_LIMPO_PAULISTA", "NOMEFANTASIA": "LUIZAO", "RAZAOSOCIAL": "IVONE_DA_SILVA_CARDOSO", "ENDEE": "MARIA_JOSE_RODRIGUES_1331_JARDIM_SANTA_LUCIA_CAMPO_LIMPO_PAULISTA_13236-200", "LMAPS": "https://www.google.com/maps?q=&layer=c&cbll=-23.2135317,-46.7939864", "O_QUE_FAZER": "APLICAR T2", "ER_REGIAO_CIDADE_min": "Campo Limpo Paulista_Campo Limpo Paulista_Guarulhos" }, "geometry": { "type": "Point", "coordinates": [ -46.7939864, -23.2135317 ] } },
{ "type": "Feature", "properties": { "CNPJ": "61671770000150", "IDCIDADE": "CAMPO_LIMPO_PAULISTA", "NOMEFANTASIA": "TIO_PHIL_SALGADOS", "RAZAOSOCIAL": "61.671.770_JOSE_AUGUSTO_DOS_SANTOS_JUNIOR", "ENDEE": "MARIA_JOSE_RODRIGUES_1268_JARDIM_SANTA_LUCIA_CAMPO_LIMPO_PAULISTA_13236-200", "LMAPS": "https://www.google.com/maps?q=&layer=c&cbll=-23.2130355,-46.7946622", "O_QUE_FAZER": "APLICAR T2", "ER_REGIAO_CIDADE_min": "Campo Limpo Paulista_Campo Limpo Paulista_Guarulhos" }, "geometry": { "type": "Point", "coordinates": [ -46.7946622, -23.2130355 ] } },
{ "type": "Feature", "properties": { "CNPJ": "65104225000133", "IDCIDADE": "CAMPO_LIMPO_PAULISTA", "NOMEFANTASIA": "LOTUS_BOUTIQUE", "RAZAOSOCIAL": "65.104.225_LILIANE_DE_ANDRADE_AMARAL", "ENDEE": "MITIHARU_TANAKA_499_CONJUNTO_HABITACIONAL_SAO_JOSE_CAMPO_LIMPO_PAULISTA_13232-250", "LMAPS": "https://www.google.com/maps?q=&layer=c&cbll=-23.212553,-46.7613065", "O_QUE_FAZER": "APLICAR T2", "ER_REGIAO_CIDADE_min": "Campo Limpo Paulista_Campo Limpo Paulista_Guarulhos" }, "geometry": { "type": "Point", "coordinates": [ -46.7613065, -23.212553 ] } },
{ "type": "Feature", "properties": { "CNPJ": "29624774000175", "IDCIDADE": "CAMPO_LIMPO_PAULISTA", "NOMEFANTASIA": "BIA_MENOS_PRESENTES", "RAZAOSOCIAL": "29.624.774_FABIANA_APARECIDA_MENON", "ENDEE": "MITIHARU_TANAKA_484_CONJUNTO_HABITACIONAL_SAO_JOSE_CAMPO_LIMPO_PAULISTA_13232-250", "LMAPS": "https://www.google.com/maps?q=&layer=c&cbll=-23.212428,-46.7615823", "O_QUE_FAZER": "APLICAR T2", "ER_REGIAO_CIDADE_min": "Campo Limpo Paulista_Campo Limpo Paulista_Guarulhos" }, "geometry": { "type": "Point", "coordinates": [ -46.7615823, -23.212428 ] } },
{ "type": "Feature", "properties": { "CNPJ": "01455776000169", "IDCIDADE": "CAMPO_LIMPO_PAULISTA", "NOMEFANTASIA": "PERFUMARY", "RAZAOSOCIAL": "PERFUMARY_PERFUMARIA_E_COSMETICOS_LTDA", "ENDEE": "JOSE_VALTER_PACHECO_209_CONJUNTO_HABITACIONAL_SAO_JOSE_CAMPO_LIMPO_PAULISTA_13232-263", "LMAPS": "https://www.google.com/maps?q=&layer=c&cbll=-23.2121535,-46.7617356", "O_QUE_FAZER": "APLICAR T2", "ER_REGIAO_CIDADE_min": "Campo Limpo Paulista_Campo Limpo Paulista_Guarulhos" }, "geometry": { "type": "Point", "coordinates": [ -46.7617356, -23.2121535 ] } },
{ "type": "Feature", "properties": { "CNPJ": "36793144000190", "IDCIDADE": "CAMPO_LIMPO_PAULISTA", "NOMEFANTASIA": "POINT_DA_LIMPEZA", "RAZAOSOCIAL": "MARCIA_DIVINA_DE_MENDONCA_NATALI_30932224865", "ENDEE": "MITIHARU_TANAKA_203_CONJUNTO_HABITACIONAL_SAO_JOSE_CAMPO_LIMPO_PAULISTA_13232-250", "LMAPS": "https://www.google.com/maps?q=&layer=c&cbll=-23.2120243,-46.7617394", "O_QUE_FAZER": "APLICAR T2", "ER_REGIAO_CIDADE_min": "Campo Limpo Paulista_Campo Limpo Paulista_Guarulhos" }, "geometry": { "type": "Point", "coordinates": [ -46.7617394, -23.2120243 ] } },
{ "type": "Feature", "properties": { "CNPJ": "55438685000144", "IDCIDADE": "CAMPO_LIMPO_PAULISTA", "NOMEFANTASIA": "RM_REPARA_RAPIDO", "RAZAOSOCIAL": "55.438.685_RODOLFO_MIRANDA_DE_SOUZA", "ENDEE": "MARIA_JOSE_RODRIGUES_974_JARDIM_SANTA_LUCIA_CAMPO_LIMPO_PAULISTA_13236-200", "LMAPS": "https://www.google.com/maps?q=&layer=c&cbll=-23.2118024,-46.7944212", "O_QUE_FAZER": "APLICAR T2", "ER_REGIAO_CIDADE_min": "Campo Limpo Paulista_Campo Limpo Paulista_Guarulhos" }, "geometry": { "type": "Point", "coordinates": [ -46.7944212, -23.2118024 ] } },
{ "type": "Feature", "properties": { "CNPJ": "46035559000158", "IDCIDADE": "CAMPO_LIMPO_PAULISTA", "NOMEFANTASIA": "PANIFICADORA_BRUNELA", "RAZAOSOCIAL": "GNM_PADARIA_E_PIZZARIA_LTDA", "ENDEE": "BRAGANTINA_1558_JARDIM_SANTO_ANTONIO_I_CAMPO_LIMPO_PAULISTA_13232-099", "LMAPS": "https://www.google.com/maps?q=&layer=c&cbll=-23.211761,-46.7596045", "O_QUE_FAZER": "APLICAR T2", "ER_REGIAO_CIDADE_min": "Campo Limpo Paulista_Campo Limpo Paulista_Guarulhos" }, "geometry": { "type": "Point", "coordinates": [ -46.7596045, -23.211761 ] } },
{ "type": "Feature", "properties": { "CNPJ": "59251127000126", "IDCIDADE": "CAMPO_LIMPO_PAULISTA", "NOMEFANTASIA": "D_STYLE_ELETRONICA_E_ACESSORIOS", "RAZAOSOCIAL": "59.251.127_BRUNO_SANTOS_TEGA", "ENDEE": "JOSE_VALTER_PACHECO_210_CONJUNTO_HABITACIONAL_SAO_JOSE_CAMPO_LIMPO_PAULISTA_13232-263", "LMAPS": "https://www.google.com/maps?q=&layer=c&cbll=-23.2117577,-46.7618868", "O_QUE_FAZER": "APLICAR T2", "ER_REGIAO_CIDADE_min": "Campo Limpo Paulista_Campo Limpo Paulista_Guarulhos" }, "geometry": { "type": "Point", "coordinates": [ -46.7618868, -23.2117577 ] } },
{ "type": "Feature", "properties": { "CNPJ": "43408011000118", "IDCIDADE": "CAMPO_LIMPO_PAULISTA", "NOMEFANTASIA": "RB_ARMARINHOS", "RAZAOSOCIAL": "RODRIGO_PERPETUO_BARBOSA", "ENDEE": "BRAGANTINA_1235_JARDIM_SANTO_ANTONIO_I_CAMPO_LIMPO_PAULISTA_13232-099", "LMAPS": "https://www.google.com/maps?q=&layer=c&cbll=-23.2117173,-46.7593928", "O_QUE_FAZER": "APLICAR T2", "ER_REGIAO_CIDADE_min": "Campo Limpo Paulista_Campo Limpo Paulista_Guarulhos" }, "geometry": { "type": "Point", "coordinates": [ -46.7593928, -23.2117173 ] } },
{ "type": "Feature", "properties": { "CNPJ": "29571545000130", "IDCIDADE": "CAMPO_LIMPO_PAULISTA", "NOMEFANTASIA": "EDSON_E_LEO_INFORMATICA", "RAZAOSOCIAL": "EDSON_CARLOS_SIMAO_17186860800", "ENDEE": "ELIAS_DE_CAMARGO_213_CONJUNTO_HABITACIONAL_SAO_JOSE_CAMPO_LIMPO_PAULISTA_13232-262", "LMAPS": "https://www.google.com/maps?q=&layer=c&cbll=-23.211595,-46.762046", "O_QUE_FAZER": "APLICAR T2", "ER_REGIAO_CIDADE_min": "Campo Limpo Paulista_Campo Limpo Paulista_Guarulhos" }, "geometry": { "type": "Point", "coordinates": [ -46.762046, -23.211595 ] } },
{ "type": "Feature", "properties": { "CNPJ": "27254385000170", "IDCIDADE": "CAMPO_LIMPO_PAULISTA", "NOMEFANTASIA": "BAR_DOS_AMIGOS", "RAZAOSOCIAL": "PAULO_DA_SILVA_96270705800", "ENDEE": "MARIA_JOSE_RODRIGUES_242_JARDIM_SANTA_LUCIA_CAMPO_LIMPO_PAULISTA_13236-200", "LMAPS": "https://www.google.com/maps?q=&layer=c&cbll=-23.211054,-46.7943505", "O_QUE_FAZER": "APLICAR T2", "ER_REGIAO_CIDADE_min": "Campo Limpo Paulista_Campo Limpo Paulista_Guarulhos" }, "geometry": { "type": "Point", "coordinates": [ -46.7943505, -23.211054 ] } },
{ "type": "Feature", "properties": { "CNPJ": "42792976000194", "IDCIDADE": "CAMPO_LIMPO_PAULISTA", "NOMEFANTASIA": "VR_RACOES", "RAZAOSOCIAL": "ROBERTA_KELLY_OLIVEIRA_COPPOLA_31036564835", "ENDEE": "MITIHARU_TANAKA_282_CONJUNTO_HABITACIONAL_SAO_JOSE_CAMPO_LIMPO_PAULISTA_13232-250", "LMAPS": "https://www.google.com/maps?q=&layer=c&cbll=-23.2109358,-46.7621808", "O_QUE_FAZER": "APLICAR T2", "ER_REGIAO_CIDADE_min": "Campo Limpo Paulista_Campo Limpo Paulista_Guarulhos" }, "geometry": { "type": "Point", "coordinates": [ -46.7621808, -23.2109358 ] } },
{ "type": "Feature", "properties": { "CNPJ": "47962269000112", "IDCIDADE": "CAMPO_LIMPO_PAULISTA", "NOMEFANTASIA": "MUNDO_DAS_AVES", "RAZAOSOCIAL": "MUNDO_DAS_AVES_PET_E_RACOES_LTDA", "ENDEE": "MARIA_JOSE_RODRIGUES_230_JARDIM_SANTA_LUCIA_CAMPO_LIMPO_PAULISTA_13236-200", "LMAPS": "https://www.google.com/maps?q=&layer=c&cbll=-23.2109262,-46.7943225", "O_QUE_FAZER": "APLICAR T2", "ER_REGIAO_CIDADE_min": "Campo Limpo Paulista_Campo Limpo Paulista_Guarulhos" }, "geometry": { "type": "Point", "coordinates": [ -46.7943225, -23.2109262 ] } },
{ "type": "Feature", "properties": { "CNPJ": "10437787000107", "IDCIDADE": "CAMPO_LIMPO_PAULISTA", "NOMEFANTASIA": "PARAISO_DOS_CALCADOS", "RAZAOSOCIAL": "LUCIA_SCHIMIT_DIAS", "ENDEE": "BRAGANTINA_1605_JARDIM_SANTO_ANTONIO_I_CAMPO_LIMPO_PAULISTA_13232-099", "LMAPS": "https://www.google.com/maps?q=&layer=c&cbll=-23.2108699,-46.7596766", "O_QUE_FAZER": "APLICAR T2", "ER_REGIAO_CIDADE_min": "Campo Limpo Paulista_Campo Limpo Paulista_Guarulhos" }, "geometry": { "type": "Point", "coordinates": [ -46.7596766, -23.2108699 ] } },
{ "type": "Feature", "properties": { "CNPJ": "19405250000130", "IDCIDADE": "CAMPO_LIMPO_PAULISTA", "NOMEFANTASIA": "MILENE_PRESENTES", "RAZAOSOCIAL": "19.405.250_MILENE_PEREIRA_GERMANO_DOS_SANTOS", "ENDEE": "MITIHARU_TANAKA_250_CONJUNTO_HABITACIONAL_SAO_JOSE_CAMPO_LIMPO_PAULISTA_13232-250", "LMAPS": "https://www.google.com/maps?q=&layer=c&cbll=-23.2108668,-46.7622076", "O_QUE_FAZER": "APLICAR T2", "ER_REGIAO_CIDADE_min": "Campo Limpo Paulista_Campo Limpo Paulista_Guarulhos" }, "geometry": { "type": "Point", "coordinates": [ -46.7622076, -23.2108668 ] } },
{ "type": "Feature", "properties": { "CNPJ": "33872286000154", "IDCIDADE": "CAMPO_LIMPO_PAULISTA", "NOMEFANTASIA": "REVEST_HD", "RAZAOSOCIAL": "REVESTY-HD_COMERCIO_DE_MATERIAS_PARA_CONSTRUCAO_LTDA", "ENDEE": "MARIA_JOSE_RODRIGUES_125_JARDIM_SANTA_LUCIA_CAMPO_LIMPO_PAULISTA_13236-200", "LMAPS": "https://www.google.com/maps?q=&layer=c&cbll=-23.2107886,-46.7940216", "O_QUE_FAZER": "APLICAR T2", "ER_REGIAO_CIDADE_min": "Campo Limpo Paulista_Campo Limpo Paulista_Guarulhos" }, "geometry": { "type": "Point", "coordinates": [ -46.7940216, -23.2107886 ] } },
{ "type": "Feature", "properties": { "CNPJ": "57463509000198", "IDCIDADE": "CAMPO_LIMPO_PAULISTA", "NOMEFANTASIA": "TATO_MATERIAL", "RAZAOSOCIAL": "57.463.509_ANDERSON_ANTONIO_DUARTE", "ENDEE": "EDMUNDO_REIS_FRIAS_JUNIOR_183_CONJUNTO_HABITACIONAL_SAO_JOSE_CAMPO_LIMPO_PAULISTA_13232-255", "LMAPS": "https://www.google.com/maps?q=&layer=c&cbll=-23.2105846,-46.7622794", "O_QUE_FAZER": "APLICAR T2", "ER_REGIAO_CIDADE_min": "Campo Limpo Paulista_Campo Limpo Paulista_Guarulhos" }, "geometry": { "type": "Point", "coordinates": [ -46.7622794, -23.2105846 ] } },
{ "type": "Feature", "properties": { "CNPJ": "37962863000150", "IDCIDADE": "CAMPO_LIMPO_PAULISTA", "NOMEFANTASIA": "ARMAZEM_DOS_OCULOS", "RAZAOSOCIAL": "ARMAZEM_DOS_OCULOS_LTDA", "ENDEE": "BRAGANTINA_1506_JARDIM_SANTO_ANTONIO_I_CAMPO_LIMPO_PAULISTA_13232-099", "LMAPS": "https://www.google.com/maps?q=&layer=c&cbll=-23.2103946,-46.7603568", "O_QUE_FAZER": "APLICAR T2", "ER_REGIAO_CIDADE_min": "Campo Limpo Paulista_Campo Limpo Paulista_Guarulhos" }, "geometry": { "type": "Point", "coordinates": [ -46.7603568, -23.2103946 ] } },
{ "type": "Feature", "properties": { "CNPJ": "50753248000100", "IDCIDADE": "CAMPO_LIMPO_PAULISTA", "NOMEFANTASIA": "EMPORIO_RACOES_E_JARDIM", "RAZAOSOCIAL": "JEFERSON_BARBOSA_DA_SILVA_LTDA", "ENDEE": "BRAGANTINA_1485_JARDIM_SANTO_ANTONIO_I_CAMPO_LIMPO_PAULISTA_13232-099", "LMAPS": "https://www.google.com/maps?q=&layer=c&cbll=-23.2103411,-46.7600937", "O_QUE_FAZER": "APLICAR T2", "ER_REGIAO_CIDADE_min": "Campo Limpo Paulista_Campo Limpo Paulista_Guarulhos" }, "geometry": { "type": "Point", "coordinates": [ -46.7600937, -23.2103411 ] } },
{ "type": "Feature", "properties": { "CNPJ": "26261963000132", "IDCIDADE": "CAMPO_LIMPO_PAULISTA", "NOMEFANTASIA": "VILLE_EMBALAGENS", "RAZAOSOCIAL": "MARCIA_APARECIDA_DE_MORAES", "ENDEE": "BRAGANTINA_1500_JARDIM_SANTO_ANTONIO_I_CAMPO_LIMPO_PAULISTA_13232-099", "LMAPS": "https://www.google.com/maps?q=&layer=c&cbll=-23.2103196,-46.760564", "O_QUE_FAZER": "APLICAR T2", "ER_REGIAO_CIDADE_min": "Campo Limpo Paulista_Campo Limpo Paulista_Guarulhos" }, "geometry": { "type": "Point", "coordinates": [ -46.760564, -23.2103196 ] } },
{ "type": "Feature", "properties": { "CNPJ": "66608556000173", "IDCIDADE": "CAMPO_LIMPO_PAULISTA", "NOMEFANTASIA": "DIFARMA", "RAZAOSOCIAL": "DIEGO_&_CELIA_DROGARIA_E_PERFUMARIA_LTDA", "ENDEE": "MITIHARU_TANAKA_181_CONJUNTO_HABITACIONAL_SAO_JOSE_CAMPO_LIMPO_PAULISTA_13232-250", "LMAPS": "https://www.google.com/maps?q=&layer=c&cbll=-23.2102805,-46.7624447", "O_QUE_FAZER": "APLICAR T2", "ER_REGIAO_CIDADE_min": "Campo Limpo Paulista_Campo Limpo Paulista_Guarulhos" }, "geometry": { "type": "Point", "coordinates": [ -46.7624447, -23.2102805 ] } },
{ "type": "Feature", "properties": { "CNPJ": "30974673000103", "IDCIDADE": "CAMPO_LIMPO_PAULISTA", "NOMEFANTASIA": "S.O.S_COXINHAS", "RAZAOSOCIAL": "MICHEL_PRADO_DA_SILVA_41191952878", "ENDEE": "MITIHARU_TANAKA_198_CONJUNTO_HABITACIONAL_SAO_JOSE_CAMPO_LIMPO_PAULISTA_13232-250", "LMAPS": "https://www.google.com/maps?q=&layer=c&cbll=-23.2098969,-46.7626155", "O_QUE_FAZER": "APLICAR T2", "ER_REGIAO_CIDADE_min": "Campo Limpo Paulista_Campo Limpo Paulista_Guarulhos" }, "geometry": { "type": "Point", "coordinates": [ -46.7626155, -23.2098969 ] } },
{ "type": "Feature", "properties": { "CNPJ": "19757530000107", "IDCIDADE": "CAMPO_LIMPO_PAULISTA", "NOMEFANTASIA": "ADRIANA_MODAS", "RAZAOSOCIAL": "ADRIANA_JOSE_ALVES_05345054908", "ENDEE": "BRAGANTINA_1352_JARDIM_SANTO_ANTONIO_I_CAMPO_LIMPO_PAULISTA_13232-099", "LMAPS": "https://www.google.com/maps?q=&layer=c&cbll=-23.2098695,-46.7606587", "O_QUE_FAZER": "APLICAR T2", "ER_REGIAO_CIDADE_min": "Campo Limpo Paulista_Campo Limpo Paulista_Guarulhos" }, "geometry": { "type": "Point", "coordinates": [ -46.7606587, -23.2098695 ] } },
{ "type": "Feature", "properties": { "CNPJ": "57291355000102", "IDCIDADE": "CAMPO_LIMPO_PAULISTA", "NOMEFANTASIA": "DALU_BOLOS_E_DOCES", "RAZAOSOCIAL": "57.291.355_LUCIANA_CRISTINA_MACHADO_NASCIMENTO", "ENDEE": "MITIHARU_TANAKA_179_CONJUNTO_HABITACIONAL_SAO_JOSE_CAMPO_LIMPO_PAULISTA_13232-250", "LMAPS": "https://www.google.com/maps?q=&layer=c&cbll=-23.2098029,-46.7623287", "O_QUE_FAZER": "APLICAR T2", "ER_REGIAO_CIDADE_min": "Campo Limpo Paulista_Campo Limpo Paulista_Guarulhos" }, "geometry": { "type": "Point", "coordinates": [ -46.7623287, -23.2098029 ] } },
{ "type": "Feature", "properties": { "CNPJ": "61301503000191", "IDCIDADE": "CAMPO_LIMPO_PAULISTA", "NOMEFANTASIA": "CHAVEIRO_SANTO_ANTONIO", "RAZAOSOCIAL": "ANTONIO_CARLOS_MOREIRA_DA_CUNHA", "ENDEE": "RAFAEL_ZULLI_460_JARDIM_SANTO_ANTONIO_II_CAMPO_LIMPO_PAULISTA_13232-190", "LMAPS": "https://www.google.com/maps?q=&layer=c&cbll=-23.2096835,-46.7682138", "O_QUE_FAZER": "APLICAR T2", "ER_REGIAO_CIDADE_min": "Campo Limpo Paulista_Campo Limpo Paulista_Guarulhos" }, "geometry": { "type": "Point", "coordinates": [ -46.7682138, -23.2096835 ] } },
{ "type": "Feature", "properties": { "CNPJ": "05425762000153", "IDCIDADE": "CAMPO_LIMPO_PAULISTA", "NOMEFANTASIA": "DROGARIA_BRUNELLA", "RAZAOSOCIAL": "DROGARIA_MACLAZE_PAZ_LTDA", "ENDEE": "MITIHARU_TANAKA_171_CONJUNTO_HABITACIONAL_SAO_JOSE_CAMPO_LIMPO_PAULISTA_13232-250", "LMAPS": "https://www.google.com/maps?q=&layer=c&cbll=-23.2095905,-46.7625292", "O_QUE_FAZER": "APLICAR T2", "ER_REGIAO_CIDADE_min": "Campo Limpo Paulista_Campo Limpo Paulista_Guarulhos" }, "geometry": { "type": "Point", "coordinates": [ -46.7625292, -23.2095905 ] } },
{ "type": "Feature", "properties": { "CNPJ": "00781189000105", "IDCIDADE": "CAMPO_LIMPO_PAULISTA", "NOMEFANTASIA": "RESTAURANTE_PONTO_DO_RANGO", "RAZAOSOCIAL": "RAIMUNDO_F_GOMES_DE_OLIVEIRA", "ENDEE": "RAFAEL_ZULLI_496_JARDIM_SANTO_ANTONIO_II_CAMPO_LIMPO_PAULISTA_13232-190", "LMAPS": "https://www.google.com/maps?q=&layer=c&cbll=-23.2095837,-46.7677399", "O_QUE_FAZER": "APLICAR T2", "ER_REGIAO_CIDADE_min": "Campo Limpo Paulista_Campo Limpo Paulista_Guarulhos" }, "geometry": { "type": "Point", "coordinates": [ -46.7677399, -23.2095837 ] } },
{ "type": "Feature", "properties": { "CNPJ": "18287289000137", "IDCIDADE": "CAMPO_LIMPO_PAULISTA", "NOMEFANTASIA": "HS_CASA_DO_LUBRIFICANTE", "RAZAOSOCIAL": "GISLAINE_ROMAGNA_SANTANA", "ENDEE": "RAFAEL_ZULLI_184_JARDIM_SANTO_ANTONIO_II_CAMPO_LIMPO_PAULISTA_13232-190", "LMAPS": "https://www.google.com/maps?q=&layer=c&cbll=-23.2094118,-46.766587", "O_QUE_FAZER": "APLICAR T2", "ER_REGIAO_CIDADE_min": "Campo Limpo Paulista_Campo Limpo Paulista_Guarulhos" }, "geometry": { "type": "Point", "coordinates": [ -46.766587, -23.2094118 ] } },
{ "type": "Feature", "properties": { "CNPJ": "62016966000174", "IDCIDADE": "CAMPO_LIMPO_PAULISTA", "NOMEFANTASIA": "ATELIE_SALGADOS_E_BOLOS", "RAZAOSOCIAL": "62.016.966_VALDIR_FRANCISCO_DA_SILVA", "ENDEE": "BRAGANTINA_1511_JARDIM_SANTO_ANTONIO_I_CAMPO_LIMPO_PAULISTA_13232-099", "LMAPS": "https://www.google.com/maps?q=&layer=c&cbll=-23.2093989,-46.7696098", "O_QUE_FAZER": "APLICAR T2", "ER_REGIAO_CIDADE_min": "Campo Limpo Paulista_Campo Limpo Paulista_Guarulhos" }, "geometry": { "type": "Point", "coordinates": [ -46.7696098, -23.2093989 ] } },
{ "type": "Feature", "properties": { "CNPJ": "34003325000140", "IDCIDADE": "CAMPO_LIMPO_PAULISTA", "NOMEFANTASIA": "REPARACELL_ASSISTENCIA_TECNICA", "RAZAOSOCIAL": "REPARACELL_ASSISTENCIA_TECNICA_LTDA", "ENDEE": "BRAGANTINA_1272_JARDIM_SANTO_ANTONIO_I_CAMPO_LIMPO_PAULISTA_13232-099", "LMAPS": "https://www.google.com/maps?q=&layer=c&cbll=-23.2091512,-46.7611694", "O_QUE_FAZER": "APLICAR T2", "ER_REGIAO_CIDADE_min": "Campo Limpo Paulista_Campo Limpo Paulista_Guarulhos" }, "geometry": { "type": "Point", "coordinates": [ -46.7611694, -23.2091512 ] } },
{ "type": "Feature", "properties": { "CNPJ": "28828776000113", "IDCIDADE": "CAMPO_LIMPO_PAULISTA", "NOMEFANTASIA": "JP_ENCANTO_MISTICO", "RAZAOSOCIAL": "PRISCILA_MARIA_COSTA_25566136885", "ENDEE": "BRAGANTINA_1242_JARDIM_SANTO_ANTONIO_I_CAMPO_LIMPO_PAULISTA_13232-099", "LMAPS": "https://www.google.com/maps?q=&layer=c&cbll=-23.2090578,-46.7612607", "O_QUE_FAZER": "APLICAR T2", "ER_REGIAO_CIDADE_min": "Campo Limpo Paulista_Campo Limpo Paulista_Guarulhos" }, "geometry": { "type": "Point", "coordinates": [ -46.7612607, -23.2090578 ] } },
{ "type": "Feature", "properties": { "CNPJ": "66052979000150", "IDCIDADE": "CAMPO_LIMPO_PAULISTA", "NOMEFANTASIA": "OTICA_SERENA_VISION", "RAZAOSOCIAL": "OPTICA_SERENA_VISION_LTDA", "ENDEE": "RAFAEL_ZULLI_998_JARDIM_SANTO_ANTONIO_II_CAMPO_LIMPO_PAULISTA_13232-190", "LMAPS": "https://www.google.com/maps?q=&layer=c&cbll=-23.2089074,-46.7641988", "O_QUE_FAZER": "APLICAR T2", "ER_REGIAO_CIDADE_min": "Campo Limpo Paulista_Campo Limpo Paulista_Guarulhos" }, "geometry": { "type": "Point", "coordinates": [ -46.7641988, -23.2089074 ] } },
{ "type": "Feature", "properties": { "CNPJ": "37502208000119", "IDCIDADE": "CAMPO_LIMPO_PAULISTA", "NOMEFANTASIA": "MATERIAIS_PARA_CONSTRUCAO_DINI", "RAZAOSOCIAL": "DINI_COMERCIO_ATACADISTA_DE_MATERIAIS_PARA_CONSTRUCAO_LTDA", "ENDEE": "BRAGANTINA_901_JARDIM_SANTO_ANTONIO_I_CAMPO_LIMPO_PAULISTA_13232-099", "LMAPS": "https://www.google.com/maps?q=&layer=c&cbll=-23.2084294,-46.7638859", "O_QUE_FAZER": "APLICAR T2", "ER_REGIAO_CIDADE_min": "Campo Limpo Paulista_Campo Limpo Paulista_Guarulhos" }, "geometry": { "type": "Point", "coordinates": [ -46.7638859, -23.2084294 ] } },
{ "type": "Feature", "properties": { "CNPJ": "57013577000155", "IDCIDADE": "CAMPO_LIMPO_PAULISTA", "NOMEFANTASIA": "FAZENDINHA_DO_LEO", "RAZAOSOCIAL": "DV_RACOES_LTDA", "ENDEE": "BRAGANTINA_761_JARDIM_SANTO_ANTONIO_I_CAMPO_LIMPO_PAULISTA_13232-099", "LMAPS": "https://www.google.com/maps?q=&layer=c&cbll=-23.2083798,-46.7648043", "O_QUE_FAZER": "APLICAR T2", "ER_REGIAO_CIDADE_min": "Campo Limpo Paulista_Campo Limpo Paulista_Guarulhos" }, "geometry": { "type": "Point", "coordinates": [ -46.7648043, -23.2083798 ] } },
{ "type": "Feature", "properties": { "CNPJ": "61107789000179", "IDCIDADE": "CAMPO_LIMPO_PAULISTA", "NOMEFANTASIA": "SUSHI_MANIA", "RAZAOSOCIAL": "EDNA_DA_ROCHA_FLEMING_ALIMENTOS", "ENDEE": "BRAGANTINA_5820_JARDIM_SANTO_ANTONIO_I_CAMPO_LIMPO_PAULISTA_13232-099", "LMAPS": "https://www.google.com/maps?q=&layer=c&cbll=-23.2075078,-46.7181368", "O_QUE_FAZER": "APLICAR T2", "ER_REGIAO_CIDADE_min": "Campo Limpo Paulista_Campo Limpo Paulista_Guarulhos" }, "geometry": { "type": "Point", "coordinates": [ -46.7181368, -23.2075078 ] } },
{ "type": "Feature", "properties": { "CNPJ": "65591036000132", "IDCIDADE": "CAMPO_LIMPO_PAULISTA", "NOMEFANTASIA": "LUCAS_PASCHOAL", "RAZAOSOCIAL": "LUCAS_PASCHOAL", "ENDEE": "RUA_DOUTOR_EDGARD_ANTONIO_DE_SOUZA_204_CONJUNTO_HABITACIONAL_VILA_DA_CONQUISTA_13232-320_CAMPO_LIMPO_PAULISTA", "LMAPS": "https://www.google.com/maps?q=&layer=c&cbll=-23.2193931,-46.7614605", "O_QUE_FAZER": "APLICAR T2", "ER_REGIAO_CIDADE_min": "Campo Limpo Paulista_Campo Limpo Paulista_Guarulhos" }, "geometry": { "type": "Point", "coordinates": [ -46.7614605, -23.2193931 ] } },
{ "type": "Feature", "properties": { "CNPJ": "17556482000163", "IDCIDADE": "CAMPO_LIMPO_PAULISTA", "NOMEFANTASIA": "MERCADINHO_REIS", "RAZAOSOCIAL": "MERCADINHO_REIS", "ENDEE": "RUA_SHIRLEY_DE_ALMEIDA_TAPIAS_10_CONJUNTO_HABITACIONAL_SAO_JOSE_13232-296_CAMPO_LIMPO_PAULISTA", "LMAPS": "https://www.google.com/maps?q=&layer=c&cbll=-23.2174189,-46.76001", "O_QUE_FAZER": "APLICAR T2", "ER_REGIAO_CIDADE_min": "Campo Limpo Paulista_Campo Limpo Paulista_Guarulhos" }, "geometry": { "type": "Point", "coordinates": [ -46.76001, -23.2174189 ] } },
{ "type": "Feature", "properties": { "CNPJ": "60611773000136", "IDCIDADE": "CAMPO_LIMPO_PAULISTA", "NOMEFANTASIA": "MERCEARIA_DO_CORAO", "RAZAOSOCIAL": "MERCEARIA_DO_CORAO", "ENDEE": "RUA_RAMON_PEREZ_5_CONJUNTO_HABITACIONAL_SAO_JOSE_13232-295_CAMPO_LIMPO_PAULISTA", "LMAPS": "https://www.google.com/maps?q=&layer=c&cbll=-23.2172106,-46.7600914", "O_QUE_FAZER": "APLICAR T2", "ER_REGIAO_CIDADE_min": "Campo Limpo Paulista_Campo Limpo Paulista_Guarulhos" }, "geometry": { "type": "Point", "coordinates": [ -46.7600914, -23.2172106 ] } },
{ "type": "Feature", "properties": { "CNPJ": "59930782000100", "IDCIDADE": "CAMPO_LIMPO_PAULISTA", "NOMEFANTASIA": "ADEGA_DA_GALERA", "RAZAOSOCIAL": "ADEGA_DA_GALERA", "ENDEE": "RUA_JOSE_BERTINE_17_JARDIM_VITORIA_13236-240_CAMPO_LIMPO_PAULISTA", "LMAPS": "https://www.google.com/maps?q=&layer=c&cbll=-23.215156,-46.799326", "O_QUE_FAZER": "APLICAR T2", "ER_REGIAO_CIDADE_min": "Campo Limpo Paulista_Campo Limpo Paulista_Guarulhos" }, "geometry": { "type": "Point", "coordinates": [ -46.799326, -23.215156 ] } },
{ "type": "Feature", "properties": { "CNPJ": "17043254000190", "IDCIDADE": "CAMPO_LIMPO_PAULISTA", "NOMEFANTASIA": "MORA_SOLUCOES", "RAZAOSOCIAL": "MORA_SOLUCOES", "ENDEE": "RUA_MARIA_PAVANELLO_BONAMIGO_6_JARDIM_VITORIA_13236-241_CAMPO_LIMPO_PAULISTA", "LMAPS": "https://www.google.com/maps?q=&layer=c&cbll=-23.2151135,-46.7988222", "O_QUE_FAZER": "APLICAR T2", "ER_REGIAO_CIDADE_min": "Campo Limpo Paulista_Campo Limpo Paulista_Guarulhos" }, "geometry": { "type": "Point", "coordinates": [ -46.7988222, -23.2151135 ] } },
{ "type": "Feature", "properties": { "CNPJ": "50398572000149", "IDCIDADE": "CAMPO_LIMPO_PAULISTA", "NOMEFANTASIA": "DROGARIA_VITALI", "RAZAOSOCIAL": "DROGARIA_VITALI", "ENDEE": "RUA_COLIBRI_440_JARDIM_SANTA_LUCIA_13236-170_CAMPO_LIMPO_PAULISTA", "LMAPS": "https://www.google.com/maps?q=&layer=c&cbll=-23.2141901,-46.7984261", "O_QUE_FAZER": "APLICAR T2", "ER_REGIAO_CIDADE_min": "Campo Limpo Paulista_Campo Limpo Paulista_Guarulhos" }, "geometry": { "type": "Point", "coordinates": [ -46.7984261, -23.2141901 ] } },
{ "type": "Feature", "properties": { "CNPJ": "39437028000126", "IDCIDADE": "CAMPO_LIMPO_PAULISTA", "NOMEFANTASIA": "BIGUI_ARTES_E_BALOES", "RAZAOSOCIAL": "BIGUI_ARTES_E_BALOES", "ENDEE": "RUA_COLIBRI_197_JARDIM_SANTA_LUCIA_13236-170_CAMPO_LIMPO_PAULISTA", "LMAPS": "https://www.google.com/maps?q=&layer=c&cbll=-23.2127087,-46.7968063", "O_QUE_FAZER": "APLICAR T2", "ER_REGIAO_CIDADE_min": "Campo Limpo Paulista_Campo Limpo Paulista_Guarulhos" }, "geometry": { "type": "Point", "coordinates": [ -46.7968063, -23.2127087 ] } },
{ "type": "Feature", "properties": { "CNPJ": "42815312000101", "IDCIDADE": "CAMPO_LIMPO_PAULISTA", "NOMEFANTASIA": "CANTINHO_DA_RACAO", "RAZAOSOCIAL": "CANTINHO_DA_RACAO", "ENDEE": "RUA_BRAGANTINA_2560_JARDIM_SANTO_ANTONIO_I_13232-099_CAMPO_LIMPO_PAULISTA", "LMAPS": "https://www.google.com/maps?q=&layer=c&cbll=-23.2123912,-46.7544173", "O_QUE_FAZER": "APLICAR T2", "ER_REGIAO_CIDADE_min": "Campo Limpo Paulista_Campo Limpo Paulista_Guarulhos" }, "geometry": { "type": "Point", "coordinates": [ -46.7544173, -23.2123912 ] } },
{ "type": "Feature", "properties": { "CNPJ": "23852365000140", "IDCIDADE": "CAMPO_LIMPO_PAULISTA", "NOMEFANTASIA": "FERREIRA_AUTO_PECAS", "RAZAOSOCIAL": "FERREIRA_AUTO_PECAS", "ENDEE": "RUA_ANIBAL_LOPES_DA_FONSECA_68_JARDIM_CAMPO_LIMPO_13230-500_CAMPO_LIMPO_PAULISTA", "LMAPS": "https://www.google.com/maps?q=&layer=c&cbll=-23.2106625,-46.7830354", "O_QUE_FAZER": "APLICAR T2", "ER_REGIAO_CIDADE_min": "Campo Limpo Paulista_Campo Limpo Paulista_Guarulhos" }, "geometry": { "type": "Point", "coordinates": [ -46.7830354, -23.2106625 ] } },
{ "type": "Feature", "properties": { "CNPJ": "28425169000102", "IDCIDADE": "CAMPO_LIMPO_PAULISTA", "NOMEFANTASIA": "EMPORIO_DA_RACAO", "RAZAOSOCIAL": "EMPORIO_DA_RACAO", "ENDEE": "RUA_ANIBAL_LOPES_DA_FONSECA_16_JARDIM_CAMPO_LIMPO_13230-500_CAMPO_LIMPO_PAULISTA", "LMAPS": "https://www.google.com/maps?q=&layer=c&cbll=-23.2100802,-46.7832687", "O_QUE_FAZER": "APLICAR T2", "ER_REGIAO_CIDADE_min": "Campo Limpo Paulista_Campo Limpo Paulista_Guarulhos" }, "geometry": { "type": "Point", "coordinates": [ -46.7832687, -23.2100802 ] } },
{ "type": "Feature", "properties": { "CNPJ": "08022613000131", "IDCIDADE": "CAMPO_LIMPO_PAULISTA", "NOMEFANTASIA": "MS_AUTOMACAO_DE_PORTOES", "RAZAOSOCIAL": "MS_AUTOMACAO_DE_PORTOES", "ENDEE": "RUA_ANIBAL_LOPES_DA_FONSECA_702_JARDIM_CAMPO_LIMPO_13230-500_CAMPO_LIMPO_PAULISTA", "LMAPS": "https://www.google.com/maps?q=&layer=c&cbll=-23.2099925,-46.7834082", "O_QUE_FAZER": "APLICAR T2", "ER_REGIAO_CIDADE_min": "Campo Limpo Paulista_Campo Limpo Paulista_Guarulhos" }, "geometry": { "type": "Point", "coordinates": [ -46.7834082, -23.2099925 ] } },
{ "type": "Feature", "properties": { "CNPJ": "46356232000188", "IDCIDADE": "CAMPO_LIMPO_PAULISTA", "NOMEFANTASIA": "AGUA_NA_BOCA_SALGADOS", "RAZAOSOCIAL": "AGUA_NA_BOCA_SALGADOS", "ENDEE": "RUA_PINTASSILGO_185_JARDIM_SANTA_LUCIA_13236-221_CAMPO_LIMPO_PAULISTA", "LMAPS": "https://www.google.com/maps?q=&layer=c&cbll=-23.2099339,-46.79799", "O_QUE_FAZER": "APLICAR T2", "ER_REGIAO_CIDADE_min": "Campo Limpo Paulista_Campo Limpo Paulista_Guarulhos" }, "geometry": { "type": "Point", "coordinates": [ -46.79799, -23.2099339 ] } },
{ "type": "Feature", "properties": { "CNPJ": "60525715000190", "IDCIDADE": "CAMPO_LIMPO_PAULISTA", "NOMEFANTASIA": "RESTAURANTE_MANTOVANI", "RAZAOSOCIAL": "RESTAURANTE_MANTOVANI", "ENDEE": "RUA_PINTASSILGO_301_JARDIM_SANTA_LUCIA_13236-221_CAMPO_LIMPO_PAULISTA", "LMAPS": "https://www.google.com/maps?q=&layer=c&cbll=-23.209852,-46.7979911", "O_QUE_FAZER": "APLICAR T2", "ER_REGIAO_CIDADE_min": "Campo Limpo Paulista_Campo Limpo Paulista_Guarulhos" }, "geometry": { "type": "Point", "coordinates": [ -46.7979911, -23.209852 ] } },
{ "type": "Feature", "properties": { "CNPJ": "35120604000156", "IDCIDADE": "CAMPO_LIMPO_PAULISTA", "NOMEFANTASIA": "BIKE_SHOP_ESTRELA_DOURADA", "RAZAOSOCIAL": "BIKE_SHOP_ESTRELA_DOURADA", "ENDEE": "RUA_RAFAEL_ZULLI_420_JARDIM_SANTO_ANTONIO_II_13232-190_CAMPO_LIMPO_PAULISTA", "LMAPS": "https://www.google.com/maps?q=&layer=c&cbll=-23.2096468,-46.7683873", "O_QUE_FAZER": "APLICAR T2", "ER_REGIAO_CIDADE_min": "Campo Limpo Paulista_Campo Limpo Paulista_Guarulhos" }, "geometry": { "type": "Point", "coordinates": [ -46.7683873, -23.2096468 ] } },
{ "type": "Feature", "properties": { "CNPJ": "11281887000150", "IDCIDADE": "CAMPO_LIMPO_PAULISTA", "NOMEFANTASIA": "CLEO_PULSENA_MODAS", "RAZAOSOCIAL": "CLEO_PULSENA_MODAS", "ENDEE": "AVENIDA_MITIHARU_TANAKA_153_CONJUNTO_HABITACIONAL_SAO_JOSE_13232-250_CAMPO_LIMPO_PAULISTA", "LMAPS": "https://www.google.com/maps?q=&layer=c&cbll=-23.2095699,-46.7625569", "O_QUE_FAZER": "APLICAR T2", "ER_REGIAO_CIDADE_min": "Campo Limpo Paulista_Campo Limpo Paulista_Guarulhos" }, "geometry": { "type": "Point", "coordinates": [ -46.7625569, -23.2095699 ] } },
{ "type": "Feature", "properties": { "CNPJ": "17871094000177", "IDCIDADE": "CAMPO_LIMPO_PAULISTA", "NOMEFANTASIA": "PAPELARIA_DO_PARQUE", "RAZAOSOCIAL": "PAPELARIA_DO_PARQUE", "ENDEE": "AVENIDA_ANDRE_GARCIA_3241_PARQUE_INTERNACIONAL_13232-600_CAMPO_LIMPO_PAULISTA", "LMAPS": "https://www.google.com/maps?q=&layer=c&cbll=-23.2095025,-46.7533528", "O_QUE_FAZER": "APLICAR T2", "ER_REGIAO_CIDADE_min": "Campo Limpo Paulista_Campo Limpo Paulista_Guarulhos" }, "geometry": { "type": "Point", "coordinates": [ -46.7533528, -23.2095025 ] } },
{ "type": "Feature", "properties": { "CNPJ": "59619164000144", "IDCIDADE": "CAMPO_LIMPO_PAULISTA", "NOMEFANTASIA": "CASA_DE_MATERIAIS_FERNANDES", "RAZAOSOCIAL": "CASA_DE_MATERIAIS_FERNANDES", "ENDEE": "AVENIDA_ANDRE_GARCIA_3311_PARQUE_INTERNACIONAL_13232-600_CAMPO_LIMPO_PAULISTA", "LMAPS": "https://www.google.com/maps?q=&layer=c&cbll=-23.2092855,-46.752702", "O_QUE_FAZER": "APLICAR T2", "ER_REGIAO_CIDADE_min": "Campo Limpo Paulista_Campo Limpo Paulista_Guarulhos" }, "geometry": { "type": "Point", "coordinates": [ -46.752702, -23.2092855 ] } },
{ "type": "Feature", "properties": { "CNPJ": "33443842000177", "IDCIDADE": "CAMPO_LIMPO_PAULISTA", "NOMEFANTASIA": "CLEAN_PETS", "RAZAOSOCIAL": "CLEAN_PETS", "ENDEE": "VIA_AMAZONAS_3434_PARQUE_IRAMAIA_13233-213_CAMPO_LIMPO_PAULISTA", "LMAPS": "https://www.google.com/maps?q=&layer=c&cbll=-23.209267,-46.751574", "O_QUE_FAZER": "APLICAR T2", "ER_REGIAO_CIDADE_min": "Campo Limpo Paulista_Campo Limpo Paulista_Guarulhos" }, "geometry": { "type": "Point", "coordinates": [ -46.751574, -23.209267 ] } },
{ "type": "Feature", "properties": { "CNPJ": "36167842000180", "IDCIDADE": "CAMPO_LIMPO_PAULISTA", "NOMEFANTASIA": "CASA_DAS_TRUFAS", "RAZAOSOCIAL": "CASA_DAS_TRUFAS", "ENDEE": "AVENIDA_ANDRE_GARCIA_3335_PARQUE_INTERNACIONAL_13232-600_CAMPO_LIMPO_PAULISTA", "LMAPS": "https://www.google.com/maps?q=&layer=c&cbll=-23.209172,-46.7518999", "O_QUE_FAZER": "APLICAR T2", "ER_REGIAO_CIDADE_min": "Campo Limpo Paulista_Campo Limpo Paulista_Guarulhos" }, "geometry": { "type": "Point", "coordinates": [ -46.7518999, -23.209172 ] } },
{ "type": "Feature", "properties": { "CNPJ": "05073364000115", "IDCIDADE": "CAMPO_LIMPO_PAULISTA", "NOMEFANTASIA": "AGRO_SERV", "RAZAOSOCIAL": "AGRO_SERV", "ENDEE": "AVENIDA_DA_SAUDADE_435_JARDIM_GUANCIALE_13236-070_CAMPO_LIMPO_PAULISTA", "LMAPS": "https://www.google.com/maps?q=&layer=c&cbll=-23.2090005,-46.7978445", "O_QUE_FAZER": "APLICAR T2", "ER_REGIAO_CIDADE_min": "Campo Limpo Paulista_Campo Limpo Paulista_Guarulhos" }, "geometry": { "type": "Point", "coordinates": [ -46.7978445, -23.2090005 ] } },
{ "type": "Feature", "properties": { "CNPJ": "40151842000169", "IDCIDADE": "CAMPO_LIMPO_PAULISTA", "NOMEFANTASIA": "QUERIDAS_PATAS", "RAZAOSOCIAL": "QUERIDAS_PATAS", "ENDEE": "RUA_ANIBAL_LOPES_DA_FONSECA_85_JARDIM_CAMPO_LIMPO_13230-500_CAMPO_LIMPO_PAULISTA", "LMAPS": "https://www.google.com/maps?q=&layer=c&cbll=-23.20899,-46.783808", "O_QUE_FAZER": "APLICAR T2", "ER_REGIAO_CIDADE_min": "Campo Limpo Paulista_Campo Limpo Paulista_Guarulhos" }, "geometry": { "type": "Point", "coordinates": [ -46.783808, -23.20899 ] } },
{ "type": "Feature", "properties": { "CNPJ": "28228387000157", "IDCIDADE": "CAMPO_LIMPO_PAULISTA", "NOMEFANTASIA": "TANIA_FLORES", "RAZAOSOCIAL": "TANIA_FLORES", "ENDEE": "AVENIDA_DA_SAUDADE_381_JARDIM_GUANCIALE_13236-070_CAMPO_LIMPO_PAULISTA", "LMAPS": "https://www.google.com/maps?q=&layer=c&cbll=-23.2080456,-46.7978362", "O_QUE_FAZER": "APLICAR T2", "ER_REGIAO_CIDADE_min": "Campo Limpo Paulista_Campo Limpo Paulista_Guarulhos" }, "geometry": { "type": "Point", "coordinates": [ -46.7978362, -23.2080456 ] } },
{ "type": "Feature", "properties": { "CNPJ": "10969421000189", "IDCIDADE": "CAMPO_LIMPO_PAULISTA", "NOMEFANTASIA": "TORRES_BEER", "RAZAOSOCIAL": "TORRES_BEER", "ENDEE": "RUA_FRANCISCO_MIGUEL_497_CENTRO_13230-001_CAMPO_LIMPO_PAULISTA", "LMAPS": "https://www.google.com/maps?q=&layer=c&cbll=-23.2078964,-46.7846045", "O_QUE_FAZER": "APLICAR T2", "ER_REGIAO_CIDADE_min": "Campo Limpo Paulista_Campo Limpo Paulista_Guarulhos" }, "geometry": { "type": "Point", "coordinates": [ -46.7846045, -23.2078964 ] } },
{ "type": "Feature", "properties": { "CNPJ": "40844681000199", "IDCIDADE": "CAMPO_LIMPO_PAULISTA", "NOMEFANTASIA": "CASA_DE_RACAO_MARCHETTI", "RAZAOSOCIAL": "CASA_DE_RACAO_MARCHETTI", "ENDEE": "ESTRADA_DO_GARCIA_1514_JARDIM_SANTHIAGO_13232-400_CAMPO_LIMPO_PAULISTA", "LMAPS": "https://www.google.com/maps?q=&layer=c&cbll=-23.2063894,-46.766365", "O_QUE_FAZER": "APLICAR T2", "ER_REGIAO_CIDADE_min": "Campo Limpo Paulista_Campo Limpo Paulista_Guarulhos" }, "geometry": { "type": "Point", "coordinates": [ -46.766365, -23.2063894 ] } },
{ "type": "Feature", "properties": { "CNPJ": "41643459000190", "IDCIDADE": "CAMPO_LIMPO_PAULISTA", "NOMEFANTASIA": "LINE_RUN", "RAZAOSOCIAL": "LINE_RUN", "ENDEE": "RUA_MARIA_MAIOLINO_DE_SOUZA_105_CENTRO_13230-020_CAMPO_LIMPO_PAULISTA", "LMAPS": "https://www.google.com/maps?q=&layer=c&cbll=-23.2062144,-46.7882198", "O_QUE_FAZER": "APLICAR T2", "ER_REGIAO_CIDADE_min": "Campo Limpo Paulista_Campo Limpo Paulista_Guarulhos" }, "geometry": { "type": "Point", "coordinates": [ -46.7882198, -23.2062144 ] } },
{ "type": "Feature", "properties": { "CNPJ": "14951812000127", "IDCIDADE": "CAMPO_LIMPO_PAULISTA", "NOMEFANTASIA": "MINI_MERCADO_BOM_DIA", "RAZAOSOCIAL": "MINI_MERCADO_BOM_DIA", "ENDEE": "ESTRADA_DO_GARCIA_1563_JARDIM_SANTHIAGO_13232-400_CAMPO_LIMPO_PAULISTA", "LMAPS": "https://www.google.com/maps?q=&layer=c&cbll=-23.206137,-46.7659618", "O_QUE_FAZER": "APLICAR T2", "ER_REGIAO_CIDADE_min": "Campo Limpo Paulista_Campo Limpo Paulista_Guarulhos" }, "geometry": { "type": "Point", "coordinates": [ -46.7659618, -23.206137 ] } },
{ "type": "Feature", "properties": { "CNPJ": "38225957000109", "IDCIDADE": "CAMPO_LIMPO_PAULISTA", "NOMEFANTASIA": "SISTEMA_CELULARES", "RAZAOSOCIAL": "SISTEMA_CELULARES", "ENDEE": "AVENIDA_ADHERBAL_DA_COSTA_MOREIRA_196_JARDIM_AMERICA_13231-190_CAMPO_LIMPO_PAULISTA", "LMAPS": "https://www.google.com/maps?q=&layer=c&cbll=-23.2057691,-46.7833086", "O_QUE_FAZER": "APLICAR T2", "ER_REGIAO_CIDADE_min": "Campo Limpo Paulista_Campo Limpo Paulista_Guarulhos" }, "geometry": { "type": "Point", "coordinates": [ -46.7833086, -23.2057691 ] } },
{ "type": "Feature", "properties": { "CNPJ": "51173218000189", "IDCIDADE": "CAMPO_LIMPO_PAULISTA", "NOMEFANTASIA": "DANIEL_PISCINAS", "RAZAOSOCIAL": "DANIEL_PISCINAS", "ENDEE": "AVENIDA_ALFRIED_KRUPP_345_CENTRO_13230-060_CAMPO_LIMPO_PAULISTA", "LMAPS": "https://www.google.com/maps?q=&layer=c&cbll=-23.204086,-46.7869902", "O_QUE_FAZER": "APLICAR T2", "ER_REGIAO_CIDADE_min": "Campo Limpo Paulista_Campo Limpo Paulista_Guarulhos" }, "geometry": { "type": "Point", "coordinates": [ -46.7869902, -23.204086 ] } },
{ "type": "Feature", "properties": { "CNPJ": "61280031000138", "IDCIDADE": "CAMPO_LIMPO_PAULISTA", "NOMEFANTASIA": "ADEGA_DO_ALEMAO", "RAZAOSOCIAL": "ADEGA_DO_ALEMAO", "ENDEE": "AVENIDA_ALFRIED_KRUPP_345_CENTRO_13230-060_CAMPO_LIMPO_PAULISTA", "LMAPS": "https://www.google.com/maps?q=&layer=c&cbll=-23.204086,-46.7869902", "O_QUE_FAZER": "APLICAR T2", "ER_REGIAO_CIDADE_min": "Campo Limpo Paulista_Campo Limpo Paulista_Guarulhos" }, "geometry": { "type": "Point", "coordinates": [ -46.7869902, -23.204086 ] } },
{ "type": "Feature", "properties": { "CNPJ": "01782743000123", "IDCIDADE": "CAMPO_LIMPO_PAULISTA", "NOMEFANTASIA": "NISSEI_CALCADOS", "RAZAOSOCIAL": "NISSEI_CALCADOS", "ENDEE": "AVENIDA_ADHERBAL_DA_COSTA_MOREIRA_457_JARDIM_AMERICA_13231-190_CAMPO_LIMPO_PAULISTA", "LMAPS": "https://www.google.com/maps?q=&layer=c&cbll=-23.2035209,-46.7834094", "O_QUE_FAZER": "APLICAR T2", "ER_REGIAO_CIDADE_min": "Campo Limpo Paulista_Campo Limpo Paulista_Guarulhos" }, "geometry": { "type": "Point", "coordinates": [ -46.7834094, -23.2035209 ] } },
{ "type": "Feature", "properties": { "CNPJ": "36247283000118", "IDCIDADE": "CAMPO_LIMPO_PAULISTA", "NOMEFANTASIA": "VERI_VAIDOSA", "RAZAOSOCIAL": "VERI_VAIDOSA", "ENDEE": "AVENIDA_ADHERBAL_DA_COSTA_MOREIRA_548_JARDIM_AMERICA_13231-190_CAMPO_LIMPO_PAULISTA", "LMAPS": "https://www.google.com/maps?q=&layer=c&cbll=-23.2025826,-46.7835432", "O_QUE_FAZER": "APLICAR T2", "ER_REGIAO_CIDADE_min": "Campo Limpo Paulista_Campo Limpo Paulista_Guarulhos" }, "geometry": { "type": "Point", "coordinates": [ -46.7835432, -23.2025826 ] } },
{ "type": "Feature", "properties": { "CNPJ": "29745751000119", "IDCIDADE": "CAMPO_LIMPO_PAULISTA", "NOMEFANTASIA": "VIVENDO_SAUDE", "RAZAOSOCIAL": "VIVENDO_SAUDE", "ENDEE": "AVENIDA_ADHERBAL_DA_COSTA_MOREIRA_538_JARDIM_AMERICA_13231-190_CAMPO_LIMPO_PAULISTA", "LMAPS": "https://www.google.com/maps?q=&layer=c&cbll=-23.2025776,-46.7835108", "O_QUE_FAZER": "APLICAR T2", "ER_REGIAO_CIDADE_min": "Campo Limpo Paulista_Campo Limpo Paulista_Guarulhos" }, "geometry": { "type": "Point", "coordinates": [ -46.7835108, -23.2025776 ] } },
{ "type": "Feature", "properties": { "CNPJ": "01338007000180", "IDCIDADE": "CAMPO_LIMPO_PAULISTA", "NOMEFANTASIA": "LAUDEMIR_DORETTO_ME", "RAZAOSOCIAL": "LAUDEMIR_DORETTO_ME", "ENDEE": "AVENIDA_ADHERBAL_DA_COSTA_MOREIRA_595_JARDIM_AMERICA_13231-190_CAMPO_LIMPO_PAULISTA", "LMAPS": "https://www.google.com/maps?q=&layer=c&cbll=-23.2020936,-46.7840597", "O_QUE_FAZER": "APLICAR T2", "ER_REGIAO_CIDADE_min": "Campo Limpo Paulista_Campo Limpo Paulista_Guarulhos" }, "geometry": { "type": "Point", "coordinates": [ -46.7840597, -23.2020936 ] } },
{ "type": "Feature", "properties": { "CNPJ": "71802169000103", "IDCIDADE": "CAMPO_LIMPO_PAULISTA", "NOMEFANTASIA": "LACERDA_AUTO_PECAS_LTDA", "RAZAOSOCIAL": "LACERDA_AUTO_PECAS_LTDA", "ENDEE": "AVENIDA_MANOEL_TAVARES_DA_SILVA_869_VILA_TAVARES_13230-075_CAMPO_LIMPO_PAULISTA", "LMAPS": "https://www.google.com/maps?q=&layer=c&cbll=-23.2019533,-46.7932047", "O_QUE_FAZER": "APLICAR T2", "ER_REGIAO_CIDADE_min": "Campo Limpo Paulista_Campo Limpo Paulista_Guarulhos" }, "geometry": { "type": "Point", "coordinates": [ -46.7932047, -23.2019533 ] } },
{ "type": "Feature", "properties": { "CNPJ": "66328226000124", "IDCIDADE": "CAMPO_LIMPO_PAULISTA", "NOMEFANTASIA": "MI_PRESENTES", "RAZAOSOCIAL": "MI_PRESENTES", "ENDEE": "AVENIDA_ALFRIED_KRUPP_600_CENTRO_13230-060_CAMPO_LIMPO_PAULISTA", "LMAPS": "https://www.google.com/maps?q=&layer=c&cbll=-23.2017426,-46.7883858", "O_QUE_FAZER": "APLICAR T2", "ER_REGIAO_CIDADE_min": "Campo Limpo Paulista_Campo Limpo Paulista_Guarulhos" }, "geometry": { "type": "Point", "coordinates": [ -46.7883858, -23.2017426 ] } },
{ "type": "Feature", "properties": { "CNPJ": "63309919000181", "IDCIDADE": "CAMPO_LIMPO_PAULISTA", "NOMEFANTASIA": "TREINO_E_VIDA", "RAZAOSOCIAL": "TREINO_E_VIDA", "ENDEE": "AVENIDA_ALFRIED_KRUPP_600_CENTRO_13230-060_CAMPO_LIMPO_PAULISTA", "LMAPS": "https://www.google.com/maps?q=&layer=c&cbll=-23.2017426,-46.7883858", "O_QUE_FAZER": "APLICAR T2", "ER_REGIAO_CIDADE_min": "Campo Limpo Paulista_Campo Limpo Paulista_Guarulhos" }, "geometry": { "type": "Point", "coordinates": [ -46.7883858, -23.2017426 ] } },
{ "type": "Feature", "properties": { "CNPJ": "47303438000102", "IDCIDADE": "CAMPO_LIMPO_PAULISTA", "NOMEFANTASIA": "CARINI_VEICULOS", "RAZAOSOCIAL": "CARINI_VEICULOS", "ENDEE": "AVENIDA_DOM_PEDRO_I_140_CENTRO_13230-070_CAMPO_LIMPO_PAULISTA", "LMAPS": "https://www.google.com/maps?q=&layer=c&cbll=-23.2015857,-46.7936226", "O_QUE_FAZER": "APLICAR T2", "ER_REGIAO_CIDADE_min": "Campo Limpo Paulista_Campo Limpo Paulista_Guarulhos" }, "geometry": { "type": "Point", "coordinates": [ -46.7936226, -23.2015857 ] } },
{ "type": "Feature", "properties": { "CNPJ": "36531638000104", "IDCIDADE": "CAMPO_LIMPO_PAULISTA", "NOMEFANTASIA": "OTICA_KADIMA", "RAZAOSOCIAL": "OTICA_KADIMA", "ENDEE": "AVENIDA_ADHERBAL_DA_COSTA_MOREIRA_748_JARDIM_AMERICA_13231-190_CAMPO_LIMPO_PAULISTA", "LMAPS": "https://www.google.com/maps?q=&layer=c&cbll=-23.2008795,-46.7833261", "O_QUE_FAZER": "APLICAR T2", "ER_REGIAO_CIDADE_min": "Campo Limpo Paulista_Campo Limpo Paulista_Guarulhos" }, "geometry": { "type": "Point", "coordinates": [ -46.7833261, -23.2008795 ] } },
{ "type": "Feature", "properties": { "CNPJ": "42182655000178", "IDCIDADE": "CAMPO_LIMPO_PAULISTA", "NOMEFANTASIA": "THAIS", "RAZAOSOCIAL": "THAIS", "ENDEE": "RUA_NOVE_DE_JULHO_10_VILA_IMAPE_13231-130_CAMPO_LIMPO_PAULISTA", "LMAPS": "https://www.google.com/maps?q=&layer=c&cbll=-23.2006804,-46.7832561", "O_QUE_FAZER": "APLICAR T2", "ER_REGIAO_CIDADE_min": "Campo Limpo Paulista_Campo Limpo Paulista_Guarulhos" }, "geometry": { "type": "Point", "coordinates": [ -46.7832561, -23.2006804 ] } },
{ "type": "Feature", "properties": { "CNPJ": "45136795000106", "IDCIDADE": "CAMPO_LIMPO_PAULISTA", "NOMEFANTASIA": "ARCA_DOCE_SORVETES", "RAZAOSOCIAL": "ARCA_DOCE_SORVETES", "ENDEE": "AVENIDA_ADHERBAL_DA_COSTA_MOREIRA_874_JARDIM_AMERICA_13231-190_CAMPO_LIMPO_PAULISTA", "LMAPS": "https://www.google.com/maps?q=&layer=c&cbll=-23.2000921,-46.7832428", "O_QUE_FAZER": "APLICAR T2", "ER_REGIAO_CIDADE_min": "Campo Limpo Paulista_Campo Limpo Paulista_Guarulhos" }, "geometry": { "type": "Point", "coordinates": [ -46.7832428, -23.2000921 ] } },
{ "type": "Feature", "properties": { "CNPJ": "37764491000157", "IDCIDADE": "CAMPO_LIMPO_PAULISTA", "NOMEFANTASIA": "LB_INFORMATICA", "RAZAOSOCIAL": "LB_INFORMATICA", "ENDEE": "AVENIDA_ADHERBAL_DA_COSTA_MOREIRA_886_JARDIM_AMERICA_13231-190_CAMPO_LIMPO_PAULISTA", "LMAPS": "https://www.google.com/maps?q=&layer=c&cbll=-23.1999154,-46.7832612", "O_QUE_FAZER": "APLICAR T2", "ER_REGIAO_CIDADE_min": "Campo Limpo Paulista_Campo Limpo Paulista_Guarulhos" }, "geometry": { "type": "Point", "coordinates": [ -46.7832612, -23.1999154 ] } },
{ "type": "Feature", "properties": { "CNPJ": "01172630000106", "IDCIDADE": "CAMPO_LIMPO_PAULISTA", "NOMEFANTASIA": "MUNDIAL_PISCINAS", "RAZAOSOCIAL": "MUNDIAL_PISCINAS", "ENDEE": "AVENIDA_ADHERBAL_DA_COSTA_MOREIRA_973_JARDIM_AMERICA_13231-190_CAMPO_LIMPO_PAULISTA", "LMAPS": "https://www.google.com/maps?q=&layer=c&cbll=-23.1989706,-46.7836337", "O_QUE_FAZER": "APLICAR T2", "ER_REGIAO_CIDADE_min": "Campo Limpo Paulista_Campo Limpo Paulista_Guarulhos" }, "geometry": { "type": "Point", "coordinates": [ -46.7836337, -23.1989706 ] } },
{ "type": "Feature", "properties": { "CNPJ": "66509089000124", "IDCIDADE": "CAMPO_LIMPO_PAULISTA", "NOMEFANTASIA": "Q_DONUTS", "RAZAOSOCIAL": "Q_DONUTS", "ENDEE": "RUA_PRIMEIRO_DE_DEZEMBRO_602_JARDIM_MARSOLA_13231-300_CAMPO_LIMPO_PAULISTA", "LMAPS": "https://www.google.com/maps?q=&layer=c&cbll=-23.1978911,-46.778114", "O_QUE_FAZER": "APLICAR T2", "ER_REGIAO_CIDADE_min": "Campo Limpo Paulista_Campo Limpo Paulista_Guarulhos" }, "geometry": { "type": "Point", "coordinates": [ -46.778114, -23.1978911 ] } },
{ "type": "Feature", "properties": { "CNPJ": "04561856000197", "IDCIDADE": "CAMPO_LIMPO_PAULISTA", "NOMEFANTASIA": "DALMAQ__MAQUINAS_E_EQUIPAMENTOS", "RAZAOSOCIAL": "DALMAQ__MAQUINAS_E_EQUIPAMENTOS", "ENDEE": "AVENIDA_ADHERBAL_DA_COSTA_MOREIRA_1094_JARDIM_AMERICA_13231-190_CAMPO_LIMPO_PAULISTA", "LMAPS": "https://www.google.com/maps?q=&layer=c&cbll=-23.1978699,-46.7833934", "O_QUE_FAZER": "APLICAR T2", "ER_REGIAO_CIDADE_min": "Campo Limpo Paulista_Campo Limpo Paulista_Guarulhos" }, "geometry": { "type": "Point", "coordinates": [ -46.7833934, -23.1978699 ] } },
{ "type": "Feature", "properties": { "CNPJ": "07720858000170", "IDCIDADE": "CAMPO_LIMPO_PAULISTA", "NOMEFANTASIA": "BOTIQUE_DO_CHOPP", "RAZAOSOCIAL": "BOUTIQUE_DO_CHOPP", "ENDEE": "NOVE_DE_JULHO_185_VILA_IMAPE_CAMPO_LIMPO_PAULISTA", "LMAPS": "https://www.google.com/maps?q=&layer=c&cbll=-23.2007724,-46.7812018", "O_QUE_FAZER": "APLICAR T2", "ER_REGIAO_CIDADE_min": "Campo Limpo Paulista_Campo Limpo Paulista_Guarulhos" }, "geometry": { "type": "Point", "coordinates": [ -46.7812018, -23.2007724 ] } },
{ "type": "Feature", "properties": { "CNPJ": "33137468000181", "IDCIDADE": "CAMPO_LIMPO_PAULISTA", "NOMEFANTASIA": "CLP_AUTOMOVEIS", "RAZAOSOCIAL": "CLP_AUTOMOVEIS", "ENDEE": "JOAO_AMATO_400_CHACARA_LAGOA_BRANCA_CAMPO_LIMPO_PAULISTA", "LMAPS": "https://www.google.com/maps?q=&layer=c&cbll=-23.2010656,-46.7875543", "O_QUE_FAZER": "APLICAR T2", "ER_REGIAO_CIDADE_min": "Campo Limpo Paulista_Campo Limpo Paulista_Guarulhos" }, "geometry": { "type": "Point", "coordinates": [ -46.7875543, -23.2010656 ] } },
{ "type": "Feature", "properties": { "CNPJ": "13426380000172", "IDCIDADE": "CAMPO_LIMPO_PAULISTA", "NOMEFANTASIA": "DIGICELL", "RAZAOSOCIAL": "DIGI_CELL", "ENDEE": "ADHERBAL_DA_COSTA_MOREIRA_238_JARDIM_AMERICA_CAMPO_LIMPO_PAULISTA", "LMAPS": "https://www.google.com/maps?q=&layer=c&cbll=-23.205518,-46.7831488", "O_QUE_FAZER": "APLICAR T2", "ER_REGIAO_CIDADE_min": "Campo Limpo Paulista_Campo Limpo Paulista_Guarulhos" }, "geometry": { "type": "Point", "coordinates": [ -46.7831488, -23.205518 ] } },
{ "type": "Feature", "properties": { "CNPJ": "17671247000132", "IDCIDADE": "CAMPO_LIMPO_PAULISTA", "NOMEFANTASIA": "MERCADO_MELO", "RAZAOSOCIAL": "SUPERMERCADO_MELLO", "ENDEE": "ANTONIO_DI_GIOIA_565_PARQUE_RESIDENCIAL_CALIFORNIA_CAMPO_LIMPO_PAULISTA", "LMAPS": "https://www.google.com/maps?q=&layer=c&cbll=-23.2128651,-46.7655938", "O_QUE_FAZER": "APLICAR T2", "ER_REGIAO_CIDADE_min": "Campo Limpo Paulista_Campo Limpo Paulista_Guarulhos" }, "geometry": { "type": "Point", "coordinates": [ -46.7655938, -23.2128651 ] } },
{ "type": "Feature", "properties": { "CNPJ": "45218154000192", "IDCIDADE": "CAMPO_LIMPO_PAULISTA", "NOMEFANTASIA": "ARENA_MOTOS", "RAZAOSOCIAL": "ARENA_MOTOS", "ENDEE": "ANTONIO_DI_GIOIA_814_PARQUE_RESIDENCIAL_CALIFORNIA_CAMPO_LIMPO_PAULISTA", "LMAPS": "https://www.google.com/maps?q=&layer=c&cbll=-23.2154667,-46.7647898", "O_QUE_FAZER": "APLICAR T2", "ER_REGIAO_CIDADE_min": "Campo Limpo Paulista_Campo Limpo Paulista_Guarulhos" }, "geometry": { "type": "Point", "coordinates": [ -46.7647898, -23.2154667 ] } },
{ "type": "Feature", "properties": { "CNPJ": "59921174000130", "IDCIDADE": "CAMPO_LIMPO_PAULISTA", "NOMEFANTASIA": "CAROL_PETS", "RAZAOSOCIAL": "CAROL_PETS", "ENDEE": "BRASIL_35_JARDIM_EUROPA_CAMPO_LIMPO_PAULISTA", "LMAPS": "https://www.google.com/maps?q=&layer=c&cbll=-23.21465,-46.7690109", "O_QUE_FAZER": "APLICAR T2", "ER_REGIAO_CIDADE_min": "Campo Limpo Paulista_Campo Limpo Paulista_Guarulhos" }, "geometry": { "type": "Point", "coordinates": [ -46.7690109, -23.21465 ] } },
{ "type": "Feature", "properties": { "CNPJ": "58345420000190", "IDCIDADE": "CAMPO_LIMPO_PAULISTA", "NOMEFANTASIA": "PAULINHO_MOTOS", "RAZAOSOCIAL": "PAULINHO_MOTOS", "ENDEE": "ANTONIO_DI_GIOIA_602_PARQUE_RESIDENCIAL_CALIFORNIA_CAMPO_LIMPO_PAULISTA", "LMAPS": "https://www.google.com/maps?q=&layer=c&cbll=-23.2137518,-46.7655275", "O_QUE_FAZER": "APLICAR T2", "ER_REGIAO_CIDADE_min": "Campo Limpo Paulista_Campo Limpo Paulista_Guarulhos" }, "geometry": { "type": "Point", "coordinates": [ -46.7655275, -23.2137518 ] } },
{ "type": "Feature", "properties": { "CNPJ": "17059823000195", "IDCIDADE": "CAMPO_LIMPO_PAULISTA", "NOMEFANTASIA": "BRECHO_DA__PATRICINHA", "RAZAOSOCIAL": "BRECHO_DA__PATRICINHA", "ENDEE": "FRANCA_10_JARDIM_EUROPA_CAMPO_LIMPO_PAULISTA", "LMAPS": "https://www.google.com/maps?q=&layer=c&cbll=-23.2125152,-46.7714982", "O_QUE_FAZER": "APLICAR T2", "ER_REGIAO_CIDADE_min": "Campo Limpo Paulista_Campo Limpo Paulista_Guarulhos" }, "geometry": { "type": "Point", "coordinates": [ -46.7714982, -23.2125152 ] } },
{ "type": "Feature", "properties": { "CNPJ": "16758107000133", "IDCIDADE": "CAMPO_LIMPO_PAULISTA", "NOMEFANTASIA": "MERCADO_LEAL", "RAZAOSOCIAL": "MERCADO_LEAL", "ENDEE": "ALEMANHA_347_JARDIM_EUROPA_CAMPO_LIMPO_PAULISTA", "LMAPS": "https://www.google.com/maps?q=&layer=c&cbll=-23.2124529,-46.7702998", "O_QUE_FAZER": "APLICAR T2", "ER_REGIAO_CIDADE_min": "Campo Limpo Paulista_Campo Limpo Paulista_Guarulhos" }, "geometry": { "type": "Point", "coordinates": [ -46.7702998, -23.2124529 ] } },
{ "type": "Feature", "properties": { "CNPJ": "24465861000103", "IDCIDADE": "CAMPO_LIMPO_PAULISTA", "NOMEFANTASIA": "MARRY_LANCHES", "RAZAOSOCIAL": "MARRY_LANCHES", "ENDEE": "ANTONIO_DI_GIOIA_469_PARQUE_RESIDENCIAL_CALIFORNIA_CAMPO_LIMPO_PAULISTA", "LMAPS": "https://www.google.com/maps?q=&layer=c&cbll=-23.2121531,-46.7656637", "O_QUE_FAZER": "APLICAR T2", "ER_REGIAO_CIDADE_min": "Campo Limpo Paulista_Campo Limpo Paulista_Guarulhos" }, "geometry": { "type": "Point", "coordinates": [ -46.7656637, -23.2121531 ] } },
{ "type": "Feature", "properties": { "CNPJ": "63296771000198", "IDCIDADE": "CAMPO_LIMPO_PAULISTA", "NOMEFANTASIA": "CACAUZINHA_SAO_JOSE", "RAZAOSOCIAL": "CACAU_SHOW_CORAL_120", "ENDEE": "BRAGANTINA_1151_JARDIM_SANTO_ANTONIO_I_CAMPO_LIMPO_PAULISTA", "LMAPS": "https://www.google.com/maps?q=&layer=c&cbll=-23.207808,-46.7620568", "O_QUE_FAZER": "APLICAR T2", "ER_REGIAO_CIDADE_min": "Campo Limpo Paulista_Campo Limpo Paulista_Guarulhos" }, "geometry": { "type": "Point", "coordinates": [ -46.7620568, -23.207808 ] } },
{ "type": "Feature", "properties": { "CNPJ": "64062039000116", "IDCIDADE": "CAMPO_LIMPO_PAULISTA", "NOMEFANTASIA": "HARD_BLACK_CAFE", "RAZAOSOCIAL": "HARD_BLACK_CAFE", "ENDEE": "BRAGANTINA_1151_JARDIM_SANTO_ANTONIO_I_CAMPO_LIMPO_PAULISTA", "LMAPS": "https://www.google.com/maps?q=&layer=c&cbll=-23.207808,-46.7620568", "O_QUE_FAZER": "APLICAR T2", "ER_REGIAO_CIDADE_min": "Campo Limpo Paulista_Campo Limpo Paulista_Guarulhos" }, "geometry": { "type": "Point", "coordinates": [ -46.7620568, -23.207808 ] } },
{ "type": "Feature", "properties": { "CNPJ": "41818466000186", "IDCIDADE": "CAMPO_LIMPO_PAULISTA", "NOMEFANTASIA": "WEDS_MOTOS", "RAZAOSOCIAL": "WEDS_MOTOS", "ENDEE": "DO_GARCIA_99_JARDIM_SANTHIAGO_CAMPO_LIMPO_PAULISTA", "LMAPS": "https://www.google.com/maps?q=&layer=c&cbll=-23.2074693,-46.7703012", "O_QUE_FAZER": "APLICAR T2", "ER_REGIAO_CIDADE_min": "Campo Limpo Paulista_Campo Limpo Paulista_Guarulhos" }, "geometry": { "type": "Point", "coordinates": [ -46.7703012, -23.2074693 ] } },
{ "type": "Feature", "properties": { "CNPJ": "65123877000115", "IDCIDADE": "CAMPO_LIMPO_PAULISTA", "NOMEFANTASIA": "OGUM_SETE_MARES", "RAZAOSOCIAL": "OGUM_SETE_MARES", "ENDEE": "DOS_EMANCIPADORES_134_CENTRO_CAMPO_LIMPO_PAULISTA", "LMAPS": "https://www.google.com/maps?q=&layer=c&cbll=-23.2061905,-46.7825075", "O_QUE_FAZER": "APLICAR T2", "ER_REGIAO_CIDADE_min": "Campo Limpo Paulista_Campo Limpo Paulista_Guarulhos" }, "geometry": { "type": "Point", "coordinates": [ -46.7825075, -23.2061905 ] } },
{ "type": "Feature", "properties": { "CNPJ": "48278215000103", "IDCIDADE": "CAMPO_LIMPO_PAULISTA", "NOMEFANTASIA": "P_MAX", "RAZAOSOCIAL": "P_MAX", "ENDEE": "DOS_EMANCIPADORES_107_CENTRO_CAMPO_LIMPO_PAULISTA", "LMAPS": "https://www.google.com/maps?q=&layer=c&cbll=-23.2060971,-46.7848686", "O_QUE_FAZER": "APLICAR T2", "ER_REGIAO_CIDADE_min": "Campo Limpo Paulista_Campo Limpo Paulista_Guarulhos" }, "geometry": { "type": "Point", "coordinates": [ -46.7848686, -23.2060971 ] } },
{ "type": "Feature", "properties": { "CNPJ": "39255087000183", "IDCIDADE": "CAMPO_LIMPO_PAULISTA", "NOMEFANTASIA": "MENU_DA_CARNE", "RAZAOSOCIAL": "MENU_DA_CARNE", "ENDEE": "DOS_EMANCIPADORES_34_CENTRO_CAMPO_LIMPO_PAULISTA", "LMAPS": "https://www.google.com/maps?q=&layer=c&cbll=-23.2058405,-46.7831898", "O_QUE_FAZER": "APLICAR T2", "ER_REGIAO_CIDADE_min": "Campo Limpo Paulista_Campo Limpo Paulista_Guarulhos" }, "geometry": { "type": "Point", "coordinates": [ -46.7831898, -23.2058405 ] } },
{ "type": "Feature", "properties": { "CNPJ": "57133876000123", "IDCIDADE": "CAMPO_LIMPO_PAULISTA", "NOMEFANTASIA": "MARZE_BAKERY", "RAZAOSOCIAL": "MARZE_BAKERY", "ENDEE": "JOAO_AMATO_1011_CHACARA_LAGOA_BRANCA_CAMPO_LIMPO_PAULISTA", "LMAPS": "https://www.google.com/maps?q=&layer=c&cbll=-23.2010186,-46.7888178", "O_QUE_FAZER": "APLICAR T2", "ER_REGIAO_CIDADE_min": "Campo Limpo Paulista_Campo Limpo Paulista_Guarulhos" }, "geometry": { "type": "Point", "coordinates": [ -46.7888178, -23.2010186 ] } },
{ "type": "Feature", "properties": { "CNPJ": "17777339000100", "IDCIDADE": "CAMPO_LIMPO_PAULISTA", "NOMEFANTASIA": "CABANA_POR_DO_SOL", "RAZAOSOCIAL": "CABANA_POR_DO_SOL", "ENDEE": "JOAO_AMATO_2001_CHACARA_LAGOA_BRANCA_CAMPO_LIMPO_PAULISTA", "LMAPS": "https://www.google.com/maps?q=&layer=c&cbll=-23.2008002,-46.7957668", "O_QUE_FAZER": "APLICAR T2", "ER_REGIAO_CIDADE_min": "Campo Limpo Paulista_Campo Limpo Paulista_Guarulhos" }, "geometry": { "type": "Point", "coordinates": [ -46.7957668, -23.2008002 ] } },
{ "type": "Feature", "properties": { "CNPJ": "57974533000191", "IDCIDADE": "CAMPO_LIMPO_PAULISTA", "NOMEFANTASIA": "OBELISCO", "RAZAOSOCIAL": "OBELISCO", "ENDEE": "GROELANDIA_222_JARDIM_AMERICA_CAMPO_LIMPO_PAULISTA", "LMAPS": "https://www.google.com/maps?q=&layer=c&cbll=-23.2005993,-46.7847713", "O_QUE_FAZER": "APLICAR T2", "ER_REGIAO_CIDADE_min": "Campo Limpo Paulista_Campo Limpo Paulista_Guarulhos" }, "geometry": { "type": "Point", "coordinates": [ -46.7847713, -23.2005993 ] } },
{ "type": "Feature", "properties": { "CNPJ": "55062923000160", "IDCIDADE": "CAMPO_LIMPO_PAULISTA", "NOMEFANTASIA": "CLUB_GELADO", "RAZAOSOCIAL": "CLUB_GELADO", "ENDEE": "NICARAGUA_373_JARDIM_AMERICA_CAMPO_LIMPO_PAULISTA", "LMAPS": "https://www.google.com/maps?q=&layer=c&cbll=-23.2003246,-46.7862646", "O_QUE_FAZER": "APLICAR T2", "ER_REGIAO_CIDADE_min": "Campo Limpo Paulista_Campo Limpo Paulista_Guarulhos" }, "geometry": { "type": "Point", "coordinates": [ -46.7862646, -23.2003246 ] } },
{ "type": "Feature", "properties": { "CNPJ": "58187313000180", "IDCIDADE": "CAMPO_LIMPO_PAULISTA", "NOMEFANTASIA": "SUPERMERCADO_MARSOLA", "RAZAOSOCIAL": "SUPERMERCADO_MARSOLA", "ENDEE": "PRIMEIRO_DE_DEZEMBRO_110_JARDIM_MARSOLA_CAMPO_LIMPO_PAULISTA", "LMAPS": "https://www.google.com/maps?q=&layer=c&cbll=-23.2001187,-46.7821876", "O_QUE_FAZER": "APLICAR T2", "ER_REGIAO_CIDADE_min": "Campo Limpo Paulista_Campo Limpo Paulista_Guarulhos" }, "geometry": { "type": "Point", "coordinates": [ -46.7821876, -23.2001187 ] } },
{ "type": "Feature", "properties": { "CNPJ": "41828598000199", "IDCIDADE": "CAMPO_LIMPO_PAULISTA", "NOMEFANTASIA": "GASPAR_DISTRIBUIDORA", "RAZAOSOCIAL": "GASPAR_DISTRIBUIDORA", "ENDEE": "CANADA_211_JARDIM_AMERICA_CAMPO_LIMPO_PAULISTA", "LMAPS": "https://www.google.com/maps?q=&layer=c&cbll=-23.1950491,-46.7938116", "O_QUE_FAZER": "APLICAR T2", "ER_REGIAO_CIDADE_min": "Campo Limpo Paulista_Campo Limpo Paulista_Guarulhos" }, "geometry": { "type": "Point", "coordinates": [ -46.7938116, -23.1950491 ] } },
{ "type": "Feature", "properties": { "CNPJ": "60982990000132", "IDCIDADE": "CAMPO_LIMPO_PAULISTA", "NOMEFANTASIA": "MERCADINHO_PRIMAVERA", "RAZAOSOCIAL": "MERCADINHO_PRIMAVERA", "ENDEE": "RUA_ALEMANHA_775_JARDIM_EUROPA_13232-030_CAMPO_LIMPO_PAULISTA", "LMAPS": "https://www.google.com/maps?q=&layer=c&cbll=-23.216233,-46.7686777", "O_QUE_FAZER": "APLICAR T3", "ER_REGIAO_CIDADE_min": "Campo Limpo Paulista_Campo Limpo Paulista_Guarulhos" }, "geometry": { "type": "Point", "coordinates": [ -46.7686777, -23.216233 ] } },
{ "type": "Feature", "properties": { "CNPJ": "51824873000150", "IDCIDADE": "CAMPO_LIMPO_PAULISTA", "NOMEFANTASIA": "PADARIA_GALATA", "RAZAOSOCIAL": "PADARIA_GALATA", "ENDEE": "RUA_BRAGANTINA_2576_JARDIM_SANTO_ANTONIO_I_13232-099_CAMPO_LIMPO_PAULISTA", "LMAPS": "https://www.google.com/maps?q=&layer=c&cbll=-23.2123698,-46.754241", "O_QUE_FAZER": "APLICAR T3", "ER_REGIAO_CIDADE_min": "Campo Limpo Paulista_Campo Limpo Paulista_Guarulhos" }, "geometry": { "type": "Point", "coordinates": [ -46.754241, -23.2123698 ] } },
{ "type": "Feature", "properties": { "CNPJ": "33253859000161", "IDCIDADE": "CAMPO_LIMPO_PAULISTA", "NOMEFANTASIA": "MICHELE_ALVARES_DE_SOUZA_29657084806", "RAZAOSOCIAL": "MIEMI_CONFECCOES", "ENDEE": "RUA_CAMPOS_SALLES144__CENTRO_13230-005", "LMAPS": "https://www.google.com/maps?q=&layer=c&cbll=-46.7892998,-23.2057967", "O_QUE_FAZER": "FINALIZADO", "ER_REGIAO_CIDADE_min": "Campo Limpo Paulista_Campo Limpo Paulista_Guarulhos" }, "geometry": { "type": "Point", "coordinates": [ -46.7892998, -23.2057967 ] } },
{ "type": "Feature", "properties": { "CNPJ": "47898194000158", "IDCIDADE": "CAMPO_LIMPO_PAULISTA", "NOMEFANTASIA": "47.898.194_SUSETE_MARIA_DA_CUNHA_TELES_PEREIRA", "RAZAOSOCIAL": "SUSETE_MARIA_DA_CUNHA_TELES_PEREIRA", "ENDEE": "AVENIDA_ADHERBAL_DA_COSTA_MOREIRA988__JARDIM_AMERICA_13231-190", "LMAPS": "https://www.google.com/maps?q=&layer=c&cbll=-46.7832056,-23.1987694", "O_QUE_FAZER": "FINALIZADO", "ER_REGIAO_CIDADE_min": "Campo Limpo Paulista_Campo Limpo Paulista_Guarulhos" }, "geometry": { "type": "Point", "coordinates": [ -46.7832056, -23.1987694 ] } },
{ "type": "Feature", "properties": { "CNPJ": "37401732000101", "IDCIDADE": "CAMPO_LIMPO_PAULISTA", "NOMEFANTASIA": "37.401.732_KETLIN_FERREIRA_SANTOS", "RAZAOSOCIAL": "37.401.732_KETLIN_FERREIRA_SANTOS", "ENDEE": "RUA_ANTONIO_JEREMIAS312__CONJUNTO_HABITACIONAL_SAO_JOSE_13232-265", "LMAPS": "https://www.google.com/maps?q=&layer=c&cbll=-46.7625598,-23.2129907", "O_QUE_FAZER": "FINALIZADO", "ER_REGIAO_CIDADE_min": "Campo Limpo Paulista_Campo Limpo Paulista_Guarulhos" }, "geometry": { "type": "Point", "coordinates": [ -46.7625598, -23.2129907 ] } },
{ "type": "Feature", "properties": { "CNPJ": "58998538000117", "IDCIDADE": "CAMPO_LIMPO_PAULISTA", "NOMEFANTASIA": "58.998.538_MURILO_HENRIQUE_AMANCIO_DE_MORAES", "RAZAOSOCIAL": "58.998.538_MURILO_HENRIQUE_AMANCIO_DE_MORAES", "ENDEE": "RUA_SEBASTIAO_BAPTISTA_DE_OLIVEIRA6__CONJUNTO_HABITACIONAL_SAO_JOSE_13232-272", "LMAPS": "https://www.google.com/maps?q=&layer=c&cbll=-46.7610134,-23.2136093", "O_QUE_FAZER": "FINALIZADO", "ER_REGIAO_CIDADE_min": "Campo Limpo Paulista_Campo Limpo Paulista_Guarulhos" }, "geometry": { "type": "Point", "coordinates": [ -46.7610134, -23.2136093 ] } },
{ "type": "Feature", "properties": { "CNPJ": "60493469000131", "IDCIDADE": "CAMPO_LIMPO_PAULISTA", "NOMEFANTASIA": "60.493.469_EMILIN_PRISCILA_CORDEIRO_FERREIRA", "RAZAOSOCIAL": "60.493.469_EMILIN_PRISCILA_CORDEIRO_FERREIRA", "ENDEE": "AVENIDA_ANDRE_GARCIA3235__PARQUE_INTERNACIONAL_13232-600", "LMAPS": "https://www.google.com/maps?q=&layer=c&cbll=-46.7534757,-23.2094851", "O_QUE_FAZER": "FINALIZADO", "ER_REGIAO_CIDADE_min": "Campo Limpo Paulista_Campo Limpo Paulista_Guarulhos" }, "geometry": { "type": "Point", "coordinates": [ -46.7534757, -23.2094851 ] } },
{ "type": "Feature", "properties": { "CNPJ": "46387344000104", "IDCIDADE": "CAMPO_LIMPO_PAULISTA", "NOMEFANTASIA": "EDISON_ROBERTO_MANZATO_26922864808", "RAZAOSOCIAL": "EDISON_ROBERTO_MANZATO_26922864808", "ENDEE": "RUA_SERGIO_ALEXANDRE_BORIM349__JARDIM_GUANCIALE_13236-100", "LMAPS": "https://www.google.com/maps?q=&layer=c&cbll=-46.8000306,-23.2091458", "O_QUE_FAZER": "FINALIZADO", "ER_REGIAO_CIDADE_min": "Campo Limpo Paulista_Campo Limpo Paulista_Guarulhos" }, "geometry": { "type": "Point", "coordinates": [ -46.8000306, -23.2091458 ] } },
{ "type": "Feature", "properties": { "CNPJ": "56257072000173", "IDCIDADE": "CAMPO_LIMPO_PAULISTA", "NOMEFANTASIA": "56.257.072_JOYCE_SOUZA_CASTRO_MIRANDA", "RAZAOSOCIAL": "LUMIA", "ENDEE": "RUA_YOLANDA_ROSSI_DALBELO10__JARDIM_GUANCIALE_13236-121", "LMAPS": "https://www.google.com/maps?q=&layer=c&cbll=-46.7965876,-23.2045369", "O_QUE_FAZER": "FINALIZADO", "ER_REGIAO_CIDADE_min": "Campo Limpo Paulista_Campo Limpo Paulista_Guarulhos" }, "geometry": { "type": "Point", "coordinates": [ -46.7965876, -23.2045369 ] } },
{ "type": "Feature", "properties": { "CNPJ": "43542553000189", "IDCIDADE": "CAMPO_LIMPO_PAULISTA", "NOMEFANTASIA": "L._A._DO_NASCIMENTO_ENGENHARIA", "RAZAOSOCIAL": "L._A._DO_NASCIMENTO_ENGENHARIA", "ENDEE": "RUA_ARAPONGAS417__JARDIM_SANTA_LUCIA_13236-184", "LMAPS": "https://www.google.com/maps?q=&layer=c&cbll=-46.8011989,-23.2117526", "O_QUE_FAZER": "FINALIZADO", "ER_REGIAO_CIDADE_min": "Campo Limpo Paulista_Campo Limpo Paulista_Guarulhos" }, "geometry": { "type": "Point", "coordinates": [ -46.8011989, -23.2117526 ] } },
{ "type": "Feature", "properties": { "CNPJ": "03754494000198", "IDCIDADE": "CAMPO_LIMPO_PAULISTA", "NOMEFANTASIA": "JOSEFA_ZELITA_DA_CRUZ", "RAZAOSOCIAL": "AR_INSTRUMENTO__CIRURGICO", "ENDEE": "RUA_DIJANIRO_BARROS_DOS_SANTOS60__JARDIM_SOLANGE_13236-411", "LMAPS": "https://www.google.com/maps?q=&layer=c&cbll=-46.7949122,-23.2091078", "O_QUE_FAZER": "FINALIZADO", "ER_REGIAO_CIDADE_min": "Campo Limpo Paulista_Campo Limpo Paulista_Guarulhos" }, "geometry": { "type": "Point", "coordinates": [ -46.7949122, -23.2091078 ] } },
{ "type": "Feature", "properties": { "CNPJ": "57763984000180", "IDCIDADE": "FERNANDO_PRESTES", "NOMEFANTASIA": "-", "RAZAOSOCIAL": "57.763.984_NATALI_DA_SILVA_BARDELLA", "ENDEE": "RUA_EDSON_GONCALVES_DO_NASCIMENTO_175_CONJUNTO_HABITACIONAL_SAO_JOSE_13232-291_CAMPO_LIMPO_PAULISTA", "LMAPS": "https://www.google.com/maps?q=&layer=c&cbll=-23.2169738,-46.7615522", "O_QUE_FAZER": "FINALIZADO", "ER_REGIAO_CIDADE_min": "Campo Limpo Paulista_Campo Limpo Paulista_Guarulhos" }, "geometry": { "type": "Point", "coordinates": [ -46.7615522, -23.2169738 ] } },
{ "type": "Feature", "properties": { "CNPJ": "61902866000182", "IDCIDADE": "CAMPO_LIMPO_PAULISTA", "NOMEFANTASIA": "TAPECARIA_PONTUAL", "RAZAOSOCIAL": "61.902.866_CHARLES_FABIANO_DE_SOUZA_PEREIRA", "ENDEE": "BRAGANTINA_1090_JARDIM_SANTO_ANTONIO_I_CAMPO_LIMPO_PAULISTA_13232-099", "LMAPS": "https://www.google.com/maps?q=&layer=c&cbll=-23.2084818,-46.7624203", "O_QUE_FAZER": "FINALIZADO", "ER_REGIAO_CIDADE_min": "Campo Limpo Paulista_Campo Limpo Paulista_Guarulhos" }, "geometry": { "type": "Point", "coordinates": [ -46.7624203, -23.2084818 ] } },
{ "type": "Feature", "properties": { "CNPJ": "33941697000154", "IDCIDADE": "CAMPO_LIMPO_PAULISTA", "NOMEFANTASIA": "FRAN_CELL", "RAZAOSOCIAL": "FRAN_CELL", "ENDEE": "AVENIDA_MITIHARU_TANAKA_228_CONJUNTO_HABITACIONAL_SAO_JOSE_13232-250_CAMPO_LIMPO_PAULISTA", "LMAPS": "https://www.google.com/maps?q=&layer=c&cbll=-23.2103104,-46.7624536", "O_QUE_FAZER": "FINALIZADO", "ER_REGIAO_CIDADE_min": "Campo Limpo Paulista_Campo Limpo Paulista_Guarulhos" }, "geometry": { "type": "Point", "coordinates": [ -46.7624536, -23.2103104 ] } },
{ "type": "Feature", "properties": { "CNPJ": "72002108000124", "IDCIDADE": "CAMPO_LIMPO_PAULISTA", "NOMEFANTASIA": "TUPI_BATERIAS", "RAZAOSOCIAL": "TUPI_BATERIAS", "ENDEE": "RUA_PRIMEIRO_DE_DEZEMBRO_52_JARDIM_MARSOLA_13231-300_CAMPO_LIMPO_PAULISTA", "LMAPS": "https://www.google.com/maps?q=&layer=c&cbll=-23.2004244,-46.7825942", "O_QUE_FAZER": "FINALIZADO", "ER_REGIAO_CIDADE_min": "Campo Limpo Paulista_Campo Limpo Paulista_Guarulhos" }, "geometry": { "type": "Point", "coordinates": [ -46.7825942, -23.2004244 ] } },
{ "type": "Feature", "properties": { "CNPJ": "59066718000123", "IDCIDADE": "CAMPO_LIMPO_PAULISTA", "NOMEFANTASIA": "JC_CLIMATIZACAO_E_REFRIGERACAO", "RAZAOSOCIAL": "JC_CLIMATIZACAO_E_REFRIGERACAO", "ENDEE": "RUA_PRIMEIRO_DE_DEZEMBRO_160_JARDIM_MARSOLA_13231-300_CAMPO_LIMPO_PAULISTA", "LMAPS": "https://www.google.com/maps?q=&layer=c&cbll=-23.1997606,-46.7817528", "O_QUE_FAZER": "FINALIZADO", "ER_REGIAO_CIDADE_min": "Campo Limpo Paulista_Campo Limpo Paulista_Guarulhos" }, "geometry": { "type": "Point", "coordinates": [ -46.7817528, -23.1997606 ] } },
{ "type": "Feature", "properties": { "CNPJ": "62178288000146", "IDCIDADE": "CAMPO_LIMPO_PAULISTA", "NOMEFANTASIA": "BOM_BIFE_PRIME", "RAZAOSOCIAL": "BOM_BIFE_PRIME", "ENDEE": "RUA_PRIMEIRO_DE_DEZEMBRO_170_JARDIM_MARSOLA_13231-300_CAMPO_LIMPO_PAULISTA", "LMAPS": "https://www.google.com/maps?q=&layer=c&cbll=-23.1996601,-46.7817197", "O_QUE_FAZER": "FINALIZADO", "ER_REGIAO_CIDADE_min": "Campo Limpo Paulista_Campo Limpo Paulista_Guarulhos" }, "geometry": { "type": "Point", "coordinates": [ -46.7817197, -23.1996601 ] } },
{ "type": "Feature", "properties": { "CNPJ": "31191207000114", "IDCIDADE": "CAMPO_LIMPO_PAULISTA", "NOMEFANTASIA": "SUPER_BE_DOCES", "RAZAOSOCIAL": "SUPER_BE_DOCES", "ENDEE": "RUA_PRIMEIRO_DE_DEZEMBRO_190_JARDIM_MARSOLA_13231-300_CAMPO_LIMPO_PAULISTA", "LMAPS": "https://www.google.com/maps?q=&layer=c&cbll=-23.1995702,-46.7815043", "O_QUE_FAZER": "FINALIZADO", "ER_REGIAO_CIDADE_min": "Campo Limpo Paulista_Campo Limpo Paulista_Guarulhos" }, "geometry": { "type": "Point", "coordinates": [ -46.7815043, -23.1995702 ] } }
]
}
