{
"type": "FeatureCollection",
"name": "ER_REGIAO_CIDADE_min_Salesópolis_Salesópolis_Alto Tietê",
"crs": { "type": "name", "properties": { "name": "urn:ogc:def:crs:OGC:1.3:CRS84" } },
"xy_coordinate_resolution": 1e-15,
"features": [
{ "type": "Feature", "properties": { "fid": 235190, "CNPJ": "11749174000178", "IDCIDADE": "SALESOPOLIS", "NOMEFANTASIA": "-", "RAZAOSOCIAL": "11.749.174 JOSE LUIZ LOPES JUNIOR", "ENDEE": "AVENIDA_OSAKA_615_JARDIM NIDIA_08970-000_SALESOPOLIS", "LMAPS": "https://www.google.com/maps?q=&layer=c&cbll=-23.5261657,-45.8587943", "O_QUE_FAZER": "FINALIZADO", "ER_REGIAO_CIDADE_min": "Salesópolis_Salesópolis_Alto Tietê" }, "geometry": { "type": "Point", "coordinates": [ -45.8587943, -23.5261657 ] } },
{ "type": "Feature", "properties": { "fid": 275196, "CNPJ": "28909003000161", "IDCIDADE": "SALESOPOLIS", "NOMEFANTASIA": "VILLA_JARDINS_-_COFFEE_&_BAR_LTDA", "RAZAOSOCIAL": "N/A", "ENDEE": "10_PREFEITO_ANTONIO_CAMARGO_PRIMO434__JARDIM_SAO_VICENTE_08970-000", "LMAPS": "https://www.google.com/maps?q=&layer=c&cbll=-45.8569574,-23.5269034", "O_QUE_FAZER": "FINALIZADO", "ER_REGIAO_CIDADE_min": "Salesópolis_Salesópolis_Alto Tietê" }, "geometry": { "type": "Point", "coordinates": [ -45.8569574, -23.5269034 ] } },
{ "type": "Feature", "properties": { "fid": 275350, "CNPJ": "18838129000139", "IDCIDADE": "SALESOPOLIS", "NOMEFANTASIA": "MONICA_APARECIDA_DE_CAMARGO_32832954847", "RAZAOSOCIAL": "FLORICULTURA_DLIRIOS", "ENDEE": "RUA_QUINZE_DE_NOVEMBRO811__CENTRO_08970-000", "LMAPS": "https://www.google.com/maps?q=&layer=c&cbll=-45.8472081,-23.5292679", "O_QUE_FAZER": "FINALIZADO", "ER_REGIAO_CIDADE_min": "Salesópolis_Salesópolis_Alto Tietê" }, "geometry": { "type": "Point", "coordinates": [ -45.8472081, -23.5292679 ] } },
{ "type": "Feature", "properties": { "fid": 275351, "CNPJ": "46999784000104", "IDCIDADE": "SALESOPOLIS", "NOMEFANTASIA": "EMERSON_DOS_SANTOS_PRODUTOS_ALIMENTICIOS", "RAZAOSOCIAL": "MILK_SHAKE_MIX", "ENDEE": "RUA_QUINZE_DE_NOVEMBRO825__CENTRO_08970-000", "LMAPS": "https://www.google.com/maps?q=&layer=c&cbll=-45.8472081,-23.5292679", "O_QUE_FAZER": "FINALIZADO", "ER_REGIAO_CIDADE_min": "Salesópolis_Salesópolis_Alto Tietê" }, "geometry": { "type": "Point", "coordinates": [ -45.8472081, -23.5292679 ] } },
{ "type": "Feature", "properties": { "fid": 275353, "CNPJ": "26347897000118", "IDCIDADE": "SALESOPOLIS", "NOMEFANTASIA": "JOSE_ROBERTO_MARIANO_VENANCIO_27662162869", "RAZAOSOCIAL": "JOAO_E_MARIA_MODA_INFANTIL", "ENDEE": "RUA_QUINZE_DE_NOVEMBRO1101__CENTRO_08970-000", "LMAPS": "https://www.google.com/maps?q=&layer=c&cbll=-45.8441544,-23.5292911", "O_QUE_FAZER": "FINALIZADO", "ER_REGIAO_CIDADE_min": "Salesópolis_Salesópolis_Alto Tietê" }, "geometry": { "type": "Point", "coordinates": [ -45.8441544, -23.5292911 ] } },
{ "type": "Feature", "properties": { "fid": 275401, "CNPJ": "35037649000161", "IDCIDADE": "SALESOPOLIS", "NOMEFANTASIA": "35.037.649_HELDER_CARLOS_DE_OLIVEIRA", "RAZAOSOCIAL": "HCO_MOTOS", "ENDEE": "RUA_QUINZE_DE_NOVEMBRO1022__CENTRO_08970-000", "LMAPS": "https://www.google.com/maps?q=&layer=c&cbll=-45.8447788,-23.5296183", "O_QUE_FAZER": "FINALIZADO", "ER_REGIAO_CIDADE_min": "Salesópolis_Salesópolis_Alto Tietê" }, "geometry": { "type": "Point", "coordinates": [ -45.8447788, -23.5296183 ] } },
{ "type": "Feature", "properties": { "fid": 275402, "CNPJ": "03045474000148", "IDCIDADE": "SALESOPOLIS", "NOMEFANTASIA": "AUTO_ESCOLA_TIETE_S/S_LTDA", "RAZAOSOCIAL": "AUTOESCOLA_TIETE", "ENDEE": "RUA_QUINZE_DE_NOVEMBRO1012__SALESOPOLIS_08970-000", "LMAPS": "https://www.google.com/maps?q=&layer=c&cbll=-45.8449057,-23.5296386", "O_QUE_FAZER": "FINALIZADO", "ER_REGIAO_CIDADE_min": "Salesópolis_Salesópolis_Alto Tietê" }, "geometry": { "type": "Point", "coordinates": [ -45.8449057, -23.5296386 ] } },
{ "type": "Feature", "properties": { "fid": 275409, "CNPJ": "34605795000183", "IDCIDADE": "SALESOPOLIS", "NOMEFANTASIA": "PARAYTINGA_MATERIAIS_PARA_CONSTRUCAO_LTDA", "RAZAOSOCIAL": "PARAYTINGA_MATERIAIS_DE_CONSTRUCAO", "ENDEE": "RUA_QUINZE_DE_NOVEMBRO935__SALESOPOLIS_08970-000", "LMAPS": "https://www.google.com/maps?q=&layer=c&cbll=-45.8457947,-23.5296833", "O_QUE_FAZER": "FINALIZADO", "ER_REGIAO_CIDADE_min": "Salesópolis_Salesópolis_Alto Tietê" }, "geometry": { "type": "Point", "coordinates": [ -45.8457947, -23.5296833 ] } },
{ "type": "Feature", "properties": { "fid": 275414, "CNPJ": "22628357000151", "IDCIDADE": "SALESOPOLIS", "NOMEFANTASIA": "T_&_M_COMERCIO_DE_UTILIDADES_DOMESTICAS_LTDA", "RAZAOSOCIAL": "ARMAZEM_DA_15", "ENDEE": "RUA_QUINZE_DE_NOVEMBRO879__CENTRO_08970-000", "LMAPS": "https://www.google.com/maps?q=&layer=c&cbll=-45.8462234,-23.5297081", "O_QUE_FAZER": "FINALIZADO", "ER_REGIAO_CIDADE_min": "Salesópolis_Salesópolis_Alto Tietê" }, "geometry": { "type": "Point", "coordinates": [ -45.8462234, -23.5297081 ] } },
{ "type": "Feature", "properties": { "fid": 275415, "CNPJ": "30710299000139", "IDCIDADE": "SALESOPOLIS", "NOMEFANTASIA": "MOHAMAD_KASSEN_KHARFAN_JUNIOR", "RAZAOSOCIAL": "GRAN__CASA_MOVEIS", "ENDEE": "RUA_QUINZE_DE_NOVEMBRO893__SALESOPOLIS_08970-000", "LMAPS": "https://www.google.com/maps?q=&layer=c&cbll=-45.8460375,-23.5297128", "O_QUE_FAZER": "FINALIZADO", "ER_REGIAO_CIDADE_min": "Salesópolis_Salesópolis_Alto Tietê" }, "geometry": { "type": "Point", "coordinates": [ -45.8460375, -23.5297128 ] } },
{ "type": "Feature", "properties": { "fid": 275432, "CNPJ": "14824813000100", "IDCIDADE": "SALESOPOLIS", "NOMEFANTASIA": "ERIC_APARECIDO_DA_CRUZ", "RAZAOSOCIAL": "ERIC_AUTOPECAS", "ENDEE": "RUA_QUINZE_DE_NOVEMBRO870__SALESOPOLIS_08970-000", "LMAPS": "https://www.google.com/maps?q=&layer=c&cbll=-45.8463119,-23.5298953", "O_QUE_FAZER": "FINALIZADO", "ER_REGIAO_CIDADE_min": "Salesópolis_Salesópolis_Alto Tietê" }, "geometry": { "type": "Point", "coordinates": [ -45.8463119, -23.5298953 ] } },
{ "type": "Feature", "properties": { "fid": 275443, "CNPJ": "14653311000164", "IDCIDADE": "SALESOPOLIS", "NOMEFANTASIA": "14.653.311_ROSELI_DE_CAMARGO", "RAZAOSOCIAL": "DONA_K_MODAS", "ENDEE": "RUA_QUINZE_DE_NOVEMBRO761__SALESOPOLIS_08970-000", "LMAPS": "https://www.google.com/maps?q=&layer=c&cbll=-45.8473902,-23.5300229", "O_QUE_FAZER": "FINALIZADO", "ER_REGIAO_CIDADE_min": "Salesópolis_Salesópolis_Alto Tietê" }, "geometry": { "type": "Point", "coordinates": [ -45.8473902, -23.5300229 ] } },
{ "type": "Feature", "properties": { "fid": 275457, "CNPJ": "50757689000171", "IDCIDADE": "SALESOPOLIS", "NOMEFANTASIA": "SAPATTOMANIA_LTDA", "RAZAOSOCIAL": "SAPATOMANIA", "ENDEE": "RUA_QUINZE_DE_NOVEMBRO643__CENTRO_08970-000", "LMAPS": "https://www.google.com/maps?q=&layer=c&cbll=-45.8484599,-23.530133", "O_QUE_FAZER": "FINALIZADO", "ER_REGIAO_CIDADE_min": "Salesópolis_Salesópolis_Alto Tietê" }, "geometry": { "type": "Point", "coordinates": [ -45.8484599, -23.530133 ] } },
{ "type": "Feature", "properties": { "fid": 275458, "CNPJ": "36076524000103", "IDCIDADE": "SALESOPOLIS", "NOMEFANTASIA": "CLAUDETE_MORAES_16318482830", "RAZAOSOCIAL": "CACHACARIA_PARAIBUNA", "ENDEE": "RUA_QUINZE_DE_NOVEMBRO760__CENTRO_08970-000", "LMAPS": "https://www.google.com/maps?q=&layer=c&cbll=-45.8475091,-23.5301667", "O_QUE_FAZER": "FINALIZADO", "ER_REGIAO_CIDADE_min": "Salesópolis_Salesópolis_Alto Tietê" }, "geometry": { "type": "Point", "coordinates": [ -45.8475091, -23.5301667 ] } },
{ "type": "Feature", "properties": { "fid": 275459, "CNPJ": "47777349000106", "IDCIDADE": "SALESOPOLIS", "NOMEFANTASIA": "47.777.349_ELAINE_APARECIDA_DE_ALMEIDA", "RAZAOSOCIAL": "CAFE_DA_15", "ENDEE": "RUA_QUINZE_DE_NOVEMBRO760__CENTRO_08970-000", "LMAPS": "https://www.google.com/maps?q=&layer=c&cbll=-45.8475091,-23.5301667", "O_QUE_FAZER": "FINALIZADO", "ER_REGIAO_CIDADE_min": "Salesópolis_Salesópolis_Alto Tietê" }, "geometry": { "type": "Point", "coordinates": [ -45.8475091, -23.5301667 ] } },
{ "type": "Feature", "properties": { "fid": 275460, "CNPJ": "30693977000100", "IDCIDADE": "SALESOPOLIS", "NOMEFANTASIA": "30.693.977_SABRINA_WUO_DE_SOUZA", "RAZAOSOCIAL": "INPORIO_CAMBUCI", "ENDEE": "RUA_QUINZE_DE_NOVEMBRO760__SALESOPOLIS_08970-000", "LMAPS": "https://www.google.com/maps?q=&layer=c&cbll=-45.8475091,-23.5301667", "O_QUE_FAZER": "FINALIZADO", "ER_REGIAO_CIDADE_min": "Salesópolis_Salesópolis_Alto Tietê" }, "geometry": { "type": "Point", "coordinates": [ -45.8475091, -23.5301667 ] } },
{ "type": "Feature", "properties": { "fid": 275461, "CNPJ": "42846564000190", "IDCIDADE": "SALESOPOLIS", "NOMEFANTASIA": "NIKOLAS_RENO", "RAZAOSOCIAL": "NHA_LUZ_MERCADAO", "ENDEE": "RUA_QUINZE_DE_NOVEMBRO760__SALESOPOLIS_08970-000", "LMAPS": "https://www.google.com/maps?q=&layer=c&cbll=-45.8475091,-23.5301667", "O_QUE_FAZER": "FINALIZADO", "ER_REGIAO_CIDADE_min": "Salesópolis_Salesópolis_Alto Tietê" }, "geometry": { "type": "Point", "coordinates": [ -45.8475091, -23.5301667 ] } },
{ "type": "Feature", "properties": { "fid": 275462, "CNPJ": "58840319000105", "IDCIDADE": "SALESOPOLIS", "NOMEFANTASIA": "58.840.319_EVILYN_ALMEIDA_MAS_CARLOS", "RAZAOSOCIAL": "PIZZA_RUSTICA", "ENDEE": "RUA_QUINZE_DE_NOVEMBRO760__SALESOPOLIS_08970-000", "LMAPS": "https://www.google.com/maps?q=&layer=c&cbll=-45.8475091,-23.5301667", "O_QUE_FAZER": "FINALIZADO", "ER_REGIAO_CIDADE_min": "Salesópolis_Salesópolis_Alto Tietê" }, "geometry": { "type": "Point", "coordinates": [ -45.8475091, -23.5301667 ] } },
{ "type": "Feature", "properties": { "fid": 275463, "CNPJ": "31580033000181", "IDCIDADE": "SALESOPOLIS", "NOMEFANTASIA": "31.580.033_KELLY_CRISTINA_DE_SIQUEIRA_SOARES", "RAZAOSOCIAL": "DKL_MODAS", "ENDEE": "RUA_PEDRO_RODRIGUES_DE_CAMARGO129__CENTRO_08970-000", "LMAPS": "https://www.google.com/maps?q=&layer=c&cbll=-45.8467941,-23.5301773", "O_QUE_FAZER": "FINALIZADO", "ER_REGIAO_CIDADE_min": "Salesópolis_Salesópolis_Alto Tietê" }, "geometry": { "type": "Point", "coordinates": [ -45.8467941, -23.5301773 ] } },
{ "type": "Feature", "properties": { "fid": 275464, "CNPJ": "48110476000101", "IDCIDADE": "SALESOPOLIS", "NOMEFANTASIA": "48.110.476_MATHEUS_HENRIQUE_AMORIM_ALVES", "RAZAOSOCIAL": "AMORIM_BARBER", "ENDEE": "RUA_PEDRO_RODRIGUES_DE_CAMARGO125__CENTRO_08970-000", "LMAPS": "https://www.google.com/maps?q=&layer=c&cbll=-45.8468758,-23.5301825", "O_QUE_FAZER": "FINALIZADO", "ER_REGIAO_CIDADE_min": "Salesópolis_Salesópolis_Alto Tietê" }, "geometry": { "type": "Point", "coordinates": [ -45.8468758, -23.5301825 ] } },
{ "type": "Feature", "properties": { "fid": 275471, "CNPJ": "17719292000110", "IDCIDADE": "SALESOPOLIS", "NOMEFANTASIA": "MARIA_HELENA_NEPOMUCENO_DE_FARIAS_94879621820", "RAZAOSOCIAL": "BOX_DUQUEIJO", "ENDEE": "RUA_15760__CENTRO_08970-000", "LMAPS": "https://www.google.com/maps?q=&layer=c&cbll=-45.8484467,-23.530235", "O_QUE_FAZER": "FINALIZADO", "ER_REGIAO_CIDADE_min": "Salesópolis_Salesópolis_Alto Tietê" }, "geometry": { "type": "Point", "coordinates": [ -45.8484467, -23.530235 ] } },
{ "type": "Feature", "properties": { "fid": 275512, "CNPJ": "26011895000153", "IDCIDADE": "SALESOPOLIS", "NOMEFANTASIA": "26.011.895_LAIZA_MOURA_DOS_SANTOS", "RAZAOSOCIAL": "JUNIOR_PHOTO", "ENDEE": "RUA_ALFERES_JOSE_LUIS_DE_CARVALHO341__CENTRO_08970-000", "LMAPS": "https://www.google.com/maps?q=&layer=c&cbll=-45.8467137,-23.5306125", "O_QUE_FAZER": "FINALIZADO", "ER_REGIAO_CIDADE_min": "Salesópolis_Salesópolis_Alto Tietê" }, "geometry": { "type": "Point", "coordinates": [ -45.8467137, -23.5306125 ] } },
{ "type": "Feature", "properties": { "fid": 275514, "CNPJ": "40760137000169", "IDCIDADE": "SALESOPOLIS", "NOMEFANTASIA": "40.760.137_DANILO_PAGANO_ESCAMILLA", "RAZAOSOCIAL": "ESCTECH_ASSISTENCIA_TECNICA_E_ACESSORIOS", "ENDEE": "RUA_NOSSA_SENHORA_DE_FATIMA176__SALESOPOLIS_08970-000", "LMAPS": "https://www.google.com/maps?q=&layer=c&cbll=-45.8475582,-23.530618", "O_QUE_FAZER": "FINALIZADO", "ER_REGIAO_CIDADE_min": "Salesópolis_Salesópolis_Alto Tietê" }, "geometry": { "type": "Point", "coordinates": [ -45.8475582, -23.530618 ] } },
{ "type": "Feature", "properties": { "fid": 275517, "CNPJ": "45564678000135", "IDCIDADE": "SALESOPOLIS", "NOMEFANTASIA": "MIND_CENTRO_DE_ESTUDOS_LTDA", "RAZAOSOCIAL": "MIND", "ENDEE": "RUA_PEDRO_RODRIGUES_DE_CAMARGO204__CENTRO_08970-000", "LMAPS": "https://www.google.com/maps?q=&layer=c&cbll=-45.8467354,-23.5306236", "O_QUE_FAZER": "FINALIZADO", "ER_REGIAO_CIDADE_min": "Salesópolis_Salesópolis_Alto Tietê" }, "geometry": { "type": "Point", "coordinates": [ -45.8467354, -23.5306236 ] } },
{ "type": "Feature", "properties": { "fid": 275524, "CNPJ": "59259799000188", "IDCIDADE": "SALESOPOLIS", "NOMEFANTASIA": "59.259.799_ANDRESSA_CORREA_DE_OLIVEIRA", "RAZAOSOCIAL": "FENIX_MAKE_E_ACESSORIOS", "ENDEE": "RUA_ALFERES_JOSE_LUIS_DE_CARVALHO322__SALESOPOLIS_08970-000", "LMAPS": "https://www.google.com/maps?q=&layer=c&cbll=-45.8468475,-23.5307178", "O_QUE_FAZER": "FINALIZADO", "ER_REGIAO_CIDADE_min": "Salesópolis_Salesópolis_Alto Tietê" }, "geometry": { "type": "Point", "coordinates": [ -45.8468475, -23.5307178 ] } },
{ "type": "Feature", "properties": { "fid": 275528, "CNPJ": "07682518000100", "IDCIDADE": "SALESOPOLIS", "NOMEFANTASIA": "FIORENZZA_MAGAZINE_LTDA", "RAZAOSOCIAL": "FIORENZZA", "ENDEE": "RUA_ALFERES_JOSE_LUIS_DE_CARVALHO252__CENTRO_08970-000", "LMAPS": "https://www.google.com/maps?q=&layer=c&cbll=-45.8470644,-23.5307391", "O_QUE_FAZER": "FINALIZADO", "ER_REGIAO_CIDADE_min": "Salesópolis_Salesópolis_Alto Tietê" }, "geometry": { "type": "Point", "coordinates": [ -45.8470644, -23.5307391 ] } },
{ "type": "Feature", "properties": { "fid": 275537, "CNPJ": "49461800000107", "IDCIDADE": "SALESOPOLIS", "NOMEFANTASIA": "RAYANE_TAMILE_APARECIDA_MIRANDA_DO_ESPIRITO_SANTO_LTDA", "RAZAOSOCIAL": "STILO_MODAS", "ENDEE": "RUA_ALFERES_JOSE_LUIS_DE_CARVALHO310__SALESOPOLIS_08970-000", "LMAPS": "https://www.google.com/maps?q=&layer=c&cbll=-45.8469981,-23.5308217", "O_QUE_FAZER": "FINALIZADO", "ER_REGIAO_CIDADE_min": "Salesópolis_Salesópolis_Alto Tietê" }, "geometry": { "type": "Point", "coordinates": [ -45.8469981, -23.5308217 ] } },
{ "type": "Feature", "properties": { "fid": 275580, "CNPJ": "48843233000182", "IDCIDADE": "SALESOPOLIS", "NOMEFANTASIA": "48.843.233_THAMIRES_RODRIGUES_DOS_SANTOS", "RAZAOSOCIAL": "THAMIRES_RODRIGUES_DOS_SANTOS", "ENDEE": "RUA_EXPEDICIONARIO_ABILIO_DOS_PASSOS224__CENTRO_08970-000", "LMAPS": "https://www.google.com/maps?q=&layer=c&cbll=-45.8461021,-23.5312542", "O_QUE_FAZER": "FINALIZADO", "ER_REGIAO_CIDADE_min": "Salesópolis_Salesópolis_Alto Tietê" }, "geometry": { "type": "Point", "coordinates": [ -45.8461021, -23.5312542 ] } },
{ "type": "Feature", "properties": { "fid": 276175, "CNPJ": "55148450000118", "IDCIDADE": "SALESOPOLIS", "NOMEFANTASIA": "55.148.450_FERNANDO_OLIVEIRA_ALVES", "RAZAOSOCIAL": "FERNANDO_OLIVEIRA_ALVES", "ENDEE": "RUA_SANTA_CATARINA149__FARTURA_08970-000", "LMAPS": "https://www.google.com/maps?q=&layer=c&cbll=-45.8512662,-23.5370477", "O_QUE_FAZER": "FINALIZADO", "ER_REGIAO_CIDADE_min": "Salesópolis_Salesópolis_Alto Tietê" }, "geometry": { "type": "Point", "coordinates": [ -45.8512662, -23.5370477 ] } },
{ "type": "Feature", "properties": { "fid": 308436, "CNPJ": "51544313000141", "IDCIDADE": "SALESOPOLIS", "NOMEFANTASIA": "-", "RAZAOSOCIAL": "51.544.313 FABIO AURELIO DOS SANTOS NASCIMENTO", "ENDEE": "RUA PREFEITO ANTONIO CAMARGO PRIMO, 434, JARDIM SAO VICENTE, 08970-000, SALESÓPOLIS, SP, BRASIL", "LMAPS": "https://www.google.com/maps?q=&layer=c&cbll=-23.5269034,-45.8569574", "O_QUE_FAZER": "CARTEIRA - FAMPE", "ER_REGIAO_CIDADE_min": "Salesópolis_Salesópolis_Alto Tietê" }, "geometry": { "type": "Point", "coordinates": [ -45.8569574, -23.5269034 ] } },
{ "type": "Feature", "properties": { "fid": 308437, "CNPJ": "64086781000161", "IDCIDADE": "SALESOPOLIS", "NOMEFANTASIA": "-", "RAZAOSOCIAL": "64.086.781 ROBSON FELIPE NEPOMUCENO DA SILVA", "ENDEE": "AVENIDA VICTOR WUO, 218, CENTRO, 08970-000, SALESÓPOLIS, SP, BRASIL", "LMAPS": "https://www.google.com/maps?q=&layer=c&cbll=-23.5325133,-45.8496675", "O_QUE_FAZER": "CARTEIRA - FAMPE", "ER_REGIAO_CIDADE_min": "Salesópolis_Salesópolis_Alto Tietê" }, "geometry": { "type": "Point", "coordinates": [ -45.8496675, -23.5325133 ] } },
{ "type": "Feature", "properties": { "fid": 308439, "CNPJ": "59955178000139", "IDCIDADE": "SALESOPOLIS", "NOMEFANTASIA": "-", "RAZAOSOCIAL": "59.955.178 RAFAEL DANTE SIQUEIRA NEPOMUCENO", "ENDEE": "RUA PREFEITO ANTONIO RODRIGUES DE CAMARGO, 634, JARDIM NIDIA, 08970-000, SALESÓPOLIS, SP, BRASIL", "LMAPS": "https://www.google.com/maps?q=&layer=c&cbll=-23.5278057,-45.8566532", "O_QUE_FAZER": "CARTEIRA - FAMPE", "ER_REGIAO_CIDADE_min": "Salesópolis_Salesópolis_Alto Tietê" }, "geometry": { "type": "Point", "coordinates": [ -45.8566532, -23.5278057 ] } }
]
}
