{
"type": "FeatureCollection",
"name": "ER_REGIAO_CIDADE_min_Sabino_Bauru",
"crs": { "type": "name", "properties": { "name": "urn:ogc:def:crs:OGC:1.3:CRS84" } },
"xy_coordinate_resolution": 1e-15,
"features": [
{ "type": "Feature", "properties": { "fid": 35438, "CNPJ": "06020054000103", "IDCIDADE": "SABINO", "NOMEFANTASIA": "PAULO_ROGERIO_GONCALVES", "RAZAOSOCIAL": "SUPERMERCADO_DIA_TODO_TODO_DIA", "ENDEE": "RUA_PRIMEIRO_DE_MAIO1073__JARDIM_IMPERIAL_16440-132", "LMAPS": "https://www.google.com/maps?q=&layer=c&cbll=-21.4607403,-49.5751647", "O_QUE_FAZER": "FINALIZADO", "ER_REGIAO_CIDADE_min": "Sabino_Bauru" }, "geometry": { "type": "Point", "coordinates": [ -49.5751647, -21.4607403 ] } },
{ "type": "Feature", "properties": { "fid": 41361, "CNPJ": "07279894000140", "IDCIDADE": "SABINO", "NOMEFANTASIA": "DIAS_&_CARNEVAL_SUPERMERCADO_LTDA", "RAZAOSOCIAL": "SUPERMERCADO_CARNEVALLI", "ENDEE": "AVENIDA_SETE_DE_SETEMBRO747__CENTRO_16440-045", "LMAPS": "https://www.google.com/maps?q=&layer=c&cbll=-21.459814,-49.5760018", "O_QUE_FAZER": "FINALIZADO", "ER_REGIAO_CIDADE_min": "Sabino_Bauru" }, "geometry": { "type": "Point", "coordinates": [ -49.5760018, -21.459814 ] } },
{ "type": "Feature", "properties": { "fid": 55281, "CNPJ": "09109692000185", "IDCIDADE": "SABINO", "NOMEFANTASIA": "ELAINE_MICHELINI_CIOCCA_DE_LIMA", "RAZAOSOCIAL": "GAS_LIMA", "ENDEE": "RUA_20_DE_JANEIRO815__CENTRO_16440-011", "LMAPS": "https://www.google.com/maps?q=&layer=c&cbll=-21.4617643,-49.577807", "O_QUE_FAZER": "FINALIZADO", "ER_REGIAO_CIDADE_min": "Sabino_Bauru" }, "geometry": { "type": "Point", "coordinates": [ -49.577807, -21.4617643 ] } },
{ "type": "Feature", "properties": { "fid": 65424, "CNPJ": "10719900000147", "IDCIDADE": "SABINO", "NOMEFANTASIA": "SEMPRE_MATERIAIS_DE_CONSTRUCAO_LTDA", "RAZAOSOCIAL": "SEMPRE_MATERIAIS_DE_CONSTRUCAO", "ENDEE": "AVENIDA_SETE_DE_SETEMBRO681__CENTRO_16440-045", "LMAPS": "https://www.google.com/maps?q=&layer=c&cbll=-21.4617603,-49.577847", "O_QUE_FAZER": "FINALIZADO", "ER_REGIAO_CIDADE_min": "Sabino_Bauru" }, "geometry": { "type": "Point", "coordinates": [ -49.577847, -21.4617603 ] } },
{ "type": "Feature", "properties": { "fid": 98938, "CNPJ": "17396511000177", "IDCIDADE": "SABINO", "NOMEFANTASIA": "CLAYTON_LUIZ_D_AVILA_FILHO_37261472840", "RAZAOSOCIAL": "ESPACO_CLAYTON_D'AVILA_&_EVENTOS", "ENDEE": "AVENIDA_OLAVO_BILAC1059__CENTRO_16440-041", "LMAPS": "https://www.google.com/maps?q=&layer=c&cbll=-21.4617551,-49.5827013", "O_QUE_FAZER": "FINALIZADO", "ER_REGIAO_CIDADE_min": "Sabino_Bauru" }, "geometry": { "type": "Point", "coordinates": [ -49.5827013, -21.4617551 ] } },
{ "type": "Feature", "properties": { "fid": 109862, "CNPJ": "19711337000135", "IDCIDADE": "SABINO", "NOMEFANTASIA": "WILLIAM_JOSE_ALVES_BARBOSA", "RAZAOSOCIAL": "PANIFICADORA_GURY", "ENDEE": "AVENIDA_SETE_DE_SETEMBRO926__CENTRO_16440-045", "LMAPS": "https://www.google.com/maps?q=&layer=c&cbll=-21.4617557,-49.5827069", "O_QUE_FAZER": "FINALIZADO", "ER_REGIAO_CIDADE_min": "Sabino_Bauru" }, "geometry": { "type": "Point", "coordinates": [ -49.5827069, -21.4617557 ] } },
{ "type": "Feature", "properties": { "fid": 158348, "CNPJ": "30110284000130", "IDCIDADE": "SABINO", "NOMEFANTASIA": "LISLAINE_DE_OLIVEIRA_39981346896", "RAZAOSOCIAL": "PAIOL_BANHO_E_TOSA", "ENDEE": "AVENIDA_MARECHAL_RONDON871__CENTRO_16440-047", "LMAPS": "https://www.google.com/maps?q=&layer=c&cbll=-21.4631723,-49.5795724", "O_QUE_FAZER": "FINALIZADO", "ER_REGIAO_CIDADE_min": "Sabino_Bauru" }, "geometry": { "type": "Point", "coordinates": [ -49.5795724, -21.4631723 ] } },
{ "type": "Feature", "properties": { "fid": 171704, "CNPJ": "32803601000129", "IDCIDADE": "SABINO", "NOMEFANTASIA": "32.803.601_SILVIA_MORAES_OLIVEIRA", "RAZAOSOCIAL": "TIA_NARA_CAKES_E_DOCES", "ENDEE": "AVENIDA_SETE_DE_SETEMBRO637__CENTRO_16440-045", "LMAPS": "https://www.google.com/maps?q=&layer=c&cbll=-21.4617035,-49.5827647", "O_QUE_FAZER": "FINALIZADO", "ER_REGIAO_CIDADE_min": "Sabino_Bauru" }, "geometry": { "type": "Point", "coordinates": [ -49.5827647, -21.4617035 ] } },
{ "type": "Feature", "properties": { "fid": 172178, "CNPJ": "32899731000107", "IDCIDADE": "SABINO", "NOMEFANTASIA": "32.899.731_CLAUDIA_MONTEIRO_FERREIRA", "RAZAOSOCIAL": "PET_AMIGO_E_CONVENIENCIA", "ENDEE": "RUA_AURORA_ARTERO_ZANI501__HELIO_SAVAZZI_16440-078", "LMAPS": "https://www.google.com/maps?q=&layer=c&cbll=-21.4607457,-49.5751603", "O_QUE_FAZER": "FINALIZADO", "ER_REGIAO_CIDADE_min": "Sabino_Bauru" }, "geometry": { "type": "Point", "coordinates": [ -49.5751603, -21.4607457 ] } },
{ "type": "Feature", "properties": { "fid": 172723, "CNPJ": "33004386000169", "IDCIDADE": "SABINO", "NOMEFANTASIA": "ALESSANDRA_FERNANDA_DOS_SANTOS_VIEIRA", "RAZAOSOCIAL": "MORENA_ROSA", "ENDEE": "RUA_PRIMEIRO_DE_MAIO1066__JARDIM_IMPERIAL_16440-132", "LMAPS": "https://www.google.com/maps?q=&layer=c&cbll=-21.460743,-49.5751654", "O_QUE_FAZER": "FINALIZADO", "ER_REGIAO_CIDADE_min": "Sabino_Bauru" }, "geometry": { "type": "Point", "coordinates": [ -49.5751654, -21.460743 ] } },
{ "type": "Feature", "properties": { "fid": 198158, "CNPJ": "38275898000183", "IDCIDADE": "SABINO", "NOMEFANTASIA": "KELLEN_CRISTINA_VIEIRA_31531442811", "RAZAOSOCIAL": "SOL_DE_VERAO_SORVETERIA", "ENDEE": "RUA_PRIMEIRO_DE_MAIO1066__JARDIM_IMPERIAL_16440-132", "LMAPS": "https://www.google.com/maps?q=&layer=c&cbll=-21.4607412,-49.5751697", "O_QUE_FAZER": "FINALIZADO", "ER_REGIAO_CIDADE_min": "Sabino_Bauru" }, "geometry": { "type": "Point", "coordinates": [ -49.5751697, -21.4607412 ] } },
{ "type": "Feature", "properties": { "fid": 199040, "CNPJ": "38447616000188", "IDCIDADE": "SABINO", "NOMEFANTASIA": "38.447.616_JOSIMARA_MONTEIRO_DOS_REIS", "RAZAOSOCIAL": "JOSI_REIS_MODAS", "ENDEE": "AVENIDA_MARECHAL_RONDON983__CENTRO_16440-047", "LMAPS": "https://www.google.com/maps?q=&layer=c&cbll=-21.4607511,-49.5751624", "O_QUE_FAZER": "FINALIZADO", "ER_REGIAO_CIDADE_min": "Sabino_Bauru" }, "geometry": { "type": "Point", "coordinates": [ -49.5751624, -21.4607511 ] } },
{ "type": "Feature", "properties": { "fid": 231152, "CNPJ": "46090428000173", "IDCIDADE": "SABINO", "NOMEFANTASIA": "46.090.428_ROMARIO_MARTINS_FRANCISCO", "RAZAOSOCIAL": "ROMARIO_MARTINS_BARBEARIA", "ENDEE": "RUA_PRIMEIRO_DE_MAIO153__JARDIM_IMPERIAL_16440-132", "LMAPS": "https://www.google.com/maps?q=&layer=c&cbll=-21.4607434,-49.5751692", "O_QUE_FAZER": "FINALIZADO", "ER_REGIAO_CIDADE_min": "Sabino_Bauru" }, "geometry": { "type": "Point", "coordinates": [ -49.5751692, -21.4607434 ] } },
{ "type": "Feature", "properties": { "fid": 258369, "CNPJ": "51660512000115", "IDCIDADE": "SABINO", "NOMEFANTASIA": "51.660.512_LUIZ_MORALES", "RAZAOSOCIAL": "ARMAZEM_DO_POVO", "ENDEE": "AVENIDA_SETE_DE_SETEMBRO778__CENTRO_16440-045", "LMAPS": "https://www.google.com/maps?q=&layer=c&cbll=-21.4598368,-49.5760247", "O_QUE_FAZER": "FINALIZADO", "ER_REGIAO_CIDADE_min": "Sabino_Bauru" }, "geometry": { "type": "Point", "coordinates": [ -49.5760247, -21.4598368 ] } },
{ "type": "Feature", "properties": { "fid": 261097, "CNPJ": "52215518000146", "IDCIDADE": "SABINO", "NOMEFANTASIA": "52.215.518_IZABEL_CRISTINA_DE_SOUZA_DOS_SANTOS", "RAZAOSOCIAL": "ESPACO_BELL_HAIR", "ENDEE": "RUA_20_DE_JANEIRO948__CENTRO_16440-011", "LMAPS": "https://www.google.com/maps?q=&layer=c&cbll=-21.4608832,-49.578533", "O_QUE_FAZER": "FINALIZADO", "ER_REGIAO_CIDADE_min": "Sabino_Bauru" }, "geometry": { "type": "Point", "coordinates": [ -49.578533, -21.4608832 ] } },
{ "type": "Feature", "properties": { "fid": 268054, "CNPJ": "53751186000187", "IDCIDADE": "SABINO", "NOMEFANTASIA": "DROGARIA_SABINO_LTDA", "RAZAOSOCIAL": "DROGARIA_SABINO", "ENDEE": "RUA_SETE_DE_SETEMBRO671__CENTRO_16440-045", "LMAPS": "https://www.google.com/maps?q=&layer=c&cbll=-21.4608839,-49.578547", "O_QUE_FAZER": "FINALIZADO", "ER_REGIAO_CIDADE_min": "Sabino_Bauru" }, "geometry": { "type": "Point", "coordinates": [ -49.578547, -21.4608839 ] } },
{ "type": "Feature", "properties": { "fid": 268882, "CNPJ": "53935790000163", "IDCIDADE": "SABINO", "NOMEFANTASIA": "H._OZORIO_MATERIAIS_DE_CONSTRUCAO_LTDA", "RAZAOSOCIAL": "CONSTRUMAIS", "ENDEE": "AVENIDA_MARECHAL_RONDON841__CENTRO_16440-047", "LMAPS": "https://www.google.com/maps?q=&layer=c&cbll=-21.462766,-49.5795088", "O_QUE_FAZER": "FINALIZADO", "ER_REGIAO_CIDADE_min": "Sabino_Bauru" }, "geometry": { "type": "Point", "coordinates": [ -49.5795088, -21.462766 ] } },
{ "type": "Feature", "properties": { "fid": 274246, "CNPJ": "55107670000101", "IDCIDADE": "SABINO", "NOMEFANTASIA": "55.107.670_JOAO_MARCOS_PEREIRA_LEAL_AMARAL", "RAZAOSOCIAL": "SABOR_DA_CASA", "ENDEE": "AVENIDA_MARECHAL_RONDON853__CENTRO_16440-047", "LMAPS": "https://www.google.com/maps?q=&layer=c&cbll=-21.4632155,-49.579706", "O_QUE_FAZER": "FINALIZADO", "ER_REGIAO_CIDADE_min": "Sabino_Bauru" }, "geometry": { "type": "Point", "coordinates": [ -49.579706, -21.4632155 ] } },
{ "type": "Feature", "properties": { "fid": 291921, "CNPJ": "60588572000165", "IDCIDADE": "SABINO", "NOMEFANTASIA": "TNL_Transportes", "RAZAOSOCIAL": "TNL_TRANSPORTES_LTDA", "ENDEE": "RUA DAS ORQUIDEAS, 581, RESIDENCIAL XANGRILA, 16440-706, SABINO, SP, BRASIL", "LMAPS": "https://www.google.com/maps?q=&layer=c&cbll=-21.4418307,-49.5690126", "O_QUE_FAZER": "CARTEIRA - FAMPE", "ER_REGIAO_CIDADE_min": "Sabino_Bauru" }, "geometry": { "type": "Point", "coordinates": [ -49.5690126, -21.4418307 ] } }
]
}
