{
"type": "FeatureCollection",
"name": "ER_REGIAO_CIDADE_min_Jacareí_Parque Meia Lua_São José dos Campos",
"crs": { "type": "name", "properties": { "name": "urn:ogc:def:crs:OGC:1.3:CRS84" } },
"xy_coordinate_resolution": 1e-15,
"features": [
{ "type": "Feature", "properties": { "fid": 268665, "CNPJ": "03995015000125", "IDCIDADE": "JACAREI", "NOMEFANTASIA": "UNIAO_REMOCAO_INDUSTRIAL_E_LOCACAO_DE_GUINDASTES_LTDA", "RAZAOSOCIAL": "GRUPO_UNIAO_", "ENDEE": "ESTRADA_MUNICIPAL_DO_LIMOEIRO95__PARQUE_MEIA_LUA_12335-360", "LMAPS": "https://www.google.com/maps?q=&layer=c&cbll=-45.9633051,-23.2619362", "O_QUE_FAZER": "FINALIZADO", "ER_REGIAO_CIDADE_min": "Jacareí_Parque Meia Lua_São José dos Campos" }, "geometry": { "type": "Point", "coordinates": [ -45.9633051, -23.2619362 ] } },
{ "type": "Feature", "properties": { "fid": 268686, "CNPJ": "45308597000174", "IDCIDADE": "JACAREI", "NOMEFANTASIA": "45.308.597_REGINA_BRANCO_DOS_SANTOS", "RAZAOSOCIAL": "ROASTER", "ENDEE": "AVENIDA_DOS_MIGRANTES453__PARQUE_MEIA_LUA_12335-000", "LMAPS": "https://www.google.com/maps?q=&layer=c&cbll=-45.9644746,-23.2633061", "O_QUE_FAZER": "FINALIZADO", "ER_REGIAO_CIDADE_min": "Jacareí_Parque Meia Lua_São José dos Campos" }, "geometry": { "type": "Point", "coordinates": [ -45.9644746, -23.2633061 ] } },
{ "type": "Feature", "properties": { "fid": 268697, "CNPJ": "53905478000127", "IDCIDADE": "JACAREI", "NOMEFANTASIA": "MENEZES_&_BOTAN_CASA_DE_CARNES_LTDA", "RAZAOSOCIAL": "BOM_BIFE", "ENDEE": "RUA_DOS_MIGRANTES183__PARQUE_MEIA_LUA_12335-000", "LMAPS": "https://www.google.com/maps?q=&layer=c&cbll=-45.9625504,-23.2650047", "O_QUE_FAZER": "FINALIZADO", "ER_REGIAO_CIDADE_min": "Jacareí_Parque Meia Lua_São José dos Campos" }, "geometry": { "type": "Point", "coordinates": [ -45.9625504, -23.2650047 ] } },
{ "type": "Feature", "properties": { "fid": 301197, "CNPJ": "58053196000162", "IDCIDADE": "JACAREI", "NOMEFANTASIA": "-", "RAZAOSOCIAL": "58.053.196 MARYELEN DE SOUZA VAZ FIGUEIREDO DA SILVA", "ENDEE": "AVENIDA DOS MIGRANTES, 1669, PARQUE MEIA LUA, 12335-000, JACAREÍ, SP, BRASIL", "LMAPS": "https://www.google.com/maps?q=&layer=c&cbll=-23.2657373,-45.9653691", "O_QUE_FAZER": "CARTEIRA - FAMPE", "ER_REGIAO_CIDADE_min": "Jacareí_Parque Meia Lua_São José dos Campos" }, "geometry": { "type": "Point", "coordinates": [ -45.9653691, -23.2657373 ] } }
]
}
