{
"type": "FeatureCollection",
"name": "ER_REGIAO_CIDADE_min_Oscar Bressane_Marília",
"crs": { "type": "name", "properties": { "name": "urn:ogc:def:crs:OGC:1.3:CRS84" } },
"xy_coordinate_resolution": 1e-15,
"features": [
{ "type": "Feature", "properties": { "fid": 6672, "CNPJ": "01380416000145", "IDCIDADE": "OSCAR_BRESSANE", "NOMEFANTASIA": "LOTERICA_BRESSANE", "RAZAOSOCIAL": "LOTERICA_BRESSANE_LTDA", "ENDEE": "AVENIDA_JOSE_MANZANO_GARCIA351__CENTRO_19770-005", "LMAPS": "https://www.google.com/maps?q=&layer=c&cbll=-22.318246,-50.281503", "O_QUE_FAZER": "CARTEIRA", "ER_REGIAO_CIDADE_min": "Oscar Bressane_Marília" }, "geometry": { "type": "Point", "coordinates": [ -50.281503, -22.318246 ] } },
{ "type": "Feature", "properties": { "fid": 9480, "CNPJ": "01947846000104", "IDCIDADE": "OSCAR_BRESSANE", "NOMEFANTASIA": "ELIANA_DO_CARMO_FERREIRA_DA_SILVA", "RAZAOSOCIAL": "ELIANA_CONFECCOES", "ENDEE": "RUA_RENATO_DOMINGOS_GARCIA355__CENTRO_19770-037", "LMAPS": "https://www.google.com/maps?q=&layer=c&cbll=-22.3171911,-50.281227", "O_QUE_FAZER": "FINALIZADO", "ER_REGIAO_CIDADE_min": "Oscar Bressane_Marília" }, "geometry": { "type": "Point", "coordinates": [ -50.281227, -22.3171911 ] } },
{ "type": "Feature", "properties": { "fid": 46532, "CNPJ": "07877408000195", "IDCIDADE": "OSCAR_BRESSANE", "NOMEFANTASIA": "YOSHIMI_&_DOKAN_LTDA", "RAZAOSOCIAL": "RESTAURANTE_BRESSANE", "ENDEE": "AVENIDA_JOSE_MANZANO_GARCIA399__CENTRO_19770-005", "LMAPS": "https://www.google.com/maps?q=&layer=c&cbll=-22.3172888,-50.2815113", "O_QUE_FAZER": "FINALIZADO", "ER_REGIAO_CIDADE_min": "Oscar Bressane_Marília" }, "geometry": { "type": "Point", "coordinates": [ -50.2815113, -22.3172888 ] } },
{ "type": "Feature", "properties": { "fid": 60015, "CNPJ": "09640734000100", "IDCIDADE": "OSCAR_BRESSANE", "NOMEFANTASIA": "LEILA_IARA_GIBIM_GARCIA", "RAZAOSOCIAL": "BIG_BAR", "ENDEE": "AVENIDA_JOSE_MANZANO_GARCIA269__CENTRO_19770-005", "LMAPS": "https://www.google.com/maps?q=&layer=c&cbll=-22.3172131,-50.2806582", "O_QUE_FAZER": "FINALIZADO", "ER_REGIAO_CIDADE_min": "Oscar Bressane_Marília" }, "geometry": { "type": "Point", "coordinates": [ -50.2806582, -22.3172131 ] } },
{ "type": "Feature", "properties": { "fid": 61426, "CNPJ": "10299700000182", "IDCIDADE": "OSCAR_BRESSANE", "NOMEFANTASIA": "CARINE_LOURENCO_DE_ALMEIDA_GREJO", "RAZAOSOCIAL": "LUCIA_LOURENCO", "ENDEE": "AVENIDA_JOSE_MANZANO_GARCIA355__CENTRO_19770-005", "LMAPS": "https://www.google.com/maps?q=&layer=c&cbll=-22.3177674,-50.2815331", "O_QUE_FAZER": "FINALIZADO", "ER_REGIAO_CIDADE_min": "Oscar Bressane_Marília" }, "geometry": { "type": "Point", "coordinates": [ -50.2815331, -22.3177674 ] } },
{ "type": "Feature", "properties": { "fid": 62982, "CNPJ": "10456997000142", "IDCIDADE": "OSCAR_BRESSANE", "NOMEFANTASIA": "NEUZA_APARECIDA_BALDACIN_RODRIGUES", "RAZAOSOCIAL": "AROMA", "ENDEE": "RUA_FLORENCIO_NAVARRO272__CENTRO_19770-033", "LMAPS": "https://www.google.com/maps?q=&layer=c&cbll=-22.3172757,-50.2824176", "O_QUE_FAZER": "FINALIZADO", "ER_REGIAO_CIDADE_min": "Oscar Bressane_Marília" }, "geometry": { "type": "Point", "coordinates": [ -50.2824176, -22.3172757 ] } },
{ "type": "Feature", "properties": { "fid": 66580, "CNPJ": "10837337000101", "IDCIDADE": "OSCAR_BRESSANE", "NOMEFANTASIA": "ESCRITORIO_SILVA", "RAZAOSOCIAL": "ESCRITORIO_SILVA_DE_CONTABILIDADE_LTDA", "ENDEE": "AVENIDA_JOSE_MANZANO_GARCIA207__CENTRO_19770-005", "LMAPS": "https://www.google.com/maps?q=&layer=c&cbll=-22.318487,-50.2831273", "O_QUE_FAZER": "CARTEIRA", "ER_REGIAO_CIDADE_min": "Oscar Bressane_Marília" }, "geometry": { "type": "Point", "coordinates": [ -50.2831273, -22.318487 ] } },
{ "type": "Feature", "properties": { "fid": 68080, "CNPJ": "11001459000126", "IDCIDADE": "OSCAR_BRESSANE", "NOMEFANTASIA": "AGROPEC", "RAZAOSOCIAL": "AGR_PRODUTOS_AGROPECUARIOS_LTDA", "ENDEE": "AVENIDA_JOSE_MANZANO_GARCIA372__CENTRO_19770-005", "LMAPS": "https://www.google.com/maps?q=&layer=c&cbll=-22.3176829,-50.2816138", "O_QUE_FAZER": "CARTEIRA", "ER_REGIAO_CIDADE_min": "Oscar Bressane_Marília" }, "geometry": { "type": "Point", "coordinates": [ -50.2816138, -22.3176829 ] } },
{ "type": "Feature", "properties": { "fid": 75976, "CNPJ": "12153759000193", "IDCIDADE": "OSCAR_BRESSANE", "NOMEFANTASIA": "RF_DAS_GRACAS_LAVACAR", "RAZAOSOCIAL": "BORRACHARIA_BRESSANE", "ENDEE": "RUA_JOSE_MANZANO_GARCIA66__CENTRO_19770-005", "LMAPS": "https://www.google.com/maps?q=&layer=c&cbll=-22.3191877,-50.2836951", "O_QUE_FAZER": "FINALIZADO", "ER_REGIAO_CIDADE_min": "Oscar Bressane_Marília" }, "geometry": { "type": "Point", "coordinates": [ -50.2836951, -22.3191877 ] } },
{ "type": "Feature", "properties": { "fid": 89910, "CNPJ": "14886577000157", "IDCIDADE": "OSCAR_BRESSANE", "NOMEFANTASIA": "MERCADO_YOSHIMI", "RAZAOSOCIAL": "SUPERMERCADO_YOSHIMI_LTDA", "ENDEE": "RUA_PAULINO_TAIETE61__CENTRO_19770-017", "LMAPS": "https://www.google.com/maps?q=&layer=c&cbll=-22.3161312,-50.2841048", "O_QUE_FAZER": "CARTEIRA", "ER_REGIAO_CIDADE_min": "Oscar Bressane_Marília" }, "geometry": { "type": "Point", "coordinates": [ -50.2841048, -22.3161312 ] } },
{ "type": "Feature", "properties": { "fid": 103765, "CNPJ": "18373586000103", "IDCIDADE": "OSCAR_BRESSANE", "NOMEFANTASIA": "DEPOSITO_YOSHIMI_LTDA", "RAZAOSOCIAL": "YOSHINI", "ENDEE": "RUA_JOSE_MANZANO_GARCIA463__CENTRO_19770-037", "LMAPS": "https://www.google.com/maps?q=&layer=c&cbll=-22.3184228,-50.2824115", "O_QUE_FAZER": "FINALIZADO", "ER_REGIAO_CIDADE_min": "Oscar Bressane_Marília" }, "geometry": { "type": "Point", "coordinates": [ -50.2824115, -22.3184228 ] } },
{ "type": "Feature", "properties": { "fid": 110401, "CNPJ": "19840226000129", "IDCIDADE": "OSCAR_BRESSANE", "NOMEFANTASIA": "ACADEMIA_ANA_LAIS_FIT", "RAZAOSOCIAL": "ANA_LAIS_RIBEIRO_DA_SILVA", "ENDEE": "RUA_FLORENCIO_NAVARRO334__CENTRO_19770-033", "LMAPS": "https://www.google.com/maps?q=&layer=c&cbll=-22.3169603,-50.2826373", "O_QUE_FAZER": "CARTEIRA", "ER_REGIAO_CIDADE_min": "Oscar Bressane_Marília" }, "geometry": { "type": "Point", "coordinates": [ -50.2826373, -22.3169603 ] } },
{ "type": "Feature", "properties": { "fid": 119343, "CNPJ": "21861672000161", "IDCIDADE": "OSCAR_BRESSANE", "NOMEFANTASIA": "ROSEMEIDE_DIAS_GIROTO_CONSTRUCAO", "RAZAOSOCIAL": "BARRACAO", "ENDEE": "AVENIDA_INES_SANCHES9__CONJUNTO_HABITACIONAL_LUIZ_SASSAKI_19770-310", "LMAPS": "https://www.google.com/maps?q=&layer=c&cbll=-22.3173751,-50.2813104", "O_QUE_FAZER": "FINALIZADO", "ER_REGIAO_CIDADE_min": "Oscar Bressane_Marília" }, "geometry": { "type": "Point", "coordinates": [ -50.2813104, -22.3173751 ] } },
{ "type": "Feature", "properties": { "fid": 124625, "CNPJ": "22955759000160", "IDCIDADE": "OSCAR_BRESSANE", "NOMEFANTASIA": "PANIFICADORA_CAVICHIOLI_LTDA", "RAZAOSOCIAL": "PAO_FRANCES", "ENDEE": "RUA_VIRGINIO_GIROTTO67__CENTRO_19770-031", "LMAPS": "https://www.google.com/maps?q=&layer=c&cbll=-22.3152715,-50.2849032", "O_QUE_FAZER": "FINALIZADO", "ER_REGIAO_CIDADE_min": "Oscar Bressane_Marília" }, "geometry": { "type": "Point", "coordinates": [ -50.2849032, -22.3152715 ] } },
{ "type": "Feature", "properties": { "fid": 143506, "CNPJ": "27284393000169", "IDCIDADE": "OSCAR_BRESSANE", "NOMEFANTASIA": "CASACDE_CARNES_BOM_DE_CARNES", "RAZAOSOCIAL": "ACOUGUE_BOM_DE_CARNES_LTDA", "ENDEE": "RUA_FLORENCIO_NAVARRO251__CENTRO_19770-033", "LMAPS": "https://www.google.com/maps?q=&layer=c&cbll=-22.3151617,-50.2855217", "O_QUE_FAZER": "CARTEIRA", "ER_REGIAO_CIDADE_min": "Oscar Bressane_Marília" }, "geometry": { "type": "Point", "coordinates": [ -50.2855217, -22.3151617 ] } },
{ "type": "Feature", "properties": { "fid": 188193, "CNPJ": "36125033000105", "IDCIDADE": "OSCAR_BRESSANE", "NOMEFANTASIA": "36.125.033_MARCIO_DE_FREITAS", "RAZAOSOCIAL": "MAXCELL", "ENDEE": "RUA_FLORENCIO_NAVARRO330__CENTRO_19770-033", "LMAPS": "https://www.google.com/maps?q=&layer=c&cbll=-22.3176848,-50.2829186", "O_QUE_FAZER": "FINALIZADO", "ER_REGIAO_CIDADE_min": "Oscar Bressane_Marília" }, "geometry": { "type": "Point", "coordinates": [ -50.2829186, -22.3176848 ] } },
{ "type": "Feature", "properties": { "fid": 215629, "CNPJ": "42874200000113", "IDCIDADE": "OSCAR_BRESSANE", "NOMEFANTASIA": "LK_MOVEIS", "RAZAOSOCIAL": "LK_MOVEIS_LTDA", "ENDEE": "RUA_VITORIO_GIROTTO232__CENTRO_17512-310", "LMAPS": "https://www.google.com/maps?q=&layer=c&cbll=-22.3176531,-50.2826519", "O_QUE_FAZER": "FINALIZADO", "ER_REGIAO_CIDADE_min": "Oscar Bressane_Marília" }, "geometry": { "type": "Point", "coordinates": [ -50.2826519, -22.3176531 ] } },
{ "type": "Feature", "properties": { "fid": 222413, "CNPJ": "44241529000172", "IDCIDADE": "OSCAR_BRESSANE", "NOMEFANTASIA": "AUTO_POSTO_GIROTO", "RAZAOSOCIAL": "AUTO_POSTO_GIROTO_LTDA", "ENDEE": "RUA_FLORENCIO_NAVARRO34__CENTRO_19770-033", "LMAPS": "https://www.google.com/maps?q=&layer=c&cbll=-22.3244133,-50.2776867", "O_QUE_FAZER": "CARTEIRA", "ER_REGIAO_CIDADE_min": "Oscar Bressane_Marília" }, "geometry": { "type": "Point", "coordinates": [ -50.2776867, -22.3244133 ] } },
{ "type": "Feature", "properties": { "fid": 227139, "CNPJ": "45269774000150", "IDCIDADE": "OSCAR_BRESSANE", "NOMEFANTASIA": "45.269.774_ELAINE_ZAFRET", "RAZAOSOCIAL": "DELICIAS_DA_NANI", "ENDEE": "RUA_JOSE_MANZANO_GARCIA312__CENTRO_19770-005", "LMAPS": "https://www.google.com/maps?q=&layer=c&cbll=-22.3178344,-50.2818281", "O_QUE_FAZER": "FINALIZADO", "ER_REGIAO_CIDADE_min": "Oscar Bressane_Marília" }, "geometry": { "type": "Point", "coordinates": [ -50.2818281, -22.3178344 ] } },
{ "type": "Feature", "properties": { "fid": 257563, "CNPJ": "51500445000171", "IDCIDADE": "OSCAR_BRESSANE", "NOMEFANTASIA": "SUPERMERCADO_CRISPIM", "RAZAOSOCIAL": "COMERCIAL_CRISPIM_LTDA", "ENDEE": "RUA_FLORENCIO_NAVARRO279__CENTRO_19770-033", "LMAPS": "https://www.google.com/maps?q=&layer=c&cbll=-22.3173863,-50.2824319", "O_QUE_FAZER": "CARTEIRA", "ER_REGIAO_CIDADE_min": "Oscar Bressane_Marília" }, "geometry": { "type": "Point", "coordinates": [ -50.2824319, -22.3173863 ] } },
{ "type": "Feature", "properties": { "fid": 269463, "CNPJ": "54072218000180", "IDCIDADE": "OSCAR_BRESSANE", "NOMEFANTASIA": "RINALDO_ARANTES_ALVES", "RAZAOSOCIAL": "ME4CADO_ARANTES", "ENDEE": "RUA_SALVADOR_MANSOLELLI430__CENTRO_19770-041", "LMAPS": "https://www.google.com/maps?q=&layer=c&cbll=-22.3173751,-50.2813104", "O_QUE_FAZER": "FINALIZADO", "ER_REGIAO_CIDADE_min": "Oscar Bressane_Marília" }, "geometry": { "type": "Point", "coordinates": [ -50.2813104, -22.3173751 ] } },
{ "type": "Feature", "properties": { "fid": 274755, "CNPJ": "55228886000117", "IDCIDADE": "OSCAR_BRESSANE", "NOMEFANTASIA": "VALDECIR_AVELHANEDA_RODRIGUES", "RAZAOSOCIAL": "DROGARIA_SAO_JOAO_BATISTA", "ENDEE": "AVENIDA_JOSE_MANZANO_GARCIA327__CENTRO_19770-005", "LMAPS": "https://www.google.com/maps?q=&layer=c&cbll=-22.3176535,-50.2818628", "O_QUE_FAZER": "FINALIZADO", "ER_REGIAO_CIDADE_min": "Oscar Bressane_Marília" }, "geometry": { "type": "Point", "coordinates": [ -50.2818628, -22.3176535 ] } },
{ "type": "Feature", "properties": { "fid": 293651, "CNPJ": "61180431000171", "IDCIDADE": "OSCAR BRESSANE", "NOMEFANTASIA": "CLAUDINÉIA_SANCHEZ_GIROTTO", "RAZAOSOCIAL": "61.180.431_CLAUDINEIA_SANCHEZ_GIROTTO", "ENDEE": "RUA NICOLA PERUGINE, 00, CONJUNTO HABITACIONAL LUIZ SASSAKI, 19770-308, OSCAR BRESSANE, SP, BRASIL", "LMAPS": "https://www.google.com/maps?q=&layer=c&cbll=-22.3162476,-50.2890965", "O_QUE_FAZER": "FINALIZADO", "ER_REGIAO_CIDADE_min": "Oscar Bressane_Marília" }, "geometry": { "type": "Point", "coordinates": [ -50.2890965, -22.3162476 ] } },
{ "type": "Feature", "properties": { "fid": 308451, "CNPJ": "68885201000157", "IDCIDADE": "OSCAR_BRESSANE", "NOMEFANTASIA": "JOCIMAR_BATISTA_CRISPIM", "RAZAOSOCIAL": "RESTAURANTE_RECANTO", "ENDEE": "RUA_RUA_PREFEITO_PAULO_GARCIA_FILHO118_71_19770-970", "LMAPS": "https://www.google.com/maps?q=&layer=c&cbll=-22.3189846,-50.2818563", "O_QUE_FAZER": "FINALIZADO", "ER_REGIAO_CIDADE_min": "Oscar Bressane_Marília" }, "geometry": { "type": "Point", "coordinates": [ -50.2818563, -22.3189846 ] } }
]
}
