{
"type": "FeatureCollection",
"name": "ER_REGIAO_CIDADE_min_Alvinlândia_Bauru",
"crs": { "type": "name", "properties": { "name": "urn:ogc:def:crs:OGC:1.3:CRS84" } },
"xy_coordinate_resolution": 1e-15,
"features": [
{ "type": "Feature", "properties": { "fid": 33959, "CNPJ": "05829232000170", "IDCIDADE": "ALVINLANDIA", "NOMEFANTASIA": "QUESTADE_ESTILO", "RAZAOSOCIAL": "CLAUDINEIA_ESTRUBI_DE_SOUZA", "ENDEE": "AVENIDA_JOSE_BONIFACIO_DO_COUTO471__ALVINLANDIA_17430-005", "LMAPS": "https://www.google.com/maps?q=&layer=c&cbll=-22.4420626,-49.763651", "O_QUE_FAZER": "CARTEIRA", "ER_REGIAO_CIDADE_min": "Alvinlândia_Bauru" }, "geometry": { "type": "Point", "coordinates": [ -49.763651, -22.4420626 ] } },
{ "type": "Feature", "properties": { "fid": 34588, "CNPJ": "05911173000185", "IDCIDADE": "ALVINLANDIA", "NOMEFANTASIA": "LANCHONETE_DA_JURA", "RAZAOSOCIAL": "MARCO_ANTONIO_RUSSO", "ENDEE": "AVENIDA_MARIANA_MARTINIANO_BERGAMIN182__JARDIM_PRIMAVERA_17430-702", "LMAPS": "https://www.google.com/maps?q=&layer=c&cbll=-22.4399309,-49.766108", "O_QUE_FAZER": "CARTEIRA", "ER_REGIAO_CIDADE_min": "Alvinlândia_Bauru" }, "geometry": { "type": "Point", "coordinates": [ -49.766108, -22.4399309 ] } },
{ "type": "Feature", "properties": { "fid": 53489, "CNPJ": "08901806000162", "IDCIDADE": "ALVINLANDIA", "NOMEFANTASIA": "NUNES_GAS_ALVINLANDIA", "RAZAOSOCIAL": "MARIA_PEREIRA_NUNES_FERREIRA", "ENDEE": "AVENIDA_MARIANA_MARTINIANO_BERGAMIN362__JARDIM_PRIMAVERA_17430-702", "LMAPS": "https://www.google.com/maps?q=&layer=c&cbll=-22.4384578,-49.7670927", "O_QUE_FAZER": "CARTEIRA", "ER_REGIAO_CIDADE_min": "Alvinlândia_Bauru" }, "geometry": { "type": "Point", "coordinates": [ -49.7670927, -22.4384578 ] } },
{ "type": "Feature", "properties": { "fid": 64273, "CNPJ": "10602699000113", "IDCIDADE": "ALVINLANDIA", "NOMEFANTASIA": "V_H_NATALINO", "RAZAOSOCIAL": "VH_NATALINO_CONSTRUTORA_LTDA", "ENDEE": "RUA_JOSE_GUARACY_GUARIDO248__JARDIM_TERUEL_17430-202", "LMAPS": "https://www.google.com/maps?q=&layer=c&cbll=-22.4427376,-49.765996", "O_QUE_FAZER": "CARTEIRA", "ER_REGIAO_CIDADE_min": "Alvinlândia_Bauru" }, "geometry": { "type": "Point", "coordinates": [ -49.765996, -22.4427376 ] } },
{ "type": "Feature", "properties": { "fid": 69209, "CNPJ": "11142616000113", "IDCIDADE": "ALVINLANDIA", "NOMEFANTASIA": "AUTO_POSTO_ESTRUBI", "RAZAOSOCIAL": "MARIA_FATIMA_DA_SILVA_ESTRUBI", "ENDEE": "AVENIDA_MARIANA_MARTINIANO_BERGAMIN304__JARDIM_PRIMAVERA_17430-702", "LMAPS": "https://www.google.com/maps?q=&layer=c&cbll=-22.43907,-49.767075", "O_QUE_FAZER": "CARTEIRA", "ER_REGIAO_CIDADE_min": "Alvinlândia_Bauru" }, "geometry": { "type": "Point", "coordinates": [ -49.767075, -22.43907 ] } },
{ "type": "Feature", "properties": { "fid": 72164, "CNPJ": "11515733000185", "IDCIDADE": "ALVINLANDIA", "NOMEFANTASIA": "BERGAMIN_SINALIZACAO", "RAZAOSOCIAL": "BERGAMIN_SINALIZACAO_E_TECNOLOGIA_VIARIA_LTDA", "ENDEE": "RUA_JOSE_BONIFACIO_DO_COUTO307__CENTRO_17430-005", "LMAPS": "https://www.google.com/maps?q=&layer=c&cbll=-22.4461174,-49.7631237", "O_QUE_FAZER": "CARTEIRA", "ER_REGIAO_CIDADE_min": "Alvinlândia_Bauru" }, "geometry": { "type": "Point", "coordinates": [ -49.7631237, -22.4461174 ] } },
{ "type": "Feature", "properties": { "fid": 78980, "CNPJ": "12713333000147", "IDCIDADE": "ALVINLANDIA", "NOMEFANTASIA": "UNIAO_CONTABEIS", "RAZAOSOCIAL": "PAGAMISSE_ASSESSORIA_FISCAL_E_TRIBUTARIA_LTDA", "ENDEE": "RUA_IRACEMA398__CENTRO_17430-017", "LMAPS": "https://www.google.com/maps?q=&layer=c&cbll=-22.4427599,-49.7647198", "O_QUE_FAZER": "CARTEIRA", "ER_REGIAO_CIDADE_min": "Alvinlândia_Bauru" }, "geometry": { "type": "Point", "coordinates": [ -49.7647198, -22.4427599 ] } },
{ "type": "Feature", "properties": { "fid": 90433, "CNPJ": "15014732000108", "IDCIDADE": "ALVINLANDIA", "NOMEFANTASIA": "CRIATIVA_MOVEIS", "RAZAOSOCIAL": "CRIATIVA_MOVEIS_DE_ALVINLANDIA_LTDA", "ENDEE": "AVENIDA_MARIANA_MARTINIANO_BERGAMIN406__JARDIM_PRIMAVERA_17430-702", "LMAPS": "https://www.google.com/maps?q=&layer=c&cbll=-22.4381383,-49.7673283", "O_QUE_FAZER": "CARTEIRA", "ER_REGIAO_CIDADE_min": "Alvinlândia_Bauru" }, "geometry": { "type": "Point", "coordinates": [ -49.7673283, -22.4381383 ] } },
{ "type": "Feature", "properties": { "fid": 118355, "CNPJ": "21630526000125", "IDCIDADE": "ALVINLANDIA", "NOMEFANTASIA": "TERUEL_VEICULOS", "RAZAOSOCIAL": "TERUEL_MULTIMARCAS_LTDA", "ENDEE": "AVENIDA_MARIANA_MARTINIANO_BERGAMIN524__JARDIM_PRIMAVERA_17430-702", "LMAPS": "https://www.google.com/maps?q=&layer=c&cbll=-22.4371501,-49.7682117", "O_QUE_FAZER": "CARTEIRA", "ER_REGIAO_CIDADE_min": "Alvinlândia_Bauru" }, "geometry": { "type": "Point", "coordinates": [ -49.7682117, -22.4371501 ] } },
{ "type": "Feature", "properties": { "fid": 276322, "CNPJ": "55596985000151", "IDCIDADE": "ALVINLANDIA", "NOMEFANTASIA": "SUPERMERCADO_ALVINLANDIA", "RAZAOSOCIAL": "SUPERMERCADO_ALVINLANDIA_LTDA", "ENDEE": "RUA_IRACEMA30__CENTRO_17430-017", "LMAPS": "https://www.google.com/maps?q=&layer=c&cbll=-22.4431,-49.7643417", "O_QUE_FAZER": "CARTEIRA", "ER_REGIAO_CIDADE_min": "Alvinlândia_Bauru" }, "geometry": { "type": "Point", "coordinates": [ -49.7643417, -22.4431 ] } },
{ "type": "Feature", "properties": { "fid": 300557, "CNPJ": "64608151000100", "IDCIDADE": "ALVINLANDIA", "NOMEFANTASIA": "TERUEL_TRATORES", "RAZAOSOCIAL": "TERUEL_TRATORES_LTDA", "ENDEE": "AVENIDA_JOSE_XAVIER_DIAS715__CENTRO_17430-009", "LMAPS": "https://www.google.com/maps?q=&layer=c&cbll=-22.4468867,-49.764805", "O_QUE_FAZER": "CARTEIRA", "ER_REGIAO_CIDADE_min": "Alvinlândia_Bauru" }, "geometry": { "type": "Point", "coordinates": [ -49.764805, -22.4468867 ] } },
{ "type": "Feature", "properties": { "fid": 305368, "CNPJ": "67030445000195", "IDCIDADE": "ALVINLANDIA", "NOMEFANTASIA": "SUPERMERCADO_ARAUJO", "RAZAOSOCIAL": "SUPERMERCADO_ARAUJO_DE_LUPERCIO_LTDA", "ENDEE": "RUA_MAJOR_COUTO88__CENTRO_17430-021", "LMAPS": "https://www.google.com/maps?q=&layer=c&cbll=-22.4452817,-49.7637467", "O_QUE_FAZER": "CARTEIRA", "ER_REGIAO_CIDADE_min": "Alvinlândia_Bauru" }, "geometry": { "type": "Point", "coordinates": [ -49.7637467, -22.4452817 ] } },
{ "type": "Feature", "properties": { "fid": 311951, "CNPJ": "96287248000154", "IDCIDADE": "ALVINLANDIA", "NOMEFANTASIA": "DROGARIA_SAO_JOSE", "RAZAOSOCIAL": "MARCIO_DANIEL_GUARIDO", "ENDEE": "RUA_GETULIO_VARGAS505__CENTRO_17430-015", "LMAPS": "https://www.google.com/maps?q=&layer=c&cbll=-22.4418906,-49.7635971", "O_QUE_FAZER": "CARTEIRA", "ER_REGIAO_CIDADE_min": "Alvinlândia_Bauru" }, "geometry": { "type": "Point", "coordinates": [ -49.7635971, -22.4418906 ] } }
]
}
