{
"type": "FeatureCollection",
"name": "ER_REGIAO_CIDADE_min_Campinas_Souzas_Campinas",
"crs": { "type": "name", "properties": { "name": "urn:ogc:def:crs:OGC:1.3:CRS84" } },
"xy_coordinate_resolution": 1e-15,
"features": [
{ "type": "Feature", "properties": { "fid": 1103, "CNPJ": "30279410000184", "IDCIDADE": "CAMPINAS", "NOMEFANTASIA": "ARA_CACAO_CONSULTORIA_EM_ALIMENTOS_LTDA", "RAZAOSOCIAL": "ARA_CACAO", "ENDEE": "RUA_DO_LEME475__CAMINHOS_DE_SAN_CONRADO_13104-124", "LMAPS": "https://www.google.com/maps?q=&layer=c&cbll=-46.9761298,-22.8635361", "O_QUE_FAZER": "APLICAR T2", "ER_REGIAO_CIDADE_min": "Campinas_Souzas_Campinas" }, "geometry": { "type": "Point", "coordinates": [ -46.9761298, -22.8635361 ] } },
{ "type": "Feature", "properties": { "fid": 1205, "CNPJ": "03792177000166", "IDCIDADE": "CAMPINAS", "NOMEFANTASIA": "FABRICA_DOS_OCULOS", "RAZAOSOCIAL": "M.R.NARDUCCI_OTICA", "ENDEE": "AVENIDA_ANTONIO_CARLOS_COUTO_DE_BARROS638__VILA_SONIA_13105-000", "LMAPS": "https://www.google.com/maps?q=&layer=c&cbll=-46.971646,-22.8822734", "O_QUE_FAZER": "APLICAR T2", "ER_REGIAO_CIDADE_min": "Campinas_Souzas_Campinas" }, "geometry": { "type": "Point", "coordinates": [ -46.971646, -22.8822734 ] } },
{ "type": "Feature", "properties": { "fid": 1213, "CNPJ": "65975820000144", "IDCIDADE": "CAMPINAS", "NOMEFANTASIA": "LAVA_JATO_DOS_AMIGOS", "RAZAOSOCIAL": "65.975.820_WILLIAM_RODRIGUES_DA_SILVA", "ENDEE": "RUA_GUILHERME_DE_ALMEIDA_35_JARDIM_CONCEICAO_(SOUSAS)_13105-074_CAMPINAS_BRASIL", "LMAPS": "https://www.google.com/maps?q=&layer=c&cbll=-22.8863136,-46.978787", "O_QUE_FAZER": "APLICAR T2", "ER_REGIAO_CIDADE_min": "Campinas_Souzas_Campinas" }, "geometry": { "type": "Point", "coordinates": [ -46.978787, -22.8863136 ] } },
{ "type": "Feature", "properties": { "fid": 1217, "CNPJ": "28774202000100", "IDCIDADE": "CAMPINAS", "NOMEFANTASIA": "LJ_PAISAGISMO_FORMACOES_E_MANUTENCOES", "RAZAOSOCIAL": "L_J_PAISAGISMO_FORMACOES_E_MANUTENCOES_LTDA", "ENDEE": "RUA_MICHEL_FARES_108_JARDIM_CONCEICAO_(SOUSAS)_13105-072_CAMPINAS_BRASIL", "LMAPS": "https://www.google.com/maps?q=&layer=c&cbll=-22.88656,-46.9781568", "O_QUE_FAZER": "APLICAR T2", "ER_REGIAO_CIDADE_min": "Campinas_Souzas_Campinas" }, "geometry": { "type": "Point", "coordinates": [ -46.9781568, -22.88656 ] } },
{ "type": "Feature", "properties": { "fid": 1220, "CNPJ": "67015187000178", "IDCIDADE": "CAMPINAS", "NOMEFANTASIA": "RR_MULTIMARCAS_SOUSAS", "RAZAOSOCIAL": "C._KLUJBER_SEBASTIAO_BALBINO_APOIO_ADMINISTRATIVO_LTDA", "ENDEE": "RUA_GUILHERME_DE_ALMEIDA_7_JARDIM_CONCEICAO_(SOUSAS)_13105-074_CAMPINAS_BRASIL", "LMAPS": "https://www.google.com/maps?q=&layer=c&cbll=-22.8865803,-46.9786094", "O_QUE_FAZER": "APLICAR T2", "ER_REGIAO_CIDADE_min": "Campinas_Souzas_Campinas" }, "geometry": { "type": "Point", "coordinates": [ -46.9786094, -22.8865803 ] } },
{ "type": "Feature", "properties": { "fid": 1221, "CNPJ": "11751619000154", "IDCIDADE": "CAMPINAS", "NOMEFANTASIA": "CASA_ARMANI_SOLUCOES_CONSTRUTIVAS", "RAZAOSOCIAL": "CASA_ARMANI_SOLUCOES_CONSTRUTIVAS_LTDA", "ENDEE": "AVENIDA_ANTONIO_CARLOS_COUTO_DE_BARROS1322__JARDIM_CONCEICAO_13105-000", "LMAPS": "https://www.google.com/maps?q=&layer=c&cbll=-46.9761793,-22.8865817", "O_QUE_FAZER": "APLICAR T2", "ER_REGIAO_CIDADE_min": "Campinas_Souzas_Campinas" }, "geometry": { "type": "Point", "coordinates": [ -46.9761793, -22.8865817 ] } },
{ "type": "Feature", "properties": { "fid": 1224, "CNPJ": "67572313000195", "IDCIDADE": "CAMPINAS", "NOMEFANTASIA": "COMERCIAL_PASCHOAL", "RAZAOSOCIAL": "ROVERE_&_PASCHOAL_COMERCIO_E_LOCACAO_DE_ANDAIMES_LTDA", "ENDEE": "AVENIDA_ANTONIO_CARLOS_COUTO_DE_BARROS1325__JARDIM_CONCEICAO_13105-000", "LMAPS": "https://www.google.com/maps?q=&layer=c&cbll=-46.9758361,-22.8868693", "O_QUE_FAZER": "APLICAR T2", "ER_REGIAO_CIDADE_min": "Campinas_Souzas_Campinas" }, "geometry": { "type": "Point", "coordinates": [ -46.9758361, -22.8868693 ] } },
{ "type": "Feature", "properties": { "fid": 1225, "CNPJ": "64058671000196", "IDCIDADE": "CAMPINAS", "NOMEFANTASIA": "SP_PRIME", "RAZAOSOCIAL": "64.058.671_MISLENE_SIQUEIRA_PASCHOAL", "ENDEE": "AVENIDA_ANTONIO_CARLOS_COUTO_DE_BARROS_1325_JARDIM_CONCEICAO_(SOUSAS)_13105-000_CAMPINAS_BRASIL", "LMAPS": "https://www.google.com/maps?q=&layer=c&cbll=-22.8869456,-46.975764", "O_QUE_FAZER": "APLICAR T2", "ER_REGIAO_CIDADE_min": "Campinas_Souzas_Campinas" }, "geometry": { "type": "Point", "coordinates": [ -46.975764, -22.8869456 ] } },
{ "type": "Feature", "properties": { "fid": 1226, "CNPJ": "28494456000174", "IDCIDADE": "CAMPINAS", "NOMEFANTASIA": "LAGAZZI_COMERCIO_DE_BOLOS", "RAZAOSOCIAL": "FR_LAGAZZI_COMERCIO_DE_BOLOS_LTDA", "ENDEE": "AVENIDA_ANTONIO_CARLOS_COUTO_DE_BARROS1345__JARDIM_CONCEICAO_13105-000", "LMAPS": "https://www.google.com/maps?q=&layer=c&cbll=-46.9761854,-22.8870327", "O_QUE_FAZER": "APLICAR T2", "ER_REGIAO_CIDADE_min": "Campinas_Souzas_Campinas" }, "geometry": { "type": "Point", "coordinates": [ -46.9761854, -22.8870327 ] } },
{ "type": "Feature", "properties": { "fid": 1227, "CNPJ": "43324460000188", "IDCIDADE": "CAMPINAS", "NOMEFANTASIA": "GRAOS_DO_CASTELO_UNIDADE_SOUSAS", "RAZAOSOCIAL": "CAROLINA_ARELANO_CAPARROZ_DE_OLIVEIRA", "ENDEE": "AVENIDA_ANTONIO_CARLOS_COUTO_DE_BARROS1355__VILA_SONIA_13105-000", "LMAPS": "https://www.google.com/maps?q=&layer=c&cbll=-46.9763415,-22.8870718", "O_QUE_FAZER": "APLICAR T2", "ER_REGIAO_CIDADE_min": "Campinas_Souzas_Campinas" }, "geometry": { "type": "Point", "coordinates": [ -46.9763415, -22.8870718 ] } },
{ "type": "Feature", "properties": { "fid": 1228, "CNPJ": "65285689000193", "IDCIDADE": "CAMPINAS", "NOMEFANTASIA": "CAFETERIA_CREMA_E_SABOR", "RAZAOSOCIAL": "65.285.689_VALDIVINA_CHAVES_DE_BRITO_SILVA", "ENDEE": "RUA_XAVIER_MAYER_50_JARDIM_CONCEICAO_(SOUSAS)_13105-038_CAMPINAS_BRASIL", "LMAPS": "https://www.google.com/maps?q=&layer=c&cbll=-22.8872009,-46.9784741", "O_QUE_FAZER": "APLICAR T2", "ER_REGIAO_CIDADE_min": "Campinas_Souzas_Campinas" }, "geometry": { "type": "Point", "coordinates": [ -46.9784741, -22.8872009 ] } },
{ "type": "Feature", "properties": { "fid": 1229, "CNPJ": "11375528000161", "IDCIDADE": "CAMPINAS", "NOMEFANTASIA": "GIVAS_BIKE", "RAZAOSOCIAL": "G._B._DA_SILVA_COMERCIO_DE_PECAS_PARA_BICICLETAS", "ENDEE": "AVENIDA_ANTONIO_CARLOS_COUTO_DE_BARROS1421__VILA_SONIA_13105-000", "LMAPS": "https://www.google.com/maps?q=&layer=c&cbll=-46.9767347,-22.887326", "O_QUE_FAZER": "APLICAR T2", "ER_REGIAO_CIDADE_min": "Campinas_Souzas_Campinas" }, "geometry": { "type": "Point", "coordinates": [ -46.9767347, -22.887326 ] } },
{ "type": "Feature", "properties": { "fid": 1230, "CNPJ": "61180863000182", "IDCIDADE": "CAMPINAS", "NOMEFANTASIA": "TOCADOLOBO.SHOP", "RAZAOSOCIAL": "K&F_COMERCIO_VAREJISTA_LTDA", "ENDEE": "AVENIDA_JULIA_CONCEICAO_ALVES_242_LOTEAMENTO_SANTA_ANA_DO_ATIBAIA_(SOUSAS)_13105-329_CAMPINAS_BRASIL", "LMAPS": "https://www.google.com/maps?q=&layer=c&cbll=-22.887698,-46.9761076", "O_QUE_FAZER": "APLICAR T2", "ER_REGIAO_CIDADE_min": "Campinas_Souzas_Campinas" }, "geometry": { "type": "Point", "coordinates": [ -46.9761076, -22.887698 ] } },
{ "type": "Feature", "properties": { "fid": 88589, "CNPJ": "09096291000138", "IDCIDADE": "CAMPINAS", "NOMEFANTASIA": "PANIFICADORA_NOVA_SOUSAS", "RAZAOSOCIAL": "PANIFICADORA_MENDES_DE_OLIVEIRA_E_NERIS_LTDA", "ENDEE": "RUA_CARLOS_GIOMETTI74__NOVA_SOUSAS_13107-228", "LMAPS": "https://www.google.com/maps?q=&layer=c&cbll=-46.960122,-22.8707277", "O_QUE_FAZER": "CARTEIRA", "ER_REGIAO_CIDADE_min": "Campinas_Souzas_Campinas" }, "geometry": { "type": "Point", "coordinates": [ -46.960122, -22.8707277 ] } },
{ "type": "Feature", "properties": { "fid": 89083, "CNPJ": "06245090000167", "IDCIDADE": "CAMPINAS", "NOMEFANTASIA": "SOLAR_DA_LIMPEZA", "RAZAOSOCIAL": "CASEMIRO_E_NUNES_COMERCIO_DE_UTILIDADES_DOMESTICAS_LTDA", "ENDEE": "RUA_DOS_EXPEDICIONARIOS12__SOUSAS_13013-140", "LMAPS": "https://www.google.com/maps?q=&layer=c&cbll=-46.9680667,-22.8779577", "O_QUE_FAZER": "CARTEIRA", "ER_REGIAO_CIDADE_min": "Campinas_Souzas_Campinas" }, "geometry": { "type": "Point", "coordinates": [ -46.9680667, -22.8779577 ] } },
{ "type": "Feature", "properties": { "fid": 89096, "CNPJ": "40179371000105", "IDCIDADE": "CAMPINAS", "NOMEFANTASIA": "CHICKENJOY", "RAZAOSOCIAL": "ALDAIR_FERNANDO_DOS_SANTOS", "ENDEE": "RUA_MANECO_ROSA8__SOUSAS_13106-005", "LMAPS": "https://www.google.com/maps?q=&layer=c&cbll=-46.9651632,-22.8780619", "O_QUE_FAZER": "CARTEIRA", "ER_REGIAO_CIDADE_min": "Campinas_Souzas_Campinas" }, "geometry": { "type": "Point", "coordinates": [ -46.9651632, -22.8780619 ] } },
{ "type": "Feature", "properties": { "fid": 89101, "CNPJ": "51585324000170", "IDCIDADE": "CAMPINAS", "NOMEFANTASIA": "MARCADO_FEDRIGO", "RAZAOSOCIAL": "GFG_COMERCIO_ALIMENTICIO_LTDA", "ENDEE": "RUA_CABO_OSCAR_ROSSIN15__SOUSAS_13106-034", "LMAPS": "https://www.google.com/maps?q=&layer=c&cbll=-46.9667294,-22.8780749", "O_QUE_FAZER": "CARTEIRA", "ER_REGIAO_CIDADE_min": "Campinas_Souzas_Campinas" }, "geometry": { "type": "Point", "coordinates": [ -46.9667294, -22.8780749 ] } },
{ "type": "Feature", "properties": { "fid": 89102, "CNPJ": "18011987000105", "IDCIDADE": "CAMPINAS", "NOMEFANTASIA": "VIA_VICO_SOUSAS", "RAZAOSOCIAL": "FBF_PIZZA_EXPRESSA_LTDA", "ENDEE": "RUA_MANECO_ROSA79__SOUSAS_13106-005", "LMAPS": "https://www.google.com/maps?q=&layer=c&cbll=-46.9647227,-22.8780751", "O_QUE_FAZER": "CARTEIRA", "ER_REGIAO_CIDADE_min": "Campinas_Souzas_Campinas" }, "geometry": { "type": "Point", "coordinates": [ -46.9647227, -22.8780751 ] } },
{ "type": "Feature", "properties": { "fid": 89111, "CNPJ": "10847244000168", "IDCIDADE": "CAMPINAS", "NOMEFANTASIA": "CICLOSPORT'S", "RAZAOSOCIAL": "ANDRE_ALISSON_REOLON", "ENDEE": "RUA_MANECO_ROSA16__SOUSAS_13106-005", "LMAPS": "https://www.google.com/maps?q=&layer=c&cbll=-46.9651795,-22.8781894", "O_QUE_FAZER": "CARTEIRA", "ER_REGIAO_CIDADE_min": "Campinas_Souzas_Campinas" }, "geometry": { "type": "Point", "coordinates": [ -46.9651795, -22.8781894 ] } },
{ "type": "Feature", "properties": { "fid": 89113, "CNPJ": "40779743000126", "IDCIDADE": "CAMPINAS", "NOMEFANTASIA": "CONVENIENCIA_PLENA", "RAZAOSOCIAL": "PLENA_ESPERANCA_CONVENIENCIA_LTDA", "ENDEE": "AVENIDA_ISABELITA_VIEIRA98__SOUSAS_13106-025", "LMAPS": "https://www.google.com/maps?q=&layer=c&cbll=-46.9671481,-22.8782064", "O_QUE_FAZER": "CARTEIRA", "ER_REGIAO_CIDADE_min": "Campinas_Souzas_Campinas" }, "geometry": { "type": "Point", "coordinates": [ -46.9671481, -22.8782064 ] } },
{ "type": "Feature", "properties": { "fid": 89120, "CNPJ": "11927989000108", "IDCIDADE": "CAMPINAS", "NOMEFANTASIA": "ESPACO_ATRIUM", "RAZAOSOCIAL": "AUDION_ILLUMINATI_PRODUCOES_ARTISTICAS_E_EVENTOS_LIMITADA", "ENDEE": "RUA_MANECO_ROSA30__SOUSAS_13106-005", "LMAPS": "https://www.google.com/maps?q=&layer=c&cbll=-46.965366,-22.8782479", "O_QUE_FAZER": "CARTEIRA", "ER_REGIAO_CIDADE_min": "Campinas_Souzas_Campinas" }, "geometry": { "type": "Point", "coordinates": [ -46.965366, -22.8782479 ] } },
{ "type": "Feature", "properties": { "fid": 89128, "CNPJ": "11350876000184", "IDCIDADE": "CAMPINAS", "NOMEFANTASIA": "ANDRE_CABELOS", "RAZAOSOCIAL": "E._ANDRE_DA_SILVA_CABELOS", "ENDEE": "RUA_ARTHUR_TEIXEIRA_DE_CAMARGO85__SOUSAS_13106-020", "LMAPS": "https://www.google.com/maps?q=&layer=c&cbll=-46.9687903,-22.878295", "O_QUE_FAZER": "CARTEIRA", "ER_REGIAO_CIDADE_min": "Campinas_Souzas_Campinas" }, "geometry": { "type": "Point", "coordinates": [ -46.9687903, -22.878295 ] } },
{ "type": "Feature", "properties": { "fid": 89129, "CNPJ": "11078828000189", "IDCIDADE": "CAMPINAS", "NOMEFANTASIA": "LINDOMAR_DA_SILVA", "RAZAOSOCIAL": "LINDOMAR_DA_SILVA_CABELOS", "ENDEE": "RUA_ARTHUR_TEIXEIRA_DE_CAMARGO85__SOUSAS_13106-020", "LMAPS": "https://www.google.com/maps?q=&layer=c&cbll=-46.9687647,-22.8783023", "O_QUE_FAZER": "CARTEIRA", "ER_REGIAO_CIDADE_min": "Campinas_Souzas_Campinas" }, "geometry": { "type": "Point", "coordinates": [ -46.9687647, -22.8783023 ] } },
{ "type": "Feature", "properties": { "fid": 89131, "CNPJ": "11350811000139", "IDCIDADE": "CAMPINAS", "NOMEFANTASIA": "LUCIOS_CABELO", "RAZAOSOCIAL": "LUCIO_DA_SILVA_CABELOS", "ENDEE": "RUA_ARTHUR_TEIXEIRA_DE_CAMARGO85__SOUSAS_13106-020", "LMAPS": "https://www.google.com/maps?q=&layer=c&cbll=-46.9687254,-22.8783193", "O_QUE_FAZER": "CARTEIRA", "ER_REGIAO_CIDADE_min": "Campinas_Souzas_Campinas" }, "geometry": { "type": "Point", "coordinates": [ -46.9687254, -22.8783193 ] } },
{ "type": "Feature", "properties": { "fid": 89146, "CNPJ": "55598554000124", "IDCIDADE": "CAMPINAS", "NOMEFANTASIA": "GUION_MARMITARIA", "RAZAOSOCIAL": "RGA_RESTAURANTE_E_MARMITARIA_LTDA", "ENDEE": "RUA_MANECO_ROSA45__SOUSAS_13106-005", "LMAPS": "https://www.google.com/maps?q=&layer=c&cbll=-46.9650694,-22.87845", "O_QUE_FAZER": "CARTEIRA", "ER_REGIAO_CIDADE_min": "Campinas_Souzas_Campinas" }, "geometry": { "type": "Point", "coordinates": [ -46.9650694, -22.87845 ] } },
{ "type": "Feature", "properties": { "fid": 89150, "CNPJ": "41454524000130", "IDCIDADE": "CAMPINAS", "NOMEFANTASIA": "VELOSO_AMBIENTAL", "RAZAOSOCIAL": "S_F_VELOSO_AMBIENTAL_LTDA", "ENDEE": "RUA_CORONEL_ALFREDO_AUGUSTO_DO_NASCIMENTO2000__SOUSAS_13106-000", "LMAPS": "https://www.google.com/maps?q=&layer=c&cbll=-46.9560056,-22.8784976", "O_QUE_FAZER": "CARTEIRA", "ER_REGIAO_CIDADE_min": "Campinas_Souzas_Campinas" }, "geometry": { "type": "Point", "coordinates": [ -46.9560056, -22.8784976 ] } },
{ "type": "Feature", "properties": { "fid": 89166, "CNPJ": "32373077000101", "IDCIDADE": "CAMPINAS", "NOMEFANTASIA": "COSTURA_E_BAZAR_CATARINA", "RAZAOSOCIAL": "COSTURA_E_BAZAR_CATARINA_LTDA", "ENDEE": "RUA_MANECO_ROSA74__SOUSAS_13106-005", "LMAPS": "https://www.google.com/maps?q=&layer=c&cbll=-46.9653953,-22.87863", "O_QUE_FAZER": "CARTEIRA", "ER_REGIAO_CIDADE_min": "Campinas_Souzas_Campinas" }, "geometry": { "type": "Point", "coordinates": [ -46.9653953, -22.87863 ] } },
{ "type": "Feature", "properties": { "fid": 89171, "CNPJ": "18676151000120", "IDCIDADE": "CAMPINAS", "NOMEFANTASIA": "MALU_PRESENTES_E_PAPELARIA", "RAZAOSOCIAL": "MARIA_DE_LOURDES_JOAO_MANCIN", "ENDEE": "RUA_MANECO_ROSA66__SOUSAS_13106-005", "LMAPS": "https://www.google.com/maps?q=&layer=c&cbll=-46.9654824,-22.8786476", "O_QUE_FAZER": "CARTEIRA", "ER_REGIAO_CIDADE_min": "Campinas_Souzas_Campinas" }, "geometry": { "type": "Point", "coordinates": [ -46.9654824, -22.8786476 ] } },
{ "type": "Feature", "properties": { "fid": 89173, "CNPJ": "61938288000134", "IDCIDADE": "CAMPINAS", "NOMEFANTASIA": "PASTA_PERTUTTI", "RAZAOSOCIAL": "ROTISSERIE_PASTA_PER_TUTTI_LTDA", "ENDEE": "RUA_MANECO_ROSA74__SOUSAS_13106-005", "LMAPS": "https://www.google.com/maps?q=&layer=c&cbll=-46.9655283,-22.8786664", "O_QUE_FAZER": "CARTEIRA", "ER_REGIAO_CIDADE_min": "Campinas_Souzas_Campinas" }, "geometry": { "type": "Point", "coordinates": [ -46.9655283, -22.8786664 ] } },
{ "type": "Feature", "properties": { "fid": 89174, "CNPJ": "38594501000116", "IDCIDADE": "CAMPINAS", "NOMEFANTASIA": "INOVA_IMOVEIS", "RAZAOSOCIAL": "PRADO_E_CARVALHO_IMOVEIS_LTDA", "ENDEE": "AVENIDA_ISABELITA_VIEIRA3__SOUSAS_13106-025", "LMAPS": "https://www.google.com/maps?q=&layer=c&cbll=-46.9661945,-22.8786708", "O_QUE_FAZER": "CARTEIRA", "ER_REGIAO_CIDADE_min": "Campinas_Souzas_Campinas" }, "geometry": { "type": "Point", "coordinates": [ -46.9661945, -22.8786708 ] } },
{ "type": "Feature", "properties": { "fid": 89179, "CNPJ": "14621846000153", "IDCIDADE": "CAMPINAS", "NOMEFANTASIA": "ARRUMA_CASA", "RAZAOSOCIAL": "COMERCIAL_ELETRICA_GALLERIA_LTDA", "ENDEE": "RUA_MANECO_ROSA74__SOUSAS_13106-005", "LMAPS": "https://www.google.com/maps?q=&layer=c&cbll=-46.9652192,-22.8786866", "O_QUE_FAZER": "CARTEIRA", "ER_REGIAO_CIDADE_min": "Campinas_Souzas_Campinas" }, "geometry": { "type": "Point", "coordinates": [ -46.9652192, -22.8786866 ] } },
{ "type": "Feature", "properties": { "fid": 89180, "CNPJ": "45085075000150", "IDCIDADE": "CAMPINAS", "NOMEFANTASIA": "AGSILVA", "RAZAOSOCIAL": "AGSILVA_LTDA", "ENDEE": "RUA_MANECO_ROSA74__SOUSAS_13106-005", "LMAPS": "https://www.google.com/maps?q=&layer=c&cbll=-46.96551,-22.8786869", "O_QUE_FAZER": "CARTEIRA", "ER_REGIAO_CIDADE_min": "Campinas_Souzas_Campinas" }, "geometry": { "type": "Point", "coordinates": [ -46.96551, -22.8786869 ] } },
{ "type": "Feature", "properties": { "fid": 89181, "CNPJ": "23674657000130", "IDCIDADE": "CAMPINAS", "NOMEFANTASIA": "DOCE_CONVIVIO_CAFE_E_BOLOS", "RAZAOSOCIAL": "DOCE_CONVIVIO_CAFE_E_BOLOS_LTDA.", "ENDEE": "RUA_MANECO_ROSA74__SOUSAS_13106-005", "LMAPS": "https://www.google.com/maps?q=&layer=c&cbll=-46.9654503,-22.8786925", "O_QUE_FAZER": "CARTEIRA", "ER_REGIAO_CIDADE_min": "Campinas_Souzas_Campinas" }, "geometry": { "type": "Point", "coordinates": [ -46.9654503, -22.8786925 ] } },
{ "type": "Feature", "properties": { "fid": 89198, "CNPJ": "39573208000135", "IDCIDADE": "CAMPINAS", "NOMEFANTASIA": "BAR_CENTRAL", "RAZAOSOCIAL": "JOAO_PAULO_PERIA", "ENDEE": "RUA_CORONEL_ALFREDO_AUGUSTO_DO_NASCIMENTO73__SOUSAS_13106-000", "LMAPS": "https://www.google.com/maps?q=&layer=c&cbll=-46.9649686,-22.8788555", "O_QUE_FAZER": "CARTEIRA", "ER_REGIAO_CIDADE_min": "Campinas_Souzas_Campinas" }, "geometry": { "type": "Point", "coordinates": [ -46.9649686, -22.8788555 ] } },
{ "type": "Feature", "properties": { "fid": 89203, "CNPJ": "54866272000106", "IDCIDADE": "CAMPINAS", "NOMEFANTASIA": "GB_CALCADOS", "RAZAOSOCIAL": "GRESSONI_&_BORTOLLOTTI_CONFECCOES_E_CALCADOS_LTDA", "ENDEE": "RUA_CORONEL_ALFREDO_AUGUSTO_DO_NASCIMENTO85__SOUSAS_13106-000", "LMAPS": "https://www.google.com/maps?q=&layer=c&cbll=-46.9649145,-22.8788844", "O_QUE_FAZER": "CARTEIRA", "ER_REGIAO_CIDADE_min": "Campinas_Souzas_Campinas" }, "geometry": { "type": "Point", "coordinates": [ -46.9649145, -22.8788844 ] } },
{ "type": "Feature", "properties": { "fid": 89207, "CNPJ": "04336718000104", "IDCIDADE": "CAMPINAS", "NOMEFANTASIA": "SENNA_CENTRO_DE_FORMACAO_DE_CONDUTORES", "RAZAOSOCIAL": "CENTRO_DE_FORMACAO_DE_CONDUTORES_AFONSO_&_SALLES_FILHO_LTDA", "ENDEE": "RUA_CORONEL_ALFREDO_AUGUSTO_DO_NASCIMENTO81__SOUSAS_13106-000", "LMAPS": "https://www.google.com/maps?q=&layer=c&cbll=-46.9649397,-22.8788932", "O_QUE_FAZER": "CARTEIRA", "ER_REGIAO_CIDADE_min": "Campinas_Souzas_Campinas" }, "geometry": { "type": "Point", "coordinates": [ -46.9649397, -22.8788932 ] } },
{ "type": "Feature", "properties": { "fid": 89209, "CNPJ": "67733097000112", "IDCIDADE": "CAMPINAS", "NOMEFANTASIA": "M_MAULE_IMOVEIS", "RAZAOSOCIAL": "MAULE_CORRETORA_DE_IMOVEIS_LTDA", "ENDEE": "RUA_ARTHUR_TEIXEIRA_DE_CAMARGO160__SOUSAS_13106-020", "LMAPS": "https://www.google.com/maps?q=&layer=c&cbll=-46.9689494,-22.8789092", "O_QUE_FAZER": "CARTEIRA", "ER_REGIAO_CIDADE_min": "Campinas_Souzas_Campinas" }, "geometry": { "type": "Point", "coordinates": [ -46.9689494, -22.8789092 ] } },
{ "type": "Feature", "properties": { "fid": 89211, "CNPJ": "48285642000100", "IDCIDADE": "CAMPINAS", "NOMEFANTASIA": "ESQUINAO_SOUSAS", "RAZAOSOCIAL": "ESQUINAO_RESTAURANTE_LTDA", "ENDEE": "RUA_CORONEL_ALFREDO_AUGUSTO_DO_NASCIMENTO62__SOUSAS_13106-000", "LMAPS": "https://www.google.com/maps?q=&layer=c&cbll=-46.9652192,-22.878923", "O_QUE_FAZER": "CARTEIRA", "ER_REGIAO_CIDADE_min": "Campinas_Souzas_Campinas" }, "geometry": { "type": "Point", "coordinates": [ -46.9652192, -22.878923 ] } },
{ "type": "Feature", "properties": { "fid": 89215, "CNPJ": "53332383000161", "IDCIDADE": "CAMPINAS", "NOMEFANTASIA": "ACOUGUE_LEARDINO", "RAZAOSOCIAL": "A_LEARDINI_&_CIA_LTDA", "ENDEE": "RUA_CORONEL_ALFREDO_AUGUSTO_DO_NASCIMENTO70__SOUSAS_13106-000", "LMAPS": "https://www.google.com/maps?q=&layer=c&cbll=-46.9650221,-22.8789477", "O_QUE_FAZER": "CARTEIRA", "ER_REGIAO_CIDADE_min": "Campinas_Souzas_Campinas" }, "geometry": { "type": "Point", "coordinates": [ -46.9650221, -22.8789477 ] } },
{ "type": "Feature", "properties": { "fid": 89217, "CNPJ": "00029366000193", "IDCIDADE": "CAMPINAS", "NOMEFANTASIA": "AVENIDA_AUTO_PECAS", "RAZAOSOCIAL": "AUTO_PECAS_LOPES_E_BENETAZZO_LTDA", "ENDEE": "RUA_CORONEL_ALFREDO_AUGUSTO_DO_NASCIMENTO91__SOUSAS_13106-000", "LMAPS": "https://www.google.com/maps?q=&layer=c&cbll=-46.9648667,-22.8789483", "O_QUE_FAZER": "CARTEIRA", "ER_REGIAO_CIDADE_min": "Campinas_Souzas_Campinas" }, "geometry": { "type": "Point", "coordinates": [ -46.9648667, -22.8789483 ] } },
{ "type": "Feature", "properties": { "fid": 89225, "CNPJ": "14981570000114", "IDCIDADE": "CAMPINAS", "NOMEFANTASIA": "W_IMOVEIS", "RAZAOSOCIAL": "W_IMOVEIS_ASSESSORIA_IMOBILIARIA_LTDA", "ENDEE": "RUA_MONSENHOR_DOUTOR_EMILIO_JOSE_SALIM21__SOUSAS_13106-004", "LMAPS": "https://www.google.com/maps?q=&layer=c&cbll=-46.9652645,-22.8789868", "O_QUE_FAZER": "CARTEIRA", "ER_REGIAO_CIDADE_min": "Campinas_Souzas_Campinas" }, "geometry": { "type": "Point", "coordinates": [ -46.9652645, -22.8789868 ] } },
{ "type": "Feature", "properties": { "fid": 89227, "CNPJ": "56167117000119", "IDCIDADE": "CAMPINAS", "NOMEFANTASIA": "MERCEARIA_NOSSA_SENHORA_APARECIDA", "RAZAOSOCIAL": "MIATTO_&_LABEGALINI_LTDA", "ENDEE": "RUA_CORONEL_ALFREDO_AUGUSTO_DO_NASCIMENTO88__SOUSAS_13106-000", "LMAPS": "https://www.google.com/maps?q=&layer=c&cbll=-46.964858,-22.8789966", "O_QUE_FAZER": "CARTEIRA", "ER_REGIAO_CIDADE_min": "Campinas_Souzas_Campinas" }, "geometry": { "type": "Point", "coordinates": [ -46.964858, -22.8789966 ] } },
{ "type": "Feature", "properties": { "fid": 89233, "CNPJ": "30690452000103", "IDCIDADE": "CAMPINAS", "NOMEFANTASIA": "AGUA_NA_BOCA", "RAZAOSOCIAL": "ROBERTA_COIMBRA_BUFARAH_PEREIRA", "ENDEE": "RUA_CORONEL_ALFREDO_AUGUSTO_DO_NASCIMENTO96__SOUSAS_13106-000", "LMAPS": "https://www.google.com/maps?q=&layer=c&cbll=-46.9647997,-22.8790222", "O_QUE_FAZER": "CARTEIRA", "ER_REGIAO_CIDADE_min": "Campinas_Souzas_Campinas" }, "geometry": { "type": "Point", "coordinates": [ -46.9647997, -22.8790222 ] } },
{ "type": "Feature", "properties": { "fid": 89234, "CNPJ": "52874401000174", "IDCIDADE": "CAMPINAS", "NOMEFANTASIA": "MONALISA_MODAS", "RAZAOSOCIAL": "MONALISA_MODAS_LTDA", "ENDEE": "RUA_CORONEL_ALFREDO_AUGUSTO_DO_NASCIMENTO143__SOUSAS_13106-000", "LMAPS": "https://www.google.com/maps?q=&layer=c&cbll=-46.9643568,-22.8790306", "O_QUE_FAZER": "CARTEIRA", "ER_REGIAO_CIDADE_min": "Campinas_Souzas_Campinas" }, "geometry": { "type": "Point", "coordinates": [ -46.9643568, -22.8790306 ] } },
{ "type": "Feature", "properties": { "fid": 89243, "CNPJ": "07063544000141", "IDCIDADE": "CAMPINAS", "NOMEFANTASIA": "AGROPECUARIA_DO_MIGUEL", "RAZAOSOCIAL": "MIGUEL_DENTINI_NETO", "ENDEE": "RUA_CORONEL_ALFREDO_AUGUSTO_DO_NASCIMENTO78__SOUSAS_13106-000", "LMAPS": "https://www.google.com/maps?q=&layer=c&cbll=-46.9650417,-22.8790782", "O_QUE_FAZER": "CARTEIRA", "ER_REGIAO_CIDADE_min": "Campinas_Souzas_Campinas" }, "geometry": { "type": "Point", "coordinates": [ -46.9650417, -22.8790782 ] } },
{ "type": "Feature", "properties": { "fid": 89244, "CNPJ": "07063235000171", "IDCIDADE": "CAMPINAS", "NOMEFANTASIA": "ATUALI_NEGOCIOS_IMOBILIARIOS", "RAZAOSOCIAL": "ATUALI_NEGOCIOS_IMOBILIARIOS_LTDA", "ENDEE": "RUA_ARTHUR_TEIXEIRA_DE_CAMARGO186__SOUSAS_13106-020", "LMAPS": "https://www.google.com/maps?q=&layer=c&cbll=-46.9690138,-22.8790843", "O_QUE_FAZER": "CARTEIRA", "ER_REGIAO_CIDADE_min": "Campinas_Souzas_Campinas" }, "geometry": { "type": "Point", "coordinates": [ -46.9690138, -22.8790843 ] } },
{ "type": "Feature", "properties": { "fid": 89270, "CNPJ": "10321847000121", "IDCIDADE": "CAMPINAS", "NOMEFANTASIA": "ECO_SOM", "RAZAOSOCIAL": "MARCELO_SIMOES_PEIXEIRO", "ENDEE": "RUA_CORONEL_ALFREDO_AUGUSTO_DO_NASCIMENTO196__SOUSAS_13106-000", "LMAPS": "https://www.google.com/maps?q=&layer=c&cbll=-46.9638312,-22.8792293", "O_QUE_FAZER": "CARTEIRA", "ER_REGIAO_CIDADE_min": "Campinas_Souzas_Campinas" }, "geometry": { "type": "Point", "coordinates": [ -46.9638312, -22.8792293 ] } },
{ "type": "Feature", "properties": { "fid": 89284, "CNPJ": "55372401000164", "IDCIDADE": "CAMPINAS", "NOMEFANTASIA": "DISTRITO_BAR_&_RESTAURANTE", "RAZAOSOCIAL": "DISTRITO_SOUSAS_BAR_&_RESTAURANTE_LTDA", "ENDEE": "RUA_SIQUEIRA_CAMPOS27__SOUSAS_13106-006", "LMAPS": "https://www.google.com/maps?q=&layer=c&cbll=-46.9644896,-22.8793229", "O_QUE_FAZER": "CARTEIRA", "ER_REGIAO_CIDADE_min": "Campinas_Souzas_Campinas" }, "geometry": { "type": "Point", "coordinates": [ -46.9644896, -22.8793229 ] } },
{ "type": "Feature", "properties": { "fid": 89289, "CNPJ": "33172918000177", "IDCIDADE": "CAMPINAS", "NOMEFANTASIA": "CASA_PRIMAVERA", "RAZAOSOCIAL": "PRIMAVERA_LOJA_CONVIVIO_COMERCIO_E_SERVICOS_LTDA", "ENDEE": "RUA_ARTHUR_TEIXEIRA_DE_CAMARGO196__SOUSAS_13106-020", "LMAPS": "https://www.google.com/maps?q=&layer=c&cbll=-46.9690817,-22.8793643", "O_QUE_FAZER": "CARTEIRA", "ER_REGIAO_CIDADE_min": "Campinas_Souzas_Campinas" }, "geometry": { "type": "Point", "coordinates": [ -46.9690817, -22.8793643 ] } },
{ "type": "Feature", "properties": { "fid": 89308, "CNPJ": "08492685000142", "IDCIDADE": "CAMPINAS", "NOMEFANTASIA": "GCG_GRAFICA", "RAZAOSOCIAL": "GUSTAVO_CONTE_DA_VINHA", "ENDEE": "RUA_SIQUEIRA_CAMPOS69__SOUSAS_13034-580", "LMAPS": "https://www.google.com/maps?q=&layer=c&cbll=-46.9645359,-22.8796369", "O_QUE_FAZER": "CARTEIRA", "ER_REGIAO_CIDADE_min": "Campinas_Souzas_Campinas" }, "geometry": { "type": "Point", "coordinates": [ -46.9645359, -22.8796369 ] } },
{ "type": "Feature", "properties": { "fid": 89375, "CNPJ": "20185412000150", "IDCIDADE": "CAMPINAS", "NOMEFANTASIA": "TEUE", "RAZAOSOCIAL": "TEUE_COMERCIO_DE_ROUPAS_E_ENXOVAIS_LTDA", "ENDEE": "RUA_ATTILIO_ZANATTA171__VILA_SONIA_13105-514", "LMAPS": "https://www.google.com/maps?q=&layer=c&cbll=-46.9685694,-22.8804434", "O_QUE_FAZER": "CARTEIRA", "ER_REGIAO_CIDADE_min": "Campinas_Souzas_Campinas" }, "geometry": { "type": "Point", "coordinates": [ -46.9685694, -22.8804434 ] } },
{ "type": "Feature", "properties": { "fid": 89388, "CNPJ": "09074581000180", "IDCIDADE": "CAMPINAS", "NOMEFANTASIA": "COLINAS_AGUAS", "RAZAOSOCIAL": "MLG_-_COMERCIO_VAREJISTA_DE_BEBIDAS_LTDA", "ENDEE": "AVENIDA_ANTONIO_CARLOS_COUTO_DE_BARROS380__VILA_SONIA_13105-000", "LMAPS": "https://www.google.com/maps?q=&layer=c&cbll=-46.9699992,-22.880563", "O_QUE_FAZER": "CARTEIRA", "ER_REGIAO_CIDADE_min": "Campinas_Souzas_Campinas" }, "geometry": { "type": "Point", "coordinates": [ -46.9699992, -22.880563 ] } },
{ "type": "Feature", "properties": { "fid": 89396, "CNPJ": "59038653000102", "IDCIDADE": "CAMPINAS", "NOMEFANTASIA": "COLEGIO_VERTICAL", "RAZAOSOCIAL": "COLEGIO_VERTICAL_LTDA", "ENDEE": "AVENIDA_ANTONIO_CARLOS_COUTO_DE_BARROS426__VILA_SONIA_13105-000", "LMAPS": "https://www.google.com/maps?q=&layer=c&cbll=-46.9702991,-22.8807236", "O_QUE_FAZER": "CARTEIRA", "ER_REGIAO_CIDADE_min": "Campinas_Souzas_Campinas" }, "geometry": { "type": "Point", "coordinates": [ -46.9702991, -22.8807236 ] } },
{ "type": "Feature", "properties": { "fid": 89422, "CNPJ": "42425423000101", "IDCIDADE": "CAMPINAS", "NOMEFANTASIA": "AFRO_PRATES_MUNDO_ANIMAL", "RAZAOSOCIAL": "AGRO_PRATES_MUNDO_ANIMAL_LTDA", "ENDEE": "AVENIDA_ANTONIO_CARLOS_COUTO_DE_BARROS456__VILA_SONIA_13105-000", "LMAPS": "https://www.google.com/maps?q=&layer=c&cbll=-46.9705614,-22.8809789", "O_QUE_FAZER": "CARTEIRA", "ER_REGIAO_CIDADE_min": "Campinas_Souzas_Campinas" }, "geometry": { "type": "Point", "coordinates": [ -46.9705614, -22.8809789 ] } },
{ "type": "Feature", "properties": { "fid": 89423, "CNPJ": "18075771000103", "IDCIDADE": "CAMPINAS", "NOMEFANTASIA": "PRATES_MATERIAIS_DE_CONSTRUCAO", "RAZAOSOCIAL": "WANDERLEY_DA_SILVA_PRATES", "ENDEE": "AVENIDA_ANTONIO_CARLOS_COUTO_DE_BARROS456__VILA_SONIA_13105-000", "LMAPS": "https://www.google.com/maps?q=&layer=c&cbll=-46.9705083,-22.8809867", "O_QUE_FAZER": "CARTEIRA", "ER_REGIAO_CIDADE_min": "Campinas_Souzas_Campinas" }, "geometry": { "type": "Point", "coordinates": [ -46.9705083, -22.8809867 ] } },
{ "type": "Feature", "properties": { "fid": 89437, "CNPJ": "36526343000131", "IDCIDADE": "CAMPINAS", "NOMEFANTASIA": "AITAIN_RESTAURANTE", "RAZAOSOCIAL": "FCC_ALIMENTACAO_LTDA", "ENDEE": "AVENIDA_ANTONIO_CARLOS_COUTO_DE_BARROS425__VILA_SONIA_13105-000", "LMAPS": "https://www.google.com/maps?q=&layer=c&cbll=-46.9698126,-22.8811736", "O_QUE_FAZER": "CARTEIRA", "ER_REGIAO_CIDADE_min": "Campinas_Souzas_Campinas" }, "geometry": { "type": "Point", "coordinates": [ -46.9698126, -22.8811736 ] } },
{ "type": "Feature", "properties": { "fid": 89442, "CNPJ": "51446867000106", "IDCIDADE": "CAMPINAS", "NOMEFANTASIA": "ESPECIALISTAS_VISTORIAS_VEICULARES_SOUSAS", "RAZAOSOCIAL": "ESPECIALISTAS_VISTORIAS_VEICULARES_SOUSAS_CAMPINAS_LTDA", "ENDEE": "AVENIDA_ANTONIO_CARLOS_COUTO_DE_BARROS502__VILA_SONIA_13105-000", "LMAPS": "https://www.google.com/maps?q=&layer=c&cbll=-46.9707213,-22.8812068", "O_QUE_FAZER": "CARTEIRA", "ER_REGIAO_CIDADE_min": "Campinas_Souzas_Campinas" }, "geometry": { "type": "Point", "coordinates": [ -46.9707213, -22.8812068 ] } },
{ "type": "Feature", "properties": { "fid": 89456, "CNPJ": "26978980000195", "IDCIDADE": "CAMPINAS", "NOMEFANTASIA": "DFX_FERRAMENTAS", "RAZAOSOCIAL": "DFX_COMERCIAL_LTDA", "ENDEE": "AVENIDA_ANTONIO_CARLOS_COUTO_DE_BARROS512__VILA_SONIA_13105-000", "LMAPS": "https://www.google.com/maps?q=&layer=c&cbll=-46.9708081,-22.8812908", "O_QUE_FAZER": "CARTEIRA", "ER_REGIAO_CIDADE_min": "Campinas_Souzas_Campinas" }, "geometry": { "type": "Point", "coordinates": [ -46.9708081, -22.8812908 ] } },
{ "type": "Feature", "properties": { "fid": 89499, "CNPJ": "41817989000108", "IDCIDADE": "CAMPINAS", "NOMEFANTASIA": "FOODZ_4U_ALIMENTOS_E_PRODUTOS_SAUDAVEIS", "RAZAOSOCIAL": "FOODZ_4U_ALIMENTOS_E_PRODUTOS_SAUDAVEIS_LTDA", "ENDEE": "AVENIDA_ANTONIO_CARLOS_COUTO_DE_BARROS475__VILA_SONIA_13105-000", "LMAPS": "https://www.google.com/maps?q=&layer=c&cbll=-46.97035,-22.8816133", "O_QUE_FAZER": "CARTEIRA", "ER_REGIAO_CIDADE_min": "Campinas_Souzas_Campinas" }, "geometry": { "type": "Point", "coordinates": [ -46.97035, -22.8816133 ] } },
{ "type": "Feature", "properties": { "fid": 89500, "CNPJ": "32264082000178", "IDCIDADE": "CAMPINAS", "NOMEFANTASIA": "1003_CELULARES", "RAZAOSOCIAL": "1003_PLATZ_-_SERVICOS_E_COMERCIO_DE_CELULARES_LTDA", "ENDEE": "AVENIDA_ANTONIO_CARLOS_COUTO_DE_BARROS475__VILA_SONIA_13105-000", "LMAPS": "https://www.google.com/maps?q=&layer=c&cbll=-46.9703971,-22.8816257", "O_QUE_FAZER": "CARTEIRA", "ER_REGIAO_CIDADE_min": "Campinas_Souzas_Campinas" }, "geometry": { "type": "Point", "coordinates": [ -46.9703971, -22.8816257 ] } },
{ "type": "Feature", "properties": { "fid": 89503, "CNPJ": "33418248000126", "IDCIDADE": "CAMPINAS", "NOMEFANTASIA": "F_&_L_BOMBONIERE_CAFETERIA", "RAZAOSOCIAL": "F_&_L_BOMBONIERE_CAFETERIA_LTDA", "ENDEE": "AVENIDA_ANTONIO_CARLOS_COUTO_DE_BARROS475__VILA_SONIA_13105-000", "LMAPS": "https://www.google.com/maps?q=&layer=c&cbll=-46.9703926,-22.8816684", "O_QUE_FAZER": "CARTEIRA", "ER_REGIAO_CIDADE_min": "Campinas_Souzas_Campinas" }, "geometry": { "type": "Point", "coordinates": [ -46.9703926, -22.8816684 ] } },
{ "type": "Feature", "properties": { "fid": 89509, "CNPJ": "31495512000280", "IDCIDADE": "CAMPINAS", "NOMEFANTASIA": "CAMPFARMA_EXTRA_VAREJO_FARMACEUTICO", "RAZAOSOCIAL": "CAMPFARMA_EXTRA_VAREJO_FARMACEUTICO_LTDA", "ENDEE": "AVENIDA_ANTONIO_CARLOS_COUTO_DE_BARROS475__VILA_SONIA_13105-000", "LMAPS": "https://www.google.com/maps?q=&layer=c&cbll=-46.9703217,-22.8817005", "O_QUE_FAZER": "CARTEIRA", "ER_REGIAO_CIDADE_min": "Campinas_Souzas_Campinas" }, "geometry": { "type": "Point", "coordinates": [ -46.9703217, -22.8817005 ] } },
{ "type": "Feature", "properties": { "fid": 89558, "CNPJ": "20526574000105", "IDCIDADE": "CAMPINAS", "NOMEFANTASIA": "SANTA_PAULA_CONTABILIDADE", "RAZAOSOCIAL": "SANTA_PAULA_CONTABILIDADE_LTDA", "ENDEE": "AVENIDA_DONA_MARIA_FRANCO_SALGADO370__JARDIM_ATIBAIA_13106-290", "LMAPS": "https://www.google.com/maps?q=&layer=c&cbll=-46.9652624,-22.8821372", "O_QUE_FAZER": "CARTEIRA", "ER_REGIAO_CIDADE_min": "Campinas_Souzas_Campinas" }, "geometry": { "type": "Point", "coordinates": [ -46.9652624, -22.8821372 ] } },
{ "type": "Feature", "properties": { "fid": 89568, "CNPJ": "30436030000106", "IDCIDADE": "CAMPINAS", "NOMEFANTASIA": "KUMON_SOUSAS", "RAZAOSOCIAL": "KEYLA_YOKO_NISHIMOTO_KUBOTA_LTDA", "ENDEE": "AVENIDA_ANTONIO_CARLOS_COUTO_DE_BARROS626__JARDIM_CONCEICAO_13105-000", "LMAPS": "https://www.google.com/maps?q=&layer=c&cbll=-46.9715802,-22.88221", "O_QUE_FAZER": "CARTEIRA", "ER_REGIAO_CIDADE_min": "Campinas_Souzas_Campinas" }, "geometry": { "type": "Point", "coordinates": [ -46.9715802, -22.88221 ] } },
{ "type": "Feature", "properties": { "fid": 89599, "CNPJ": "43132952000171", "IDCIDADE": "CAMPINAS", "NOMEFANTASIA": "SULINA_CHURRASCARIA", "RAZAOSOCIAL": "SULINA_PARRILLA_&_RESTAURANTE_LTDA", "ENDEE": "AVENIDA_ANTONIO_CARLOS_COUTO_DE_BARROS633__VILA_SONIA_13105-000", "LMAPS": "https://www.google.com/maps?q=&layer=c&cbll=-46.9711409,-22.8824016", "O_QUE_FAZER": "CARTEIRA", "ER_REGIAO_CIDADE_min": "Campinas_Souzas_Campinas" }, "geometry": { "type": "Point", "coordinates": [ -46.9711409, -22.8824016 ] } },
{ "type": "Feature", "properties": { "fid": 89605, "CNPJ": "33680609000108", "IDCIDADE": "CAMPINAS", "NOMEFANTASIA": "IMMUNIZZARE_VACINAS", "RAZAOSOCIAL": "IMMUNIZZARE_-_CLINICA_DE_SAUDE_LTDA", "ENDEE": "AVENIDA_ANTONIO_CARLOS_COUTO_DE_BARROS666__JARDIM_CONCEICAO_13105-000", "LMAPS": "https://www.google.com/maps?q=&layer=c&cbll=-46.9718109,-22.8824552", "O_QUE_FAZER": "CARTEIRA", "ER_REGIAO_CIDADE_min": "Campinas_Souzas_Campinas" }, "geometry": { "type": "Point", "coordinates": [ -46.9718109, -22.8824552 ] } },
{ "type": "Feature", "properties": { "fid": 89607, "CNPJ": "03329506000137", "IDCIDADE": "CAMPINAS", "NOMEFANTASIA": "CAFE_SHELL", "RAZAOSOCIAL": "ANA_MARIA_GRAZIA_PENNACHIN", "ENDEE": "AVENIDA_ANTONIO_CARLOS_COUTO_DE_BARROS1100__JARDIM_CONCEICAO_13105-000", "LMAPS": "https://www.google.com/maps?q=&layer=c&cbll=-46.9742567,-22.8824767", "O_QUE_FAZER": "CARTEIRA", "ER_REGIAO_CIDADE_min": "Campinas_Souzas_Campinas" }, "geometry": { "type": "Point", "coordinates": [ -46.9742567, -22.8824767 ] } },
{ "type": "Feature", "properties": { "fid": 89656, "CNPJ": "14457908000133", "IDCIDADE": "CAMPINAS", "NOMEFANTASIA": "DISKVET", "RAZAOSOCIAL": "AMADIO_&_GODOY_LTDA", "ENDEE": "RUA_JOAO_PESSOA154__JARDIM_ROSANA_13105-532", "LMAPS": "https://www.google.com/maps?q=&layer=c&cbll=-46.9710887,-22.8830012", "O_QUE_FAZER": "CARTEIRA", "ER_REGIAO_CIDADE_min": "Campinas_Souzas_Campinas" }, "geometry": { "type": "Point", "coordinates": [ -46.9710887, -22.8830012 ] } },
{ "type": "Feature", "properties": { "fid": 89679, "CNPJ": "03485123000158", "IDCIDADE": "CAMPINAS", "NOMEFANTASIA": "COLEGIO_VILLA_LOBOS_CAMPINAS", "RAZAOSOCIAL": "COLEGIO_VILLA_LOBOS_CAMPINAS_LTDA", "ENDEE": "RUA_ATILIO_FOCESI116__JARDIM_SAO_FRANCISCO_13105-168", "LMAPS": "https://www.google.com/maps?q=&layer=c&cbll=-46.9715775,-22.8832552", "O_QUE_FAZER": "CARTEIRA", "ER_REGIAO_CIDADE_min": "Campinas_Souzas_Campinas" }, "geometry": { "type": "Point", "coordinates": [ -46.9715775, -22.8832552 ] } },
{ "type": "Feature", "properties": { "fid": 89680, "CNPJ": "34605540000110", "IDCIDADE": "CAMPINAS", "NOMEFANTASIA": "PONTO_DA_ESFIHA", "RAZAOSOCIAL": "JULIANA_DE_OLIVEIRA_SILVA_ESFIHARIA", "ENDEE": "AVENIDA_ANTONIO_CARLOS_COUTO_DE_BARROS747__VILA_SONIA_13105-000", "LMAPS": "https://www.google.com/maps?q=&layer=c&cbll=-46.9719643,-22.8832707", "O_QUE_FAZER": "CARTEIRA", "ER_REGIAO_CIDADE_min": "Campinas_Souzas_Campinas" }, "geometry": { "type": "Point", "coordinates": [ -46.9719643, -22.8832707 ] } },
{ "type": "Feature", "properties": { "fid": 89686, "CNPJ": "51600798000143", "IDCIDADE": "CAMPINAS", "NOMEFANTASIA": "FBC_STUDIOS", "RAZAOSOCIAL": "GA_PATTARO_IMPORTACAO_E_EXPORTACAO_LTDA", "ENDEE": "AVENIDA_ANTONIO_CARLOS_COUTO_DE_BARROS757__VILA_SONIA_13105-000", "LMAPS": "https://www.google.com/maps?q=&layer=c&cbll=-46.971998,-22.8833745", "O_QUE_FAZER": "CARTEIRA", "ER_REGIAO_CIDADE_min": "Campinas_Souzas_Campinas" }, "geometry": { "type": "Point", "coordinates": [ -46.971998, -22.8833745 ] } },
{ "type": "Feature", "properties": { "fid": 89779, "CNPJ": "04748867000180", "IDCIDADE": "CAMPINAS", "NOMEFANTASIA": "PEDRAS_CAPRICORNIO", "RAZAOSOCIAL": "CAPRICORNIO_CONSTRUCOES_E_SERVICOS_LTDA", "ENDEE": "AVENIDA_ANTONIO_CARLOS_COUTO_DE_BARROS926__VILA_SONIA_13105-000", "LMAPS": "https://www.google.com/maps?q=&layer=c&cbll=-46.9732656,-22.8840856", "O_QUE_FAZER": "CARTEIRA", "ER_REGIAO_CIDADE_min": "Campinas_Souzas_Campinas" }, "geometry": { "type": "Point", "coordinates": [ -46.9732656, -22.8840856 ] } },
{ "type": "Feature", "properties": { "fid": 89789, "CNPJ": "51159900000117", "IDCIDADE": "CAMPINAS", "NOMEFANTASIA": "ATAUE_&_LIVRES_-_QUITANDA_SEM_VENENO", "RAZAOSOCIAL": "ATAUE_&_LIVRES_-_QUITANDA_SEM_VENENO_LTDA", "ENDEE": "RUA_JOAO_LEONE51__JARDIM_ROSANA_13105-530", "LMAPS": "https://www.google.com/maps?q=&layer=c&cbll=-46.9722908,-22.8841755", "O_QUE_FAZER": "CARTEIRA", "ER_REGIAO_CIDADE_min": "Campinas_Souzas_Campinas" }, "geometry": { "type": "Point", "coordinates": [ -46.9722908, -22.8841755 ] } },
{ "type": "Feature", "properties": { "fid": 89826, "CNPJ": "57956491000166", "IDCIDADE": "CAMPINAS", "NOMEFANTASIA": "OFF_WORK", "RAZAOSOCIAL": "FB_SOLUCOES_PARA_LAZER_LTDA", "ENDEE": "AVENIDA_ANTONIO_CARLOS_COUTO_DE_BARROS911__VILA_SONIA_13105-000", "LMAPS": "https://www.google.com/maps?q=&layer=c&cbll=-46.9729727,-22.8844281", "O_QUE_FAZER": "CARTEIRA", "ER_REGIAO_CIDADE_min": "Campinas_Souzas_Campinas" }, "geometry": { "type": "Point", "coordinates": [ -46.9729727, -22.8844281 ] } },
{ "type": "Feature", "properties": { "fid": 89833, "CNPJ": "27909136000175", "IDCIDADE": "CAMPINAS", "NOMEFANTASIA": "UNICO_BRECHO", "RAZAOSOCIAL": "ALINE_PRAXEDES_RODRIGUES_ROSA_BRECHO", "ENDEE": "AVENIDA_DOUTOR_ANTONIO_CARLOS_COUTO_DE_BARROS911__VILA_SONIA_13105-000", "LMAPS": "https://www.google.com/maps?q=&layer=c&cbll=-46.9729738,-22.8844695", "O_QUE_FAZER": "CARTEIRA", "ER_REGIAO_CIDADE_min": "Campinas_Souzas_Campinas" }, "geometry": { "type": "Point", "coordinates": [ -46.9729738, -22.8844695 ] } },
{ "type": "Feature", "properties": { "fid": 89852, "CNPJ": "13036571000128", "IDCIDADE": "CAMPINAS", "NOMEFANTASIA": "FTERNA_COMERCIO_DE_ARTIGOS_DO_VESTUARIO", "RAZAOSOCIAL": "FTERNA_COMERCIO_DE_ARTIGOS_DO_VESTUARIO_LTDA", "ENDEE": "AVENIDA_ANTONIO_CARLOS_COUTO_DE_BARROS964__VILA_SONIA_13105-000", "LMAPS": "https://www.google.com/maps?q=&layer=c&cbll=-46.9735686,-22.8845596", "O_QUE_FAZER": "CARTEIRA", "ER_REGIAO_CIDADE_min": "Campinas_Souzas_Campinas" }, "geometry": { "type": "Point", "coordinates": [ -46.9735686, -22.8845596 ] } },
{ "type": "Feature", "properties": { "fid": 89861, "CNPJ": "60204765000175", "IDCIDADE": "CAMPINAS", "NOMEFANTASIA": "BAR_PONTO_DE_ENCONTRO", "RAZAOSOCIAL": "EDILSON_MENDES_DE_OLIVEIRA-BAR", "ENDEE": "AVENIDA_DOUTOR_ANTONIO_CARLOS_COUTO_DE_BARROS1116__SUBDIVISAO_DE_ALEXANDRE_TREVISAN_13105-000", "LMAPS": "https://www.google.com/maps?q=&layer=c&cbll=-46.9749267,-22.8846117", "O_QUE_FAZER": "CARTEIRA", "ER_REGIAO_CIDADE_min": "Campinas_Souzas_Campinas" }, "geometry": { "type": "Point", "coordinates": [ -46.9749267, -22.8846117 ] } },
{ "type": "Feature", "properties": { "fid": 89867, "CNPJ": "43234271000114", "IDCIDADE": "CAMPINAS", "NOMEFANTASIA": "SPOLETA", "RAZAOSOCIAL": "CRN_CLINICA_VETERINARIA_LTDA", "ENDEE": "AVENIDA_ANTONIO_CARLOS_COUTO_DE_BARROS1010__VILA_SONIA_13105-000", "LMAPS": "https://www.google.com/maps?q=&layer=c&cbll=-46.9739255,-22.8846589", "O_QUE_FAZER": "CARTEIRA", "ER_REGIAO_CIDADE_min": "Campinas_Souzas_Campinas" }, "geometry": { "type": "Point", "coordinates": [ -46.9739255, -22.8846589 ] } },
{ "type": "Feature", "properties": { "fid": 89916, "CNPJ": "52852879000101", "IDCIDADE": "CAMPINAS", "NOMEFANTASIA": "ESTADO_D'ARTE_MOLDURAS_&_GALERIA", "RAZAOSOCIAL": "ESTADO_D,ARTE_MATERIAIS_ARTISTICOS_LTDA", "ENDEE": "RUA_VITORIO_MOSCARDE125__VILA_BOURBON_13105-550", "LMAPS": "https://www.google.com/maps?q=&layer=c&cbll=-46.9749258,-22.8851382", "O_QUE_FAZER": "CARTEIRA", "ER_REGIAO_CIDADE_min": "Campinas_Souzas_Campinas" }, "geometry": { "type": "Point", "coordinates": [ -46.9749258, -22.8851382 ] } },
{ "type": "Feature", "properties": { "fid": 89934, "CNPJ": "13536253000126", "IDCIDADE": "CAMPINAS", "NOMEFANTASIA": "CASTOR_LOCACOES_E_FUROS", "RAZAOSOCIAL": "CASTOR_LOCACOES_E_FUROS_LTDA", "ENDEE": "RUA_JOAO_MARIA_BATISTA87__JARDIM_CONCEICAO_13105-064", "LMAPS": "https://www.google.com/maps?q=&layer=c&cbll=-46.9784048,-22.8852336", "O_QUE_FAZER": "CARTEIRA", "ER_REGIAO_CIDADE_min": "Campinas_Souzas_Campinas" }, "geometry": { "type": "Point", "coordinates": [ -46.9784048, -22.8852336 ] } },
{ "type": "Feature", "properties": { "fid": 89958, "CNPJ": "65995631000133", "IDCIDADE": "CAMPINAS", "NOMEFANTASIA": "RAVENA_PAES_E_DOCES", "RAZAOSOCIAL": "RAVENNA_PAES_E_DOCES_LTDA", "ENDEE": "AVENIDA_ANTONIO_CARLOS_COUTO_DE_BARROS1055__JARDIM_CONCEICAO_13105-000", "LMAPS": "https://www.google.com/maps?q=&layer=c&cbll=-46.9739033,-22.8854187", "O_QUE_FAZER": "CARTEIRA", "ER_REGIAO_CIDADE_min": "Campinas_Souzas_Campinas" }, "geometry": { "type": "Point", "coordinates": [ -46.9739033, -22.8854187 ] } },
{ "type": "Feature", "properties": { "fid": 89971, "CNPJ": "00846608000131", "IDCIDADE": "CAMPINAS", "NOMEFANTASIA": "EFFECTIVE_FARMACIA_DE_MANIPULACAO", "RAZAOSOCIAL": "EFFECTIVE_FARMACIA_DE_MANIPULACAO_LTDA", "ENDEE": "AVENIDA_ANTONIO_CARLOS_COUTO_DE_BARROS1051__JARDIM_CONCEICAO_13105-000", "LMAPS": "https://www.google.com/maps?q=&layer=c&cbll=-46.9739014,-22.8855557", "O_QUE_FAZER": "CARTEIRA", "ER_REGIAO_CIDADE_min": "Campinas_Souzas_Campinas" }, "geometry": { "type": "Point", "coordinates": [ -46.9739014, -22.8855557 ] } },
{ "type": "Feature", "properties": { "fid": 90001, "CNPJ": "03492950000179", "IDCIDADE": "CAMPINAS", "NOMEFANTASIA": "ABBLIGLIARE", "RAZAOSOCIAL": "ABBIGLIARE_COMERCIAL_LTDA", "ENDEE": "AVENIDA_ANTONIO_CARLOS_COUTO_DE_BARROS1124__JARDIM_CONCEICAO_13024-500", "LMAPS": "https://www.google.com/maps?q=&layer=c&cbll=-46.9746501,-22.8858647", "O_QUE_FAZER": "CARTEIRA", "ER_REGIAO_CIDADE_min": "Campinas_Souzas_Campinas" }, "geometry": { "type": "Point", "coordinates": [ -46.9746501, -22.8858647 ] } },
{ "type": "Feature", "properties": { "fid": 90005, "CNPJ": "33328591000260", "IDCIDADE": "CAMPINAS", "NOMEFANTASIA": "SOLAR_DA_LIMPEZA", "RAZAOSOCIAL": "MARCOS_NUNES_DA_SILVA", "ENDEE": "AVENIDA_ANTONIO_CARLOS_COUTO_DE_BARROS1136__JARDIM_CONCEICAO_13105-000", "LMAPS": "https://www.google.com/maps?q=&layer=c&cbll=-46.9748539,-22.8858854", "O_QUE_FAZER": "CARTEIRA", "ER_REGIAO_CIDADE_min": "Campinas_Souzas_Campinas" }, "geometry": { "type": "Point", "coordinates": [ -46.9748539, -22.8858854 ] } },
{ "type": "Feature", "properties": { "fid": 90014, "CNPJ": "31190567000444", "IDCIDADE": "CAMPINAS", "NOMEFANTASIA": "BARBEARIA_GUANABARA", "RAZAOSOCIAL": "BARBEARIA_GUANABARA_623_LTDA", "ENDEE": "AVENIDA_ANTONIO_CARLOS_COUTO_DE_BARROS1101__JARDIM_CONCEICAO_13105-000", "LMAPS": "https://www.google.com/maps?q=&layer=c&cbll=-46.974172,-22.8859341", "O_QUE_FAZER": "CARTEIRA", "ER_REGIAO_CIDADE_min": "Campinas_Souzas_Campinas" }, "geometry": { "type": "Point", "coordinates": [ -46.974172, -22.8859341 ] } },
{ "type": "Feature", "properties": { "fid": 90019, "CNPJ": "10420053000115", "IDCIDADE": "CAMPINAS", "NOMEFANTASIA": "SHOUBAI_SOUSAS", "RAZAOSOCIAL": "CREPALDI_&_CREPALDI_LTDA", "ENDEE": "AVENIDA_ANTONIO_CARLOS_COUTO_DE_BARROS1101__JARDIM_CONCEICAO_13105-000", "LMAPS": "https://www.google.com/maps?q=&layer=c&cbll=-46.9739567,-22.8859628", "O_QUE_FAZER": "CARTEIRA", "ER_REGIAO_CIDADE_min": "Campinas_Souzas_Campinas" }, "geometry": { "type": "Point", "coordinates": [ -46.9739567, -22.8859628 ] } },
{ "type": "Feature", "properties": { "fid": 90023, "CNPJ": "51266806000167", "IDCIDADE": "CAMPINAS", "NOMEFANTASIA": "LUMINI_SUCHI", "RAZAOSOCIAL": "MPR_RESTAURANTE_E_EVENTOS_LTDA", "ENDEE": "AVENIDA_ANTONIO_CARLOS_COUTO_DE_BARROS1101__JARDIM_CONCEICAO_13105-000", "LMAPS": "https://www.google.com/maps?q=&layer=c&cbll=-46.973958,-22.8859915", "O_QUE_FAZER": "CARTEIRA", "ER_REGIAO_CIDADE_min": "Campinas_Souzas_Campinas" }, "geometry": { "type": "Point", "coordinates": [ -46.973958, -22.8859915 ] } },
{ "type": "Feature", "properties": { "fid": 90024, "CNPJ": "34211539000101", "IDCIDADE": "CAMPINAS", "NOMEFANTASIA": "UNHA_EXCELLENCE", "RAZAOSOCIAL": "CHIARELO_CONSULTORIA_EM_GESTAO_EMPRESARIAL_LTDA", "ENDEE": "AVENIDA_DOUTOR_ANTONIO_CARLOS_COUTO_DE_BARROS1101__SUBDIVISAO_DE_ALEXANDRE_TREVISAN_13105-500", "LMAPS": "https://www.google.com/maps?q=&layer=c&cbll=-46.9738568,-22.8859919", "O_QUE_FAZER": "CARTEIRA", "ER_REGIAO_CIDADE_min": "Campinas_Souzas_Campinas" }, "geometry": { "type": "Point", "coordinates": [ -46.9738568, -22.8859919 ] } },
{ "type": "Feature", "properties": { "fid": 90025, "CNPJ": "15057448000119", "IDCIDADE": "CAMPINAS", "NOMEFANTASIA": "BELEZA_FERNANDES_OTICA", "RAZAOSOCIAL": "ICRFERNANDEZ_COMERCIO_DE_PRODUTOS_OTICOS_LTDA", "ENDEE": "AVENIDA_ANTONIO_CARLOS_COUTO_DE_BARROS1101__JARDIM_CONCEICAO_13105-000", "LMAPS": "https://www.google.com/maps?q=&layer=c&cbll=-46.97419,-22.8859967", "O_QUE_FAZER": "CARTEIRA", "ER_REGIAO_CIDADE_min": "Campinas_Souzas_Campinas" }, "geometry": { "type": "Point", "coordinates": [ -46.97419, -22.8859967 ] } },
{ "type": "Feature", "properties": { "fid": 90029, "CNPJ": "40052446000184", "IDCIDADE": "CAMPINAS", "NOMEFANTASIA": "PNEUS_CAMPINAS", "RAZAOSOCIAL": "PNEUS_CAMPINAS_AUTO_CENTER_LTDA", "ENDEE": "AVENIDA_ANTONIO_CARLOS_COUTO_DE_BARROS1136__JARDIM_CONCEICAO_13024-500", "LMAPS": "https://www.google.com/maps?q=&layer=c&cbll=-46.9748028,-22.8860226", "O_QUE_FAZER": "CARTEIRA", "ER_REGIAO_CIDADE_min": "Campinas_Souzas_Campinas" }, "geometry": { "type": "Point", "coordinates": [ -46.9748028, -22.8860226 ] } },
{ "type": "Feature", "properties": { "fid": 90033, "CNPJ": "26167479000149", "IDCIDADE": "CAMPINAS", "NOMEFANTASIA": "A_ACADEMIA", "RAZAOSOCIAL": "3R_APOIO_ADMINISTRATIVO_LTDA", "ENDEE": "AVENIDA_ANTONIO_CARLOS_COUTO_DE_BARROS1415__JARDIM_CONCEICAO_13105-000", "LMAPS": "https://www.google.com/maps?q=&layer=c&cbll=-46.9737787,-22.8860534", "O_QUE_FAZER": "CARTEIRA", "ER_REGIAO_CIDADE_min": "Campinas_Souzas_Campinas" }, "geometry": { "type": "Point", "coordinates": [ -46.9737787, -22.8860534 ] } },
{ "type": "Feature", "properties": { "fid": 90043, "CNPJ": "39145795000161", "IDCIDADE": "CAMPINAS", "NOMEFANTASIA": "A_ACADEMIA", "RAZAOSOCIAL": "RC_SOUSAS_ATIVIDADES_ESPORTIVAS_LTDA", "ENDEE": "AVENIDA_ANTONIO_CARLOS_COUTO_DE_BARROS1101__JARDIM_CONCEICAO_13105-000", "LMAPS": "https://www.google.com/maps?q=&layer=c&cbll=-46.973809,-22.8861403", "O_QUE_FAZER": "CARTEIRA", "ER_REGIAO_CIDADE_min": "Campinas_Souzas_Campinas" }, "geometry": { "type": "Point", "coordinates": [ -46.973809, -22.8861403 ] } },
{ "type": "Feature", "properties": { "fid": 90045, "CNPJ": "19672942000144", "IDCIDADE": "CAMPINAS", "NOMEFANTASIA": "AQUIDABA_SOUSAS_CENTRO_AUTOMOTIVO", "RAZAOSOCIAL": "AQUIDABA_SOUSAS_CENTRO_AUTOMOTIVO_LTDA", "ENDEE": "AVENIDA_ANTONIO_CARLOS_COUTO_DE_BARROS1166__JARDIM_CONCEICAO_13105-000", "LMAPS": "https://www.google.com/maps?q=&layer=c&cbll=-46.9750404,-22.8861437", "O_QUE_FAZER": "CARTEIRA", "ER_REGIAO_CIDADE_min": "Campinas_Souzas_Campinas" }, "geometry": { "type": "Point", "coordinates": [ -46.9750404, -22.8861437 ] } },
{ "type": "Feature", "properties": { "fid": 90054, "CNPJ": "30560523000153", "IDCIDADE": "CAMPINAS", "NOMEFANTASIA": "CHICPET_PRODUTOS_E_SERVICOS_PARA_ANIMAIS", "RAZAOSOCIAL": "CHIKCAO_PRODUTOS_E_SERVICOS_PARA_ANIMAIS_LTDA", "ENDEE": "RUA_GUILHERME_DE_ALMEIDA54__JARDIM_CONCEICAO_13010-130", "LMAPS": "https://www.google.com/maps?q=&layer=c&cbll=-46.9790168,-22.8862244", "O_QUE_FAZER": "CARTEIRA", "ER_REGIAO_CIDADE_min": "Campinas_Souzas_Campinas" }, "geometry": { "type": "Point", "coordinates": [ -46.9790168, -22.8862244 ] } },
{ "type": "Feature", "properties": { "fid": 90059, "CNPJ": "12660461000170", "IDCIDADE": "CAMPINAS", "NOMEFANTASIA": "SOUSAS_GAS ", "RAZAOSOCIAL": "SOUSAS_GAS_LTDA", "ENDEE": "RUA_GUILHERME_DE_ALMEIDA20__JARDIM_CONCEICAO_13010-130", "LMAPS": "https://www.google.com/maps?q=&layer=c&cbll=-46.9787787,-22.8862607", "O_QUE_FAZER": "CARTEIRA", "ER_REGIAO_CIDADE_min": "Campinas_Souzas_Campinas" }, "geometry": { "type": "Point", "coordinates": [ -46.9787787, -22.8862607 ] } },
{ "type": "Feature", "properties": { "fid": 90087, "CNPJ": "48439915000124", "IDCIDADE": "CAMPINAS", "NOMEFANTASIA": "A_MADEIREIRA", "RAZAOSOCIAL": "AMADEIREIRA_MOVEIS_E_DECORACOES_LTDA", "ENDEE": "AVENIDA_DOUTOR_ANTONIO_CARLOS_COUTO_DE_BARROS1161__VILA_SONIA_13105-000", "LMAPS": "https://www.google.com/maps?q=&layer=c&cbll=-46.9746632,-22.8865195", "O_QUE_FAZER": "CARTEIRA", "ER_REGIAO_CIDADE_min": "Campinas_Souzas_Campinas" }, "geometry": { "type": "Point", "coordinates": [ -46.9746632, -22.8865195 ] } },
{ "type": "Feature", "properties": { "fid": 90096, "CNPJ": "36752402000190", "IDCIDADE": "CAMPINAS", "NOMEFANTASIA": "SOS_AUTOMOTIVO", "RAZAOSOCIAL": "GABRIEL_GEAN_SOARES_MECANICA_E_BORRACHARIA_LTDA", "ENDEE": "AVENIDA_SALIM_JOSE570__JARDIM_CONCEICAO_13105-018", "LMAPS": "https://www.google.com/maps?q=&layer=c&cbll=-46.9819401,-22.8865791", "O_QUE_FAZER": "CARTEIRA", "ER_REGIAO_CIDADE_min": "Campinas_Souzas_Campinas" }, "geometry": { "type": "Point", "coordinates": [ -46.9819401, -22.8865791 ] } },
{ "type": "Feature", "properties": { "fid": 90114, "CNPJ": "10482449000197", "IDCIDADE": "CAMPINAS", "NOMEFANTASIA": "ALL_RENTAL", "RAZAOSOCIAL": "ALL_RENTAL_COMERCIO_E_LOCACAO_DE_EQUIPAMENTOS_LTDA", "ENDEE": "RUA_MICHEL_FARES111__JARDIM_CONCEICAO_13105-072", "LMAPS": "https://www.google.com/maps?q=&layer=c&cbll=-46.9783331,-22.886681", "O_QUE_FAZER": "CARTEIRA", "ER_REGIAO_CIDADE_min": "Campinas_Souzas_Campinas" }, "geometry": { "type": "Point", "coordinates": [ -46.9783331, -22.886681 ] } },
{ "type": "Feature", "properties": { "fid": 90116, "CNPJ": "34033352000165", "IDCIDADE": "CAMPINAS", "NOMEFANTASIA": "THUNDER_GARAGE", "RAZAOSOCIAL": "BOTECCHIA_ROSSI_&_VENTORIN_LTDA", "ENDEE": "AVENIDA_ANTONIO_CARLOS_COUTO_DE_BARROS1334__JARDIM_CONCEICAO_13105-000", "LMAPS": "https://www.google.com/maps?q=&layer=c&cbll=-46.9761655,-22.8866834", "O_QUE_FAZER": "CARTEIRA", "ER_REGIAO_CIDADE_min": "Campinas_Souzas_Campinas" }, "geometry": { "type": "Point", "coordinates": [ -46.9761655, -22.8866834 ] } },
{ "type": "Feature", "properties": { "fid": 90117, "CNPJ": "52691528000158", "IDCIDADE": "CAMPINAS", "NOMEFANTASIA": "ESPACO_OBATA", "RAZAOSOCIAL": "ESPACO_OBATA_FESTAS_E_EVENTOS_LTDA", "ENDEE": "RUA_GUILHERME_DE_ALMEIDA67__JARDIM_CONCEICAO_13010-130", "LMAPS": "https://www.google.com/maps?q=&layer=c&cbll=-46.9791376,-22.8866883", "O_QUE_FAZER": "CARTEIRA", "ER_REGIAO_CIDADE_min": "Campinas_Souzas_Campinas" }, "geometry": { "type": "Point", "coordinates": [ -46.9791376, -22.8866883 ] } },
{ "type": "Feature", "properties": { "fid": 90122, "CNPJ": "57563374000132", "IDCIDADE": "CAMPINAS", "NOMEFANTASIA": "MUNDO_DOS_HEROIS_PIZZARIA", "RAZAOSOCIAL": "PIZZARIA_VOLPATO_LTDA", "ENDEE": "AVENIDA_DONA_JULIA_CONCEICAO_ALVES1143__VILA_BOURBON_13105-500", "LMAPS": "https://www.google.com/maps?q=&layer=c&cbll=-46.9745733,-22.88671", "O_QUE_FAZER": "CARTEIRA", "ER_REGIAO_CIDADE_min": "Campinas_Souzas_Campinas" }, "geometry": { "type": "Point", "coordinates": [ -46.9745733, -22.88671 ] } },
{ "type": "Feature", "properties": { "fid": 90130, "CNPJ": "12816027000136", "IDCIDADE": "CAMPINAS", "NOMEFANTASIA": "VIRA_LATA", "RAZAOSOCIAL": "BM_SILVA_LANCHONETE_LTDA", "ENDEE": "AVENIDA_JULIA_CONCEICAO_ALVES385__CONJUNTO_HABITACIONAL_VILA_SANTANA_13105-760", "LMAPS": "https://www.google.com/maps?q=&layer=c&cbll=-46.9748226,-22.8867966", "O_QUE_FAZER": "CARTEIRA", "ER_REGIAO_CIDADE_min": "Campinas_Souzas_Campinas" }, "geometry": { "type": "Point", "coordinates": [ -46.9748226, -22.8867966 ] } },
{ "type": "Feature", "properties": { "fid": 90132, "CNPJ": "13994563000194", "IDCIDADE": "CAMPINAS", "NOMEFANTASIA": "HELP_MARMORARIA", "RAZAOSOCIAL": "HELP_ACABAMENTOS_EM_CONSTRUCAO_CIVIL_LTDA", "ENDEE": "RUA_ANTONIO_PRADO1832__SOUSAS_13900-374", "LMAPS": "https://www.google.com/maps?q=&layer=c&cbll=-46.977817,-22.8868125", "O_QUE_FAZER": "CARTEIRA", "ER_REGIAO_CIDADE_min": "Campinas_Souzas_Campinas" }, "geometry": { "type": "Point", "coordinates": [ -46.977817, -22.8868125 ] } },
{ "type": "Feature", "properties": { "fid": 90133, "CNPJ": "05782169000164", "IDCIDADE": "CAMPINAS", "NOMEFANTASIA": "LA_FIORE", "RAZAOSOCIAL": "ANTONIO_C._A._SILVA_-_FLORICULTURA", "ENDEE": "AVENIDA_JULIA_CONCEICAO_ALVES327__CONJUNTO_HABITACIONAL_VILA_SANTANA_13105-760", "LMAPS": "https://www.google.com/maps?q=&layer=c&cbll=-46.9751645,-22.886815", "O_QUE_FAZER": "CARTEIRA", "ER_REGIAO_CIDADE_min": "Campinas_Souzas_Campinas" }, "geometry": { "type": "Point", "coordinates": [ -46.9751645, -22.886815 ] } },
{ "type": "Feature", "properties": { "fid": 90136, "CNPJ": "30646965000117", "IDCIDADE": "CAMPINAS", "NOMEFANTASIA": "EXPERIMENTO_INTERCAMBIO_CULTURAL", "RAZAOSOCIAL": "COMETRUE_AGENCIA_DE_VIAGENS_LTDA", "ENDEE": "RUA_XAVIER_MAYER50__JARDIM_CONCEICAO_13105-038", "LMAPS": "https://www.google.com/maps?q=&layer=c&cbll=-46.9785045,-22.8868596", "O_QUE_FAZER": "CARTEIRA", "ER_REGIAO_CIDADE_min": "Campinas_Souzas_Campinas" }, "geometry": { "type": "Point", "coordinates": [ -46.9785045, -22.8868596 ] } },
{ "type": "Feature", "properties": { "fid": 90139, "CNPJ": "45863863000120", "IDCIDADE": "CAMPINAS", "NOMEFANTASIA": "CANOA_PRAIA_BAR", "RAZAOSOCIAL": "CANOA_PRAIA_BAR_LTDA", "ENDEE": "AVENIDA_ANTONIO_CARLOS_COUTO_DE_BARROS1382__JARDIM_CONCEICAO_13105-000", "LMAPS": "https://www.google.com/maps?q=&layer=c&cbll=-46.9766976,-22.88687", "O_QUE_FAZER": "CARTEIRA", "ER_REGIAO_CIDADE_min": "Campinas_Souzas_Campinas" }, "geometry": { "type": "Point", "coordinates": [ -46.9766976, -22.88687 ] } },
{ "type": "Feature", "properties": { "fid": 90148, "CNPJ": "30767428000125", "IDCIDADE": "CAMPINAS", "NOMEFANTASIA": "SENHOR_SERAFIM", "RAZAOSOCIAL": "THAIS_THAMIRES_TRAJANO_PINHO", "ENDEE": "RUA_XAVIER_MAYER50__JARDIM_CONCEICAO_13105-038", "LMAPS": "https://www.google.com/maps?q=&layer=c&cbll=-46.9785303,-22.886934", "O_QUE_FAZER": "CARTEIRA", "ER_REGIAO_CIDADE_min": "Campinas_Souzas_Campinas" }, "geometry": { "type": "Point", "coordinates": [ -46.9785303, -22.886934 ] } },
{ "type": "Feature", "properties": { "fid": 90171, "CNPJ": "06120061000179", "IDCIDADE": "CAMPINAS", "NOMEFANTASIA": "DROGARIA_VITORIA", "RAZAOSOCIAL": "DROGARIA_RLM_LTDA", "ENDEE": "RUA_XAVIER_MAYER50__JARDIM_CONCEICAO_13105-038", "LMAPS": "https://www.google.com/maps?q=&layer=c&cbll=-46.9783527,-22.8870308", "O_QUE_FAZER": "CARTEIRA", "ER_REGIAO_CIDADE_min": "Campinas_Souzas_Campinas" }, "geometry": { "type": "Point", "coordinates": [ -46.9783527, -22.8870308 ] } },
{ "type": "Feature", "properties": { "fid": 90172, "CNPJ": "01471413000117", "IDCIDADE": "CAMPINAS", "NOMEFANTASIA": "BARONI_FECHADURAS", "RAZAOSOCIAL": "BARONI_FECHADURAS_E_FERRAGENS_LTDA", "ENDEE": "AVENIDA_ANTONIO_CARLOS_COUTO_DE_BARROS1347__JARDIM_CONCEICAO_13024-500", "LMAPS": "https://www.google.com/maps?q=&layer=c&cbll=-46.9762112,-22.8870355", "O_QUE_FAZER": "CARTEIRA", "ER_REGIAO_CIDADE_min": "Campinas_Souzas_Campinas" }, "geometry": { "type": "Point", "coordinates": [ -46.9762112, -22.8870355 ] } },
{ "type": "Feature", "properties": { "fid": 90176, "CNPJ": "39984131000196", "IDCIDADE": "CAMPINAS", "NOMEFANTASIA": "CARNI_ESPACO_GASTRONOMICO", "RAZAOSOCIAL": "NATALIA_DE_VEIGA_OKUMA", "ENDEE": "AVENIDA_ANTONIO_CARLOS_COUTO_DE_BARROS1400__JARDIM_CONCEICAO_13105-000", "LMAPS": "https://www.google.com/maps?q=&layer=c&cbll=-46.9773301,-22.887052", "O_QUE_FAZER": "CARTEIRA", "ER_REGIAO_CIDADE_min": "Campinas_Souzas_Campinas" }, "geometry": { "type": "Point", "coordinates": [ -46.9773301, -22.887052 ] } },
{ "type": "Feature", "properties": { "fid": 90187, "CNPJ": "07479323000159", "IDCIDADE": "CAMPINAS", "NOMEFANTASIA": "SCM-ACADEMIA_DE_MUSCULACAO,_GINASTICA_E_NATACAO", "RAZAOSOCIAL": "SCM-ACADEMIA_DE_MUSCULACAO_GINASTICA_E_NATACAO_LTDA", "ENDEE": "RUA_XAVIER_MAYER30__JARDIM_CONCEICAO_13105-038", "LMAPS": "https://www.google.com/maps?q=&layer=c&cbll=-46.9786498,-22.8870948", "O_QUE_FAZER": "CARTEIRA", "ER_REGIAO_CIDADE_min": "Campinas_Souzas_Campinas" }, "geometry": { "type": "Point", "coordinates": [ -46.9786498, -22.8870948 ] } },
{ "type": "Feature", "properties": { "fid": 90192, "CNPJ": "10448253000186", "IDCIDADE": "CAMPINAS", "NOMEFANTASIA": "LANCHAO_SOUSAS", "RAZAOSOCIAL": "LANCONI_COMERCIO_DE_ALIMENTOS_LTDA", "ENDEE": "AVENIDA_JULIA_CONCEICAO_ALVES287__CONJUNTO_HABITACIONAL_VILA_SANTANA_13105-760", "LMAPS": "https://www.google.com/maps?q=&layer=c&cbll=-46.9757722,-22.8871337", "O_QUE_FAZER": "CARTEIRA", "ER_REGIAO_CIDADE_min": "Campinas_Souzas_Campinas" }, "geometry": { "type": "Point", "coordinates": [ -46.9757722, -22.8871337 ] } },
{ "type": "Feature", "properties": { "fid": 90196, "CNPJ": "05362833000116", "IDCIDADE": "CAMPINAS", "NOMEFANTASIA": "HAMURABI_-_CORRETORA_DE_SEGUROS", "RAZAOSOCIAL": "HAMURABI_-_CORRETORA_DE_SEGUROS_LTDA", "ENDEE": "AVENIDA_ANTONIO_CARLOS_COUTO_DE_BARROS1345__VILA_SONIA_13105-500", "LMAPS": "https://www.google.com/maps?q=&layer=c&cbll=-46.9761642,-22.8871965", "O_QUE_FAZER": "CARTEIRA", "ER_REGIAO_CIDADE_min": "Campinas_Souzas_Campinas" }, "geometry": { "type": "Point", "coordinates": [ -46.9761642, -22.8871965 ] } },
{ "type": "Feature", "properties": { "fid": 90200, "CNPJ": "56506587000160", "IDCIDADE": "CAMPINAS", "NOMEFANTASIA": "BOURBON_COMERCIO_MATERIAIS_PARA_CONSTRUCAO", "RAZAOSOCIAL": "BOURBOM_COMERCIO_DE_MATERIAIS_PARA_CONSTRUCAO_LTDA", "ENDEE": "AVENIDA_ANTONIO_CARLOS_COUTO_DE_BARROS1409__JARDIM_CONCEICAO_13024-500", "LMAPS": "https://www.google.com/maps?q=&layer=c&cbll=-46.9770045,-22.8872343", "O_QUE_FAZER": "CARTEIRA", "ER_REGIAO_CIDADE_min": "Campinas_Souzas_Campinas" }, "geometry": { "type": "Point", "coordinates": [ -46.9770045, -22.8872343 ] } },
{ "type": "Feature", "properties": { "fid": 90208, "CNPJ": "10842960000152", "IDCIDADE": "CAMPINAS", "NOMEFANTASIA": "SORRI_SOUSAS", "RAZAOSOCIAL": "J._A._SILVEIRA", "ENDEE": "AVENIDA_ANTONIO_CARLOS_COUTO_DE_BARROS1445__VILA_SONIA_13105-000", "LMAPS": "https://www.google.com/maps?q=&layer=c&cbll=-46.9771029,-22.8873449", "O_QUE_FAZER": "CARTEIRA", "ER_REGIAO_CIDADE_min": "Campinas_Souzas_Campinas" }, "geometry": { "type": "Point", "coordinates": [ -46.9771029, -22.8873449 ] } },
{ "type": "Feature", "properties": { "fid": 90212, "CNPJ": "28310042000148", "IDCIDADE": "CAMPINAS", "NOMEFANTASIA": "ESPACO_CASA", "RAZAOSOCIAL": "MARIA_DORILENE_DOS_SANTOS_MENDES", "ENDEE": "AVENIDA_ANTONIO_CARLOS_COUTO_DE_BARROS1433__JARDIM_CONCEICAO_13105-000", "LMAPS": "https://www.google.com/maps?q=&layer=c&cbll=-46.9769537,-22.8873715", "O_QUE_FAZER": "CARTEIRA", "ER_REGIAO_CIDADE_min": "Campinas_Souzas_Campinas" }, "geometry": { "type": "Point", "coordinates": [ -46.9769537, -22.8873715 ] } },
{ "type": "Feature", "properties": { "fid": 90239, "CNPJ": "08617798000127", "IDCIDADE": "CAMPINAS", "NOMEFANTASIA": "WJ_GAS", "RAZAOSOCIAL": "WJGAS-COMERCIO_DE_GAS_LTDA", "ENDEE": "RUA_DOM_PEDRO_II297__JARDIM_CONCEICAO_13015-260", "LMAPS": "https://www.google.com/maps?q=&layer=c&cbll=-46.9803565,-22.887664", "O_QUE_FAZER": "CARTEIRA", "ER_REGIAO_CIDADE_min": "Campinas_Souzas_Campinas" }, "geometry": { "type": "Point", "coordinates": [ -46.9803565, -22.887664 ] } },
{ "type": "Feature", "properties": { "fid": 90248, "CNPJ": "04937481000117", "IDCIDADE": "CAMPINAS", "NOMEFANTASIA": "FERRO_COM_ARTE", "RAZAOSOCIAL": "COMERCIAL_FERRO_COM_ARTE_LTDA", "ENDEE": "AVENIDA_SALIM_JOSE630__JARDIM_CONCEICAO_13105-018", "LMAPS": "https://www.google.com/maps?q=&layer=c&cbll=-46.9816133,-22.8877667", "O_QUE_FAZER": "CARTEIRA", "ER_REGIAO_CIDADE_min": "Campinas_Souzas_Campinas" }, "geometry": { "type": "Point", "coordinates": [ -46.9816133, -22.8877667 ] } },
{ "type": "Feature", "properties": { "fid": 90296, "CNPJ": "54783727000111", "IDCIDADE": "CAMPINAS", "NOMEFANTASIA": "NOSSO_LAR_VARIEDADES", "RAZAOSOCIAL": "FELIPE_&_JHONATAN_VARIEDADES_LTDA", "ENDEE": "AVENIDA_ANTONIO_CARLOS_COUTO_DE_BARROS1808__JARDIM_CONCEICAO_13105-000", "LMAPS": "https://www.google.com/maps?q=&layer=c&cbll=-46.9804402,-22.8881365", "O_QUE_FAZER": "CARTEIRA", "ER_REGIAO_CIDADE_min": "Campinas_Souzas_Campinas" }, "geometry": { "type": "Point", "coordinates": [ -46.9804402, -22.8881365 ] } },
{ "type": "Feature", "properties": { "fid": 90333, "CNPJ": "26694845000118", "IDCIDADE": "CAMPINAS", "NOMEFANTASIA": "LA_COSTURA", "RAZAOSOCIAL": "LA_COSTURA_CONSERTOS_E_REPAROS_DE_ROUPAS_LTDA", "ENDEE": "AVENIDA_ANTONIO_CARLOS_COUTO_DE_BARROS1926__JARDIM_CONCEICAO_13105-000", "LMAPS": "https://www.google.com/maps?q=&layer=c&cbll=-46.9815652,-22.8883784", "O_QUE_FAZER": "CARTEIRA", "ER_REGIAO_CIDADE_min": "Campinas_Souzas_Campinas" }, "geometry": { "type": "Point", "coordinates": [ -46.9815652, -22.8883784 ] } },
{ "type": "Feature", "properties": { "fid": 90337, "CNPJ": "26191743000180", "IDCIDADE": "CAMPINAS", "NOMEFANTASIA": "PASTEIS_KUSHI", "RAZAOSOCIAL": "PASTEIS_KUSHI_LTDA", "ENDEE": "AVENIDA_ANTONIO_CARLOS_COUTO_DE_BARROS1858__VILA_SONIA_13105-000", "LMAPS": "https://www.google.com/maps?q=&layer=c&cbll=-46.9809628,-22.8883957", "O_QUE_FAZER": "CARTEIRA", "ER_REGIAO_CIDADE_min": "Campinas_Souzas_Campinas" }, "geometry": { "type": "Point", "coordinates": [ -46.9809628, -22.8883957 ] } },
{ "type": "Feature", "properties": { "fid": 90338, "CNPJ": "03035446000140", "IDCIDADE": "CAMPINAS", "NOMEFANTASIA": "NOVIS_LOCADORA_E_COMERCIO_DE_EQUIPAMENTOS_PARA_CONSTRUCAO", "RAZAOSOCIAL": "NOVIS_LOCADORA_E_COMERCIO_DE_EQUIPAMENTOS_PARA_CONSTRUCAO_LTDA", "ENDEE": "RUA_FERNANDO_DE_ANDRADE_JUNIOR156__JARDIM_CONCEICAO_13105-076", "LMAPS": "https://www.google.com/maps?q=&layer=c&cbll=-46.9840961,-22.8884017", "O_QUE_FAZER": "CARTEIRA", "ER_REGIAO_CIDADE_min": "Campinas_Souzas_Campinas" }, "geometry": { "type": "Point", "coordinates": [ -46.9840961, -22.8884017 ] } },
{ "type": "Feature", "properties": { "fid": 90340, "CNPJ": "15689994000172", "IDCIDADE": "CAMPINAS", "NOMEFANTASIA": "VIA_MAIA_LOCALIZACAO_EQUIPAMENTOS", "RAZAOSOCIAL": "A.R._SOUSAS_LOCACAO_E_VENDA_DE_MAQUINAS_E_EQUIPAMENTOS_PARA_CONSTRUCAO_LTDA", "ENDEE": "AVENIDA_ANTONIO_CARLOS_COUTO_DE_BARROS1908__JARDIM_CONCEICAO_13105-000", "LMAPS": "https://www.google.com/maps?q=&layer=c&cbll=-46.9814475,-22.8884147", "O_QUE_FAZER": "CARTEIRA", "ER_REGIAO_CIDADE_min": "Campinas_Souzas_Campinas" }, "geometry": { "type": "Point", "coordinates": [ -46.9814475, -22.8884147 ] } },
{ "type": "Feature", "properties": { "fid": 90351, "CNPJ": "03208285000149", "IDCIDADE": "CAMPINAS", "NOMEFANTASIA": "MATERIA_DE_CONSTRUCAO_SAO_FRANCISCO", "RAZAOSOCIAL": "PRECARO_-_DEPOSITO_DE_MATERIAIS_PARA_CONSTRUCAO_LTDA", "ENDEE": "RUA_REI_SALOMAO115__JARDIM_CONCEICAO_13105-036", "LMAPS": "https://www.google.com/maps?q=&layer=c&cbll=-46.9796727,-22.8884508", "O_QUE_FAZER": "CARTEIRA", "ER_REGIAO_CIDADE_min": "Campinas_Souzas_Campinas" }, "geometry": { "type": "Point", "coordinates": [ -46.9796727, -22.8884508 ] } },
{ "type": "Feature", "properties": { "fid": 90352, "CNPJ": "01824461000222", "IDCIDADE": "CAMPINAS", "NOMEFANTASIA": "MADEIREIRA_ANDRADE", "RAZAOSOCIAL": "LUIZ_C._V._ANDRADE", "ENDEE": "AVENIDA_ANTONIO_CARLOS_COUTO_DE_BARROS1880__VILA_SONIA_13105-000", "LMAPS": "https://www.google.com/maps?q=&layer=c&cbll=-46.980888,-22.8884509", "O_QUE_FAZER": "CARTEIRA", "ER_REGIAO_CIDADE_min": "Campinas_Souzas_Campinas" }, "geometry": { "type": "Point", "coordinates": [ -46.980888, -22.8884509 ] } },
{ "type": "Feature", "properties": { "fid": 90353, "CNPJ": "44774677000152", "IDCIDADE": "CAMPINAS", "NOMEFANTASIA": "DEPOSITO_SAO_FRANCISCO", "RAZAOSOCIAL": "DEPOSITO_DE_MATERIAIS_PARA_CONSTRUCAO_SAO_FRANCISCO_DE_ASSIS_LTDA", "ENDEE": "RUA_REI_SALOMAO115__JARDIM_CONCEICAO_13105-036", "LMAPS": "https://www.google.com/maps?q=&layer=c&cbll=-46.9797183,-22.888465", "O_QUE_FAZER": "CARTEIRA", "ER_REGIAO_CIDADE_min": "Campinas_Souzas_Campinas" }, "geometry": { "type": "Point", "coordinates": [ -46.9797183, -22.888465 ] } },
{ "type": "Feature", "properties": { "fid": 90374, "CNPJ": "26614857000195", "IDCIDADE": "CAMPINAS", "NOMEFANTASIA": "ELETRICA_MERCADO", "RAZAOSOCIAL": "ELETRICA_MERCADO_MASSON_LTDA", "ENDEE": "AVENIDA_ANTONIO_CARLOS_COUTO_DE_BARROS1936__JARDIM_CONCEICAO_13105-000", "LMAPS": "https://www.google.com/maps?q=&layer=c&cbll=-46.9815959,-22.8885739", "O_QUE_FAZER": "CARTEIRA", "ER_REGIAO_CIDADE_min": "Campinas_Souzas_Campinas" }, "geometry": { "type": "Point", "coordinates": [ -46.9815959, -22.8885739 ] } },
{ "type": "Feature", "properties": { "fid": 90381, "CNPJ": "05531222000154", "IDCIDADE": "CAMPINAS", "NOMEFANTASIA": "EMPORIO_DA_PIZZA_CAMPINAS ", "RAZAOSOCIAL": "EMPORIO_DA_PIZZA_CAMPINAS_LTDA", "ENDEE": "AVENIDA_ANTONIO_CARLOS_COUTO_DE_BARROS1952__JARDIM_CONCEICAO_13105-000", "LMAPS": "https://www.google.com/maps?q=&layer=c&cbll=-46.9818062,-22.888601", "O_QUE_FAZER": "CARTEIRA", "ER_REGIAO_CIDADE_min": "Campinas_Souzas_Campinas" }, "geometry": { "type": "Point", "coordinates": [ -46.9818062, -22.888601 ] } },
{ "type": "Feature", "properties": { "fid": 90382, "CNPJ": "46321897000156", "IDCIDADE": "CAMPINAS", "NOMEFANTASIA": "PRO_MAX_LOCACAO_DE_MAQUINAS_E_EQUIPAMENTOS ", "RAZAOSOCIAL": "PRO_MAX_LOCACAO_DE_MAQUINAS_E_EQUIPAMENTOS_LTDA", "ENDEE": "RUA_FERNANDO_DE_ANDRADE_JUNIOR97__JARDIM_CONCEICAO_13105-076", "LMAPS": "https://www.google.com/maps?q=&layer=c&cbll=-46.9848136,-22.8886032", "O_QUE_FAZER": "CARTEIRA", "ER_REGIAO_CIDADE_min": "Campinas_Souzas_Campinas" }, "geometry": { "type": "Point", "coordinates": [ -46.9848136, -22.8886032 ] } },
{ "type": "Feature", "properties": { "fid": 90437, "CNPJ": "43868385000116", "IDCIDADE": "CAMPINAS", "NOMEFANTASIA": "CF_CAMPINAS-SOUSAS", "RAZAOSOCIAL": "C_&_M_CENTRO_DE_TREINAMENTO_LTDA", "ENDEE": "AVENIDA_DONA_JULIA_CONCEICAO_ALVES45__CONJUNTO_HABITACIONAL_VILA_SANTANA_13105-760", "LMAPS": "https://www.google.com/maps?q=&layer=c&cbll=-46.9792381,-22.8888847", "O_QUE_FAZER": "CARTEIRA", "ER_REGIAO_CIDADE_min": "Campinas_Souzas_Campinas" }, "geometry": { "type": "Point", "coordinates": [ -46.9792381, -22.8888847 ] } },
{ "type": "Feature", "properties": { "fid": 90504, "CNPJ": "10566935000193", "IDCIDADE": "CAMPINAS", "NOMEFANTASIA": "GRAMADO_PLANTAS_E_FLORES", "RAZAOSOCIAL": "GRAMADO_PLANTAS_E_FLORES_LTDA", "ENDEE": "AVENIDA_ANTONIO_CARLOS_COUTO_DE_BARROS2096__VILA_SONIA_13105-000", "LMAPS": "https://www.google.com/maps?q=&layer=c&cbll=-46.9829891,-22.8891726", "O_QUE_FAZER": "CARTEIRA", "ER_REGIAO_CIDADE_min": "Campinas_Souzas_Campinas" }, "geometry": { "type": "Point", "coordinates": [ -46.9829891, -22.8891726 ] } },
{ "type": "Feature", "properties": { "fid": 90545, "CNPJ": "51905760000189", "IDCIDADE": "CAMPINAS", "NOMEFANTASIA": "MY_PLACE_OFFICE_CAMPINAS", "RAZAOSOCIAL": "MY_PLACE_OFFICE_CAMPINAS_LTDA", "ENDEE": "RUA_REI_SALOMAO1356__JARDIM_CONCEICAO_13105-036", "LMAPS": "https://www.google.com/maps?q=&layer=c&cbll=-46.9816517,-22.8893604", "O_QUE_FAZER": "CARTEIRA", "ER_REGIAO_CIDADE_min": "Campinas_Souzas_Campinas" }, "geometry": { "type": "Point", "coordinates": [ -46.9816517, -22.8893604 ] } },
{ "type": "Feature", "properties": { "fid": 90614, "CNPJ": "11223212000154", "IDCIDADE": "CAMPINAS", "NOMEFANTASIA": "VIDRACARIA_VITTORIA", "RAZAOSOCIAL": "FERNANDO_PEREIRA_VIDRACARIA", "ENDEE": "AVENIDA_ANTONIO_CARLOS_COUTO_DE_BARROS2141__VILA_SONIA_13105-000", "LMAPS": "https://www.google.com/maps?q=&layer=c&cbll=-46.9834243,-22.8896298", "O_QUE_FAZER": "CARTEIRA", "ER_REGIAO_CIDADE_min": "Campinas_Souzas_Campinas" }, "geometry": { "type": "Point", "coordinates": [ -46.9834243, -22.8896298 ] } },
{ "type": "Feature", "properties": { "fid": 90619, "CNPJ": "55928747000104", "IDCIDADE": "CAMPINAS", "NOMEFANTASIA": "ALUG-MAQ_LOCACAO_DE_MAQUINAS", "RAZAOSOCIAL": "KVB_COMERCIO_E_LOCACAO_DE_MAQUINAS_LTDA", "ENDEE": "AVENIDA_ANTONIO_CARLOS_COUTO_DE_BARROS2141__VILA_SONIA_13105-000", "LMAPS": "https://www.google.com/maps?q=&layer=c&cbll=-46.9834114,-22.8896459", "O_QUE_FAZER": "CARTEIRA", "ER_REGIAO_CIDADE_min": "Campinas_Souzas_Campinas" }, "geometry": { "type": "Point", "coordinates": [ -46.9834114, -22.8896459 ] } },
{ "type": "Feature", "properties": { "fid": 90621, "CNPJ": "02042823000105", "IDCIDADE": "CAMPINAS", "NOMEFANTASIA": "LOJA_DE_CONVENIENCIA_CAFE_BRASIL", "RAZAOSOCIAL": "LOJA_DE_CONVENIENCIA_CAFE_BRASIL_LTDA", "ENDEE": "AVENIDA_ANTONIO_CARLOS_COUTO_DE_BARROS2337__VILA_SONIA_13105-000", "LMAPS": "https://www.google.com/maps?q=&layer=c&cbll=-46.9854386,-22.8896558", "O_QUE_FAZER": "CARTEIRA", "ER_REGIAO_CIDADE_min": "Campinas_Souzas_Campinas" }, "geometry": { "type": "Point", "coordinates": [ -46.9854386, -22.8896558 ] } },
{ "type": "Feature", "properties": { "fid": 90622, "CNPJ": "04972819000171", "IDCIDADE": "CAMPINAS", "NOMEFANTASIA": "SCHNEIDER_BEBIDAS", "RAZAOSOCIAL": "SCHNEIDER_&_SCHNEIDER_LTDA", "ENDEE": "AVENIDA_ANTONIO_CARLOS_COUTO_DE_BARROS2171__VILA_SONIA_13105-000", "LMAPS": "https://www.google.com/maps?q=&layer=c&cbll=-46.9837813,-22.8896644", "O_QUE_FAZER": "CARTEIRA", "ER_REGIAO_CIDADE_min": "Campinas_Souzas_Campinas" }, "geometry": { "type": "Point", "coordinates": [ -46.9837813, -22.8896644 ] } },
{ "type": "Feature", "properties": { "fid": 90658, "CNPJ": "57340580000183", "IDCIDADE": "CAMPINAS", "NOMEFANTASIA": "ZIP_TOUR_AGENCIA_DE_VIAGENS_E_TURISMO", "RAZAOSOCIAL": "ZIP_TOUR_AGENCIA_DE_VIAGENS_E_TURISMO_LTDA", "ENDEE": "RUA_ROSA_ABURAD_KHOURI23__LOTEAMENTO_PARQUE_DAS_HORTENCIAS_13105-618", "LMAPS": "https://www.google.com/maps?q=&layer=c&cbll=-46.9822526,-22.8898386", "O_QUE_FAZER": "CARTEIRA", "ER_REGIAO_CIDADE_min": "Campinas_Souzas_Campinas" }, "geometry": { "type": "Point", "coordinates": [ -46.9822526, -22.8898386 ] } },
{ "type": "Feature", "properties": { "fid": 90661, "CNPJ": "96175963000103", "IDCIDADE": "CAMPINAS", "NOMEFANTASIA": "INDUSTRIA_SIMPLES", "RAZAOSOCIAL": "IS_-_PROMOTORA_DE_VENDAS_DE_EQUIPAMENTOS_E_PRODUTOS_INDUSTRIAIS_LTDA", "ENDEE": "RUA_ROSA_ABURAD_KHOURI23__LOTEAMENTO_PARQUE_DAS_HORTENCIAS_13105-618", "LMAPS": "https://www.google.com/maps?q=&layer=c&cbll=-46.9822018,-22.8898444", "O_QUE_FAZER": "CARTEIRA", "ER_REGIAO_CIDADE_min": "Campinas_Souzas_Campinas" }, "geometry": { "type": "Point", "coordinates": [ -46.9822018, -22.8898444 ] } },
{ "type": "Feature", "properties": { "fid": 90685, "CNPJ": "04406981000122", "IDCIDADE": "CAMPINAS", "NOMEFANTASIA": "CHICO_SERRALHEIRO", "RAZAOSOCIAL": "FRANCISCO_AMADO_DE_LIMA", "ENDEE": "RUA_REI_SALOMAO489__JARDIM_CONCEICAO_13105-036", "LMAPS": "https://www.google.com/maps?q=&layer=c&cbll=-46.9830615,-22.889923", "O_QUE_FAZER": "CARTEIRA", "ER_REGIAO_CIDADE_min": "Campinas_Souzas_Campinas" }, "geometry": { "type": "Point", "coordinates": [ -46.9830615, -22.889923 ] } },
{ "type": "Feature", "properties": { "fid": 90686, "CNPJ": "00226325000197", "IDCIDADE": "CAMPINAS", "NOMEFANTASIA": "HIPNOSE_BELEZA", "RAZAOSOCIAL": "HIPNOSE_BELEZA_LTDA", "ENDEE": "AVENIDA_DONA_JULIA_CONCEICAO_ALVES608__CONJUNTO_HABITACIONAL_VILA_SANTANA_13105-760", "LMAPS": "https://www.google.com/maps?q=&layer=c&cbll=-46.9807973,-22.8899267", "O_QUE_FAZER": "CARTEIRA", "ER_REGIAO_CIDADE_min": "Campinas_Souzas_Campinas" }, "geometry": { "type": "Point", "coordinates": [ -46.9807973, -22.8899267 ] } },
{ "type": "Feature", "properties": { "fid": 90706, "CNPJ": "27140075000124", "IDCIDADE": "CAMPINAS", "NOMEFANTASIA": "DOG_CITY_CAMPINAS_SERVICOS_DE_HIGIENE_E_EMBELEZAMENTO", "RAZAOSOCIAL": "DOG_CITY_CAMPINAS_SERVICOS_DE_HIGIENE_E_EMBELEZAMENTO_DE_ANIMAIS_LTDA", "ENDEE": "AVENIDA_DONA_JULIA_CONCEICAO_ALVES289__CONJUNTO_HABITACIONAL_VILA_SANTANA_13105-760", "LMAPS": "https://www.google.com/maps?q=&layer=c&cbll=-46.981803,-22.8900195", "O_QUE_FAZER": "CARTEIRA", "ER_REGIAO_CIDADE_min": "Campinas_Souzas_Campinas" }, "geometry": { "type": "Point", "coordinates": [ -46.981803, -22.8900195 ] } },
{ "type": "Feature", "properties": { "fid": 90709, "CNPJ": "37812992000161", "IDCIDADE": "CAMPINAS", "NOMEFANTASIA": "T.B.S_SERVICOS_DE_OFICINA", "RAZAOSOCIAL": "T.B.S_SERVICOS_DE_OFICINA_LTDA", "ENDEE": "AVENIDA_ANTONIO_CARLOS_COUTO_DE_BARROS2432__VILA_SONIA_13105-000", "LMAPS": "https://www.google.com/maps?q=&layer=c&cbll=-46.9862503,-22.8900293", "O_QUE_FAZER": "CARTEIRA", "ER_REGIAO_CIDADE_min": "Campinas_Souzas_Campinas" }, "geometry": { "type": "Point", "coordinates": [ -46.9862503, -22.8900293 ] } },
{ "type": "Feature", "properties": { "fid": 90726, "CNPJ": "01497414000130", "IDCIDADE": "CAMPINAS", "NOMEFANTASIA": "MATRIX_COMUNICACAO_VISUAL", "RAZAOSOCIAL": "FERRANTE_DE_PAULA_COMERCIAL_LTDA", "ENDEE": "AVENIDA_DONA_JULIA_CONCEICAO_ALVES820__CONJUNTO_HABITACIONAL_VILA_SANTANA_13105-760", "LMAPS": "https://www.google.com/maps?q=&layer=c&cbll=-46.9830322,-22.8901018", "O_QUE_FAZER": "CARTEIRA", "ER_REGIAO_CIDADE_min": "Campinas_Souzas_Campinas" }, "geometry": { "type": "Point", "coordinates": [ -46.9830322, -22.8901018 ] } },
{ "type": "Feature", "properties": { "fid": 90750, "CNPJ": "01166314000121", "IDCIDADE": "CAMPINAS", "NOMEFANTASIA": "LATOTALE_CAMPINAS_OFICINA_MECANICA_E_REPAROS", "RAZAOSOCIAL": "LATOTALE_CAMPINAS_OFICINA_MECANICA_E_REPAROS_LTDA", "ENDEE": "AVENIDA_ANTONIO_CARLOS_COUTO_DE_BARROS2400__VILA_SONIA_13105-000", "LMAPS": "https://www.google.com/maps?q=&layer=c&cbll=-46.9859508,-22.8901786", "O_QUE_FAZER": "CARTEIRA", "ER_REGIAO_CIDADE_min": "Campinas_Souzas_Campinas" }, "geometry": { "type": "Point", "coordinates": [ -46.9859508, -22.8901786 ] } },
{ "type": "Feature", "properties": { "fid": 90752, "CNPJ": "40730544000123", "IDCIDADE": "CAMPINAS", "NOMEFANTASIA": "BULLET_AUTOSPORT", "RAZAOSOCIAL": "GM_SERVICOS_E_COMERCIO_DE_PECAS_LTDA", "ENDEE": "AVENIDA_ANTONIO_CARLOS_COUTO_DE_BARROS2366__VILA_SONIA_13105-000", "LMAPS": "https://www.google.com/maps?q=&layer=c&cbll=-46.9856038,-22.8901816", "O_QUE_FAZER": "CARTEIRA", "ER_REGIAO_CIDADE_min": "Campinas_Souzas_Campinas" }, "geometry": { "type": "Point", "coordinates": [ -46.9856038, -22.8901816 ] } },
{ "type": "Feature", "properties": { "fid": 90755, "CNPJ": "51312426000111", "IDCIDADE": "CAMPINAS", "NOMEFANTASIA": "FAST_PNEUS", "RAZAOSOCIAL": "R&G_PNEUS_CENTRO_AUTOMOTIVO_LTDA", "ENDEE": "AVENIDA_ANTONIO_CARLOS_COUTO_DE_BARROS2490__VILA_SONIA_13105-000", "LMAPS": "https://www.google.com/maps?q=&layer=c&cbll=-46.9867759,-22.8901945", "O_QUE_FAZER": "CARTEIRA", "ER_REGIAO_CIDADE_min": "Campinas_Souzas_Campinas" }, "geometry": { "type": "Point", "coordinates": [ -46.9867759, -22.8901945 ] } },
{ "type": "Feature", "properties": { "fid": 90766, "CNPJ": "10446760000180", "IDCIDADE": "CAMPINAS", "NOMEFANTASIA": "TURCHETTI_ABREU_ARQUITETURA_DE_INTERIORES", "RAZAOSOCIAL": "TURCHETTI_ABREU_ARQUITETURA_DE_INTERIORES_LTDA", "ENDEE": "AVENIDA_DONA_JULIA_CONCEICAO_ALVES302__CONJUNTO_HABITACIONAL_VILA_SANTANA_13105-760", "LMAPS": "https://www.google.com/maps?q=&layer=c&cbll=-46.9816594,-22.8902232", "O_QUE_FAZER": "CARTEIRA", "ER_REGIAO_CIDADE_min": "Campinas_Souzas_Campinas" }, "geometry": { "type": "Point", "coordinates": [ -46.9816594, -22.8902232 ] } },
{ "type": "Feature", "properties": { "fid": 90771, "CNPJ": "06285608000196", "IDCIDADE": "CAMPINAS", "NOMEFANTASIA": "STYLE_ALUMINIUM_SERRALHERIA", "RAZAOSOCIAL": "STYLE_ALUMINIUM_SERRALHERIA_LTDA", "ENDEE": "AVENIDA_ANTONIO_CARLOS_COUTO_DE_BARROS2460__VILA_SONIA_13105-000", "LMAPS": "https://www.google.com/maps?q=&layer=c&cbll=-46.9866285,-22.8902298", "O_QUE_FAZER": "CARTEIRA", "ER_REGIAO_CIDADE_min": "Campinas_Souzas_Campinas" }, "geometry": { "type": "Point", "coordinates": [ -46.9866285, -22.8902298 ] } },
{ "type": "Feature", "properties": { "fid": 90772, "CNPJ": "03575744000122", "IDCIDADE": "CAMPINAS", "NOMEFANTASIA": "LOGICAMP_ENGENHARIA", "RAZAOSOCIAL": "LOGICAMP_ENGENHARIA_LTDA", "ENDEE": "AVENIDA_DONA_JULIA_CONCEICAO_ALVES697__CONJUNTO_HABITACIONAL_VILA_SANTANA_13105-760", "LMAPS": "https://www.google.com/maps?q=&layer=c&cbll=-46.9816669,-22.89023", "O_QUE_FAZER": "CARTEIRA", "ER_REGIAO_CIDADE_min": "Campinas_Souzas_Campinas" }, "geometry": { "type": "Point", "coordinates": [ -46.9816669, -22.89023 ] } },
{ "type": "Feature", "properties": { "fid": 203819, "CNPJ": "28263038000176", "IDCIDADE": "CAMPINAS", "NOMEFANTASIA": "PINA_LOPES_COMERCIO_DE_ALIMENTOS", "RAZAOSOCIAL": "PINA_LOPES_COMERCIO_DE_ALIMENTOS_LTDA", "ENDEE": "RUA_ANTONIO_PRADO50__SOUSAS_13106-042", "LMAPS": "https://www.google.com/maps?q=&layer=c&cbll=-46.978525,-22.8870801", "O_QUE_FAZER": "CARTEIRA - FAMPE", "ER_REGIAO_CIDADE_min": "Campinas_Souzas_Campinas" }, "geometry": { "type": "Point", "coordinates": [ -46.978525, -22.8870801 ] } },
{ "type": "Feature", "properties": { "fid": 203824, "CNPJ": "01824461000141", "IDCIDADE": "CAMPINAS", "NOMEFANTASIA": "COMERCIO_DE_MADEIRAS_ANDRADE", "RAZAOSOCIAL": "LUIZ_C._V._ANDRADE", "ENDEE": "AVENIDA_ANTONIO_CARLOS_COUTO_DE_BARROS1880__JARDIM_CONCEICAO_13105-000", "LMAPS": "https://www.google.com/maps?q=&layer=c&cbll=-46.9811517,-22.8884217", "O_QUE_FAZER": "CARTEIRA - FAMPE", "ER_REGIAO_CIDADE_min": "Campinas_Souzas_Campinas" }, "geometry": { "type": "Point", "coordinates": [ -46.9811517, -22.8884217 ] } },
{ "type": "Feature", "properties": { "fid": 203829, "CNPJ": "29309516000102", "IDCIDADE": "CAMPINAS", "NOMEFANTASIA": "ESTACAO_SANTANA", "RAZAOSOCIAL": "SANTOS_GEMEOS_LTDA", "ENDEE": "RUA_MARIA_DA_CONCEICAO_DOS_SANTOS20__CONJUNTO_HABITACIONAL_VILA_SANTANA_13105-712", "LMAPS": "https://www.google.com/maps?q=&layer=c&cbll=-46.9804217,-22.8898282", "O_QUE_FAZER": "CARTEIRA - FAMPE", "ER_REGIAO_CIDADE_min": "Campinas_Souzas_Campinas" }, "geometry": { "type": "Point", "coordinates": [ -46.9804217, -22.8898282 ] } },
{ "type": "Feature", "properties": { "fid": 209042, "CNPJ": "17056776000126", "IDCIDADE": "CAMPINAS", "NOMEFANTASIA": null, "RAZAOSOCIAL": "VETOR ENERGIA - CONSULTORIA E SERVICOS LTDA", "ENDEE": "RUA ANESIO LAFAYETTE RAIZER, 157, CASA 48, LOTEAMENTO SANTA ANA DO ATIBAIA (SOUSAS), 13105-319, CAMPINAS, SP, BRASIL", "LMAPS": "https://www.google.com/maps?q=&layer=c&cbll=-22.8840492,-46.9700734", "O_QUE_FAZER": "CARTEIRA - FAMPE", "ER_REGIAO_CIDADE_min": "Campinas_Souzas_Campinas" }, "geometry": { "type": "Point", "coordinates": [ -46.9700734, -22.8840492 ] } },
{ "type": "Feature", "properties": { "fid": 209043, "CNPJ": "15374097000170", "IDCIDADE": "CAMPINAS", "NOMEFANTASIA": "FENIX ENGENHARIA", "RAZAOSOCIAL": "GIOVANETTI ENGENHARIA LTDA", "ENDEE": "RUA JOAO LEONE, 81, SALA A, JARDIM ROSANA (SOUSAS), 13105-530, CAMPINAS, SP, BRASIL", "LMAPS": "https://www.google.com/maps?q=&layer=c&cbll=-22.884406,-46.9720243", "O_QUE_FAZER": "CARTEIRA - FAMPE", "ER_REGIAO_CIDADE_min": "Campinas_Souzas_Campinas" }, "geometry": { "type": "Point", "coordinates": [ -46.9720243, -22.884406 ] } },
{ "type": "Feature", "properties": { "fid": 209050, "CNPJ": "12085266000163", "IDCIDADE": "CAMPINAS", "NOMEFANTASIA": "SOUSAS IMOBILIARIA", "RAZAOSOCIAL": "SOUSAS IMOBILIARIA LTDA.", "ENDEE": "AVENIDA ANTONIO CARLOS COUTO DE BARROS, 1061, CASA, VILA SONIA, 13105-000, CAMPINAS, SP, BRASIL", "LMAPS": "https://www.google.com/maps?q=&layer=c&cbll=-22.8855712,-46.9738861", "O_QUE_FAZER": "CARTEIRA - FAMPE", "ER_REGIAO_CIDADE_min": "Campinas_Souzas_Campinas" }, "geometry": { "type": "Point", "coordinates": [ -46.9738861, -22.8855712 ] } },
{ "type": "Feature", "properties": { "fid": 209080, "CNPJ": "34251739000198", "IDCIDADE": "CAMPINAS", "NOMEFANTASIA": "IS", "RAZAOSOCIAL": "IS DESENVOLVIMENTO COMERCIAL LTDA", "ENDEE": "RUA ROSA ABURAD KHOURI, 23, SALA 04, LOTEAMENTO PARQUE DAS HORTENCIAS (SOUSAS), 13105-618, CAMPINAS, SP, BRASIL", "LMAPS": "https://www.google.com/maps?q=&layer=c&cbll=-22.889554,-46.9824925", "O_QUE_FAZER": "CARTEIRA - FAMPE", "ER_REGIAO_CIDADE_min": "Campinas_Souzas_Campinas" }, "geometry": { "type": "Point", "coordinates": [ -46.9824925, -22.889554 ] } },
{ "type": "Feature", "properties": { "fid": 209097, "CNPJ": "26573989000116", "IDCIDADE": "CAMPINAS", "NOMEFANTASIA": "PLASTION REPRESENTACOES", "RAZAOSOCIAL": "MATEUS RODRIGUES DE SOUSA & CIA LTDA", "ENDEE": "RUA AVELINO SILVEIRA FRANCO, 149, BLOCO 3 SALA 71, VILLE SAINTE HELENE, 13105-822, CAMPINAS, SP, BRASIL", "LMAPS": "https://www.google.com/maps?q=&layer=c&cbll=-22.8929782,-46.9920655", "O_QUE_FAZER": "CARTEIRA - FAMPE", "ER_REGIAO_CIDADE_min": "Campinas_Souzas_Campinas" }, "geometry": { "type": "Point", "coordinates": [ -46.9920655, -22.8929782 ] } },
{ "type": "Feature", "properties": { "fid": 230687, "CNPJ": "57487356000119", "IDCIDADE": "CAMPINAS", "NOMEFANTASIA": "STELAS_INSTALACOES_E_VENDAS_DE_ALAMBRADOS", "RAZAOSOCIAL": "STELAS_INSTALACOES_E_VENDAS_DE_ALAMBRADOS_LTDA", "ENDEE": "RUA_ANTONIO_PRADO1810__SOUSAS_13106-042", "LMAPS": "https://www.google.com/maps?q=&layer=c&cbll=-46.9778736,-22.8864154", "O_QUE_FAZER": "FINALIZADO", "ER_REGIAO_CIDADE_min": "Campinas_Souzas_Campinas" }, "geometry": { "type": "Point", "coordinates": [ -46.9778736, -22.8864154 ] } },
{ "type": "Feature", "properties": { "fid": 230714, "CNPJ": "11371760000121", "IDCIDADE": "CAMPINAS", "NOMEFANTASIA": "AKERFITNESS", "RAZAOSOCIAL": "SOUL_FIT_LTDA", "ENDEE": "AVENIDA_DONA_JULIA_CONCEICAO_ALVES648__CONJUNTO_HABITACIONAL_VILA_SANTANA_13105-760", "LMAPS": "https://www.google.com/maps?q=&layer=c&cbll=-46.9813164,-22.8896044", "O_QUE_FAZER": "FINALIZADO", "ER_REGIAO_CIDADE_min": "Campinas_Souzas_Campinas" }, "geometry": { "type": "Point", "coordinates": [ -46.9813164, -22.8896044 ] } },
{ "type": "Feature", "properties": { "fid": 230723, "CNPJ": "20168783000124", "IDCIDADE": "CAMPINAS", "NOMEFANTASIA": "J.F.P._GONCALVES_SERVICOS_ADMINISTRATIVOS", "RAZAOSOCIAL": "FRANCISCO_PICARELLI", "ENDEE": "RUA_DARIO_BULGARELLI50__CONJUNTO_HABITACIONAL_VILA_SANTANA_13105-752", "LMAPS": "https://www.google.com/maps?q=&layer=c&cbll=-46.97965,-22.890425", "O_QUE_FAZER": "FINALIZADO", "ER_REGIAO_CIDADE_min": "Campinas_Souzas_Campinas" }, "geometry": { "type": "Point", "coordinates": [ -46.97965, -22.890425 ] } },
{ "type": "Feature", "properties": { "fid": 262518, "CNPJ": "52063479000109", "IDCIDADE": "CAMPINAS", "NOMEFANTASIA": "52.063.479_TIAGO_ALVES_DE_OLIVEIRA_VIANA", "RAZAOSOCIAL": "52.063.479_TIAGO_ALVES_DE_OLIVEIRA_VIANA", "ENDEE": "RUA_SOLDADO_PAULO_AUGUSTO_ANDRELE_SILVA276__IMPERIAL_PARQUE_13105-122", "LMAPS": "https://www.google.com/maps?q=&layer=c&cbll=-46.9855458,-22.8812566", "O_QUE_FAZER": "FINALIZADO", "ER_REGIAO_CIDADE_min": "Campinas_Souzas_Campinas" }, "geometry": { "type": "Point", "coordinates": [ -46.9855458, -22.8812566 ] } },
{ "type": "Feature", "properties": { "fid": 262598, "CNPJ": "54530870000100", "IDCIDADE": "CAMPINAS", "NOMEFANTASIA": "54.530.870_PAULO_HENRIQUE_FERNANDES_BRAGA", "RAZAOSOCIAL": "MOREIRA_BURGUER", "ENDEE": "RUA_JOAO_MARIA_BATISTA71__JARDIM_CONCEICAO_13105-064", "LMAPS": "https://www.google.com/maps?q=&layer=c&cbll=-46.9789462,-22.8842783", "O_QUE_FAZER": "FINALIZADO", "ER_REGIAO_CIDADE_min": "Campinas_Souzas_Campinas" }, "geometry": { "type": "Point", "coordinates": [ -46.9789462, -22.8842783 ] } },
{ "type": "Feature", "properties": { "fid": 262632, "CNPJ": "57484745000190", "IDCIDADE": "CAMPINAS", "NOMEFANTASIA": "ACADEMIA_BROTHERS_IN_IRON_LTDA", "RAZAOSOCIAL": "ACADEMIA_BROTHERS_IN_IRON", "ENDEE": "RUA_JOAO_MARIA_BATISTA76__JARDIM_CONCEICAO_13105-064", "LMAPS": "https://www.google.com/maps?q=&layer=c&cbll=-46.97796,-22.8853975", "O_QUE_FAZER": "FINALIZADO", "ER_REGIAO_CIDADE_min": "Campinas_Souzas_Campinas" }, "geometry": { "type": "Point", "coordinates": [ -46.97796, -22.8853975 ] } },
{ "type": "Feature", "properties": { "fid": 262633, "CNPJ": "44325987000190", "IDCIDADE": "CAMPINAS", "NOMEFANTASIA": "JOSE_PELISSON_JUNIOR_41802697837", "RAZAOSOCIAL": "CAMP_ALHO", "ENDEE": "RUA_JOAO_MARIA_BATISTA7__JARDIM_CONCEICAO_13105-064", "LMAPS": "https://www.google.com/maps?q=&layer=c&cbll=-46.9779563,-22.8854176", "O_QUE_FAZER": "FINALIZADO", "ER_REGIAO_CIDADE_min": "Campinas_Souzas_Campinas" }, "geometry": { "type": "Point", "coordinates": [ -46.9779563, -22.8854176 ] } },
{ "type": "Feature", "properties": { "fid": 262649, "CNPJ": "54184067000152", "IDCIDADE": "CAMPINAS", "NOMEFANTASIA": "54.184.067_JADER_LUIS_DE_OLIVEIRA", "RAZAOSOCIAL": "JR_BORRACHARIA", "ENDEE": "RUA_GUILHERME_DE_ALMEIDA10__JARDIM_CONCEICAO_13010-130", "LMAPS": "https://www.google.com/maps?q=&layer=c&cbll=-46.9786633,-22.8862005", "O_QUE_FAZER": "FINALIZADO", "ER_REGIAO_CIDADE_min": "Campinas_Souzas_Campinas" }, "geometry": { "type": "Point", "coordinates": [ -46.9786633, -22.8862005 ] } },
{ "type": "Feature", "properties": { "fid": 262659, "CNPJ": "60401076000150", "IDCIDADE": "CAMPINAS", "NOMEFANTASIA": "60.401.076_MARCELA_CRISTINA_NOGUEIRA", "RAZAOSOCIAL": "DANDO-SE_LAVA_RAPIDO", "ENDEE": "RUA_GUILHERME_DE_ALMEIDA35__CONJUNTO_HABITACIONAL_VILA_SAN_13010-130", "LMAPS": "https://www.google.com/maps?q=&layer=c&cbll=-46.978715,-22.8864756", "O_QUE_FAZER": "FINALIZADO", "ER_REGIAO_CIDADE_min": "Campinas_Souzas_Campinas" }, "geometry": { "type": "Point", "coordinates": [ -46.978715, -22.8864756 ] } },
{ "type": "Feature", "properties": { "fid": 262662, "CNPJ": "35598834000125", "IDCIDADE": "CAMPINAS", "NOMEFANTASIA": "NATALIA_VERONICA_LONGHI_40147640873", "RAZAOSOCIAL": "MAIS_KI_DELICIA", "ENDEE": "RUA_MICHEL_FARES74__JARDIM_CONCEICAO_13105-072", "LMAPS": "https://www.google.com/maps?q=&layer=c&cbll=-46.9779484,-22.8866393", "O_QUE_FAZER": "FINALIZADO", "ER_REGIAO_CIDADE_min": "Campinas_Souzas_Campinas" }, "geometry": { "type": "Point", "coordinates": [ -46.9779484, -22.8866393 ] } },
{ "type": "Feature", "properties": { "fid": 262668, "CNPJ": "57565398000120", "IDCIDADE": "CAMPINAS", "NOMEFANTASIA": "DROGARIA_J_L_PINHEIRO_LTDA", "RAZAOSOCIAL": "DROGARIA_MORAES", "ENDEE": "RUA_XAVIER_MAYER4__JARDIM_CONCEICAO_13105-038", "LMAPS": "https://www.google.com/maps?q=&layer=c&cbll=-46.9781384,-22.886829", "O_QUE_FAZER": "FINALIZADO", "ER_REGIAO_CIDADE_min": "Campinas_Souzas_Campinas" }, "geometry": { "type": "Point", "coordinates": [ -46.9781384, -22.886829 ] } },
{ "type": "Feature", "properties": { "fid": 262682, "CNPJ": "59174336000113", "IDCIDADE": "CAMPINAS", "NOMEFANTASIA": "59.174.336_VALDIVINA_CHAVES_DE_BRITO_SILVA", "RAZAOSOCIAL": "CAFE_CREMA_E_SABOR", "ENDEE": "RUA_XAVIER_MAYER50__JARDIM_CONCEICAO_13105-038", "LMAPS": "https://www.google.com/maps?q=&layer=c&cbll=-46.978429,-22.887121", "O_QUE_FAZER": "FINALIZADO", "ER_REGIAO_CIDADE_min": "Campinas_Souzas_Campinas" }, "geometry": { "type": "Point", "coordinates": [ -46.978429, -22.887121 ] } },
{ "type": "Feature", "properties": { "fid": 262701, "CNPJ": "49203950000102", "IDCIDADE": "CAMPINAS", "NOMEFANTASIA": "49.203.950_LUIZ_FERNANDO_PIRES", "RAZAOSOCIAL": "LUIZ_FERNANDO_PIRES", "ENDEE": "RUA_ATILIO_MIATTO131__CONJ._HAB._VILA_SANTANA_13105-734", "LMAPS": "https://www.google.com/maps?q=&layer=c&cbll=-46.9731665,-22.8880291", "O_QUE_FAZER": "FINALIZADO", "ER_REGIAO_CIDADE_min": "Campinas_Souzas_Campinas" }, "geometry": { "type": "Point", "coordinates": [ -46.9731665, -22.8880291 ] } },
{ "type": "Feature", "properties": { "fid": 300102, "CNPJ": "41061238000104", "IDCIDADE": "CAMPINAS", "NOMEFANTASIA": "-", "RAZAOSOCIAL": "SILVIA CRISTINA ATANASIO 03461082686", "ENDEE": "RUA MANECO ROSA, 67, SOUSAS, 13106-005, CAMPINAS, SP, BRASIL", "LMAPS": "https://www.google.com/maps?q=&layer=c&cbll=-22.8787989,-46.9650786", "O_QUE_FAZER": "CARTEIRA - FAMPE", "ER_REGIAO_CIDADE_min": "Campinas_Souzas_Campinas" }, "geometry": { "type": "Point", "coordinates": [ -46.9650786, -22.8787989 ] } },
{ "type": "Feature", "properties": { "fid": 300129, "CNPJ": "62002801000143", "IDCIDADE": "CAMPINAS", "NOMEFANTASIA": "-", "RAZAOSOCIAL": "MCSR BELEZA E ESTETICA LTDA", "ENDEE": "RUA XAVIER MAYER, 4, JARDIM CONCEICAO (SOUSAS), 13105-038, CAMPINAS, SP, BRASIL", "LMAPS": "https://www.google.com/maps?q=&layer=c&cbll=-22.8868811,-46.9782838", "O_QUE_FAZER": "CARTEIRA - FAMPE", "ER_REGIAO_CIDADE_min": "Campinas_Souzas_Campinas" }, "geometry": { "type": "Point", "coordinates": [ -46.9782838, -22.8868811 ] } },
{ "type": "Feature", "properties": { "fid": 300143, "CNPJ": "21031959000164", "IDCIDADE": "CAMPINAS", "NOMEFANTASIA": "-", "RAZAOSOCIAL": "21.031.959 SURYA GUIMARAENS SILVA", "ENDEE": "RUA NAZARIO BASILIO DE ALMEIDA, 160, LOTEAMENTO PARQUE DAS HORTENCIAS (SOUSAS), 13105-617, CAMPINAS, SP, BRASIL", "LMAPS": "https://www.google.com/maps?q=&layer=c&cbll=-22.8898912,-46.976152", "O_QUE_FAZER": "CARTEIRA - FAMPE", "ER_REGIAO_CIDADE_min": "Campinas_Souzas_Campinas" }, "geometry": { "type": "Point", "coordinates": [ -46.976152, -22.8898912 ] } },
{ "type": "Feature", "properties": { "fid": 300150, "CNPJ": "47355449000136", "IDCIDADE": "CAMPINAS", "NOMEFANTASIA": "-", "RAZAOSOCIAL": "VITOR HUGO GARBO LIMA 56699629824", "ENDEE": "RUA EUGENIO FABRINI, 145, CONJ, LOTEAMENTO PARQUE DAS HORTENCIAS (SOUSAS), 13105-628, CAMPINAS, SP, BRASIL", "LMAPS": "https://www.google.com/maps?q=&layer=c&cbll=-22.8912678,-46.9807312", "O_QUE_FAZER": "CARTEIRA - FAMPE", "ER_REGIAO_CIDADE_min": "Campinas_Souzas_Campinas" }, "geometry": { "type": "Point", "coordinates": [ -46.9807312, -22.8912678 ] } }
]
}
