{
"type": "FeatureCollection",
"name": "ER_REGIAO_CIDADE_min_João Ramalho_Marília",
"crs": { "type": "name", "properties": { "name": "urn:ogc:def:crs:OGC:1.3:CRS84" } },
"xy_coordinate_resolution": 1e-15,
"features": [
{ "type": "Feature", "properties": { "fid": 213874, "CNPJ": "42468964000109", "IDCIDADE": "JOAO RAMALHO", "NOMEFANTASIA": "FARMAGABRIEL", "RAZAOSOCIAL": "FARMAGABRIEL_DE_JOAO_RAMALHO_LTDA", "ENDEE": "RUA OSVALDO SAMPAIO, 17, CENTRO, 19680043, JOÃO RAMALHO, SP, BRASIL", "LMAPS": "https://www.google.com/maps?q=&layer=c&cbll=-22.2518536,-50.766961", "O_QUE_FAZER": "CARTEIRA - FAMPE", "ER_REGIAO_CIDADE_min": "João Ramalho_Marília" }, "geometry": { "type": "Point", "coordinates": [ -50.766961, -22.2518536 ] } },
{ "type": "Feature", "properties": { "fid": 247825, "CNPJ": "49585049000142", "IDCIDADE": "JOAO RAMALHO", "NOMEFANTASIA": "-", "RAZAOSOCIAL": "49.585.049_THAIS_CRISTINA_OLIVEIRA_DOS_SANTOS", "ENDEE": "RUA SALVADOR, 168, VILA SANTA CRUZ, 19680-098, JOÃO RAMALHO, SP, BRASIL", "LMAPS": "https://www.google.com/maps?q=&layer=c&cbll=-22.245218,-50.7667868", "O_QUE_FAZER": "CARTEIRA - FAMPE", "ER_REGIAO_CIDADE_min": "João Ramalho_Marília" }, "geometry": { "type": "Point", "coordinates": [ -50.7667868, -22.245218 ] } },
{ "type": "Feature", "properties": { "fid": 307441, "CNPJ": "68034619000150", "IDCIDADE": "JOAO RAMALHO", "NOMEFANTASIA": null, "RAZAOSOCIAL": "68.034.619_SAMUEL_LUCAS_TRINDADE_PEREIRA", "ENDEE": "RUA JOSE TEODORO, 85, CENTRO, 19680-011, JOÃO RAMALHO, SP, BRASIL", "LMAPS": "https://www.google.com/maps?q=&layer=c&cbll=-22.2537845,-50.7652601", "O_QUE_FAZER": "CARTEIRA - FAMPE", "ER_REGIAO_CIDADE_min": "João Ramalho_Marília" }, "geometry": { "type": "Point", "coordinates": [ -50.7652601, -22.2537845 ] } }
]
}
