{
"type": "FeatureCollection",
"name": "ER_REGIAO_CIDADE_min_Clementina_Clementina_Araçatuba",
"crs": { "type": "name", "properties": { "name": "urn:ogc:def:crs:OGC:1.3:CRS84" } },
"xy_coordinate_resolution": 1e-15,
"features": [
{ "type": "Feature", "properties": { "fid": 206500, "CNPJ": "03490879000195", "IDCIDADE": "CLEMENTINA", "NOMEFANTASIA": "AUTO MECANICA SANTO ANTONIO", "RAZAOSOCIAL": "EDMAR ESPERANCA & CIA LTDA", "ENDEE": "RUA STELIO MACHADO LOUREIRO, 157, CENTRO, 16250-000, CLEMENTINA, SP, BRASIL", "LMAPS": "https://www.google.com/maps?q=&layer=c&cbll=-21.5587765,-50.4501254", "O_QUE_FAZER": "CARTEIRA - FAMPE", "ER_REGIAO_CIDADE_min": "Clementina_Clementina_Araçatuba" }, "geometry": { "type": "Point", "coordinates": [ -50.4501254, -21.5587765 ] } },
{ "type": "Feature", "properties": { "fid": 206501, "CNPJ": "43212996000101", "IDCIDADE": "CLEMENTINA", "NOMEFANTASIA": "ALLAN SERVICOS E LOCACOES", "RAZAOSOCIAL": "ALLAN RICARDO DE BARROS SERVICOS LTDA", "ENDEE": "RUA JOAO ARIAS, 705, PLANALTO II, 16250-000, CLEMENTINA, SP, BRASIL", "LMAPS": "https://www.google.com/maps?q=&layer=c&cbll=-21.565281,-50.4453437", "O_QUE_FAZER": "CARTEIRA - FAMPE", "ER_REGIAO_CIDADE_min": "Clementina_Clementina_Araçatuba" }, "geometry": { "type": "Point", "coordinates": [ -50.4453437, -21.565281 ] } },
{ "type": "Feature", "properties": { "fid": 206502, "CNPJ": "44136559000119", "IDCIDADE": "CLEMENTINA", "NOMEFANTASIA": "ACOUGUE BOM FUTURO", "RAZAOSOCIAL": "RODRIGO TENORIO MENDEZ", "ENDEE": "RUA VEREADOR FRANCISCO DE ASSIS VASQUES, 663, RESIDENCIAL PLANALTO, 16250-000, CLEMENTINA, SP, BRASIL", "LMAPS": "https://www.google.com/maps?q=&layer=c&cbll=-21.5659191,-50.4451939", "O_QUE_FAZER": "CARTEIRA - FAMPE", "ER_REGIAO_CIDADE_min": "Clementina_Clementina_Araçatuba" }, "geometry": { "type": "Point", "coordinates": [ -50.4451939, -21.5659191 ] } }
]
}
