{
"type": "FeatureCollection",
"name": "ER_REGIAO_CIDADE_min_Miracatu_Oliveira Barros_Vale do Ribeira",
"crs": { "type": "name", "properties": { "name": "urn:ogc:def:crs:OGC:1.3:CRS84" } },
"xy_coordinate_resolution": 1e-15,
"features": [
{ "type": "Feature", "properties": { "fid": 46216, "CNPJ": "07845518000175", "IDCIDADE": "MIRACATU", "NOMEFANTASIA": "BLOCOS_PAULO", "RAZAOSOCIAL": "PAULO_C_DA_SILVA_ARTEFATOS_DE_CIMENTO", "ENDEE": "RODOVIA_REGIS_BITTENCOURT0__OLIVEIRA_BARROS_11850-000", "LMAPS": "https://www.google.com/maps?q=&layer=c&cbll=-24.32301,-47.54243", "O_QUE_FAZER": "CARTEIRA", "ER_REGIAO_CIDADE_min": "Miracatu_Oliveira Barros_Vale do Ribeira" }, "geometry": { "type": "Point", "coordinates": [ -47.54243, -24.32301 ] } },
{ "type": "Feature", "properties": { "fid": 56649, "CNPJ": "09260701000134", "IDCIDADE": "MIRACATU", "NOMEFANTASIA": "AGROPECUARIA_E_MATERIAIS_PARA_CONSTRUCOES_VIDA_NOVA", "RAZAOSOCIAL": "AGROPECUARIA_E_MATERIAIS_PARA_CONSTRUCOES_VIDA_NOVA_LTDA", "ENDEE": "RUA_JORGE_WOLPERT206__OLIVEIRA_BARROS_11850-000", "LMAPS": "https://www.google.com/maps?q=&layer=c&cbll=-24.3200302,-47.5423651", "O_QUE_FAZER": "CARTEIRA", "ER_REGIAO_CIDADE_min": "Miracatu_Oliveira Barros_Vale do Ribeira" }, "geometry": { "type": "Point", "coordinates": [ -47.5423651, -24.3200302 ] } },
{ "type": "Feature", "properties": { "fid": 134570, "CNPJ": "25005946000171", "IDCIDADE": "MIRACATU", "NOMEFANTASIA": null, "RAZAOSOCIAL": "LUCIANA_DE_JESUS_DA_SILVEIRA", "ENDEE": "RUA NOVE, 230, OLIVEIRA BARROS, 11850-000, MIRACATU, SP, BRASIL", "LMAPS": "https://www.google.com/maps?q=&layer=c&cbll=-24.3165123,-47.5412332", "O_QUE_FAZER": "CARTEIRA - FAMPE", "ER_REGIAO_CIDADE_min": "Miracatu_Oliveira Barros_Vale do Ribeira" }, "geometry": { "type": "Point", "coordinates": [ -47.5412332, -24.3165123 ] } },
{ "type": "Feature", "properties": { "fid": 180409, "CNPJ": "34471398000166", "IDCIDADE": "MIRACATU", "NOMEFANTASIA": "VIDA_NOVA", "RAZAOSOCIAL": "ALEX_MORAIS_DOS_SANTOS", "ENDEE": "RUA_JORGE_WOLPERT206__OLIVEIRA_BARROS_11850-000", "LMAPS": "https://www.google.com/maps?q=&layer=c&cbll=-24.3200281,-47.5423733", "O_QUE_FAZER": "CARTEIRA", "ER_REGIAO_CIDADE_min": "Miracatu_Oliveira Barros_Vale do Ribeira" }, "geometry": { "type": "Point", "coordinates": [ -47.5423733, -24.3200281 ] } },
{ "type": "Feature", "properties": { "fid": 258071, "CNPJ": "51596217000147", "IDCIDADE": "MIRACATU", "NOMEFANTASIA": "PADARIA_KALID", "RAZAOSOCIAL": "PADARIA_E_CONFEITARIA_KALID_LTDA", "ENDEE": "RUA_VEREADOR_RUBENS_FLORENCIO240__OLIVEIRA_BARROS_11850-000", "LMAPS": "https://www.google.com/maps?q=&layer=c&cbll=-24.3186043,-47.5431368", "O_QUE_FAZER": "CARTEIRA", "ER_REGIAO_CIDADE_min": "Miracatu_Oliveira Barros_Vale do Ribeira" }, "geometry": { "type": "Point", "coordinates": [ -47.5431368, -24.3186043 ] } },
{ "type": "Feature", "properties": { "fid": 290364, "CNPJ": "60033677000158", "IDCIDADE": "MIRACATU", "NOMEFANTASIA": "FLORA_WOLPERT", "RAZAOSOCIAL": "FLORA_WOLPERT_AGRO_COMERCIAL_E_PAISAGISMO_LTDA", "ENDEE": "RUA_JORGE_WOLPERT109__OLIVEIRA_BARROS_11850-000", "LMAPS": "https://www.google.com/maps?q=&layer=c&cbll=-24.3203597,-47.5426417", "O_QUE_FAZER": "CARTEIRA", "ER_REGIAO_CIDADE_min": "Miracatu_Oliveira Barros_Vale do Ribeira" }, "geometry": { "type": "Point", "coordinates": [ -47.5426417, -24.3203597 ] } },
{ "type": "Feature", "properties": { "fid": 304606, "CNPJ": "66722387000106", "IDCIDADE": "MIRACATU", "NOMEFANTASIA": null, "RAZAOSOCIAL": "66.722.387_LIVIA_AMORIM_FLORENCIO", "ENDEE": "10A RUA JORGE WOLPERT, 376, OLIVEIRA BARROS, 11850-000, MIRACATU, SP, BRASIL", "LMAPS": "https://www.google.com/maps?q=&layer=c&cbll=-24.3203373,-47.5424883", "O_QUE_FAZER": "CARTEIRA - FAMPE", "ER_REGIAO_CIDADE_min": "Miracatu_Oliveira Barros_Vale do Ribeira" }, "geometry": { "type": "Point", "coordinates": [ -47.5424883, -24.3203373 ] } }
]
}
