{
"type": "FeatureCollection",
"name": "ER_REGIAO_CIDADE_min_Elias Fausto_Elias Fausto_Campinas",
"crs": { "type": "name", "properties": { "name": "urn:ogc:def:crs:OGC:1.3:CRS84" } },
"xy_coordinate_resolution": 1e-15,
"features": [
{ "type": "Feature", "properties": { "fid": 1483, "CNPJ": "50417009000170", "IDCIDADE": "ELIAS_FAUSTO", "NOMEFANTASIA": "-", "RAZAOSOCIAL": "50.417.009 MARIA CAROLINE APARECIDA PIAZZA", "ENDEE": "RUA_GERMANO LUIZ SCHULZ_55_VILA FRANCO MONTORO_13359-126_ELIAS_FAUSTO", "LMAPS": "https://www.google.com/maps?q=&layer=c&cbll=-23.041957,-47.3721348", "O_QUE_FAZER": "APLICAR T2", "ER_REGIAO_CIDADE_min": "Elias Fausto_Elias Fausto_Campinas" }, "geometry": { "type": "Point", "coordinates": [ -47.3721348, -23.041957 ] } },
{ "type": "Feature", "properties": { "fid": 209640, "CNPJ": "15161772000182", "IDCIDADE": "ELIAS FAUSTO", "NOMEFANTASIA": null, "RAZAOSOCIAL": "15.161.772 SILVIA ELIETE MEMBRIVE DOMENE BARRERA", "ENDEE": "RUA ANTONIO JOSE MALAQUIAS, 20, JARDIM NOVA ELIAS FAUSTO, 13350-060, ELIAS FAUSTO, SP, BRASIL", "LMAPS": "https://www.google.com/maps?q=&layer=c&cbll=-23.0423177,-47.374435", "O_QUE_FAZER": "CARTEIRA - FAMPE", "ER_REGIAO_CIDADE_min": "Elias Fausto_Elias Fausto_Campinas" }, "geometry": { "type": "Point", "coordinates": [ -47.374435, -23.0423177 ] } },
{ "type": "Feature", "properties": { "fid": 209642, "CNPJ": "40570614000123", "IDCIDADE": "ELIAS FAUSTO", "NOMEFANTASIA": "ENSINA MAIS - UNIDADE ALMEIDA THONI", "RAZAOSOCIAL": "CAROLINA HELENA DE ALMEIDA THONI", "ENDEE": "RUA 13 DE MAIO, 52, CENTRO, 13350-039, ELIAS FAUSTO, SP, BRASIL", "LMAPS": "https://www.google.com/maps?q=&layer=c&cbll=-23.0425377,-47.3743176", "O_QUE_FAZER": "CARTEIRA - FAMPE", "ER_REGIAO_CIDADE_min": "Elias Fausto_Elias Fausto_Campinas" }, "geometry": { "type": "Point", "coordinates": [ -47.3743176, -23.0425377 ] } },
{ "type": "Feature", "properties": { "fid": 209643, "CNPJ": "40728821000163", "IDCIDADE": "ELIAS FAUSTO", "NOMEFANTASIA": "RESTAURANTE KABANA", "RAZAOSOCIAL": "MICHELE SCATAMBURLO", "ENDEE": "RUA 13 DE MAIO, 92, CENTRO, 13350-000, ELIAS FAUSTO, SP, BRASIL", "LMAPS": "https://www.google.com/maps?q=&layer=c&cbll=-23.0428963,-47.3742271", "O_QUE_FAZER": "CARTEIRA - FAMPE", "ER_REGIAO_CIDADE_min": "Elias Fausto_Elias Fausto_Campinas" }, "geometry": { "type": "Point", "coordinates": [ -47.3742271, -23.0428963 ] } },
{ "type": "Feature", "properties": { "fid": 209644, "CNPJ": "53771583000110", "IDCIDADE": "ELIAS FAUSTO", "NOMEFANTASIA": "RESTAURANTE SABORES DA AURORA", "RAZAOSOCIAL": "RESTAURANTE SABORES DA AURORA LTDA", "ENDEE": "RUA CARLOS MARQUES, 165, JARDIM SAO JOSE, 13352-116, ELIAS FAUSTO, SP, BRASIL", "LMAPS": "https://www.google.com/maps?q=&layer=c&cbll=-23.0448312,-47.3649829", "O_QUE_FAZER": "CARTEIRA - FAMPE", "ER_REGIAO_CIDADE_min": "Elias Fausto_Elias Fausto_Campinas" }, "geometry": { "type": "Point", "coordinates": [ -47.3649829, -23.0448312 ] } },
{ "type": "Feature", "properties": { "fid": 209723, "CNPJ": "05033654000135", "IDCIDADE": "ELIAS FAUSTO", "NOMEFANTASIA": "ELIAS FAUSTO INDUSTRIA DE PISCINAS", "RAZAOSOCIAL": "ELIAS FAUSTO INDUSTRIA DE PISCINAS LTDA", "ENDEE": "RODOVIA DO ACUCAR KM 116, 1167, BENFICA, 13350-000, ELIAS FAUSTO, SP, BRASIL", "LMAPS": "https://www.google.com/maps?q=&layer=c&cbll=-23.0797784,-47.4018201", "O_QUE_FAZER": "CARTEIRA - FAMPE", "ER_REGIAO_CIDADE_min": "Elias Fausto_Elias Fausto_Campinas" }, "geometry": { "type": "Point", "coordinates": [ -47.4018201, -23.0797784 ] } },
{ "type": "Feature", "properties": { "fid": 266405, "CNPJ": "31841066000138", "IDCIDADE": "ELIAS_FAUSTO", "NOMEFANTASIA": "MARCOS_OLIVATO", "RAZAOSOCIAL": "GUANANDI_PLANEJADOS_LTDA", "ENDEE": "RUA_ROSA_PANSONATO187__PARQUE_BALNEARIO_CARIMA_13354-032", "LMAPS": "https://www.google.com/maps?q=&layer=c&cbll=-47.3668669,-23.0330545", "O_QUE_FAZER": "FINALIZADO", "ER_REGIAO_CIDADE_min": "Elias Fausto_Elias Fausto_Campinas" }, "geometry": { "type": "Point", "coordinates": [ -47.3668669, -23.0330545 ] } },
{ "type": "Feature", "properties": { "fid": 266573, "CNPJ": "50416697000154", "IDCIDADE": "ELIAS_FAUSTO", "NOMEFANTASIA": "CONDO_TRAINING_MASTER_BIASI_LTDA", "RAZAOSOCIAL": "CONDO_TRAINING_BIASI", "ENDEE": "ALAMEDA_DAS_FLORES85__IPIRANGA_13350-000", "LMAPS": "https://www.google.com/maps?q=&layer=c&cbll=-47.3721506,-23.0421262", "O_QUE_FAZER": "FINALIZADO", "ER_REGIAO_CIDADE_min": "Elias Fausto_Elias Fausto_Campinas" }, "geometry": { "type": "Point", "coordinates": [ -47.3721506, -23.0421262 ] } },
{ "type": "Feature", "properties": { "fid": 266574, "CNPJ": "06321561000179", "IDCIDADE": "ELIAS_FAUSTO", "NOMEFANTASIA": "FABIO_FERRAZ", "RAZAOSOCIAL": "FERRAZ_-_AGENCIA_DE_TRANSPORTES", "ENDEE": "RUA_OTORINO_SACCHI12__GRAMADO_13350-000", "LMAPS": "https://www.google.com/maps?q=&layer=c&cbll=-47.3721506,-23.0421262", "O_QUE_FAZER": "FINALIZADO", "ER_REGIAO_CIDADE_min": "Elias Fausto_Elias Fausto_Campinas" }, "geometry": { "type": "Point", "coordinates": [ -47.3721506, -23.0421262 ] } },
{ "type": "Feature", "properties": { "fid": 300618, "CNPJ": "28190980000151", "IDCIDADE": "ELIAS FAUSTO", "NOMEFANTASIA": "-", "RAZAOSOCIAL": "28.190.980 SONIA OLIVEIRA TURATI FELICIO", "ENDEE": "AREA RURAL, S/N, AREA RURAL DE ELIAS FAUSTO, 13358-899, ELIAS FAUSTO, SP, BRASIL", "LMAPS": "https://www.google.com/maps?q=&layer=c&cbll=-23.0421262,-47.3721506", "O_QUE_FAZER": "CARTEIRA - FAMPE", "ER_REGIAO_CIDADE_min": "Elias Fausto_Elias Fausto_Campinas" }, "geometry": { "type": "Point", "coordinates": [ -47.3721506, -23.0421262 ] } },
{ "type": "Feature", "properties": { "fid": 300621, "CNPJ": "37876623000132", "IDCIDADE": "ELIAS FAUSTO", "NOMEFANTASIA": "-", "RAZAOSOCIAL": "REGINALDA AP. INACIO RESTAURANTE", "ENDEE": "RUA 15 DE NOVEMBRO, 165, CENTRO, 13350-007, ELIAS FAUSTO, SP, BRASIL", "LMAPS": "https://www.google.com/maps?q=&layer=c&cbll=-23.0438267,-47.3729788", "O_QUE_FAZER": "CARTEIRA - FAMPE", "ER_REGIAO_CIDADE_min": "Elias Fausto_Elias Fausto_Campinas" }, "geometry": { "type": "Point", "coordinates": [ -47.3729788, -23.0438267 ] } }
]
}
