{
"type": "FeatureCollection",
"name": "ER_REGIAO_CIDADE_min_Capital Sul_Marsilac",
"crs": { "type": "name", "properties": { "name": "urn:ogc:def:crs:OGC:1.3:CRS84" } },
"xy_coordinate_resolution": 1e-15,
"features": [
{ "type": "Feature", "properties": { "fid": 294772, "CNPJ": "57807084000197", "IDCIDADE": "SAO_PAULO", "NOMEFANTASIA": "COMERCIO_DE_AGUA_FONTES_LTDA", "RAZAOSOCIAL": "AGUA_FONTES", "ENDEE": "AVENIDA_DOUTORA_NISE_DA_SILVEIRA1502__SITIO_REPRESA_04894-020", "LMAPS": "https://www.google.com/maps?q=&layer=c&cbll=-46.7490528,-23.8711112", "O_QUE_FAZER": "FINALIZADO", "ER_REGIAO_CIDADE_min": "Capital Sul_Marsilac" }, "geometry": { "type": "Point", "coordinates": [ -46.7490528, -23.8711112 ] } },
{ "type": "Feature", "properties": { "fid": 294773, "CNPJ": "33069695000117", "IDCIDADE": "SAO_PAULO", "NOMEFANTASIA": "ADENALVA_ROSA_DOS_ANJOS_01762321505", "RAZAOSOCIAL": "BAR_DA_NALVA", "ENDEE": "AVENIDA_DOUTORA_NISE_DA_SILVEIRA13__SITIO_REPRESA_04894-020", "LMAPS": "https://www.google.com/maps?q=&layer=c&cbll=-46.7514459,-23.8711476", "O_QUE_FAZER": "FINALIZADO", "ER_REGIAO_CIDADE_min": "Capital Sul_Marsilac" }, "geometry": { "type": "Point", "coordinates": [ -46.7514459, -23.8711476 ] } },
{ "type": "Feature", "properties": { "fid": 294799, "CNPJ": "55800851000100", "IDCIDADE": "SAO_PAULO", "NOMEFANTASIA": "55.800.851_GUSTAVO_ABEL_CAVALCANTE_SOUSA", "RAZAOSOCIAL": "GUGA_CORTES", "ENDEE": "ESTRADA_ENGENHEIRO_MARSILAC8028__EMBURA_04891-000", "LMAPS": "https://www.google.com/maps?q=&layer=c&cbll=-46.7404915,-23.8778896", "O_QUE_FAZER": "FINALIZADO", "ER_REGIAO_CIDADE_min": "Capital Sul_Marsilac" }, "geometry": { "type": "Point", "coordinates": [ -46.7404915, -23.8778896 ] } },
{ "type": "Feature", "properties": { "fid": 294816, "CNPJ": "57117906000108", "IDCIDADE": "SAO_PAULO", "NOMEFANTASIA": "E._R._SOARES_LANCHONETE_E_EMPORIO", "RAZAOSOCIAL": "SABORES_DA_ROCA", "ENDEE": "ESTRADA_ENGENHEIRO_MARSILAC8080__EMBURA_04891-000", "LMAPS": "https://www.google.com/maps?q=&layer=c&cbll=-46.7406431,-23.8785092", "O_QUE_FAZER": "FINALIZADO", "ER_REGIAO_CIDADE_min": "Capital Sul_Marsilac" }, "geometry": { "type": "Point", "coordinates": [ -46.7406431, -23.8785092 ] } },
{ "type": "Feature", "properties": { "fid": 294818, "CNPJ": "50264581000147", "IDCIDADE": "SAO_PAULO", "NOMEFANTASIA": "50.264.581_MARISA_SANTILLI", "RAZAOSOCIAL": "BAZAR_E_PAPELARIA", "ENDEE": "ESTRADA_ENGENHEIRO_MARCILAC8086__EMBURA_04893-000", "LMAPS": "https://www.google.com/maps?q=&layer=c&cbll=-46.7406998,-23.8785662", "O_QUE_FAZER": "FINALIZADO", "ER_REGIAO_CIDADE_min": "Capital Sul_Marsilac" }, "geometry": { "type": "Point", "coordinates": [ -46.7406998, -23.8785662 ] } },
{ "type": "Feature", "properties": { "fid": 294822, "CNPJ": "55879533000187", "IDCIDADE": "SAO_PAULO", "NOMEFANTASIA": "55.879.533_LEONARDO_JUNJI_YONEYAMA", "RAZAOSOCIAL": "PONT_DO_JAPA", "ENDEE": "ESTRADA_ENGENHEIRO_MARSILAC8084__EMBURA_04891-000", "LMAPS": "https://www.google.com/maps?q=&layer=c&cbll=-46.7406053,-23.8786874", "O_QUE_FAZER": "FINALIZADO", "ER_REGIAO_CIDADE_min": "Capital Sul_Marsilac" }, "geometry": { "type": "Point", "coordinates": [ -46.7406053, -23.8786874 ] } },
{ "type": "Feature", "properties": { "fid": 294839, "CNPJ": "08644894000164", "IDCIDADE": "SAO_PAULO", "NOMEFANTASIA": "R_V_DA_SILVA_LANCHONETE", "RAZAOSOCIAL": "BODES_BAR", "ENDEE": "ESTRADA_ENGENHEIRO_MARCILAC4996__EMBURA_04893-000", "LMAPS": "https://www.google.com/maps?q=&layer=c&cbll=-46.7413918,-23.8804646", "O_QUE_FAZER": "FINALIZADO", "ER_REGIAO_CIDADE_min": "Capital Sul_Marsilac" }, "geometry": { "type": "Point", "coordinates": [ -46.7413918, -23.8804646 ] } },
{ "type": "Feature", "properties": { "fid": 294840, "CNPJ": "36673701000139", "IDCIDADE": "SAO_PAULO", "NOMEFANTASIA": "E_F_AVANSO_MAGAZINE", "RAZAOSOCIAL": "MULTI_COISAS", "ENDEE": "ESTRADA_ENGENHEIRO_MARSILAC8321__EMBURA_04891-000", "LMAPS": "https://www.google.com/maps?q=&layer=c&cbll=-46.741426,-23.8805221", "O_QUE_FAZER": "FINALIZADO", "ER_REGIAO_CIDADE_min": "Capital Sul_Marsilac" }, "geometry": { "type": "Point", "coordinates": [ -46.741426, -23.8805221 ] } },
{ "type": "Feature", "properties": { "fid": 294843, "CNPJ": "39741054000143", "IDCIDADE": "SAO_PAULO", "NOMEFANTASIA": "DROGARIAS_SALUS_FARMA_LTDA", "RAZAOSOCIAL": "DROGARIA_SALLES_FARMA", "ENDEE": "ESTRADA_ENGENHEIRO_MARCILAC8380__EMBURA_04893-000", "LMAPS": "https://www.google.com/maps?q=&layer=c&cbll=-46.7416064,-23.8812489", "O_QUE_FAZER": "FINALIZADO", "ER_REGIAO_CIDADE_min": "Capital Sul_Marsilac" }, "geometry": { "type": "Point", "coordinates": [ -46.7416064, -23.8812489 ] } },
{ "type": "Feature", "properties": { "fid": 294844, "CNPJ": "18050820000153", "IDCIDADE": "SAO_PAULO", "NOMEFANTASIA": "ROBERTO_LUZ_GOMES_13519277875", "RAZAOSOCIAL": "LUZ_DA_MODA", "ENDEE": "ESTRADA_ENGENHEIRO_MARSILAC8409__EMBURA_04891-000", "LMAPS": "https://www.google.com/maps?q=&layer=c&cbll=-46.7411436,-23.8813579", "O_QUE_FAZER": "FINALIZADO", "ER_REGIAO_CIDADE_min": "Capital Sul_Marsilac" }, "geometry": { "type": "Point", "coordinates": [ -46.7411436, -23.8813579 ] } },
{ "type": "Feature", "properties": { "fid": 294850, "CNPJ": "40405941000120", "IDCIDADE": "SAO_PAULO", "NOMEFANTASIA": "40.405.941_ANTONIO_MARCOS_FRANCISCO", "RAZAOSOCIAL": "3_AMIGOS", "ENDEE": "ESTRADA_DA_PONTE_ALTA8__ENGENHEIRO_MARSILAC_04891-270", "LMAPS": "https://www.google.com/maps?q=&layer=c&cbll=-46.741833,-23.8822038", "O_QUE_FAZER": "FINALIZADO", "ER_REGIAO_CIDADE_min": "Capital Sul_Marsilac" }, "geometry": { "type": "Point", "coordinates": [ -46.741833, -23.8822038 ] } },
{ "type": "Feature", "properties": { "fid": 294851, "CNPJ": "97541206000160", "IDCIDADE": "SAO_PAULO", "NOMEFANTASIA": "MARCOS_DA_SILVA_OLIVEIRA_11614410852", "RAZAOSOCIAL": "BAR_DO_SABIA", "ENDEE": "ESTRADA_DA_PONTE_ALTA9__ENGENHEIRO_MARSILAC_04891-270", "LMAPS": "https://www.google.com/maps?q=&layer=c&cbll=-46.7420435,-23.8822087", "O_QUE_FAZER": "FINALIZADO", "ER_REGIAO_CIDADE_min": "Capital Sul_Marsilac" }, "geometry": { "type": "Point", "coordinates": [ -46.7420435, -23.8822087 ] } },
{ "type": "Feature", "properties": { "fid": 306642, "CNPJ": "38043057000140", "IDCIDADE": "SAO PAULO", "NOMEFANTASIA": "-", "RAZAOSOCIAL": "ROBERTO APARECIDO LOPES GUILGER 19185452866", "ENDEE": "RUA JOSE GUARANI, 250/F, EMBURA, 04893-095, SÃO PAULO, SP, BRASIL", "LMAPS": "https://www.google.com/maps?q=&layer=c&cbll=-23.8874991,-46.7293008", "O_QUE_FAZER": "CARTEIRA - FAMPE", "ER_REGIAO_CIDADE_min": "Capital Sul_Marsilac" }, "geometry": { "type": "Point", "coordinates": [ -46.7293008, -23.8874991 ] } },
{ "type": "Feature", "properties": { "fid": 306643, "CNPJ": "63581171000171", "IDCIDADE": "SAO PAULO", "NOMEFANTASIA": "-", "RAZAOSOCIAL": "63.581.171 JAQUELINE FRANCA ARAUJO", "ENDEE": "ESTRADA ENGENHEIRO MARCILAC, 14629, EMBURA, 04893-000, SÃO PAULO, SP, BRASIL", "LMAPS": "https://www.google.com/maps?q=&layer=c&cbll=-23.9064813,-46.7066309", "O_QUE_FAZER": "CARTEIRA - FAMPE", "ER_REGIAO_CIDADE_min": "Capital Sul_Marsilac" }, "geometry": { "type": "Point", "coordinates": [ -46.7066309, -23.9064813 ] } }
]
}
