{
"type": "FeatureCollection",
"name": "ER_REGIAO_CIDADE_min_Vera Cruz_Marília",
"crs": { "type": "name", "properties": { "name": "urn:ogc:def:crs:OGC:1.3:CRS84" } },
"xy_coordinate_resolution": 1e-15,
"features": [
{ "type": "Feature", "properties": { "fid": 54065, "CNPJ": "60917416000109", "IDCIDADE": "VERA_CRUZ", "NOMEFANTASIA": "OFICINA_ZANCHETA", "RAZAOSOCIAL": "ZANCHETA_&_CIA_LTDA", "ENDEE": "RUA_MARTIN_AFONSO73__CENTRO_17560-013", "LMAPS": "https://www.google.com/maps?q=&layer=c&cbll=-49.8278338,-22.2157115", "O_QUE_FAZER": "CARTEIRA", "ER_REGIAO_CIDADE_min": "Vera Cruz_Marília" }, "geometry": { "type": "Point", "coordinates": [ -49.8278338, -22.2157115 ] } },
{ "type": "Feature", "properties": { "fid": 54098, "CNPJ": "00413817000191", "IDCIDADE": "VERA_CRUZ", "NOMEFANTASIA": "ROSSI_CENTER_CAR", "RAZAOSOCIAL": "IRMAOS_ROSSI_VERA_CRUZ_LTDA", "ENDEE": "RUA_PAULO_GUERREIRO_FRANCO12__CENTRO_17560-011", "LMAPS": "https://www.google.com/maps?q=&layer=c&cbll=-49.8287686,-22.2161064", "O_QUE_FAZER": "CARTEIRA", "ER_REGIAO_CIDADE_min": "Vera Cruz_Marília" }, "geometry": { "type": "Point", "coordinates": [ -49.8287686, -22.2161064 ] } },
{ "type": "Feature", "properties": { "fid": 54127, "CNPJ": "07821087000107", "IDCIDADE": "VERA_CRUZ", "NOMEFANTASIA": "PAULO_MARACUJA", "RAZAOSOCIAL": "PAULO_S.BARBOSA", "ENDEE": "RUA_PAULO_GUERREIRO_FRANCO37__CENTRO_17560-011", "LMAPS": "https://www.google.com/maps?q=&layer=c&cbll=-49.8281717,-22.2163517", "O_QUE_FAZER": "CARTEIRA", "ER_REGIAO_CIDADE_min": "Vera Cruz_Marília" }, "geometry": { "type": "Point", "coordinates": [ -49.8281717, -22.2163517 ] } },
{ "type": "Feature", "properties": { "fid": 54202, "CNPJ": "12992472000157", "IDCIDADE": "VERA_CRUZ", "NOMEFANTASIA": "QUADRA_CORPUS", "RAZAOSOCIAL": "LORIVAL_AILTON_DOS_SANTOS", "ENDEE": "RUA_PAULO_GUERREIRO_FRANCO161__CENTRO_17560-011", "LMAPS": "https://www.google.com/maps?q=&layer=c&cbll=-49.8268882,-22.217055", "O_QUE_FAZER": "CARTEIRA", "ER_REGIAO_CIDADE_min": "Vera Cruz_Marília" }, "geometry": { "type": "Point", "coordinates": [ -49.8268882, -22.217055 ] } },
{ "type": "Feature", "properties": { "fid": 54326, "CNPJ": "00516842000109", "IDCIDADE": "VERA_CRUZ", "NOMEFANTASIA": "AGROFIL", "RAZAOSOCIAL": "AGROFIL_COMERCIO_DE_VIDROS_LTDA", "ENDEE": "RUA_PAULO_GUERREIRO_FRANCO318__CENTRO_17560-011", "LMAPS": "https://www.google.com/maps?q=&layer=c&cbll=-49.8257975,-22.2179345", "O_QUE_FAZER": "CARTEIRA", "ER_REGIAO_CIDADE_min": "Vera Cruz_Marília" }, "geometry": { "type": "Point", "coordinates": [ -49.8257975, -22.2179345 ] } },
{ "type": "Feature", "properties": { "fid": 54402, "CNPJ": "01807519000149", "IDCIDADE": "VERA_CRUZ", "NOMEFANTASIA": "SACARIA_VERA_CRUZ", "RAZAOSOCIAL": "NELSON_BERTI", "ENDEE": "RUA_PAULO_GUERREIRO_FRANCO442__CENTRO_17560-011", "LMAPS": "https://www.google.com/maps?q=&layer=c&cbll=-49.825118,-22.2185304", "O_QUE_FAZER": "CARTEIRA", "ER_REGIAO_CIDADE_min": "Vera Cruz_Marília" }, "geometry": { "type": "Point", "coordinates": [ -49.825118, -22.2185304 ] } },
{ "type": "Feature", "properties": { "fid": 54414, "CNPJ": "10783324000288", "IDCIDADE": "VERA_CRUZ", "NOMEFANTASIA": "TOP_VISTORIAS", "RAZAOSOCIAL": "CHECKLIST_VISTORIAS_LTDA", "ENDEE": "RUA_DOUTORA_CECILIA_RANGEL_JANINI93__CENTRO_17560-023", "LMAPS": "https://www.google.com/maps?q=&layer=c&cbll=-49.8240087,-22.2185923", "O_QUE_FAZER": "CARTEIRA", "ER_REGIAO_CIDADE_min": "Vera Cruz_Marília" }, "geometry": { "type": "Point", "coordinates": [ -49.8240087, -22.2185923 ] } },
{ "type": "Feature", "properties": { "fid": 54417, "CNPJ": "37981225000186", "IDCIDADE": "VERA_CRUZ", "NOMEFANTASIA": "MG_AGRO", "RAZAOSOCIAL": "MG_AGRO_COMERCIO_DE_PRODUTOS_AGROPECUARIOS_LTDA", "ENDEE": "RUA_PAULO_GUERREIRO_FRANCO442__CENTRO_17560-011", "LMAPS": "https://www.google.com/maps?q=&layer=c&cbll=-49.8248698,-22.2186169", "O_QUE_FAZER": "CARTEIRA", "ER_REGIAO_CIDADE_min": "Vera Cruz_Marília" }, "geometry": { "type": "Point", "coordinates": [ -49.8248698, -22.2186169 ] } },
{ "type": "Feature", "properties": { "fid": 54423, "CNPJ": "58458332000102", "IDCIDADE": "VERA_CRUZ", "NOMEFANTASIA": "PH_MOTOS", "RAZAOSOCIAL": "PH_M_FERREIRA_LTDA", "ENDEE": "RUA_PAULO_GUERREIRO_FRANCO471__CENTRO_17560-011", "LMAPS": "https://www.google.com/maps?q=&layer=c&cbll=-49.8245591,-22.2186747", "O_QUE_FAZER": "CARTEIRA", "ER_REGIAO_CIDADE_min": "Vera Cruz_Marília" }, "geometry": { "type": "Point", "coordinates": [ -49.8245591, -22.2186747 ] } },
{ "type": "Feature", "properties": { "fid": 54426, "CNPJ": "05090470000107", "IDCIDADE": "VERA_CRUZ", "NOMEFANTASIA": "MERCADINHO_SAO_BENTO", "RAZAOSOCIAL": "MARCIO_TADAO_MIHARA", "ENDEE": "RUA_PAULO_GUERREIRO_FRANCO468__CENTRO_17560-011", "LMAPS": "https://www.google.com/maps?q=&layer=c&cbll=-49.8245117,-22.218691", "O_QUE_FAZER": "CARTEIRA", "ER_REGIAO_CIDADE_min": "Vera Cruz_Marília" }, "geometry": { "type": "Point", "coordinates": [ -49.8245117, -22.218691 ] } },
{ "type": "Feature", "properties": { "fid": 54453, "CNPJ": "72731409000199", "IDCIDADE": "VERA_CRUZ", "NOMEFANTASIA": "CASA_DE_CARNES_DOTI", "RAZAOSOCIAL": "JOSE_CARLOS_DOTI", "ENDEE": "RUA_PAULO_GUERREIRO_FRANCO492__CENTRO_17560-011", "LMAPS": "https://www.google.com/maps?q=&layer=c&cbll=-49.8242447,-22.2189415", "O_QUE_FAZER": "CARTEIRA", "ER_REGIAO_CIDADE_min": "Vera Cruz_Marília" }, "geometry": { "type": "Point", "coordinates": [ -49.8242447, -22.2189415 ] } },
{ "type": "Feature", "properties": { "fid": 54474, "CNPJ": "52041696000106", "IDCIDADE": "VERA_CRUZ", "NOMEFANTASIA": "PREVER_VERA_CRUZ", "RAZAOSOCIAL": "FUNERAIS_SAO_VICENTE_LTDA", "ENDEE": "RUA_PAULO_GUERREIRO_FRANCO569__CENTRO_17560-011", "LMAPS": "https://www.google.com/maps?q=&layer=c&cbll=-49.823751,-22.2191081", "O_QUE_FAZER": "CARTEIRA", "ER_REGIAO_CIDADE_min": "Vera Cruz_Marília" }, "geometry": { "type": "Point", "coordinates": [ -49.823751, -22.2191081 ] } },
{ "type": "Feature", "properties": { "fid": 54476, "CNPJ": "72886864000163", "IDCIDADE": "VERA_CRUZ", "NOMEFANTASIA": "CONVENIENCIA_ESTACAO", "RAZAOSOCIAL": "AUTO_POSTO_OKADA_LTDA", "ENDEE": "RUA_PAULO_GUERREIRO_FRANCO535__CENTRO_17560-011", "LMAPS": "https://www.google.com/maps?q=&layer=c&cbll=-49.8238161,-22.2191428", "O_QUE_FAZER": "CARTEIRA", "ER_REGIAO_CIDADE_min": "Vera Cruz_Marília" }, "geometry": { "type": "Point", "coordinates": [ -49.8238161, -22.2191428 ] } },
{ "type": "Feature", "properties": { "fid": 54487, "CNPJ": "72885940000116", "IDCIDADE": "VERA_CRUZ", "NOMEFANTASIA": "CASA_GLORIA", "RAZAOSOCIAL": "ADIB_MIGUEL_&_CIA_LTDA", "ENDEE": "RUA_PAULO_GUERREIRO_FRANCO593__CENTRO_17560-011", "LMAPS": "https://www.google.com/maps?q=&layer=c&cbll=-49.8236587,-22.2192413", "O_QUE_FAZER": "CARTEIRA", "ER_REGIAO_CIDADE_min": "Vera Cruz_Marília" }, "geometry": { "type": "Point", "coordinates": [ -49.8236587, -22.2192413 ] } },
{ "type": "Feature", "properties": { "fid": 54494, "CNPJ": "22804164000104", "IDCIDADE": "VERA_CRUZ", "NOMEFANTASIA": "PADARIA_TRADICAO", "RAZAOSOCIAL": "FFA_PANIFICADORA_TRADICAO_LTDA", "ENDEE": "RUA_PAULO_GUERREIRO_FRANCO568__CENTRO_17560-011", "LMAPS": "https://www.google.com/maps?q=&layer=c&cbll=-49.823715,-22.2193183", "O_QUE_FAZER": "CARTEIRA", "ER_REGIAO_CIDADE_min": "Vera Cruz_Marília" }, "geometry": { "type": "Point", "coordinates": [ -49.823715, -22.2193183 ] } },
{ "type": "Feature", "properties": { "fid": 54528, "CNPJ": "09276888000164", "IDCIDADE": "VERA_CRUZ", "NOMEFANTASIA": "FAROL_LANCHES", "RAZAOSOCIAL": "PAULO_ROBERTO_DIAS_DE_AGUIAR", "ENDEE": "RUA_PAULO_GUERREIRO_FRANCO621__CENTRO_17560-011", "LMAPS": "https://www.google.com/maps?q=&layer=c&cbll=-49.8232481,-22.2195008", "O_QUE_FAZER": "CARTEIRA", "ER_REGIAO_CIDADE_min": "Vera Cruz_Marília" }, "geometry": { "type": "Point", "coordinates": [ -49.8232481, -22.2195008 ] } },
{ "type": "Feature", "properties": { "fid": 54529, "CNPJ": "72885619000131", "IDCIDADE": "VERA_CRUZ", "NOMEFANTASIA": "MARCOVAL_MC", "RAZAOSOCIAL": "MARCOVAL_MATERIAIS_DE_CONSTRUCAO_LTDA", "ENDEE": "RUA_ARTHUR_BERTONE480__CENTRO_17560-027", "LMAPS": "https://www.google.com/maps?q=&layer=c&cbll=-49.8222652,-22.2195026", "O_QUE_FAZER": "CARTEIRA", "ER_REGIAO_CIDADE_min": "Vera Cruz_Marília" }, "geometry": { "type": "Point", "coordinates": [ -49.8222652, -22.2195026 ] } },
{ "type": "Feature", "properties": { "fid": 54535, "CNPJ": "31227314000155", "IDCIDADE": "VERA_CRUZ", "NOMEFANTASIA": "VAREJAO_TEIXEIRA", "RAZAOSOCIAL": "JOAO_VITOR_RIBEIRO_PINTO", "ENDEE": "RUA_PAULO_GUERREIRO_FRANCO646__CENTRO_17560-011", "LMAPS": "https://www.google.com/maps?q=&layer=c&cbll=-49.8230417,-22.2195567", "O_QUE_FAZER": "CARTEIRA", "ER_REGIAO_CIDADE_min": "Vera Cruz_Marília" }, "geometry": { "type": "Point", "coordinates": [ -49.8230417, -22.2195567 ] } },
{ "type": "Feature", "properties": { "fid": 54539, "CNPJ": "05145674000106", "IDCIDADE": "VERA_CRUZ", "NOMEFANTASIA": "BAZAR_CESAR", "RAZAOSOCIAL": "HORTO_&_ZANCHETA_LTDA", "ENDEE": "RUA_PAULO_GUERREIRO_FRANCO629__CENTRO_17560-011", "LMAPS": "https://www.google.com/maps?q=&layer=c&cbll=-49.8231422,-22.2195979", "O_QUE_FAZER": "CARTEIRA", "ER_REGIAO_CIDADE_min": "Vera Cruz_Marília" }, "geometry": { "type": "Point", "coordinates": [ -49.8231422, -22.2195979 ] } },
{ "type": "Feature", "properties": { "fid": 54553, "CNPJ": "73184954000175", "IDCIDADE": "VERA_CRUZ", "NOMEFANTASIA": "VETERINARIA_VC", "RAZAOSOCIAL": "CAMPOS_&_CAMPOS_VERA_CRUZ_LTDA", "ENDEE": "RUA_QUINZE_DE_NOVEMBRO67__CENTRO_17560-025", "LMAPS": "https://www.google.com/maps?q=&layer=c&cbll=-49.8238233,-22.2197617", "O_QUE_FAZER": "CARTEIRA", "ER_REGIAO_CIDADE_min": "Vera Cruz_Marília" }, "geometry": { "type": "Point", "coordinates": [ -49.8238233, -22.2197617 ] } },
{ "type": "Feature", "properties": { "fid": 54559, "CNPJ": "05459973000107", "IDCIDADE": "VERA_CRUZ", "NOMEFANTASIA": "TOCA_DO_BICHO", "RAZAOSOCIAL": "JULIANO_GUERREIRO_MARINI_VERA_CRUZ", "ENDEE": "RUA_FRANCISCO_PINHEIRO_DA_SILVEIRA192__CENTRO_17560-029", "LMAPS": "https://www.google.com/maps?q=&layer=c&cbll=-49.8215571,-22.2198198", "O_QUE_FAZER": "CARTEIRA", "ER_REGIAO_CIDADE_min": "Vera Cruz_Marília" }, "geometry": { "type": "Point", "coordinates": [ -49.8215571, -22.2198198 ] } },
{ "type": "Feature", "properties": { "fid": 54565, "CNPJ": "42874200000385", "IDCIDADE": "VERA_CRUZ", "NOMEFANTASIA": "LK_MOVEIS_VC", "RAZAOSOCIAL": "LK_MOVEIS_LTDA", "ENDEE": "RUA_PAULO_GUERREIRO_FRANCO682__CENTRO_17560-011", "LMAPS": "https://www.google.com/maps?q=&layer=c&cbll=-49.8228251,-22.2198589", "O_QUE_FAZER": "CARTEIRA", "ER_REGIAO_CIDADE_min": "Vera Cruz_Marília" }, "geometry": { "type": "Point", "coordinates": [ -49.8228251, -22.2198589 ] } },
{ "type": "Feature", "properties": { "fid": 54566, "CNPJ": "26013571000154", "IDCIDADE": "VERA_CRUZ", "NOMEFANTASIA": "MINI_PRECO", "RAZAOSOCIAL": "BIANCA_DE_JESUS_SANTOS", "ENDEE": "RUA_QUINZE_DE_NOVEMBRO41__CENTRO_17560-025", "LMAPS": "https://www.google.com/maps?q=&layer=c&cbll=-49.8238812,-22.2199065", "O_QUE_FAZER": "CARTEIRA", "ER_REGIAO_CIDADE_min": "Vera Cruz_Marília" }, "geometry": { "type": "Point", "coordinates": [ -49.8238812, -22.2199065 ] } },
{ "type": "Feature", "properties": { "fid": 54574, "CNPJ": "02912187000125", "IDCIDADE": "VERA_CRUZ", "NOMEFANTASIA": "A_SENSACAO", "RAZAOSOCIAL": "A_SENSACAO_COMERCIO_DE_VERA_CRUZ_LTDA", "ENDEE": "RUA_PAULO_GUERREIRO_FRANCO672__CENTRO_17560-011", "LMAPS": "https://www.google.com/maps?q=&layer=c&cbll=-49.8230765,-22.2199542", "O_QUE_FAZER": "CARTEIRA", "ER_REGIAO_CIDADE_min": "Vera Cruz_Marília" }, "geometry": { "type": "Point", "coordinates": [ -49.8230765, -22.2199542 ] } },
{ "type": "Feature", "properties": { "fid": 54577, "CNPJ": "33200960000154", "IDCIDADE": "VERA_CRUZ", "NOMEFANTASIA": "LIGIA_COSMETICOS", "RAZAOSOCIAL": "LIGIA_MARI_ALVES_DE_SOUZA", "ENDEE": "RUA_QUINZE_DE_NOVEMBRO34__CENTRO_17560-025", "LMAPS": "https://www.google.com/maps?q=&layer=c&cbll=-49.8237608,-22.2199732", "O_QUE_FAZER": "CARTEIRA", "ER_REGIAO_CIDADE_min": "Vera Cruz_Marília" }, "geometry": { "type": "Point", "coordinates": [ -49.8237608, -22.2199732 ] } },
{ "type": "Feature", "properties": { "fid": 54579, "CNPJ": "27330121000158", "IDCIDADE": "VERA_CRUZ", "NOMEFANTASIA": "DROGARIA_TOTAL", "RAZAOSOCIAL": "MOFATO_&_FILHO_LTDA", "ENDEE": "RUA_PAULO_GUERREIRO_FRANCO727__CENTRO_17560-011", "LMAPS": "https://www.google.com/maps?q=&layer=c&cbll=-49.8225627,-22.2199833", "O_QUE_FAZER": "CARTEIRA", "ER_REGIAO_CIDADE_min": "Vera Cruz_Marília" }, "geometry": { "type": "Point", "coordinates": [ -49.8225627, -22.2199833 ] } },
{ "type": "Feature", "properties": { "fid": 54581, "CNPJ": "03706759000263", "IDCIDADE": "VERA_CRUZ", "NOMEFANTASIA": "FLORALIS", "RAZAOSOCIAL": "RADUAN_E_FRONTERA_LTDA", "ENDEE": "RUA_QUINZE_DE_NOVEMBRO34__CENTRO_17560-025", "LMAPS": "https://www.google.com/maps?q=&layer=c&cbll=-49.8237838,-22.2199925", "O_QUE_FAZER": "CARTEIRA", "ER_REGIAO_CIDADE_min": "Vera Cruz_Marília" }, "geometry": { "type": "Point", "coordinates": [ -49.8237838, -22.2199925 ] } },
{ "type": "Feature", "properties": { "fid": 54584, "CNPJ": "08276687000102", "IDCIDADE": "VERA_CRUZ", "NOMEFANTASIA": "NUCLEO_ODONTOLOGICO", "RAZAOSOCIAL": "CARVALHAL_&_ALTAFIM_LTDA", "ENDEE": "RUA_QUINZE_DE_NOVEMBRO17__CENTRO_17560-025", "LMAPS": "https://www.google.com/maps?q=&layer=c&cbll=-49.8239263,-22.2200033", "O_QUE_FAZER": "CARTEIRA", "ER_REGIAO_CIDADE_min": "Vera Cruz_Marília" }, "geometry": { "type": "Point", "coordinates": [ -49.8239263, -22.2200033 ] } },
{ "type": "Feature", "properties": { "fid": 54594, "CNPJ": "30593462000120", "IDCIDADE": "VERA_CRUZ", "NOMEFANTASIA": "KI_PAO", "RAZAOSOCIAL": "ISABELA_AQUINO_DA_SILVA_FACHINI", "ENDEE": "RUA_PAULO_GUERREIRO_FRANCO755__CENTRO_17560-011", "LMAPS": "https://www.google.com/maps?q=&layer=c&cbll=-49.8223184,-22.2200866", "O_QUE_FAZER": "CARTEIRA", "ER_REGIAO_CIDADE_min": "Vera Cruz_Marília" }, "geometry": { "type": "Point", "coordinates": [ -49.8223184, -22.2200866 ] } },
{ "type": "Feature", "properties": { "fid": 54602, "CNPJ": "02650050000140", "IDCIDADE": "VERA_CRUZ", "NOMEFANTASIA": "KI_PAO", "RAZAOSOCIAL": "ADRIANA_DE_AQUINO_SILVA", "ENDEE": "RUA_PAULO_GUERREIRO_FRANCO749__CENTRO_17560-011", "LMAPS": "https://www.google.com/maps?q=&layer=c&cbll=-49.8222672,-22.220191", "O_QUE_FAZER": "CARTEIRA", "ER_REGIAO_CIDADE_min": "Vera Cruz_Marília" }, "geometry": { "type": "Point", "coordinates": [ -49.8222672, -22.220191 ] } },
{ "type": "Feature", "properties": { "fid": 54613, "CNPJ": "49139298000104", "IDCIDADE": "VERA_CRUZ", "NOMEFANTASIA": "ELETRO_MOVEIS", "RAZAOSOCIAL": "IRMAOS_CHIARAMONTE_LTDA", "ENDEE": "RUA_PAULO_GUERREIRO_FRANCO762__CENTRO_17560-011", "LMAPS": "https://www.google.com/maps?q=&layer=c&cbll=-49.8222062,-22.220311", "O_QUE_FAZER": "CARTEIRA", "ER_REGIAO_CIDADE_min": "Vera Cruz_Marília" }, "geometry": { "type": "Point", "coordinates": [ -49.8222062, -22.220311 ] } },
{ "type": "Feature", "properties": { "fid": 54619, "CNPJ": "06085092000136", "IDCIDADE": "VERA_CRUZ", "NOMEFANTASIA": "RELOJOARIA_CACULA", "RAZAOSOCIAL": "LUCIANO_POLASTRO", "ENDEE": "RUA_PAULO_GUERREIRO_FRANCO769__CENTRO_17560-011", "LMAPS": "https://www.google.com/maps?q=&layer=c&cbll=-49.8220583,-22.2203453", "O_QUE_FAZER": "CARTEIRA", "ER_REGIAO_CIDADE_min": "Vera Cruz_Marília" }, "geometry": { "type": "Point", "coordinates": [ -49.8220583, -22.2203453 ] } },
{ "type": "Feature", "properties": { "fid": 54622, "CNPJ": "72678642000155", "IDCIDADE": "VERA_CRUZ", "NOMEFANTASIA": "LILAS_LANCHONETE", "RAZAOSOCIAL": "ODAIR_JOSE_DE_PAULA_&_CIA_LTDA", "ENDEE": "RUA_PAULO_GUERREIRO_FRANCO795__CENTRO_17560-011", "LMAPS": "https://www.google.com/maps?q=&layer=c&cbll=-49.8221086,-22.220373", "O_QUE_FAZER": "CARTEIRA", "ER_REGIAO_CIDADE_min": "Vera Cruz_Marília" }, "geometry": { "type": "Point", "coordinates": [ -49.8221086, -22.220373 ] } },
{ "type": "Feature", "properties": { "fid": 54633, "CNPJ": "50870104000125", "IDCIDADE": "VERA_CRUZ", "NOMEFANTASIA": "SIDERAL_CALCADOS", "RAZAOSOCIAL": "VERA_ALICE_CHIARAMONTE_RODRIGUES_LTDA", "ENDEE": "RUA_PAULO_GUERREIRO_FRANCO776__CENTRO_17560-011", "LMAPS": "https://www.google.com/maps?q=&layer=c&cbll=-49.822335,-22.2204417", "O_QUE_FAZER": "CARTEIRA", "ER_REGIAO_CIDADE_min": "Vera Cruz_Marília" }, "geometry": { "type": "Point", "coordinates": [ -49.822335, -22.2204417 ] } },
{ "type": "Feature", "properties": { "fid": 54634, "CNPJ": "09577979000130", "IDCIDADE": "VERA_CRUZ", "NOMEFANTASIA": "FISK_SCHOOL", "RAZAOSOCIAL": "VERA_CRUZ_LANGUAGE_SCHOOL_LTDA", "ENDEE": "RUA_JOAQUIM_FELISBERTO_FURTADO173__CENTRO_17560-025", "LMAPS": "https://www.google.com/maps?q=&layer=c&cbll=-49.8235533,-22.2204483", "O_QUE_FAZER": "CARTEIRA", "ER_REGIAO_CIDADE_min": "Vera Cruz_Marília" }, "geometry": { "type": "Point", "coordinates": [ -49.8235533, -22.2204483 ] } },
{ "type": "Feature", "properties": { "fid": 54668, "CNPJ": "41355901000183", "IDCIDADE": "VERA_CRUZ", "NOMEFANTASIA": "ATELIE_DO_SORRISO", "RAZAOSOCIAL": "TABET_&_COQUE_ODONTOLOGIA_LTDA", "ENDEE": "RUA_PAULO_GUERREIRO_FRANCO846__CENTRO_17560-011", "LMAPS": "https://www.google.com/maps?q=&layer=c&cbll=-49.8216525,-22.2207296", "O_QUE_FAZER": "CARTEIRA", "ER_REGIAO_CIDADE_min": "Vera Cruz_Marília" }, "geometry": { "type": "Point", "coordinates": [ -49.8216525, -22.2207296 ] } },
{ "type": "Feature", "properties": { "fid": 54672, "CNPJ": "00030181001090", "IDCIDADE": "VERA_CRUZ", "NOMEFANTASIA": "DROGARIA_VERA_CRUZ", "RAZAOSOCIAL": "DROGARIA_VERA_CRUZ_LTDA", "ENDEE": "RUA_TREZE_DE_MAIO48__CENTRO_17560-049", "LMAPS": "https://www.google.com/maps?q=&layer=c&cbll=-49.8243407,-22.2207703", "O_QUE_FAZER": "CARTEIRA", "ER_REGIAO_CIDADE_min": "Vera Cruz_Marília" }, "geometry": { "type": "Point", "coordinates": [ -49.8243407, -22.2207703 ] } },
{ "type": "Feature", "properties": { "fid": 54677, "CNPJ": "40255581000127", "IDCIDADE": "VERA_CRUZ", "NOMEFANTASIA": "DROGARIA_VERA_CRUZ", "RAZAOSOCIAL": "DROGARIA_SAUDE_VERA_CRUZ_LTDA", "ENDEE": "RUA_TREZE_DE_MAIO48__CENTRO_17560-049", "LMAPS": "https://www.google.com/maps?q=&layer=c&cbll=-49.8242801,-22.2208033", "O_QUE_FAZER": "CARTEIRA", "ER_REGIAO_CIDADE_min": "Vera Cruz_Marília" }, "geometry": { "type": "Point", "coordinates": [ -49.8242801, -22.2208033 ] } },
{ "type": "Feature", "properties": { "fid": 54742, "CNPJ": "19783696000106", "IDCIDADE": "VERA_CRUZ", "NOMEFANTASIA": "GOIANO_GAS", "RAZAOSOCIAL": "SAMBOGARIO_CAMPOS_&_SILVA_LTDA.", "ENDEE": "RUA_RUBENS_PUPO102__CENTRO_17560-075", "LMAPS": "https://www.google.com/maps?q=&layer=c&cbll=-49.8249473,-22.2214219", "O_QUE_FAZER": "CARTEIRA", "ER_REGIAO_CIDADE_min": "Vera Cruz_Marília" }, "geometry": { "type": "Point", "coordinates": [ -49.8249473, -22.2214219 ] } },
{ "type": "Feature", "properties": { "fid": 54757, "CNPJ": "03702345000185", "IDCIDADE": "VERA_CRUZ", "NOMEFANTASIA": "AUTO_ESCOLA_AYMORES", "RAZAOSOCIAL": "C._F._C._VENANCIO_S/S_LTDA", "ENDEE": "AVENIDA_PAULISTA515__CENTRO_17560-246", "LMAPS": "https://www.google.com/maps?q=&layer=c&cbll=-49.8247474,-22.2215514", "O_QUE_FAZER": "CARTEIRA", "ER_REGIAO_CIDADE_min": "Vera Cruz_Marília" }, "geometry": { "type": "Point", "coordinates": [ -49.8247474, -22.2215514 ] } },
{ "type": "Feature", "properties": { "fid": 54773, "CNPJ": "31647800000122", "IDCIDADE": "VERA_CRUZ", "NOMEFANTASIA": "JEITO_PET", "RAZAOSOCIAL": "JOAO_BATISTA_ZANARDO_FILHO", "ENDEE": "AVENIDA_PAULISTA492__CENTRO_17560-246", "LMAPS": "https://www.google.com/maps?q=&layer=c&cbll=-49.8250395,-22.2217296", "O_QUE_FAZER": "CARTEIRA", "ER_REGIAO_CIDADE_min": "Vera Cruz_Marília" }, "geometry": { "type": "Point", "coordinates": [ -49.8250395, -22.2217296 ] } },
{ "type": "Feature", "properties": { "fid": 54785, "CNPJ": "11670303000138", "IDCIDADE": "VERA_CRUZ", "NOMEFANTASIA": "ADRIANO_MOVEIS", "RAZAOSOCIAL": "DIRCENEIA_DOS_SANTOS_BATISTA", "ENDEE": "RUA_JOAQUIM_FELISBERTO_FURTADO377__CENTRO_17560-047", "LMAPS": "https://www.google.com/maps?q=&layer=c&cbll=-49.8215131,-22.2218724", "O_QUE_FAZER": "CARTEIRA", "ER_REGIAO_CIDADE_min": "Vera Cruz_Marília" }, "geometry": { "type": "Point", "coordinates": [ -49.8215131, -22.2218724 ] } },
{ "type": "Feature", "properties": { "fid": 54786, "CNPJ": "29815946000198", "IDCIDADE": "VERA_CRUZ", "NOMEFANTASIA": "CONSTRUVERA", "RAZAOSOCIAL": "APARECIDO_DONIZETE_DA_SILVA_MATERIAIS_DE_CONSTRUCAO", "ENDEE": "RUA_JOAQUIM_FELISBERTO_FURTADO377__CENTRO_17560-047", "LMAPS": "https://www.google.com/maps?q=&layer=c&cbll=-49.8214762,-22.2218875", "O_QUE_FAZER": "CARTEIRA", "ER_REGIAO_CIDADE_min": "Vera Cruz_Marília" }, "geometry": { "type": "Point", "coordinates": [ -49.8214762, -22.2218875 ] } },
{ "type": "Feature", "properties": { "fid": 54824, "CNPJ": "43973599000152", "IDCIDADE": "VERA_CRUZ", "NOMEFANTASIA": "ATOMIC_CAR_VEICULOS", "RAZAOSOCIAL": "BRUNO_DIAS_DE_PAULA", "ENDEE": "RUA_RUBENS_PUPO209__CENTRO_17560-075", "LMAPS": "https://www.google.com/maps?q=&layer=c&cbll=-49.8253061,-22.2222504", "O_QUE_FAZER": "CARTEIRA", "ER_REGIAO_CIDADE_min": "Vera Cruz_Marília" }, "geometry": { "type": "Point", "coordinates": [ -49.8253061, -22.2222504 ] } },
{ "type": "Feature", "properties": { "fid": 54852, "CNPJ": "44472583000129", "IDCIDADE": "VERA_CRUZ", "NOMEFANTASIA": "MVT_EXTINTORES", "RAZAOSOCIAL": "A_S_TUROLA_EXTINTORES_E_SOLUCOES_CONTRA_INCENDIOS_LTDA", "ENDEE": "RUA_RUBENS_PUPO284__CENTRO_17560-075", "LMAPS": "https://www.google.com/maps?q=&layer=c&cbll=-49.8262149,-22.2227455", "O_QUE_FAZER": "CARTEIRA", "ER_REGIAO_CIDADE_min": "Vera Cruz_Marília" }, "geometry": { "type": "Point", "coordinates": [ -49.8262149, -22.2227455 ] } },
{ "type": "Feature", "properties": { "fid": 54854, "CNPJ": "10915240000170", "IDCIDADE": "VERA_CRUZ", "NOMEFANTASIA": "MVT_TREINAMENTO", "RAZAOSOCIAL": "MVT_ASSESSORIA_E_TREINAMENTO_DE_PREVENCAO_DE_ACIDENTES_CONSULTORIA_SERVICOS_DE_LIMPEZA_E_COMERCIO_LTDA.", "ENDEE": "RUA_RUBENS_PUPO284__CENTRO_17560-075", "LMAPS": "https://www.google.com/maps?q=&layer=c&cbll=-49.8262208,-22.2227644", "O_QUE_FAZER": "CARTEIRA", "ER_REGIAO_CIDADE_min": "Vera Cruz_Marília" }, "geometry": { "type": "Point", "coordinates": [ -49.8262208, -22.2227644 ] } },
{ "type": "Feature", "properties": { "fid": 54938, "CNPJ": "24432029000100", "IDCIDADE": "VERA_CRUZ", "NOMEFANTASIA": "MARTA_GAS_E_AGUA", "RAZAOSOCIAL": "MARTA_FERREIRA_DE_AQUINO_25852114871", "ENDEE": "RUA_JOSE_BONIFACIO1224__CENTRO_17560-089", "LMAPS": "https://www.google.com/maps?q=&layer=c&cbll=-49.8308933,-22.2237017", "O_QUE_FAZER": "CARTEIRA", "ER_REGIAO_CIDADE_min": "Vera Cruz_Marília" }, "geometry": { "type": "Point", "coordinates": [ -49.8308933, -22.2237017 ] } },
{ "type": "Feature", "properties": { "fid": 54982, "CNPJ": "07381316000209", "IDCIDADE": "VERA_CRUZ", "NOMEFANTASIA": "ZANETA_MC", "RAZAOSOCIAL": "ZANETA_-_COMERCIO_DE_MATERIAL_DE_CONSTRUCAO_LTDA", "ENDEE": "RUA_ARMANDO_DAVIOLI37__CENTRO_17560-075", "LMAPS": "https://www.google.com/maps?q=&layer=c&cbll=-49.8265317,-22.22402", "O_QUE_FAZER": "CARTEIRA", "ER_REGIAO_CIDADE_min": "Vera Cruz_Marília" }, "geometry": { "type": "Point", "coordinates": [ -49.8265317, -22.22402 ] } },
{ "type": "Feature", "properties": { "fid": 55028, "CNPJ": "44981454000166", "IDCIDADE": "VERA_CRUZ", "NOMEFANTASIA": "GRAFICA_SAO_JOSE", "RAZAOSOCIAL": "JOSE_CLAUDIO_DE_BARROS_ARAUJO", "ENDEE": "RUA_NORBERTO_DE_CARVALHO51__LORENZETTI_17560-011", "LMAPS": "https://www.google.com/maps?q=&layer=c&cbll=-49.827181,-22.2246199", "O_QUE_FAZER": "CARTEIRA", "ER_REGIAO_CIDADE_min": "Vera Cruz_Marília" }, "geometry": { "type": "Point", "coordinates": [ -49.827181, -22.2246199 ] } },
{ "type": "Feature", "properties": { "fid": 55069, "CNPJ": "16786508000105", "IDCIDADE": "VERA_CRUZ", "NOMEFANTASIA": "LIDER_SUPERMERCADO", "RAZAOSOCIAL": "CARLOS_EDUARDO_BOTELHO_MINIMERCADO", "ENDEE": "RUA_PAES_LEME313__CENTRO_17560-065", "LMAPS": "https://www.google.com/maps?q=&layer=c&cbll=-49.8221959,-22.2254892", "O_QUE_FAZER": "CARTEIRA", "ER_REGIAO_CIDADE_min": "Vera Cruz_Marília" }, "geometry": { "type": "Point", "coordinates": [ -49.8221959, -22.2254892 ] } },
{ "type": "Feature", "properties": { "fid": 55109, "CNPJ": "03747639000123", "IDCIDADE": "VERA_CRUZ", "NOMEFANTASIA": "PANIFICADORA_NOVA_AURORA", "RAZAOSOCIAL": "JAIR_MUNHOZ", "ENDEE": "AVENIDA_PAULISTA1373__CENTRO_17560-246", "LMAPS": "https://www.google.com/maps?q=&layer=c&cbll=-49.817865,-22.226185", "O_QUE_FAZER": "CARTEIRA", "ER_REGIAO_CIDADE_min": "Vera Cruz_Marília" }, "geometry": { "type": "Point", "coordinates": [ -49.817865, -22.226185 ] } },
{ "type": "Feature", "properties": { "fid": 55114, "CNPJ": "50118413000143", "IDCIDADE": "VERA_CRUZ", "NOMEFANTASIA": "VERA_GAS_MERCEARIA", "RAZAOSOCIAL": "MERCEARIA_VERA_GAS_LTDA", "ENDEE": "AVENIDA_PAULISTA1373__CENTRO_17560-246", "LMAPS": "https://www.google.com/maps?q=&layer=c&cbll=-49.8178317,-22.2262517", "O_QUE_FAZER": "CARTEIRA", "ER_REGIAO_CIDADE_min": "Vera Cruz_Marília" }, "geometry": { "type": "Point", "coordinates": [ -49.8178317, -22.2262517 ] } },
{ "type": "Feature", "properties": { "fid": 55133, "CNPJ": "37969589000140", "IDCIDADE": "VERA_CRUZ", "NOMEFANTASIA": "DEPOSITO_VARGAS", "RAZAOSOCIAL": "JOSIANE_CALOGERO_JORGE_VARGAS", "ENDEE": "AVENIDA_MANOEL_THOMAZ_DA_SILVA814__LORENZETTI_17560-091", "LMAPS": "https://www.google.com/maps?q=&layer=c&cbll=-49.8215981,-22.2265743", "O_QUE_FAZER": "CARTEIRA", "ER_REGIAO_CIDADE_min": "Vera Cruz_Marília" }, "geometry": { "type": "Point", "coordinates": [ -49.8215981, -22.2265743 ] } },
{ "type": "Feature", "properties": { "fid": 55135, "CNPJ": "05826339000165", "IDCIDADE": "VERA_CRUZ", "NOMEFANTASIA": "ZEZINHO_DO_GAS", "RAZAOSOCIAL": "JOSE_ROBERTO_BELIZARIO", "ENDEE": "RUA_ARMANDO_DAVOLI541__LORENZETTI_17560-075", "LMAPS": "https://www.google.com/maps?q=&layer=c&cbll=-49.8225917,-22.2266283", "O_QUE_FAZER": "CARTEIRA", "ER_REGIAO_CIDADE_min": "Vera Cruz_Marília" }, "geometry": { "type": "Point", "coordinates": [ -49.8225917, -22.2266283 ] } },
{ "type": "Feature", "properties": { "fid": 55139, "CNPJ": "04611658000271", "IDCIDADE": "VERA_CRUZ", "NOMEFANTASIA": "SUPERMERCADO_UNIAO", "RAZAOSOCIAL": "ANTONIO_CARLOS_VANZO", "ENDEE": "AVENIDA_MANOEL_THOMAZ_DA_SILVA859__CENTRO_17560-200", "LMAPS": "https://www.google.com/maps?q=&layer=c&cbll=-49.821085,-22.2266724", "O_QUE_FAZER": "CARTEIRA", "ER_REGIAO_CIDADE_min": "Vera Cruz_Marília" }, "geometry": { "type": "Point", "coordinates": [ -49.821085, -22.2266724 ] } },
{ "type": "Feature", "properties": { "fid": 55158, "CNPJ": "04611658000190", "IDCIDADE": "VERA_CRUZ", "NOMEFANTASIA": "SUPERMERCADO_UNIAO", "RAZAOSOCIAL": "ANTONIO_CARLOS_VANZO", "ENDEE": "AVENIDA_MANOEL_THOMAZ_DA_SILVA877__CENTRO_17560-091", "LMAPS": "https://www.google.com/maps?q=&layer=c&cbll=-49.820815,-22.2269227", "O_QUE_FAZER": "CARTEIRA", "ER_REGIAO_CIDADE_min": "Vera Cruz_Marília" }, "geometry": { "type": "Point", "coordinates": [ -49.820815, -22.2269227 ] } },
{ "type": "Feature", "properties": { "fid": 55164, "CNPJ": "47442834000110", "IDCIDADE": "VERA_CRUZ", "NOMEFANTASIA": "PEDRAO_ELETRICA", "RAZAOSOCIAL": "RICARDO_TEMPORIM_ANTUNES", "ENDEE": "AVENIDA_MANOEL_THOMAZ_DA_SILVA933__CENTRO_17560-091", "LMAPS": "https://www.google.com/maps?q=&layer=c&cbll=-49.8204786,-22.2270899", "O_QUE_FAZER": "CARTEIRA", "ER_REGIAO_CIDADE_min": "Vera Cruz_Marília" }, "geometry": { "type": "Point", "coordinates": [ -49.8204786, -22.2270899 ] } },
{ "type": "Feature", "properties": { "fid": 55210, "CNPJ": "67274092000179", "IDCIDADE": "VERA_CRUZ", "NOMEFANTASIA": "SUPERMERCADO_SUPIMPA", "RAZAOSOCIAL": "PEDRO_BOTELHO_&_CIA-_VERA_CRUZ_LTDA", "ENDEE": "AVENIDA_PAULISTA1654__CENTRO_17560-246", "LMAPS": "https://www.google.com/maps?q=&layer=c&cbll=-49.8155865,-22.2281125", "O_QUE_FAZER": "CARTEIRA", "ER_REGIAO_CIDADE_min": "Vera Cruz_Marília" }, "geometry": { "type": "Point", "coordinates": [ -49.8155865, -22.2281125 ] } },
{ "type": "Feature", "properties": { "fid": 55270, "CNPJ": "48369826000159", "IDCIDADE": "VERA_CRUZ", "NOMEFANTASIA": "DROGARIA_PAULISTA", "RAZAOSOCIAL": "DROGARIA_PAULISTA_DE_VERA_CRUZ_LTDA", "ENDEE": "AVENIDA_PAULISTA1824__CENTRO_17560-246", "LMAPS": "https://www.google.com/maps?q=&layer=c&cbll=-49.8143294,-22.228888", "O_QUE_FAZER": "CARTEIRA", "ER_REGIAO_CIDADE_min": "Vera Cruz_Marília" }, "geometry": { "type": "Point", "coordinates": [ -49.8143294, -22.228888 ] } },
{ "type": "Feature", "properties": { "fid": 55294, "CNPJ": "17627144000175", "IDCIDADE": "VERA_CRUZ", "NOMEFANTASIA": "BAR_BUCANEIRO_BIER", "RAZAOSOCIAL": "SUELI_CAMPAGNOLO", "ENDEE": "RUA_BENEDITO_ROBERTO_SAMPAAIO96__JARDIM_AEROPORTO_I_17560-282", "LMAPS": "https://www.google.com/maps?q=&layer=c&cbll=-49.8142349,-22.229088", "O_QUE_FAZER": "CARTEIRA", "ER_REGIAO_CIDADE_min": "Vera Cruz_Marília" }, "geometry": { "type": "Point", "coordinates": [ -49.8142349, -22.229088 ] } },
{ "type": "Feature", "properties": { "fid": 228352, "CNPJ": "12875678000105", "IDCIDADE": "VERA CRUZ", "NOMEFANTASIA": "B NUTS", "RAZAOSOCIAL": "F A BORRS INDUSTRIA E COMERCIO DE ALIMENTOS", "ENDEE": "CORONEL ALFREDO DE OLIVEIRA, 237, CENTRO, VERA CRUZ_17560-021", "LMAPS": "https://www.google.com/maps?q=&layer=c&cbll=-22.2168678,-49.8240394", "O_QUE_FAZER": "FINALIZADO", "ER_REGIAO_CIDADE_min": "Vera Cruz_Marília" }, "geometry": { "type": "Point", "coordinates": [ -49.8240394, -22.2168678 ] } },
{ "type": "Feature", "properties": { "fid": 254933, "CNPJ": "59627184000167", "IDCIDADE": "VERA_CRUZ", "NOMEFANTASIA": "NOEMIA_FERREIRA_BENICIO_BRAGA", "RAZAOSOCIAL": "TRADICAO_MINEIRA", "ENDEE": "RUA_PAULO_GUERREIRO_FRANCO411__CENTRO_17560-011", "LMAPS": "https://www.google.com/maps?q=&layer=c&cbll=-49.8250778,-22.2181991", "O_QUE_FAZER": "FINALIZADO", "ER_REGIAO_CIDADE_min": "Vera Cruz_Marília" }, "geometry": { "type": "Point", "coordinates": [ -49.8250778, -22.2181991 ] } },
{ "type": "Feature", "properties": { "fid": 254940, "CNPJ": "06127968000160", "IDCIDADE": "VERA_CRUZ", "NOMEFANTASIA": "MAURO_CARDOSO_DE_SA", "RAZAOSOCIAL": "PANIFICADORA_IMPERIAL", "ENDEE": "RUA_PAULO_GUERREIRO_FRANCO376__CENTRO_17560-011", "LMAPS": "https://www.google.com/maps?q=&layer=c&cbll=-49.8254599,-22.2182863", "O_QUE_FAZER": "FINALIZADO", "ER_REGIAO_CIDADE_min": "Vera Cruz_Marília" }, "geometry": { "type": "Point", "coordinates": [ -49.8254599, -22.2182863 ] } },
{ "type": "Feature", "properties": { "fid": 254954, "CNPJ": "53532959000134", "IDCIDADE": "VERA_CRUZ", "NOMEFANTASIA": "53.532.959_CICERA_ROQUE_BISPO_DE_OLIVEIRA", "RAZAOSOCIAL": "BAR_DA_CUCERA", "ENDEE": "RUA_PAULO_GUERREIRO_FRANCO447__CENTRO_17560-011", "LMAPS": "https://www.google.com/maps?q=&layer=c&cbll=-49.8247199,-22.2185084", "O_QUE_FAZER": "FINALIZADO", "ER_REGIAO_CIDADE_min": "Vera Cruz_Marília" }, "geometry": { "type": "Point", "coordinates": [ -49.8247199, -22.2185084 ] } },
{ "type": "Feature", "properties": { "fid": 254959, "CNPJ": "24254410000127", "IDCIDADE": "VERA_CRUZ", "NOMEFANTASIA": "IONARA_APARECIDA_SOARES_CANDIDO", "RAZAOSOCIAL": "EMPORIO_VERA_CRUZ", "ENDEE": "RUA_PAULO_GUERREIRO_FRANCO487__CENTRO_17560-011", "LMAPS": "https://www.google.com/maps?q=&layer=c&cbll=-49.8243192,-22.2186056", "O_QUE_FAZER": "FINALIZADO", "ER_REGIAO_CIDADE_min": "Vera Cruz_Marília" }, "geometry": { "type": "Point", "coordinates": [ -49.8243192, -22.2186056 ] } },
{ "type": "Feature", "properties": { "fid": 254972, "CNPJ": "47605829000181", "IDCIDADE": "VERA_CRUZ", "NOMEFANTASIA": "MANZATO_&_MANZATO_DROGARIA_LTDA", "RAZAOSOCIAL": "BELA_FARNA", "ENDEE": "RUA_PAULO_GUERREIRO_FRANCO464__CENTRO_17560-011", "LMAPS": "https://www.google.com/maps?q=&layer=c&cbll=-49.8247913,-22.2187716", "O_QUE_FAZER": "FINALIZADO", "ER_REGIAO_CIDADE_min": "Vera Cruz_Marília" }, "geometry": { "type": "Point", "coordinates": [ -49.8247913, -22.2187716 ] } },
{ "type": "Feature", "properties": { "fid": 254982, "CNPJ": "46081590000125", "IDCIDADE": "VERA_CRUZ", "NOMEFANTASIA": "K2_COMERCIO_DE_PECAS_E_ACESSORIOS_AGRICOLAS_LTDA", "RAZAOSOCIAL": "K2_COMERCIAL", "ENDEE": "RUA_PAULO_GUERREIRO_FRANCO500__CENTRO_17560-011", "LMAPS": "https://www.google.com/maps?q=&layer=c&cbll=-49.8244196,-22.2188878", "O_QUE_FAZER": "FINALIZADO", "ER_REGIAO_CIDADE_min": "Vera Cruz_Marília" }, "geometry": { "type": "Point", "coordinates": [ -49.8244196, -22.2188878 ] } },
{ "type": "Feature", "properties": { "fid": 255002, "CNPJ": "17001663000123", "IDCIDADE": "VERA_CRUZ", "NOMEFANTASIA": "CASA_DE_CARNES_E_FRIOS_VERA_CRUZ_LTDA", "RAZAOSOCIAL": "CASA_DE_CARNES", "ENDEE": "RUA_PAULO_GUERREIRO_FRANCO603__CENTRO_17560-011", "LMAPS": "https://www.google.com/maps?q=&layer=c&cbll=-49.8234797,-22.2192813", "O_QUE_FAZER": "FINALIZADO", "ER_REGIAO_CIDADE_min": "Vera Cruz_Marília" }, "geometry": { "type": "Point", "coordinates": [ -49.8234797, -22.2192813 ] } },
{ "type": "Feature", "properties": { "fid": 255004, "CNPJ": "12622157000138", "IDCIDADE": "VERA_CRUZ", "NOMEFANTASIA": "12.622.157_ANTONIA_MARCIA_ALVARENGA_TINETTI", "RAZAOSOCIAL": "BAR_DO_MARINO", "ENDEE": "RUA_PAULO_GUERREIRO_FRANCO599__CENTRO_17560-011", "LMAPS": "https://www.google.com/maps?q=&layer=c&cbll=-49.8235523,-22.2192918", "O_QUE_FAZER": "FINALIZADO", "ER_REGIAO_CIDADE_min": "Vera Cruz_Marília" }, "geometry": { "type": "Point", "coordinates": [ -49.8235523, -22.2192918 ] } },
{ "type": "Feature", "properties": { "fid": 255006, "CNPJ": "26401201000194", "IDCIDADE": "VERA_CRUZ", "NOMEFANTASIA": "26.401.201_MARIAM_MOHAMAD_FADLALLAH", "RAZAOSOCIAL": "ESTILO_UNICO", "ENDEE": "RUA_PAULO_GUERREIRO_FRANCO586__CENTRO_17560-011", "LMAPS": "https://www.google.com/maps?q=&layer=c&cbll=-49.8238115,-22.2193834", "O_QUE_FAZER": "FINALIZADO", "ER_REGIAO_CIDADE_min": "Vera Cruz_Marília" }, "geometry": { "type": "Point", "coordinates": [ -49.8238115, -22.2193834 ] } },
{ "type": "Feature", "properties": { "fid": 255009, "CNPJ": "39255810000124", "IDCIDADE": "VERA_CRUZ", "NOMEFANTASIA": "HELENA_APARECIDA_CAETANO_13090324830", "RAZAOSOCIAL": "VITORIA_ROSA", "ENDEE": "RUA_PAULO_GUERREIRO_FRANCO625__CENTRO_17560-011", "LMAPS": "https://www.google.com/maps?q=&layer=c&cbll=-49.8232399,-22.2194028", "O_QUE_FAZER": "FINALIZADO", "ER_REGIAO_CIDADE_min": "Vera Cruz_Marília" }, "geometry": { "type": "Point", "coordinates": [ -49.8232399, -22.2194028 ] } },
{ "type": "Feature", "properties": { "fid": 255014, "CNPJ": "23497607000124", "IDCIDADE": "VERA_CRUZ", "NOMEFANTASIA": "VALERIA_VENDRAMINI_AGOSTINHO_PONTOLIO_ROCHA", "RAZAOSOCIAL": "OTICA_RENATO", "ENDEE": "RUA_PAULO_GUERREIRO_FRANCO631__CENTRO_17560-011", "LMAPS": "https://www.google.com/maps?q=&layer=c&cbll=-49.8230746,-22.2194453", "O_QUE_FAZER": "FINALIZADO", "ER_REGIAO_CIDADE_min": "Vera Cruz_Marília" }, "geometry": { "type": "Point", "coordinates": [ -49.8230746, -22.2194453 ] } },
{ "type": "Feature", "properties": { "fid": 255020, "CNPJ": "72885890000177", "IDCIDADE": "VERA_CRUZ", "NOMEFANTASIA": "FARMACIA_FARMANOVE_DE_VERA_CRUZ_LTDA", "RAZAOSOCIAL": "FARMANOVE", "ENDEE": "RUA_PAULO_GUERREIRO_FRANCO643__CENTRO_17560-011", "LMAPS": "https://www.google.com/maps?q=&layer=c&cbll=-49.8230001,-22.2194859", "O_QUE_FAZER": "FINALIZADO", "ER_REGIAO_CIDADE_min": "Vera Cruz_Marília" }, "geometry": { "type": "Point", "coordinates": [ -49.8230001, -22.2194859 ] } },
{ "type": "Feature", "properties": { "fid": 255025, "CNPJ": "72005564000128", "IDCIDADE": "VERA_CRUZ", "NOMEFANTASIA": "DICAS_PRAKASA_LTDA", "RAZAOSOCIAL": "DICASPRA@YAHOO.COM.BR", "ENDEE": "RUA_PAULO_GUERREIRO_FRANCO626__CENTRO_17560-011", "LMAPS": "https://www.google.com/maps?q=&layer=c&cbll=-49.8234328,-22.2195367", "O_QUE_FAZER": "FINALIZADO", "ER_REGIAO_CIDADE_min": "Vera Cruz_Marília" }, "geometry": { "type": "Point", "coordinates": [ -49.8234328, -22.2195367 ] } },
{ "type": "Feature", "properties": { "fid": 255029, "CNPJ": "17903974000188", "IDCIDADE": "VERA_CRUZ", "NOMEFANTASIA": "RODRIGO_MAGGIONI_LEMES", "RAZAOSOCIAL": "SMART_0", "ENDEE": "RUA_PAULO_GUERREIRO_FRANCO661__CENTRO_17560-011", "LMAPS": "https://www.google.com/maps?q=&layer=c&cbll=-49.822894,-22.2196434", "O_QUE_FAZER": "FINALIZADO", "ER_REGIAO_CIDADE_min": "Vera Cruz_Marília" }, "geometry": { "type": "Point", "coordinates": [ -49.822894, -22.2196434 ] } },
{ "type": "Feature", "properties": { "fid": 255030, "CNPJ": "43039409000124", "IDCIDADE": "VERA_CRUZ", "NOMEFANTASIA": "TALITA_SILVA_MARQUES_39543949875", "RAZAOSOCIAL": "BRILHANTE_E_AMOR", "ENDEE": "RUA_PAULO_GUERREIRO_FRANCO661__CENTRO_17560-011", "LMAPS": "https://www.google.com/maps?q=&layer=c&cbll=-49.822894,-22.2196434", "O_QUE_FAZER": "FINALIZADO", "ER_REGIAO_CIDADE_min": "Vera Cruz_Marília" }, "geometry": { "type": "Point", "coordinates": [ -49.822894, -22.2196434 ] } },
{ "type": "Feature", "properties": { "fid": 255033, "CNPJ": "14598995000149", "IDCIDADE": "VERA_CRUZ", "NOMEFANTASIA": "14.598.995_SIMONE_CRISTINA_SPARAPAN_DIAS", "RAZAOSOCIAL": "EMILY_MAKE", "ENDEE": "RUA_PAULO_GUERREIRO_FRANCO689__CENTRO_17560-011", "LMAPS": "https://www.google.com/maps?q=&layer=c&cbll=-49.8227827,-22.2196996", "O_QUE_FAZER": "FINALIZADO", "ER_REGIAO_CIDADE_min": "Vera Cruz_Marília" }, "geometry": { "type": "Point", "coordinates": [ -49.8227827, -22.2196996 ] } },
{ "type": "Feature", "properties": { "fid": 255038, "CNPJ": "10925882000150", "IDCIDADE": "VERA_CRUZ", "NOMEFANTASIA": "SANDRA_REGINA_DE_ARAUJO_SILVA", "RAZAOSOCIAL": "FLOR_DE_LOTUS", "ENDEE": "RUA_PAULO_GUERREIRO_FRANCO666__CENTRO_17560-011", "LMAPS": "https://www.google.com/maps?q=&layer=c&cbll=-49.8231155,-22.2197509", "O_QUE_FAZER": "FINALIZADO", "ER_REGIAO_CIDADE_min": "Vera Cruz_Marília" }, "geometry": { "type": "Point", "coordinates": [ -49.8231155, -22.2197509 ] } },
{ "type": "Feature", "properties": { "fid": 255040, "CNPJ": "05568965000107", "IDCIDADE": "VERA_CRUZ", "NOMEFANTASIA": "OTICAS_DE_SA_VERA_CRUZ_LTDA", "RAZAOSOCIAL": "OTICA_DE_SA", "ENDEE": "RUA_PAULO_GUERREIRO_FRANCO705__CENTRO_17560-011", "LMAPS": "https://www.google.com/maps?q=&layer=c&cbll=-49.8227808,-22.2197921", "O_QUE_FAZER": "FINALIZADO", "ER_REGIAO_CIDADE_min": "Vera Cruz_Marília" }, "geometry": { "type": "Point", "coordinates": [ -49.8227808, -22.2197921 ] } },
{ "type": "Feature", "properties": { "fid": 255055, "CNPJ": "47592148000126", "IDCIDADE": "VERA_CRUZ", "NOMEFANTASIA": "47.592.148_HELENA_CRISTINA_SERVILHA_CAVALCANTE", "RAZAOSOCIAL": "CASA_MUNHOZ", "ENDEE": "RUA_PAULO_GUERREIRO_FRANCO737__CENTRO_17560-011", "LMAPS": "https://www.google.com/maps?q=&layer=c&cbll=-49.8224156,-22.2199314", "O_QUE_FAZER": "FINALIZADO", "ER_REGIAO_CIDADE_min": "Vera Cruz_Marília" }, "geometry": { "type": "Point", "coordinates": [ -49.8224156, -22.2199314 ] } },
{ "type": "Feature", "properties": { "fid": 255061, "CNPJ": "48357768000143", "IDCIDADE": "VERA_CRUZ", "NOMEFANTASIA": "PINTO_GUANAES_CALCADOS_E_CONFECCOES_LTDA", "RAZAOSOCIAL": "CALCADOS_VERA_CRUZ", "ENDEE": "RUA_PAULO_GUERREIRO_FRANCO726__CENTRO_17560-011", "LMAPS": "https://www.google.com/maps?q=&layer=c&cbll=-49.8227102,-22.2200322", "O_QUE_FAZER": "FINALIZADO", "ER_REGIAO_CIDADE_min": "Vera Cruz_Marília" }, "geometry": { "type": "Point", "coordinates": [ -49.8227102, -22.2200322 ] } },
{ "type": "Feature", "properties": { "fid": 255062, "CNPJ": "12985573000109", "IDCIDADE": "VERA_CRUZ", "NOMEFANTASIA": "FREDERICO_COQUEIRO_DIAS_41752817893", "RAZAOSOCIAL": "FLORICULTURA_FLOR_MARIA", "ENDEE": "RUA_PAULO_GUERREIRO_FRANCO761__CENTRO_17560-011", "LMAPS": "https://www.google.com/maps?q=&layer=c&cbll=-49.8221945,-22.2200325", "O_QUE_FAZER": "FINALIZADO", "ER_REGIAO_CIDADE_min": "Vera Cruz_Marília" }, "geometry": { "type": "Point", "coordinates": [ -49.8221945, -22.2200325 ] } },
{ "type": "Feature", "properties": { "fid": 255067, "CNPJ": "31869177000152", "IDCIDADE": "VERA_CRUZ", "NOMEFANTASIA": "LUIZ_HENRIQUE_HIGINO_DE_OLIVEIRA_36593284807", "RAZAOSOCIAL": "MUNDO_ON-LINE", "ENDEE": "RUA_PAULO_GUERREIRO_FRANCO769__CENTRO_17560-011", "LMAPS": "https://www.google.com/maps?q=&layer=c&cbll=-49.822153,-22.2200896", "O_QUE_FAZER": "FINALIZADO", "ER_REGIAO_CIDADE_min": "Vera Cruz_Marília" }, "geometry": { "type": "Point", "coordinates": [ -49.822153, -22.2200896 ] } },
{ "type": "Feature", "properties": { "fid": 255073, "CNPJ": "46369248000125", "IDCIDADE": "VERA_CRUZ", "NOMEFANTASIA": "46.369.248_SIMONE_MAGGIONI_LEMES", "RAZAOSOCIAL": "UMA_NUTRI", "ENDEE": "RUA_PAULO_GUERREIRO_FRANCO750__CENTRO_17560-011", "LMAPS": "https://www.google.com/maps?q=&layer=c&cbll=-49.8224745,-22.2201688", "O_QUE_FAZER": "FINALIZADO", "ER_REGIAO_CIDADE_min": "Vera Cruz_Marília" }, "geometry": { "type": "Point", "coordinates": [ -49.8224745, -22.2201688 ] } },
{ "type": "Feature", "properties": { "fid": 255081, "CNPJ": "40661629000105", "IDCIDADE": "VERA_CRUZ", "NOMEFANTASIA": "MARIA_JOSE_CONTIERO_07311221862", "RAZAOSOCIAL": "MAZE_STORE", "ENDEE": "RUA_PAULO_GUERREIRO_FRANCO765__CENTRO_17560-011", "LMAPS": "https://www.google.com/maps?q=&layer=c&cbll=-49.8224405,-22.2202042", "O_QUE_FAZER": "FINALIZADO", "ER_REGIAO_CIDADE_min": "Vera Cruz_Marília" }, "geometry": { "type": "Point", "coordinates": [ -49.8224405, -22.2202042 ] } },
{ "type": "Feature", "properties": { "fid": 255106, "CNPJ": "13075129000100", "IDCIDADE": "VERA_CRUZ", "NOMEFANTASIA": "L.M._FERREIRA_BONADIO_&_CIA_LTDA", "RAZAOSOCIAL": "CICLOVERA", "ENDEE": "RUA_PAULO_GUERREIRO_FRANCO790__CENTRO_17560-011", "LMAPS": "https://www.google.com/maps?q=&layer=c&cbll=-49.8221706,-22.2204243", "O_QUE_FAZER": "FINALIZADO", "ER_REGIAO_CIDADE_min": "Vera Cruz_Marília" }, "geometry": { "type": "Point", "coordinates": [ -49.8221706, -22.2204243 ] } },
{ "type": "Feature", "properties": { "fid": 255122, "CNPJ": "28053337000186", "IDCIDADE": "VERA_CRUZ", "NOMEFANTASIA": "DEVANIR_LOPES_DIAS_29250966890", "RAZAOSOCIAL": "DIAS_LIMPE_", "ENDEE": "RUA_JOSE_GODOY_ALVES249__CID_PIMENTEL_17560-342", "LMAPS": "https://www.google.com/maps?q=&layer=c&cbll=-49.8217003,-22.2205215", "O_QUE_FAZER": "FINALIZADO", "ER_REGIAO_CIDADE_min": "Vera Cruz_Marília" }, "geometry": { "type": "Point", "coordinates": [ -49.8217003, -22.2205215 ] } },
{ "type": "Feature", "properties": { "fid": 255127, "CNPJ": "61888968000190", "IDCIDADE": "VERA_CRUZ", "NOMEFANTASIA": "61.888.968_FRANCISCA_PAULA_ALVARENGA", "RAZAOSOCIAL": "PAULA_CALCADOS", "ENDEE": "RUA_PAULO_GUERREIRO_FRANCO820__CENTRO_17560-011", "LMAPS": "https://www.google.com/maps?q=&layer=c&cbll=-49.8219079,-22.2205719", "O_QUE_FAZER": "FINALIZADO", "ER_REGIAO_CIDADE_min": "Vera Cruz_Marília" }, "geometry": { "type": "Point", "coordinates": [ -49.8219079, -22.2205719 ] } },
{ "type": "Feature", "properties": { "fid": 255146, "CNPJ": "55255908000138", "IDCIDADE": "VERA_CRUZ", "NOMEFANTASIA": "55.255.908_TIAGO_LOSCHER_BARREIROS", "RAZAOSOCIAL": "CAFE_FILHO_DA_MAE", "ENDEE": "RUA_PAULO_GUERREIRO_FRANCO895__CENTRO_17560-011", "LMAPS": "https://www.google.com/maps?q=&layer=c&cbll=-49.8212413,-22.2207365", "O_QUE_FAZER": "FINALIZADO", "ER_REGIAO_CIDADE_min": "Vera Cruz_Marília" }, "geometry": { "type": "Point", "coordinates": [ -49.8212413, -22.2207365 ] } },
{ "type": "Feature", "properties": { "fid": 299097, "CNPJ": "28378013000118", "IDCIDADE": "VERA CRUZ", "NOMEFANTASIA": "-", "RAZAOSOCIAL": "CRISTIANE DE OLIVEIRA 31392645859", "ENDEE": "AVENIDA MANOEL THOMAZ DA SILVA, 431, CENTRO, 17560-000, VERA CRUZ, SP, BRASIL", "LMAPS": "https://www.google.com/maps?q=&layer=c&cbll=-22.2310332,-49.8146797", "O_QUE_FAZER": "CARTEIRA - FAMPE", "ER_REGIAO_CIDADE_min": "Vera Cruz_Marília" }, "geometry": { "type": "Point", "coordinates": [ -49.8146797, -22.2310332 ] } }
]
}
