{
"type": "FeatureCollection",
"name": "ER_REGIAO_CIDADE_min_Cajobi_Monte Verde Paulista_Barretos",
"crs": { "type": "name", "properties": { "name": "urn:ogc:def:crs:OGC:1.3:CRS84" } },
"xy_coordinate_resolution": 1e-15,
"features": [
{ "type": "Feature", "properties": { "fid": 307272, "CNPJ": "54283509000118", "IDCIDADE": "CAJOBI", "NOMEFANTASIA": "-", "RAZAOSOCIAL": "HUDNEY RAMOS MALDONADO JARDINAGEM", "ENDEE": "AVENIDA MANOEL MENDES, 682, MONTE VERDE PAULISTA, 15413-004, CAJOBI, SP, BRASIL", "LMAPS": "https://www.google.com/maps?q=&layer=c&cbll=-20.846603,-48.789371", "O_QUE_FAZER": "CARTEIRA - FAMPE", "ER_REGIAO_CIDADE_min": "Cajobi_Monte Verde Paulista_Barretos" }, "geometry": { "type": "Point", "coordinates": [ -48.789371, -20.846603 ] } }
]
}
