{
"type": "FeatureCollection",
"name": "ER_REGIAO_CIDADE_min_Bariri_Araraquara",
"crs": { "type": "name", "properties": { "name": "urn:ogc:def:crs:OGC:1.3:CRS84" } },
"xy_coordinate_resolution": 1e-15,
"features": [
{ "type": "Feature", "properties": { "CNPJ": "41725317000172", "IDCIDADE": "BARIRI", "NOMEFANTASIA": "PAULICOMP_SAO_PAULO_COMERCIO_DE_ELETRONICOS_LTDA", "RAZAOSOCIAL": "PAULICOMP-SP", "ENDEE": "RUA_DONA_FLORINDA_GIACONE_GHIROTI50__JARDIM_NOVA_BARIRI_17250-296", "LATITUDE": "-22.0669769", "LONGITUDE": "-48.734116", "LMAPS": "https://www.google.com/maps?q=&layer=c&cbll=-48.734116,-22.0669769", "O_QUE_FAZER": "FINALIZADO", "ER_REGIAO_CIDADE_min": "Bariri_Araraquara" }, "geometry": { "type": "Point", "coordinates": [ -48.734116, -22.0669769 ] } },
{ "type": "Feature", "properties": { "CNPJ": "34432183000136", "IDCIDADE": "BARIRI", "NOMEFANTASIA": "34.432.183_GIOVANNE_CASSIANO_COCIA", "RAZAOSOCIAL": "GEG_DISTR_DE_ALIMENTOS", "ENDEE": "RUA_JOSE_FAUSTO_TANGANELLI266__JARDIM_YANG_III_17253-008", "LATITUDE": "-22.082556", "LONGITUDE": "-48.7302574", "LMAPS": "https://www.google.com/maps?q=&layer=c&cbll=-48.7302574,-22.082556", "O_QUE_FAZER": "FINALIZADO", "ER_REGIAO_CIDADE_min": "Bariri_Araraquara" }, "geometry": { "type": "Point", "coordinates": [ -48.7302574, -22.082556 ] } },
{ "type": "Feature", "properties": { "CNPJ": "47166455000145", "IDCIDADE": "BARIRI", "NOMEFANTASIA": "ROSILEINE_CRISTINA_DE_ALICE_ABREU_18853287888", "RAZAOSOCIAL": "LOJAS_BARRETO", "ENDEE": "RUA_JOSE_FAUSTO_TANGANELLI47__JARDIM_YANG_III_17253-008", "LATITUDE": "-22.0804428", "LONGITUDE": "-48.7304962", "LMAPS": "https://www.google.com/maps?q=&layer=c&cbll=-48.7304962,-22.0804428", "O_QUE_FAZER": "FINALIZADO", "ER_REGIAO_CIDADE_min": "Bariri_Araraquara" }, "geometry": { "type": "Point", "coordinates": [ -48.7304962, -22.0804428 ] } },
{ "type": "Feature", "properties": { "CNPJ": "48206781000100", "IDCIDADE": "BARIRI", "NOMEFANTASIA": "48.206.781_AMANDA_APARECIDA_JOAO", "RAZAOSOCIAL": "48.206.781_AMANDA_APARECIDA_JOAO", "ENDEE": "RUA_SEBE_BOLSONI69__CIDADE_JARDIM_17253-164", "LATITUDE": "-22.0824477", "LONGITUDE": "-48.7390474", "LMAPS": "https://www.google.com/maps?q=&layer=c&cbll=-48.7390474,-22.0824477", "O_QUE_FAZER": "FINALIZADO", "ER_REGIAO_CIDADE_min": "Bariri_Araraquara" }, "geometry": { "type": "Point", "coordinates": [ -48.7390474, -22.0824477 ] } },
{ "type": "Feature", "properties": { "CNPJ": "21762479000173", "IDCIDADE": "BARIRI", "NOMEFANTASIA": "ESTACAO_VIAGEM", "RAZAOSOCIAL": "JESSICA_FERNANDA_PRUDENTE_DE_MELO", "ENDEE": "AVENIDA_CLAUDIONOR_BARBIERI1139__CENTRO_17250-027", "LATITUDE": "-22.0725217", "LONGITUDE": "-48.7354081", "LMAPS": "https://www.google.com/maps?q=&layer=c&cbll=-48.7354081,-22.0725217", "O_QUE_FAZER": "CARTEIRA", "ER_REGIAO_CIDADE_min": "Bariri_Araraquara" }, "geometry": { "type": "Point", "coordinates": [ -48.7354081, -22.0725217 ] } },
{ "type": "Feature", "properties": { "CNPJ": "27309675000173", "IDCIDADE": "BARIRI", "NOMEFANTASIA": "MILIONI_AGROSHOPING", "RAZAOSOCIAL": "MILIONI_AGROPECUARIA_LTDA", "ENDEE": "AVENIDA_CLAUDIONOR_BARBIERI1383__CENTRO_17250-027", "LATITUDE": "-22.0711107", "LONGITUDE": "-48.7334648", "LMAPS": "https://www.google.com/maps?q=&layer=c&cbll=-48.7334648,-22.0711107", "O_QUE_FAZER": "CARTEIRA", "ER_REGIAO_CIDADE_min": "Bariri_Araraquara" }, "geometry": { "type": "Point", "coordinates": [ -48.7334648, -22.0711107 ] } },
{ "type": "Feature", "properties": { "CNPJ": "03533269000121", "IDCIDADE": "BARIRI", "NOMEFANTASIA": "VINCULLUS_MODAS", "RAZAOSOCIAL": "DESTAK_VINCULLUS_BARIRI_LTDA", "ENDEE": "AVENIDA_CLAUDIONOR_BARBIERI728__CENTRO_17250-027", "LATITUDE": "-22.0746458", "LONGITUDE": "-48.738616", "LMAPS": "https://www.google.com/maps?q=&layer=c&cbll=-48.738616,-22.0746458", "O_QUE_FAZER": "CARTEIRA", "ER_REGIAO_CIDADE_min": "Bariri_Araraquara" }, "geometry": { "type": "Point", "coordinates": [ -48.738616, -22.0746458 ] } },
{ "type": "Feature", "properties": { "CNPJ": "18081082000101", "IDCIDADE": "BARIRI", "NOMEFANTASIA": "RAFFCK", "RAZAOSOCIAL": "MARIA_APARECIDA_CAMPOS_DA_SILVA_VESTUARIO", "ENDEE": "AVENIDA_CLAUDIONOR_BARBIERI730__CENTRO_17250-027", "LATITUDE": "-22.0746411", "LONGITUDE": "-48.7385261", "LMAPS": "https://www.google.com/maps?q=&layer=c&cbll=-48.7385261,-22.0746411", "O_QUE_FAZER": "CARTEIRA", "ER_REGIAO_CIDADE_min": "Bariri_Araraquara" }, "geometry": { "type": "Point", "coordinates": [ -48.7385261, -22.0746411 ] } },
{ "type": "Feature", "properties": { "CNPJ": "52066131000175", "IDCIDADE": "BARIRI", "NOMEFANTASIA": "ELDORADO_MOVEIS", "RAZAOSOCIAL": "FORCIN_&_CIA_COMERCIO_DE_MOVEIS_LTDA", "ENDEE": "AVENIDA_CLAUDIONOR_BARBIERI758__CENTRO_17250-027", "LATITUDE": "-22.0746712", "LONGITUDE": "-48.7381828", "LMAPS": "https://www.google.com/maps?q=&layer=c&cbll=-48.7381828,-22.0746712", "O_QUE_FAZER": "CARTEIRA", "ER_REGIAO_CIDADE_min": "Bariri_Araraquara" }, "geometry": { "type": "Point", "coordinates": [ -48.7381828, -22.0746712 ] } },
{ "type": "Feature", "properties": { "CNPJ": "19871617000100", "IDCIDADE": "BARIRI", "NOMEFANTASIA": "GI_ESCOLA", "RAZAOSOCIAL": "GIMULTIMARCAS_COMERCIO_DE_CALCADOS,_ROUPAS_E_ACESSORIOS_LTDA", "ENDEE": "AVENIDA_CLAUDIONOR_BARBIERI775__CENTRO_17250-027", "LATITUDE": "-22.0742673", "LONGITUDE": "-48.738361", "LMAPS": "https://www.google.com/maps?q=&layer=c&cbll=-48.738361,-22.0742673", "O_QUE_FAZER": "CARTEIRA", "ER_REGIAO_CIDADE_min": "Bariri_Araraquara" }, "geometry": { "type": "Point", "coordinates": [ -48.738361, -22.0742673 ] } },
{ "type": "Feature", "properties": { "CNPJ": "57267049000122", "IDCIDADE": "BARIRI", "NOMEFANTASIA": "UNIAO_CFC", "RAZAOSOCIAL": "AUTO_MOTO_ESCOLA_UNIAO_DE_BARIRI_LTDA", "ENDEE": "AVENIDA_CLAUDIONOR_BARBIERI790__CENTRO_17250-027", "LATITUDE": "-22.0743738", "LONGITUDE": "-48.7381195", "LMAPS": "https://www.google.com/maps?q=&layer=c&cbll=-48.7381195,-22.0743738", "O_QUE_FAZER": "CARTEIRA", "ER_REGIAO_CIDADE_min": "Bariri_Araraquara" }, "geometry": { "type": "Point", "coordinates": [ -48.7381195, -22.0743738 ] } },
{ "type": "Feature", "properties": { "CNPJ": "40084750000103", "IDCIDADE": "BARIRI", "NOMEFANTASIA": "POIS_STYL", "RAZAOSOCIAL": "POPSTYL_PAPELARIA,_GRAFICA_E_INFORMATICA_LTDA", "ENDEE": "AVENIDA_CLAUDIONOR_BARBIERI843__CENTRO_17250-027", "LATITUDE": "-22.0739561", "LONGITUDE": "-48.7377533", "LMAPS": "https://www.google.com/maps?q=&layer=c&cbll=-48.7377533,-22.0739561", "O_QUE_FAZER": "CARTEIRA", "ER_REGIAO_CIDADE_min": "Bariri_Araraquara" }, "geometry": { "type": "Point", "coordinates": [ -48.7377533, -22.0739561 ] } },
{ "type": "Feature", "properties": { "CNPJ": "02208656000120", "IDCIDADE": "BARIRI", "NOMEFANTASIA": "CARA_IMOVEIS", "RAZAOSOCIAL": "CARA_IMOVEIS_LTDA", "ENDEE": "AVENIDA_CLAUDIONOR_BARBIERI928__CENTRO_17250-027", "LATITUDE": "-22.0736894", "LONGITUDE": "-48.7369061", "LMAPS": "https://www.google.com/maps?q=&layer=c&cbll=-48.7369061,-22.0736894", "O_QUE_FAZER": "CARTEIRA", "ER_REGIAO_CIDADE_min": "Bariri_Araraquara" }, "geometry": { "type": "Point", "coordinates": [ -48.7369061, -22.0736894 ] } },
{ "type": "Feature", "properties": { "CNPJ": "49049257000127", "IDCIDADE": "BARIRI", "NOMEFANTASIA": "BAR_CENTRAL", "RAZAOSOCIAL": "BAR_CENTRAL_DE_BARIRI_LTDA", "ENDEE": "AVENIDA_FLORIANO_PEIXOTO1820__CENTRO_17250-027", "LATITUDE": "-22.0750017", "LONGITUDE": "-48.7395709", "LMAPS": "https://www.google.com/maps?q=&layer=c&cbll=-48.7395709,-22.0750017", "O_QUE_FAZER": "CARTEIRA", "ER_REGIAO_CIDADE_min": "Bariri_Araraquara" }, "geometry": { "type": "Point", "coordinates": [ -48.7395709, -22.0750017 ] } },
{ "type": "Feature", "properties": { "CNPJ": "39816944000177", "IDCIDADE": "BARIRI", "NOMEFANTASIA": "FURLAN_DOCE_E_FESTA", "RAZAOSOCIAL": "REYNALDO_CAMARGO_FURLAN_LTDA", "ENDEE": "AVENIDA_CLAUDIONOR_BARBIERI1055__CENTRO_17250-037", "LATITUDE": "-22.072952", "LONGITUDE": "-48.7360653", "LMAPS": "https://www.google.com/maps?q=&layer=c&cbll=-48.7360653,-22.072952", "O_QUE_FAZER": "CARTEIRA", "ER_REGIAO_CIDADE_min": "Bariri_Araraquara" }, "geometry": { "type": "Point", "coordinates": [ -48.7360653, -22.072952 ] } },
{ "type": "Feature", "properties": { "CNPJ": "22454723000101", "IDCIDADE": "BARIRI", "NOMEFANTASIA": "SILVA_E_SILVA", "RAZAOSOCIAL": "MARCIO_ELIAS_DA_SILVA_&_CIA_LTDA", "ENDEE": "AVENIDA_CLAUDIONOR_BARBIERI1070__CENTRO_17250-037", "LATITUDE": "-22.0731365", "LONGITUDE": "-48.7357281", "LMAPS": "https://www.google.com/maps?q=&layer=c&cbll=-48.7357281,-22.0731365", "O_QUE_FAZER": "CARTEIRA", "ER_REGIAO_CIDADE_min": "Bariri_Araraquara" }, "geometry": { "type": "Point", "coordinates": [ -48.7357281, -22.0731365 ] } },
{ "type": "Feature", "properties": { "CNPJ": "60275633000134", "IDCIDADE": "BARIRI", "NOMEFANTASIA": "REI_DO_SOM", "RAZAOSOCIAL": "REINALDO_CONTHARTEZE", "ENDEE": "AVENIDA_CLAUDIONOR_BARBIERI1099__CENTRO_17250-037", "LATITUDE": "-22.0727581", "LONGITUDE": "-48.7356796", "LMAPS": "https://www.google.com/maps?q=&layer=c&cbll=-48.7356796,-22.0727581", "O_QUE_FAZER": "CARTEIRA", "ER_REGIAO_CIDADE_min": "Bariri_Araraquara" }, "geometry": { "type": "Point", "coordinates": [ -48.7356796, -22.0727581 ] } },
{ "type": "Feature", "properties": { "CNPJ": "55693436000103", "IDCIDADE": "BARIRI", "NOMEFANTASIA": "PACHECO_MOTOS", "RAZAOSOCIAL": "PACHECO_PROJETO_MOTOS_LTDA", "ENDEE": "AVENIDA_CLAUDIONOR_BARBIERI986__CENTRO_17250-037", "LATITUDE": "-22.073424", "LONGITUDE": "-48.736471", "LMAPS": "https://www.google.com/maps?q=&layer=c&cbll=-48.736471,-22.073424", "O_QUE_FAZER": "CARTEIRA", "ER_REGIAO_CIDADE_min": "Bariri_Araraquara" }, "geometry": { "type": "Point", "coordinates": [ -48.736471, -22.073424 ] } },
{ "type": "Feature", "properties": { "CNPJ": "11910215000166", "IDCIDADE": "BARIRI", "NOMEFANTASIA": "PAIS_E_FILHOS", "RAZAOSOCIAL": "H.C._BERTHOLO_LTDA", "ENDEE": "AVENIDA_QUINZE_DE_NOVEMBRO1035__CENTRO_17250-037", "LATITUDE": "-22.0728573", "LONGITUDE": "-48.7377189", "LMAPS": "https://www.google.com/maps?q=&layer=c&cbll=-48.7377189,-22.0728573", "O_QUE_FAZER": "CARTEIRA", "ER_REGIAO_CIDADE_min": "Bariri_Araraquara" }, "geometry": { "type": "Point", "coordinates": [ -48.7377189, -22.0728573 ] } },
{ "type": "Feature", "properties": { "CNPJ": "17726309000166", "IDCIDADE": "BARIRI", "NOMEFANTASIA": "TESTAREI_PAPELARIA", "RAZAOSOCIAL": "TESSAROLI_COMERCIO_DE_PRODUTOS_DE_INFORMATICA_E_PAPELARIA_LTDA", "ENDEE": "AVENIDA_QUINZE_DE_NOVEMBRO1080__CENTRO_17250-037", "LATITUDE": "-22.0725091", "LONGITUDE": "-48.7368959", "LMAPS": "https://www.google.com/maps?q=&layer=c&cbll=-48.7368959,-22.0725091", "O_QUE_FAZER": "CARTEIRA", "ER_REGIAO_CIDADE_min": "Bariri_Araraquara" }, "geometry": { "type": "Point", "coordinates": [ -48.7368959, -22.0725091 ] } },
{ "type": "Feature", "properties": { "CNPJ": "01588476000158", "IDCIDADE": "BARIRI", "NOMEFANTASIA": "KEZO_STORE", "RAZAOSOCIAL": "PRK_CONFECCOES_LTDA", "ENDEE": "AVENIDA_QUINZE_DE_NOVEMBRO1087__CENTRO_17250-037", "LATITUDE": "-22.0725103", "LONGITUDE": "-48.7369416", "LMAPS": "https://www.google.com/maps?q=&layer=c&cbll=-48.7369416,-22.0725103", "O_QUE_FAZER": "CARTEIRA", "ER_REGIAO_CIDADE_min": "Bariri_Araraquara" }, "geometry": { "type": "Point", "coordinates": [ -48.7369416, -22.0725103 ] } },
{ "type": "Feature", "properties": { "CNPJ": "02552440000187", "IDCIDADE": "BARIRI", "NOMEFANTASIA": "RELOJOARIA_TESSAROLI", "RAZAOSOCIAL": "TESSAROLI_COMERCIO_DE_RELOGIOS_LTDA", "ENDEE": "AVENIDA_QUINZE_DE_NOVEMBRO1090__CENTRO_17250-037", "LATITUDE": "-22.0725234", "LONGITUDE": "-48.7367758", "LMAPS": "https://www.google.com/maps?q=&layer=c&cbll=-48.7367758,-22.0725234", "O_QUE_FAZER": "CARTEIRA", "ER_REGIAO_CIDADE_min": "Bariri_Araraquara" }, "geometry": { "type": "Point", "coordinates": [ -48.7367758, -22.0725234 ] } },
{ "type": "Feature", "properties": { "CNPJ": "22947926000121", "IDCIDADE": "BARIRI", "NOMEFANTASIA": "ANANDA_CALCADOS", "RAZAOSOCIAL": "MARIA_ZILDA_MICHELASSI_DE_AZEVEDO", "ENDEE": "AVENIDA_QUINZE_DE_NOVEMBRO1091__CENTRO_17250-037", "LATITUDE": "-22.0724959", "LONGITUDE": "-48.7369106", "LMAPS": "https://www.google.com/maps?q=&layer=c&cbll=-48.7369106,-22.0724959", "O_QUE_FAZER": "CARTEIRA", "ER_REGIAO_CIDADE_min": "Bariri_Araraquara" }, "geometry": { "type": "Point", "coordinates": [ -48.7369106, -22.0724959 ] } },
{ "type": "Feature", "properties": { "CNPJ": "46181269000112", "IDCIDADE": "BARIRI", "NOMEFANTASIA": "PADARIA_SAO_JUDAS_TADEU", "RAZAOSOCIAL": "JOSE_CARLOS_OCON_LTDA", "ENDEE": "AVENIDA_QUINZE_DE_NOVEMBRO1128__CENTRO_17250-037", "LATITUDE": "-22.0723481", "LONGITUDE": "-48.7364342", "LMAPS": "https://www.google.com/maps?q=&layer=c&cbll=-48.7364342,-22.0723481", "O_QUE_FAZER": "CARTEIRA", "ER_REGIAO_CIDADE_min": "Bariri_Araraquara" }, "geometry": { "type": "Point", "coordinates": [ -48.7364342, -22.0723481 ] } },
{ "type": "Feature", "properties": { "CNPJ": "04065197000106", "IDCIDADE": "BARIRI", "NOMEFANTASIA": "SIL_TINTAS", "RAZAOSOCIAL": "SIL_TINTAS_ACABAMENTOS_E_CONSTRUCAO_LTDA", "ENDEE": "AVENIDA_QUINZE_DE_NOVEMBRO1135__CENTRO_17250-037", "LATITUDE": "-22.0721125", "LONGITUDE": "-48.7365388", "LMAPS": "https://www.google.com/maps?q=&layer=c&cbll=-48.7365388,-22.0721125", "O_QUE_FAZER": "CARTEIRA", "ER_REGIAO_CIDADE_min": "Bariri_Araraquara" }, "geometry": { "type": "Point", "coordinates": [ -48.7365388, -22.0721125 ] } },
{ "type": "Feature", "properties": { "CNPJ": "53489423000183", "IDCIDADE": "BARIRI", "NOMEFANTASIA": "QUITANDA_BOLINI", "RAZAOSOCIAL": "ODETE_MARIA_MOZARDO_DE_PIERI", "ENDEE": "AVENIDA_QUINZE_DE_NOVEMBRO1135__CENTRO_17250-037", "LATITUDE": "-22.0721713", "LONGITUDE": "-48.7364697", "LMAPS": "https://www.google.com/maps?q=&layer=c&cbll=-48.7364697,-22.0721713", "O_QUE_FAZER": "CARTEIRA", "ER_REGIAO_CIDADE_min": "Bariri_Araraquara" }, "geometry": { "type": "Point", "coordinates": [ -48.7364697, -22.0721713 ] } },
{ "type": "Feature", "properties": { "CNPJ": "28412817000196", "IDCIDADE": "BARIRI", "NOMEFANTASIA": "REIDAS_RACOES", "RAZAOSOCIAL": "ZILDA_APARECIDA_CORTINOVE_DE_GRANDE_MOCO", "ENDEE": "AVENIDA_QUINZE_DE_NOVEMBRO114__CENTRO_17250-037", "LATITUDE": "-22.0771966", "LONGITUDE": "-48.7448303", "LMAPS": "https://www.google.com/maps?q=&layer=c&cbll=-48.7448303,-22.0771966", "O_QUE_FAZER": "CARTEIRA", "ER_REGIAO_CIDADE_min": "Bariri_Araraquara" }, "geometry": { "type": "Point", "coordinates": [ -48.7448303, -22.0771966 ] } },
{ "type": "Feature", "properties": { "CNPJ": "38218430000157", "IDCIDADE": "BARIRI", "NOMEFANTASIA": "ALABAMA", "RAZAOSOCIAL": "WAGNER_L_F_DOS_SANTOS_CONFECCOES", "ENDEE": "AVENIDA_QUINZE_DE_NOVEMBRO1247__CENTRO_17250-037", "LATITUDE": "-22.0716775", "LONGITUDE": "-48.7355574", "LMAPS": "https://www.google.com/maps?q=&layer=c&cbll=-48.7355574,-22.0716775", "O_QUE_FAZER": "CARTEIRA", "ER_REGIAO_CIDADE_min": "Bariri_Araraquara" }, "geometry": { "type": "Point", "coordinates": [ -48.7355574, -22.0716775 ] } },
{ "type": "Feature", "properties": { "CNPJ": "26416089000165", "IDCIDADE": "BARIRI", "NOMEFANTASIA": "DE_CAZARI_PISCINAS", "RAZAOSOCIAL": "ADENILSON_FERNANDO_CAZARIM", "ENDEE": "AVENIDA_QUINZE_DE_NOVEMBRO1269__CENTRO_17250-037", "LATITUDE": "-22.071548", "LONGITUDE": "-48.7354235", "LMAPS": "https://www.google.com/maps?q=&layer=c&cbll=-48.7354235,-22.071548", "O_QUE_FAZER": "CARTEIRA", "ER_REGIAO_CIDADE_min": "Bariri_Araraquara" }, "geometry": { "type": "Point", "coordinates": [ -48.7354235, -22.071548 ] } },
{ "type": "Feature", "properties": { "CNPJ": "01716916000105", "IDCIDADE": "BARIRI", "NOMEFANTASIA": "CARONA_COSMETICOS", "RAZAOSOCIAL": "CERON_COSMETICOS_E_PERFUMARIA_LTDA", "ENDEE": "AVENIDA_QUINZE_DE_NOVEMBRO1312__CENTRO_17250-037", "LATITUDE": "-22.07144", "LONGITUDE": "-48.7349143", "LMAPS": "https://www.google.com/maps?q=&layer=c&cbll=-48.7349143,-22.07144", "O_QUE_FAZER": "CARTEIRA", "ER_REGIAO_CIDADE_min": "Bariri_Araraquara" }, "geometry": { "type": "Point", "coordinates": [ -48.7349143, -22.07144 ] } },
{ "type": "Feature", "properties": { "CNPJ": "64134836000161", "IDCIDADE": "BARIRI", "NOMEFANTASIA": "DUNA_TINTAS", "RAZAOSOCIAL": "JOSE_GUERRA_JUNIOR", "ENDEE": "AVENIDA_QUINZE_DE_NOVEMBRO137__CENTRO_17250-037", "LATITUDE": "-22.072047", "LONGITUDE": "-48.7362065", "LMAPS": "https://www.google.com/maps?q=&layer=c&cbll=-48.7362065,-22.072047", "O_QUE_FAZER": "CARTEIRA", "ER_REGIAO_CIDADE_min": "Bariri_Araraquara" }, "geometry": { "type": "Point", "coordinates": [ -48.7362065, -22.072047 ] } },
{ "type": "Feature", "properties": { "CNPJ": "26434624000100", "IDCIDADE": "BARIRI", "NOMEFANTASIA": "CASA_DE_CARNES_BOY", "RAZAOSOCIAL": "FAUSTINO_&_GODOI_LTDA", "ENDEE": "AVENIDA_QUINZE_DE_NOVEMBRO1395__CENTRO_17250-037", "LATITUDE": "-22.0709357", "LONGITUDE": "-48.7343716", "LMAPS": "https://www.google.com/maps?q=&layer=c&cbll=-48.7343716,-22.0709357", "O_QUE_FAZER": "CARTEIRA", "ER_REGIAO_CIDADE_min": "Bariri_Araraquara" }, "geometry": { "type": "Point", "coordinates": [ -48.7343716, -22.0709357 ] } },
{ "type": "Feature", "properties": { "CNPJ": "27690582000131", "IDCIDADE": "BARIRI", "NOMEFANTASIA": "PET_CENTER_FERRARI", "RAZAOSOCIAL": "CLINICA_FERRARI_LTDA", "ENDEE": "AVENIDA_QUINZE_DE_NOVEMBRO1416__CENTRO_17250-037", "LATITUDE": "-22.0710192", "LONGITUDE": "-48.7342446", "LMAPS": "https://www.google.com/maps?q=&layer=c&cbll=-48.7342446,-22.0710192", "O_QUE_FAZER": "CARTEIRA", "ER_REGIAO_CIDADE_min": "Bariri_Araraquara" }, "geometry": { "type": "Point", "coordinates": [ -48.7342446, -22.0710192 ] } },
{ "type": "Feature", "properties": { "CNPJ": "58671389000187", "IDCIDADE": "BARIRI", "NOMEFANTASIA": "BEIA_ANTENAS", "RAZAOSOCIAL": "JOSE_OSVALDO_BAZA_ME", "ENDEE": "AVENIDA_QUINZE_DE_NOVEMBRO148__CENTRO_17250-037", "LATITUDE": "-22.0770103", "LONGITUDE": "-48.7445719", "LMAPS": "https://www.google.com/maps?q=&layer=c&cbll=-48.7445719,-22.0770103", "O_QUE_FAZER": "CARTEIRA", "ER_REGIAO_CIDADE_min": "Bariri_Araraquara" }, "geometry": { "type": "Point", "coordinates": [ -48.7445719, -22.0770103 ] } },
{ "type": "Feature", "properties": { "CNPJ": "01076166000154", "IDCIDADE": "BARIRI", "NOMEFANTASIA": "PRO_LAR", "RAZAOSOCIAL": "S_S_V_INDUSTRIA_E_COMERCIO_DE_PRODUTOS_DE_LIMPEZA_LTDA", "ENDEE": "AVENIDA_QUINZE_DE_NOVEMBRO1552__CENTRO_17250-037", "LATITUDE": "-22.0703156", "LONGITUDE": "-48.7329907", "LMAPS": "https://www.google.com/maps?q=&layer=c&cbll=-48.7329907,-22.0703156", "O_QUE_FAZER": "CARTEIRA", "ER_REGIAO_CIDADE_min": "Bariri_Araraquara" }, "geometry": { "type": "Point", "coordinates": [ -48.7329907, -22.0703156 ] } },
{ "type": "Feature", "properties": { "CNPJ": "02370264000162", "IDCIDADE": "BARIRI", "NOMEFANTASIA": "ELETRO_SAMPA", "RAZAOSOCIAL": "ELETROSAMPA_COMERCIO_E_INSTALACOES_DE_MATERIAIS_ELETRICOS_LTDA", "ENDEE": "AVENIDA_QUINZE_DE_NOVEMBRO159__CENTRO_17250-037", "LATITUDE": "-22.0768617", "LONGITUDE": "-48.7445527", "LMAPS": "https://www.google.com/maps?q=&layer=c&cbll=-48.7445527,-22.0768617", "O_QUE_FAZER": "CARTEIRA", "ER_REGIAO_CIDADE_min": "Bariri_Araraquara" }, "geometry": { "type": "Point", "coordinates": [ -48.7445527, -22.0768617 ] } },
{ "type": "Feature", "properties": { "CNPJ": "10615051000181", "IDCIDADE": "BARIRI", "NOMEFANTASIA": "SAMARA_VEICULOS", "RAZAOSOCIAL": "ELITON_DEJARI_FERRO_JACO", "ENDEE": "AVENIDA_QUINZE_DE_NOVEMBRO1619__CENTRO_17250-037", "LATITUDE": "-22.0697603", "LONGITUDE": "-48.7326081", "LMAPS": "https://www.google.com/maps?q=&layer=c&cbll=-48.7326081,-22.0697603", "O_QUE_FAZER": "CARTEIRA", "ER_REGIAO_CIDADE_min": "Bariri_Araraquara" }, "geometry": { "type": "Point", "coordinates": [ -48.7326081, -22.0697603 ] } },
{ "type": "Feature", "properties": { "CNPJ": "03352980000180", "IDCIDADE": "BARIRI", "NOMEFANTASIA": "SAPATARIA_AMARAL", "RAZAOSOCIAL": "MIGUEL_HENRIQUE_AMARAL", "ENDEE": "AVENIDA_QUINZE_DE_NOVEMBRO239__CENTRO_17250-037", "LATITUDE": "-22.0764835", "LONGITUDE": "-48.7439334", "LMAPS": "https://www.google.com/maps?q=&layer=c&cbll=-48.7439334,-22.0764835", "O_QUE_FAZER": "CARTEIRA", "ER_REGIAO_CIDADE_min": "Bariri_Araraquara" }, "geometry": { "type": "Point", "coordinates": [ -48.7439334, -22.0764835 ] } },
{ "type": "Feature", "properties": { "CNPJ": "49859200000193", "IDCIDADE": "BARIRI", "NOMEFANTASIA": "ROSSI_MADEIRAS", "RAZAOSOCIAL": "ROSSI_-_INDUSTRIA_E_COMERCIO_DE_MADEIRAS_LTDA", "ENDEE": "AVENIDA_QUINZE_DE_NOVEMBRO266__CENTRO_17250-037", "LATITUDE": "-22.0764444", "LONGITUDE": "-48.7431248", "LMAPS": "https://www.google.com/maps?q=&layer=c&cbll=-48.7431248,-22.0764444", "O_QUE_FAZER": "CARTEIRA", "ER_REGIAO_CIDADE_min": "Bariri_Araraquara" }, "geometry": { "type": "Point", "coordinates": [ -48.7431248, -22.0764444 ] } },
{ "type": "Feature", "properties": { "CNPJ": "03539120000150", "IDCIDADE": "BARIRI", "NOMEFANTASIA": "ANINHA_CALCADOS", "RAZAOSOCIAL": "PULTRIN_&_MORETTO_LTDA", "ENDEE": "AVENIDA_QUINZE_DE_NOVEMBRO341__CENTRO_17250-037", "LATITUDE": "-22.0757958", "LONGITUDE": "-48.742649", "LMAPS": "https://www.google.com/maps?q=&layer=c&cbll=-48.742649,-22.0757958", "O_QUE_FAZER": "CARTEIRA", "ER_REGIAO_CIDADE_min": "Bariri_Araraquara" }, "geometry": { "type": "Point", "coordinates": [ -48.742649, -22.0757958 ] } },
{ "type": "Feature", "properties": { "CNPJ": "37611687000101", "IDCIDADE": "BARIRI", "NOMEFANTASIA": "REALACESSIVEL", "RAZAOSOCIAL": "KENNEDY_HENRIQUE_VIEIRA", "ENDEE": "AVENIDA_QUINZE_DE_NOVEMBRO341__CENTRO_17250-037", "LATITUDE": "-22.0758536", "LONGITUDE": "-48.7426642", "LMAPS": "https://www.google.com/maps?q=&layer=c&cbll=-48.7426642,-22.0758536", "O_QUE_FAZER": "CARTEIRA", "ER_REGIAO_CIDADE_min": "Bariri_Araraquara" }, "geometry": { "type": "Point", "coordinates": [ -48.7426642, -22.0758536 ] } },
{ "type": "Feature", "properties": { "CNPJ": "40166260000156", "IDCIDADE": "BARIRI", "NOMEFANTASIA": "SP_NET", "RAZAOSOCIAL": "PIOTTO_TELECOMUNICACOES_LTDA", "ENDEE": "AVENIDA_QUINZE_DE_NOVEMBRO341__CENTRO_17250-037", "LATITUDE": "-22.0759345", "LONGITUDE": "-48.7428113", "LMAPS": "https://www.google.com/maps?q=&layer=c&cbll=-48.7428113,-22.0759345", "O_QUE_FAZER": "CARTEIRA", "ER_REGIAO_CIDADE_min": "Bariri_Araraquara" }, "geometry": { "type": "Point", "coordinates": [ -48.7428113, -22.0759345 ] } },
{ "type": "Feature", "properties": { "CNPJ": "01811640000144", "IDCIDADE": "BARIRI", "NOMEFANTASIA": "BARATO_MOVEIS", "RAZAOSOCIAL": "EDSON_LUIS_FORCIN_MOVEIS", "ENDEE": "AVENIDA_QUINZE_DE_NOVEMBRO400__CENTRO_17250-037", "LATITUDE": "-22.0758589", "LONGITUDE": "-48.7423036", "LMAPS": "https://www.google.com/maps?q=&layer=c&cbll=-48.7423036,-22.0758589", "O_QUE_FAZER": "CARTEIRA", "ER_REGIAO_CIDADE_min": "Bariri_Araraquara" }, "geometry": { "type": "Point", "coordinates": [ -48.7423036, -22.0758589 ] } },
{ "type": "Feature", "properties": { "CNPJ": "19448647000109", "IDCIDADE": "BARIRI", "NOMEFANTASIA": "SLA_MOTORS", "RAZAOSOCIAL": "SILVANA_LOPES_LEME_VEICULOS", "ENDEE": "AVENIDA_QUINZE_DE_NOVEMBRO669__CENTRO_17250-037", "LATITUDE": "-22.0695358", "LONGITUDE": "-48.732251", "LMAPS": "https://www.google.com/maps?q=&layer=c&cbll=-48.732251,-22.0695358", "O_QUE_FAZER": "CARTEIRA", "ER_REGIAO_CIDADE_min": "Bariri_Araraquara" }, "geometry": { "type": "Point", "coordinates": [ -48.732251, -22.0695358 ] } },
{ "type": "Feature", "properties": { "CNPJ": "53446183000130", "IDCIDADE": "BARIRI", "NOMEFANTASIA": "PALACIO_DOS_ESPORTES", "RAZAOSOCIAL": "CARLOS_ARTIGOS_ESPORTIVOS_LTDA", "ENDEE": "AVENIDA_QUINZE_DE_NOVEMBRO729__CENTRO_17250-037", "LATITUDE": "-22.0740513", "LONGITUDE": "-48.7399318", "LMAPS": "https://www.google.com/maps?q=&layer=c&cbll=-48.7399318,-22.0740513", "O_QUE_FAZER": "CARTEIRA", "ER_REGIAO_CIDADE_min": "Bariri_Araraquara" }, "geometry": { "type": "Point", "coordinates": [ -48.7399318, -22.0740513 ] } },
{ "type": "Feature", "properties": { "CNPJ": "17734754000844", "IDCIDADE": "BARIRI", "NOMEFANTASIA": "CUECAS_E_CALCINHAS_._COM", "RAZAOSOCIAL": "EFPX_VESTUARIO_E_ACESSORIOS_LTDA", "ENDEE": "AVENIDA_QUINZE_DE_NOVEMBRO732__CENTRO_17250-037", "LATITUDE": "-22.074173", "LONGITUDE": "-48.7397664", "LMAPS": "https://www.google.com/maps?q=&layer=c&cbll=-48.7397664,-22.074173", "O_QUE_FAZER": "CARTEIRA", "ER_REGIAO_CIDADE_min": "Bariri_Araraquara" }, "geometry": { "type": "Point", "coordinates": [ -48.7397664, -22.074173 ] } },
{ "type": "Feature", "properties": { "CNPJ": "10740429000179", "IDCIDADE": "BARIRI", "NOMEFANTASIA": "PURA_BELEZA", "RAZAOSOCIAL": "LENI_JOSIMEIRE_DOS_SANTOS_CONCEICAO", "ENDEE": "AVENIDA_QUINZE_DE_NOVEMBRO732__CENTRO_17250-037", "LATITUDE": "-22.0741883", "LONGITUDE": "-48.7397468", "LMAPS": "https://www.google.com/maps?q=&layer=c&cbll=-48.7397468,-22.0741883", "O_QUE_FAZER": "CARTEIRA", "ER_REGIAO_CIDADE_min": "Bariri_Araraquara" }, "geometry": { "type": "Point", "coordinates": [ -48.7397468, -22.0741883 ] } },
{ "type": "Feature", "properties": { "CNPJ": "22953713000102", "IDCIDADE": "BARIRI", "NOMEFANTASIA": "CACAU_SHOW", "RAZAOSOCIAL": "BARIRI_CACAU_LTDA", "ENDEE": "AVENIDA_QUINZE_DE_NOVEMBRO762__CENTRO_17250-037", "LATITUDE": "-22.0740556", "LONGITUDE": "-48.7395177", "LMAPS": "https://www.google.com/maps?q=&layer=c&cbll=-48.7395177,-22.0740556", "O_QUE_FAZER": "CARTEIRA", "ER_REGIAO_CIDADE_min": "Bariri_Araraquara" }, "geometry": { "type": "Point", "coordinates": [ -48.7395177, -22.0740556 ] } },
{ "type": "Feature", "properties": { "CNPJ": "07362449000149", "IDCIDADE": "BARIRI", "NOMEFANTASIA": "BAZZAR_15", "RAZAOSOCIAL": "VALERIA_BERTANHA_PERONDI", "ENDEE": "AVENIDA_QUINZE_DE_NOVEMBRO771__CENTRO_17250-037", "LATITUDE": "-22.0739651", "LONGITUDE": "-48.7395064", "LMAPS": "https://www.google.com/maps?q=&layer=c&cbll=-48.7395064,-22.0739651", "O_QUE_FAZER": "CARTEIRA", "ER_REGIAO_CIDADE_min": "Bariri_Araraquara" }, "geometry": { "type": "Point", "coordinates": [ -48.7395064, -22.0739651 ] } },
{ "type": "Feature", "properties": { "CNPJ": "41569074000120", "IDCIDADE": "BARIRI", "NOMEFANTASIA": "DROGARIA_POU_AQUI", "RAZAOSOCIAL": "DROGARIA_BORGES_BARIRI_LTDA", "ENDEE": "AVENIDA_QUINZE_DE_NOVEMBRO775__CENTRO_17250-037", "LATITUDE": "-22.0739237", "LONGITUDE": "-48.739458", "LMAPS": "https://www.google.com/maps?q=&layer=c&cbll=-48.739458,-22.0739237", "O_QUE_FAZER": "CARTEIRA", "ER_REGIAO_CIDADE_min": "Bariri_Araraquara" }, "geometry": { "type": "Point", "coordinates": [ -48.739458, -22.0739237 ] } },
{ "type": "Feature", "properties": { "CNPJ": "07123914000199", "IDCIDADE": "BARIRI", "NOMEFANTASIA": "STAR_OTICA", "RAZAOSOCIAL": "OTICA_STAR_DE_BARIRI_LTDA", "ENDEE": "AVENIDA_QUINZE_DE_NOVEMBRO789__CENTRO_17250-037", "LATITUDE": "-22.0738659", "LONGITUDE": "-48.739436", "LMAPS": "https://www.google.com/maps?q=&layer=c&cbll=-48.739436,-22.0738659", "O_QUE_FAZER": "CARTEIRA", "ER_REGIAO_CIDADE_min": "Bariri_Araraquara" }, "geometry": { "type": "Point", "coordinates": [ -48.739436, -22.0738659 ] } },
{ "type": "Feature", "properties": { "CNPJ": "74264953000101", "IDCIDADE": "BARIRI", "NOMEFANTASIA": "ANAROSA_PERFUMARIA", "RAZAOSOCIAL": "ANA_M._MILANI_PERFUMARIA", "ENDEE": "AVENIDA_QUINZE_DE_NOVEMBRO827__CENTRO_17250-037", "LATITUDE": "-22.0736508", "LONGITUDE": "-48.7390597", "LMAPS": "https://www.google.com/maps?q=&layer=c&cbll=-48.7390597,-22.0736508", "O_QUE_FAZER": "CARTEIRA", "ER_REGIAO_CIDADE_min": "Bariri_Araraquara" }, "geometry": { "type": "Point", "coordinates": [ -48.7390597, -22.0736508 ] } },
{ "type": "Feature", "properties": { "CNPJ": "05870120000163", "IDCIDADE": "BARIRI", "NOMEFANTASIA": "IARA_CALCADOS", "RAZAOSOCIAL": "MAGAZINE_IARA_AMARAL_LTDA", "ENDEE": "AVENIDA_QUINZE_DE_NOVEMBRO837__CENTRO_17250-037", "LATITUDE": "-22.0735438", "LONGITUDE": "-48.7390306", "LMAPS": "https://www.google.com/maps?q=&layer=c&cbll=-48.7390306,-22.0735438", "O_QUE_FAZER": "CARTEIRA", "ER_REGIAO_CIDADE_min": "Bariri_Araraquara" }, "geometry": { "type": "Point", "coordinates": [ -48.7390306, -22.0735438 ] } },
{ "type": "Feature", "properties": { "CNPJ": "49859283000110", "IDCIDADE": "BARIRI", "NOMEFANTASIA": "CASAS_BONINI", "RAZAOSOCIAL": "CASAS_DE_MOVEIS_BONINI_LTDA", "ENDEE": "AVENIDA_QUINZE_DE_NOVEMBRO838__CENTRO_17250-037", "LATITUDE": "-22.073681", "LONGITUDE": "-48.7388066", "LMAPS": "https://www.google.com/maps?q=&layer=c&cbll=-48.7388066,-22.073681", "O_QUE_FAZER": "CARTEIRA", "ER_REGIAO_CIDADE_min": "Bariri_Araraquara" }, "geometry": { "type": "Point", "coordinates": [ -48.7388066, -22.073681 ] } },
{ "type": "Feature", "properties": { "CNPJ": "00398935000178", "IDCIDADE": "BARIRI", "NOMEFANTASIA": "MODASVROSANA", "RAZAOSOCIAL": "DOS_SANTOS_&_AMARAL_LTDA", "ENDEE": "AVENIDA_QUINZE_DE_NOVEMBRO867__CENTRO_17250-037", "LATITUDE": "-22.0734766", "LONGITUDE": "-48.7387814", "LMAPS": "https://www.google.com/maps?q=&layer=c&cbll=-48.7387814,-22.0734766", "O_QUE_FAZER": "CARTEIRA", "ER_REGIAO_CIDADE_min": "Bariri_Araraquara" }, "geometry": { "type": "Point", "coordinates": [ -48.7387814, -22.0734766 ] } },
{ "type": "Feature", "properties": { "CNPJ": "03282706000181", "IDCIDADE": "BARIRI", "NOMEFANTASIA": "MUNDO_MAGICO", "RAZAOSOCIAL": "SANDRA_HELENA_FANTON_CANTAZINI", "ENDEE": "AVENIDA_QUINZE_DE_NOVEMBRO871__CENTRO_17250-037", "LATITUDE": "-22.0734873", "LONGITUDE": "-48.7386713", "LMAPS": "https://www.google.com/maps?q=&layer=c&cbll=-48.7386713,-22.0734873", "O_QUE_FAZER": "CARTEIRA", "ER_REGIAO_CIDADE_min": "Bariri_Araraquara" }, "geometry": { "type": "Point", "coordinates": [ -48.7386713, -22.0734873 ] } },
{ "type": "Feature", "properties": { "CNPJ": "58354630000144", "IDCIDADE": "BARIRI", "NOMEFANTASIA": "MOVEIS_SAO_JOSE", "RAZAOSOCIAL": "CAMARGO_GUIMARAES_&_CIA_LTDA", "ENDEE": "AVENIDA_QUINZE_DE_NOVEMBRO884__CENTRO_17250-037", "LATITUDE": "-22.07358", "LONGITUDE": "-48.7384869", "LMAPS": "https://www.google.com/maps?q=&layer=c&cbll=-48.7384869,-22.07358", "O_QUE_FAZER": "CARTEIRA", "ER_REGIAO_CIDADE_min": "Bariri_Araraquara" }, "geometry": { "type": "Point", "coordinates": [ -48.7384869, -22.07358 ] } },
{ "type": "Feature", "properties": { "CNPJ": "21403205000198", "IDCIDADE": "BARIRI", "NOMEFANTASIA": "A7_TINTAS", "RAZAOSOCIAL": "AMARILDO_TINTAS_E_ACESSORIOS_LTDA", "ENDEE": "AVENIDA_QUINZE_DE_NOVEMBRO889__CENTRO_17250-037", "LATITUDE": "-22.0733388", "LONGITUDE": "-48.7385693", "LMAPS": "https://www.google.com/maps?q=&layer=c&cbll=-48.7385693,-22.0733388", "O_QUE_FAZER": "CARTEIRA", "ER_REGIAO_CIDADE_min": "Bariri_Araraquara" }, "geometry": { "type": "Point", "coordinates": [ -48.7385693, -22.0733388 ] } },
{ "type": "Feature", "properties": { "CNPJ": "00905146000186", "IDCIDADE": "BARIRI", "NOMEFANTASIA": "ESSENCIA_DO_SER", "RAZAOSOCIAL": "DENISE_DASSIE_FELIPPI", "ENDEE": "AVENIDA_QUINZE_DE_NOVEMBRO904__CENTRO_17250-037", "LATITUDE": "-22.0734192", "LONGITUDE": "-48.7383517", "LMAPS": "https://www.google.com/maps?q=&layer=c&cbll=-48.7383517,-22.0734192", "O_QUE_FAZER": "CARTEIRA", "ER_REGIAO_CIDADE_min": "Bariri_Araraquara" }, "geometry": { "type": "Point", "coordinates": [ -48.7383517, -22.0734192 ] } },
{ "type": "Feature", "properties": { "CNPJ": "55920201000107", "IDCIDADE": "BARIRI", "NOMEFANTASIA": "RELOJOARIA_SOUZA", "RAZAOSOCIAL": "RELOJOARIA_SOUSA_DE_BARIRI_LTDA", "ENDEE": "AVENIDA_QUINZE_DE_NOVEMBRO932__CENTRO_17250-037", "LATITUDE": "-22.0741041", "LONGITUDE": "-48.7395725", "LMAPS": "https://www.google.com/maps?q=&layer=c&cbll=-48.7395725,-22.0741041", "O_QUE_FAZER": "CARTEIRA", "ER_REGIAO_CIDADE_min": "Bariri_Araraquara" }, "geometry": { "type": "Point", "coordinates": [ -48.7395725, -22.0741041 ] } },
{ "type": "Feature", "properties": { "CNPJ": "17754822000160", "IDCIDADE": "BARIRI", "NOMEFANTASIA": "DROGARIA_TOTAL", "RAZAOSOCIAL": "FARMAQUINZE_LTDA", "ENDEE": "AVENIDA_QUINZE_DE_NOVEMBRO962__CENTRO_17250-037", "LATITUDE": "-22.0731768", "LONGITUDE": "-48.7377669", "LMAPS": "https://www.google.com/maps?q=&layer=c&cbll=-48.7377669,-22.0731768", "O_QUE_FAZER": "CARTEIRA", "ER_REGIAO_CIDADE_min": "Bariri_Araraquara" }, "geometry": { "type": "Point", "coordinates": [ -48.7377669, -22.0731768 ] } },
{ "type": "Feature", "properties": { "CNPJ": "10349254000688", "IDCIDADE": "BARIRI", "NOMEFANTASIA": "MILK_SHAKESPEARE_E_CIA", "RAZAOSOCIAL": "JARES_&_ELAINE_LTDA", "ENDEE": "AVENIDA_QUINZE_DE_NOVEMBRO982__CENTRO_17250-037", "LATITUDE": "-22.0730141", "LONGITUDE": "-48.7377309", "LMAPS": "https://www.google.com/maps?q=&layer=c&cbll=-48.7377309,-22.0730141", "O_QUE_FAZER": "CARTEIRA", "ER_REGIAO_CIDADE_min": "Bariri_Araraquara" }, "geometry": { "type": "Point", "coordinates": [ -48.7377309, -22.0730141 ] } },
{ "type": "Feature", "properties": { "CNPJ": "09078369000272", "IDCIDADE": "BARIRI", "NOMEFANTASIA": "MOCA_BRASIL", "RAZAOSOCIAL": "MOCA_BRASIL_SHOES_COMERCIO_DE_CALCADOS_LTDA", "ENDEE": "AVENIDA_QUINZE_DE_NOVEMBRO989__CENTRO_17250-037", "LATITUDE": "-22.0728748", "LONGITUDE": "-48.7376926", "LMAPS": "https://www.google.com/maps?q=&layer=c&cbll=-48.7376926,-22.0728748", "O_QUE_FAZER": "CARTEIRA", "ER_REGIAO_CIDADE_min": "Bariri_Araraquara" }, "geometry": { "type": "Point", "coordinates": [ -48.7376926, -22.0728748 ] } },
{ "type": "Feature", "properties": { "CNPJ": "03562611000111", "IDCIDADE": "BARIRI", "NOMEFANTASIA": "NISSEI_AUTO", "RAZAOSOCIAL": "CLOVIS_YOSHIKANE_HASSEGAWA_BARIRI", "ENDEE": "AVENIDA_QUINZE_DE_NOVEMBRO99__CENTRO_17250-037", "LATITUDE": "-22.0771336", "LONGITUDE": "-48.7450616", "LMAPS": "https://www.google.com/maps?q=&layer=c&cbll=-48.7450616,-22.0771336", "O_QUE_FAZER": "CARTEIRA", "ER_REGIAO_CIDADE_min": "Bariri_Araraquara" }, "geometry": { "type": "Point", "coordinates": [ -48.7450616, -22.0771336 ] } },
{ "type": "Feature", "properties": { "CNPJ": "08328310000141", "IDCIDADE": "BARIRI", "NOMEFANTASIA": "NOSSA_CASA", "RAZAOSOCIAL": "FREITAS_E_FERRARI_-_MATERIAIS_PARA_CONSTRUCAO_LTDA", "ENDEE": "RUA_JOSE_BONIFACIO406__CENTRO_17250-037", "LATITUDE": "-22.0745335", "LONGITUDE": "-48.7412371", "LMAPS": "https://www.google.com/maps?q=&layer=c&cbll=-48.7412371,-22.0745335", "O_QUE_FAZER": "CARTEIRA", "ER_REGIAO_CIDADE_min": "Bariri_Araraquara" }, "geometry": { "type": "Point", "coordinates": [ -48.7412371, -22.0745335 ] } },
{ "type": "Feature", "properties": { "CNPJ": "17794388000142", "IDCIDADE": "BARIRI", "NOMEFANTASIA": "LC_ALARMES", "RAZAOSOCIAL": "RICARDO_ALEXANDRE_DA_SILVA_TELECOMUNICACOES", "ENDEE": "AVENIDA_CLAUDIONOR_BARBIERI1441__CENTRO_17250-061", "LATITUDE": "-22.0710759", "LONGITUDE": "-48.732834", "LMAPS": "https://www.google.com/maps?q=&layer=c&cbll=-48.732834,-22.0710759", "O_QUE_FAZER": "CARTEIRA", "ER_REGIAO_CIDADE_min": "Bariri_Araraquara" }, "geometry": { "type": "Point", "coordinates": [ -48.732834, -22.0710759 ] } },
{ "type": "Feature", "properties": { "CNPJ": "24309661000161", "IDCIDADE": "BARIRI", "NOMEFANTASIA": "BOLONELLA", "RAZAOSOCIAL": "ANDREIA_BUENO_DA_SILVA", "ENDEE": "AVENIDA_CLAUDIONOR_BARBIERI681__CENTRO_17250-061", "LATITUDE": "-22.0747511", "LONGITUDE": "-48.7391122", "LMAPS": "https://www.google.com/maps?q=&layer=c&cbll=-48.7391122,-22.0747511", "O_QUE_FAZER": "CARTEIRA", "ER_REGIAO_CIDADE_min": "Bariri_Araraquara" }, "geometry": { "type": "Point", "coordinates": [ -48.7391122, -22.0747511 ] } },
{ "type": "Feature", "properties": { "CNPJ": "14675287000164", "IDCIDADE": "BARIRI", "NOMEFANTASIA": "R7_COMUNICACAO", "RAZAOSOCIAL": "MANZUTTI_&_CUNHA_LTDA", "ENDEE": "AVENIDA_PERIMETRAL_PREFEITO_DOMINGOS_ANTONIO_FORTUNATO1065__JARDIM_PRIMAVERA_17250-061", "LATITUDE": "-22.0858065", "LONGITUDE": "-48.7271992", "LMAPS": "https://www.google.com/maps?q=&layer=c&cbll=-48.7271992,-22.0858065", "O_QUE_FAZER": "CARTEIRA", "ER_REGIAO_CIDADE_min": "Bariri_Araraquara" }, "geometry": { "type": "Point", "coordinates": [ -48.7271992, -22.0858065 ] } },
{ "type": "Feature", "properties": { "CNPJ": "30447666000153", "IDCIDADE": "BARIRI", "NOMEFANTASIA": "AGROVITORIO", "RAZAOSOCIAL": "VITORIO_&_DRAGO_PRODUTOS_AGROPECUARIOS_LTDA", "ENDEE": "AVENIDA_PERIMETRAL_PREFEITO_DOMINGOS_ANTONIO_FORTUNATO565__JARDIM_PRIMAVERA_17250-061", "LATITUDE": "-22.0853514", "LONGITUDE": "-48.7350912", "LMAPS": "https://www.google.com/maps?q=&layer=c&cbll=-48.7350912,-22.0853514", "O_QUE_FAZER": "CARTEIRA", "ER_REGIAO_CIDADE_min": "Bariri_Araraquara" }, "geometry": { "type": "Point", "coordinates": [ -48.7350912, -22.0853514 ] } },
{ "type": "Feature", "properties": { "CNPJ": "27563509000107", "IDCIDADE": "BARIRI", "NOMEFANTASIA": "LUMINUS", "RAZAOSOCIAL": "LUMINNUS_INDUSTRIA_E_COMERCIO_LTDA", "ENDEE": "RUA_LUCIA_BOLLINI18__JARDIM_YANG_III_17250-061", "LATITUDE": "-22.0795658", "LONGITUDE": "-48.7302085", "LMAPS": "https://www.google.com/maps?q=&layer=c&cbll=-48.7302085,-22.0795658", "O_QUE_FAZER": "CARTEIRA", "ER_REGIAO_CIDADE_min": "Bariri_Araraquara" }, "geometry": { "type": "Point", "coordinates": [ -48.7302085, -22.0795658 ] } },
{ "type": "Feature", "properties": { "CNPJ": "31390698000122", "IDCIDADE": "BARIRI", "NOMEFANTASIA": "MN_PECAS", "RAZAOSOCIAL": "SOLANGE_APARECIDA_SONETTI", "ENDEE": "RUA_PEDRO_L_PEGORIM113__JARDIM_YANG_III_17250-061", "LATITUDE": "-22.0835077", "LONGITUDE": "-48.7299032", "LMAPS": "https://www.google.com/maps?q=&layer=c&cbll=-48.7299032,-22.0835077", "O_QUE_FAZER": "CARTEIRA", "ER_REGIAO_CIDADE_min": "Bariri_Araraquara" }, "geometry": { "type": "Point", "coordinates": [ -48.7299032, -22.0835077 ] } },
{ "type": "Feature", "properties": { "CNPJ": "44495554000182", "IDCIDADE": "BARIRI", "NOMEFANTASIA": "COMERCIAL_PREGON", "RAZAOSOCIAL": "COMERCIAL_PREGON_DE_MATERIAL_ELETRICO_LTDA.", "ENDEE": "RUA_RODRIGUES_ALVES254__CENTRO_17250-061", "LATITUDE": "-22.0722736", "LONGITUDE": "-48.7369714", "LMAPS": "https://www.google.com/maps?q=&layer=c&cbll=-48.7369714,-22.0722736", "O_QUE_FAZER": "CARTEIRA", "ER_REGIAO_CIDADE_min": "Bariri_Araraquara" }, "geometry": { "type": "Point", "coordinates": [ -48.7369714, -22.0722736 ] } },
{ "type": "Feature", "properties": { "CNPJ": "49317479000183", "IDCIDADE": "BARIRI", "NOMEFANTASIA": "CASA_DE_CARNES_DA_FAZENDA", "RAZAOSOCIAL": "CASA_DE_CARNES_DA_FAZENDA_LTDA", "ENDEE": "RUA_RODRIGUES_ALVES279__CENTRO_17250-061", "LATITUDE": "-22.0724777", "LONGITUDE": "-48.7368531", "LMAPS": "https://www.google.com/maps?q=&layer=c&cbll=-48.7368531,-22.0724777", "O_QUE_FAZER": "CARTEIRA", "ER_REGIAO_CIDADE_min": "Bariri_Araraquara" }, "geometry": { "type": "Point", "coordinates": [ -48.7368531, -22.0724777 ] } },
{ "type": "Feature", "properties": { "CNPJ": "11336699000181", "IDCIDADE": "BARIRI", "NOMEFANTASIA": "RAFAEL_CALHAS", "RAZAOSOCIAL": "RAFAEL_DA_SILVA_COMERCIO_E_SERVICOS", "ENDEE": "RUA_SEBASTIAO_REYNALDO_ADORNO_CAMARGO8__JARDIM_PRIMAVERA_17250-061", "LATITUDE": "-22.0861285", "LONGITUDE": "-48.7329509", "LMAPS": "https://www.google.com/maps?q=&layer=c&cbll=-48.7329509,-22.0861285", "O_QUE_FAZER": "CARTEIRA", "ER_REGIAO_CIDADE_min": "Bariri_Araraquara" }, "geometry": { "type": "Point", "coordinates": [ -48.7329509, -22.0861285 ] } },
{ "type": "Feature", "properties": { "CNPJ": "68131739000176", "IDCIDADE": "BARIRI", "NOMEFANTASIA": "LENA_FLORES", "RAZAOSOCIAL": "FLORICULTURA_LENA_FLORES_DE_BARIRI_LTDA", "ENDEE": "RUA_CAMPOS_SALLES290__CENTRO_17250-063", "LATITUDE": "-22.0724537", "LONGITUDE": "-48.7380666", "LMAPS": "https://www.google.com/maps?q=&layer=c&cbll=-48.7380666,-22.0724537", "O_QUE_FAZER": "CARTEIRA", "ER_REGIAO_CIDADE_min": "Bariri_Araraquara" }, "geometry": { "type": "Point", "coordinates": [ -48.7380666, -22.0724537 ] } },
{ "type": "Feature", "properties": { "CNPJ": "09417513000177", "IDCIDADE": "BARIRI", "NOMEFANTASIA": "CASA_DAS_IMPRESSORAS", "RAZAOSOCIAL": "CASA_DAS_IMPRESSORAS_BARIRI_LTDA.", "ENDEE": "AVENIDA_ANTONIO_JOSE_DA_SILVA143__CENTRO_17250-073", "LATITUDE": "-22.0719438", "LONGITUDE": "-48.7427805", "LMAPS": "https://www.google.com/maps?q=&layer=c&cbll=-48.7427805,-22.0719438", "O_QUE_FAZER": "CARTEIRA", "ER_REGIAO_CIDADE_min": "Bariri_Araraquara" }, "geometry": { "type": "Point", "coordinates": [ -48.7427805, -22.0719438 ] } },
{ "type": "Feature", "properties": { "CNPJ": "03523343000129", "IDCIDADE": "BARIRI", "NOMEFANTASIA": "CMC_BRINQUEDO", "RAZAOSOCIAL": "CARLA_ADALGISA_QUIDIQUIMO_BARROS_MUZARDO", "ENDEE": "AVENIDA_DOM_PEDRO_II20__CENTRO_17250-075", "LATITUDE": "-22.0743184", "LONGITUDE": "-48.7431112", "LMAPS": "https://www.google.com/maps?q=&layer=c&cbll=-48.7431112,-22.0743184", "O_QUE_FAZER": "CARTEIRA", "ER_REGIAO_CIDADE_min": "Bariri_Araraquara" }, "geometry": { "type": "Point", "coordinates": [ -48.7431112, -22.0743184 ] } },
{ "type": "Feature", "properties": { "CNPJ": "55818488000150", "IDCIDADE": "BARIRI", "NOMEFANTASIA": "PALEARI_AUTO_MECANICA", "RAZAOSOCIAL": "MAURO_APARECIDO_PALEARI", "ENDEE": "AVENIDA_MARIO_GARALDI200__CENTRO_17250-075", "LATITUDE": "-22.0744579", "LONGITUDE": "-48.7438969", "LMAPS": "https://www.google.com/maps?q=&layer=c&cbll=-48.7438969,-22.0744579", "O_QUE_FAZER": "CARTEIRA", "ER_REGIAO_CIDADE_min": "Bariri_Araraquara" }, "geometry": { "type": "Point", "coordinates": [ -48.7438969, -22.0744579 ] } },
{ "type": "Feature", "properties": { "CNPJ": "58456880000195", "IDCIDADE": "BARIRI", "NOMEFANTASIA": "VALE_DO_TIETE", "RAZAOSOCIAL": "MUSARDO_&_BONATELLI_LTDA", "ENDEE": "RUA_EUCLYDES_GABR_CORREIA200__CENTRO_17250-075", "LATITUDE": "-22.0744571", "LONGITUDE": "-48.7474299", "LMAPS": "https://www.google.com/maps?q=&layer=c&cbll=-48.7474299,-22.0744571", "O_QUE_FAZER": "CARTEIRA", "ER_REGIAO_CIDADE_min": "Bariri_Araraquara" }, "geometry": { "type": "Point", "coordinates": [ -48.7474299, -22.0744571 ] } },
{ "type": "Feature", "properties": { "CNPJ": "06070845000130", "IDCIDADE": "BARIRI", "NOMEFANTASIA": "AMORE", "RAZAOSOCIAL": "FACIN_&_FACIN_COMERCIO_DE_CONFECCOES_LTDA", "ENDEE": "RUA_TIRADENTES385__CENTRO_17250-075", "LATITUDE": "-22.0739709", "LONGITUDE": "-48.7389144", "LMAPS": "https://www.google.com/maps?q=&layer=c&cbll=-48.7389144,-22.0739709", "O_QUE_FAZER": "CARTEIRA", "ER_REGIAO_CIDADE_min": "Bariri_Araraquara" }, "geometry": { "type": "Point", "coordinates": [ -48.7389144, -22.0739709 ] } },
{ "type": "Feature", "properties": { "CNPJ": "69169019000162", "IDCIDADE": "BARIRI", "NOMEFANTASIA": "BEM_BOLADO", "RAZAOSOCIAL": "CINEGAGLIA-COMERCIO_DE_CONFECCOES_LTDA", "ENDEE": "RUA_TIRADENTES426__CENTRO_17250-075", "LATITUDE": "-22.0744601", "LONGITUDE": "-48.7389813", "LMAPS": "https://www.google.com/maps?q=&layer=c&cbll=-48.7389813,-22.0744601", "O_QUE_FAZER": "CARTEIRA", "ER_REGIAO_CIDADE_min": "Bariri_Araraquara" }, "geometry": { "type": "Point", "coordinates": [ -48.7389813, -22.0744601 ] } },
{ "type": "Feature", "properties": { "CNPJ": "29688406000190", "IDCIDADE": "BARIRI", "NOMEFANTASIA": "NOVA_GERACAO", "RAZAOSOCIAL": "AUTO_ESCOLA_NOVA_GERACAO_LTDA", "ENDEE": "RUA_TIRADENTES603__CENTRO_17250-075", "LATITUDE": "-22.0757242", "LONGITUDE": "-48.7380063", "LMAPS": "https://www.google.com/maps?q=&layer=c&cbll=-48.7380063,-22.0757242", "O_QUE_FAZER": "CARTEIRA", "ER_REGIAO_CIDADE_min": "Bariri_Araraquara" }, "geometry": { "type": "Point", "coordinates": [ -48.7380063, -22.0757242 ] } },
{ "type": "Feature", "properties": { "CNPJ": "44687531000170", "IDCIDADE": "BARIRI", "NOMEFANTASIA": "ALVORADA_MATERIAL_CONSTRUCAO", "RAZAOSOCIAL": "QUEIROZ_&_QUEIROZ_LTDA", "ENDEE": "RUA_SETE_DE_SETEMBRO1023__CENTRO_17250-089", "LATITUDE": "-22.0748114", "LONGITUDE": "-48.7420109", "LMAPS": "https://www.google.com/maps?q=&layer=c&cbll=-48.7420109,-22.0748114", "O_QUE_FAZER": "CARTEIRA", "ER_REGIAO_CIDADE_min": "Bariri_Araraquara" }, "geometry": { "type": "Point", "coordinates": [ -48.7420109, -22.0748114 ] } },
{ "type": "Feature", "properties": { "CNPJ": "10400297000136", "IDCIDADE": "BARIRI", "NOMEFANTASIA": "1_REAL_SHOPPING", "RAZAOSOCIAL": "N_CARRARA", "ENDEE": "RUA_SETE_DE_SETEMBRO1024__CENTRO_17250-089", "LATITUDE": "-22.0749279", "LONGITUDE": "-48.7420375", "LMAPS": "https://www.google.com/maps?q=&layer=c&cbll=-48.7420375,-22.0749279", "O_QUE_FAZER": "CARTEIRA", "ER_REGIAO_CIDADE_min": "Bariri_Araraquara" }, "geometry": { "type": "Point", "coordinates": [ -48.7420375, -22.0749279 ] } },
{ "type": "Feature", "properties": { "CNPJ": "08898894000190", "IDCIDADE": "BARIRI", "NOMEFANTASIA": "OTICA_FOCO", "RAZAOSOCIAL": "GASPAROTI_&_BUENO_OPTICA_LTDA", "ENDEE": "RUA_SETE_DE_SETEMBRO1186__CENTRO_17250-089", "LATITUDE": "-22.0762293", "LONGITUDE": "-48.7412406", "LMAPS": "https://www.google.com/maps?q=&layer=c&cbll=-48.7412406,-22.0762293", "O_QUE_FAZER": "CARTEIRA", "ER_REGIAO_CIDADE_min": "Bariri_Araraquara" }, "geometry": { "type": "Point", "coordinates": [ -48.7412406, -22.0762293 ] } },
{ "type": "Feature", "properties": { "CNPJ": "30917763000162", "IDCIDADE": "BARIRI", "NOMEFANTASIA": "PAO_DE_OURO", "RAZAOSOCIAL": "PADARIA_PAO_DE_OURO_PREMIUM_LTDA", "ENDEE": "RUA_SETE_DE_SETEMBRO332__CENTRO_17250-089", "LATITUDE": "-22.0696812", "LONGITUDE": "-48.7456677", "LMAPS": "https://www.google.com/maps?q=&layer=c&cbll=-48.7456677,-22.0696812", "O_QUE_FAZER": "CARTEIRA", "ER_REGIAO_CIDADE_min": "Bariri_Araraquara" }, "geometry": { "type": "Point", "coordinates": [ -48.7456677, -22.0696812 ] } },
{ "type": "Feature", "properties": { "CNPJ": "10703466000107", "IDCIDADE": "BARIRI", "NOMEFANTASIA": "VISTORI", "RAZAOSOCIAL": "MONTANI_&_AGUIAR_VISTORIAS_LTDA", "ENDEE": "RUA_SETE_DE_SETEMBRO336__CENTRO_17250-089", "LATITUDE": "-22.0698589", "LONGITUDE": "-48.7456851", "LMAPS": "https://www.google.com/maps?q=&layer=c&cbll=-48.7456851,-22.0698589", "O_QUE_FAZER": "CARTEIRA", "ER_REGIAO_CIDADE_min": "Bariri_Araraquara" }, "geometry": { "type": "Point", "coordinates": [ -48.7456851, -22.0698589 ] } },
{ "type": "Feature", "properties": { "CNPJ": "10746266000131", "IDCIDADE": "BARIRI", "NOMEFANTASIA": "SOS_VET", "RAZAOSOCIAL": "DANILO_OREFICE_MICHELASSI", "ENDEE": "RUA_SETE_DE_SETEMBRO491__CENTRO_17250-089", "LATITUDE": "-22.0709617", "LONGITUDE": "-48.7445479", "LMAPS": "https://www.google.com/maps?q=&layer=c&cbll=-48.7445479,-22.0709617", "O_QUE_FAZER": "CARTEIRA", "ER_REGIAO_CIDADE_min": "Bariri_Araraquara" }, "geometry": { "type": "Point", "coordinates": [ -48.7445479, -22.0709617 ] } },
{ "type": "Feature", "properties": { "CNPJ": "44075850000124", "IDCIDADE": "BARIRI", "NOMEFANTASIA": "EMPORIO_UMUARAMA", "RAZAOSOCIAL": "EMPORIO_JARDIM_UMUARAMA_LTDA", "ENDEE": "RUA_SETE_DE_SETEMBRO56__CENTRO_17250-089", "LATITUDE": "-22.0686251", "LONGITUDE": "-48.746094", "LMAPS": "https://www.google.com/maps?q=&layer=c&cbll=-48.746094,-22.0686251", "O_QUE_FAZER": "CARTEIRA", "ER_REGIAO_CIDADE_min": "Bariri_Araraquara" }, "geometry": { "type": "Point", "coordinates": [ -48.746094, -22.0686251 ] } },
{ "type": "Feature", "properties": { "CNPJ": "49858947000127", "IDCIDADE": "BARIRI", "NOMEFANTASIA": "LOJA_ZANOTTI", "RAZAOSOCIAL": "ANA_PAULA_ZANOTTI_&_CIA_LTDA.", "ENDEE": "RUA_SETE_DE_SETEMBRO808__CENTRO_17250-089", "LATITUDE": "-22.0732872", "LONGITUDE": "-48.7431668", "LMAPS": "https://www.google.com/maps?q=&layer=c&cbll=-48.7431668,-22.0732872", "O_QUE_FAZER": "CARTEIRA", "ER_REGIAO_CIDADE_min": "Bariri_Araraquara" }, "geometry": { "type": "Point", "coordinates": [ -48.7431668, -22.0732872 ] } },
{ "type": "Feature", "properties": { "CNPJ": "01172608000166", "IDCIDADE": "BARIRI", "NOMEFANTASIA": "AGUANIL", "RAZAOSOCIAL": "JF_COMERCIO_DE_PISCINAS_E_ACESSORIOS_LTDA", "ENDEE": "RUA_SETE_DE_SETEMBRO907__CENTRO_17250-089", "LATITUDE": "-22.0738552", "LONGITUDE": "-48.7425831", "LMAPS": "https://www.google.com/maps?q=&layer=c&cbll=-48.7425831,-22.0738552", "O_QUE_FAZER": "CARTEIRA", "ER_REGIAO_CIDADE_min": "Bariri_Araraquara" }, "geometry": { "type": "Point", "coordinates": [ -48.7425831, -22.0738552 ] } },
{ "type": "Feature", "properties": { "CNPJ": "30779723000100", "IDCIDADE": "BARIRI", "NOMEFANTASIA": "IMOBILIARIA_LIDER", "RAZAOSOCIAL": "LIDER_-_IMOBILIARIA_E_ADMINISTRADORA_DE_IMOVEIS_LTDA", "ENDEE": "RUA_SETE_DE_SETEMBRO942__CENTRO_17250-089", "LATITUDE": "-22.0743009", "LONGITUDE": "-48.742545", "LMAPS": "https://www.google.com/maps?q=&layer=c&cbll=-48.742545,-22.0743009", "O_QUE_FAZER": "CARTEIRA", "ER_REGIAO_CIDADE_min": "Bariri_Araraquara" }, "geometry": { "type": "Point", "coordinates": [ -48.742545, -22.0743009 ] } },
{ "type": "Feature", "properties": { "CNPJ": "69320224000187", "IDCIDADE": "BARIRI", "NOMEFANTASIA": "ZANOTTI_STORE", "RAZAOSOCIAL": "ANTONIO_TADEU_ZANOTTI", "ENDEE": "RUA_SETE_DE_SETEMBRO969__CENTRO_17250-089", "LATITUDE": "-22.0743886", "LONGITUDE": "-48.74222", "LMAPS": "https://www.google.com/maps?q=&layer=c&cbll=-48.74222,-22.0743886", "O_QUE_FAZER": "CARTEIRA", "ER_REGIAO_CIDADE_min": "Bariri_Araraquara" }, "geometry": { "type": "Point", "coordinates": [ -48.74222, -22.0743886 ] } },
{ "type": "Feature", "properties": { "CNPJ": "41707392000100", "IDCIDADE": "BARIRI", "NOMEFANTASIA": "STAR_FITNESS", "RAZAOSOCIAL": "MARCIA_S_S_DA_OLIVEIRA_ACADEMIA_LTDA", "ENDEE": "AVENIDA_FLORIANO_PEIXOTO520__CENTRO_17250-166", "LATITUDE": "-22.0714064", "LONGITUDE": "-48.741871", "LMAPS": "https://www.google.com/maps?q=&layer=c&cbll=-48.741871,-22.0714064", "O_QUE_FAZER": "CARTEIRA", "ER_REGIAO_CIDADE_min": "Bariri_Araraquara" }, "geometry": { "type": "Point", "coordinates": [ -48.741871, -22.0714064 ] } },
{ "type": "Feature", "properties": { "CNPJ": "41807372000101", "IDCIDADE": "BARIRI", "NOMEFANTASIA": "NOCAUTE_VISTORIA", "RAZAOSOCIAL": "NOCAUTE_VISTORIA_VEICULAR_LTDA", "ENDEE": "RUA_PRUDENTE_DE_MORAES45__JARDIM_NOVA_BARIRI_17250-244", "LATITUDE": "-22.0707412", "LONGITUDE": "-48.7353308", "LMAPS": "https://www.google.com/maps?q=&layer=c&cbll=-48.7353308,-22.0707412", "O_QUE_FAZER": "CARTEIRA", "ER_REGIAO_CIDADE_min": "Bariri_Araraquara" }, "geometry": { "type": "Point", "coordinates": [ -48.7353308, -22.0707412 ] } },
{ "type": "Feature", "properties": { "CNPJ": "10765003000170", "IDCIDADE": "BARIRI", "NOMEFANTASIA": "CHURRASCARIA_PARRAGA", "RAZAOSOCIAL": "CHURRASCARIA_PARRAGA_LTDA", "ENDEE": "AVENIDA_CLAUDIONOR_BARBIERI1919__JARDIM_ESPLANADA_17250-400", "LATITUDE": "-22.0686298", "LONGITUDE": "-48.7290157", "LMAPS": "https://www.google.com/maps?q=&layer=c&cbll=-48.7290157,-22.0686298", "O_QUE_FAZER": "CARTEIRA", "ER_REGIAO_CIDADE_min": "Bariri_Araraquara" }, "geometry": { "type": "Point", "coordinates": [ -48.7290157, -22.0686298 ] } },
{ "type": "Feature", "properties": { "CNPJ": "15229572000114", "IDCIDADE": "BARIRI", "NOMEFANTASIA": "RECAR", "RAZAOSOCIAL": "RECAR_AUTOCAM_COMERCIO_DE_PECAS,_PNEUS_E_SERVICOS_AUTOMOTIVOS_LTDA", "ENDEE": "AVENIDA_DOMINGOS_LIBONATI436__JARDIM_ESPLANADA_17250-408", "LATITUDE": "-22.0706249", "LONGITUDE": "-48.7267331", "LMAPS": "https://www.google.com/maps?q=&layer=c&cbll=-48.7267331,-22.0706249", "O_QUE_FAZER": "CARTEIRA", "ER_REGIAO_CIDADE_min": "Bariri_Araraquara" }, "geometry": { "type": "Point", "coordinates": [ -48.7267331, -22.0706249 ] } },
{ "type": "Feature", "properties": { "CNPJ": "52175932000179", "IDCIDADE": "BARIRI", "NOMEFANTASIA": "DISTRIBUIDORA_APOLLLO", "RAZAOSOCIAL": "DISTRIBUIDORA_APOLO_DE_SACARIAS_LTDA", "ENDEE": "AVENIDA_DOMINGOS_LIBONATI500__JARDIM_ESPLANADA_17250-408", "LATITUDE": "-22.0696884", "LONGITUDE": "-48.7274141", "LMAPS": "https://www.google.com/maps?q=&layer=c&cbll=-48.7274141,-22.0696884", "O_QUE_FAZER": "CARTEIRA", "ER_REGIAO_CIDADE_min": "Bariri_Araraquara" }, "geometry": { "type": "Point", "coordinates": [ -48.7274141, -22.0696884 ] } },
{ "type": "Feature", "properties": { "CNPJ": "28443159000108", "IDCIDADE": "BARIRI", "NOMEFANTASIA": "CASA_BRASIL_PISCINAS", "RAZAOSOCIAL": "CLAUDIO_P._DE_LIMA", "ENDEE": "AVENIDA_ENGENHEIRO_IVANIL_FRANCISCHINI560__JARDIM_ESPLANADA_17250-412", "LATITUDE": "-22.0711874", "LONGITUDE": "-48.7267442", "LMAPS": "https://www.google.com/maps?q=&layer=c&cbll=-48.7267442,-22.0711874", "O_QUE_FAZER": "CARTEIRA", "ER_REGIAO_CIDADE_min": "Bariri_Araraquara" }, "geometry": { "type": "Point", "coordinates": [ -48.7267442, -22.0711874 ] } },
{ "type": "Feature", "properties": { "CNPJ": "04231872000111", "IDCIDADE": "BARIRI", "NOMEFANTASIA": "TECNOFLY", "RAZAOSOCIAL": "TECNOFLY_INDUSTRIA_E_SERVICOS_LTDA", "ENDEE": "RUA_PASCHOAL_BOLLINI355__JARDIM_ESPLANADA_17250-412", "LATITUDE": "-22.0700338", "LONGITUDE": "-48.728478", "LMAPS": "https://www.google.com/maps?q=&layer=c&cbll=-48.728478,-22.0700338", "O_QUE_FAZER": "CARTEIRA", "ER_REGIAO_CIDADE_min": "Bariri_Araraquara" }, "geometry": { "type": "Point", "coordinates": [ -48.728478, -22.0700338 ] } },
{ "type": "Feature", "properties": { "CNPJ": "06235521000104", "IDCIDADE": "BARIRI", "NOMEFANTASIA": "COMERCIAL_BARIRINSE", "RAZAOSOCIAL": "COMERCIAL_BARIRIENSE_DE_PECAS_HIDRAULICAS_E_AGRICOLAS_LTDA", "ENDEE": "RUA_FRANCISCO_MUNHOZ_CEGARRA385__CENTRO_17253-132", "LATITUDE": "-22.0783879", "LONGITUDE": "-48.7372124", "LMAPS": "https://www.google.com/maps?q=&layer=c&cbll=-48.7372124,-22.0783879", "O_QUE_FAZER": "CARTEIRA", "ER_REGIAO_CIDADE_min": "Bariri_Araraquara" }, "geometry": { "type": "Point", "coordinates": [ -48.7372124, -22.0783879 ] } },
{ "type": "Feature", "properties": { "CNPJ": "09532640000117", "IDCIDADE": "BARIRI", "NOMEFANTASIA": "UNIAOMAT", "RAZAOSOCIAL": "COMERCIO_DE_MATERIAIS_PARA_CONSTRUCAO_MARIA_LUIZA_LTDA", "ENDEE": "RUA_FRANCISCO_MUNHOZ_CEGARRA809__CENTRO_17253-132", "LATITUDE": "-22.0819595", "LONGITUDE": "-48.7346909", "LMAPS": "https://www.google.com/maps?q=&layer=c&cbll=-48.7346909,-22.0819595", "O_QUE_FAZER": "CARTEIRA", "ER_REGIAO_CIDADE_min": "Bariri_Araraquara" }, "geometry": { "type": "Point", "coordinates": [ -48.7346909, -22.0819595 ] } },
{ "type": "Feature", "properties": { "CNPJ": "01372334000159", "IDCIDADE": "BARIRI", "NOMEFANTASIA": "XODO_RESTAURANTE", "RAZAOSOCIAL": "XODO_PETRA_LANCHES_E_REFEICOES_LTDA", "ENDEE": "RUA_BENY_MACENA228__CIDADE_JARDIM_17253-168", "LATITUDE": "-22.084439", "LONGITUDE": "-48.738767", "LMAPS": "https://www.google.com/maps?q=&layer=c&cbll=-48.738767,-22.084439", "O_QUE_FAZER": "CARTEIRA", "ER_REGIAO_CIDADE_min": "Bariri_Araraquara" }, "geometry": { "type": "Point", "coordinates": [ -48.738767, -22.084439 ] } },
{ "type": "Feature", "properties": { "CNPJ": "31314572000179", "IDCIDADE": "BARIRI", "NOMEFANTASIA": "LA_BSMBA", "RAZAOSOCIAL": "RACHEL_MANZUTTI_COSTA_DA_SILVA", "ENDEE": "AVENIDA_PREFEITO_DOMINGOS_ANTONIO_FORTUNATO125__POLO_JOSE_DURANTE_JUNIOR_17253-580", "LATITUDE": "-22.0842438", "LONGITUDE": "-48.7399772", "LMAPS": "https://www.google.com/maps?q=&layer=c&cbll=-48.7399772,-22.0842438", "O_QUE_FAZER": "CARTEIRA", "ER_REGIAO_CIDADE_min": "Bariri_Araraquara" }, "geometry": { "type": "Point", "coordinates": [ -48.7399772, -22.0842438 ] } },
{ "type": "Feature", "properties": { "CNPJ": "37256835000117", "IDCIDADE": "BARIRI", "NOMEFANTASIA": "BARBIERI_TRANSPORTES", "RAZAOSOCIAL": "BARBIERI_TRANSPORTE_E_TURISMO_LTDA", "ENDEE": "AVENIDA_PREFEITO_DOMINGOS_ANTONIO_FORTUNATO140__POLO_JOSE_DURANTE_JUNIOR_17253-580", "LATITUDE": "-22.0842837", "LONGITUDE": "-48.7396115", "LMAPS": "https://www.google.com/maps?q=&layer=c&cbll=-48.7396115,-22.0842837", "O_QUE_FAZER": "CARTEIRA", "ER_REGIAO_CIDADE_min": "Bariri_Araraquara" }, "geometry": { "type": "Point", "coordinates": [ -48.7396115, -22.0842837 ] } },
{ "type": "Feature", "properties": { "CNPJ": "13381098000116", "IDCIDADE": "BARIRI", "NOMEFANTASIA": "TEC_CAR", "RAZAOSOCIAL": "BUSSADA_MECANICA_FUNILARIA_E_PINTURA_LTDA", "ENDEE": "AVENIDA_PREFEITO_DOMINGOS_ANTONIO_FORTUNATO165__POLO_JOSE_DURANTE_JUNIOR_17253-580", "LATITUDE": "-22.0844835", "LONGITUDE": "-48.7408678", "LMAPS": "https://www.google.com/maps?q=&layer=c&cbll=-48.7408678,-22.0844835", "O_QUE_FAZER": "CARTEIRA", "ER_REGIAO_CIDADE_min": "Bariri_Araraquara" }, "geometry": { "type": "Point", "coordinates": [ -48.7408678, -22.0844835 ] } },
{ "type": "Feature", "properties": { "CNPJ": "10815499000149", "IDCIDADE": "BARIRI", "NOMEFANTASIA": "OFICIADO_TITAO", "RAZAOSOCIAL": "TITAO_PECAS_E_SERVICOS_LTDA", "ENDEE": "AVENIDA_PREFEITO_DOMINGOS_ANTONIO_FORTUNATO325__POLO_JOSE_DURANTE_JUNIOR_17253-580", "LATITUDE": "-22.0847526", "LONGITUDE": "-48.7391545", "LMAPS": "https://www.google.com/maps?q=&layer=c&cbll=-48.7391545,-22.0847526", "O_QUE_FAZER": "CARTEIRA", "ER_REGIAO_CIDADE_min": "Bariri_Araraquara" }, "geometry": { "type": "Point", "coordinates": [ -48.7391545, -22.0847526 ] } },
{ "type": "Feature", "properties": { "CNPJ": "47206042000147", "IDCIDADE": "BARIRI", "NOMEFANTASIA": "SALINAS_MERCADO", "RAZAOSOCIAL": "SERGIO_SALINA_JUNIOR_LTDA", "ENDEE": "ESTRADA_MUNICIPAL_MIGUEL_COSCIA30__RESIDENCIAL_VIVA_MAIS_BARIRI_17253-580", "LATITUDE": "-22.0853743", "LONGITUDE": "-48.7253063", "LMAPS": "https://www.google.com/maps?q=&layer=c&cbll=-48.7253063,-22.0853743", "O_QUE_FAZER": "CARTEIRA", "ER_REGIAO_CIDADE_min": "Bariri_Araraquara" }, "geometry": { "type": "Point", "coordinates": [ -48.7253063, -22.0853743 ] } },
{ "type": "Feature", "properties": { "CNPJ": "01179158000133", "IDCIDADE": "BARIRI", "NOMEFANTASIA": "RTB_AGROPECUARIA", "RAZAOSOCIAL": "R.T.B._COMERCIO_DE_RACOES_LTDA", "ENDEE": "AVENIDA_PREFEITO_DOMINGOS_ANTONIO_FORTUNATO1410__JARDIM_ATENAS_17253-590", "LATITUDE": "-22.0852448", "LONGITUDE": "-48.7314413", "LMAPS": "https://www.google.com/maps?q=&layer=c&cbll=-48.7314413,-22.0852448", "O_QUE_FAZER": "CARTEIRA", "ER_REGIAO_CIDADE_min": "Bariri_Araraquara" }, "geometry": { "type": "Point", "coordinates": [ -48.7314413, -22.0852448 ] } },
{ "type": "Feature", "properties": { "CNPJ": "48087834000102", "IDCIDADE": "BARIRI", "NOMEFANTASIA": "AUTO_AR", "RAZAOSOCIAL": "AUTO_AR_AR_CONDICIONADO_AUTOMOTIVO_LTDA", "ENDEE": "AVENIDA_PREFEITO_DOMINGOS_ANTONIO_FORTUNATO756__JARDIM_ATENAS_17253-590", "LATITUDE": "-22.0835528", "LONGITUDE": "-48.7243629", "LMAPS": "https://www.google.com/maps?q=&layer=c&cbll=-48.7243629,-22.0835528", "O_QUE_FAZER": "CARTEIRA", "ER_REGIAO_CIDADE_min": "Bariri_Araraquara" }, "geometry": { "type": "Point", "coordinates": [ -48.7243629, -22.0835528 ] } },
{ "type": "Feature", "properties": { "CNPJ": "03341836000148", "IDCIDADE": "BARIRI", "NOMEFANTASIA": "BRITOMATERIAL_CONSTRUCAO", "RAZAOSOCIAL": "ANTONIO_MAURICIO_DE_BRITO", "ENDEE": "RUA_LUIZ_PITTON13__LOT_BRASIL_500_17255-756", "LATITUDE": "-22.0847694", "LONGITUDE": "-48.7446826", "LMAPS": "https://www.google.com/maps?q=&layer=c&cbll=-48.7446826,-22.0847694", "O_QUE_FAZER": "CARTEIRA", "ER_REGIAO_CIDADE_min": "Bariri_Araraquara" }, "geometry": { "type": "Point", "coordinates": [ -48.7446826, -22.0847694 ] } },
{ "type": "Feature", "properties": { "CNPJ": "08947070000163", "IDCIDADE": "BARIRI", "NOMEFANTASIA": "CASA_DA_CONSTRUCAO", "RAZAOSOCIAL": "VALTER_VALENTIM_TEBALDI_JUNIOR", "ENDEE": "RUA_PROFESSOR_JOSE_FRANCISCO_BARBIERI480__BRASIL_500_17255-756", "LATITUDE": "-22.0869123", "LONGITUDE": "-48.7487469", "LMAPS": "https://www.google.com/maps?q=&layer=c&cbll=-48.7487469,-22.0869123", "O_QUE_FAZER": "CARTEIRA", "ER_REGIAO_CIDADE_min": "Bariri_Araraquara" }, "geometry": { "type": "Point", "coordinates": [ -48.7487469, -22.0869123 ] } },
{ "type": "Feature", "properties": { "CNPJ": "52883014000102", "IDCIDADE": "BARIRI", "NOMEFANTASIA": "AUTO_ELETRICA_BEIRA_RIO", "RAZAOSOCIAL": "AUTO_ELETRO_BEIRA_RIO_LTDA", "ENDEE": "AVENIDA_BENEDITO_P_DE_AGUIAR342__CENTRO_17257-000", "LATITUDE": "-22.0756914", "LONGITUDE": "-48.7442308", "LMAPS": "https://www.google.com/maps?q=&layer=c&cbll=-48.7442308,-22.0756914", "O_QUE_FAZER": "CARTEIRA", "ER_REGIAO_CIDADE_min": "Bariri_Araraquara" }, "geometry": { "type": "Point", "coordinates": [ -48.7442308, -22.0756914 ] } },
{ "type": "Feature", "properties": { "CNPJ": "02269809000149", "IDCIDADE": "BARIRI", "NOMEFANTASIA": "AUTO_PECAS_ZEZAO", "RAZAOSOCIAL": "DIZEZAO_PECAS_E_SERVICOS_LTDA", "ENDEE": "AVENIDA_JOAO_LEMOS1255__VILA_CONCEICAO_17257-000", "LATITUDE": "-22.0706454", "LONGITUDE": "-48.7353508", "LMAPS": "https://www.google.com/maps?q=&layer=c&cbll=-48.7353508,-22.0706454", "O_QUE_FAZER": "CARTEIRA", "ER_REGIAO_CIDADE_min": "Bariri_Araraquara" }, "geometry": { "type": "Point", "coordinates": [ -48.7353508, -22.0706454 ] } },
{ "type": "Feature", "properties": { "CNPJ": "37256809000199", "IDCIDADE": "BARIRI", "NOMEFANTASIA": "PADARIA_NOSSA_SRA_FATIMA", "RAZAOSOCIAL": "ANA_CAROLINA_RAMOS_DELFITO", "ENDEE": "AVENIDA_JOAO_LEMOS229__VILA_CONCEICAO_17257-000", "LATITUDE": "-22.076217", "LONGITUDE": "-48.7461392", "LMAPS": "https://www.google.com/maps?q=&layer=c&cbll=-48.7461392,-22.076217", "O_QUE_FAZER": "CARTEIRA", "ER_REGIAO_CIDADE_min": "Bariri_Araraquara" }, "geometry": { "type": "Point", "coordinates": [ -48.7461392, -22.076217 ] } },
{ "type": "Feature", "properties": { "CNPJ": "02143091000140", "IDCIDADE": "BARIRI", "NOMEFANTASIA": "PANIFICADORA_NOVA_BARIRI", "RAZAOSOCIAL": "PANIFICADORA_NOVA_BARIRI_LTDA", "ENDEE": "AVENIDA_PROFESSOR_ROSA_BENATTI232__JARDIM_NOVA_BARIRI_17257-000", "LATITUDE": "-22.0665976", "LONGITUDE": "-48.7346727", "LMAPS": "https://www.google.com/maps?q=&layer=c&cbll=-48.7346727,-22.0665976", "O_QUE_FAZER": "CARTEIRA", "ER_REGIAO_CIDADE_min": "Bariri_Araraquara" }, "geometry": { "type": "Point", "coordinates": [ -48.7346727, -22.0665976 ] } },
{ "type": "Feature", "properties": { "CNPJ": "01220267000157", "IDCIDADE": "BARIRI", "NOMEFANTASIA": "SAO_PEDRO_CARNES", "RAZAOSOCIAL": "CASA_DE_CARNES_SAO_PEDRO_DE_BARIRI_LTDA", "ENDEE": "RUA_SANTA_CRUZ34__CENTRO_17257-000", "LATITUDE": "-22.0680436", "LONGITUDE": "-48.7314561", "LMAPS": "https://www.google.com/maps?q=&layer=c&cbll=-48.7314561,-22.0680436", "O_QUE_FAZER": "CARTEIRA", "ER_REGIAO_CIDADE_min": "Bariri_Araraquara" }, "geometry": { "type": "Point", "coordinates": [ -48.7314561, -22.0680436 ] } },
{ "type": "Feature", "properties": { "CNPJ": "02239287000132", "IDCIDADE": "BARIRI", "NOMEFANTASIA": "SAO_JOSE_MATERIAIS_CONSTRUCAO", "RAZAOSOCIAL": "S.J._MATERIAIS_PARA_CONSTRUCAO_LTDA", "ENDEE": "AVENIDA_AMAZONAS526__VILA_SAO_JOSE_17257-032", "LATITUDE": "-22.0807801", "LONGITUDE": "-48.7513269", "LMAPS": "https://www.google.com/maps?q=&layer=c&cbll=-48.7513269,-22.0807801", "O_QUE_FAZER": "CARTEIRA", "ER_REGIAO_CIDADE_min": "Bariri_Araraquara" }, "geometry": { "type": "Point", "coordinates": [ -48.7513269, -22.0807801 ] } },
{ "type": "Feature", "properties": { "CNPJ": "14011110000163", "IDCIDADE": "BARIRI", "NOMEFANTASIA": "AGROVIDA", "RAZAOSOCIAL": "VALTER_TENORIO_DA_SILVA_ARTIGOS_AGROPECUARIOS", "ENDEE": "AVENIDA_ORLANDO_BELUZZO117__VILA_SAO_JOSE_17257-032", "LATITUDE": "-22.0819396", "LONGITUDE": "-48.751261", "LMAPS": "https://www.google.com/maps?q=&layer=c&cbll=-48.751261,-22.0819396", "O_QUE_FAZER": "CARTEIRA", "ER_REGIAO_CIDADE_min": "Bariri_Araraquara" }, "geometry": { "type": "Point", "coordinates": [ -48.751261, -22.0819396 ] } },
{ "type": "Feature", "properties": { "CNPJ": "96362371000192", "IDCIDADE": "BARIRI", "NOMEFANTASIA": "SAO_JOSE_MATERIAIS_CONSTRUCAO", "RAZAOSOCIAL": "MANIN-LOURENCO_MATERIAL_DE_CONSTRUCAO_LTDA", "ENDEE": "AVENIDA_ORLANDO_BELUZZO560__VILA_SAO_JOSE_17257-032", "LATITUDE": "-22.0809395", "LONGITUDE": "-48.7501519", "LMAPS": "https://www.google.com/maps?q=&layer=c&cbll=-48.7501519,-22.0809395", "O_QUE_FAZER": "CARTEIRA", "ER_REGIAO_CIDADE_min": "Bariri_Araraquara" }, "geometry": { "type": "Point", "coordinates": [ -48.7501519, -22.0809395 ] } },
{ "type": "Feature", "properties": { "CNPJ": "00349345000155", "IDCIDADE": "BARIRI", "NOMEFANTASIA": "O_BARATEIRO", "RAZAOSOCIAL": "MARIA_AUGUSTINHA_SCUDILIO_GALDINO", "ENDEE": "RUA_LUIZ_FURLANETTO395__NUCLEO_A_A_OREFICE_17257-032", "LATITUDE": "-22.0861178", "LONGITUDE": "-48.750846", "LMAPS": "https://www.google.com/maps?q=&layer=c&cbll=-48.750846,-22.0861178", "O_QUE_FAZER": "CARTEIRA", "ER_REGIAO_CIDADE_min": "Bariri_Araraquara" }, "geometry": { "type": "Point", "coordinates": [ -48.750846, -22.0861178 ] } },
{ "type": "Feature", "properties": { "CNPJ": "59200642000187", "IDCIDADE": "BARIRI", "NOMEFANTASIA": "REXANDE_ENXOVAIS", "RAZAOSOCIAL": "IVANILDE_APARECIDA_TESSAROLI_FACIN", "ENDEE": "RUA_FLORIANO_PEIXOTO143__CENTRO_17258-200", "LATITUDE": "-22.0741009", "LONGITUDE": "-48.7403955", "LMAPS": "https://www.google.com/maps?q=&layer=c&cbll=-48.7403955,-22.0741009", "O_QUE_FAZER": "CARTEIRA", "ER_REGIAO_CIDADE_min": "Bariri_Araraquara" }, "geometry": { "type": "Point", "coordinates": [ -48.7403955, -22.0741009 ] } },
{ "type": "Feature", "properties": { "CNPJ": "00490826000186", "IDCIDADE": "BARIRI", "NOMEFANTASIA": "MARMORIA_GALLO", "RAZAOSOCIAL": "BARIPEDRAS-COMERCIO_DE_PEDRAS_LTDA", "ENDEE": "RUA_SANTO_ANDRE300__JARDIM_MARAVILHA_17258-200", "LATITUDE": "-22.0691213", "LONGITUDE": "-48.7482223", "LMAPS": "https://www.google.com/maps?q=&layer=c&cbll=-48.7482223,-22.0691213", "O_QUE_FAZER": "CARTEIRA", "ER_REGIAO_CIDADE_min": "Bariri_Araraquara" }, "geometry": { "type": "Point", "coordinates": [ -48.7482223, -22.0691213 ] } },
{ "type": "Feature", "properties": { "CNPJ": "00154148000180", "IDCIDADE": "BARIRI", "NOMEFANTASIA": "CORRADINI", "RAZAOSOCIAL": "GERALDO_JOSE_CORRADINI_LTDA", "ENDEE": "RUA_SETE_DE_SETEMBRO244__CENTRO_17258-220", "LATITUDE": "-22.0694104", "LONGITUDE": "-48.7458828", "LMAPS": "https://www.google.com/maps?q=&layer=c&cbll=-48.7458828,-22.0694104", "O_QUE_FAZER": "CARTEIRA", "ER_REGIAO_CIDADE_min": "Bariri_Araraquara" }, "geometry": { "type": "Point", "coordinates": [ -48.7458828, -22.0694104 ] } },
{ "type": "Feature", "properties": { "CNPJ": "47152779000124", "IDCIDADE": "BARIRI", "NOMEFANTASIA": "OPEN_LINE", "RAZAOSOCIAL": "OPEN_LINE_CONFECCOES_DE_UNIFORMES_LTDA", "ENDEE": "RUA_SETE_DE_SETEMBRO321__CENTRO_17258-220", "LATITUDE": "-22.0698054", "LONGITUDE": "-48.7454108", "LMAPS": "https://www.google.com/maps?q=&layer=c&cbll=-48.7454108,-22.0698054", "O_QUE_FAZER": "CARTEIRA", "ER_REGIAO_CIDADE_min": "Bariri_Araraquara" }, "geometry": { "type": "Point", "coordinates": [ -48.7454108, -22.0698054 ] } },
{ "type": "Feature", "properties": { "CNPJ": "01509956000186", "IDCIDADE": "BARIRI", "NOMEFANTASIA": "CABADU_CENTRO_AUTOMOTIVO", "RAZAOSOCIAL": "COMERCIO_DE_PNEUS_BARIRI_LTDA", "ENDEE": "RUA_SETE_DE_SETEMBRO637__CENTRO_17258-220", "LATITUDE": "-22.0719459", "LONGITUDE": "-48.743888", "LMAPS": "https://www.google.com/maps?q=&layer=c&cbll=-48.743888,-22.0719459", "O_QUE_FAZER": "CARTEIRA", "ER_REGIAO_CIDADE_min": "Bariri_Araraquara" }, "geometry": { "type": "Point", "coordinates": [ -48.743888, -22.0719459 ] } },
{ "type": "Feature", "properties": { "CNPJ": "50019902000148", "IDCIDADE": "BARIRI", "NOMEFANTASIA": "LUCAS_MULTIMARCAS", "RAZAOSOCIAL": "LUCAS_CARVALHO_VEICULOS_LTDA", "ENDEE": "RUA_SETE_DE_SETEMBRO270__CENTRO_17258-250", "LATITUDE": "-22.0668029", "LONGITUDE": "-48.7469585", "LMAPS": "https://www.google.com/maps?q=&layer=c&cbll=-48.7469585,-22.0668029", "O_QUE_FAZER": "CARTEIRA", "ER_REGIAO_CIDADE_min": "Bariri_Araraquara" }, "geometry": { "type": "Point", "coordinates": [ -48.7469585, -22.0668029 ] } },
{ "type": "Feature", "properties": { "CNPJ": "41393176000138", "IDCIDADE": "BARIRI", "NOMEFANTASIA": "FORCA_E_SAUDE", "RAZAOSOCIAL": "ACADEMIA_FORCA_E_SAUDE_LTDA", "ENDEE": "RUA_SETE_DE_SETEMBRO381__CENTRO_17258-250", "LATITUDE": "-22.0700984", "LONGITUDE": "-48.7451206", "LMAPS": "https://www.google.com/maps?q=&layer=c&cbll=-48.7451206,-22.0700984", "O_QUE_FAZER": "CARTEIRA", "ER_REGIAO_CIDADE_min": "Bariri_Araraquara" }, "geometry": { "type": "Point", "coordinates": [ -48.7451206, -22.0700984 ] } },
{ "type": "Feature", "properties": { "CNPJ": "48041751000182", "IDCIDADE": "BARIRI", "NOMEFANTASIA": "VISTORIA_BARIRI", "RAZAOSOCIAL": "001_VISTORIA_BARIRI_LTDA", "ENDEE": "RUA_RUI_BARBOSA414__JARDIM_BELTRAME_17258-282", "LATITUDE": "-22.0738479", "LONGITUDE": "-48.7383656", "LMAPS": "https://www.google.com/maps?q=&layer=c&cbll=-48.7383656,-22.0738479", "O_QUE_FAZER": "CARTEIRA", "ER_REGIAO_CIDADE_min": "Bariri_Araraquara" }, "geometry": { "type": "Point", "coordinates": [ -48.7383656, -22.0738479 ] } }
]
}
