{
"type": "FeatureCollection",
"name": "ER_REGIAO_CIDADE_min_Severínia_Barretos",
"crs": { "type": "name", "properties": { "name": "urn:ogc:def:crs:OGC:1.3:CRS84" } },
"xy_coordinate_resolution": 1e-15,
"features": [
{ "type": "Feature", "properties": { "fid": 6846, "CNPJ": "01419725000181", "IDCIDADE": "SEVERINIA", "NOMEFANTASIA": "LOJAO_DA_CIDADE", "RAZAOSOCIAL": "ANDREZA_LAGE_PEREZ_DOS_SANTOS_-_SEVERINIA", "ENDEE": "AVENIDA_SEVERINO_SICCHIERI260__CENTRO_14735-000", "LMAPS": "https://www.google.com/maps?q=&layer=c&cbll=-20.8090282,-48.8072582", "O_QUE_FAZER": "CARTEIRA", "ER_REGIAO_CIDADE_min": "Severínia_Barretos" }, "geometry": { "type": "Point", "coordinates": [ -48.8072582, -20.8090282 ] } },
{ "type": "Feature", "properties": { "fid": 9397, "CNPJ": "01923296000185", "IDCIDADE": "SEVERINIA", "NOMEFANTASIA": "LOJA_DA_TEREZINHA", "RAZAOSOCIAL": "LOJA_DA_TEREZINHA_LTDA", "ENDEE": "AVENIDA_SEVERINO_SICCHIERI164__CENTRO_14735-000", "LMAPS": "https://www.google.com/maps?q=&layer=c&cbll=-20.8081147,-48.8077981", "O_QUE_FAZER": "CARTEIRA", "ER_REGIAO_CIDADE_min": "Severínia_Barretos" }, "geometry": { "type": "Point", "coordinates": [ -48.8077981, -20.8081147 ] } },
{ "type": "Feature", "properties": { "fid": 18633, "CNPJ": "03567058000100", "IDCIDADE": "SEVERINIA", "NOMEFANTASIA": "CASA_DO_PAO_DE_QUEIJO", "RAZAOSOCIAL": "Z._A._CLARO_-_SEVERINIA", "ENDEE": "AVENIDA_SEVERINO_SICCHIERI141__CENTRO_14735-000", "LMAPS": "https://www.google.com/maps?q=&layer=c&cbll=-20.8078419,-48.807643", "O_QUE_FAZER": "CARTEIRA", "ER_REGIAO_CIDADE_min": "Severínia_Barretos" }, "geometry": { "type": "Point", "coordinates": [ -48.807643, -20.8078419 ] } },
{ "type": "Feature", "properties": { "fid": 26418, "CNPJ": "04760927000180", "IDCIDADE": "SEVERINIA", "NOMEFANTASIA": "PROVIDENCIA", "RAZAOSOCIAL": "SUELY_DE_LOURDES_CUESTA_PERES", "ENDEE": "RUA_ANICETO_DOMINGUES504__CENTRO_14735-000", "LMAPS": "https://www.google.com/maps?q=&layer=c&cbll=-20.8091021,-48.8049805", "O_QUE_FAZER": "CARTEIRA", "ER_REGIAO_CIDADE_min": "Severínia_Barretos" }, "geometry": { "type": "Point", "coordinates": [ -48.8049805, -20.8091021 ] } },
{ "type": "Feature", "properties": { "fid": 31450, "CNPJ": "05484579000129", "IDCIDADE": "SEVERINIA", "NOMEFANTASIA": "M_GONCALVES", "RAZAOSOCIAL": "M.GONCALVES_PECAS", "ENDEE": "AVENIDA_JULIAN_DONAIRE20__RESIDENCIAL_CAMACHO_14735-000", "LMAPS": "https://www.google.com/maps?q=&layer=c&cbll=-20.8024735,-48.8100238", "O_QUE_FAZER": "CARTEIRA", "ER_REGIAO_CIDADE_min": "Severínia_Barretos" }, "geometry": { "type": "Point", "coordinates": [ -48.8100238, -20.8024735 ] } },
{ "type": "Feature", "properties": { "fid": 35032, "CNPJ": "05965477000125", "IDCIDADE": "SEVERINIA", "NOMEFANTASIA": "OTICA_PONTO_DE_VISTA", "RAZAOSOCIAL": "EDGAR_DOS_SANTOS_OTICA", "ENDEE": "AVENIDA_JULIAN_DONAIRE40__RESIDENCIAL_CAMACHO_14735-000", "LMAPS": "https://www.google.com/maps?q=&layer=c&cbll=-20.8035855,-48.8099646", "O_QUE_FAZER": "CARTEIRA", "ER_REGIAO_CIDADE_min": "Severínia_Barretos" }, "geometry": { "type": "Point", "coordinates": [ -48.8099646, -20.8035855 ] } },
{ "type": "Feature", "properties": { "fid": 35786, "CNPJ": "06069032000120", "IDCIDADE": "SEVERINIA", "NOMEFANTASIA": "OTICA_DAYANE", "RAZAOSOCIAL": "PETER_HENDRIGO_BARBOSA", "ENDEE": "AVENIDA_SEVERINO_SICCHIERI354__CENTRO_14735-000", "LMAPS": "https://www.google.com/maps?q=&layer=c&cbll=-20.8094138,-48.8068054", "O_QUE_FAZER": "CARTEIRA", "ER_REGIAO_CIDADE_min": "Severínia_Barretos" }, "geometry": { "type": "Point", "coordinates": [ -48.8068054, -20.8094138 ] } },
{ "type": "Feature", "properties": { "fid": 35787, "CNPJ": "06069032000391", "IDCIDADE": "SEVERINIA", "NOMEFANTASIA": "OTICAS_ATACADAO", "RAZAOSOCIAL": "PETER_HENDRIGO_BARBOSA", "ENDEE": "RUA_CAPITAO_AUGUSTO_DE_ALMEIDA315__CENTRO_14735-000", "LMAPS": "https://www.google.com/maps?q=&layer=c&cbll=-20.8099824,-48.8039395", "O_QUE_FAZER": "CARTEIRA", "ER_REGIAO_CIDADE_min": "Severínia_Barretos" }, "geometry": { "type": "Point", "coordinates": [ -48.8039395, -20.8099824 ] } },
{ "type": "Feature", "properties": { "fid": 37128, "CNPJ": "06243766000183", "IDCIDADE": "SEVERINIA", "NOMEFANTASIA": "PADARIA_TIBURCIO", "RAZAOSOCIAL": "TIBURCIO_&_TIBURCIO_PADARIA_LTDA", "ENDEE": "RUA_CAPITAO_AUGUSTO_DE_ALMEIDA462__CENTRO_14735-000", "LMAPS": "https://www.google.com/maps?q=&layer=c&cbll=-20.8106183,-48.8053927", "O_QUE_FAZER": "CARTEIRA", "ER_REGIAO_CIDADE_min": "Severínia_Barretos" }, "geometry": { "type": "Point", "coordinates": [ -48.8053927, -20.8106183 ] } },
{ "type": "Feature", "properties": { "fid": 37334, "CNPJ": "06268750000125", "IDCIDADE": "SEVERINIA", "NOMEFANTASIA": "BOMFARMA", "RAZAOSOCIAL": "LUCAS_MARCHINI_BOMFANTE", "ENDEE": "RUA_CAPITAO_AUGUSTO_DE_ALMEIDA305__CENTRO_14735-000", "LMAPS": "https://www.google.com/maps?q=&layer=c&cbll=-20.8099667,-48.8039714", "O_QUE_FAZER": "CARTEIRA", "ER_REGIAO_CIDADE_min": "Severínia_Barretos" }, "geometry": { "type": "Point", "coordinates": [ -48.8039714, -20.8099667 ] } },
{ "type": "Feature", "properties": { "fid": 41516, "CNPJ": "07299564000116", "IDCIDADE": "SEVERINIA", "NOMEFANTASIA": "ROTINA_MOVEIS", "RAZAOSOCIAL": "CINTIA_MARTINS_AZEVEDO_COMERCIO_DE_MOVEIS_LTDA", "ENDEE": "AVENIDA_SEVERINO_SICCHIERI137__CENTRO_14735-000", "LMAPS": "https://www.google.com/maps?q=&layer=c&cbll=-20.8072942,-48.8077895", "O_QUE_FAZER": "CARTEIRA", "ER_REGIAO_CIDADE_min": "Severínia_Barretos" }, "geometry": { "type": "Point", "coordinates": [ -48.8077895, -20.8072942 ] } },
{ "type": "Feature", "properties": { "fid": 52914, "CNPJ": "08827797000107", "IDCIDADE": "SEVERINIA", "NOMEFANTASIA": "HIPER_SOM", "RAZAOSOCIAL": "A.Q._RISSATI_JUNIOR", "ENDEE": "AVENIDA_JULIAN_DONAIRE1410__RESIDENCIAL_CAMACHO_14735-000", "LMAPS": "https://www.google.com/maps?q=&layer=c&cbll=-20.8015771,-48.8111764", "O_QUE_FAZER": "CARTEIRA", "ER_REGIAO_CIDADE_min": "Severínia_Barretos" }, "geometry": { "type": "Point", "coordinates": [ -48.8111764, -20.8015771 ] } },
{ "type": "Feature", "properties": { "fid": 59454, "CNPJ": "09571226000117", "IDCIDADE": "SEVERINIA", "NOMEFANTASIA": "MAGAZINE_VALVERDE", "RAZAOSOCIAL": "E._S._DE_OLIVEIRA_-_MOVEIS", "ENDEE": "RUA_CESAR_GALIB_TANNURI541__CENTRO_14735-000", "LMAPS": "https://www.google.com/maps?q=&layer=c&cbll=-20.808865,-48.8064973", "O_QUE_FAZER": "CARTEIRA", "ER_REGIAO_CIDADE_min": "Severínia_Barretos" }, "geometry": { "type": "Point", "coordinates": [ -48.8064973, -20.808865 ] } },
{ "type": "Feature", "properties": { "fid": 63115, "CNPJ": "10468672000180", "IDCIDADE": "SEVERINIA", "NOMEFANTASIA": "AU_AU_CASA_DE_RACOES", "RAZAOSOCIAL": "AU_AU_CASA_DE_RACOES_LTDA", "ENDEE": "RUA_CESAR_GALIB_TANNURI547__CENTRO_14735-000", "LMAPS": "https://www.google.com/maps?q=&layer=c&cbll=-20.8085867,-48.8058614", "O_QUE_FAZER": "CARTEIRA", "ER_REGIAO_CIDADE_min": "Severínia_Barretos" }, "geometry": { "type": "Point", "coordinates": [ -48.8058614, -20.8085867 ] } },
{ "type": "Feature", "properties": { "fid": 64410, "CNPJ": "10616331000104", "IDCIDADE": "SEVERINIA", "NOMEFANTASIA": "DROGARIA_POPULAR_SEVERINIA", "RAZAOSOCIAL": "DROGARIA_POPULAR_SEVERINIA_LTDA", "ENDEE": "RUA_CAPITAO_AUGUSTO_DE_ALMEIDA499__CENTRO_14735-000", "LMAPS": "https://www.google.com/maps?q=&layer=c&cbll=-20.8109634,-48.8055973", "O_QUE_FAZER": "CARTEIRA", "ER_REGIAO_CIDADE_min": "Severínia_Barretos" }, "geometry": { "type": "Point", "coordinates": [ -48.8055973, -20.8109634 ] } },
{ "type": "Feature", "properties": { "fid": 64804, "CNPJ": "10657875000114", "IDCIDADE": "SEVERINIA", "NOMEFANTASIA": "CONNECT_INFORMATICA", "RAZAOSOCIAL": "RENAN_A._J._BUZATTO", "ENDEE": "AVENIDA_SEVERINO_SICCHIERI453__CENTRO_14735-000", "LMAPS": "https://www.google.com/maps?q=&layer=c&cbll=-20.8103113,-48.8061622", "O_QUE_FAZER": "CARTEIRA", "ER_REGIAO_CIDADE_min": "Severínia_Barretos" }, "geometry": { "type": "Point", "coordinates": [ -48.8061622, -20.8103113 ] } },
{ "type": "Feature", "properties": { "fid": 69472, "CNPJ": "11175651000139", "IDCIDADE": "SEVERINIA", "NOMEFANTASIA": "EMBALAGENS_PADRAO", "RAZAOSOCIAL": "TULIO_MURILO_ANGELO", "ENDEE": "AVENIDA NELO CALISSI, 410, JD. RES. ALVORADA, 14735-000, SEVERÍNIA, SP, BRASIL", "LMAPS": "https://www.google.com/maps?q=&layer=c&cbll=-20.8100248,-48.7989421", "O_QUE_FAZER": "CARTEIRA - FAMPE", "ER_REGIAO_CIDADE_min": "Severínia_Barretos" }, "geometry": { "type": "Point", "coordinates": [ -48.7989421, -20.8100248 ] } },
{ "type": "Feature", "properties": { "fid": 70874, "CNPJ": "11353496000365", "IDCIDADE": "SEVERINIA", "NOMEFANTASIA": "COPYBOOK_PAPELARIA", "RAZAOSOCIAL": "COPYBOOK_PAPELARIA_E_BRINQUEDOS_LTDA", "ENDEE": "AVENIDA_SEVERINO_SICCHIERI453__CENTRO_14735-000", "LMAPS": "https://www.google.com/maps?q=&layer=c&cbll=-20.8101721,-48.8061266", "O_QUE_FAZER": "CARTEIRA", "ER_REGIAO_CIDADE_min": "Severínia_Barretos" }, "geometry": { "type": "Point", "coordinates": [ -48.8061266, -20.8101721 ] } },
{ "type": "Feature", "properties": { "fid": 73661, "CNPJ": "11758900000119", "IDCIDADE": "SEVERINIA", "NOMEFANTASIA": "ROSA_MEDICOS", "RAZAOSOCIAL": "FRN_EQUIPAMENTOS_MEDICOS_LTDA", "ENDEE": "AVENIDA_SEVERINO_SICCHIERI483__CENTRO_14735-000", "LMAPS": "https://www.google.com/maps?q=&layer=c&cbll=-20.8103784,-48.8059699", "O_QUE_FAZER": "CARTEIRA", "ER_REGIAO_CIDADE_min": "Severínia_Barretos" }, "geometry": { "type": "Point", "coordinates": [ -48.8059699, -20.8103784 ] } },
{ "type": "Feature", "properties": { "fid": 74276, "CNPJ": "11869832000165", "IDCIDADE": "SEVERINIA", "NOMEFANTASIA": "MERCADO_LOLI_E_ANA_RAQUEL", "RAZAOSOCIAL": "ANA_RAQUEL_ANDRADE_LOPES", "ENDEE": "RUA_DOUTOR_SALOMAO_GALIB_TANNURI840__CENTRO_14735-000", "LMAPS": "https://www.google.com/maps?q=&layer=c&cbll=-20.8092024,-48.8108259", "O_QUE_FAZER": "CARTEIRA", "ER_REGIAO_CIDADE_min": "Severínia_Barretos" }, "geometry": { "type": "Point", "coordinates": [ -48.8108259, -20.8092024 ] } },
{ "type": "Feature", "properties": { "fid": 79238, "CNPJ": "12782583000139", "IDCIDADE": "SEVERINIA", "NOMEFANTASIA": "ALPHAVILLE_MATERIAIS_ELETRICOS", "RAZAOSOCIAL": "MOREIRA_&_COSTA_-_ELETRICA_E_HIDRAULICA_LTDA", "ENDEE": "AVENIDA_JULIAN_DONAIRE50__RESIDENCIAL_CAMACHO_14735-000", "LMAPS": "https://www.google.com/maps?q=&layer=c&cbll=-20.8037326,-48.8099426", "O_QUE_FAZER": "CARTEIRA", "ER_REGIAO_CIDADE_min": "Severínia_Barretos" }, "geometry": { "type": "Point", "coordinates": [ -48.8099426, -20.8037326 ] } },
{ "type": "Feature", "properties": { "fid": 81621, "CNPJ": "13268003000152", "IDCIDADE": "SEVERINIA", "NOMEFANTASIA": "STUDIO_A", "RAZAOSOCIAL": "ANA_CLAUDIA_LIBORIO_DE_SA", "ENDEE": "AVENIDA_SEVERINO_SICCHIERI151__CENTRO_14735-000", "LMAPS": "https://www.google.com/maps?q=&layer=c&cbll=-20.8075601,-48.807632", "O_QUE_FAZER": "CARTEIRA", "ER_REGIAO_CIDADE_min": "Severínia_Barretos" }, "geometry": { "type": "Point", "coordinates": [ -48.807632, -20.8075601 ] } },
{ "type": "Feature", "properties": { "fid": 81802, "CNPJ": "13303266000155", "IDCIDADE": "SEVERINIA", "NOMEFANTASIA": "PRONTO_VET", "RAZAOSOCIAL": "MARCELO_ANDRE_MAGRO_MEDICAMENTOS_VETERINARIOS", "ENDEE": "RUA_DOUTOR_SALOMAO_GALIB_TANNURI880__CENTRO_14735-000", "LMAPS": "https://www.google.com/maps?q=&layer=c&cbll=-20.8092748,-48.8120249", "O_QUE_FAZER": "CARTEIRA", "ER_REGIAO_CIDADE_min": "Severínia_Barretos" }, "geometry": { "type": "Point", "coordinates": [ -48.8120249, -20.8092748 ] } },
{ "type": "Feature", "properties": { "fid": 82395, "CNPJ": "13404362000190", "IDCIDADE": "SEVERINIA", "NOMEFANTASIA": "MINHA_MERCADO_MARTOS", "RAZAOSOCIAL": "LUIZ_ROBERTO_MARTOS", "ENDEE": "RUA_CAPITAO_AUGUSTO_DE_ALMEIDA512__CENTRO_14735-000", "LMAPS": "https://www.google.com/maps?q=&layer=c&cbll=-20.810988,-48.8060809", "O_QUE_FAZER": "CARTEIRA", "ER_REGIAO_CIDADE_min": "Severínia_Barretos" }, "geometry": { "type": "Point", "coordinates": [ -48.8060809, -20.810988 ] } },
{ "type": "Feature", "properties": { "fid": 88659, "CNPJ": "14620782000176", "IDCIDADE": "SEVERINIA", "NOMEFANTASIA": "FRASATO_E_LIMA_CORRETORA_DE_SEGUROS", "RAZAOSOCIAL": "FRASATO_&_LIMA_CORRETORA_DE_SEGUROS_LTDA", "ENDEE": "AVENIDA_SEVERINO_SICCHIERI130__CENTRO_14735-000", "LMAPS": "https://www.google.com/maps?q=&layer=c&cbll=-20.8078651,-48.8078615", "O_QUE_FAZER": "CARTEIRA", "ER_REGIAO_CIDADE_min": "Severínia_Barretos" }, "geometry": { "type": "Point", "coordinates": [ -48.8078615, -20.8078651 ] } },
{ "type": "Feature", "properties": { "fid": 95057, "CNPJ": "16615047000108", "IDCIDADE": "SEVERINIA", "NOMEFANTASIA": "TIAOZINHO_MATERIAIS_PARA_CONSTRUCAO", "RAZAOSOCIAL": "SEBASTIAO_DIVINO_DA_SILVA", "ENDEE": "AVENIDA_JULIAN_DONAIRE1241__RESIDENCIAL_CAMACHO_14735-000", "LMAPS": "https://www.google.com/maps?q=&layer=c&cbll=-20.7985277,-48.8115643", "O_QUE_FAZER": "CARTEIRA", "ER_REGIAO_CIDADE_min": "Severínia_Barretos" }, "geometry": { "type": "Point", "coordinates": [ -48.8115643, -20.7985277 ] } },
{ "type": "Feature", "properties": { "fid": 121246, "CNPJ": "22249365000197", "IDCIDADE": "SEVERINIA", "NOMEFANTASIA": "CRIATIVA_1_REAL", "RAZAOSOCIAL": "CELIA_PECORARO", "ENDEE": "AVENIDA_SEVERINO_SICCHIERI204__CENTRO_14735-000", "LMAPS": "https://www.google.com/maps?q=&layer=c&cbll=-20.8083432,-48.8075299", "O_QUE_FAZER": "CARTEIRA", "ER_REGIAO_CIDADE_min": "Severínia_Barretos" }, "geometry": { "type": "Point", "coordinates": [ -48.8075299, -20.8083432 ] } },
{ "type": "Feature", "properties": { "fid": 122513, "CNPJ": "22519111000141", "IDCIDADE": "SEVERINIA", "NOMEFANTASIA": null, "RAZAOSOCIAL": "RENATA_TIEMI_OKABE_-_CLINICA_MEDICA_LTDA", "ENDEE": "AVENIDA ANGELO SCARPELINI, 135, VILA DR. JOAO, 14735-000, SEVERÍNIA, SP, BRASIL", "LMAPS": "https://www.google.com/maps?q=&layer=c&cbll=-20.8113258,-48.8107952", "O_QUE_FAZER": "CARTEIRA - FAMPE", "ER_REGIAO_CIDADE_min": "Severínia_Barretos" }, "geometry": { "type": "Point", "coordinates": [ -48.8107952, -20.8113258 ] } },
{ "type": "Feature", "properties": { "fid": 123499, "CNPJ": "22712551000110", "IDCIDADE": "SEVERINIA", "NOMEFANTASIA": "LEM_MATERIAIS_ELETRICOS", "RAZAOSOCIAL": "LOPES_&_MIOTO_LTDA", "ENDEE": "AVENIDA_JULIAN_DONAIRE81__RESIDENCIAL_CAMACHO_14735-000", "LMAPS": "https://www.google.com/maps?q=&layer=c&cbll=-20.8048476,-48.8093943", "O_QUE_FAZER": "CARTEIRA", "ER_REGIAO_CIDADE_min": "Severínia_Barretos" }, "geometry": { "type": "Point", "coordinates": [ -48.8093943, -20.8048476 ] } },
{ "type": "Feature", "properties": { "fid": 125513, "CNPJ": "23157620000134", "IDCIDADE": "SEVERINIA", "NOMEFANTASIA": "CELL_FACIL", "RAZAOSOCIAL": "FERNANDA_DA_SILVA", "ENDEE": "AVENIDA_SEVERINO_SICCHIERI121__CENTRO_14735-000", "LMAPS": "https://www.google.com/maps?q=&layer=c&cbll=-20.8071248,-48.8079668", "O_QUE_FAZER": "CARTEIRA", "ER_REGIAO_CIDADE_min": "Severínia_Barretos" }, "geometry": { "type": "Point", "coordinates": [ -48.8079668, -20.8071248 ] } },
{ "type": "Feature", "properties": { "fid": 126551, "CNPJ": "23378618000195", "IDCIDADE": "SEVERINIA", "NOMEFANTASIA": "VESTUARIO_MEGA_LOJA", "RAZAOSOCIAL": "ACALVEST_COMERCIO_DE_ROUPAS_LTDA", "ENDEE": "RUA_CAPITAO_AUGUSTO_DE_ALMEIDA450__CENTRO_14735-000", "LMAPS": "https://www.google.com/maps?q=&layer=c&cbll=-20.8103065,-48.8054661", "O_QUE_FAZER": "CARTEIRA", "ER_REGIAO_CIDADE_min": "Severínia_Barretos" }, "geometry": { "type": "Point", "coordinates": [ -48.8054661, -20.8103065 ] } },
{ "type": "Feature", "properties": { "fid": 128087, "CNPJ": "23698355000100", "IDCIDADE": "SEVERINIA", "NOMEFANTASIA": "FRASATO_PAPELARIA", "RAZAOSOCIAL": "FRASATO_PAPELARIA_E_UTILIDADES_LTDA.", "ENDEE": "AVENIDA_SEVERINO_SICCHIERI130__CENTRO_14735-000", "LMAPS": "https://www.google.com/maps?q=&layer=c&cbll=-20.8079073,-48.8076007", "O_QUE_FAZER": "CARTEIRA", "ER_REGIAO_CIDADE_min": "Severínia_Barretos" }, "geometry": { "type": "Point", "coordinates": [ -48.8076007, -20.8079073 ] } },
{ "type": "Feature", "properties": { "fid": 132361, "CNPJ": "24566931000110", "IDCIDADE": "SEVERINIA", "NOMEFANTASIA": "FREU_CAR", "RAZAOSOCIAL": "L._A._FREU_CAR_CENTRO_AUTOMOTIVO", "ENDEE": "AVENIDA_JULIAN_DONAIRE1951__RESIDENCIAL_CAMACHO_14735-000", "LMAPS": "https://www.google.com/maps?q=&layer=c&cbll=-20.8028233,-48.8100117", "O_QUE_FAZER": "CARTEIRA", "ER_REGIAO_CIDADE_min": "Severínia_Barretos" }, "geometry": { "type": "Point", "coordinates": [ -48.8100117, -20.8028233 ] } },
{ "type": "Feature", "properties": { "fid": 133213, "CNPJ": "24743245000258", "IDCIDADE": "SEVERINIA", "NOMEFANTASIA": "EMBALE_FEST", "RAZAOSOCIAL": "EMBALE_FEST_OLIMPIA_LTDA", "ENDEE": "AVENIDA_SEVERINO_SICCHIERI391__CENTRO_14735-000", "LMAPS": "https://www.google.com/maps?q=&layer=c&cbll=-20.8097957,-48.8063966", "O_QUE_FAZER": "CARTEIRA", "ER_REGIAO_CIDADE_min": "Severínia_Barretos" }, "geometry": { "type": "Point", "coordinates": [ -48.8063966, -20.8097957 ] } },
{ "type": "Feature", "properties": { "fid": 135760, "CNPJ": "25222888000138", "IDCIDADE": "SEVERINIA", "NOMEFANTASIA": "GC_ADESIVOS", "RAZAOSOCIAL": "LUIS_FERNANDO_CARON_MARTINS_33764422823", "ENDEE": "RUA SALOMAO GALIB TANNURI, 630, SALA A, CENTRO, 14735-000, SEVERÍNIA, SP, BRASIL", "LMAPS": "https://www.google.com/maps?q=&layer=c&cbll=-20.8075577,-48.8069371", "O_QUE_FAZER": "CARTEIRA - FAMPE", "ER_REGIAO_CIDADE_min": "Severínia_Barretos" }, "geometry": { "type": "Point", "coordinates": [ -48.8069371, -20.8075577 ] } },
{ "type": "Feature", "properties": { "fid": 136415, "CNPJ": "25367172000129", "IDCIDADE": "SEVERINIA", "NOMEFANTASIA": "SORVETERIA_CREMOSO", "RAZAOSOCIAL": "FLAVIA_ROBERTA_DA_COSTA_CIZOTTO_LTDA", "ENDEE": "AVENIDA SEVERINO SICCHIERI, 453, CENTRO, 14735-000, SEVERÍNIA, SP, BRASIL", "LMAPS": "https://www.google.com/maps?q=&layer=c&cbll=-20.810066,-48.8062083", "O_QUE_FAZER": "CARTEIRA - FAMPE", "ER_REGIAO_CIDADE_min": "Severínia_Barretos" }, "geometry": { "type": "Point", "coordinates": [ -48.8062083, -20.810066 ] } },
{ "type": "Feature", "properties": { "fid": 150511, "CNPJ": "28582598000193", "IDCIDADE": "SEVERINIA", "NOMEFANTASIA": "CONSTRUCAR", "RAZAOSOCIAL": "DANIELA_GIL_L._CARMINATI_-_MATERIAL_PARA_CONSTRUCAO", "ENDEE": "AVENIDA_JULIAN_DONAIRE1168__RESIDENCIAL_CAMACHO_14735-000", "LMAPS": "https://www.google.com/maps?q=&layer=c&cbll=-20.7978877,-48.811766", "O_QUE_FAZER": "CARTEIRA", "ER_REGIAO_CIDADE_min": "Severínia_Barretos" }, "geometry": { "type": "Point", "coordinates": [ -48.811766, -20.7978877 ] } },
{ "type": "Feature", "properties": { "fid": 170862, "CNPJ": "32627005000135", "IDCIDADE": "SEVERINIA", "NOMEFANTASIA": "-", "RAZAOSOCIAL": "32.627.005_DANIELA_BUSO_BADARO", "ENDEE": "AVENIDA SEVERINO SICCHIERI, 344, CENTRO, 14735-000, SEVERÍNIA, SP, BRASIL", "LMAPS": "https://www.google.com/maps?q=&layer=c&cbll=-20.809477,-48.8068248", "O_QUE_FAZER": "CARTEIRA - FAMPE", "ER_REGIAO_CIDADE_min": "Severínia_Barretos" }, "geometry": { "type": "Point", "coordinates": [ -48.8068248, -20.809477 ] } },
{ "type": "Feature", "properties": { "fid": 196812, "CNPJ": "38012460000102", "IDCIDADE": "SEVERINIA", "NOMEFANTASIA": null, "RAZAOSOCIAL": "CLEBER_DANIEL_CRUZ_TRANSPORTE", "ENDEE": "AVENIDA ESMERALDA DUARTE DA SILVA, 341, CENTRO, 14735-000, SEVERÍNIA, SP, BRASIL", "LMAPS": "https://www.google.com/maps?q=&layer=c&cbll=-20.8076464,-48.8108993", "O_QUE_FAZER": "CARTEIRA - FAMPE", "ER_REGIAO_CIDADE_min": "Severínia_Barretos" }, "geometry": { "type": "Point", "coordinates": [ -48.8108993, -20.8076464 ] } },
{ "type": "Feature", "properties": { "fid": 200029, "CNPJ": "39014311000145", "IDCIDADE": "SEVERINIA", "NOMEFANTASIA": "OZANICK", "RAZAOSOCIAL": "CARLOS_ROBERTO_OZANICK", "ENDEE": "AVENIDA_JULIAN_DONAIRE300__RESIDENCIAL_CAMACHO_14735-000", "LMAPS": "https://www.google.com/maps?q=&layer=c&cbll=-20.8023702,-48.8105833", "O_QUE_FAZER": "CARTEIRA", "ER_REGIAO_CIDADE_min": "Severínia_Barretos" }, "geometry": { "type": "Point", "coordinates": [ -48.8105833, -20.8023702 ] } },
{ "type": "Feature", "properties": { "fid": 215676, "CNPJ": "42882278000180", "IDCIDADE": "SEVERINIA", "NOMEFANTASIA": "FASCINIO_DOCES", "RAZAOSOCIAL": "JOAO_CARLOS_FACCHINI", "ENDEE": "AVENIDA_JULIAN_DONAIRE1426__RESIDENCIAL_CAMACHO_14735-000", "LMAPS": "https://www.google.com/maps?q=&layer=c&cbll=-20.8016666,-48.8110225", "O_QUE_FAZER": "CARTEIRA", "ER_REGIAO_CIDADE_min": "Severínia_Barretos" }, "geometry": { "type": "Point", "coordinates": [ -48.8110225, -20.8016666 ] } },
{ "type": "Feature", "properties": { "fid": 218461, "CNPJ": "43443197000146", "IDCIDADE": "SEVERINIA", "NOMEFANTASIA": "ED_COSMETICOS", "RAZAOSOCIAL": "ED_COSMETICOS_SEVERINIA_LTDA", "ENDEE": "AVENIDA_SEVERINO_SICCHIERI212__CENTRO_14735-000", "LMAPS": "https://www.google.com/maps?q=&layer=c&cbll=-20.808498,-48.8075207", "O_QUE_FAZER": "CARTEIRA", "ER_REGIAO_CIDADE_min": "Severínia_Barretos" }, "geometry": { "type": "Point", "coordinates": [ -48.8075207, -20.808498 ] } },
{ "type": "Feature", "properties": { "fid": 226888, "CNPJ": "45219867000170", "IDCIDADE": "SEVERINIA", "NOMEFANTASIA": "REQUINTE_COLOR", "RAZAOSOCIAL": "L&J_TINTAS_CRISTAIS_E_ACABAMENTOS_LTDA", "ENDEE": "AVENIDA_SEVERINO_SICCHIERI65__CENTRO_14735-000", "LMAPS": "https://www.google.com/maps?q=&layer=c&cbll=-20.8043087,-48.8094901", "O_QUE_FAZER": "CARTEIRA", "ER_REGIAO_CIDADE_min": "Severínia_Barretos" }, "geometry": { "type": "Point", "coordinates": [ -48.8094901, -20.8043087 ] } },
{ "type": "Feature", "properties": { "fid": 238342, "CNPJ": "47583139000179", "IDCIDADE": "SEVERINIA", "NOMEFANTASIA": "CACU_SHOW", "RAZAOSOCIAL": "GONCALES_&_JARDIM_CHOCOLATES_LTDA", "ENDEE": "AVENIDA_SEVERINO_SICCHIERI205__CENTRO_14735-000", "LMAPS": "https://www.google.com/maps?q=&layer=c&cbll=-20.8082883,-48.8071833", "O_QUE_FAZER": "CARTEIRA", "ER_REGIAO_CIDADE_min": "Severínia_Barretos" }, "geometry": { "type": "Point", "coordinates": [ -48.8071833, -20.8082883 ] } },
{ "type": "Feature", "properties": { "fid": 262854, "CNPJ": "52566097000106", "IDCIDADE": "SEVERINIA", "NOMEFANTASIA": "GRAOS_DA_TERRA", "RAZAOSOCIAL": "GRAOS_DA_TERRA_COMERCIO_DE_PRODUTOS_ALIMENTICIOS_LTDA", "ENDEE": "AVENIDA_SEVERINO_SICCHIERI130__CENTRO_14735-000", "LMAPS": "https://www.google.com/maps?q=&layer=c&cbll=-20.8077987,-48.8077624", "O_QUE_FAZER": "CARTEIRA", "ER_REGIAO_CIDADE_min": "Severínia_Barretos" }, "geometry": { "type": "Point", "coordinates": [ -48.8077624, -20.8077987 ] } },
{ "type": "Feature", "properties": { "fid": 266250, "CNPJ": "53310782000121", "IDCIDADE": "SEVERINIA", "NOMEFANTASIA": "53.310.782_LARISSA_APARECIDA_BITENCOURT", "RAZAOSOCIAL": "53.310.782_LARISSA_APARECIDA_BITENCOURT", "ENDEE": "10_EUJACIO_PEREIRA_COUTINHO327__CENTRO_14735-000", "LMAPS": "https://www.google.com/maps?q=&layer=c&cbll=-20.810541,-48.7991006", "O_QUE_FAZER": "FINALIZADO", "ER_REGIAO_CIDADE_min": "Severínia_Barretos" }, "geometry": { "type": "Point", "coordinates": [ -48.7991006, -20.810541 ] } },
{ "type": "Feature", "properties": { "fid": 286664, "CNPJ": "58860081000180", "IDCIDADE": "SEVERINIA", "NOMEFANTASIA": "TEREZINHA_TECIDOS", "RAZAOSOCIAL": "TEREZINHA_CALIXTO", "ENDEE": "AVENIDA_SEVERINO_SICCHIERI120__CENTRO_14735-000", "LMAPS": "https://www.google.com/maps?q=&layer=c&cbll=-20.8077617,-48.8078651", "O_QUE_FAZER": "CARTEIRA", "ER_REGIAO_CIDADE_min": "Severínia_Barretos" }, "geometry": { "type": "Point", "coordinates": [ -48.8078651, -20.8077617 ] } },
{ "type": "Feature", "properties": { "fid": 290699, "CNPJ": "60154184000257", "IDCIDADE": "SEVERINIA", "NOMEFANTASIA": "O_BOTICARIO", "RAZAOSOCIAL": "FLOR_DO_CAMPO_OLIMPIA_PERFUMARIA_LTDA", "ENDEE": "AVENIDA_SEVERINO_SICCHIERI220__CENTRO_14735-000", "LMAPS": "https://www.google.com/maps?q=&layer=c&cbll=-20.8085456,-48.8074001", "O_QUE_FAZER": "CARTEIRA", "ER_REGIAO_CIDADE_min": "Severínia_Barretos" }, "geometry": { "type": "Point", "coordinates": [ -48.8074001, -20.8085456 ] } },
{ "type": "Feature", "properties": { "fid": 300982, "CNPJ": "64814375000178", "IDCIDADE": "SEVERINIA", "NOMEFANTASIA": null, "RAZAOSOCIAL": "64.814.375_MIRIAM_QUETI_VEIGA_TARREGA_PEREZ", "ENDEE": "RUA CESAR GALIB TANNURI, 598, CENTRO, 14735-031, SEVERÍNIA, SP, BRASIL", "LMAPS": "https://www.google.com/maps?q=&layer=c&cbll=-20.8085255,-48.8063774", "O_QUE_FAZER": "CARTEIRA - FAMPE", "ER_REGIAO_CIDADE_min": "Severínia_Barretos" }, "geometry": { "type": "Point", "coordinates": [ -48.8063774, -20.8085255 ] } },
{ "type": "Feature", "properties": { "fid": 303868, "CNPJ": "66267317000105", "IDCIDADE": "SEVERINIA", "NOMEFANTASIA": null, "RAZAOSOCIAL": "66.267.317_DAVID_DE_SOUZA_FERTONANI", "ENDEE": "AVENIDA JOSE CHIAMPEZAN, 242, CENTRO, 14735-005, SEVERÍNIA, SP, BRASIL", "LMAPS": "https://www.google.com/maps?q=&layer=c&cbll=-20.8093966,-48.805432", "O_QUE_FAZER": "CARTEIRA - FAMPE", "ER_REGIAO_CIDADE_min": "Severínia_Barretos" }, "geometry": { "type": "Point", "coordinates": [ -48.805432, -20.8093966 ] } },
{ "type": "Feature", "properties": { "fid": 309967, "CNPJ": "72688351000148", "IDCIDADE": "SEVERINIA", "NOMEFANTASIA": "CAIOLINE_PRESENTES", "RAZAOSOCIAL": "ANTONIO_CARLOS_BORGES_RAIMUNDO", "ENDEE": "AVENIDA_SEVERINO_SICCHIERI79__CENTRO_14735-000", "LMAPS": "https://www.google.com/maps?q=&layer=c&cbll=-20.8049437,-48.809283", "O_QUE_FAZER": "CARTEIRA", "ER_REGIAO_CIDADE_min": "Severínia_Barretos" }, "geometry": { "type": "Point", "coordinates": [ -48.809283, -20.8049437 ] } },
{ "type": "Feature", "properties": { "fid": 310104, "CNPJ": "72777410000154", "IDCIDADE": "SEVERINIA", "NOMEFANTASIA": "ESPACO_LIVRE_LOJA_E_CIA", "RAZAOSOCIAL": "CLAUDIA_APARECIDA_MARTOS_KFOURI", "ENDEE": "AVENIDA_SEVERINO_SICCHIERI482__CENTRO_14735-000", "LMAPS": "https://www.google.com/maps?q=&layer=c&cbll=-20.810653,-48.8062728", "O_QUE_FAZER": "CARTEIRA", "ER_REGIAO_CIDADE_min": "Severínia_Barretos" }, "geometry": { "type": "Point", "coordinates": [ -48.8062728, -20.810653 ] } }
]
}
