{
"type": "FeatureCollection",
"name": "ER_REGIAO_CIDADE_min_Pirangi_Barretos",
"crs": { "type": "name", "properties": { "name": "urn:ogc:def:crs:OGC:1.3:CRS84" } },
"xy_coordinate_resolution": 1e-15,
"features": [
{ "type": "Feature", "properties": { "CNPJ": "48222216000128", "IDCIDADE": "PIRANGI", "NOMEFANTASIA": "GIRAFA MINIMERCADO", "RAZAOSOCIAL": "GIRAFA MINIMERCADO LTDA", "ENDEE": "RUA AGUINALDO MENDES, 310, VILA MARQUES,, 15820-000, PIRANGI, SP, BRASIL", "LATITUDE": "-21.0822848", "LONGITUDE": "-48.6569903", "LMAPS": "https://www.google.com/maps?q=&layer=c&cbll=-21.0822848,-48.6569903", "O_QUE_FAZER": "CARTEIRA - FAMPE", "field_10": null, "field_11": null, "field_12": null, "field_13": null, "ER_REGIAO_CIDADE_min": "Pirangi_Barretos" }, "geometry": { "type": "Point", "coordinates": [ -48.6569903, -21.0822848 ] } },
{ "type": "Feature", "properties": { "CNPJ": "46786704000132", "IDCIDADE": "PIRANGI", "NOMEFANTASIA": "BLOCOS PIRANGI", "RAZAOSOCIAL": "BLOCOS PIRANGI LTDA", "ENDEE": "ESTANCIA RECANTO FELIZ, S/N, SETOR CRT 097A - 1EN, ZONA RURAL, 15820-000, PIRANGI, SP, BRASIL", "LATITUDE": "-21.0897494", "LONGITUDE": "-48.660702", "LMAPS": "https://www.google.com/maps?q=&layer=c&cbll=-21.0897494,-48.660702", "O_QUE_FAZER": "CARTEIRA - FAMPE", "field_10": null, "field_11": null, "field_12": null, "field_13": null, "ER_REGIAO_CIDADE_min": "Pirangi_Barretos" }, "geometry": { "type": "Point", "coordinates": [ -48.660702, -21.0897494 ] } },
{ "type": "Feature", "properties": { "CNPJ": "17260254000141", "IDCIDADE": "PIRANGI", "NOMEFANTASIA": "TRANSTOKO TRANSPORTES", "RAZAOSOCIAL": "TRANSTOKO TRANSPORTES LTDA", "ENDEE": "AVENIDA 7 DE SETEMBRO, 283, SALA ESCRITORIO, CENTRO, 15820-047, PIRANGI, SP, BRASIL", "LATITUDE": "-21.0898386", "LONGITUDE": "-48.6620107", "LMAPS": "https://www.google.com/maps?q=&layer=c&cbll=-21.0898386,-48.6620107", "O_QUE_FAZER": "CARTEIRA - FAMPE", "field_10": null, "field_11": null, "field_12": null, "field_13": null, "ER_REGIAO_CIDADE_min": "Pirangi_Barretos" }, "geometry": { "type": "Point", "coordinates": [ -48.6620107, -21.0898386 ] } },
{ "type": "Feature", "properties": { "CNPJ": "08008424000104", "IDCIDADE": "PIRANGI", "NOMEFANTASIA": "DOLLAR BRASIL", "RAZAOSOCIAL": "CLAUDEMIR BATISTA SANTOS", "ENDEE": "RUA DR. RODRIGUES ALVES, 870, CENTRO, 15820-000, PIRANGI, SP, BRASIL", "LATITUDE": "-21.0918197", "LONGITUDE": "-48.6616142", "LMAPS": "https://www.google.com/maps?q=&layer=c&cbll=-21.0918197,-48.6616142", "O_QUE_FAZER": "CARTEIRA - FAMPE", "field_10": null, "field_11": null, "field_12": null, "field_13": null, "ER_REGIAO_CIDADE_min": "Pirangi_Barretos" }, "geometry": { "type": "Point", "coordinates": [ -48.6616142, -21.0918197 ] } },
{ "type": "Feature", "properties": { "CNPJ": "21708819000188", "IDCIDADE": "PIRANGI", "NOMEFANTASIA": "EMPORIO DA CERVEJA", "RAZAOSOCIAL": "EMPORIO DA CERVEJA BAR E MERCEARIA LTDA", "ENDEE": "RUA DOUTOR RODRIGUES ALVES, 908, CENTRO, 15820-011, PIRANGI, SP, BRASIL", "LATITUDE": "-21.0923317", "LONGITUDE": "-48.6620883", "LMAPS": "https://www.google.com/maps?q=&layer=c&cbll=-21.0923317,-48.6620883", "O_QUE_FAZER": "CARTEIRA - FAMPE", "field_10": null, "field_11": null, "field_12": null, "field_13": null, "ER_REGIAO_CIDADE_min": "Pirangi_Barretos" }, "geometry": { "type": "Point", "coordinates": [ -48.6620883, -21.0923317 ] } },
{ "type": "Feature", "properties": { "CNPJ": "02356361000109", "IDCIDADE": "PIRANGI", "NOMEFANTASIA": null, "RAZAOSOCIAL": "I A CATTANEO", "ENDEE": "RUA DR. RODRIGUES ALVES, 919, SALA A, CENTRO, 15820-000, PIRANGI, SP, BRASIL", "LATITUDE": "-21.0923449", "LONGITUDE": "-48.6616824", "LMAPS": "https://www.google.com/maps?q=&layer=c&cbll=-21.0923449,-48.6616824", "O_QUE_FAZER": "CARTEIRA - FAMPE", "field_10": null, "field_11": null, "field_12": null, "field_13": null, "ER_REGIAO_CIDADE_min": "Pirangi_Barretos" }, "geometry": { "type": "Point", "coordinates": [ -48.6616824, -21.0923449 ] } },
{ "type": "Feature", "properties": { "CNPJ": "39360067000172", "IDCIDADE": "PIRANGI", "NOMEFANTASIA": "BRUNHARA & FREIRE", "RAZAOSOCIAL": "DROGARIA BRUNHARA & FREIRE LTDA", "ENDEE": "RUA DOUTOR RODRIGUES ALVES, 982, CENTRO, 15820-000, PIRANGI, SP, BRASIL", "LATITUDE": "-21.0925214", "LONGITUDE": "-48.6623403", "LMAPS": "https://www.google.com/maps?q=&layer=c&cbll=-21.0925214,-48.6623403", "O_QUE_FAZER": "CARTEIRA - FAMPE", "field_10": null, "field_11": null, "field_12": null, "field_13": null, "ER_REGIAO_CIDADE_min": "Pirangi_Barretos" }, "geometry": { "type": "Point", "coordinates": [ -48.6623403, -21.0925214 ] } },
{ "type": "Feature", "properties": { "CNPJ": "39474359000136", "IDCIDADE": "PIRANGI", "NOMEFANTASIA": null, "RAZAOSOCIAL": "CAROLINA SANTOS FERNANDES 46206029816", "ENDEE": "RUA DR RODRIGUES ALVES, 985, CENTRO, 15820-000, PIRANGI, SP, BRASIL", "LATITUDE": "-21.0928222", "LONGITUDE": "-48.6620631", "LMAPS": "https://www.google.com/maps?q=&layer=c&cbll=-21.0928222,-48.6620631", "O_QUE_FAZER": "CARTEIRA - FAMPE", "field_10": null, "field_11": null, "field_12": null, "field_13": null, "ER_REGIAO_CIDADE_min": "Pirangi_Barretos" }, "geometry": { "type": "Point", "coordinates": [ -48.6620631, -21.0928222 ] } },
{ "type": "Feature", "properties": { "CNPJ": "28220255000189", "IDCIDADE": "PIRANGI", "NOMEFANTASIA": "COMERCIO DE BEBIDAS GIRAFA'S", "RAZAOSOCIAL": "GABRIEL SABION", "ENDEE": "RUA DR CAMPOS SALLES, 1018, CENTRO, 15820-000, PIRANGI, SP, BRASIL", "LATITUDE": "-21.0928242", "LONGITUDE": "-48.6612907", "LMAPS": "https://www.google.com/maps?q=&layer=c&cbll=-21.0928242,-48.6612907", "O_QUE_FAZER": "CARTEIRA - FAMPE", "field_10": null, "field_11": null, "field_12": null, "field_13": null, "ER_REGIAO_CIDADE_min": "Pirangi_Barretos" }, "geometry": { "type": "Point", "coordinates": [ -48.6612907, -21.0928242 ] } },
{ "type": "Feature", "properties": { "CNPJ": "41983580000161", "IDCIDADE": "PIRANGI", "NOMEFANTASIA": "CENTRO DE IDIOMAS", "RAZAOSOCIAL": "SAMANTHA SCARDELATO STELLUTTI 42463102802", "ENDEE": "RUA DOUTOR CAMPOS SALES, 1071, CENTRO, 15820-000, PIRANGI, SP, BRASIL", "LATITUDE": "-21.0934111", "LONGITUDE": "-48.6613238", "LMAPS": "https://www.google.com/maps?q=&layer=c&cbll=-21.0934111,-48.6613238", "O_QUE_FAZER": "CARTEIRA - FAMPE", "field_10": null, "field_11": null, "field_12": null, "field_13": null, "ER_REGIAO_CIDADE_min": "Pirangi_Barretos" }, "geometry": { "type": "Point", "coordinates": [ -48.6613238, -21.0934111 ] } },
{ "type": "Feature", "properties": { "CNPJ": "18376882000150", "IDCIDADE": "PIRANGI", "NOMEFANTASIA": "ZONTA TRANSPORTES", "RAZAOSOCIAL": "ZONTA TRANSPORTES DE PIRANGI LTDA", "ENDEE": "RUA PRUDENTE DE MORAIS, 1343, SALA ESCRITORIO, CENTRO, 15820-023, PIRANGI, SP, BRASIL", "LATITUDE": "-21.095689", "LONGITUDE": "-48.6623716", "LMAPS": "https://www.google.com/maps?q=&layer=c&cbll=-21.095689,-48.6623716", "O_QUE_FAZER": "CARTEIRA - FAMPE", "field_10": null, "field_11": null, "field_12": null, "field_13": null, "ER_REGIAO_CIDADE_min": "Pirangi_Barretos" }, "geometry": { "type": "Point", "coordinates": [ -48.6623716, -21.095689 ] } },
{ "type": "Feature", "properties": { "CNPJ": "13546993000143", "IDCIDADE": "PIRANGI", "NOMEFANTASIA": "BIRO TRANSPORTES", "RAZAOSOCIAL": "BIRO TRANSPORTES DE PIRANGI LTDA", "ENDEE": "RUA ALVARO MENDES CAMPOS, 275, CENTRO, 15820-000, PIRANGI, SP, BRASIL", "LATITUDE": "-21.0975138", "LONGITUDE": "-48.6695471", "LMAPS": "https://www.google.com/maps?q=&layer=c&cbll=-21.0975138,-48.6695471", "O_QUE_FAZER": "CARTEIRA - FAMPE", "field_10": null, "field_11": null, "field_12": null, "field_13": null, "ER_REGIAO_CIDADE_min": "Pirangi_Barretos" }, "geometry": { "type": "Point", "coordinates": [ -48.6695471, -21.0975138 ] } },
{ "type": "Feature", "properties": { "CNPJ": "18596863000139", "IDCIDADE": "PIRANGI", "NOMEFANTASIA": "RODOVIARIO GOMES DA SILVA TRANSPORTES", "RAZAOSOCIAL": "RODOVIARIO GOMES DA SILVA TRANSPORTES LTDA", "ENDEE": "RUA RODOLFO MARCONATO, 435, ESCRITORIO, CENTRO, 15820-000, PIRANGI, SP, BRASIL", "LATITUDE": "-21.0975682", "LONGITUDE": "-48.6688036", "LMAPS": "https://www.google.com/maps?q=&layer=c&cbll=-21.0975682,-48.6688036", "O_QUE_FAZER": "CARTEIRA - FAMPE", "field_10": null, "field_11": null, "field_12": null, "field_13": null, "ER_REGIAO_CIDADE_min": "Pirangi_Barretos" }, "geometry": { "type": "Point", "coordinates": [ -48.6688036, -21.0975682 ] } },
{ "type": "Feature", "properties": { "CNPJ": "27936424000119", "IDCIDADE": "PIRANGI", "NOMEFANTASIA": "IAP CONTARIM TRANPORTES", "RAZAOSOCIAL": "I. A. P. CONTARIM TRANSPORTES", "ENDEE": "AVENIDA HENRIQUE MARTORELLI, 121, ESCRITORIO, CENTRO, 15820-000, PIRANGI, SP, BRASIL", "LATITUDE": "-21.0979264", "LONGITUDE": "-48.6669354", "LMAPS": "https://www.google.com/maps?q=&layer=c&cbll=-21.0979264,-48.6669354", "O_QUE_FAZER": "CARTEIRA - FAMPE", "field_10": null, "field_11": null, "field_12": null, "field_13": null, "ER_REGIAO_CIDADE_min": "Pirangi_Barretos" }, "geometry": { "type": "Point", "coordinates": [ -48.6669354, -21.0979264 ] } }
]
}
