{
"type": "FeatureCollection",
"name": "ER_REGIAO_CIDADE_min_Estiva Gerbi_São João da Boa Vista",
"crs": { "type": "name", "properties": { "name": "urn:ogc:def:crs:OGC:1.3:CRS84" } },
"xy_coordinate_resolution": 1e-15,
"features": [
{ "type": "Feature", "properties": { "fid": 237, "CNPJ": "00014640000150", "IDCIDADE": "ESTIVA_GERBI", "NOMEFANTASIA": "FUNERARIA_SANTO_ANTONIO", "RAZAOSOCIAL": "RUTH_ALVES_BRUGNEROTTO", "ENDEE": "AVENIDA_ADELIA_CALEFFI_GERBI587__CENTRO_13857-104", "LMAPS": "https://www.google.com/maps?q=&layer=c&cbll=-22.27115,-46.950955", "O_QUE_FAZER": "CARTEIRA", "ER_REGIAO_CIDADE_min": "Estiva Gerbi_São João da Boa Vista" }, "geometry": { "type": "Point", "coordinates": [ -46.950955, -22.27115 ] } },
{ "type": "Feature", "properties": { "fid": 504, "CNPJ": "00092324000105", "IDCIDADE": "ESTIVA_GERBI", "NOMEFANTASIA": "AUTO_ESCOLA_SAO_PAULO_S/S_LTDA", "RAZAOSOCIAL": "AUTO_ESCOLA_SAO_PAULO", "ENDEE": "RUA_ALBERTO_CALEFFI435__CENTRO_13857-146", "LMAPS": "https://www.google.com/maps?q=&layer=c&cbll=-22.2731218,-46.9536999", "O_QUE_FAZER": "FINALIZADO", "ER_REGIAO_CIDADE_min": "Estiva Gerbi_São João da Boa Vista" }, "geometry": { "type": "Point", "coordinates": [ -46.9536999, -22.2731218 ] } },
{ "type": "Feature", "properties": { "fid": 2660, "CNPJ": "00546284000116", "IDCIDADE": "ESTIVA_GERBI", "NOMEFANTASIA": "PADARIA_E_CONFEITARIA_ESTYPAO_LTDA", "RAZAOSOCIAL": "PADARIA_STYPAO", "ENDEE": "AVENIDA_ANGELO_ZANCO1174__CENTRO_13857-186", "LMAPS": "https://www.google.com/maps?q=&layer=c&cbll=-22.2793588,-46.9529613", "O_QUE_FAZER": "FINALIZADO", "ER_REGIAO_CIDADE_min": "Estiva Gerbi_São João da Boa Vista" }, "geometry": { "type": "Point", "coordinates": [ -46.9529613, -22.2793588 ] } },
{ "type": "Feature", "properties": { "fid": 2983, "CNPJ": "00608926000245", "IDCIDADE": "ESTIVA_GERBI", "NOMEFANTASIA": "PHARMAVIDA", "RAZAOSOCIAL": "PHARMAVIDA_SIGUE_LTDA", "ENDEE": "RUA_CUBANO_GERBI200__CENTRO_13857-152", "LMAPS": "https://www.google.com/maps?q=&layer=c&cbll=-22.2735757,-46.9514136", "O_QUE_FAZER": "CARTEIRA", "ER_REGIAO_CIDADE_min": "Estiva Gerbi_São João da Boa Vista" }, "geometry": { "type": "Point", "coordinates": [ -46.9514136, -22.2735757 ] } },
{ "type": "Feature", "properties": { "fid": 5939, "CNPJ": "01225719000193", "IDCIDADE": "ESTIVA_GERBI", "NOMEFANTASIA": "J_L_DOS_SANTOS_ESTIVA_GERBI", "RAZAOSOCIAL": "BAR_DO_MERCEARIA_DO_ZE", "ENDEE": "RUA_ORLANDO_MIRANDA480__TAGUA_1_13857-000", "LMAPS": "https://www.google.com/maps?q=&layer=c&cbll=-22.2795617,-46.9515638", "O_QUE_FAZER": "FINALIZADO", "ER_REGIAO_CIDADE_min": "Estiva Gerbi_São João da Boa Vista" }, "geometry": { "type": "Point", "coordinates": [ -46.9515638, -22.2795617 ] } },
{ "type": "Feature", "properties": { "fid": 19642, "CNPJ": "03734096000100", "IDCIDADE": "ESTIVA_GERBI", "NOMEFANTASIA": "DROGARIA_DO_PRADO_&_RODRIGUES_LTDA", "RAZAOSOCIAL": "PHARMACIA_POPULAR", "ENDEE": "PRACA_ADELIA_CALEFFI_GERBI27__CENTRO_13858-302", "LMAPS": "https://www.google.com/maps?q=&layer=c&cbll=-22.2724404,-46.9465235", "O_QUE_FAZER": "FINALIZADO", "ER_REGIAO_CIDADE_min": "Estiva Gerbi_São João da Boa Vista" }, "geometry": { "type": "Point", "coordinates": [ -46.9465235, -22.2724404 ] } },
{ "type": "Feature", "properties": { "fid": 28797, "CNPJ": "05095097000187", "IDCIDADE": "ESTIVA_GERBI", "NOMEFANTASIA": "PADARIA_CENTRAL", "RAZAOSOCIAL": "J.C._CORREA_ESTIVA_GERBI", "ENDEE": "AVENIDA_ANGELO_ZANCO275__CENTRO_13857-000", "LMAPS": "https://www.google.com/maps?q=&layer=c&cbll=-22.272467,-46.9516739", "O_QUE_FAZER": "CARTEIRA", "ER_REGIAO_CIDADE_min": "Estiva Gerbi_São João da Boa Vista" }, "geometry": { "type": "Point", "coordinates": [ -46.9516739, -22.272467 ] } },
{ "type": "Feature", "properties": { "fid": 29989, "CNPJ": "05275461000190", "IDCIDADE": "ESTIVA_GERBI", "NOMEFANTASIA": "M._LUCAS_GONZAGA_DE_OLIVEIRA", "RAZAOSOCIAL": "BEER_DO_LUCAS", "ENDEE": "RUA_ORLANDO_MIRANDA180__CENTRO_13857-262", "LMAPS": "https://www.google.com/maps?q=&layer=c&cbll=-22.2782972,-46.9539137", "O_QUE_FAZER": "FINALIZADO", "ER_REGIAO_CIDADE_min": "Estiva Gerbi_São João da Boa Vista" }, "geometry": { "type": "Point", "coordinates": [ -46.9539137, -22.2782972 ] } },
{ "type": "Feature", "properties": { "fid": 36022, "CNPJ": "06102471000197", "IDCIDADE": "ESTIVA_GERBI", "NOMEFANTASIA": "BAR_DO_MAZINHO", "RAZAOSOCIAL": "LANCHONETE_DO_MAZINHO_LTDA", "ENDEE": "AVENIDA_ANGELO_ZANCO369__CENTRO_13857-000", "LMAPS": "https://www.google.com/maps?q=&layer=c&cbll=-22.2733799,-46.9519502", "O_QUE_FAZER": "CARTEIRA", "ER_REGIAO_CIDADE_min": "Estiva Gerbi_São João da Boa Vista" }, "geometry": { "type": "Point", "coordinates": [ -46.9519502, -22.2733799 ] } },
{ "type": "Feature", "properties": { "fid": 37652, "CNPJ": "06305558000161", "IDCIDADE": "ESTIVA_GERBI", "NOMEFANTASIA": "RICHARDSON_DO_PRADO", "RAZAOSOCIAL": "FARMACIA_NOSSA_SENHORA_APARECIDA", "ENDEE": "AVENIDA_ANGELO_ZANCO471__CENTRO_13857-186", "LMAPS": "https://www.google.com/maps?q=&layer=c&cbll=-22.2733644,-46.9520597", "O_QUE_FAZER": "FINALIZADO", "ER_REGIAO_CIDADE_min": "Estiva Gerbi_São João da Boa Vista" }, "geometry": { "type": "Point", "coordinates": [ -46.9520597, -22.2733644 ] } },
{ "type": "Feature", "properties": { "fid": 42145, "CNPJ": "07372230000120", "IDCIDADE": "ESTIVA_GERBI", "NOMEFANTASIA": "EDMIR_PEREIRA_STANGUINI", "RAZAOSOCIAL": "AUTO_MECANICA_STAND", "ENDEE": "RUA_ALBERTO_DE_SOUZA467__CENTRO_13857-174", "LMAPS": "https://www.google.com/maps?q=&layer=c&cbll=-22.2780038,-46.9556644", "O_QUE_FAZER": "FINALIZADO", "ER_REGIAO_CIDADE_min": "Estiva Gerbi_São João da Boa Vista" }, "geometry": { "type": "Point", "coordinates": [ -46.9556644, -22.2780038 ] } },
{ "type": "Feature", "properties": { "fid": 43551, "CNPJ": "07552091000117", "IDCIDADE": "ESTIVA_GERBI", "NOMEFANTASIA": "MERCADO_ESQUINA_EXPRESS_LTDA", "RAZAOSOCIAL": "ESQUINA_EXPREES", "ENDEE": "AVENIDA_ADELIA_CALEFFI_GERBI1045__CENTRO_13858-302", "LMAPS": "https://www.google.com/maps?q=&layer=c&cbll=-22.271516,-46.9552574", "O_QUE_FAZER": "FINALIZADO", "ER_REGIAO_CIDADE_min": "Estiva Gerbi_São João da Boa Vista" }, "geometry": { "type": "Point", "coordinates": [ -46.9552574, -22.271516 ] } },
{ "type": "Feature", "properties": { "fid": 46164, "CNPJ": "07838346000102", "IDCIDADE": "ESTIVA_GERBI", "NOMEFANTASIA": "AUTO_CAR_PNEUS", "RAZAOSOCIAL": "VAINE_PIO_DE_CARVALHO", "ENDEE": "AVENIDA_VANTE_JOSE_TONIETTI2635__JARDIM_ANHUMAS_13857-036", "LMAPS": "https://www.google.com/maps?q=&layer=c&cbll=-22.2747017,-46.95556", "O_QUE_FAZER": "CARTEIRA", "ER_REGIAO_CIDADE_min": "Estiva Gerbi_São João da Boa Vista" }, "geometry": { "type": "Point", "coordinates": [ -46.95556, -22.2747017 ] } },
{ "type": "Feature", "properties": { "fid": 66191, "CNPJ": "10799793000104", "IDCIDADE": "ESTIVA_GERBI", "NOMEFANTASIA": "MOVEIS_SANTA_RITA", "RAZAOSOCIAL": "MILLENIUM_MOVEIS_E_DECORACOES_LTDA", "ENDEE": "RUA_CUBANO_GERBI526__CENTRO_13857-152", "LMAPS": "https://www.google.com/maps?q=&layer=c&cbll=-22.2735567,-46.95466", "O_QUE_FAZER": "CARTEIRA", "ER_REGIAO_CIDADE_min": "Estiva Gerbi_São João da Boa Vista" }, "geometry": { "type": "Point", "coordinates": [ -46.95466, -22.2735567 ] } },
{ "type": "Feature", "properties": { "fid": 67810, "CNPJ": "10973512000198", "IDCIDADE": "ESTIVA_GERBI", "NOMEFANTASIA": "OFICINA_NEI", "RAZAOSOCIAL": "VALDINEI_DONIZETI_PEREIRA_SERVICOS_AGRICOLAS", "ENDEE": "RUA_PHILOMENA_V._DEL_GIUDICE131__JARDIM_ANHUMAS_13857-020", "LMAPS": "https://www.google.com/maps?q=&layer=c&cbll=-22.2787022,-46.9556167", "O_QUE_FAZER": "CARTEIRA", "ER_REGIAO_CIDADE_min": "Estiva Gerbi_São João da Boa Vista" }, "geometry": { "type": "Point", "coordinates": [ -46.9556167, -22.2787022 ] } },
{ "type": "Feature", "properties": { "fid": 71564, "CNPJ": "11440803000183", "IDCIDADE": "ESTIVA_GERBI", "NOMEFANTASIA": "MESSIAS_&_VISCHI_ACOUGUE_LTDA.", "RAZAOSOCIAL": "ACOUGUE_E_CIA", "ENDEE": "AVENIDA_ANGELO_ZANCO170__CENTRO_13857-186", "LMAPS": "https://www.google.com/maps?q=&layer=c&cbll=-22.2714157,-46.9518153", "O_QUE_FAZER": "FINALIZADO", "ER_REGIAO_CIDADE_min": "Estiva Gerbi_São João da Boa Vista" }, "geometry": { "type": "Point", "coordinates": [ -46.9518153, -22.2714157 ] } },
{ "type": "Feature", "properties": { "fid": 72417, "CNPJ": "11564691000172", "IDCIDADE": "ESTIVA_GERBI", "NOMEFANTASIA": "ANDREIA_DE_S._MELO_-_CALCADOS_LTDA", "RAZAOSOCIAL": "ANDREIA_CALCADOS", "ENDEE": "RUA_CUBANO_GERBI531__JARDIM_SAO_LOURENCO_13857-152", "LMAPS": "https://www.google.com/maps?q=&layer=c&cbll=-22.2739466,-46.9550473", "O_QUE_FAZER": "FINALIZADO", "ER_REGIAO_CIDADE_min": "Estiva Gerbi_São João da Boa Vista" }, "geometry": { "type": "Point", "coordinates": [ -46.9550473, -22.2739466 ] } },
{ "type": "Feature", "properties": { "fid": 72503, "CNPJ": "11578584000101", "IDCIDADE": "ESTIVA_GERBI", "NOMEFANTASIA": "TEM_TOTAL_MODAS", "RAZAOSOCIAL": "TEMTOTAL_ESTIVA_VESTUARIOS_LTDA", "ENDEE": "AVENIDA_ANGELO_ZANCO658__CENTRO_13857-000", "LMAPS": "https://www.google.com/maps?q=&layer=c&cbll=-22.2761083,-46.9521393", "O_QUE_FAZER": "CARTEIRA", "ER_REGIAO_CIDADE_min": "Estiva Gerbi_São João da Boa Vista" }, "geometry": { "type": "Point", "coordinates": [ -46.9521393, -22.2761083 ] } },
{ "type": "Feature", "properties": { "fid": 72874, "CNPJ": "11636086000160", "IDCIDADE": "ESTIVA_GERBI", "NOMEFANTASIA": "J._C._F._DE_OLIVEIRA_E_CIA_LTDA", "RAZAOSOCIAL": "ROSEIRA_GAS", "ENDEE": "RUA_ORLANDO_MIRANDA131__TAGUA_1_13857-000", "LMAPS": "https://www.google.com/maps?q=&layer=c&cbll=-22.2778626,-46.9542331", "O_QUE_FAZER": "FINALIZADO", "ER_REGIAO_CIDADE_min": "Estiva Gerbi_São João da Boa Vista" }, "geometry": { "type": "Point", "coordinates": [ -46.9542331, -22.2778626 ] } },
{ "type": "Feature", "properties": { "fid": 75880, "CNPJ": "12137595000100", "IDCIDADE": "ESTIVA_GERBI", "NOMEFANTASIA": "MARCOS_F_HERRERO", "RAZAOSOCIAL": "LUCI_HORTIFRUTI", "ENDEE": "RUA_ALBERTO_DE_SOUZA33__CENTRO_13857-000", "LMAPS": "https://www.google.com/maps?q=&layer=c&cbll=-22.2743331,-46.9551157", "O_QUE_FAZER": "FINALIZADO", "ER_REGIAO_CIDADE_min": "Estiva Gerbi_São João da Boa Vista" }, "geometry": { "type": "Point", "coordinates": [ -46.9551157, -22.2743331 ] } },
{ "type": "Feature", "properties": { "fid": 82535, "CNPJ": "13427831000196", "IDCIDADE": "ESTIVA_GERBI", "NOMEFANTASIA": "RUZON_OTICA", "RAZAOSOCIAL": "J.C.CAMATARI_RUZON", "ENDEE": "AVENIDA_ANGELO_ZANCO240__VILA_NOVA_ESTIVA_13857-112", "LMAPS": "https://www.google.com/maps?q=&layer=c&cbll=-22.27207,-46.9517433", "O_QUE_FAZER": "CARTEIRA", "ER_REGIAO_CIDADE_min": "Estiva Gerbi_São João da Boa Vista" }, "geometry": { "type": "Point", "coordinates": [ -46.9517433, -22.27207 ] } },
{ "type": "Feature", "properties": { "fid": 94007, "CNPJ": "15772454000158", "IDCIDADE": "ESTIVA_GERBI", "NOMEFANTASIA": "AGROPECUARIA_ZANCO_LTDA", "RAZAOSOCIAL": "AGRO_ZANCO", "ENDEE": "RUA_VANTE_JOSE_TONIETTI2560__CENTRO_13857-036", "LMAPS": "https://www.google.com/maps?q=&layer=c&cbll=-22.2774538,-46.9563335", "O_QUE_FAZER": "FINALIZADO", "ER_REGIAO_CIDADE_min": "Estiva Gerbi_São João da Boa Vista" }, "geometry": { "type": "Point", "coordinates": [ -46.9563335, -22.2774538 ] } },
{ "type": "Feature", "properties": { "fid": 109338, "CNPJ": "19590400000122", "IDCIDADE": "ESTIVA_GERBI", "NOMEFANTASIA": "LUCAS_DONIZETE_DA_SILVA_29540334870", "RAZAOSOCIAL": "SL_BARBER", "ENDEE": "RUA_ALBERTO_CALEFFI88__CENTRO_13857-146", "LMAPS": "https://www.google.com/maps?q=&layer=c&cbll=-22.2729888,-46.9503167", "O_QUE_FAZER": "FINALIZADO", "ER_REGIAO_CIDADE_min": "Estiva Gerbi_São João da Boa Vista" }, "geometry": { "type": "Point", "coordinates": [ -46.9503167, -22.2729888 ] } },
{ "type": "Feature", "properties": { "fid": 118959, "CNPJ": "21772790000101", "IDCIDADE": "ESTIVA_GERBI", "NOMEFANTASIA": "LUANA_CRISTINA_TEIXEIRA_PAZINI", "RAZAOSOCIAL": "LULU_PET", "ENDEE": "AVENIDA_ADELIA_CALEFFI_GERBI980__VILA_NOVA_ESTIVA_13857-104", "LMAPS": "https://www.google.com/maps?q=&layer=c&cbll=-22.2712002,-46.9546395", "O_QUE_FAZER": "FINALIZADO", "ER_REGIAO_CIDADE_min": "Estiva Gerbi_São João da Boa Vista" }, "geometry": { "type": "Point", "coordinates": [ -46.9546395, -22.2712002 ] } },
{ "type": "Feature", "properties": { "fid": 120149, "CNPJ": "22020971000136", "IDCIDADE": "ESTIVA_GERBI", "NOMEFANTASIA": "IMOBILIARIA_NELSON_IMOVEIS_LTDA", "RAZAOSOCIAL": "NELSON_IMOVEIS", "ENDEE": "RUA_ORLANDO_MIRANDA110__JARDIM_TAGUA_13857-262", "LMAPS": "https://www.google.com/maps?q=&layer=c&cbll=-22.2779913,-46.954431", "O_QUE_FAZER": "FINALIZADO", "ER_REGIAO_CIDADE_min": "Estiva Gerbi_São João da Boa Vista" }, "geometry": { "type": "Point", "coordinates": [ -46.954431, -22.2779913 ] } },
{ "type": "Feature", "properties": { "fid": 123656, "CNPJ": "22741556000171", "IDCIDADE": "ESTIVA_GERBI", "NOMEFANTASIA": "ALEMAO_AUTO_ELETRICA", "RAZAOSOCIAL": "ANDERSON_CUSTODIO_TOLEDO", "ENDEE": "AVENIDA_ANGELO_ZANCO970__VILA_NOVA_ESTIVA_13857-112", "LMAPS": "https://www.google.com/maps?q=&layer=c&cbll=-22.2784567,-46.952695", "O_QUE_FAZER": "CARTEIRA", "ER_REGIAO_CIDADE_min": "Estiva Gerbi_São João da Boa Vista" }, "geometry": { "type": "Point", "coordinates": [ -46.952695, -22.2784567 ] } },
{ "type": "Feature", "properties": { "fid": 123678, "CNPJ": "22744608000163", "IDCIDADE": "ESTIVA_GERBI", "NOMEFANTASIA": "K_M_M_ROPINHA_AGROPECUARIA", "RAZAOSOCIAL": "AGRO_KELLY", "ENDEE": "AVENIDA_ANGELO_ZANCO312__CENTRO_13857-186", "LMAPS": "https://www.google.com/maps?q=&layer=c&cbll=-22.272764,-46.9519039", "O_QUE_FAZER": "FINALIZADO", "ER_REGIAO_CIDADE_min": "Estiva Gerbi_São João da Boa Vista" }, "geometry": { "type": "Point", "coordinates": [ -46.9519039, -22.272764 ] } },
{ "type": "Feature", "properties": { "fid": 124413, "CNPJ": "22918632000171", "IDCIDADE": "ESTIVA_GERBI", "NOMEFANTASIA": "MARIA_CLEIDE_CORREA_DE_CASTILHO_10237328828", "RAZAOSOCIAL": "REVIVE_MODAS", "ENDEE": "AVENIDA_ANGELO_ZANCO25__CENTRO_13857-186", "LMAPS": "https://www.google.com/maps?q=&layer=c&cbll=-22.270875,-46.9514084", "O_QUE_FAZER": "FINALIZADO", "ER_REGIAO_CIDADE_min": "Estiva Gerbi_São João da Boa Vista" }, "geometry": { "type": "Point", "coordinates": [ -46.9514084, -22.270875 ] } },
{ "type": "Feature", "properties": { "fid": 126703, "CNPJ": "23412658000106", "IDCIDADE": "ESTIVA_GERBI", "NOMEFANTASIA": "JOHNY_HENRIQUE_ARAUJO_&_CIA_LTDA", "RAZAOSOCIAL": "LEV_GAS", "ENDEE": "AVENIDA_ANGELO_ZANCO1192__CENTRO_13857-186", "LMAPS": "https://www.google.com/maps?q=&layer=c&cbll=-22.2805005,-46.9537083", "O_QUE_FAZER": "FINALIZADO", "ER_REGIAO_CIDADE_min": "Estiva Gerbi_São João da Boa Vista" }, "geometry": { "type": "Point", "coordinates": [ -46.9537083, -22.2805005 ] } },
{ "type": "Feature", "properties": { "fid": 128189, "CNPJ": "23723926000100", "IDCIDADE": "ESTIVA_GERBI", "NOMEFANTASIA": "ATLANTICA", "RAZAOSOCIAL": "ATLANTICA_GESTAO_SUSTENTAVEL_LTDA", "ENDEE": "AVENIDA_ADELIA_CALEFFI_GERBI400__CENTRO_13857-104", "LMAPS": "https://www.google.com/maps?q=&layer=c&cbll=-22.2711285,-46.9490873", "O_QUE_FAZER": "CARTEIRA - FAMPE", "ER_REGIAO_CIDADE_min": "Estiva Gerbi_São João da Boa Vista" }, "geometry": { "type": "Point", "coordinates": [ -46.9490873, -22.2711285 ] } },
{ "type": "Feature", "properties": { "fid": 131230, "CNPJ": "24354210000146", "IDCIDADE": "ESTIVA_GERBI", "NOMEFANTASIA": "BEER_DO_LUCAS", "RAZAOSOCIAL": "P._H._S._OLIVEIRA_BEBIDAS", "ENDEE": "RUA_ORLANDO_MIRANDA365__JARDIM_TAGUA_13857-000", "LMAPS": "https://www.google.com/maps?q=&layer=c&cbll=-22.2788258,-46.9523335", "O_QUE_FAZER": "CARTEIRA", "ER_REGIAO_CIDADE_min": "Estiva Gerbi_São João da Boa Vista" }, "geometry": { "type": "Point", "coordinates": [ -46.9523335, -22.2788258 ] } },
{ "type": "Feature", "properties": { "fid": 137548, "CNPJ": "26125193000109", "IDCIDADE": "ESTIVA_GERBI", "NOMEFANTASIA": "SUPERMERCADO_MAJOLI", "RAZAOSOCIAL": "SUPERMERCADO_MAJOLI_LTDA.", "ENDEE": "RUA_ORLANDO_MIRANDA290__JARDIM_TAGUA_13857-000", "LMAPS": "https://www.google.com/maps?q=&layer=c&cbll=-22.2789633,-46.9528333", "O_QUE_FAZER": "CARTEIRA", "ER_REGIAO_CIDADE_min": "Estiva Gerbi_São João da Boa Vista" }, "geometry": { "type": "Point", "coordinates": [ -46.9528333, -22.2789633 ] } },
{ "type": "Feature", "properties": { "fid": 137815, "CNPJ": "26176033000180", "IDCIDADE": "ESTIVA_GERBI", "NOMEFANTASIA": "AUTO_CENTER_JORDAO", "RAZAOSOCIAL": "ALEX_DE_S_JORDAO", "ENDEE": "AVENIDA_19_DE_MAIO2355__JARDIM_NOVA_ESTIVA_13857-172", "LMAPS": "https://www.google.com/maps?q=&layer=c&cbll=-22.2781172,-46.95659", "O_QUE_FAZER": "CARTEIRA", "ER_REGIAO_CIDADE_min": "Estiva Gerbi_São João da Boa Vista" }, "geometry": { "type": "Point", "coordinates": [ -46.95659, -22.2781172 ] } },
{ "type": "Feature", "properties": { "fid": 139496, "CNPJ": "26482401000119", "IDCIDADE": "ESTIVA GERBI", "NOMEFANTASIA": "COLEGIO SAGRADA FAMILA", "RAZAOSOCIAL": "COLEGIO_SAGRADA_FAMILIA_LTDA", "ENDEE": "AVENIDA ADELIA CALEFFI GERBI, 812, VILA NOVA ESTIVA, 13857000, ESTIVA GERBI, SP, BRASIL", "LMAPS": "https://www.google.com/maps?q=&layer=c&cbll=-22.2709819,-46.9530571", "O_QUE_FAZER": "CARTEIRA - FAMPE", "ER_REGIAO_CIDADE_min": "Estiva Gerbi_São João da Boa Vista" }, "geometry": { "type": "Point", "coordinates": [ -46.9530571, -22.2709819 ] } },
{ "type": "Feature", "properties": { "fid": 143101, "CNPJ": "27209211000195", "IDCIDADE": "ESTIVA_GERBI", "NOMEFANTASIA": "RENILDA_PEREIRA_COLI_63701898553", "RAZAOSOCIAL": "MERCEARIA_COLIS", "ENDEE": "RUA_GERACINO_CARLOS_DE_SOUZA67__SAO_JOSE_13858-326", "LMAPS": "https://www.google.com/maps?q=&layer=c&cbll=-22.2739595,-46.9439315", "O_QUE_FAZER": "FINALIZADO", "ER_REGIAO_CIDADE_min": "Estiva Gerbi_São João da Boa Vista" }, "geometry": { "type": "Point", "coordinates": [ -46.9439315, -22.2739595 ] } },
{ "type": "Feature", "properties": { "fid": 149376, "CNPJ": "28370424000590", "IDCIDADE": "ESTIVA_GERBI", "NOMEFANTASIA": "CRB_COMERCIO_DE_TINTAS_LTDA", "RAZAOSOCIAL": "SPAZIO_TINTAS", "ENDEE": "AVENIDA_ANGELO_ZANCO291__CENTRO_13857-186", "LMAPS": "https://www.google.com/maps?q=&layer=c&cbll=-22.2724629,-46.951764", "O_QUE_FAZER": "FINALIZADO", "ER_REGIAO_CIDADE_min": "Estiva Gerbi_São João da Boa Vista" }, "geometry": { "type": "Point", "coordinates": [ -46.951764, -22.2724629 ] } },
{ "type": "Feature", "properties": { "fid": 149641, "CNPJ": "28415046000190", "IDCIDADE": "ESTIVA_GERBI", "NOMEFANTASIA": "SMR_SUPERMERCADO_REAL_LTDA", "RAZAOSOCIAL": "SUPERMERCADO_REAL", "ENDEE": "RUA_ORLANDO_MIRANDA313__JARDIM_TAGUA_13857-262", "LMAPS": "https://www.google.com/maps?q=&layer=c&cbll=-22.2785475,-46.9527916", "O_QUE_FAZER": "FINALIZADO", "ER_REGIAO_CIDADE_min": "Estiva Gerbi_São João da Boa Vista" }, "geometry": { "type": "Point", "coordinates": [ -46.9527916, -22.2785475 ] } },
{ "type": "Feature", "properties": { "fid": 154383, "CNPJ": "29299637000102", "IDCIDADE": "ESTIVA_GERBI", "NOMEFANTASIA": "CASA_DE_CARNES_GOMES", "RAZAOSOCIAL": "ANA_PAULA_MARQUES_GOMES", "ENDEE": "AVENIDA_ADELIA_CALEFFI_GERBI750__VILA_NOVA_ESTIVA_13857-000", "LMAPS": "https://www.google.com/maps?q=&layer=c&cbll=-22.2711329,-46.9523461", "O_QUE_FAZER": "CARTEIRA", "ER_REGIAO_CIDADE_min": "Estiva Gerbi_São João da Boa Vista" }, "geometry": { "type": "Point", "coordinates": [ -46.9523461, -22.2711329 ] } },
{ "type": "Feature", "properties": { "fid": 162405, "CNPJ": "30867786000100", "IDCIDADE": "ESTIVA_GERBI", "NOMEFANTASIA": "RFM_AMBIENTAL", "RAZAOSOCIAL": "RFM_SOLUTIONS_COLETA_DE_RESIDUOS_LTDA", "ENDEE": "AVENIDA_ANGELO_ZANCO814__VILA_NOVA_ESTIVA_13857-112", "LMAPS": "https://www.google.com/maps?q=&layer=c&cbll=-22.2751068,-46.9520727", "O_QUE_FAZER": "CARTEIRA", "ER_REGIAO_CIDADE_min": "Estiva Gerbi_São João da Boa Vista" }, "geometry": { "type": "Point", "coordinates": [ -46.9520727, -22.2751068 ] } },
{ "type": "Feature", "properties": { "fid": 163237, "CNPJ": "31035293000176", "IDCIDADE": "ESTIVA_GERBI", "NOMEFANTASIA": "CNA_IDIOMAS", "RAZAOSOCIAL": "PRADO_E_MARTINS_IDIOMAS_LTDA", "ENDEE": "AVENIDA_ANGELO_ZANCO774__CENTRO_13857-000", "LMAPS": "https://www.google.com/maps?q=&layer=c&cbll=-22.2766307,-46.9524262", "O_QUE_FAZER": "CARTEIRA", "ER_REGIAO_CIDADE_min": "Estiva Gerbi_São João da Boa Vista" }, "geometry": { "type": "Point", "coordinates": [ -46.9524262, -22.2766307 ] } },
{ "type": "Feature", "properties": { "fid": 163404, "CNPJ": "31067060000155", "IDCIDADE": "ESTIVA_GERBI", "NOMEFANTASIA": "ACERTE_CONSULTORIA_EMPRESARIAL_E_LOGISTICA_LTDA", "RAZAOSOCIAL": "ACERTE_CONSULTORIA_EMPRESARIAL_E_LOGISTICA_LTDA", "ENDEE": "RUA_ALFREDO_LANZI26__CENTRO_13857-970", "LMAPS": "https://www.google.com/maps?q=&layer=c&cbll=-22.2728186,-46.9528589", "O_QUE_FAZER": "FINALIZADO", "ER_REGIAO_CIDADE_min": "Estiva Gerbi_São João da Boa Vista" }, "geometry": { "type": "Point", "coordinates": [ -46.9528589, -22.2728186 ] } },
{ "type": "Feature", "properties": { "fid": 169880, "CNPJ": "32415345000100", "IDCIDADE": "ESTIVA_GERBI", "NOMEFANTASIA": "32.415.345_ISABELLE_GOMES_SILVA", "RAZAOSOCIAL": "PAPER_GOLD", "ENDEE": "AVENIDA_ANGELO_ZANCO892__CENTRO_13857-186", "LMAPS": "https://www.google.com/maps?q=&layer=c&cbll=-22.2778002,-46.9526341", "O_QUE_FAZER": "FINALIZADO", "ER_REGIAO_CIDADE_min": "Estiva Gerbi_São João da Boa Vista" }, "geometry": { "type": "Point", "coordinates": [ -46.9526341, -22.2778002 ] } },
{ "type": "Feature", "properties": { "fid": 175765, "CNPJ": "33574008000110", "IDCIDADE": "ESTIVA_GERBI", "NOMEFANTASIA": "LOURIVAL_PEREIRA_DE_SANTANA_15460152801", "RAZAOSOCIAL": "MERCEARIA_AVENIDA", "ENDEE": "RUA_VANTE_JOSE_TONIETTI2569__CENTRO_13857-036", "LMAPS": "https://www.google.com/maps?q=&layer=c&cbll=-22.2754925,-46.9559943", "O_QUE_FAZER": "FINALIZADO", "ER_REGIAO_CIDADE_min": "Estiva Gerbi_São João da Boa Vista" }, "geometry": { "type": "Point", "coordinates": [ -46.9559943, -22.2754925 ] } },
{ "type": "Feature", "properties": { "fid": 175807, "CNPJ": "33579154000139", "IDCIDADE": "ESTIVA_GERBI", "NOMEFANTASIA": "ANGELICA_COELHO_DORIGON_DE_MORAES", "RAZAOSOCIAL": "JSA_CORREIAS", "ENDEE": "RUA_LUIS_HENRIQUE_ROCHA22__JARDIM_TAGUA_2_13857-308", "LMAPS": "https://www.google.com/maps?q=&layer=c&cbll=-22.281466,-46.9549633", "O_QUE_FAZER": "FINALIZADO", "ER_REGIAO_CIDADE_min": "Estiva Gerbi_São João da Boa Vista" }, "geometry": { "type": "Point", "coordinates": [ -46.9549633, -22.281466 ] } },
{ "type": "Feature", "properties": { "fid": 177838, "CNPJ": "33963127000165", "IDCIDADE": "ESTIVA_GERBI", "NOMEFANTASIA": "ANA_MARIA_GUARINTO_DE_CARVALHO", "RAZAOSOCIAL": "BRUNO_PNEUS", "ENDEE": "RUA_ANGELO_PIGOZZI130__ANHUMAS_13857-026", "LMAPS": "https://www.google.com/maps?q=&layer=c&cbll=-22.2715292,-46.95684", "O_QUE_FAZER": "FINALIZADO", "ER_REGIAO_CIDADE_min": "Estiva Gerbi_São João da Boa Vista" }, "geometry": { "type": "Point", "coordinates": [ -46.95684, -22.2715292 ] } },
{ "type": "Feature", "properties": { "fid": 182050, "CNPJ": "34791760000186", "IDCIDADE": "ESTIVA_GERBI", "NOMEFANTASIA": "MANARA_CASA_&_CONSTRUCAO_LTDA", "RAZAOSOCIAL": "MANARA_MATERIAL_CONSTRUCAO", "ENDEE": "RUA_SILVIO_AURELIO_DE_ABREU395__CENTRO_13857-256", "LMAPS": "https://www.google.com/maps?q=&layer=c&cbll=-22.2773888,-46.9507944", "O_QUE_FAZER": "FINALIZADO", "ER_REGIAO_CIDADE_min": "Estiva Gerbi_São João da Boa Vista" }, "geometry": { "type": "Point", "coordinates": [ -46.9507944, -22.2773888 ] } },
{ "type": "Feature", "properties": { "fid": 182263, "CNPJ": "34831920000173", "IDCIDADE": "ESTIVA GERBI", "NOMEFANTASIA": "DIEGO_REPRESENTACOES_COMERCIAIS", "RAZAOSOCIAL": "D._PERES_FERREIRA_REPRESENTACOES_COMERCIAIS_LTDA", "ENDEE": "RUA BASILIO ZANCO, 64, JD LUDI, 13857-000, ESTIVA GERBI, SP, BRASIL", "LMAPS": "https://www.google.com/maps?q=&layer=c&cbll=-22.2672116,-46.9476902", "O_QUE_FAZER": "CARTEIRA - FAMPE", "ER_REGIAO_CIDADE_min": "Estiva Gerbi_São João da Boa Vista" }, "geometry": { "type": "Point", "coordinates": [ -46.9476902, -22.2672116 ] } },
{ "type": "Feature", "properties": { "fid": 185128, "CNPJ": "35460046000178", "IDCIDADE": "ESTIVA_GERBI", "NOMEFANTASIA": "35.460.046_WELLINGTON_WILLIAN_MARQUES", "RAZAOSOCIAL": "ARMAZEM_DO_PIRULITO", "ENDEE": "AVENIDA_NIVERSON_GOMES_DA_SILVA82__SAO_JOSE_13858-334", "LMAPS": "https://www.google.com/maps?q=&layer=c&cbll=-22.273465,-46.9436565", "O_QUE_FAZER": "FINALIZADO", "ER_REGIAO_CIDADE_min": "Estiva Gerbi_São João da Boa Vista" }, "geometry": { "type": "Point", "coordinates": [ -46.9436565, -22.273465 ] } },
{ "type": "Feature", "properties": { "fid": 191496, "CNPJ": "36849613000145", "IDCIDADE": "ESTIVA_GERBI", "NOMEFANTASIA": "HELENA_MARIA_DEL_GIUDICE_02504521898", "RAZAOSOCIAL": "HELENA_JOIAS", "ENDEE": "AVENIDA_SEBASTIAO_DE_MELLO144__ESTIVA_VELHA_13858-500", "LMAPS": "https://www.google.com/maps?q=&layer=c&cbll=-22.2723916,-46.9434321", "O_QUE_FAZER": "FINALIZADO", "ER_REGIAO_CIDADE_min": "Estiva Gerbi_São João da Boa Vista" }, "geometry": { "type": "Point", "coordinates": [ -46.9434321, -22.2723916 ] } },
{ "type": "Feature", "properties": { "fid": 191533, "CNPJ": "36877654000226", "IDCIDADE": "ESTIVA_GERBI", "NOMEFANTASIA": "TEMPERO_CASEIRO", "RAZAOSOCIAL": "J._F._NOGUEIRA_RESTAURANTE", "ENDEE": "AVENIDA_ANGELO_ZANCO225__VILA_NOVA_ESTIVA_13857-112", "LMAPS": "https://www.google.com/maps?q=&layer=c&cbll=-22.2720304,-46.9516365", "O_QUE_FAZER": "CARTEIRA", "ER_REGIAO_CIDADE_min": "Estiva Gerbi_São João da Boa Vista" }, "geometry": { "type": "Point", "coordinates": [ -46.9516365, -22.2720304 ] } },
{ "type": "Feature", "properties": { "fid": 194744, "CNPJ": "37644082000117", "IDCIDADE": "ESTIVA_GERBI", "NOMEFANTASIA": "LUCAS_THEODORO_FERREIRA", "RAZAOSOCIAL": "LF_POWERCHIP", "ENDEE": "RUA_AUGUSTINHO_DE_COLLI210__CENTRO_13857-184", "LMAPS": "https://www.google.com/maps?q=&layer=c&cbll=-22.2756537,-46.9530647", "O_QUE_FAZER": "FINALIZADO", "ER_REGIAO_CIDADE_min": "Estiva Gerbi_São João da Boa Vista" }, "geometry": { "type": "Point", "coordinates": [ -46.9530647, -22.2756537 ] } },
{ "type": "Feature", "properties": { "fid": 195540, "CNPJ": "37785114000102", "IDCIDADE": "ESTIVA_GERBI", "NOMEFANTASIA": "MBI-AGRO_COMERCIO_ATACADISTA_LTDA.", "RAZAOSOCIAL": "DELAGRO", "ENDEE": "RUA_HENRIQUE_LANZI612__CENTRO_13857-000", "LMAPS": "https://www.google.com/maps?q=&layer=c&cbll=-22.272557,-46.9553545", "O_QUE_FAZER": "FINALIZADO", "ER_REGIAO_CIDADE_min": "Estiva Gerbi_São João da Boa Vista" }, "geometry": { "type": "Point", "coordinates": [ -46.9553545, -22.272557 ] } },
{ "type": "Feature", "properties": { "fid": 199698, "CNPJ": "38827175000140", "IDCIDADE": "ESTIVA_GERBI", "NOMEFANTASIA": "38.827.175_RAIANY_KETERLYN_DA_SILVA", "RAZAOSOCIAL": "FURLAN_BAR_E_MERCEARIA", "ENDEE": "RUA_ALCIDES_ANDRE_DA_SILVA222__FURLAN_13858-388", "LMAPS": "https://www.google.com/maps?q=&layer=c&cbll=-22.2720262,-46.9395385", "O_QUE_FAZER": "FINALIZADO", "ER_REGIAO_CIDADE_min": "Estiva Gerbi_São João da Boa Vista" }, "geometry": { "type": "Point", "coordinates": [ -46.9395385, -22.2720262 ] } },
{ "type": "Feature", "properties": { "fid": 200589, "CNPJ": "39305720000109", "IDCIDADE": "ESTIVA_GERBI", "NOMEFANTASIA": "ELETRO_MENEGOM", "RAZAOSOCIAL": "PRECISA_ELETRICA_E_HIDRAULICA_LTDA", "ENDEE": "RUA_AUGUSTINHO_DE_COLLI144__JARDIM_SAO_LOURENCO_13857-184", "LMAPS": "https://www.google.com/maps?q=&layer=c&cbll=-22.2750683,-46.95303", "O_QUE_FAZER": "CARTEIRA", "ER_REGIAO_CIDADE_min": "Estiva Gerbi_São João da Boa Vista" }, "geometry": { "type": "Point", "coordinates": [ -46.95303, -22.2750683 ] } },
{ "type": "Feature", "properties": { "fid": 200897, "CNPJ": "39363764000187", "IDCIDADE": "ESTIVA_GERBI", "NOMEFANTASIA": "FUNERARIA_BRANDINO", "RAZAOSOCIAL": "JONES_BRANDINO_DOS_SANTOS_FILHO", "ENDEE": "RUA_ALFREDO_LANZI30__VILA_NOVA_ESTIVA_13857-000", "LMAPS": "https://www.google.com/maps?q=&layer=c&cbll=-22.2712334,-46.9529803", "O_QUE_FAZER": "CARTEIRA", "ER_REGIAO_CIDADE_min": "Estiva Gerbi_São João da Boa Vista" }, "geometry": { "type": "Point", "coordinates": [ -46.9529803, -22.2712334 ] } },
{ "type": "Feature", "properties": { "fid": 201319, "CNPJ": "39440834000153", "IDCIDADE": "ESTIVA_GERBI", "NOMEFANTASIA": "MARCELO_MANOEL_BASTOS_32890111865", "RAZAOSOCIAL": "SABOR_DA_FEIRA", "ENDEE": "RUA_ADELIA_CALEFFI_GERBI289__CENTRO_13858-302", "LMAPS": "https://www.google.com/maps?q=&layer=c&cbll=-22.2722647,-46.9470073", "O_QUE_FAZER": "FINALIZADO", "ER_REGIAO_CIDADE_min": "Estiva Gerbi_São João da Boa Vista" }, "geometry": { "type": "Point", "coordinates": [ -46.9470073, -22.2722647 ] } },
{ "type": "Feature", "properties": { "fid": 202995, "CNPJ": "39791664000151", "IDCIDADE": "ESTIVA_GERBI", "NOMEFANTASIA": "LEONARDO_SILVIO_ABREU", "RAZAOSOCIAL": "JL_AUTO_PECAS", "ENDEE": "RUA_ALBERTO_DE_SOUZA487__CENTRO_13857-174", "LMAPS": "https://www.google.com/maps?q=&layer=c&cbll=-22.2772151,-46.9554471", "O_QUE_FAZER": "FINALIZADO", "ER_REGIAO_CIDADE_min": "Estiva Gerbi_São João da Boa Vista" }, "geometry": { "type": "Point", "coordinates": [ -46.9554471, -22.2772151 ] } },
{ "type": "Feature", "properties": { "fid": 203008, "CNPJ": "39794106000140", "IDCIDADE": "ESTIVA_GERBI", "NOMEFANTASIA": "ESTIVA_PACK", "RAZAOSOCIAL": "PLASTIVA_INDUSTRIA_E_COMERCIO_DE_EMBALAGENS_LTDA", "ENDEE": "RUA_ALBERTO_DE_SOUZA367__CENTRO_13857-174", "LMAPS": "https://www.google.com/maps?q=&layer=c&cbll=-22.2770864,-46.9552707", "O_QUE_FAZER": "CARTEIRA", "ER_REGIAO_CIDADE_min": "Estiva Gerbi_São João da Boa Vista" }, "geometry": { "type": "Point", "coordinates": [ -46.9552707, -22.2770864 ] } },
{ "type": "Feature", "properties": { "fid": 203667, "CNPJ": "39936624000150", "IDCIDADE": "ESTIVA_GERBI", "NOMEFANTASIA": "LIMPA_LIDER_COMERCIO_E_SERVICO_DE_PRODUTOS_DE_LIMPEZA_LTDA", "RAZAOSOCIAL": "LIMPA_LIDER", "ENDEE": "RUA_TEREZA_PEREIRA_MADRUGA_CORREA33__CENTRO_13857-300", "LMAPS": "https://www.google.com/maps?q=&layer=c&cbll=-22.2793649,-46.9559899", "O_QUE_FAZER": "FINALIZADO", "ER_REGIAO_CIDADE_min": "Estiva Gerbi_São João da Boa Vista" }, "geometry": { "type": "Point", "coordinates": [ -46.9559899, -22.2793649 ] } },
{ "type": "Feature", "properties": { "fid": 204322, "CNPJ": "40084460000160", "IDCIDADE": "ESTIVA_GERBI", "NOMEFANTASIA": "MENINA_DOS_OLHOS", "RAZAOSOCIAL": "OPTICA_STERPELONI_ESTIVA_GERBI_LTDA", "ENDEE": "RUA_CUBANO_GERBI211__CENTRO_13857-152", "LMAPS": "https://www.google.com/maps?q=&layer=c&cbll=-22.2737013,-46.9516995", "O_QUE_FAZER": "CARTEIRA", "ER_REGIAO_CIDADE_min": "Estiva Gerbi_São João da Boa Vista" }, "geometry": { "type": "Point", "coordinates": [ -46.9516995, -22.2737013 ] } },
{ "type": "Feature", "properties": { "fid": 204999, "CNPJ": "40256821000108", "IDCIDADE": "ESTIVA_GERBI", "NOMEFANTASIA": "40.256.821_LUCAS_DO_COUTO_QUINTILIANO", "RAZAOSOCIAL": "LUCAS_COUTO", "ENDEE": "RUA_AUGUSTINHO_DE_COLLI210__CENTRO_13857-184", "LMAPS": "https://www.google.com/maps?q=&layer=c&cbll=-22.2756537,-46.9530647", "O_QUE_FAZER": "FINALIZADO", "ER_REGIAO_CIDADE_min": "Estiva Gerbi_São João da Boa Vista" }, "geometry": { "type": "Point", "coordinates": [ -46.9530647, -22.2756537 ] } },
{ "type": "Feature", "properties": { "fid": 208416, "CNPJ": "41155093000100", "IDCIDADE": "SAO_PAULO", "NOMEFANTASIA": "MURILO_AUGUSTO_SABIO_46274479813", "RAZAOSOCIAL": "MURILO_BARBEARIA", "ENDEE": "RUA_VANTE_JOSE_TONIETTI1445__CENTRO_17300-001", "LMAPS": "https://www.google.com/maps?q=&layer=c&cbll=-22.2743659,-46.9556774", "O_QUE_FAZER": "FINALIZADO", "ER_REGIAO_CIDADE_min": "Estiva Gerbi_São João da Boa Vista" }, "geometry": { "type": "Point", "coordinates": [ -46.9556774, -22.2743659 ] } },
{ "type": "Feature", "properties": { "fid": 208543, "CNPJ": "41209596000111", "IDCIDADE": "ESTIVA_GERBI", "NOMEFANTASIA": "FFB_DESCARTAVEIS_LTDA.", "RAZAOSOCIAL": "DESCARTAVEIS_E_CIA", "ENDEE": "RUA_CUBANO_GERBI392__CENTRO_13857-000", "LMAPS": "https://www.google.com/maps?q=&layer=c&cbll=-22.2735648,-46.9534292", "O_QUE_FAZER": "FINALIZADO", "ER_REGIAO_CIDADE_min": "Estiva Gerbi_São João da Boa Vista" }, "geometry": { "type": "Point", "coordinates": [ -46.9534292, -22.2735648 ] } },
{ "type": "Feature", "properties": { "fid": 214705, "CNPJ": "42668577000116", "IDCIDADE": "ESTIVA_GERBI", "NOMEFANTASIA": "SABOR_E_CIA", "RAZAOSOCIAL": "F._E._H._COMERCIO_ALIMENTICIO_LTDA", "ENDEE": "AVENIDA_ANGELO_ZANCO150__CENTRO_13857-000", "LMAPS": "https://www.google.com/maps?q=&layer=c&cbll=-22.2717158,-46.9518205", "O_QUE_FAZER": "CARTEIRA", "ER_REGIAO_CIDADE_min": "Estiva Gerbi_São João da Boa Vista" }, "geometry": { "type": "Point", "coordinates": [ -46.9518205, -22.2717158 ] } },
{ "type": "Feature", "properties": { "fid": 215727, "CNPJ": "42895503000112", "IDCIDADE": "ESTIVA_GERBI", "NOMEFANTASIA": "G._A._LOPES_DO_PRADO_LTDA.", "RAZAOSOCIAL": "LOJAS_PRADO", "ENDEE": "RUA_CUBANO_GERBI303__CENTRO_13857-000", "LMAPS": "https://www.google.com/maps?q=&layer=c&cbll=-22.2737816,-46.9520102", "O_QUE_FAZER": "FINALIZADO", "ER_REGIAO_CIDADE_min": "Estiva Gerbi_São João da Boa Vista" }, "geometry": { "type": "Point", "coordinates": [ -46.9520102, -22.2737816 ] } },
{ "type": "Feature", "properties": { "fid": 217027, "CNPJ": "43160597000144", "IDCIDADE": "ESTIVA_GERBI", "NOMEFANTASIA": "JORDAO", "RAZAOSOCIAL": "JORDAO_MATERIAIS_DE_CONSTRUCAO_LTDA", "ENDEE": "AVENIDA_ANGELO_ZANCO858__VILA_NOVA_ESTIVA_13857-186", "LMAPS": "https://www.google.com/maps?q=&layer=c&cbll=-22.277524,-46.9524848", "O_QUE_FAZER": "CARTEIRA", "ER_REGIAO_CIDADE_min": "Estiva Gerbi_São João da Boa Vista" }, "geometry": { "type": "Point", "coordinates": [ -46.9524848, -22.277524 ] } },
{ "type": "Feature", "properties": { "fid": 217175, "CNPJ": "43191384000180", "IDCIDADE": "ESTIVA GERBI", "NOMEFANTASIA": null, "RAZAOSOCIAL": "EDUARDO_FRANZOLIN_DIAS_21678599883", "ENDEE": "10A RUA MARIA AUGUSTA BUENO CHEREGATTI, 476, JD TAGUA 1, 13857-000, ESTIVA GERBI, SP, BRASIL", "LMAPS": "https://www.google.com/maps?q=&layer=c&cbll=-22.2791922,-46.9523741", "O_QUE_FAZER": "APLICAR T2", "ER_REGIAO_CIDADE_min": "Estiva Gerbi_São João da Boa Vista" }, "geometry": { "type": "Point", "coordinates": [ -46.9523741, -22.2791922 ] } },
{ "type": "Feature", "properties": { "fid": 217493, "CNPJ": "43249683000128", "IDCIDADE": "ESTIVA_GERBI", "NOMEFANTASIA": "T2PACK", "RAZAOSOCIAL": "T2PACK_EMBALAGENS_LTDA", "ENDEE": "RUA_PERCILIO_FERNANDES177__JARDIM_TAGUA_II_13857-290", "LMAPS": "https://www.google.com/maps?q=&layer=c&cbll=-22.2793683,-46.9548667", "O_QUE_FAZER": "CARTEIRA", "ER_REGIAO_CIDADE_min": "Estiva Gerbi_São João da Boa Vista" }, "geometry": { "type": "Point", "coordinates": [ -46.9548667, -22.2793683 ] } },
{ "type": "Feature", "properties": { "fid": 223434, "CNPJ": "44454358000160", "IDCIDADE": "ESTIVA_GERBI", "NOMEFANTASIA": "P._S._CAMILO_JUNIOR_BEER", "RAZAOSOCIAL": "CAMILOS_BEER", "ENDEE": "AVENIDA_ANGELO_ZANCO312__CENTRO_13857-186", "LMAPS": "https://www.google.com/maps?q=&layer=c&cbll=-22.272764,-46.9519039", "O_QUE_FAZER": "FINALIZADO", "ER_REGIAO_CIDADE_min": "Estiva Gerbi_São João da Boa Vista" }, "geometry": { "type": "Point", "coordinates": [ -46.9519039, -22.272764 ] } },
{ "type": "Feature", "properties": { "fid": 227003, "CNPJ": "45240826000166", "IDCIDADE": "ESTIVA_GERBI", "NOMEFANTASIA": "TOLEDO_AUTO_PECAS_LTDA", "RAZAOSOCIAL": "TOLEDO_AUTO_PECAS", "ENDEE": "RUA_ALBERTO_DE_SOUZA427__CENTRO_13857-174", "LMAPS": "https://www.google.com/maps?q=&layer=c&cbll=-22.2777164,-46.955592", "O_QUE_FAZER": "FINALIZADO", "ER_REGIAO_CIDADE_min": "Estiva Gerbi_São João da Boa Vista" }, "geometry": { "type": "Point", "coordinates": [ -46.955592, -22.2777164 ] } },
{ "type": "Feature", "properties": { "fid": 227387, "CNPJ": "45329702000151", "IDCIDADE": "ESTIVA_GERBI", "NOMEFANTASIA": "45.329.702_WARLEY_DOS_SANTOS_SILVA", "RAZAOSOCIAL": "PROJECTO_PLANEJADOS", "ENDEE": "AVENIDA_ANGELO_ZANCO191__CENTRO_13857-186", "LMAPS": "https://www.google.com/maps?q=&layer=c&cbll=-22.2716564,-46.9515036", "O_QUE_FAZER": "FINALIZADO", "ER_REGIAO_CIDADE_min": "Estiva Gerbi_São João da Boa Vista" }, "geometry": { "type": "Point", "coordinates": [ -46.9515036, -22.2716564 ] } },
{ "type": "Feature", "properties": { "fid": 231963, "CNPJ": "46260499000177", "IDCIDADE": "ESTIVA_GERBI", "NOMEFANTASIA": "SOLANGE_BEZERRA_DA_SILVA_33304867830", "RAZAOSOCIAL": "ARMARINHO_DA_SOL", "ENDEE": "AVENIDA_ANGELO_ZANCO244__CENTRO_13857-186", "LMAPS": "https://www.google.com/maps?q=&layer=c&cbll=-22.2721177,-46.9518313", "O_QUE_FAZER": "FINALIZADO", "ER_REGIAO_CIDADE_min": "Estiva Gerbi_São João da Boa Vista" }, "geometry": { "type": "Point", "coordinates": [ -46.9518313, -22.2721177 ] } },
{ "type": "Feature", "properties": { "fid": 236633, "CNPJ": "47208348000132", "IDCIDADE": "ESTIVA GERBI", "NOMEFANTASIA": "PALERMO_TRANSPORTES", "RAZAOSOCIAL": "JOSE_ANGELO_PALERMO_TRANSPORTES_LTDA", "ENDEE": "RUA SILVIO AURELIO DE ABREU, 8, JARDIM SAO LOURENCO, 13857-000, ESTIVA GERBI, SP, BRASIL", "LMAPS": "https://www.google.com/maps?q=&layer=c&cbll=-22.2738697,-46.9507052", "O_QUE_FAZER": "CARTEIRA - FAMPE", "ER_REGIAO_CIDADE_min": "Estiva Gerbi_São João da Boa Vista" }, "geometry": { "type": "Point", "coordinates": [ -46.9507052, -22.2738697 ] } },
{ "type": "Feature", "properties": { "fid": 238769, "CNPJ": "47665892000103", "IDCIDADE": "ESTIVA_GERBI", "NOMEFANTASIA": "IVAIL_DONIZETI_ALEGRE_03776538880", "RAZAOSOCIAL": "LADONA_LADO_ANIMAL", "ENDEE": "AVENIDA_ADELIA_CALEFFI_GERBI840__CENTRO_13858-302", "LMAPS": "https://www.google.com/maps?q=&layer=c&cbll=-22.2710651,-46.9532533", "O_QUE_FAZER": "FINALIZADO", "ER_REGIAO_CIDADE_min": "Estiva Gerbi_São João da Boa Vista" }, "geometry": { "type": "Point", "coordinates": [ -46.9532533, -22.2710651 ] } },
{ "type": "Feature", "properties": { "fid": 239413, "CNPJ": "47797171000157", "IDCIDADE": "ESTIVA_GERBI", "NOMEFANTASIA": "MAGNO_AFONSO_VIANA_48556554814", "RAZAOSOCIAL": "MAGNO_BIKE", "ENDEE": "AVENIDA_VANTE_JOSE_TONIETTI2925__ANHUMAS_13857-036", "LMAPS": "https://www.google.com/maps?q=&layer=c&cbll=-22.273691,-46.951949", "O_QUE_FAZER": "FINALIZADO", "ER_REGIAO_CIDADE_min": "Estiva Gerbi_São João da Boa Vista" }, "geometry": { "type": "Point", "coordinates": [ -46.951949, -22.273691 ] } },
{ "type": "Feature", "properties": { "fid": 247000, "CNPJ": "49407547000103", "IDCIDADE": "ESTIVA_GERBI", "NOMEFANTASIA": "ARCANJO_AUTO_PECAS_LTDA", "RAZAOSOCIAL": "ARCANJO_AUTO_PECAS", "ENDEE": "AVENIDA_ADELIA_CALEFFI_GERBI430__CENTRO_13858-302", "LMAPS": "https://www.google.com/maps?q=&layer=c&cbll=-22.2710744,-46.9493535", "O_QUE_FAZER": "FINALIZADO", "ER_REGIAO_CIDADE_min": "Estiva Gerbi_São João da Boa Vista" }, "geometry": { "type": "Point", "coordinates": [ -46.9493535, -22.2710744 ] } },
{ "type": "Feature", "properties": { "fid": 249857, "CNPJ": "49972721000152", "IDCIDADE": "ESTIVA_GERBI", "NOMEFANTASIA": "49.972.721_LEYRISSON_NEVES_LOPES", "RAZAOSOCIAL": "GLEYDSON_MECANICA", "ENDEE": "AVENIDA_ADELIA_CALEFFI_GERBI430__CENTRO_13858-302", "LMAPS": "https://www.google.com/maps?q=&layer=c&cbll=-22.2710744,-46.9493535", "O_QUE_FAZER": "FINALIZADO", "ER_REGIAO_CIDADE_min": "Estiva Gerbi_São João da Boa Vista" }, "geometry": { "type": "Point", "coordinates": [ -46.9493535, -22.2710744 ] } },
{ "type": "Feature", "properties": { "fid": 250428, "CNPJ": "50077384000119", "IDCIDADE": "ESTIVA_GERBI", "NOMEFANTASIA": "50.077.384_LUCAS_GUSTAVO_DORIGON", "RAZAOSOCIAL": "PRIMOS_RETRO", "ENDEE": "AVENIDA_ANGELO_ZANCO900__CENTRO_13857-186", "LMAPS": "https://www.google.com/maps?q=&layer=c&cbll=-22.2784047,-46.9526238", "O_QUE_FAZER": "FINALIZADO", "ER_REGIAO_CIDADE_min": "Estiva Gerbi_São João da Boa Vista" }, "geometry": { "type": "Point", "coordinates": [ -46.9526238, -22.2784047 ] } },
{ "type": "Feature", "properties": { "fid": 251736, "CNPJ": "50342993000158", "IDCIDADE": "ESTIVA_GERBI", "NOMEFANTASIA": "ORNNARE_PRODUTOS_CERAMICOS_LTDA", "RAZAOSOCIAL": "ORNARE_VASOS", "ENDEE": "RUA_ALBERTO_DE_SOUZA51__CENTRO_13857-000", "LMAPS": "https://www.google.com/maps?q=&layer=c&cbll=-22.2745849,-46.9551356", "O_QUE_FAZER": "FINALIZADO", "ER_REGIAO_CIDADE_min": "Estiva Gerbi_São João da Boa Vista" }, "geometry": { "type": "Point", "coordinates": [ -46.9551356, -22.2745849 ] } },
{ "type": "Feature", "properties": { "fid": 258707, "CNPJ": "51740807000100", "IDCIDADE": "ESTIVA_GERBI", "NOMEFANTASIA": "51.740.807_ALTAIR_FERNANDES_DA_SILVA", "RAZAOSOCIAL": "ESCRITORIO_MERCEARIA", "ENDEE": "AVENIDA_ANGELO_ZANCO818__CENTRO_13857-186", "LMAPS": "https://www.google.com/maps?q=&layer=c&cbll=-22.2772143,-46.9524984", "O_QUE_FAZER": "FINALIZADO", "ER_REGIAO_CIDADE_min": "Estiva Gerbi_São João da Boa Vista" }, "geometry": { "type": "Point", "coordinates": [ -46.9524984, -22.2772143 ] } },
{ "type": "Feature", "properties": { "fid": 262128, "CNPJ": "52427376000180", "IDCIDADE": "ESTIVA_GERBI", "NOMEFANTASIA": "52.427.376_RENATO_XAVIER_DE_BARROS", "RAZAOSOCIAL": "RJ_ASSISTENCIA_TECNICA", "ENDEE": "RUA_AUGUSTINHO_DE_COLLI130__CENTRO_13857-184", "LMAPS": "https://www.google.com/maps?q=&layer=c&cbll=-22.2749648,-46.9529937", "O_QUE_FAZER": "FINALIZADO", "ER_REGIAO_CIDADE_min": "Estiva Gerbi_São João da Boa Vista" }, "geometry": { "type": "Point", "coordinates": [ -46.9529937, -22.2749648 ] } },
{ "type": "Feature", "properties": { "fid": 268511, "CNPJ": "53858400000107", "IDCIDADE": "ESTIVA_GERBI", "NOMEFANTASIA": "53.858.400_RONALDO_BATISTA", "RAZAOSOCIAL": "RANCHO_DAS_FLORES", "ENDEE": "RUA_MARIO_ROCHA15__CENTRO_13857-000", "LMAPS": "https://www.google.com/maps?q=&layer=c&cbll=-22.2739714,-46.9532168", "O_QUE_FAZER": "FINALIZADO", "ER_REGIAO_CIDADE_min": "Estiva Gerbi_São João da Boa Vista" }, "geometry": { "type": "Point", "coordinates": [ -46.9532168, -22.2739714 ] } },
{ "type": "Feature", "properties": { "fid": 268744, "CNPJ": "53905756000227", "IDCIDADE": "ESTIVA_GERBI", "NOMEFANTASIA": "LS_COLLORS", "RAZAOSOCIAL": "SHIMADA_TINTAS_E_EQUIPAMENTOS_LTDA", "ENDEE": "AVENIDA_VANTE_JOSE_TONIETTI2501__JARDIM_ANHUMAS_13857-036", "LMAPS": "https://www.google.com/maps?q=&layer=c&cbll=-22.2761016,-46.9560742", "O_QUE_FAZER": "CARTEIRA", "ER_REGIAO_CIDADE_min": "Estiva Gerbi_São João da Boa Vista" }, "geometry": { "type": "Point", "coordinates": [ -46.9560742, -22.2761016 ] } },
{ "type": "Feature", "properties": { "fid": 270044, "CNPJ": "54192092000188", "IDCIDADE": "ESTIVA GERBI", "NOMEFANTASIA": "-", "RAZAOSOCIAL": "54.192.092_RODRIGO_CLARO_DAVID", "ENDEE": "RUA FRANCISCO MARIA DA ROCHA, 27, BELA VISTA, 13858-150, ESTIVA GERBI, SP, BRASIL", "LMAPS": "https://www.google.com/maps?q=&layer=c&cbll=-22.2622754,-46.9478161", "O_QUE_FAZER": "CARTEIRA - FAMPE", "ER_REGIAO_CIDADE_min": "Estiva Gerbi_São João da Boa Vista" }, "geometry": { "type": "Point", "coordinates": [ -46.9478161, -22.2622754 ] } },
{ "type": "Feature", "properties": { "fid": 274616, "CNPJ": "55195864000106", "IDCIDADE": "ESTIVA_GERBI", "NOMEFANTASIA": "55.195.864_JOSE_MARIA_DA_SILVA", "RAZAOSOCIAL": "LOJA_CARISMA", "ENDEE": "RUA_AUGUSTINHO_DE_COLLI30__CENTRO_13857-184", "LMAPS": "https://www.google.com/maps?q=&layer=c&cbll=-22.2739597,-46.9528866", "O_QUE_FAZER": "FINALIZADO", "ER_REGIAO_CIDADE_min": "Estiva Gerbi_São João da Boa Vista" }, "geometry": { "type": "Point", "coordinates": [ -46.9528866, -22.2739597 ] } },
{ "type": "Feature", "properties": { "fid": 277448, "CNPJ": "55885253000181", "IDCIDADE": "ESTIVA_GERBI", "NOMEFANTASIA": "55.885.253_DAIANA_MUNHOZ_GOMI", "RAZAOSOCIAL": "ANNA_BELLA", "ENDEE": "AVENIDA_ANGELO_ZANCO230__CENTRO_13857-186", "LMAPS": "https://www.google.com/maps?q=&layer=c&cbll=-22.2719974,-46.9517922", "O_QUE_FAZER": "FINALIZADO", "ER_REGIAO_CIDADE_min": "Estiva Gerbi_São João da Boa Vista" }, "geometry": { "type": "Point", "coordinates": [ -46.9517922, -22.2719974 ] } },
{ "type": "Feature", "properties": { "fid": 283162, "CNPJ": "57786954000199", "IDCIDADE": "ESTIVA_GERBI", "NOMEFANTASIA": "57.786.954_REBECA_KARINA_SOUZA", "RAZAOSOCIAL": "MARIA_BONITA", "ENDEE": "RUA_CUBANO_GERBI364__CENTRO_13857-000", "LMAPS": "https://www.google.com/maps?q=&layer=c&cbll=-22.2735453,-46.9530192", "O_QUE_FAZER": "FINALIZADO", "ER_REGIAO_CIDADE_min": "Estiva Gerbi_São João da Boa Vista" }, "geometry": { "type": "Point", "coordinates": [ -46.9530192, -22.2735453 ] } },
{ "type": "Feature", "properties": { "fid": 287418, "CNPJ": "59116867000150", "IDCIDADE": "ESTIVA_GERBI", "NOMEFANTASIA": "SEBASTIAO_DIAS_DE_FREITAS_NETO", "RAZAOSOCIAL": "TIAO_TROVAO_MERCEARIA", "ENDEE": "RUA_OCTAVIO_COSTA341__JARDIM_FURLAN_13858-390", "LMAPS": "https://www.google.com/maps?q=&layer=c&cbll=-22.2723073,-46.9399999", "O_QUE_FAZER": "FINALIZADO", "ER_REGIAO_CIDADE_min": "Estiva Gerbi_São João da Boa Vista" }, "geometry": { "type": "Point", "coordinates": [ -46.9399999, -22.2723073 ] } },
{ "type": "Feature", "properties": { "fid": 289905, "CNPJ": "59881317000127", "IDCIDADE": "ESTIVA_GERBI", "NOMEFANTASIA": "SUPER_MAJOLI_LTDA", "RAZAOSOCIAL": "SUPER_MAJOLI", "ENDEE": "AVENIDA_ANGELO_ZANCO290__CENTRO_13857-186", "LMAPS": "https://www.google.com/maps?q=&layer=c&cbll=-22.272822,-46.951956", "O_QUE_FAZER": "FINALIZADO", "ER_REGIAO_CIDADE_min": "Estiva Gerbi_São João da Boa Vista" }, "geometry": { "type": "Point", "coordinates": [ -46.951956, -22.272822 ] } },
{ "type": "Feature", "properties": { "fid": 296963, "CNPJ": "62490444000100", "IDCIDADE": "ESTIVA GERBI", "NOMEFANTASIA": null, "RAZAOSOCIAL": "62.490.444_CARITAS_FLAVIANA_BARBOSA_TEIXEIRA", "ENDEE": "RUA BENEDITO ALEGRE, 111, CASA, JARDIM SAO LOURENCO, 13857-138, ESTIVA GERBI, SP, BRASIL", "LMAPS": "https://www.google.com/maps?q=&layer=c&cbll=-22.2747794,-46.9539008", "O_QUE_FAZER": "CARTEIRA - FAMPE", "ER_REGIAO_CIDADE_min": "Estiva Gerbi_São João da Boa Vista" }, "geometry": { "type": "Point", "coordinates": [ -46.9539008, -22.2747794 ] } },
{ "type": "Feature", "properties": { "fid": 300618, "CNPJ": "64630586000150", "IDCIDADE": "ESTIVA GERBI", "NOMEFANTASIA": null, "RAZAOSOCIAL": "64.630.586_TATIANE_SILVA_DE_SOUZA", "ENDEE": "RUA ALBERTO CALEFFI, 563, JARDIM SAO LOURENCO, 13857-146, ESTIVA GERBI, SP, BRASIL", "LMAPS": "https://www.google.com/maps?q=&layer=c&cbll=-22.273317,-46.9546118", "O_QUE_FAZER": "CARTEIRA - FAMPE", "ER_REGIAO_CIDADE_min": "Estiva Gerbi_São João da Boa Vista" }, "geometry": { "type": "Point", "coordinates": [ -46.9546118, -22.273317 ] } },
{ "type": "Feature", "properties": { "fid": 301139, "CNPJ": "64868862000113", "IDCIDADE": "ESTIVA_GERBI", "NOMEFANTASIA": "AGROPECUARIA_PIONEIRA_LTDA", "RAZAOSOCIAL": "AGRO_PIONEIRA", "ENDEE": "AVENIDA_ADELIA_CALEFFI_GERBI490__CENTRO_13858-302", "LMAPS": "https://www.google.com/maps?q=&layer=c&cbll=-22.2709679,-46.9498681", "O_QUE_FAZER": "FINALIZADO", "ER_REGIAO_CIDADE_min": "Estiva Gerbi_São João da Boa Vista" }, "geometry": { "type": "Point", "coordinates": [ -46.9498681, -22.2709679 ] } },
{ "type": "Feature", "properties": { "fid": 305775, "CNPJ": "67224882000140", "IDCIDADE": "ESTIVA GERBI", "NOMEFANTASIA": null, "RAZAOSOCIAL": "67.224.882_GABRIEL_DOMINGOS", "ENDEE": "RUA PLACIDO BONIFACIO DE SOUZA, 323, CHACARAS PARAISO DO ORICANGA, 13857-752, ESTIVA GERBI, SP, BRASIL", "LMAPS": "https://www.google.com/maps?q=&layer=c&cbll=-22.2668121,-46.9715326", "O_QUE_FAZER": "CARTEIRA - FAMPE", "ER_REGIAO_CIDADE_min": "Estiva Gerbi_São João da Boa Vista" }, "geometry": { "type": "Point", "coordinates": [ -46.9715326, -22.2668121 ] } },
{ "type": "Feature", "properties": { "fid": 305941, "CNPJ": "67299099000145", "IDCIDADE": "ESTIVA_GERBI", "NOMEFANTASIA": "COMERCIO_DE_MAT_DE_CONSTRUCAO_SANTA_RITA_ESTIVA_LTDA", "RAZAOSOCIAL": "SR_SANTA_RITA", "ENDEE": "RUA_JOSE_LOPES32__CENTRO_13857-132", "LMAPS": "https://www.google.com/maps?q=&layer=c&cbll=-22.2753468,-46.9525823", "O_QUE_FAZER": "FINALIZADO", "ER_REGIAO_CIDADE_min": "Estiva Gerbi_São João da Boa Vista" }, "geometry": { "type": "Point", "coordinates": [ -46.9525823, -22.2753468 ] } },
{ "type": "Feature", "properties": { "fid": 309973, "CNPJ": "72691272000196", "IDCIDADE": "ESTIVA_GERBI", "NOMEFANTASIA": "INES_M_S_SILVA", "RAZAOSOCIAL": "REALCE_MODAS", "ENDEE": "RUA_CUBANO_GERBI170__JARDIM_SAO_LOURENCO_13857-152", "LMAPS": "https://www.google.com/maps?q=&layer=c&cbll=-22.2735992,-46.9510316", "O_QUE_FAZER": "FINALIZADO", "ER_REGIAO_CIDADE_min": "Estiva Gerbi_São João da Boa Vista" }, "geometry": { "type": "Point", "coordinates": [ -46.9510316, -22.2735992 ] } }
]
}
