{
"type": "FeatureCollection",
"name": "ER_REGIAO_CIDADE_min_Serra Azul_Ribeirão Preto",
"crs": { "type": "name", "properties": { "name": "urn:ogc:def:crs:OGC:1.3:CRS84" } },
"xy_coordinate_resolution": 1e-15,
"features": [
{ "type": "Feature", "properties": { "fid": 73174, "CNPJ": "11686279000125", "IDCIDADE": "SERRA_AZUL", "NOMEFANTASIA": "MIX-EXPRES_LTDA", "RAZAOSOCIAL": "MIX-EXPRESS_LTDA", "ENDEE": "RUA_PEDRO_SIRIANI440__CENTRO_14230-000", "LMAPS": "https://www.google.com/maps?q=&layer=c&cbll=-21.3125458,-47.5675111", "O_QUE_FAZER": "FINALIZADO", "ER_REGIAO_CIDADE_min": "Serra Azul_Ribeirão Preto" }, "geometry": { "type": "Point", "coordinates": [ -47.5675111, -21.3125458 ] } },
{ "type": "Feature", "properties": { "fid": 191437, "CNPJ": "36812145000134", "IDCIDADE": "SERRA AZUL", "NOMEFANTASIA": "BOSSA_TRANSPORTE_DE_CANA", "RAZAOSOCIAL": "ROGERIO_JOSE_BOSSA_TRANSPORTADORA", "ENDEE": "RUA ARLINDO LOPES MORAES, 96, JARDIM BOM RETIRO, 14230-000, SERRA AZUL, SP, BRASIL", "LMAPS": "https://www.google.com/maps?q=&layer=c&cbll=-21.320757,-47.5705915", "O_QUE_FAZER": "CARTEIRA - FAMPE", "ER_REGIAO_CIDADE_min": "Serra Azul_Ribeirão Preto" }, "geometry": { "type": "Point", "coordinates": [ -47.5705915, -21.320757 ] } },
{ "type": "Feature", "properties": { "fid": 195992, "CNPJ": "37869606000178", "IDCIDADE": "SERRA AZUL", "NOMEFANTASIA": null, "RAZAOSOCIAL": "ALEXANDRE_ESTEVAM_PINHEIRO_40061126888", "ENDEE": "RUA EURIPEDES EUZEBIO NETO, 61, CASA, JARDIM DAS FLORES, 14230-000, SERRA AZUL, SP, BRASIL", "LMAPS": "https://www.google.com/maps?q=&layer=c&cbll=-21.3167035,-47.5613379", "O_QUE_FAZER": "CARTEIRA - FAMPE", "ER_REGIAO_CIDADE_min": "Serra Azul_Ribeirão Preto" }, "geometry": { "type": "Point", "coordinates": [ -47.5613379, -21.3167035 ] } },
{ "type": "Feature", "properties": { "fid": 257956, "CNPJ": "51577696000154", "IDCIDADE": "SERRA AZUL", "NOMEFANTASIA": "-", "RAZAOSOCIAL": "51.577.696_MARCELO_HENRIQUE_BETTI", "ENDEE": "RUA JOAQUIM INACIO DA SILVA, 130, CONJ, STA TEREZINHA, 14230-000, SERRA AZUL, SP, BRASIL", "LMAPS": "https://www.google.com/maps?q=&layer=c&cbll=-21.3064319,-47.5608398", "O_QUE_FAZER": "CARTEIRA - FAMPE", "ER_REGIAO_CIDADE_min": "Serra Azul_Ribeirão Preto" }, "geometry": { "type": "Point", "coordinates": [ -47.5608398, -21.3064319 ] } }
]
}
