{
"type": "FeatureCollection",
"name": "ER_REGIAO_CIDADE_min_Ribeirão do Sul_Marília",
"crs": { "type": "name", "properties": { "name": "urn:ogc:def:crs:OGC:1.3:CRS84" } },
"xy_coordinate_resolution": 1e-15,
"features": [
{ "type": "Feature", "properties": { "fid": 14413, "CNPJ": "02887234000128", "IDCIDADE": "RIBEIRAO_DO_SUL", "NOMEFANTASIA": "MERCADO_SERV_BEM", "RAZAOSOCIAL": "VALDOMIRO_INIGO_MANSANO_JUNIOR", "ENDEE": "RUA_26_DE_ABRIL65__CENTRO_19930-033", "LMAPS": "https://www.google.com/maps?q=&layer=c&cbll=-22.7829603,-49.9308422", "O_QUE_FAZER": "CARTEIRA", "ER_REGIAO_CIDADE_min": "Ribeirão do Sul_Marília" }, "geometry": { "type": "Point", "coordinates": [ -49.9308422, -22.7829603 ] } },
{ "type": "Feature", "properties": { "fid": 16613, "CNPJ": "03245695000160", "IDCIDADE": "RIBEIRAO_DO_SUL", "NOMEFANTASIA": "PADARIA_NS_APARECIDA", "RAZAOSOCIAL": "J._P._CASTRO_&_CIA._LTDA.", "ENDEE": "RUA_ANTONIO_LUIZ_VIANA327__CENTRO_19930-005", "LMAPS": "https://www.google.com/maps?q=&layer=c&cbll=-22.7834871,-49.9328012", "O_QUE_FAZER": "CARTEIRA", "ER_REGIAO_CIDADE_min": "Ribeirão do Sul_Marília" }, "geometry": { "type": "Point", "coordinates": [ -49.9328012, -22.7834871 ] } },
{ "type": "Feature", "properties": { "fid": 17446, "CNPJ": "03379882000136", "IDCIDADE": "RIBEIRAO_DO_SUL", "NOMEFANTASIA": "SACDRILE_MC", "RAZAOSOCIAL": "JORGINA_DE_FATIMA_F._REIS", "ENDEE": "RUA_PROJETADA_289__JARDIM_SATELITE_19930-802", "LMAPS": "https://www.google.com/maps?q=&layer=c&cbll=-22.7857022,-49.9291434", "O_QUE_FAZER": "CARTEIRA", "ER_REGIAO_CIDADE_min": "Ribeirão do Sul_Marília" }, "geometry": { "type": "Point", "coordinates": [ -49.9291434, -22.7857022 ] } },
{ "type": "Feature", "properties": { "fid": 36517, "CNPJ": "06164948000169", "IDCIDADE": "RIBEIRAO_DO_SUL", "NOMEFANTASIA": "DF_STORE", "RAZAOSOCIAL": "D.F.LOURENCO", "ENDEE": "RUA_ANTONIO_LUIZ_VIANA248__CENTRO_19930-005", "LMAPS": "https://www.google.com/maps?q=&layer=c&cbll=-22.7838633,-49.9332155", "O_QUE_FAZER": "CARTEIRA", "ER_REGIAO_CIDADE_min": "Ribeirão do Sul_Marília" }, "geometry": { "type": "Point", "coordinates": [ -49.9332155, -22.7838633 ] } },
{ "type": "Feature", "properties": { "fid": 39156, "CNPJ": "07006266000190", "IDCIDADE": "RIBEIRAO_DO_SUL", "NOMEFANTASIA": "VITORIA_PRESENTES", "RAZAOSOCIAL": "RERI_PAPELARIA_E_PRESENTES_LTDA.", "ENDEE": "RUA_ANTONIO_LUIZ_VIANA819__CENTRO_19930-005", "LMAPS": "https://www.google.com/maps?q=&layer=c&cbll=-22.7832916,-49.9319578", "O_QUE_FAZER": "CARTEIRA", "ER_REGIAO_CIDADE_min": "Ribeirão do Sul_Marília" }, "geometry": { "type": "Point", "coordinates": [ -49.9319578, -22.7832916 ] } },
{ "type": "Feature", "properties": { "fid": 41556, "CNPJ": "07304897000196", "IDCIDADE": "RIBEIRAO_DO_SUL", "NOMEFANTASIA": "PAO_DE_MEK", "RAZAOSOCIAL": "BEATRIZ_GOMES_DE_MORAES_PEREIRA_&_CIA._LTDA", "ENDEE": "RUA_AUGUSTO_CORREA_GOMES471__PARQUE_DA_MATA_19930-119", "LMAPS": "https://www.google.com/maps?q=&layer=c&cbll=-22.7882298,-49.9264849", "O_QUE_FAZER": "CARTEIRA", "ER_REGIAO_CIDADE_min": "Ribeirão do Sul_Marília" }, "geometry": { "type": "Point", "coordinates": [ -49.9264849, -22.7882298 ] } },
{ "type": "Feature", "properties": { "fid": 46190, "CNPJ": "07840791000107", "IDCIDADE": "RIBEIRAO_DO_SUL", "NOMEFANTASIA": "INCORPORE", "RAZAOSOCIAL": "INCORPORE_ENGENHARIA_E_COMERCIO_LTDA", "ENDEE": "RUA_AUGUSTO_CORREA_GOMES388__PARQUE_DA_MATA_19930-119", "LMAPS": "https://www.google.com/maps?q=&layer=c&cbll=-22.7880522,-49.9268819", "O_QUE_FAZER": "CARTEIRA", "ER_REGIAO_CIDADE_min": "Ribeirão do Sul_Marília" }, "geometry": { "type": "Point", "coordinates": [ -49.9268819, -22.7880522 ] } },
{ "type": "Feature", "properties": { "fid": 48979, "CNPJ": "08247101000173", "IDCIDADE": "RIBEIRAO_DO_SUL", "NOMEFANTASIA": "REAL_PRESENTES", "RAZAOSOCIAL": "BRUNO_DONISETE_MODENEZ", "ENDEE": "RUA_21_DE_MARCO301__CENTRO_19930-091", "LMAPS": "https://www.google.com/maps?q=&layer=c&cbll=-22.7847772,-49.930835", "O_QUE_FAZER": "CARTEIRA", "ER_REGIAO_CIDADE_min": "Ribeirão do Sul_Marília" }, "geometry": { "type": "Point", "coordinates": [ -49.930835, -22.7847772 ] } },
{ "type": "Feature", "properties": { "fid": 68756, "CNPJ": "11082573000128", "IDCIDADE": "RIBEIRAO_DO_SUL", "NOMEFANTASIA": "MARQUESANI_MC", "RAZAOSOCIAL": "COMERCIAL_DA_CONSTRUCAO_MARQUESANI_LTDA", "ENDEE": "RUA_ANTONIO_DA_PALMA523__CENTRO_19930-027", "LMAPS": "https://www.google.com/maps?q=&layer=c&cbll=-22.7828976,-49.9328577", "O_QUE_FAZER": "CARTEIRA", "ER_REGIAO_CIDADE_min": "Ribeirão do Sul_Marília" }, "geometry": { "type": "Point", "coordinates": [ -49.9328577, -22.7828976 ] } },
{ "type": "Feature", "properties": { "fid": 95943, "CNPJ": "16809713000130", "IDCIDADE": "RIBEIRAO_DO_SUL", "NOMEFANTASIA": "FSRMASUL", "RAZAOSOCIAL": "TITONELLI_&_NEGRINI_MEDICAMENTOS_E_PERFUMARIA_LTDA", "ENDEE": "RUA_ANTONIO_LUIZ_VIANA380__CENTRO_19930-005", "LMAPS": "https://www.google.com/maps?q=&layer=c&cbll=-22.78336,-49.9321964", "O_QUE_FAZER": "CARTEIRA", "ER_REGIAO_CIDADE_min": "Ribeirão do Sul_Marília" }, "geometry": { "type": "Point", "coordinates": [ -49.9321964, -22.78336 ] } },
{ "type": "Feature", "properties": { "fid": 106298, "CNPJ": "18916103000161", "IDCIDADE": "RIBEIRAO_DO_SUL", "NOMEFANTASIA": "NOVA_AGROPECUARIA", "RAZAOSOCIAL": "ALEX_BIAZOTTI", "ENDEE": "RUA_ANTONIO_LUIZ_VIANA310__CENTRO_19930-005", "LMAPS": "https://www.google.com/maps?q=&layer=c&cbll=-22.7838076,-49.9329776", "O_QUE_FAZER": "CARTEIRA", "ER_REGIAO_CIDADE_min": "Ribeirão do Sul_Marília" }, "geometry": { "type": "Point", "coordinates": [ -49.9329776, -22.7838076 ] } },
{ "type": "Feature", "properties": { "fid": 116147, "CNPJ": "21142907000165", "IDCIDADE": "RIBEIRAO_DO_SUL", "NOMEFANTASIA": "MONICA_FITNESS", "RAZAOSOCIAL": "MONICA_RODRIGUES_DE_SOUZA_ACADEMIA", "ENDEE": "RUA_AUGUSTO_CORREA_GOMES540__PARQUE_DA_MATA_19930-119", "LMAPS": "https://www.google.com/maps?q=&layer=c&cbll=-22.7885331,-49.9263112", "O_QUE_FAZER": "CARTEIRA", "ER_REGIAO_CIDADE_min": "Ribeirão do Sul_Marília" }, "geometry": { "type": "Point", "coordinates": [ -49.9263112, -22.7885331 ] } },
{ "type": "Feature", "properties": { "fid": 126941, "CNPJ": "23462290000190", "IDCIDADE": "RIBEIRAO_DO_SUL", "NOMEFANTASIA": "TECNOCELL", "RAZAOSOCIAL": "HARIEL_LUIZ_AMANTINI_NETTO", "ENDEE": "RUA_ANTONIO_LUIZ_VIANA372__CENTRO_19930-005", "LMAPS": "https://www.google.com/maps?q=&layer=c&cbll=-22.7835865,-49.9323893", "O_QUE_FAZER": "CARTEIRA", "ER_REGIAO_CIDADE_min": "Ribeirão do Sul_Marília" }, "geometry": { "type": "Point", "coordinates": [ -49.9323893, -22.7835865 ] } },
{ "type": "Feature", "properties": { "fid": 153278, "CNPJ": "29104575000136", "IDCIDADE": "RIBEIRAO_DO_SUL", "NOMEFANTASIA": "ENGENHARIA_LGM_REFRIGERACAO_INDUSTRIAL_LTDA", "RAZAOSOCIAL": "ENGENHARIA_LGM_REFRIGERACAO_INDUSTRIAL_LTDA", "ENDEE": "RUA_PROFESSOR_MANOEL_ANTONIO_DE_OLIVEIRA_NETO59__PARQUE_DA_MATA_19930-316", "LMAPS": "https://www.google.com/maps?q=&layer=c&cbll=-22.7892347,-49.9273848", "O_QUE_FAZER": "FINALIZADO", "ER_REGIAO_CIDADE_min": "Ribeirão do Sul_Marília" }, "geometry": { "type": "Point", "coordinates": [ -49.9273848, -22.7892347 ] } },
{ "type": "Feature", "properties": { "fid": 153810, "CNPJ": "29194161000145", "IDCIDADE": "RIBEIRAO DO SUL", "NOMEFANTASIA": "Estudio_Tres", "RAZAOSOCIAL": "S_W_SANTOS_COMUNICACAO", "ENDEE": "RUA SEBASTIAO BUENO, 152, CASA VERDE, JARDIM SATELITE, 19930-000, RIBEIRÃO DO SUL, SP, BRASIL", "LMAPS": "https://www.google.com/maps?q=&layer=c&cbll=-22.785054,-49.9279533", "O_QUE_FAZER": "CARTEIRA - FAMPE", "ER_REGIAO_CIDADE_min": "Ribeirão do Sul_Marília" }, "geometry": { "type": "Point", "coordinates": [ -49.9279533, -22.785054 ] } },
{ "type": "Feature", "properties": { "fid": 161282, "CNPJ": "30665034000166", "IDCIDADE": "RIBEIRAO_DO_SUL", "NOMEFANTASIA": "R_&_A_PLANEJADOS", "RAZAOSOCIAL": "E._SILVA_DE_SOUZA_MOVEIS_PLANEJADOS", "ENDEE": "RUA_TIRADENTES164__CENTRO_19930-003", "LMAPS": "https://www.google.com/maps?q=&layer=c&cbll=-22.7831971,-49.934278", "O_QUE_FAZER": "CARTEIRA", "ER_REGIAO_CIDADE_min": "Ribeirão do Sul_Marília" }, "geometry": { "type": "Point", "coordinates": [ -49.934278, -22.7831971 ] } },
{ "type": "Feature", "properties": { "fid": 166430, "CNPJ": "31691859000118", "IDCIDADE": "RIBEIRAO_DO_SUL", "NOMEFANTASIA": "DF_PET", "RAZAOSOCIAL": "D._F_PET_DISTRIBUIDORA_LTDA", "ENDEE": "RUA_TIRADENTES374__CENTRO_19930-003", "LMAPS": "https://www.google.com/maps?q=&layer=c&cbll=-22.782908,-49.9331765", "O_QUE_FAZER": "CARTEIRA", "ER_REGIAO_CIDADE_min": "Ribeirão do Sul_Marília" }, "geometry": { "type": "Point", "coordinates": [ -49.9331765, -22.782908 ] } },
{ "type": "Feature", "properties": { "fid": 184596, "CNPJ": "35339112000156", "IDCIDADE": "RIBEIRAO DO SUL", "NOMEFANTASIA": "-", "RAZAOSOCIAL": "35.339.112_FERNANDO_SILVESTRE_FERREIRA", "ENDEE": "RUA JOSE SILVERIO DE SOUZA, 350, JARDIM PLANALTO, 19930-088, RIBEIRÃO DO SUL, SP, BRASIL", "LMAPS": "https://www.google.com/maps?q=&layer=c&cbll=-22.7893133,-49.9238513", "O_QUE_FAZER": "CARTEIRA - FAMPE", "ER_REGIAO_CIDADE_min": "Ribeirão do Sul_Marília" }, "geometry": { "type": "Point", "coordinates": [ -49.9238513, -22.7893133 ] } },
{ "type": "Feature", "properties": { "fid": 186578, "CNPJ": "35759655000122", "IDCIDADE": "RIBEIRAO_DO_SUL", "NOMEFANTASIA": "RORATO_ODONTOLOGIA", "RAZAOSOCIAL": "AMANDA_RORATO_TOPPAN", "ENDEE": "RUA_ANTONIO_LUIZ_VIANA257__CENTRO_19930-005", "LMAPS": "https://www.google.com/maps?q=&layer=c&cbll=-22.7836328,-49.9318716", "O_QUE_FAZER": "CARTEIRA", "ER_REGIAO_CIDADE_min": "Ribeirão do Sul_Marília" }, "geometry": { "type": "Point", "coordinates": [ -49.9318716, -22.7836328 ] } },
{ "type": "Feature", "properties": { "fid": 188541, "CNPJ": "36194832000133", "IDCIDADE": "RIBEIRAO_DO_SUL", "NOMEFANTASIA": "EUROOPTICA", "RAZAOSOCIAL": "RAFAELLA_TORRES_ZOMPERO_BARBOZA", "ENDEE": "RUA_26_DE_ABRIL119__CENTRO_19930-033", "LMAPS": "https://www.google.com/maps?q=&layer=c&cbll=-22.7829944,-49.9305287", "O_QUE_FAZER": "CARTEIRA", "ER_REGIAO_CIDADE_min": "Ribeirão do Sul_Marília" }, "geometry": { "type": "Point", "coordinates": [ -49.9305287, -22.7829944 ] } },
{ "type": "Feature", "properties": { "fid": 205775, "CNPJ": "40482551000153", "IDCIDADE": "RIBEIRAO_DO_SUL", "NOMEFANTASIA": "VOLPE_ODONTOLOGIA", "RAZAOSOCIAL": "VOLPE_ODONTOLOGIA_LTDA", "ENDEE": "RUA_ANTONIO_LUIZ_VIANA684__CENTRO_19930-005", "LMAPS": "https://www.google.com/maps?q=&layer=c&cbll=-22.7836902,-49.9327644", "O_QUE_FAZER": "CARTEIRA", "ER_REGIAO_CIDADE_min": "Ribeirão do Sul_Marília" }, "geometry": { "type": "Point", "coordinates": [ -49.9327644, -22.7836902 ] } },
{ "type": "Feature", "properties": { "fid": 212064, "CNPJ": "42065187000151", "IDCIDADE": "RIBEIRAO_DO_SUL", "NOMEFANTASIA": "VETERINARIA_PET_CARE", "RAZAOSOCIAL": "ORIHASHI_SILVESTRE_CLINICA_VETERINARIA_LTDA", "ENDEE": "RUA_CORONEL_PAULO_FARES295__CENTRO_19930-007", "LMAPS": "https://www.google.com/maps?q=&layer=c&cbll=-22.7841111,-49.9319604", "O_QUE_FAZER": "CARTEIRA", "ER_REGIAO_CIDADE_min": "Ribeirão do Sul_Marília" }, "geometry": { "type": "Point", "coordinates": [ -49.9319604, -22.7841111 ] } },
{ "type": "Feature", "properties": { "fid": 218996, "CNPJ": "43551526000172", "IDCIDADE": "RIBEIRAO_DO_SUL", "NOMEFANTASIA": "FARMA_MOURA", "RAZAOSOCIAL": "ADRIANO_APARECIDO_DE_MOURA_CRESPO", "ENDEE": "RUA_AUGUSTO_CORREA_GOMES508__PARQUE_DA_MATA_19930-119", "LMAPS": "https://www.google.com/maps?q=&layer=c&cbll=-22.7886316,-49.926245", "O_QUE_FAZER": "CARTEIRA", "ER_REGIAO_CIDADE_min": "Ribeirão do Sul_Marília" }, "geometry": { "type": "Point", "coordinates": [ -49.926245, -22.7886316 ] } },
{ "type": "Feature", "properties": { "fid": 219937, "CNPJ": "43751738000101", "IDCIDADE": "RIBEIRAO_DO_SUL", "NOMEFANTASIA": "GYM_ADONAI_ACADEMIA", "RAZAOSOCIAL": "ROGERIO_FERREIRA_DO_NASCIMENTO_CONDICIONAMENTO_FISICO", "ENDEE": "RUA_ANTONIO_DA_PALMA85__CENTRO_19930-027", "LMAPS": "https://www.google.com/maps?q=&layer=c&cbll=-22.7827417,-49.93267", "O_QUE_FAZER": "CARTEIRA", "ER_REGIAO_CIDADE_min": "Ribeirão do Sul_Marília" }, "geometry": { "type": "Point", "coordinates": [ -49.93267, -22.7827417 ] } },
{ "type": "Feature", "properties": { "fid": 223819, "CNPJ": "44542140000167", "IDCIDADE": "RIBEIRAO_DO_SUL", "NOMEFANTASIA": "DROGARIA_NS_APARECIDA", "RAZAOSOCIAL": "MARIO_GONSALVES_PASQUALINI", "ENDEE": "PRACA_FERDINANDO_SILVESTRE163__CENTRO_19930-006", "LMAPS": "https://www.google.com/maps?q=&layer=c&cbll=-22.7840767,-49.9343583", "O_QUE_FAZER": "CARTEIRA - FAMPE", "ER_REGIAO_CIDADE_min": "Ribeirão do Sul_Marília" }, "geometry": { "type": "Point", "coordinates": [ -49.9343583, -22.7840767 ] } },
{ "type": "Feature", "properties": { "fid": 245293, "CNPJ": "48989465000143", "IDCIDADE": "RIBEIRAO DO SUL", "NOMEFANTASIA": "LINOPACK_INDUSTRIA_GRAFICA", "RAZAOSOCIAL": "JOSE_HENRIQUE_LINO_DA_SILVA", "ENDEE": "CHACARA CANAA, SN, CABECEIRA DOS PINTOS, 19939-899, RIBEIRÃO DO SUL, SP, BRASIL", "LMAPS": "https://www.google.com/maps?q=&layer=c&cbll=-22.7840661,-49.9344381", "O_QUE_FAZER": "FINALIZADO", "ER_REGIAO_CIDADE_min": "Ribeirão do Sul_Marília" }, "geometry": { "type": "Point", "coordinates": [ -49.9344381, -22.7840661 ] } },
{ "type": "Feature", "properties": { "fid": 247153, "CNPJ": "49442880000145", "IDCIDADE": "RIBEIRAO_DO_SUL", "NOMEFANTASIA": "VINICIUS_VIANA_A.", "RAZAOSOCIAL": "ANDRADE&VIANA_IMOVEIS", "ENDEE": "RUA_NICOLA_MARTINS_ROMEIRA262__CENTRO_19930-000", "LMAPS": "https://www.google.com/maps?q=&layer=c&cbll=-22.7846694,-49.9331001", "O_QUE_FAZER": "FINALIZADO", "ER_REGIAO_CIDADE_min": "Ribeirão do Sul_Marília" }, "geometry": { "type": "Point", "coordinates": [ -49.9331001, -22.7846694 ] } },
{ "type": "Feature", "properties": { "fid": 252770, "CNPJ": "50567097000197", "IDCIDADE": "RIBEIRAO_DO_SUL", "NOMEFANTASIA": "RESTAURANTE_CASTELL", "RAZAOSOCIAL": "BARRINUEVO_DA_SILVA_RESTAURANTE_LTDA", "ENDEE": "RUA_ANTONIO_LUIZ_VIANA657__CENTRO_19930-005", "LMAPS": "https://www.google.com/maps?q=&layer=c&cbll=-22.7826035,-49.929849", "O_QUE_FAZER": "CARTEIRA", "ER_REGIAO_CIDADE_min": "Ribeirão do Sul_Marília" }, "geometry": { "type": "Point", "coordinates": [ -49.929849, -22.7826035 ] } },
{ "type": "Feature", "properties": { "fid": 269110, "CNPJ": "53988183000161", "IDCIDADE": "RIBEIRAO_DO_SUL", "NOMEFANTASIA": null, "RAZAOSOCIAL": "DPS_TRANSPORTES_LTDA", "ENDEE": "RUA_NELSON MIRANDOLA_191_PARQUE DA MATA_19930-314_RIBEIRAO_DO_SUL", "LMAPS": "https://www.google.com/maps?q=&layer=c&cbll=-22.7887615,-49.9286763", "O_QUE_FAZER": "FINALIZADO", "ER_REGIAO_CIDADE_min": "Ribeirão do Sul_Marília" }, "geometry": { "type": "Point", "coordinates": [ -49.9286763, -22.7887615 ] } },
{ "type": "Feature", "properties": { "fid": 281298, "CNPJ": "57264568000137", "IDCIDADE": "RIBEIRAO_DO_SUL", "NOMEFANTASIA": "CEMO_SAUDE", "RAZAOSOCIAL": "THALITA_FRANCINY_SANCHES_BASTOS_LTDA", "ENDEE": "RUA_ANTONIO_LUIZ_VIANA229__CENTRO_19930-005", "LMAPS": "https://www.google.com/maps?q=&layer=c&cbll=-22.7837216,-49.9328442", "O_QUE_FAZER": "CARTEIRA", "ER_REGIAO_CIDADE_min": "Ribeirão do Sul_Marília" }, "geometry": { "type": "Point", "coordinates": [ -49.9328442, -22.7837216 ] } },
{ "type": "Feature", "properties": { "fid": 297360, "CNPJ": "62654710000192", "IDCIDADE": "RIBEIRAO_DO_SUL", "NOMEFANTASIA": "SACOLAO_RIBEIRAO_DO_SUL", "RAZAOSOCIAL": "ANTONIO_GILBERTO_MENDES", "ENDEE": "RUA_ANTONIO_LUIZ_VIANA440__CENTRO_19930-005", "LMAPS": "https://www.google.com/maps?q=&layer=c&cbll=-22.7832616,-49.9313766", "O_QUE_FAZER": "CARTEIRA", "ER_REGIAO_CIDADE_min": "Ribeirão do Sul_Marília" }, "geometry": { "type": "Point", "coordinates": [ -49.9313766, -22.7832616 ] } },
{ "type": "Feature", "properties": { "fid": 310453, "CNPJ": "72967714000184", "IDCIDADE": "RIBEIRAO_DO_SUL", "NOMEFANTASIA": "CASA_SILVESTRE", "RAZAOSOCIAL": "SONIA_REGINA_SILVESTRE_TEIXEIRA", "ENDEE": "RUA_ANTONIO_LUIZ_VIANA390__CENTRO_19930-005", "LMAPS": "https://www.google.com/maps?q=&layer=c&cbll=-22.7835627,-49.9322886", "O_QUE_FAZER": "CARTEIRA", "ER_REGIAO_CIDADE_min": "Ribeirão do Sul_Marília" }, "geometry": { "type": "Point", "coordinates": [ -49.9322886, -22.7835627 ] } },
{ "type": "Feature", "properties": { "fid": 311555, "CNPJ": "74606351000268", "IDCIDADE": "RIBEIRAO_DO_SUL", "NOMEFANTASIA": "PURO_VICIO_MODAS", "RAZAOSOCIAL": "NILDA_ALMEIDA_DOS_SANTOS_CONFECCOES", "ENDEE": "RUA_ANTONIO_DA_PALMA208__CENTRO_19930-027", "LMAPS": "https://www.google.com/maps?q=&layer=c&cbll=-22.7837836,-49.9327592", "O_QUE_FAZER": "CARTEIRA", "ER_REGIAO_CIDADE_min": "Ribeirão do Sul_Marília" }, "geometry": { "type": "Point", "coordinates": [ -49.9327592, -22.7837836 ] } }
]
}
