{
"type": "FeatureCollection",
"name": "ER_REGIAO_CIDADE_min_Guzolândia_Araçatuba",
"crs": { "type": "name", "properties": { "name": "urn:ogc:def:crs:OGC:1.3:CRS84" } },
"xy_coordinate_resolution": 1e-15,
"features": [
{ "type": "Feature", "properties": { "fid": 15206, "CNPJ": "47131967000176", "IDCIDADE": "GUZOLANDIA", "NOMEFANTASIA": "RESTAURANTE_E_CONVENIENCIA_DELICIAS_DA_GRA", "RAZAOSOCIAL": "GRASIANE_CRISTINE_POZZA_BARBOZA_GOMES", "ENDEE": "AVENIDA_PASCHOAL_GUZO50__CENTRO_15355-000", "LMAPS": "https://www.google.com/maps?q=&layer=c&cbll=-50.6597578,-20.6420375", "O_QUE_FAZER": "CARTEIRA", "ER_REGIAO_CIDADE_min": "Guzolândia_Araçatuba" }, "geometry": { "type": "Point", "coordinates": [ -50.6597578, -20.6420375 ] } },
{ "type": "Feature", "properties": { "fid": 15235, "CNPJ": "14536807000158", "IDCIDADE": "GUZOLANDIA", "NOMEFANTASIA": "RINALDI_MOVEIS", "RAZAOSOCIAL": "RONALDO_ALVES_PEREIRA_MOVEIS", "ENDEE": "AVENIDA_PASCHOAL_GUZZO250__CENTRO_15355-000", "LMAPS": "https://www.google.com/maps?q=&layer=c&cbll=-50.6604452,-20.6437509", "O_QUE_FAZER": "CARTEIRA", "ER_REGIAO_CIDADE_min": "Guzolândia_Araçatuba" }, "geometry": { "type": "Point", "coordinates": [ -50.6604452, -20.6437509 ] } },
{ "type": "Feature", "properties": { "fid": 15248, "CNPJ": "05673466000171", "IDCIDADE": "GUZOLANDIA", "NOMEFANTASIA": "PANIFICADORA_PAO_&_ARTE", "RAZAOSOCIAL": "MARCELO_RIBEIRO_DE_MORAIS_PANIFICADORA", "ENDEE": "AVENIDA_PASCHOAL_GUZZO335__CENTRO_15355-000", "LMAPS": "https://www.google.com/maps?q=&layer=c&cbll=-50.6603372,-20.6443825", "O_QUE_FAZER": "CARTEIRA", "ER_REGIAO_CIDADE_min": "Guzolândia_Araçatuba" }, "geometry": { "type": "Point", "coordinates": [ -50.6603372, -20.6443825 ] } },
{ "type": "Feature", "properties": { "fid": 15249, "CNPJ": "42533561000104", "IDCIDADE": "GUZOLANDIA", "NOMEFANTASIA": "CASA_DE_CARNES_SOBERANA", "RAZAOSOCIAL": "JEANNI_SILVA_AROSTI", "ENDEE": "AVENIDA_PASCHOAL_GUZO344__CENTRO_15355-000", "LMAPS": "https://www.google.com/maps?q=&layer=c&cbll=-50.6606776,-20.6443889", "O_QUE_FAZER": "CARTEIRA", "ER_REGIAO_CIDADE_min": "Guzolândia_Araçatuba" }, "geometry": { "type": "Point", "coordinates": [ -50.6606776, -20.6443889 ] } },
{ "type": "Feature", "properties": { "fid": 15262, "CNPJ": "49344604000144", "IDCIDADE": "GUZOLANDIA", "NOMEFANTASIA": "FORNAZARI_&_SOUZA", "RAZAOSOCIAL": "FORNAZARI_&_SOUZA_PECAS_AGRICOLAS_LTDA", "ENDEE": "AVENIDA_PASCHOAL_GUZZO390__CENTRO_15355-000", "LMAPS": "https://www.google.com/maps?q=&layer=c&cbll=-50.6609194,-20.6447901", "O_QUE_FAZER": "CARTEIRA", "ER_REGIAO_CIDADE_min": "Guzolândia_Araçatuba" }, "geometry": { "type": "Point", "coordinates": [ -50.6609194, -20.6447901 ] } },
{ "type": "Feature", "properties": { "fid": 15279, "CNPJ": "18988371000199", "IDCIDADE": "GUZOLANDIA", "NOMEFANTASIA": "SUPERMERCADO_DURANTI", "RAZAOSOCIAL": "APARECIDA_FLORENCIO_DURANTI_LTDA", "ENDEE": "AVENIDA_PASCHOAL_GUZZO414__CENTRO_15355-000", "LMAPS": "https://www.google.com/maps?q=&layer=c&cbll=-50.6610893,-20.6452047", "O_QUE_FAZER": "CARTEIRA", "ER_REGIAO_CIDADE_min": "Guzolândia_Araçatuba" }, "geometry": { "type": "Point", "coordinates": [ -50.6610893, -20.6452047 ] } },
{ "type": "Feature", "properties": { "fid": 15313, "CNPJ": "38113224000182", "IDCIDADE": "GUZOLANDIA", "NOMEFANTASIA": "MERCEARIA_BOM_JESUS", "RAZAOSOCIAL": "ANTONIO_MARQUES_DOS_SANTOS_LTDA", "ENDEE": "AVENIDA_PASCHOAL_GUZZO497__CENTRO_15355-000", "LMAPS": "https://www.google.com/maps?q=&layer=c&cbll=-50.6609691,-20.6457943", "O_QUE_FAZER": "CARTEIRA", "ER_REGIAO_CIDADE_min": "Guzolândia_Araçatuba" }, "geometry": { "type": "Point", "coordinates": [ -50.6609691, -20.6457943 ] } },
{ "type": "Feature", "properties": { "fid": 15337, "CNPJ": "02619622000128", "IDCIDADE": "GUZOLANDIA", "NOMEFANTASIA": "ACOUGUE_AVENIDA", "RAZAOSOCIAL": "JOSE_LINO_TASCA", "ENDEE": "AVENIDA_PASCHOAL_GUZO542__CENTRO_15355-000", "LMAPS": "https://www.google.com/maps?q=&layer=c&cbll=-50.661292,-20.6462772", "O_QUE_FAZER": "CARTEIRA", "ER_REGIAO_CIDADE_min": "Guzolândia_Araçatuba" }, "geometry": { "type": "Point", "coordinates": [ -50.661292, -20.6462772 ] } },
{ "type": "Feature", "properties": { "fid": 15345, "CNPJ": "07438900000164", "IDCIDADE": "GUZOLANDIA", "NOMEFANTASIA": "DROGARIA_BOM_JESUS", "RAZAOSOCIAL": "FABIOLA_CARLA_DA_ROCHA_GOSS_&_CIA_LTDA", "ENDEE": "AVENIDA_PASCHOAL_GUZZO582__CENTRO_15355-000", "LMAPS": "https://www.google.com/maps?q=&layer=c&cbll=-50.6614554,-20.6465481", "O_QUE_FAZER": "CARTEIRA", "ER_REGIAO_CIDADE_min": "Guzolândia_Araçatuba" }, "geometry": { "type": "Point", "coordinates": [ -50.6614554, -20.6465481 ] } },
{ "type": "Feature", "properties": { "fid": 15357, "CNPJ": "04349979000169", "IDCIDADE": "GUZOLANDIA", "NOMEFANTASIA": "AGROMAC_RACOES_PARA_ANIMAL", "RAZAOSOCIAL": "LUIZ_DOS_SANTOS_BATISTA_GUZOLANDIA", "ENDEE": "RUA_JOAO_CALEFI644__LIMOEIRO_15355-000", "LMAPS": "https://www.google.com/maps?q=&layer=c&cbll=-50.6625098,-20.6469538", "O_QUE_FAZER": "CARTEIRA", "ER_REGIAO_CIDADE_min": "Guzolândia_Araçatuba" }, "geometry": { "type": "Point", "coordinates": [ -50.6625098, -20.6469538 ] } },
{ "type": "Feature", "properties": { "fid": 15396, "CNPJ": "20550951000141", "IDCIDADE": "GUZOLANDIA", "NOMEFANTASIA": "MR_MATERIAIS_PARA_CONSTRUCAO", "RAZAOSOCIAL": "M_R_PARDINHO_DA_SILVA_MATERIAIS_DE_CONSTRUCAO_LTDA", "ENDEE": "AVENIDA_PASCHOAL_GUZZO743__CENTRO_15355-000", "LMAPS": "https://www.google.com/maps?q=&layer=c&cbll=-50.6614389,-20.6480188", "O_QUE_FAZER": "CARTEIRA", "ER_REGIAO_CIDADE_min": "Guzolândia_Araçatuba" }, "geometry": { "type": "Point", "coordinates": [ -50.6614389, -20.6480188 ] } },
{ "type": "Feature", "properties": { "fid": 15400, "CNPJ": "34972104000180", "IDCIDADE": "GUZOLANDIA", "NOMEFANTASIA": "MR_COMERCIO_DE_GAS", "RAZAOSOCIAL": "M_R_PARDINHO_COMERCIO_DE_GAS_LTDA", "ENDEE": "AVENIDA_PASCHOAL_GUZZO753__CENTRO_15355-000", "LMAPS": "https://www.google.com/maps?q=&layer=c&cbll=-50.6612602,-20.6481025", "O_QUE_FAZER": "CARTEIRA", "ER_REGIAO_CIDADE_min": "Guzolândia_Araçatuba" }, "geometry": { "type": "Point", "coordinates": [ -50.6612602, -20.6481025 ] } },
{ "type": "Feature", "properties": { "fid": 15401, "CNPJ": "55972460000173", "IDCIDADE": "GUZOLANDIA", "NOMEFANTASIA": "CONVENIENCIA_TALISMA", "RAZAOSOCIAL": "ALINE_DE_BRITO_BATISTA_SIMPLICIO", "ENDEE": "AVENIDA_PASCHOAL_GUZZO753__CENTRO_15355-000", "LMAPS": "https://www.google.com/maps?q=&layer=c&cbll=-50.6614523,-20.6481288", "O_QUE_FAZER": "CARTEIRA", "ER_REGIAO_CIDADE_min": "Guzolândia_Araçatuba" }, "geometry": { "type": "Point", "coordinates": [ -50.6614523, -20.6481288 ] } },
{ "type": "Feature", "properties": { "fid": 15407, "CNPJ": "03662410000196", "IDCIDADE": "GUZOLANDIA", "NOMEFANTASIA": "PRATIC_MUX", "RAZAOSOCIAL": "LUCIANA_RUKALISK_DA_SILVA_DUARTE_&_CIA_LTDA", "ENDEE": "AVENIDA_PASCHOAL_GUZZO787__CENTRO_15355-000", "LMAPS": "https://www.google.com/maps?q=&layer=c&cbll=-50.6615397,-20.648491", "O_QUE_FAZER": "CARTEIRA", "ER_REGIAO_CIDADE_min": "Guzolândia_Araçatuba" }, "geometry": { "type": "Point", "coordinates": [ -50.6615397, -20.648491 ] } },
{ "type": "Feature", "properties": { "fid": 15423, "CNPJ": "58620774000103", "IDCIDADE": "GUZOLANDIA", "NOMEFANTASIA": "MAHRRY_CONFECCOES", "RAZAOSOCIAL": "ROGERIO_FERNANDES_DE_SOUZA_&_CIA_LTDA", "ENDEE": "RUA_AUGUSTO_DONEGAR957__CENTRO_15355-000", "LMAPS": "https://www.google.com/maps?q=&layer=c&cbll=-50.6638901,-20.6495128", "O_QUE_FAZER": "CARTEIRA", "ER_REGIAO_CIDADE_min": "Guzolândia_Araçatuba" }, "geometry": { "type": "Point", "coordinates": [ -50.6638901, -20.6495128 ] } },
{ "type": "Feature", "properties": { "fid": 15424, "CNPJ": "38612696000180", "IDCIDADE": "GUZOLANDIA", "NOMEFANTASIA": "ROSE_MAHRRY", "RAZAOSOCIAL": "ROSELI_APARECIDA_DONEGA", "ENDEE": "RUA_AUGUSTO_DONEGAR321__CENTRO_15355-000", "LMAPS": "https://www.google.com/maps?q=&layer=c&cbll=-50.6638487,-20.6495815", "O_QUE_FAZER": "CARTEIRA", "ER_REGIAO_CIDADE_min": "Guzolândia_Araçatuba" }, "geometry": { "type": "Point", "coordinates": [ -50.6638487, -20.6495815 ] } },
{ "type": "Feature", "properties": { "fid": 15431, "CNPJ": "61045456000162", "IDCIDADE": "GUZOLANDIA", "NOMEFANTASIA": "LEANDRO_MAGAZINE", "RAZAOSOCIAL": "CICERO_SOARES_LEANDRO", "ENDEE": "RUA_GETULIO_VARGAS804__CENTRO_15355-000", "LMAPS": "https://www.google.com/maps?q=&layer=c&cbll=-50.6644715,-20.6501422", "O_QUE_FAZER": "CARTEIRA", "ER_REGIAO_CIDADE_min": "Guzolândia_Araçatuba" }, "geometry": { "type": "Point", "coordinates": [ -50.6644715, -20.6501422 ] } },
{ "type": "Feature", "properties": { "fid": 15432, "CNPJ": "06222143000124", "IDCIDADE": "GUZOLANDIA", "NOMEFANTASIA": "DON_CRUZ_CARNES", "RAZAOSOCIAL": "DON_CRUZ_CARNES_LTDA", "ENDEE": "RUA_GETULIO_VARGAS822__CENTRO_15355-000", "LMAPS": "https://www.google.com/maps?q=&layer=c&cbll=-50.6647697,-20.65015", "O_QUE_FAZER": "CARTEIRA", "ER_REGIAO_CIDADE_min": "Guzolândia_Araçatuba" }, "geometry": { "type": "Point", "coordinates": [ -50.6647697, -20.65015 ] } },
{ "type": "Feature", "properties": { "fid": 15433, "CNPJ": "67740480000106", "IDCIDADE": "GUZOLANDIA", "NOMEFANTASIA": "MERCEARIA_E_MATERIAIAL_DE_CONSTRUCAO", "RAZAOSOCIAL": "LUZIA_MARTINS_SOUZA_MASCHIO", "ENDEE": "AVENIDA_PASCHOAL_GUZZO1016__CENTRO_15355-000", "LMAPS": "https://www.google.com/maps?q=&layer=c&cbll=-50.662128,-20.650293", "O_QUE_FAZER": "CARTEIRA", "ER_REGIAO_CIDADE_min": "Guzolândia_Araçatuba" }, "geometry": { "type": "Point", "coordinates": [ -50.662128, -20.650293 ] } },
{ "type": "Feature", "properties": { "fid": 15434, "CNPJ": "71787618000191", "IDCIDADE": "GUZOLANDIA", "NOMEFANTASIA": "ACOUGUE_NOSSA_SENHORA_APARECIDA", "RAZAOSOCIAL": "DONIZETE_APARECIDO_MACIEL_DA_SILVA", "ENDEE": "RUA_GETULIO_VARGAS774__CENTRO_15355-000", "LMAPS": "https://www.google.com/maps?q=&layer=c&cbll=-50.6642411,-20.6503038", "O_QUE_FAZER": "CARTEIRA", "ER_REGIAO_CIDADE_min": "Guzolândia_Araçatuba" }, "geometry": { "type": "Point", "coordinates": [ -50.6642411, -20.6503038 ] } },
{ "type": "Feature", "properties": { "fid": 15435, "CNPJ": "37134182000101", "IDCIDADE": "GUZOLANDIA", "NOMEFANTASIA": "MARIELLI_LIMA_CARVALHO_DROGARIA", "RAZAOSOCIAL": "MARIELLI_LIMA_CARVALHO_DROGARIA_LTDA", "ENDEE": "RUA_GETULIO_VARGAS1368__CENTRO_15355-000", "LMAPS": "https://www.google.com/maps?q=&layer=c&cbll=-50.6636811,-20.6503271", "O_QUE_FAZER": "CARTEIRA", "ER_REGIAO_CIDADE_min": "Guzolândia_Araçatuba" }, "geometry": { "type": "Point", "coordinates": [ -50.6636811, -20.6503271 ] } },
{ "type": "Feature", "properties": { "fid": 15436, "CNPJ": "49255803000186", "IDCIDADE": "GUZOLANDIA", "NOMEFANTASIA": "ACADEMIA_FORCE_BOX", "RAZAOSOCIAL": "ACADEMIA_FORCE_BOX_LTDA", "ENDEE": "RUA_GETULIO_VARGAS646__CENTRO_15355-000", "LMAPS": "https://www.google.com/maps?q=&layer=c&cbll=-50.6628835,-20.6503487", "O_QUE_FAZER": "CARTEIRA", "ER_REGIAO_CIDADE_min": "Guzolândia_Araçatuba" }, "geometry": { "type": "Point", "coordinates": [ -50.6628835, -20.6503487 ] } },
{ "type": "Feature", "properties": { "fid": 15437, "CNPJ": "03088920000100", "IDCIDADE": "GUZOLANDIA", "NOMEFANTASIA": "APARECIDO_BARALDI_GUZOLANDIA", "RAZAOSOCIAL": "APARECIDO_BARALDE_GUZOLANDIA", "ENDEE": "RUA_GETULIO_VARGAS692__CENTRO_15355-000", "LMAPS": "https://www.google.com/maps?q=&layer=c&cbll=-50.6633715,-20.6503703", "O_QUE_FAZER": "CARTEIRA", "ER_REGIAO_CIDADE_min": "Guzolândia_Araçatuba" }, "geometry": { "type": "Point", "coordinates": [ -50.6633715, -20.6503703 ] } },
{ "type": "Feature", "properties": { "fid": 15439, "CNPJ": "48266324000526", "IDCIDADE": "GUZOLANDIA", "NOMEFANTASIA": "RAO_CONVENIENCIA_PREV", "RAZAOSOCIAL": "RAO_ADM_DE_PLANOS_FUNERARIOS_E_ASSISTENCIA_FAMILIAR_LTDA", "ENDEE": "AVENIDA_PASCHOAL_GUZZO1033__CENTRO_15355-000", "LMAPS": "https://www.google.com/maps?q=&layer=c&cbll=-50.6619085,-20.6504879", "O_QUE_FAZER": "CARTEIRA", "ER_REGIAO_CIDADE_min": "Guzolândia_Araçatuba" }, "geometry": { "type": "Point", "coordinates": [ -50.6619085, -20.6504879 ] } },
{ "type": "Feature", "properties": { "fid": 15440, "CNPJ": "58651324000170", "IDCIDADE": "GUZOLANDIA", "NOMEFANTASIA": "DROGARIA_SAO_BENEDITO", "RAZAOSOCIAL": "DANIELA_ANTUNES_DUARTE_SANTUCCI_LTDA", "ENDEE": "RUA_GETULIO_VARGAS703__CENTRO_15355-000", "LMAPS": "https://www.google.com/maps?q=&layer=c&cbll=-50.6635322,-20.6505076", "O_QUE_FAZER": "CARTEIRA", "ER_REGIAO_CIDADE_min": "Guzolândia_Araçatuba" }, "geometry": { "type": "Point", "coordinates": [ -50.6635322, -20.6505076 ] } },
{ "type": "Feature", "properties": { "fid": 15441, "CNPJ": "02917534001265", "IDCIDADE": "GUZOLANDIA", "NOMEFANTASIA": "ROSA_MISTICA", "RAZAOSOCIAL": "ROSA_MISTICA_LTDA", "ENDEE": "RUA_GETULIO_VARGAS822__CENTRO_15355-000", "LMAPS": "https://www.google.com/maps?q=&layer=c&cbll=-50.6632576,-20.6505682", "O_QUE_FAZER": "CARTEIRA", "ER_REGIAO_CIDADE_min": "Guzolândia_Araçatuba" }, "geometry": { "type": "Point", "coordinates": [ -50.6632576, -20.6505682 ] } },
{ "type": "Feature", "properties": { "fid": 205482, "CNPJ": "45251252000121", "IDCIDADE": "GUZOLÂNDIA", "NOMEFANTASIA": "TASCA E SILVA TRANSPORTES", "RAZAOSOCIAL": "TASCA E SILVA TRANSPORTES LTDA", "ENDEE": "RUA ANTONIO ANTUNES, 906, CENTRO, 15355-000, GUZOLÂNDIA, SP, BRASIL", "LMAPS": "https://www.google.com/maps?q=&layer=c&cbll=-20.653344,-50.6615582", "O_QUE_FAZER": "CARTEIRA - FAMPE", "ER_REGIAO_CIDADE_min": "Guzolândia_Araçatuba" }, "geometry": { "type": "Point", "coordinates": [ -50.6615582, -20.653344 ] } },
{ "type": "Feature", "properties": { "fid": 244896, "CNPJ": "09614902000192", "IDCIDADE": "GUZOLANDIA", "NOMEFANTASIA": "JOAO_VITOR_PONTES", "RAZAOSOCIAL": "SORVETERIA_PINGO_DE_MEL", "ENDEE": "AVENIDA_PASCHOAL_GUZO585__CENTRO_15355-000", "LMAPS": "https://www.google.com/maps?q=&layer=c&cbll=-50.6622587,-20.6489836", "O_QUE_FAZER": "FINALIZADO", "ER_REGIAO_CIDADE_min": "Guzolândia_Araçatuba" }, "geometry": { "type": "Point", "coordinates": [ -50.6622587, -20.6489836 ] } },
{ "type": "Feature", "properties": { "fid": 307626, "CNPJ": "64154254000147", "IDCIDADE": "GUZOLANDIA", "NOMEFANTASIA": "-", "RAZAOSOCIAL": "64.154.254 REGIS AXEL DA SILVA MASARIN", "ENDEE": "RUA FRANCISCO MEDINA, 163, TRES MARIAS, 15357-164, GUZOLÂNDIA, SP, BRASIL", "LMAPS": "https://www.google.com/maps?q=&layer=c&cbll=-20.6472478,-50.6613976", "O_QUE_FAZER": "CARTEIRA - FAMPE", "ER_REGIAO_CIDADE_min": "Guzolândia_Araçatuba" }, "geometry": { "type": "Point", "coordinates": [ -50.6613976, -20.6472478 ] } }
]
}
