{
"type": "FeatureCollection",
"name": "ER_REGIAO_CIDADE_min_Barueri_Jardim Silveira_Osasco",
"crs": { "type": "name", "properties": { "name": "urn:ogc:def:crs:OGC:1.3:CRS84" } },
"xy_coordinate_resolution": 1e-15,
"features": [
{ "type": "Feature", "properties": { "CNPJ": "52310003000125", "IDCIDADE": "BARUERI", "NOMEFANTASIA": "52.310.003_EDSON_ALVES_MOURA_DE_JESUS", "RAZAOSOCIAL": "52.310.003_EDSON_ALVES_MOURA_DE_JESUS", "ENDEE": "AVENIDA_BRIGADEIRO_MANOEL_RODRIGUES_JORDAO164__JARDIM_SILVEIRA_06433-010", "LATITUDE": "-23.5227285", "LONGITUDE": "-46.891461", "LMAPS": "https://www.google.com/maps?q=&layer=c&cbll=-46.891461,-23.5227285", "O_QUE_FAZER": "FINALIZADO", "ER_REGIAO_CIDADE_min": "Barueri_Jardim Silveira_Osasco" }, "geometry": { "type": "Point", "coordinates": [ -46.891461, -23.5227285 ] } },
{ "type": "Feature", "properties": { "CNPJ": "19727512000182", "IDCIDADE": "BARUERI", "NOMEFANTASIA": "MASTER_SAFE_DO_BRASIL-EQUIPAMENTOS_DE_SEGURANCA_DO_TRABALHO_LTDA", "RAZAOSOCIAL": "ASTER", "ENDEE": "AVENIDA_PRESIDENTE_KENNEDY334__JARDIM_AUDIR_06433-040", "LATITUDE": "-23.5244891", "LONGITUDE": "-46.8878374", "LMAPS": "https://www.google.com/maps?q=&layer=c&cbll=-46.8878374,-23.5244891", "O_QUE_FAZER": "FINALIZADO", "ER_REGIAO_CIDADE_min": "Barueri_Jardim Silveira_Osasco" }, "geometry": { "type": "Point", "coordinates": [ -46.8878374, -23.5244891 ] } },
{ "type": "Feature", "properties": { "CNPJ": "47830494000103", "IDCIDADE": "BARUERI", "NOMEFANTASIA": "IMPLACAVEL.SHOP_LTDA.", "RAZAOSOCIAL": "IMPLACAVEL_SHOP", "ENDEE": "RUA_DOUTOR_FRANCIS_D'HORNETT79__JARDIM_ALBERTO/SILVEIRA_06433-220", "LATITUDE": "-23.5214752", "LONGITUDE": "-46.8913181", "LMAPS": "https://www.google.com/maps?q=&layer=c&cbll=-46.8913181,-23.5214752", "O_QUE_FAZER": "FINALIZADO", "ER_REGIAO_CIDADE_min": "Barueri_Jardim Silveira_Osasco" }, "geometry": { "type": "Point", "coordinates": [ -46.8913181, -23.5214752 ] } },
{ "type": "Feature", "properties": { "CNPJ": "41132123000163", "IDCIDADE": "BARUERI", "NOMEFANTASIA": "S.C_DA_SILVA_SANTOS_SOCIEDADE_UNIPESSOAL_LTDA", "RAZAOSOCIAL": "SCRA.IMOVEIS", "ENDEE": "1073_VIA_TABOAO179__JARDIM_SILVEIRA_06434-210", "LATITUDE": "-23.5353369", "LONGITUDE": "-46.8813081", "LMAPS": "https://www.google.com/maps?q=&layer=c&cbll=-46.8813081,-23.5353369", "O_QUE_FAZER": "FINALIZADO", "ER_REGIAO_CIDADE_min": "Barueri_Jardim Silveira_Osasco" }, "geometry": { "type": "Point", "coordinates": [ -46.8813081, -23.5353369 ] } },
{ "type": "Feature", "properties": { "CNPJ": "50253953000130", "IDCIDADE": "BARUERI", "NOMEFANTASIA": "LABORATORIO_DE_PROTESE_NATURALE_3D_LTDA", "RAZAOSOCIAL": "LAB_NATURALI_3_D", "ENDEE": "AVENIDA_ZELIA251__PARQUE_DOS_CAMARGOS_06436-000", "LATITUDE": "-23.5341192", "LONGITUDE": "-46.890432", "LMAPS": "https://www.google.com/maps?q=&layer=c&cbll=-46.890432,-23.5341192", "O_QUE_FAZER": "FINALIZADO", "ER_REGIAO_CIDADE_min": "Barueri_Jardim Silveira_Osasco" }, "geometry": { "type": "Point", "coordinates": [ -46.890432, -23.5341192 ] } },
{ "type": "Feature", "properties": { "CNPJ": "34122595000170", "IDCIDADE": "BARUERI", "NOMEFANTASIA": "CLINICA_KRAID_LTDA", "RAZAOSOCIAL": "CLINICA_KRAID", "ENDEE": "AVENIDA_ZELIA683__PARQUE_DOS_CAMARGOS_06436-000", "LATITUDE": "-23.5371729", "LONGITUDE": "-46.8877156", "LMAPS": "https://www.google.com/maps?q=&layer=c&cbll=-46.8877156,-23.5371729", "O_QUE_FAZER": "FINALIZADO", "ER_REGIAO_CIDADE_min": "Barueri_Jardim Silveira_Osasco" }, "geometry": { "type": "Point", "coordinates": [ -46.8877156, -23.5371729 ] } },
{ "type": "Feature", "properties": { "CNPJ": "45114862000183", "IDCIDADE": "BARUERI", "NOMEFANTASIA": "45.114.862_ALEX_ALMEIDA_DOS_SANTOS", "RAZAOSOCIAL": "MMA", "ENDEE": "RUA_LUCIA238__PARQUE_DOS_CAMARGOS_06436-340", "LATITUDE": "-23.5387433", "LONGITUDE": "-46.8893516", "LMAPS": "https://www.google.com/maps?q=&layer=c&cbll=-46.8893516,-23.5387433", "O_QUE_FAZER": "FINALIZADO", "ER_REGIAO_CIDADE_min": "Barueri_Jardim Silveira_Osasco" }, "geometry": { "type": "Point", "coordinates": [ -46.8893516, -23.5387433 ] } },
{ "type": "Feature", "properties": { "CNPJ": "49588453000170", "IDCIDADE": "BARUERI", "NOMEFANTASIA": "49.588.453_ADRIANO_DA_CRUZ_DOS_ANJOS", "RAZAOSOCIAL": "ADRIANO_CRUZ", "ENDEE": "ALAMEDA_MARSELHA647__RECANTO_PHRYNEA_06437-040", "LATITUDE": "-23.5413357", "LONGITUDE": "-46.8855417", "LMAPS": "https://www.google.com/maps?q=&layer=c&cbll=-46.8855417,-23.5413357", "O_QUE_FAZER": "FINALIZADO", "ER_REGIAO_CIDADE_min": "Barueri_Jardim Silveira_Osasco" }, "geometry": { "type": "Point", "coordinates": [ -46.8855417, -23.5413357 ] } },
{ "type": "Feature", "properties": { "CNPJ": "32216763000160", "IDCIDADE": "SANTA_ISABEL", "NOMEFANTASIA": "KATLYN_MELLO_EVANGELISTA_37879828842", "RAZAOSOCIAL": "KATLYN_EVANGELISTA", "ENDEE": "RUA_YARA110__PARQUE_SANTA_TEREZA_07500-000", "LATITUDE": "-23.5340601", "LONGITUDE": "-46.8881074", "LMAPS": "https://www.google.com/maps?q=&layer=c&cbll=-46.8881074,-23.5340601", "O_QUE_FAZER": "FINALIZADO", "ER_REGIAO_CIDADE_min": "Barueri_Jardim Silveira_Osasco" }, "geometry": { "type": "Point", "coordinates": [ -46.8881074, -23.5340601 ] } },
{ "type": "Feature", "properties": { "CNPJ": "46981421000141", "IDCIDADE": "BARUERI", "NOMEFANTASIA": "AUTO_PRATA", "RAZAOSOCIAL": "AUTO_PRATA_SERVICE_PREMIUM_LTDA", "ENDEE": "ESTRADA_DOUTOR_CICERO_BORGES_DE_MORAIS1244__VILA_UNIVERSAL_06407-000", "LATITUDE": "-23.5474753", "LONGITUDE": "-46.8855382", "LMAPS": "https://www.google.com/maps?q=&layer=c&cbll=-46.8855382,-23.5474753", "O_QUE_FAZER": "CARTEIRA", "ER_REGIAO_CIDADE_min": "Barueri_Jardim Silveira_Osasco" }, "geometry": { "type": "Point", "coordinates": [ -46.8855382, -23.5474753 ] } },
{ "type": "Feature", "properties": { "CNPJ": "03467143000104", "IDCIDADE": "BARUERI", "NOMEFANTASIA": "CARLINHOS_MOTOS", "RAZAOSOCIAL": "JOSE_CARLOS_DA_SILVA_BARUERI", "ENDEE": "AVENIDA_MUNICIPAL292__JARDIM_SILVEIRA_06433-000", "LATITUDE": "-23.523462", "LONGITUDE": "-46.8918156", "LMAPS": "https://www.google.com/maps?q=&layer=c&cbll=-46.8918156,-23.523462", "O_QUE_FAZER": "CARTEIRA", "ER_REGIAO_CIDADE_min": "Barueri_Jardim Silveira_Osasco" }, "geometry": { "type": "Point", "coordinates": [ -46.8918156, -23.523462 ] } },
{ "type": "Feature", "properties": { "CNPJ": "22200114000118", "IDCIDADE": "BARUERI", "NOMEFANTASIA": "DOCES_SONHOS", "RAZAOSOCIAL": "DOCES_SONHOS_CONVENIENCIA_LTDA", "ENDEE": "AVENIDA_MUNICIPAL306__JARDIM_SILVEIRA_06433-000", "LATITUDE": "-23.52359", "LONGITUDE": "-46.8919714", "LMAPS": "https://www.google.com/maps?q=&layer=c&cbll=-46.8919714,-23.52359", "O_QUE_FAZER": "CARTEIRA", "ER_REGIAO_CIDADE_min": "Barueri_Jardim Silveira_Osasco" }, "geometry": { "type": "Point", "coordinates": [ -46.8919714, -23.52359 ] } },
{ "type": "Feature", "properties": { "CNPJ": "42843372000120", "IDCIDADE": "BARUERI", "NOMEFANTASIA": "ADEGA_MUNICIPAL", "RAZAOSOCIAL": "R&F_FRATELLI_MERCADO_E_ADEGA_LTDA", "ENDEE": "AVENIDA_MUNICIPAL329__JARDIM_SILVEIRA_06433-000", "LATITUDE": "-23.523782", "LONGITUDE": "-46.8919733", "LMAPS": "https://www.google.com/maps?q=&layer=c&cbll=-46.8919733,-23.523782", "O_QUE_FAZER": "CARTEIRA", "ER_REGIAO_CIDADE_min": "Barueri_Jardim Silveira_Osasco" }, "geometry": { "type": "Point", "coordinates": [ -46.8919733, -23.523782 ] } },
{ "type": "Feature", "properties": { "CNPJ": "12094746000190", "IDCIDADE": "BARUERI", "NOMEFANTASIA": "JK_TINTAS", "RAZAOSOCIAL": "J_&_K_COMERCIAL_E_TINTAS_LTDA", "ENDEE": "AVENIDA_MUNICIPAL357__JARDIM_SILVEIRA_06433-000", "LATITUDE": "-23.5240784", "LONGITUDE": "-46.8922037", "LMAPS": "https://www.google.com/maps?q=&layer=c&cbll=-46.8922037,-23.5240784", "O_QUE_FAZER": "CARTEIRA", "ER_REGIAO_CIDADE_min": "Barueri_Jardim Silveira_Osasco" }, "geometry": { "type": "Point", "coordinates": [ -46.8922037, -23.5240784 ] } },
{ "type": "Feature", "properties": { "CNPJ": "34003898000173", "IDCIDADE": "BARUERI", "NOMEFANTASIA": "ESPETINHO_VICTORIA_GABRIELA", "RAZAOSOCIAL": "RENATA_DUTRA_OLIVEIRA", "ENDEE": "AVENIDA_MUNICIPAL364__JARDIM_SILVEIRA_06433-000", "LATITUDE": "-23.5239058", "LONGITUDE": "-46.8923313", "LMAPS": "https://www.google.com/maps?q=&layer=c&cbll=-46.8923313,-23.5239058", "O_QUE_FAZER": "CARTEIRA", "ER_REGIAO_CIDADE_min": "Barueri_Jardim Silveira_Osasco" }, "geometry": { "type": "Point", "coordinates": [ -46.8923313, -23.5239058 ] } },
{ "type": "Feature", "properties": { "CNPJ": "07810818000119", "IDCIDADE": "BARUERI", "NOMEFANTASIA": "VIDA_ANIMAL", "RAZAOSOCIAL": "MIMANIMAL_CLINICA_VETERINARIA_E_PET-SHOP_LTDA", "ENDEE": "AVENIDA_MUNICIPAL381__JARDIM_SILVEIRA_06433-000", "LATITUDE": "-23.5241768", "LONGITUDE": "-46.8923971", "LMAPS": "https://www.google.com/maps?q=&layer=c&cbll=-46.8923971,-23.5241768", "O_QUE_FAZER": "CARTEIRA", "ER_REGIAO_CIDADE_min": "Barueri_Jardim Silveira_Osasco" }, "geometry": { "type": "Point", "coordinates": [ -46.8923971, -23.5241768 ] } },
{ "type": "Feature", "properties": { "CNPJ": "48190188000104", "IDCIDADE": "BARUERI", "NOMEFANTASIA": "AUTO_MOTO_ESCOLA_GENESIS", "RAZAOSOCIAL": "AUTO_MOTO_ESCOLA_GENESIS_I_LTDA", "ENDEE": "AVENIDA_MUNICIPAL408__JARDIM_SILVEIRA_06433-000", "LATITUDE": "-23.5241999", "LONGITUDE": "-46.8927517", "LMAPS": "https://www.google.com/maps?q=&layer=c&cbll=-46.8927517,-23.5241999", "O_QUE_FAZER": "CARTEIRA", "ER_REGIAO_CIDADE_min": "Barueri_Jardim Silveira_Osasco" }, "geometry": { "type": "Point", "coordinates": [ -46.8927517, -23.5241999 ] } },
{ "type": "Feature", "properties": { "CNPJ": "43436821000188", "IDCIDADE": "BARUERI", "NOMEFANTASIA": "PAPELARIA_SANTIAGO", "RAZAOSOCIAL": "LEONARDO_POLZELLA_DE_LIMA", "ENDEE": "AVENIDA_MUNICIPAL434__JARDIM_SILVEIRA_06433-000", "LATITUDE": "-23.524274", "LONGITUDE": "-46.89275", "LMAPS": "https://www.google.com/maps?q=&layer=c&cbll=-46.89275,-23.524274", "O_QUE_FAZER": "CARTEIRA", "ER_REGIAO_CIDADE_min": "Barueri_Jardim Silveira_Osasco" }, "geometry": { "type": "Point", "coordinates": [ -46.89275, -23.524274 ] } },
{ "type": "Feature", "properties": { "CNPJ": "57764736000153", "IDCIDADE": "BARUERI", "NOMEFANTASIA": "HORTIFRUTI_SILVEIRA", "RAZAOSOCIAL": "HORTIFRUTI_SILVEIRA_LTDA", "ENDEE": "AVENIDA_MUNICIPAL448__JARDIM_SILVEIRA_06433-000", "LATITUDE": "-23.5246397", "LONGITUDE": "-46.8930384", "LMAPS": "https://www.google.com/maps?q=&layer=c&cbll=-46.8930384,-23.5246397", "O_QUE_FAZER": "CARTEIRA", "ER_REGIAO_CIDADE_min": "Barueri_Jardim Silveira_Osasco" }, "geometry": { "type": "Point", "coordinates": [ -46.8930384, -23.5246397 ] } },
{ "type": "Feature", "properties": { "CNPJ": "28152831000106", "IDCIDADE": "BARUERI", "NOMEFANTASIA": "EWERTON_TRINDADE_DOS_SANTOS", "RAZAOSOCIAL": "EWERTON_TRINDADE_DOS_SANTOS", "ENDEE": "AVENIDA_MUNICIPAL49__JARDIM_SILVEIRA_06433-000", "LATITUDE": "-23.5221908", "LONGITUDE": "-46.8899608", "LMAPS": "https://www.google.com/maps?q=&layer=c&cbll=-46.8899608,-23.5221908", "O_QUE_FAZER": "CARTEIRA", "ER_REGIAO_CIDADE_min": "Barueri_Jardim Silveira_Osasco" }, "geometry": { "type": "Point", "coordinates": [ -46.8899608, -23.5221908 ] } },
{ "type": "Feature", "properties": { "CNPJ": "11948022000102", "IDCIDADE": "BARUERI", "NOMEFANTASIA": "RT_TINTAS", "RAZAOSOCIAL": "RUBENS_FERREIRA_SOARES", "ENDEE": "AVENIDA_MUNICIPAL583__JARDIM_SILVEIRA_06433-000", "LATITUDE": "-23.5253804", "LONGITUDE": "-46.8938349", "LMAPS": "https://www.google.com/maps?q=&layer=c&cbll=-46.8938349,-23.5253804", "O_QUE_FAZER": "CARTEIRA", "ER_REGIAO_CIDADE_min": "Barueri_Jardim Silveira_Osasco" }, "geometry": { "type": "Point", "coordinates": [ -46.8938349, -23.5253804 ] } },
{ "type": "Feature", "properties": { "CNPJ": "11624668000126", "IDCIDADE": "BARUERI", "NOMEFANTASIA": "T_U_AUTO_CENTER", "RAZAOSOCIAL": "FERNANDO_DA_SILVA_RIBEIRO_BARUERI", "ENDEE": "AVENIDA_MUNICIPAL593__JARDIM_SILVEIRA_06433-000", "LATITUDE": "-23.5254257", "LONGITUDE": "-46.8938637", "LMAPS": "https://www.google.com/maps?q=&layer=c&cbll=-46.8938637,-23.5254257", "O_QUE_FAZER": "CARTEIRA", "ER_REGIAO_CIDADE_min": "Barueri_Jardim Silveira_Osasco" }, "geometry": { "type": "Point", "coordinates": [ -46.8938637, -23.5254257 ] } },
{ "type": "Feature", "properties": { "CNPJ": "21203680000110", "IDCIDADE": "BARUERI", "NOMEFANTASIA": "RT_VELOCIMETROS", "RAZAOSOCIAL": "JHONATAN_RODRIGUES_SILVA_SERVICOS_E_REPAROS_EM_VELOCIMETROS", "ENDEE": "AVENIDA_MUNICIPAL97__JARDIM_SILVEIRA_06433-000", "LATITUDE": "-23.5226067", "LONGITUDE": "-46.8901725", "LMAPS": "https://www.google.com/maps?q=&layer=c&cbll=-46.8901725,-23.5226067", "O_QUE_FAZER": "CARTEIRA", "ER_REGIAO_CIDADE_min": "Barueri_Jardim Silveira_Osasco" }, "geometry": { "type": "Point", "coordinates": [ -46.8901725, -23.5226067 ] } },
{ "type": "Feature", "properties": { "CNPJ": "00019317000170", "IDCIDADE": "BARUERI", "NOMEFANTASIA": "AUTO_LATA", "RAZAOSOCIAL": "COMERCIAL_AUTO_LATAS_LTDA", "ENDEE": "RUA_TERCA14__JARDIM_AUDIR_06433-030", "LATITUDE": "-23.5223431", "LONGITUDE": "-46.8901743", "LMAPS": "https://www.google.com/maps?q=&layer=c&cbll=-46.8901743,-23.5223431", "O_QUE_FAZER": "CARTEIRA", "ER_REGIAO_CIDADE_min": "Barueri_Jardim Silveira_Osasco" }, "geometry": { "type": "Point", "coordinates": [ -46.8901743, -23.5223431 ] } },
{ "type": "Feature", "properties": { "CNPJ": "11592439000177", "IDCIDADE": "BARUERI", "NOMEFANTASIA": "BNC", "RAZAOSOCIAL": "WV_AUTO_CENTER_LTDA", "ENDEE": "RUA_FERNAO_DIAS_PAES_LEME285__JARDIM_ALBERTO/SILVEIRA_06433-190", "LATITUDE": "-23.5227419", "LONGITUDE": "-46.892855", "LMAPS": "https://www.google.com/maps?q=&layer=c&cbll=-46.892855,-23.5227419", "O_QUE_FAZER": "CARTEIRA", "ER_REGIAO_CIDADE_min": "Barueri_Jardim Silveira_Osasco" }, "geometry": { "type": "Point", "coordinates": [ -46.892855, -23.5227419 ] } },
{ "type": "Feature", "properties": { "CNPJ": "48353561000109", "IDCIDADE": "BARUERI", "NOMEFANTASIA": "DUUB_PETS", "RAZAOSOCIAL": "DAVANTEL_VENDA_DE_PRODUTOS_PARA_ANIMAIS_LTDA", "ENDEE": "RUA_FERNAO_DIAS_PAES_LEME403__JARDIM_ALBERTO/SILVEIRA_06433-190", "LATITUDE": "-23.5235839", "LONGITUDE": "-46.8931409", "LMAPS": "https://www.google.com/maps?q=&layer=c&cbll=-46.8931409,-23.5235839", "O_QUE_FAZER": "CARTEIRA", "ER_REGIAO_CIDADE_min": "Barueri_Jardim Silveira_Osasco" }, "geometry": { "type": "Point", "coordinates": [ -46.8931409, -23.5235839 ] } },
{ "type": "Feature", "properties": { "CNPJ": "51158961000160", "IDCIDADE": "BARUERI", "NOMEFANTASIA": "H&L_VEICULOS", "RAZAOSOCIAL": "H_&_L_VEICULOS_LTDA", "ENDEE": "AVENIDA_PARANAGUACU207__JARDIM_ALBERTO_06433-210", "LATITUDE": "-23.5207006", "LONGITUDE": "-46.8911946", "LMAPS": "https://www.google.com/maps?q=&layer=c&cbll=-46.8911946,-23.5207006", "O_QUE_FAZER": "CARTEIRA", "ER_REGIAO_CIDADE_min": "Barueri_Jardim Silveira_Osasco" }, "geometry": { "type": "Point", "coordinates": [ -46.8911946, -23.5207006 ] } },
{ "type": "Feature", "properties": { "CNPJ": "05009558000151", "IDCIDADE": "BARUERI", "NOMEFANTASIA": "TACOGRAFOS", "RAZAOSOCIAL": "VDI_COMERCIO_E_SERVICOS_DE_TACOGRAFOS_LTDA", "ENDEE": "AVENIDA_PARANAGUACU80__JARDIM_ALBERTO_06433-210", "LATITUDE": "-23.5215411", "LONGITUDE": "-46.8905032", "LMAPS": "https://www.google.com/maps?q=&layer=c&cbll=-46.8905032,-23.5215411", "O_QUE_FAZER": "CARTEIRA", "ER_REGIAO_CIDADE_min": "Barueri_Jardim Silveira_Osasco" }, "geometry": { "type": "Point", "coordinates": [ -46.8905032, -23.5215411 ] } },
{ "type": "Feature", "properties": { "CNPJ": "47082747000108", "IDCIDADE": "BARUERI", "NOMEFANTASIA": "EMMANUEL_AUTO_ESCOLA", "RAZAOSOCIAL": "AUTO_ESCOLA_EMMANUEL_LTDA", "ENDEE": "RUA_ELIAS_KRAIDE101__JARDIM_SILVEIRA_06433-260", "LATITUDE": "-23.5248985", "LONGITUDE": "-46.8927886", "LMAPS": "https://www.google.com/maps?q=&layer=c&cbll=-46.8927886,-23.5248985", "O_QUE_FAZER": "CARTEIRA", "ER_REGIAO_CIDADE_min": "Barueri_Jardim Silveira_Osasco" }, "geometry": { "type": "Point", "coordinates": [ -46.8927886, -23.5248985 ] } },
{ "type": "Feature", "properties": { "CNPJ": "11625466000107", "IDCIDADE": "BARUERI", "NOMEFANTASIA": "BOTECO_DO_SILVEIRA", "RAZAOSOCIAL": "LANCHONETE_PRINCESINHA_DO_SILVEIRA_LTDA", "ENDEE": "RUA_ELIAS_KRAIDE20__JARDIM_SILVEIRA_06433-260", "LATITUDE": "-23.5241606", "LONGITUDE": "-46.8933341", "LMAPS": "https://www.google.com/maps?q=&layer=c&cbll=-46.8933341,-23.5241606", "O_QUE_FAZER": "CARTEIRA", "ER_REGIAO_CIDADE_min": "Barueri_Jardim Silveira_Osasco" }, "geometry": { "type": "Point", "coordinates": [ -46.8933341, -23.5241606 ] } },
{ "type": "Feature", "properties": { "CNPJ": "10223503000180", "IDCIDADE": "BARUERI", "NOMEFANTASIA": "CICLO_GABIRU", "RAZAOSOCIAL": "E.M.A._DA_SILVA_COMERCIO_E_SERVICOS_LTDA", "ENDEE": "AVENIDA_PRESIDENTE_WASHINGTON_LUIZ27__JARDIM_SILVEIRA_06434-000", "LATITUDE": "-23.5250947", "LONGITUDE": "-46.8934539", "LMAPS": "https://www.google.com/maps?q=&layer=c&cbll=-46.8934539,-23.5250947", "O_QUE_FAZER": "CARTEIRA", "ER_REGIAO_CIDADE_min": "Barueri_Jardim Silveira_Osasco" }, "geometry": { "type": "Point", "coordinates": [ -46.8934539, -23.5250947 ] } },
{ "type": "Feature", "properties": { "CNPJ": "50221127000109", "IDCIDADE": "BARUERI", "NOMEFANTASIA": "KR_VISTORIA", "RAZAOSOCIAL": "K_R_RIBEIRO_VISTORIAS_LTDA", "ENDEE": "AVENIDA_PRESIDENTE_WASHINGTON_LUIZ314__JARDIM_SILVEIRA_06434-000", "LATITUDE": "-23.5252026", "LONGITUDE": "-46.893161", "LMAPS": "https://www.google.com/maps?q=&layer=c&cbll=-46.893161,-23.5252026", "O_QUE_FAZER": "CARTEIRA", "ER_REGIAO_CIDADE_min": "Barueri_Jardim Silveira_Osasco" }, "geometry": { "type": "Point", "coordinates": [ -46.893161, -23.5252026 ] } },
{ "type": "Feature", "properties": { "CNPJ": "18235579000137", "IDCIDADE": "BARUERI", "NOMEFANTASIA": "AUTO_PECAS_ORIGINAL", "RAZAOSOCIAL": "AUTO_PECAS_ORIGINAL_DE_BARUERI_LTDA", "ENDEE": "AVENIDA_PRESIDENTE_WASHINGTON_LUIZ611__JARDIM_SILVEIRA_06434-000", "LATITUDE": "-23.5300769", "LONGITUDE": "-46.8914237", "LMAPS": "https://www.google.com/maps?q=&layer=c&cbll=-46.8914237,-23.5300769", "O_QUE_FAZER": "CARTEIRA", "ER_REGIAO_CIDADE_min": "Barueri_Jardim Silveira_Osasco" }, "geometry": { "type": "Point", "coordinates": [ -46.8914237, -23.5300769 ] } },
{ "type": "Feature", "properties": { "CNPJ": "27192751000294", "IDCIDADE": "BARUERI", "NOMEFANTASIA": "MARLY_MATERIAIS_DE_CONSTRUCAO", "RAZAOSOCIAL": "M_DA_S_MELLO_MATERIAIS_PARA_CONSTRUCAO_LTDA", "ENDEE": "AVENIDA_PRESIDENTE_WASHINGTON_LUIZ633__JARDIM_SILVEIRA_06434-000", "LATITUDE": "-23.5302114", "LONGITUDE": "-46.8912701", "LMAPS": "https://www.google.com/maps?q=&layer=c&cbll=-46.8912701,-23.5302114", "O_QUE_FAZER": "CARTEIRA", "ER_REGIAO_CIDADE_min": "Barueri_Jardim Silveira_Osasco" }, "geometry": { "type": "Point", "coordinates": [ -46.8912701, -23.5302114 ] } },
{ "type": "Feature", "properties": { "CNPJ": "43181837000197", "IDCIDADE": "BARUERI", "NOMEFANTASIA": "HC._CONFECTIO", "RAZAOSOCIAL": "HC._CONFECTIO_CONFECCOES_LTDA", "ENDEE": "RUA_LUIZ_GONZAGA_FERNANDES_VERGARA31__JARDIM_SILVEIRA_06434-050", "LATITUDE": "-23.5255398", "LONGITUDE": "-46.8930177", "LMAPS": "https://www.google.com/maps?q=&layer=c&cbll=-46.8930177,-23.5255398", "O_QUE_FAZER": "CARTEIRA", "ER_REGIAO_CIDADE_min": "Barueri_Jardim Silveira_Osasco" }, "geometry": { "type": "Point", "coordinates": [ -46.8930177, -23.5255398 ] } },
{ "type": "Feature", "properties": { "CNPJ": "43706244000105", "IDCIDADE": "BARUERI", "NOMEFANTASIA": "EMPORIO_GIRASSOL", "RAZAOSOCIAL": "VERA_LUCIA_DA_SILVA", "ENDEE": "RUA_LUIZ_GONZAGA_FERNANDES_VERGARA7__JARDIM_SILVEIRA_06434-050", "LATITUDE": "-23.5254901", "LONGITUDE": "-46.8929374", "LMAPS": "https://www.google.com/maps?q=&layer=c&cbll=-46.8929374,-23.5254901", "O_QUE_FAZER": "CARTEIRA", "ER_REGIAO_CIDADE_min": "Barueri_Jardim Silveira_Osasco" }, "geometry": { "type": "Point", "coordinates": [ -46.8929374, -23.5254901 ] } },
{ "type": "Feature", "properties": { "CNPJ": "10691257000190", "IDCIDADE": "BARUERI", "NOMEFANTASIA": "FLORES_PRA_VOCE", "RAZAOSOCIAL": "FLORES_PRA_VOCE_-_COMERCIO_LTDA", "ENDEE": "AVENIDA_ZELIA1032__PARQUE_DOS_CAMARGOS_06436-000", "LATITUDE": "-23.5401783", "LONGITUDE": "-46.8867803", "LMAPS": "https://www.google.com/maps?q=&layer=c&cbll=-46.8867803,-23.5401783", "O_QUE_FAZER": "CARTEIRA", "ER_REGIAO_CIDADE_min": "Barueri_Jardim Silveira_Osasco" }, "geometry": { "type": "Point", "coordinates": [ -46.8867803, -23.5401783 ] } },
{ "type": "Feature", "properties": { "CNPJ": "35384045000191", "IDCIDADE": "BARUERI", "NOMEFANTASIA": "BRILHA_DENTES", "RAZAOSOCIAL": "BRILHA_DENTES_CLINICA_ODONTOLOGICA_LTDA", "ENDEE": "AVENIDA_ZELIA1035__PARQUE_DOS_CAMARGOS_06436-000", "LATITUDE": "-23.5401518", "LONGITUDE": "-46.8854521", "LMAPS": "https://www.google.com/maps?q=&layer=c&cbll=-46.8854521,-23.5401518", "O_QUE_FAZER": "CARTEIRA", "ER_REGIAO_CIDADE_min": "Barueri_Jardim Silveira_Osasco" }, "geometry": { "type": "Point", "coordinates": [ -46.8854521, -23.5401518 ] } },
{ "type": "Feature", "properties": { "CNPJ": "43955428000109", "IDCIDADE": "BARUERI", "NOMEFANTASIA": "DROGARIA_POUPE_AQUI", "RAZAOSOCIAL": "DROGARIA_CRE_BARUERI_LTDA", "ENDEE": "AVENIDA_ZELIA1056__PARQUE_DOS_CAMARGOS_06436-000", "LATITUDE": "-23.5401005", "LONGITUDE": "-46.8865547", "LMAPS": "https://www.google.com/maps?q=&layer=c&cbll=-46.8865547,-23.5401005", "O_QUE_FAZER": "CARTEIRA", "ER_REGIAO_CIDADE_min": "Barueri_Jardim Silveira_Osasco" }, "geometry": { "type": "Point", "coordinates": [ -46.8865547, -23.5401005 ] } },
{ "type": "Feature", "properties": { "CNPJ": "07750948000103", "IDCIDADE": "BARUERI", "NOMEFANTASIA": "AUTO_ESCOLA_FOXX", "RAZAOSOCIAL": "CFC_B_AUTO_MOTO_ESCOLA_HELIO_DE_MATOS_FRANCA_LTDA", "ENDEE": "AVENIDA_ZELIA1078__PARQUE_DOS_CAMARGOS_06436-000", "LATITUDE": "-23.5400855", "LONGITUDE": "-46.8862153", "LMAPS": "https://www.google.com/maps?q=&layer=c&cbll=-46.8862153,-23.5400855", "O_QUE_FAZER": "CARTEIRA", "ER_REGIAO_CIDADE_min": "Barueri_Jardim Silveira_Osasco" }, "geometry": { "type": "Point", "coordinates": [ -46.8862153, -23.5400855 ] } },
{ "type": "Feature", "properties": { "CNPJ": "08930736000170", "IDCIDADE": "BARUERI", "NOMEFANTASIA": "MARLANDIA", "RAZAOSOCIAL": "MARIA_DE_FATIMA_PEREIRA_DOS_SANTOS_PRESENTES", "ENDEE": "AVENIDA_ZELIA1115__PARQUE_DOS_CAMARGOS_06436-000", "LATITUDE": "-23.5400895", "LONGITUDE": "-46.8856553", "LMAPS": "https://www.google.com/maps?q=&layer=c&cbll=-46.8856553,-23.5400895", "O_QUE_FAZER": "CARTEIRA", "ER_REGIAO_CIDADE_min": "Barueri_Jardim Silveira_Osasco" }, "geometry": { "type": "Point", "coordinates": [ -46.8856553, -23.5400895 ] } },
{ "type": "Feature", "properties": { "CNPJ": "55161456000125", "IDCIDADE": "BARUERI", "NOMEFANTASIA": "OPTICALIA", "RAZAOSOCIAL": "MK_OPTICAL_LTDA", "ENDEE": "AVENIDA_ZELIA1116__PARQUE_DOS_CAMARGOS_06436-000", "LATITUDE": "-23.5400502", "LONGITUDE": "-46.8859036", "LMAPS": "https://www.google.com/maps?q=&layer=c&cbll=-46.8859036,-23.5400502", "O_QUE_FAZER": "CARTEIRA", "ER_REGIAO_CIDADE_min": "Barueri_Jardim Silveira_Osasco" }, "geometry": { "type": "Point", "coordinates": [ -46.8859036, -23.5400502 ] } },
{ "type": "Feature", "properties": { "CNPJ": "11079624000162", "IDCIDADE": "BARUERI", "NOMEFANTASIA": "A&A_COMERCIO", "RAZAOSOCIAL": "A_&_A_COMERCIO_DE_MATERIAIS_ELETRICOS_E_HIDRAULICOS_LTDA.", "ENDEE": "AVENIDA_ZELIA1128__PARQUE_DOS_CAMARGOS_06436-000", "LATITUDE": "-23.5401312", "LONGITUDE": "-46.885698", "LMAPS": "https://www.google.com/maps?q=&layer=c&cbll=-46.885698,-23.5401312", "O_QUE_FAZER": "CARTEIRA", "ER_REGIAO_CIDADE_min": "Barueri_Jardim Silveira_Osasco" }, "geometry": { "type": "Point", "coordinates": [ -46.885698, -23.5401312 ] } },
{ "type": "Feature", "properties": { "CNPJ": "08919606000137", "IDCIDADE": "BARUERI", "NOMEFANTASIA": "PETSHOP_TUCANAO", "RAZAOSOCIAL": "PET_SHOP_FOLONI_MARTINS_LTDA", "ENDEE": "AVENIDA_ZELIA1141__PARQUE_DOS_CAMARGOS_06436-000", "LATITUDE": "-23.5401556", "LONGITUDE": "-46.8854109", "LMAPS": "https://www.google.com/maps?q=&layer=c&cbll=-46.8854109,-23.5401556", "O_QUE_FAZER": "CARTEIRA", "ER_REGIAO_CIDADE_min": "Barueri_Jardim Silveira_Osasco" }, "geometry": { "type": "Point", "coordinates": [ -46.8854109, -23.5401556 ] } },
{ "type": "Feature", "properties": { "CNPJ": "74282179000153", "IDCIDADE": "BARUERI", "NOMEFANTASIA": "MAGOSTINTAS", "RAZAOSOCIAL": "CASA_DE_TINTAS_MAGOS_BARUERI_LTDA", "ENDEE": "AVENIDA_ZELIA1169__PARQUE_DOS_CAMARGOS_06436-000", "LATITUDE": "-23.5403574", "LONGITUDE": "-46.8853267", "LMAPS": "https://www.google.com/maps?q=&layer=c&cbll=-46.8853267,-23.5403574", "O_QUE_FAZER": "CARTEIRA", "ER_REGIAO_CIDADE_min": "Barueri_Jardim Silveira_Osasco" }, "geometry": { "type": "Point", "coordinates": [ -46.8853267, -23.5403574 ] } },
{ "type": "Feature", "properties": { "CNPJ": "66036898000166", "IDCIDADE": "BARUERI", "NOMEFANTASIA": "DROGARIA_MIRO", "RAZAOSOCIAL": "DROGARIA_E_PERFUMARIA_MIRO_DOIS_BARUERI_LTDA", "ENDEE": "AVENIDA_ZELIA1175__PARQUE_DOS_CAMARGOS_06436-000", "LATITUDE": "-23.5404111", "LONGITUDE": "-46.8853262", "LMAPS": "https://www.google.com/maps?q=&layer=c&cbll=-46.8853262,-23.5404111", "O_QUE_FAZER": "CARTEIRA", "ER_REGIAO_CIDADE_min": "Barueri_Jardim Silveira_Osasco" }, "geometry": { "type": "Point", "coordinates": [ -46.8853262, -23.5404111 ] } },
{ "type": "Feature", "properties": { "CNPJ": "05531874000199", "IDCIDADE": "BARUERI", "NOMEFANTASIA": "CASA_DO_NORTE", "RAZAOSOCIAL": "CASA_DO_NORTE_PARADA_NORDESTINA_LTDA", "ENDEE": "AVENIDA_ZELIA1190__PARQUE_DOS_CAMARGOS_06436-000", "LATITUDE": "-23.5405761", "LONGITUDE": "-46.8855816", "LMAPS": "https://www.google.com/maps?q=&layer=c&cbll=-46.8855816,-23.5405761", "O_QUE_FAZER": "CARTEIRA", "ER_REGIAO_CIDADE_min": "Barueri_Jardim Silveira_Osasco" }, "geometry": { "type": "Point", "coordinates": [ -46.8855816, -23.5405761 ] } },
{ "type": "Feature", "properties": { "CNPJ": "11857104000133", "IDCIDADE": "BARUERI", "NOMEFANTASIA": "LA&LU_MODAS", "RAZAOSOCIAL": "MARIA_DO_CARMO_DE_ARAUJO", "ENDEE": "AVENIDA_ZELIA123__PARQUE_DOS_CAMARGOS_06436-000", "LATITUDE": "-23.5332088", "LONGITUDE": "-46.891251", "LMAPS": "https://www.google.com/maps?q=&layer=c&cbll=-46.891251,-23.5332088", "O_QUE_FAZER": "CARTEIRA", "ER_REGIAO_CIDADE_min": "Barueri_Jardim Silveira_Osasco" }, "geometry": { "type": "Point", "coordinates": [ -46.891251, -23.5332088 ] } },
{ "type": "Feature", "properties": { "CNPJ": "57568988000107", "IDCIDADE": "BARUERI", "NOMEFANTASIA": "ZELIA_PAES", "RAZAOSOCIAL": "ZELIA_PAES_E_DOCES_LTDA", "ENDEE": "AVENIDA_ZELIA1315__PARQUE_DOS_CAMARGOS_06436-000", "LATITUDE": "-23.5415339", "LONGITUDE": "-46.8849955", "LMAPS": "https://www.google.com/maps?q=&layer=c&cbll=-46.8849955,-23.5415339", "O_QUE_FAZER": "CARTEIRA", "ER_REGIAO_CIDADE_min": "Barueri_Jardim Silveira_Osasco" }, "geometry": { "type": "Point", "coordinates": [ -46.8849955, -23.5415339 ] } },
{ "type": "Feature", "properties": { "CNPJ": "17610384000167", "IDCIDADE": "BARUERI", "NOMEFANTASIA": "ESQUINA", "RAZAOSOCIAL": "SKINA_PUB_PIZZARIA_LTDA", "ENDEE": "AVENIDA_ZELIA1329__PARQUE_DOS_CAMARGOS_06436-000", "LATITUDE": "-23.5416587", "LONGITUDE": "-46.8849233", "LMAPS": "https://www.google.com/maps?q=&layer=c&cbll=-46.8849233,-23.5416587", "O_QUE_FAZER": "CARTEIRA", "ER_REGIAO_CIDADE_min": "Barueri_Jardim Silveira_Osasco" }, "geometry": { "type": "Point", "coordinates": [ -46.8849233, -23.5416587 ] } },
{ "type": "Feature", "properties": { "CNPJ": "19261479000148", "IDCIDADE": "BARUERI", "NOMEFANTASIA": "BABY_FRALDAS", "RAZAOSOCIAL": "ANA_PAULA_FERNANDES_LOPES", "ENDEE": "AVENIDA_ZELIA159__PARQUE_DOS_CAMARGOS_06436-000", "LATITUDE": "-23.5334983", "LONGITUDE": "-46.8910052", "LMAPS": "https://www.google.com/maps?q=&layer=c&cbll=-46.8910052,-23.5334983", "O_QUE_FAZER": "CARTEIRA", "ER_REGIAO_CIDADE_min": "Barueri_Jardim Silveira_Osasco" }, "geometry": { "type": "Point", "coordinates": [ -46.8910052, -23.5334983 ] } },
{ "type": "Feature", "properties": { "CNPJ": "15335316000101", "IDCIDADE": "BARUERI", "NOMEFANTASIA": "BIG_DOG", "RAZAOSOCIAL": "SERGIO_HORODENKO_SOARES", "ENDEE": "AVENIDA_ZELIA225__PARQUE_DOS_CAMARGOS_06436-000", "LATITUDE": "-23.5340311", "LONGITUDE": "-46.8905629", "LMAPS": "https://www.google.com/maps?q=&layer=c&cbll=-46.8905629,-23.5340311", "O_QUE_FAZER": "CARTEIRA", "ER_REGIAO_CIDADE_min": "Barueri_Jardim Silveira_Osasco" }, "geometry": { "type": "Point", "coordinates": [ -46.8905629, -23.5340311 ] } },
{ "type": "Feature", "properties": { "CNPJ": "54929325000182", "IDCIDADE": "BARUERI", "NOMEFANTASIA": "O_MUNDO_20", "RAZAOSOCIAL": "ELIANE_G_DA_SILVA", "ENDEE": "AVENIDA_ZELIA231__PARQUE_DOS_CAMARGOS_06436-000", "LATITUDE": "-23.5341517", "LONGITUDE": "-46.8906099", "LMAPS": "https://www.google.com/maps?q=&layer=c&cbll=-46.8906099,-23.5341517", "O_QUE_FAZER": "CARTEIRA", "ER_REGIAO_CIDADE_min": "Barueri_Jardim Silveira_Osasco" }, "geometry": { "type": "Point", "coordinates": [ -46.8906099, -23.5341517 ] } },
{ "type": "Feature", "properties": { "CNPJ": "43173038000179", "IDCIDADE": "BARUERI", "NOMEFANTASIA": "JR_SERVICO_AUTOMOTIVOS", "RAZAOSOCIAL": "BRITTO_&_BUENO_CENTRO_AUTOMOTIVO_LTDA", "ENDEE": "AVENIDA_ZELIA248__PARQUE_DOS_CAMARGOS_06436-000", "LATITUDE": "-23.5342922", "LONGITUDE": "-46.8905683", "LMAPS": "https://www.google.com/maps?q=&layer=c&cbll=-46.8905683,-23.5342922", "O_QUE_FAZER": "CARTEIRA", "ER_REGIAO_CIDADE_min": "Barueri_Jardim Silveira_Osasco" }, "geometry": { "type": "Point", "coordinates": [ -46.8905683, -23.5342922 ] } },
{ "type": "Feature", "properties": { "CNPJ": "44709702000114", "IDCIDADE": "BARUERI", "NOMEFANTASIA": "CENTRO_DE_TREINAMENTO_FUINHA", "RAZAOSOCIAL": "C_A_DE_PAULA_-_TEAM_FUINHA", "ENDEE": "AVENIDA_ZELIA251__PARQUE_DOS_CAMARGOS_06436-000", "LATITUDE": "-23.5341525", "LONGITUDE": "-46.8904801", "LMAPS": "https://www.google.com/maps?q=&layer=c&cbll=-46.8904801,-23.5341525", "O_QUE_FAZER": "CARTEIRA", "ER_REGIAO_CIDADE_min": "Barueri_Jardim Silveira_Osasco" }, "geometry": { "type": "Point", "coordinates": [ -46.8904801, -23.5341525 ] } },
{ "type": "Feature", "properties": { "CNPJ": "48136066000130", "IDCIDADE": "BARUERI", "NOMEFANTASIA": "OZACAR_AUTO_PECAS", "RAZAOSOCIAL": "OZACAR_COMERCIO_DE_PECAS_AUTOMOTIVAS_LTDA", "ENDEE": "AVENIDA_ZELIA258__PARQUE_DOS_CAMARGOS_06436-000", "LATITUDE": "-23.5342918", "LONGITUDE": "-46.8904349", "LMAPS": "https://www.google.com/maps?q=&layer=c&cbll=-46.8904349,-23.5342918", "O_QUE_FAZER": "CARTEIRA", "ER_REGIAO_CIDADE_min": "Barueri_Jardim Silveira_Osasco" }, "geometry": { "type": "Point", "coordinates": [ -46.8904349, -23.5342918 ] } },
{ "type": "Feature", "properties": { "CNPJ": "07636268000163", "IDCIDADE": "BARUERI", "NOMEFANTASIA": "CAAR_CEENTER", "RAZAOSOCIAL": "PAULO_HIROSHI_FURUKAVA", "ENDEE": "AVENIDA_ZELIA265__PARQUE_DOS_CAMARGOS_06436-000", "LATITUDE": "-23.5342367", "LONGITUDE": "-46.8903151", "LMAPS": "https://www.google.com/maps?q=&layer=c&cbll=-46.8903151,-23.5342367", "O_QUE_FAZER": "CARTEIRA", "ER_REGIAO_CIDADE_min": "Barueri_Jardim Silveira_Osasco" }, "geometry": { "type": "Point", "coordinates": [ -46.8903151, -23.5342367 ] } },
{ "type": "Feature", "properties": { "CNPJ": "09488477000132", "IDCIDADE": "BARUERI", "NOMEFANTASIA": "GODOY_BATERIAS", "RAZAOSOCIAL": "WILSON_FERREIRA_DE_GODOY_JUNIOR", "ENDEE": "AVENIDA_ZELIA280__PARQUE_DOS_CAMARGOS_06436-000", "LATITUDE": "-23.5344676", "LONGITUDE": "-46.8904012", "LMAPS": "https://www.google.com/maps?q=&layer=c&cbll=-46.8904012,-23.5344676", "O_QUE_FAZER": "CARTEIRA", "ER_REGIAO_CIDADE_min": "Barueri_Jardim Silveira_Osasco" }, "geometry": { "type": "Point", "coordinates": [ -46.8904012, -23.5344676 ] } },
{ "type": "Feature", "properties": { "CNPJ": "46394962000173", "IDCIDADE": "BARUERI", "NOMEFANTASIA": "O_REI_DOS_BIFES", "RAZAOSOCIAL": "REI_DOS_BIFES_ACOUGUE_E_MINIMERCADO_LTDA", "ENDEE": "AVENIDA_ZELIA292__PARQUE_DOS_CAMARGOS_06436-000", "LATITUDE": "-23.5345217", "LONGITUDE": "-46.8903663", "LMAPS": "https://www.google.com/maps?q=&layer=c&cbll=-46.8903663,-23.5345217", "O_QUE_FAZER": "CARTEIRA", "ER_REGIAO_CIDADE_min": "Barueri_Jardim Silveira_Osasco" }, "geometry": { "type": "Point", "coordinates": [ -46.8903663, -23.5345217 ] } },
{ "type": "Feature", "properties": { "CNPJ": "00455983000150", "IDCIDADE": "BARUERI", "NOMEFANTASIA": "BICICLETARIA_LUCIA_NETO", "RAZAOSOCIAL": "JOSE_NETO_SILVA_BICICLETARIA", "ENDEE": "AVENIDA_ZELIA310__PARQUE_DOS_CAMARGOS_06436-000", "LATITUDE": "-23.5347247", "LONGITUDE": "-46.890275", "LMAPS": "https://www.google.com/maps?q=&layer=c&cbll=-46.890275,-23.5347247", "O_QUE_FAZER": "CARTEIRA", "ER_REGIAO_CIDADE_min": "Barueri_Jardim Silveira_Osasco" }, "geometry": { "type": "Point", "coordinates": [ -46.890275, -23.5347247 ] } },
{ "type": "Feature", "properties": { "CNPJ": "05736195000237", "IDCIDADE": "BARUERI", "NOMEFANTASIA": "FAMA_GAS", "RAZAOSOCIAL": "ERIK_PAULO_SANTOS", "ENDEE": "AVENIDA_ZELIA388__PARQUE_DOS_CAMARGOS_06436-000", "LATITUDE": "-23.5352838", "LONGITUDE": "-46.889783", "LMAPS": "https://www.google.com/maps?q=&layer=c&cbll=-46.889783,-23.5352838", "O_QUE_FAZER": "CARTEIRA", "ER_REGIAO_CIDADE_min": "Barueri_Jardim Silveira_Osasco" }, "geometry": { "type": "Point", "coordinates": [ -46.889783, -23.5352838 ] } },
{ "type": "Feature", "properties": { "CNPJ": "13991206000172", "IDCIDADE": "BARUERI", "NOMEFANTASIA": "OUTLET_DOS_OCULOS", "RAZAOSOCIAL": "OVERSIDE_COMERCIO_DE_OCULOS_LIMITADA", "ENDEE": "AVENIDA_ZELIA433__PARQUE_DOS_CAMARGOS_06436-000", "LATITUDE": "-23.5354406", "LONGITUDE": "-46.889401", "LMAPS": "https://www.google.com/maps?q=&layer=c&cbll=-46.889401,-23.5354406", "O_QUE_FAZER": "CARTEIRA", "ER_REGIAO_CIDADE_min": "Barueri_Jardim Silveira_Osasco" }, "geometry": { "type": "Point", "coordinates": [ -46.889401, -23.5354406 ] } },
{ "type": "Feature", "properties": { "CNPJ": "27008303000298", "IDCIDADE": "BARUERI", "NOMEFANTASIA": "JE_TROCA_DE_OLEO", "RAZAOSOCIAL": "E.D.I_BATERIAS_AUTOMOTIVAS_LTDA", "ENDEE": "AVENIDA_ZELIA455__PARQUE_DOS_CAMARGOS_06436-000", "LATITUDE": "-23.5355509", "LONGITUDE": "-46.889085", "LMAPS": "https://www.google.com/maps?q=&layer=c&cbll=-46.889085,-23.5355509", "O_QUE_FAZER": "CARTEIRA", "ER_REGIAO_CIDADE_min": "Barueri_Jardim Silveira_Osasco" }, "geometry": { "type": "Point", "coordinates": [ -46.889085, -23.5355509 ] } },
{ "type": "Feature", "properties": { "CNPJ": "21333832000108", "IDCIDADE": "BARUERI", "NOMEFANTASIA": "DARTS", "RAZAOSOCIAL": "D._ART'S_CORTINAS_E_INTERIORES_LTDA.", "ENDEE": "AVENIDA_ZELIA462__PARQUE_DOS_CAMARGOS_06436-000", "LATITUDE": "-23.5357856", "LONGITUDE": "-46.889372", "LMAPS": "https://www.google.com/maps?q=&layer=c&cbll=-46.889372,-23.5357856", "O_QUE_FAZER": "CARTEIRA", "ER_REGIAO_CIDADE_min": "Barueri_Jardim Silveira_Osasco" }, "geometry": { "type": "Point", "coordinates": [ -46.889372, -23.5357856 ] } },
{ "type": "Feature", "properties": { "CNPJ": "28461933000103", "IDCIDADE": "BARUERI", "NOMEFANTASIA": "NOSSA_FARMA", "RAZAOSOCIAL": "M._CARVALHO_DROGARIA_LTDA", "ENDEE": "AVENIDA_ZELIA464__PARQUE_DOS_CAMARGOS_06436-000", "LATITUDE": "-23.5357621", "LONGITUDE": "-46.8892291", "LMAPS": "https://www.google.com/maps?q=&layer=c&cbll=-46.8892291,-23.5357621", "O_QUE_FAZER": "CARTEIRA", "ER_REGIAO_CIDADE_min": "Barueri_Jardim Silveira_Osasco" }, "geometry": { "type": "Point", "coordinates": [ -46.8892291, -23.5357621 ] } },
{ "type": "Feature", "properties": { "CNPJ": "01711617000188", "IDCIDADE": "BARUERI", "NOMEFANTASIA": "AUTO_ESCOLA_SILVEIRA", "RAZAOSOCIAL": "AUTO_MOTO_ESCOLA_SILVEIRA_LTDA", "ENDEE": "AVENIDA_ZELIA530__PARQUE_DOS_CAMARGOS_06436-000", "LATITUDE": "-23.5362295", "LONGITUDE": "-46.8888004", "LMAPS": "https://www.google.com/maps?q=&layer=c&cbll=-46.8888004,-23.5362295", "O_QUE_FAZER": "CARTEIRA", "ER_REGIAO_CIDADE_min": "Barueri_Jardim Silveira_Osasco" }, "geometry": { "type": "Point", "coordinates": [ -46.8888004, -23.5362295 ] } },
{ "type": "Feature", "properties": { "CNPJ": "32610020000170", "IDCIDADE": "BARUERI", "NOMEFANTASIA": "PETSHOP_ALEGRIA", "RAZAOSOCIAL": "PET_SHOP_ALEGRIA_LTDA", "ENDEE": "AVENIDA_ZELIA603__PARQUE_DOS_CAMARGOS_06436-000", "LATITUDE": "-23.5366433", "LONGITUDE": "-46.8882657", "LMAPS": "https://www.google.com/maps?q=&layer=c&cbll=-46.8882657,-23.5366433", "O_QUE_FAZER": "CARTEIRA", "ER_REGIAO_CIDADE_min": "Barueri_Jardim Silveira_Osasco" }, "geometry": { "type": "Point", "coordinates": [ -46.8882657, -23.5366433 ] } },
{ "type": "Feature", "properties": { "CNPJ": "37570481000180", "IDCIDADE": "BARUERI", "NOMEFANTASIA": "VIDRACARIA_IMEDIATA", "RAZAOSOCIAL": "VIDRACARIA_IMEDIATA_LTDA", "ENDEE": "AVENIDA_ZELIA609__PARQUE_DOS_CAMARGOS_06436-000", "LATITUDE": "-23.5367988", "LONGITUDE": "-46.8883367", "LMAPS": "https://www.google.com/maps?q=&layer=c&cbll=-46.8883367,-23.5367988", "O_QUE_FAZER": "CARTEIRA", "ER_REGIAO_CIDADE_min": "Barueri_Jardim Silveira_Osasco" }, "geometry": { "type": "Point", "coordinates": [ -46.8883367, -23.5367988 ] } },
{ "type": "Feature", "properties": { "CNPJ": "14321283000188", "IDCIDADE": "BARUERI", "NOMEFANTASIA": "HORUS", "RAZAOSOCIAL": "HORUS_REPAROS_AUTOMOTIVOS_LTDA", "ENDEE": "AVENIDA_ZELIA62__PARQUE_DOS_CAMARGOS_06436-000", "LATITUDE": "-23.5329887", "LONGITUDE": "-46.891801", "LMAPS": "https://www.google.com/maps?q=&layer=c&cbll=-46.891801,-23.5329887", "O_QUE_FAZER": "CARTEIRA", "ER_REGIAO_CIDADE_min": "Barueri_Jardim Silveira_Osasco" }, "geometry": { "type": "Point", "coordinates": [ -46.891801, -23.5329887 ] } },
{ "type": "Feature", "properties": { "CNPJ": "55107073000179", "IDCIDADE": "BARUERI", "NOMEFANTASIA": "DEPOSITO_JOTA", "RAZAOSOCIAL": "JOTA_MATERIAIS_ELETRICOS_LTDA", "ENDEE": "AVENIDA_ZELIA631__PARQUE_DOS_CAMARGOS_06436-000", "LATITUDE": "-23.5369029", "LONGITUDE": "-46.8881414", "LMAPS": "https://www.google.com/maps?q=&layer=c&cbll=-46.8881414,-23.5369029", "O_QUE_FAZER": "CARTEIRA", "ER_REGIAO_CIDADE_min": "Barueri_Jardim Silveira_Osasco" }, "geometry": { "type": "Point", "coordinates": [ -46.8881414, -23.5369029 ] } },
{ "type": "Feature", "properties": { "CNPJ": "47889838000141", "IDCIDADE": "BARUERI", "NOMEFANTASIA": "SARAEL_DOCES", "RAZAOSOCIAL": "SARAEL_DOCES_E_EMBALAGENS_LTDA", "ENDEE": "AVENIDA_ZELIA731__PARQUE_DOS_CAMARGOS_06436-000", "LATITUDE": "-23.5376728", "LONGITUDE": "-46.8876172", "LMAPS": "https://www.google.com/maps?q=&layer=c&cbll=-46.8876172,-23.5376728", "O_QUE_FAZER": "CARTEIRA", "ER_REGIAO_CIDADE_min": "Barueri_Jardim Silveira_Osasco" }, "geometry": { "type": "Point", "coordinates": [ -46.8876172, -23.5376728 ] } },
{ "type": "Feature", "properties": { "CNPJ": "10472577000150", "IDCIDADE": "BARUERI", "NOMEFANTASIA": "MOTO_GRAU", "RAZAOSOCIAL": "MOTO_GRAU_COMERCIO_DE_PECAS_E_SERVICOS_LTDA", "ENDEE": "AVENIDA_ZELIA741__PARQUE_DOS_CAMARGOS_06436-000", "LATITUDE": "-23.5376343", "LONGITUDE": "-46.8874725", "LMAPS": "https://www.google.com/maps?q=&layer=c&cbll=-46.8874725,-23.5376343", "O_QUE_FAZER": "CARTEIRA", "ER_REGIAO_CIDADE_min": "Barueri_Jardim Silveira_Osasco" }, "geometry": { "type": "Point", "coordinates": [ -46.8874725, -23.5376343 ] } },
{ "type": "Feature", "properties": { "CNPJ": "10870796000197", "IDCIDADE": "BARUERI", "NOMEFANTASIA": "BEDUENO_RESTANTE", "RAZAOSOCIAL": "MASSAMI_SUPER_LANCHES_LTDA", "ENDEE": "AVENIDA_ZELIA856__PARQUE_DOS_CAMARGOS_06436-000", "LATITUDE": "-23.5387204", "LONGITUDE": "-46.8872196", "LMAPS": "https://www.google.com/maps?q=&layer=c&cbll=-46.8872196,-23.5387204", "O_QUE_FAZER": "CARTEIRA", "ER_REGIAO_CIDADE_min": "Barueri_Jardim Silveira_Osasco" }, "geometry": { "type": "Point", "coordinates": [ -46.8872196, -23.5387204 ] } },
{ "type": "Feature", "properties": { "CNPJ": "47789389000160", "IDCIDADE": "BARUERI", "NOMEFANTASIA": "NATURAL_E_NUTRICAO", "RAZAOSOCIAL": "SANTOS_LOURENCO_SC_SUPLEMENTOS_LTDA", "ENDEE": "AVENIDA_ZELIA863__PARQUE_DOS_CAMARGOS_06436-000", "LATITUDE": "-23.5386225", "LONGITUDE": "-46.8870034", "LMAPS": "https://www.google.com/maps?q=&layer=c&cbll=-46.8870034,-23.5386225", "O_QUE_FAZER": "CARTEIRA", "ER_REGIAO_CIDADE_min": "Barueri_Jardim Silveira_Osasco" }, "geometry": { "type": "Point", "coordinates": [ -46.8870034, -23.5386225 ] } },
{ "type": "Feature", "properties": { "CNPJ": "23864232000193", "IDCIDADE": "BARUERI", "NOMEFANTASIA": "MERCADINHO_DAS_CRIANCAS", "RAZAOSOCIAL": "LEANDRO_SOARES", "ENDEE": "AVENIDA_ZELIA893__PARQUE_DOS_CAMARGOS_06436-000", "LATITUDE": "-23.5388733", "LONGITUDE": "-46.8869021", "LMAPS": "https://www.google.com/maps?q=&layer=c&cbll=-46.8869021,-23.5388733", "O_QUE_FAZER": "CARTEIRA", "ER_REGIAO_CIDADE_min": "Barueri_Jardim Silveira_Osasco" }, "geometry": { "type": "Point", "coordinates": [ -46.8869021, -23.5388733 ] } },
{ "type": "Feature", "properties": { "CNPJ": "48719083000108", "IDCIDADE": "BARUERI", "NOMEFANTASIA": "HUGO_VARIEDADES", "RAZAOSOCIAL": "E_F_L_DOS_SANTOS_JUNIOR", "ENDEE": "AVENIDA_ZELIA933__PARQUE_DOS_CAMARGOS_06436-000", "LATITUDE": "-23.5392382", "LONGITUDE": "-46.8869761", "LMAPS": "https://www.google.com/maps?q=&layer=c&cbll=-46.8869761,-23.5392382", "O_QUE_FAZER": "CARTEIRA", "ER_REGIAO_CIDADE_min": "Barueri_Jardim Silveira_Osasco" }, "geometry": { "type": "Point", "coordinates": [ -46.8869761, -23.5392382 ] } },
{ "type": "Feature", "properties": { "CNPJ": "20494849000176", "IDCIDADE": "BARUERI", "NOMEFANTASIA": "CAMPEOES_FARMA", "RAZAOSOCIAL": "CAMPEOES_FARMA_LTDA", "ENDEE": "AVENIDA_ZELIA943__PARQUE_DOS_CAMARGOS_06436-000", "LATITUDE": "-23.5393703", "LONGITUDE": "-46.886909", "LMAPS": "https://www.google.com/maps?q=&layer=c&cbll=-46.886909,-23.5393703", "O_QUE_FAZER": "CARTEIRA", "ER_REGIAO_CIDADE_min": "Barueri_Jardim Silveira_Osasco" }, "geometry": { "type": "Point", "coordinates": [ -46.886909, -23.5393703 ] } },
{ "type": "Feature", "properties": { "CNPJ": "27175925000120", "IDCIDADE": "BARUERI", "NOMEFANTASIA": "VIDA_NOVA", "RAZAOSOCIAL": "A.S.A.COMERCIO_DE_MATERIAIS_PARA_CONSTRUCAO_LTDA", "ENDEE": "AVENIDA_ZELIA99__PARQUE_DOS_CAMARGOS_06436-000", "LATITUDE": "-23.532978", "LONGITUDE": "-46.8913499", "LMAPS": "https://www.google.com/maps?q=&layer=c&cbll=-46.8913499,-23.532978", "O_QUE_FAZER": "CARTEIRA", "ER_REGIAO_CIDADE_min": "Barueri_Jardim Silveira_Osasco" }, "geometry": { "type": "Point", "coordinates": [ -46.8913499, -23.532978 ] } },
{ "type": "Feature", "properties": { "CNPJ": "08600266000187", "IDCIDADE": "BARUERI", "NOMEFANTASIA": "CFC_NOVA_CONEXAO", "RAZAOSOCIAL": "CENTRO_DE_FORMACAO_DE_CONDUTORES_NOVA_CONEXAO_LTDA", "ENDEE": "RUA_CRISTIANE12__PARQUE_DOS_CAMARGOS_06436-010", "LATITUDE": "-23.5374636", "LONGITUDE": "-46.8878977", "LMAPS": "https://www.google.com/maps?q=&layer=c&cbll=-46.8878977,-23.5374636", "O_QUE_FAZER": "CARTEIRA", "ER_REGIAO_CIDADE_min": "Barueri_Jardim Silveira_Osasco" }, "geometry": { "type": "Point", "coordinates": [ -46.8878977, -23.5374636 ] } },
{ "type": "Feature", "properties": { "CNPJ": "21504286000112", "IDCIDADE": "BARUERI", "NOMEFANTASIA": "TESE_PEDAGOGICO", "RAZAOSOCIAL": "TESE_-_COMERCIO_DE_LIVROS_E_BRINQUEDOS_PEDAGOGICOS_LTDA", "ENDEE": "RUA_GISELE10__PARQUE_DOS_CAMARGOS_06436-120", "LATITUDE": "-23.5350526", "LONGITUDE": "-46.8899048", "LMAPS": "https://www.google.com/maps?q=&layer=c&cbll=-46.8899048,-23.5350526", "O_QUE_FAZER": "CARTEIRA", "ER_REGIAO_CIDADE_min": "Barueri_Jardim Silveira_Osasco" }, "geometry": { "type": "Point", "coordinates": [ -46.8899048, -23.5350526 ] } },
{ "type": "Feature", "properties": { "CNPJ": "49073995000100", "IDCIDADE": "BARUERI", "NOMEFANTASIA": "BAUEN_CONSTRUCOES", "RAZAOSOCIAL": "KLL_SOUZA_ATACADO_E_VAREJO", "ENDEE": "RUA_MARISA27__PARQUE_DOS_CAMARGOS_06436-190", "LATITUDE": "-23.5387754", "LONGITUDE": "-46.8873428", "LMAPS": "https://www.google.com/maps?q=&layer=c&cbll=-46.8873428,-23.5387754", "O_QUE_FAZER": "CARTEIRA", "ER_REGIAO_CIDADE_min": "Barueri_Jardim Silveira_Osasco" }, "geometry": { "type": "Point", "coordinates": [ -46.8873428, -23.5387754 ] } },
{ "type": "Feature", "properties": { "CNPJ": "02019400000174", "IDCIDADE": "BARUERI", "NOMEFANTASIA": "AUTO_PECA_PARANA", "RAZAOSOCIAL": "AUTO_PECAS_E_AUTO_ELETRICO_PARANA_BARUERI_LTDA", "ENDEE": "RUA_LEILA18__PARQUE_DOS_CAMARGOS_06436-240", "LATITUDE": "-23.5393287", "LONGITUDE": "-46.8873762", "LMAPS": "https://www.google.com/maps?q=&layer=c&cbll=-46.8873762,-23.5393287", "O_QUE_FAZER": "CARTEIRA", "ER_REGIAO_CIDADE_min": "Barueri_Jardim Silveira_Osasco" }, "geometry": { "type": "Point", "coordinates": [ -46.8873762, -23.5393287 ] } },
{ "type": "Feature", "properties": { "CNPJ": "74291659000180", "IDCIDADE": "BARUERI", "NOMEFANTASIA": "PANIFICADORA_FORTE", "RAZAOSOCIAL": "FORTE_PANIFICADORA_LTDA", "ENDEE": "RUA_CELINA111__PARQUE_DOS_CAMARGOS_06436-260", "LATITUDE": "-23.5401182", "LONGITUDE": "-46.8872517", "LMAPS": "https://www.google.com/maps?q=&layer=c&cbll=-46.8872517,-23.5401182", "O_QUE_FAZER": "CARTEIRA", "ER_REGIAO_CIDADE_min": "Barueri_Jardim Silveira_Osasco" }, "geometry": { "type": "Point", "coordinates": [ -46.8872517, -23.5401182 ] } },
{ "type": "Feature", "properties": { "CNPJ": "71960843000188", "IDCIDADE": "BARUERI", "NOMEFANTASIA": "CASA_DE_CARNES", "RAZAOSOCIAL": "CASA_DE_CARNES_PARQUE_DOS_CAMARGOS_LTDA", "ENDEE": "RUA_OLGA20__PARQUE_DOS_CAMARGOS_06436-390", "LATITUDE": "-23.5332859", "LONGITUDE": "-46.8916758", "LMAPS": "https://www.google.com/maps?q=&layer=c&cbll=-46.8916758,-23.5332859", "O_QUE_FAZER": "CARTEIRA", "ER_REGIAO_CIDADE_min": "Barueri_Jardim Silveira_Osasco" }, "geometry": { "type": "Point", "coordinates": [ -46.8916758, -23.5332859 ] } },
{ "type": "Feature", "properties": { "CNPJ": "19153414000189", "IDCIDADE": "BARUERI", "NOMEFANTASIA": "PRODEC", "RAZAOSOCIAL": "GRANDINI_BAZAR_E_PAPELARIA_LTDA", "ENDEE": "RUA_OLGA267__PARQUE_DOS_CAMARGOS_06436-390", "LATITUDE": "-23.5353684", "LONGITUDE": "-46.892356", "LMAPS": "https://www.google.com/maps?q=&layer=c&cbll=-46.892356,-23.5353684", "O_QUE_FAZER": "CARTEIRA", "ER_REGIAO_CIDADE_min": "Barueri_Jardim Silveira_Osasco" }, "geometry": { "type": "Point", "coordinates": [ -46.892356, -23.5353684 ] } },
{ "type": "Feature", "properties": { "CNPJ": "49675169000130", "IDCIDADE": "BARUERI", "NOMEFANTASIA": "QUALITY", "RAZAOSOCIAL": "QUALITY_SHARK_GRAFICA_LTDA", "ENDEE": "RUA_OLGA267__PARQUE_DOS_CAMARGOS_06436-390", "LATITUDE": "-23.5353711", "LONGITUDE": "-46.8923695", "LMAPS": "https://www.google.com/maps?q=&layer=c&cbll=-46.8923695,-23.5353711", "O_QUE_FAZER": "CARTEIRA", "ER_REGIAO_CIDADE_min": "Barueri_Jardim Silveira_Osasco" }, "geometry": { "type": "Point", "coordinates": [ -46.8923695, -23.5353711 ] } },
{ "type": "Feature", "properties": { "CNPJ": "24663054000103", "IDCIDADE": "BARUERI", "NOMEFANTASIA": "BUIU_BIKE", "RAZAOSOCIAL": "BUIU_BIKE_COMERCIO_E_SERVICOS_LTDA", "ENDEE": "RUA_OLGA287__PARQUE_DOS_CAMARGOS_06436-390", "LATITUDE": "-23.5355583", "LONGITUDE": "-46.8923185", "LMAPS": "https://www.google.com/maps?q=&layer=c&cbll=-46.8923185,-23.5355583", "O_QUE_FAZER": "CARTEIRA", "ER_REGIAO_CIDADE_min": "Barueri_Jardim Silveira_Osasco" }, "geometry": { "type": "Point", "coordinates": [ -46.8923185, -23.5355583 ] } },
{ "type": "Feature", "properties": { "CNPJ": "10769324000142", "IDCIDADE": "BARUERI", "NOMEFANTASIA": "SACOLAO_BARUERI", "RAZAOSOCIAL": "BARTOLOMEU_DA_SILVA_AMORIM_NETO_HORTIFRUTI", "ENDEE": "RUA_OLGA290__PARQUE_DOS_CAMARGOS_06436-390", "LATITUDE": "-23.5355686", "LONGITUDE": "-46.8924888", "LMAPS": "https://www.google.com/maps?q=&layer=c&cbll=-46.8924888,-23.5355686", "O_QUE_FAZER": "CARTEIRA", "ER_REGIAO_CIDADE_min": "Barueri_Jardim Silveira_Osasco" }, "geometry": { "type": "Point", "coordinates": [ -46.8924888, -23.5355686 ] } },
{ "type": "Feature", "properties": { "CNPJ": "04500186000280", "IDCIDADE": "BARUERI", "NOMEFANTASIA": "MERCADO_2_IRMOS", "RAZAOSOCIAL": "JOANA_MARIA_SOARES", "ENDEE": "RUA_OLGA303__PARQUE_DOS_CAMARGOS_06436-390", "LATITUDE": "-23.5356567", "LONGITUDE": "-46.8924273", "LMAPS": "https://www.google.com/maps?q=&layer=c&cbll=-46.8924273,-23.5356567", "O_QUE_FAZER": "CARTEIRA", "ER_REGIAO_CIDADE_min": "Barueri_Jardim Silveira_Osasco" }, "geometry": { "type": "Point", "coordinates": [ -46.8924273, -23.5356567 ] } },
{ "type": "Feature", "properties": { "CNPJ": "54584617000120", "IDCIDADE": "BARUERI", "NOMEFANTASIA": "DROGARIA_BELLA_OLGA", "RAZAOSOCIAL": "DROGARIA_BELLA_OLGA_LTDA", "ENDEE": "RUA_OLGA316__PARQUE_DOS_CAMARGOS_06436-390", "LATITUDE": "-23.5357648", "LONGITUDE": "-46.8925815", "LMAPS": "https://www.google.com/maps?q=&layer=c&cbll=-46.8925815,-23.5357648", "O_QUE_FAZER": "CARTEIRA", "ER_REGIAO_CIDADE_min": "Barueri_Jardim Silveira_Osasco" }, "geometry": { "type": "Point", "coordinates": [ -46.8925815, -23.5357648 ] } },
{ "type": "Feature", "properties": { "CNPJ": "37369690000160", "IDCIDADE": "BARUERI", "NOMEFANTASIA": "ADEGA_DO_GORDINHO", "RAZAOSOCIAL": "MERCADINHO_E_ADEGA_DO_GORDINHO_LTDA", "ENDEE": "RUA_OLGA320__PARQUE_DOS_CAMARGOS_06436-390", "LATITUDE": "-23.5358376", "LONGITUDE": "-46.8925805", "LMAPS": "https://www.google.com/maps?q=&layer=c&cbll=-46.8925805,-23.5358376", "O_QUE_FAZER": "CARTEIRA", "ER_REGIAO_CIDADE_min": "Barueri_Jardim Silveira_Osasco" }, "geometry": { "type": "Point", "coordinates": [ -46.8925805, -23.5358376 ] } },
{ "type": "Feature", "properties": { "CNPJ": "09638440000143", "IDCIDADE": "BARUERI", "NOMEFANTASIA": "CANAA_NATA", "RAZAOSOCIAL": "CEIR_PANTALIAO_DE_ARAUJO_SORVETES", "ENDEE": "RUA_OLGA89__PARQUE_DOS_CAMARGOS_06436-390", "LATITUDE": "-23.5337675", "LONGITUDE": "-46.8919668", "LMAPS": "https://www.google.com/maps?q=&layer=c&cbll=-46.8919668,-23.5337675", "O_QUE_FAZER": "CARTEIRA", "ER_REGIAO_CIDADE_min": "Barueri_Jardim Silveira_Osasco" }, "geometry": { "type": "Point", "coordinates": [ -46.8919668, -23.5337675 ] } },
{ "type": "Feature", "properties": { "CNPJ": "44040211000123", "IDCIDADE": "BARUERI", "NOMEFANTASIA": "ADEGA_PEDRAO", "RAZAOSOCIAL": "MARINEZ_SOARES_DE_BRITO_ADEGA", "ENDEE": "RUA_MARCIA172__PARQUE_DOS_CAMARGOS_06436-410", "LATITUDE": "-23.5347962", "LONGITUDE": "-46.8919367", "LMAPS": "https://www.google.com/maps?q=&layer=c&cbll=-46.8919367,-23.5347962", "O_QUE_FAZER": "CARTEIRA", "ER_REGIAO_CIDADE_min": "Barueri_Jardim Silveira_Osasco" }, "geometry": { "type": "Point", "coordinates": [ -46.8919367, -23.5347962 ] } },
{ "type": "Feature", "properties": { "CNPJ": "42579709000133", "IDCIDADE": "BARUERI", "NOMEFANTASIA": "CASA_DAS_CORES", "RAZAOSOCIAL": "CASA_DAS_CORES_COMERCIO_DE_TINTAS_LTDA", "ENDEE": "RUA_MARCIA70__PARQUE_DOS_CAMARGOS_06436-410", "LATITUDE": "-23.5339841", "LONGITUDE": "-46.8915653", "LMAPS": "https://www.google.com/maps?q=&layer=c&cbll=-46.8915653,-23.5339841", "O_QUE_FAZER": "CARTEIRA", "ER_REGIAO_CIDADE_min": "Barueri_Jardim Silveira_Osasco" }, "geometry": { "type": "Point", "coordinates": [ -46.8915653, -23.5339841 ] } },
{ "type": "Feature", "properties": { "CNPJ": "26364016000177", "IDCIDADE": "BARUERI", "NOMEFANTASIA": "CAMPEAO_FARMA", "RAZAOSOCIAL": "CAMPEAO_FARMA_-_PS_LTDA", "ENDEE": "RUA_CELIA14__PARQUE_DOS_CAMARGOS_06436-420", "LATITUDE": "-23.5327211", "LONGITUDE": "-46.8913646", "LMAPS": "https://www.google.com/maps?q=&layer=c&cbll=-46.8913646,-23.5327211", "O_QUE_FAZER": "CARTEIRA", "ER_REGIAO_CIDADE_min": "Barueri_Jardim Silveira_Osasco" }, "geometry": { "type": "Point", "coordinates": [ -46.8913646, -23.5327211 ] } },
{ "type": "Feature", "properties": { "CNPJ": "41606762000113", "IDCIDADE": "BARUERI", "NOMEFANTASIA": "RET_FITNESS", "RAZAOSOCIAL": "MARIA_DE_LOURDES_DO_AMARAL_BARBOSA_ACADEMIA_FITNESS", "ENDEE": "RUA_CELIA14__PARQUE_DOS_CAMARGOS_06436-420", "LATITUDE": "-23.5327305", "LONGITUDE": "-46.8913419", "LMAPS": "https://www.google.com/maps?q=&layer=c&cbll=-46.8913419,-23.5327305", "O_QUE_FAZER": "CARTEIRA", "ER_REGIAO_CIDADE_min": "Barueri_Jardim Silveira_Osasco" }, "geometry": { "type": "Point", "coordinates": [ -46.8913419, -23.5327305 ] } },
{ "type": "Feature", "properties": { "CNPJ": "25043417000162", "IDCIDADE": "BARUERI", "NOMEFANTASIA": "ARSENAL_SUPLEMENTOS", "RAZAOSOCIAL": "OLIMPO_MEGA_STORE_LTDA", "ENDEE": "ALAMEDA_MARSELHA335__RECANTO_PHRYNEA_06437-040", "LATITUDE": "-23.5414901", "LONGITUDE": "-46.8856175", "LMAPS": "https://www.google.com/maps?q=&layer=c&cbll=-46.8856175,-23.5414901", "O_QUE_FAZER": "CARTEIRA", "ER_REGIAO_CIDADE_min": "Barueri_Jardim Silveira_Osasco" }, "geometry": { "type": "Point", "coordinates": [ -46.8856175, -23.5414901 ] } },
{ "type": "Feature", "properties": { "CNPJ": "47229718000118", "IDCIDADE": "BARUERI", "NOMEFANTASIA": "TUDO_BARATO", "RAZAOSOCIAL": "MERCADO_TUDO_BARATO_LTDA", "ENDEE": "ALAMEDA_MARSELHA345__RECANTO_PHRYNEA_06437-040", "LATITUDE": "-23.541458", "LONGITUDE": "-46.8855196", "LMAPS": "https://www.google.com/maps?q=&layer=c&cbll=-46.8855196,-23.541458", "O_QUE_FAZER": "CARTEIRA", "ER_REGIAO_CIDADE_min": "Barueri_Jardim Silveira_Osasco" }, "geometry": { "type": "Point", "coordinates": [ -46.8855196, -23.541458 ] } },
{ "type": "Feature", "properties": { "CNPJ": "09515308000144", "IDCIDADE": "BARUERI", "NOMEFANTASIA": "MG_MATERIAIS", "RAZAOSOCIAL": "PAULO_DOS_SANTOS_DE_MORAES", "ENDEE": "RUA_SENA898__PARQUE_DAS_NACOES_06437-240", "LATITUDE": "-23.5438367", "LONGITUDE": "-46.8849414", "LMAPS": "https://www.google.com/maps?q=&layer=c&cbll=-46.8849414,-23.5438367", "O_QUE_FAZER": "CARTEIRA", "ER_REGIAO_CIDADE_min": "Barueri_Jardim Silveira_Osasco" }, "geometry": { "type": "Point", "coordinates": [ -46.8849414, -23.5438367 ] } },
{ "type": "Feature", "properties": { "CNPJ": "09651926000111", "IDCIDADE": "BARUERI", "NOMEFANTASIA": "ASTRAL", "RAZAOSOCIAL": "EZEQUIAS_ALVES_DA_CONCEICAO_VIDRACARIA", "ENDEE": "ESTRADA_VELHA_DE_ITAPEVI3188__JARDIM_PAULISTA_06444-000", "LATITUDE": "-23.5380701", "LONGITUDE": "-46.8809651", "LMAPS": "https://www.google.com/maps?q=&layer=c&cbll=-46.8809651,-23.5380701", "O_QUE_FAZER": "CARTEIRA", "ER_REGIAO_CIDADE_min": "Barueri_Jardim Silveira_Osasco" }, "geometry": { "type": "Point", "coordinates": [ -46.8809651, -23.5380701 ] } },
{ "type": "Feature", "properties": { "CNPJ": "28378892000188", "IDCIDADE": "BARUERI", "NOMEFANTASIA": "VISAO_VISTORIA", "RAZAOSOCIAL": "VISAO_NSA_VISTORIA_VEICULAR_LTDA", "ENDEE": "ESTRADA_VELHA_DE_ITAPEVI3216__JARDIM_PAULISTA_06444-000", "LATITUDE": "-23.5382313", "LONGITUDE": "-46.8811789", "LMAPS": "https://www.google.com/maps?q=&layer=c&cbll=-46.8811789,-23.5382313", "O_QUE_FAZER": "CARTEIRA", "ER_REGIAO_CIDADE_min": "Barueri_Jardim Silveira_Osasco" }, "geometry": { "type": "Point", "coordinates": [ -46.8811789, -23.5382313 ] } },
{ "type": "Feature", "properties": { "CNPJ": "09006001000118", "IDCIDADE": "BARUERI", "NOMEFANTASIA": "SATISFACTION_PECAS", "RAZAOSOCIAL": "SATISFACTION_AUTO_PECAS_LTDA", "ENDEE": "ESTRADA_VELHA_DE_ITAPEVI3338__JARDIM_PAULISTA_06444-000", "LATITUDE": "-23.5392921", "LONGITUDE": "-46.8815375", "LMAPS": "https://www.google.com/maps?q=&layer=c&cbll=-46.8815375,-23.5392921", "O_QUE_FAZER": "CARTEIRA", "ER_REGIAO_CIDADE_min": "Barueri_Jardim Silveira_Osasco" }, "geometry": { "type": "Point", "coordinates": [ -46.8815375, -23.5392921 ] } },
{ "type": "Feature", "properties": { "CNPJ": "03045871000110", "IDCIDADE": "BARUERI", "NOMEFANTASIA": "JSS_CAR", "RAZAOSOCIAL": "JSS_CAR_PECAS_E_ACESSORIOS_LTDA", "ENDEE": "ESTRADA_VELHA_DE_ITAPEVI3698__JARDIM_PAULISTA_06444-000", "LATITUDE": "-23.5411924", "LONGITUDE": "-46.8842248", "LMAPS": "https://www.google.com/maps?q=&layer=c&cbll=-46.8842248,-23.5411924", "O_QUE_FAZER": "CARTEIRA", "ER_REGIAO_CIDADE_min": "Barueri_Jardim Silveira_Osasco" }, "geometry": { "type": "Point", "coordinates": [ -46.8842248, -23.5411924 ] } },
{ "type": "Feature", "properties": { "CNPJ": "25280300000100", "IDCIDADE": "BARUERI", "NOMEFANTASIA": "MD_UMP", "RAZAOSOCIAL": "LEANDRO_THEODORO_DE_SOUSA", "ENDEE": "ESTRADA_VELHA_DE_ITAPEVI3740__JARDIM_PAULISTA_06444-000", "LATITUDE": "-23.5413447", "LONGITUDE": "-46.8845281", "LMAPS": "https://www.google.com/maps?q=&layer=c&cbll=-46.8845281,-23.5413447", "O_QUE_FAZER": "CARTEIRA", "ER_REGIAO_CIDADE_min": "Barueri_Jardim Silveira_Osasco" }, "geometry": { "type": "Point", "coordinates": [ -46.8845281, -23.5413447 ] } },
{ "type": "Feature", "properties": { "CNPJ": "17684202000100", "IDCIDADE": "BARUERI", "NOMEFANTASIA": "ESDRAS", "RAZAOSOCIAL": "ESDRAS_P._DA_SILVA_LUBRIFICANTES", "ENDEE": "ESTRADA_VELHA_DE_ITAPEVI3742__JARDIM_PAULISTA_06444-000", "LATITUDE": "-23.5413762", "LONGITUDE": "-46.8846957", "LMAPS": "https://www.google.com/maps?q=&layer=c&cbll=-46.8846957,-23.5413762", "O_QUE_FAZER": "CARTEIRA", "ER_REGIAO_CIDADE_min": "Barueri_Jardim Silveira_Osasco" }, "geometry": { "type": "Point", "coordinates": [ -46.8846957, -23.5413762 ] } },
{ "type": "Feature", "properties": { "CNPJ": "06204935000176", "IDCIDADE": "BARUERI", "NOMEFANTASIA": "TINTAS_NIKEL", "RAZAOSOCIAL": "BELOCAR_COMERCIAL_LTDA", "ENDEE": "ESTRADA_VELHA_DE_ITAPEVI3766__JARDIM_PAULISTA_06444-000", "LATITUDE": "-23.5415756", "LONGITUDE": "-46.8847218", "LMAPS": "https://www.google.com/maps?q=&layer=c&cbll=-46.8847218,-23.5415756", "O_QUE_FAZER": "CARTEIRA", "ER_REGIAO_CIDADE_min": "Barueri_Jardim Silveira_Osasco" }, "geometry": { "type": "Point", "coordinates": [ -46.8847218, -23.5415756 ] } },
{ "type": "Feature", "properties": { "CNPJ": "14203290000266", "IDCIDADE": "BARUERI", "NOMEFANTASIA": "LUBRI_FLEX", "RAZAOSOCIAL": "LUBRIFLEX_PECAS_LUBRIFICANTES_E_SERVICOS_AUTOMOTIVOS_LTDA", "ENDEE": "ESTRADA_VELHA_DE_ITAPEVI4026__JARDIM_PAULISTA_06444-000", "LATITUDE": "-23.5436141", "LONGITUDE": "-46.8846871", "LMAPS": "https://www.google.com/maps?q=&layer=c&cbll=-46.8846871,-23.5436141", "O_QUE_FAZER": "CARTEIRA", "ER_REGIAO_CIDADE_min": "Barueri_Jardim Silveira_Osasco" }, "geometry": { "type": "Point", "coordinates": [ -46.8846871, -23.5436141 ] } },
{ "type": "Feature", "properties": { "CNPJ": "05923464000193", "IDCIDADE": "BARUERI", "NOMEFANTASIA": "CASA_JOAO_DE_BARROS", "RAZAOSOCIAL": "NOVA_CASA_JOAO-DE-BARRO_MATERIAIS_PARA_CONSTRUCAO_LTDA", "ENDEE": "ESTRADA_VELHA_DE_ITAPEVI4046__JARDIM_PAULISTA_06444-000", "LATITUDE": "-23.5439668", "LONGITUDE": "-46.8845441", "LMAPS": "https://www.google.com/maps?q=&layer=c&cbll=-46.8845441,-23.5439668", "O_QUE_FAZER": "CARTEIRA", "ER_REGIAO_CIDADE_min": "Barueri_Jardim Silveira_Osasco" }, "geometry": { "type": "Point", "coordinates": [ -46.8845441, -23.5439668 ] } },
{ "type": "Feature", "properties": { "CNPJ": "08009775000130", "IDCIDADE": "BARUERI", "NOMEFANTASIA": "JZ", "RAZAOSOCIAL": "COMERCIAL_LIAN_MATERIAIS_PARA_CONSTRUCAO_LTDA", "ENDEE": "ESTRADA_VELHA_DE_ITAPEVI4156__JARDIM_PAULISTA_06444-000", "LATITUDE": "-23.5448759", "LONGITUDE": "-46.8846283", "LMAPS": "https://www.google.com/maps?q=&layer=c&cbll=-46.8846283,-23.5448759", "O_QUE_FAZER": "CARTEIRA", "ER_REGIAO_CIDADE_min": "Barueri_Jardim Silveira_Osasco" }, "geometry": { "type": "Point", "coordinates": [ -46.8846283, -23.5448759 ] } },
{ "type": "Feature", "properties": { "CNPJ": "07803977000196", "IDCIDADE": "BARUERI", "NOMEFANTASIA": "CURUMIM", "RAZAOSOCIAL": "ELFESTAS_E_EMBALAGENS_LTDA", "ENDEE": "ESTRADA_VELHA_DE_ITAPEVI4166__JARDIM_PAULISTA_06444-000", "LATITUDE": "-23.5450187", "LONGITUDE": "-46.8844797", "LMAPS": "https://www.google.com/maps?q=&layer=c&cbll=-46.8844797,-23.5450187", "O_QUE_FAZER": "CARTEIRA", "ER_REGIAO_CIDADE_min": "Barueri_Jardim Silveira_Osasco" }, "geometry": { "type": "Point", "coordinates": [ -46.8844797, -23.5450187 ] } },
{ "type": "Feature", "properties": { "CNPJ": "37564953000192", "IDCIDADE": "BARUERI", "NOMEFANTASIA": "SUPER_PETZ", "RAZAOSOCIAL": "ELAINE_CRISTINA_ALVES_DA_SILVA", "ENDEE": "ESTRADA_VELHA_DE_ITAPEVI4386__JARDIM_PAULISTA_06444-000", "LATITUDE": "-23.5469643", "LONGITUDE": "-46.8846195", "LMAPS": "https://www.google.com/maps?q=&layer=c&cbll=-46.8846195,-23.5469643", "O_QUE_FAZER": "CARTEIRA", "ER_REGIAO_CIDADE_min": "Barueri_Jardim Silveira_Osasco" }, "geometry": { "type": "Point", "coordinates": [ -46.8846195, -23.5469643 ] } },
{ "type": "Feature", "properties": { "CNPJ": "04997525000102", "IDCIDADE": "BARUERI", "NOMEFANTASIA": "BARUERI_DOMESTICO", "RAZAOSOCIAL": "BARUERI_SERVICE_ELETRODOMESTICOS_LTDA", "ENDEE": "ESTRADA_VELHA_DE_ITAPEVI4398__JARDIM_PAULISTA_06444-000", "LATITUDE": "-23.5471128", "LONGITUDE": "-46.8848984", "LMAPS": "https://www.google.com/maps?q=&layer=c&cbll=-46.8848984,-23.5471128", "O_QUE_FAZER": "CARTEIRA", "ER_REGIAO_CIDADE_min": "Barueri_Jardim Silveira_Osasco" }, "geometry": { "type": "Point", "coordinates": [ -46.8848984, -23.5471128 ] } },
{ "type": "Feature", "properties": { "CNPJ": "41760424000131", "IDCIDADE": "BARUERI", "NOMEFANTASIA": "BARUERI_PNEUS", "RAZAOSOCIAL": "BARUERI_PNEUS_LTDA", "ENDEE": "ESTRADA_VELHA_DE_ITAPEVI4436__JARDIM_PAULISTA_06444-000", "LATITUDE": "-23.5472512", "LONGITUDE": "-46.8851005", "LMAPS": "https://www.google.com/maps?q=&layer=c&cbll=-46.8851005,-23.5472512", "O_QUE_FAZER": "CARTEIRA", "ER_REGIAO_CIDADE_min": "Barueri_Jardim Silveira_Osasco" }, "geometry": { "type": "Point", "coordinates": [ -46.8851005, -23.5472512 ] } },
{ "type": "Feature", "properties": { "CNPJ": "49993954000131", "IDCIDADE": "BARUERI", "NOMEFANTASIA": "REMAP", "RAZAOSOCIAL": "REMAP_RETIFICA_DE_MOTORES_LTDA", "ENDEE": "ESTRADA_VELHA_DE_ITAPEVI4500__JARDIM_PAULISTA_06444-000", "LATITUDE": "-23.5475037", "LONGITUDE": "-46.8854936", "LMAPS": "https://www.google.com/maps?q=&layer=c&cbll=-46.8854936,-23.5475037", "O_QUE_FAZER": "CARTEIRA", "ER_REGIAO_CIDADE_min": "Barueri_Jardim Silveira_Osasco" }, "geometry": { "type": "Point", "coordinates": [ -46.8854936, -23.5475037 ] } },
{ "type": "Feature", "properties": { "CNPJ": "06265849000173", "IDCIDADE": "BARUERI", "NOMEFANTASIA": "JJ_AREA_E_PEDRA", "RAZAOSOCIAL": "JOSIMAR_MARCOS_DOS_SANTOS", "ENDEE": "ESTRADA_VELHA_DE_ITAPEVI4620__JARDIM_PAULISTA_06444-000", "LATITUDE": "-23.5479492", "LONGITUDE": "-46.8867009", "LMAPS": "https://www.google.com/maps?q=&layer=c&cbll=-46.8867009,-23.5479492", "O_QUE_FAZER": "CARTEIRA", "ER_REGIAO_CIDADE_min": "Barueri_Jardim Silveira_Osasco" }, "geometry": { "type": "Point", "coordinates": [ -46.8867009, -23.5479492 ] } },
{ "type": "Feature", "properties": { "CNPJ": "17996639000171", "IDCIDADE": "BARUERI", "NOMEFANTASIA": "CASA_LYZ", "RAZAOSOCIAL": "CASA_LYZ_COMERCIO_DE_MATERIAIS_DE_CONSTRUCAO_LTDA", "ENDEE": "ESTRADA_VELHA_DE_ITAPEVI4658__JARDIM_PAULISTA_06444-000", "LATITUDE": "-23.5481608", "LONGITUDE": "-46.8869497", "LMAPS": "https://www.google.com/maps?q=&layer=c&cbll=-46.8869497,-23.5481608", "O_QUE_FAZER": "CARTEIRA", "ER_REGIAO_CIDADE_min": "Barueri_Jardim Silveira_Osasco" }, "geometry": { "type": "Point", "coordinates": [ -46.8869497, -23.5481608 ] } },
{ "type": "Feature", "properties": { "CNPJ": "10732787000130", "IDCIDADE": "BARUERI", "NOMEFANTASIA": "GOLD_AUTO_PECAS", "RAZAOSOCIAL": "IZAQUE_DE_SOUSA_FARIAS_AUTO_PECAS", "ENDEE": "ESTRADA_VELHA_DE_ITAPEVI4706__JARDIM_PAULISTA_06444-000", "LATITUDE": "-23.5483565", "LONGITUDE": "-46.8873721", "LMAPS": "https://www.google.com/maps?q=&layer=c&cbll=-46.8873721,-23.5483565", "O_QUE_FAZER": "CARTEIRA", "ER_REGIAO_CIDADE_min": "Barueri_Jardim Silveira_Osasco" }, "geometry": { "type": "Point", "coordinates": [ -46.8873721, -23.5483565 ] } },
{ "type": "Feature", "properties": { "CNPJ": "24705608000180", "IDCIDADE": "BARUERI", "NOMEFANTASIA": "BM_OUTLET", "RAZAOSOCIAL": "BM_PORCELANATOS_LTDA", "ENDEE": "ESTRADA_VELHA_DE_ITAPEVI4872__JARDIM_PAULISTA_06444-000", "LATITUDE": "-23.5495455", "LONGITUDE": "-46.8881802", "LMAPS": "https://www.google.com/maps?q=&layer=c&cbll=-46.8881802,-23.5495455", "O_QUE_FAZER": "CARTEIRA", "ER_REGIAO_CIDADE_min": "Barueri_Jardim Silveira_Osasco" }, "geometry": { "type": "Point", "coordinates": [ -46.8881802, -23.5495455 ] } },
{ "type": "Feature", "properties": { "CNPJ": "28306465000194", "IDCIDADE": "BARUERI", "NOMEFANTASIA": "MANIA_DE_OBRA", "RAZAOSOCIAL": "ALTINO_MOREIRA_DOS_SANTOS_NETO_GESSO", "ENDEE": "ESTRADA_VELHA_DE_ITAPEVI4880__JARDIM_PAULISTA_06444-000", "LATITUDE": "-23.5496929", "LONGITUDE": "-46.8881027", "LMAPS": "https://www.google.com/maps?q=&layer=c&cbll=-46.8881027,-23.5496929", "O_QUE_FAZER": "CARTEIRA", "ER_REGIAO_CIDADE_min": "Barueri_Jardim Silveira_Osasco" }, "geometry": { "type": "Point", "coordinates": [ -46.8881027, -23.5496929 ] } },
{ "type": "Feature", "properties": { "CNPJ": "15398534000195", "IDCIDADE": "BARUERI", "NOMEFANTASIA": "ECO_PET", "RAZAOSOCIAL": "JANDIRA_PET_SHOP_LTDA", "ENDEE": "ESTRADA_VELHA_DE_ITAPEVI4950__JARDIM_PAULISTA_06444-000", "LATITUDE": "-23.5478435", "LONGITUDE": "-46.8864242", "LMAPS": "https://www.google.com/maps?q=&layer=c&cbll=-46.8864242,-23.5478435", "O_QUE_FAZER": "CARTEIRA", "ER_REGIAO_CIDADE_min": "Barueri_Jardim Silveira_Osasco" }, "geometry": { "type": "Point", "coordinates": [ -46.8864242, -23.5478435 ] } },
{ "type": "Feature", "properties": { "CNPJ": "12383689000160", "IDCIDADE": "BARUERI", "NOMEFANTASIA": "PARAFUSOS_E_CIA", "RAZAOSOCIAL": "CG_PEREIRA_PARAFUSOS", "ENDEE": "AVENIDA_BATATAIS663__JARDIM_PAULISTA_06447-090", "LATITUDE": "-23.5407713", "LONGITUDE": "-46.8835103", "LMAPS": "https://www.google.com/maps?q=&layer=c&cbll=-46.8835103,-23.5407713", "O_QUE_FAZER": "CARTEIRA", "ER_REGIAO_CIDADE_min": "Barueri_Jardim Silveira_Osasco" }, "geometry": { "type": "Point", "coordinates": [ -46.8835103, -23.5407713 ] } },
{ "type": "Feature", "properties": { "CNPJ": "37524195000189", "IDCIDADE": "BARUERI", "NOMEFANTASIA": "LOJA_LASCASTER", "RAZAOSOCIAL": "OTICA_ELROI_LTDA", "ENDEE": "PRACA_DAS_ROSAS12__PARQUE_DOS_CAMARGOS_06453-029", "LATITUDE": "-23.5391579", "LONGITUDE": "-46.8871008", "LMAPS": "https://www.google.com/maps?q=&layer=c&cbll=-46.8871008,-23.5391579", "O_QUE_FAZER": "CARTEIRA", "ER_REGIAO_CIDADE_min": "Barueri_Jardim Silveira_Osasco" }, "geometry": { "type": "Point", "coordinates": [ -46.8871008, -23.5391579 ] } },
{ "type": "Feature", "properties": { "CNPJ": "33817469000177", "IDCIDADE": "BARUERI", "NOMEFANTASIA": "ADEGA_DO_URCO", "RAZAOSOCIAL": "LOC_COMERCIO_DE_BEBIDAS_LTDA", "ENDEE": "RUA_BELGRADO458__VALE_DO_SOL_06475-050", "LATITUDE": "-23.5451221", "LONGITUDE": "-46.8860636", "LMAPS": "https://www.google.com/maps?q=&layer=c&cbll=-46.8860636,-23.5451221", "O_QUE_FAZER": "CARTEIRA", "ER_REGIAO_CIDADE_min": "Barueri_Jardim Silveira_Osasco" }, "geometry": { "type": "Point", "coordinates": [ -46.8860636, -23.5451221 ] } },
{ "type": "Feature", "properties": { "CNPJ": "42814349000107", "IDCIDADE": "BARUERI", "NOMEFANTASIA": "PADARIA_HENRIQUE", "RAZAOSOCIAL": "PADARIA_&_HENRIQUE_LTDA", "ENDEE": "RUA_BELGRADO480__VALE_DO_SOL_06475-050", "LATITUDE": "-23.5452342", "LONGITUDE": "-46.8857545", "LMAPS": "https://www.google.com/maps?q=&layer=c&cbll=-46.8857545,-23.5452342", "O_QUE_FAZER": "CARTEIRA", "ER_REGIAO_CIDADE_min": "Barueri_Jardim Silveira_Osasco" }, "geometry": { "type": "Point", "coordinates": [ -46.8857545, -23.5452342 ] } },
{ "type": "Feature", "properties": { "CNPJ": "42974298000180", "IDCIDADE": "BARUERI", "NOMEFANTASIA": "GUTE_HORTIFRUTI", "RAZAOSOCIAL": "HORTIFRUTI_GUTE_LTDA", "ENDEE": "RUA_BELGRADO507__VALE_DO_SOL_06475-050", "LATITUDE": "-23.5452151", "LONGITUDE": "-46.8856088", "LMAPS": "https://www.google.com/maps?q=&layer=c&cbll=-46.8856088,-23.5452151", "O_QUE_FAZER": "CARTEIRA", "ER_REGIAO_CIDADE_min": "Barueri_Jardim Silveira_Osasco" }, "geometry": { "type": "Point", "coordinates": [ -46.8856088, -23.5452151 ] } }
]
}
