{
"type": "FeatureCollection",
"name": "ER_REGIAO_CIDADE_min_Santana de Parnaíba_Osasco",
"crs": { "type": "name", "properties": { "name": "urn:ogc:def:crs:OGC:1.3:CRS84" } },
"xy_coordinate_resolution": 1e-15,
"features": [
{ "type": "Feature", "properties": { "CNPJ": "54200447000133", "IDCIDADE": "SANTANA_DE_PARNAIBA", "NOMEFANTASIA": "-", "RAZAOSOCIAL": "54.200.447 ANTONIO DE PADUA DA SILVA CAMPOS", "ENDEE": "ALAMEDA_DAS CAVIUNAS_311_MORADA DOS PINHEIROS_06519-370_SANTANA_DE_PARNAIBA", "LATITUDE": "-23.492567", "LONGITUDE": "-46.966688", "LMAPS": "https://www.google.com/maps?q=&layer=c&cbll=-23.492567,-46.966688", "O_QUE_FAZER": "FINALIZADO", "ER_REGIAO_CIDADE_min": "Santana de Parnaíba_Osasco" }, "geometry": { "type": "Point", "coordinates": [ -46.966688, -23.492567 ] } },
{ "type": "Feature", "properties": { "CNPJ": "24443523000170", "IDCIDADE": "SANTANA_DE_PARNAIBA", "NOMEFANTASIA": "-", "RAZAOSOCIAL": "KLEBER GUIDELLI OLIVEIRA 33414737850", "ENDEE": "RUA_CONSTANTINOPLA_300_JARDIM ISAURA_06516-090_SANTANA_DE_PARNAIBA", "LATITUDE": "-23.4824674", "LONGITUDE": "-46.8964524", "LMAPS": "https://www.google.com/maps?q=&layer=c&cbll=-23.4824674,-46.8964524", "O_QUE_FAZER": "FINALIZADO", "ER_REGIAO_CIDADE_min": "Santana de Parnaíba_Osasco" }, "geometry": { "type": "Point", "coordinates": [ -46.8964524, -23.4824674 ] } },
{ "type": "Feature", "properties": { "CNPJ": "39280597000100", "IDCIDADE": "SANTANA_DE_PARNAIBA", "NOMEFANTASIA": "-", "RAZAOSOCIAL": "ROGERIO DA SILVA MARTINS 34525311800", "ENDEE": "RUA_DA SAFIRA_140_REFUGIO DOS BANDEIRANTES_06506-040_SANTANA_DE_PARNAIBA", "LATITUDE": "-23.4192982", "LONGITUDE": "-46.959148", "LMAPS": "https://www.google.com/maps?q=&layer=c&cbll=-23.4192982,-46.959148", "O_QUE_FAZER": "FINALIZADO", "ER_REGIAO_CIDADE_min": "Santana de Parnaíba_Osasco" }, "geometry": { "type": "Point", "coordinates": [ -46.959148, -23.4192982 ] } },
{ "type": "Feature", "properties": { "CNPJ": "19839961000112", "IDCIDADE": "SANTANA_DE_PARNAIBA", "NOMEFANTASIA": "-", "RAZAOSOCIAL": "EVOLUTION SMART ASSISTENCIA TECNICA E COMERCIO LTDA", "ENDEE": "RUA_PADRE JOÃO GONÇALVES DE LIMA_10_JARDIM PARA_06530-465_SANTANA_DE_PARNAIBA", "LATITUDE": "-23.4130962", "LONGITUDE": "-46.881873", "LMAPS": "https://www.google.com/maps?q=&layer=c&cbll=-23.4130962,-46.881873", "O_QUE_FAZER": "FINALIZADO", "ER_REGIAO_CIDADE_min": "Santana de Parnaíba_Osasco" }, "geometry": { "type": "Point", "coordinates": [ -46.881873, -23.4130962 ] } },
{ "type": "Feature", "properties": { "CNPJ": "59613814000144", "IDCIDADE": "SANTANA_DE_PARNAIBA", "NOMEFANTASIA": "-", "RAZAOSOCIAL": "59.613.814 PAULO HENRIQUE TAKAOKA", "ENDEE": "RUA_GASPAR BARRETO_65_RECANTO DO MANE_06528-353_SANTANA_DE_PARNAIBA", "LATITUDE": "-23.4013969", "LONGITUDE": "-46.8993125", "LMAPS": "https://www.google.com/maps?q=&layer=c&cbll=-23.4013969,-46.8993125", "O_QUE_FAZER": "FINALIZADO", "ER_REGIAO_CIDADE_min": "Santana de Parnaíba_Osasco" }, "geometry": { "type": "Point", "coordinates": [ -46.8993125, -23.4013969 ] } },
{ "type": "Feature", "properties": { "CNPJ": "23271852000119", "IDCIDADE": "SANTANA_DE_PARNAIBA", "NOMEFANTASIA": "WAGNER_CLAUDIO_CAMINHA_EMPORIO", "RAZAOSOCIAL": "EMPORIO_FAMILIA_CAMINHA", "ENDEE": "RUA_ALVARO_LUIS_DO_VALE80__CENTRO_06501-035", "LATITUDE": "-23.4458626", "LONGITUDE": "-46.9150111", "LMAPS": "https://www.google.com/maps?q=&layer=c&cbll=-46.9150111,-23.4458626", "O_QUE_FAZER": "FINALIZADO", "ER_REGIAO_CIDADE_min": "Santana de Parnaíba_Osasco" }, "geometry": { "type": "Point", "coordinates": [ -46.9150111, -23.4458626 ] } },
{ "type": "Feature", "properties": { "CNPJ": "05513894000137", "IDCIDADE": "SANTANA_DE_PARNAIBA", "NOMEFANTASIA": "H.P._MANETTI_LTDA", "RAZAOSOCIAL": "HAMBURGUERIA_DO_PORTUGA", "ENDEE": "RUA_ALVARO_LUIS_DO_VALE80__CENTRO_HISTORICO_06501-035", "LATITUDE": "-23.4458626", "LONGITUDE": "-46.9150111", "LMAPS": "https://www.google.com/maps?q=&layer=c&cbll=-46.9150111,-23.4458626", "O_QUE_FAZER": "FINALIZADO", "ER_REGIAO_CIDADE_min": "Santana de Parnaíba_Osasco" }, "geometry": { "type": "Point", "coordinates": [ -46.9150111, -23.4458626 ] } },
{ "type": "Feature", "properties": { "CNPJ": "45730394000171", "IDCIDADE": "SANTANA_DE_PARNAIBA", "NOMEFANTASIA": "45.730.394_ALECIO_GREGORIO_BORGES_ROCHA", "RAZAOSOCIAL": "EMPORIO_REI_DO_QUEIJO_", "ENDEE": "RUA_SANTA_CRUZ_42A__CENTRO_06501-095", "LATITUDE": "-23.4457584", "LONGITUDE": "-46.9167266", "LMAPS": "https://www.google.com/maps?q=&layer=c&cbll=-46.9167266,-23.4457584", "O_QUE_FAZER": "FINALIZADO", "ER_REGIAO_CIDADE_min": "Santana de Parnaíba_Osasco" }, "geometry": { "type": "Point", "coordinates": [ -46.9167266, -23.4457584 ] } },
{ "type": "Feature", "properties": { "CNPJ": "58036804000120", "IDCIDADE": "SANTANA_DE_PARNAIBA", "NOMEFANTASIA": "58.036.804_GISELE_DE_LIMA_ARAUJO", "RAZAOSOCIAL": "58.036.804_GISELE_DE_LIMA_ARAUJO", "ENDEE": "RUA_PROFESSOR_EDGAR_DE_MORAES129__JARDIM_PROFESSOR_BENOA_06502-010", "LATITUDE": "-23.4443112", "LONGITUDE": "-46.9203013", "LMAPS": "https://www.google.com/maps?q=&layer=c&cbll=-46.9203013,-23.4443112", "O_QUE_FAZER": "FINALIZADO", "ER_REGIAO_CIDADE_min": "Santana de Parnaíba_Osasco" }, "geometry": { "type": "Point", "coordinates": [ -46.9203013, -23.4443112 ] } },
{ "type": "Feature", "properties": { "CNPJ": "27802926000157", "IDCIDADE": "SANTANA_DE_PARNAIBA", "NOMEFANTASIA": "HUNT_FILMES", "RAZAOSOCIAL": "0", "ENDEE": "ESTRADA_ECOTURISTICA_DO_SURU1022__JARDIM_PROFESSOR_BENOA_06502-065", "LATITUDE": "-23.4503699", "LONGITUDE": "-46.9270624", "LMAPS": "https://www.google.com/maps?q=&layer=c&cbll=-46.9270624,-23.4503699", "O_QUE_FAZER": "FINALIZADO", "ER_REGIAO_CIDADE_min": "Santana de Parnaíba_Osasco" }, "geometry": { "type": "Point", "coordinates": [ -46.9270624, -23.4503699 ] } },
{ "type": "Feature", "properties": { "CNPJ": "38404434000120", "IDCIDADE": "SANTANA_DE_PARNAIBA", "NOMEFANTASIA": "EMYLAINE_DE_CASTILHO_LUNA_44424460835", "RAZAOSOCIAL": "EMYLAINE_DE_CASTILHO_LUNA", "ENDEE": "RUA_DONA_JOANA_FRANCO_DE_OLIVEIRA1120__SITIO_DO_ROSARIO_06514-108", "LATITUDE": "-23.4694964", "LONGITUDE": "-46.9079551", "LMAPS": "https://www.google.com/maps?q=&layer=c&cbll=-46.9079551,-23.4694964", "O_QUE_FAZER": "FINALIZADO", "ER_REGIAO_CIDADE_min": "Santana de Parnaíba_Osasco" }, "geometry": { "type": "Point", "coordinates": [ -46.9079551, -23.4694964 ] } },
{ "type": "Feature", "properties": { "CNPJ": "59529748000129", "IDCIDADE": "SANTANA_DE_PARNAIBA", "NOMEFANTASIA": "59.529.748_JORGE_ANTONIO_ARRAIS_MENEZES", "RAZAOSOCIAL": "S&J_CASA_DOS_SALGADOS", "ENDEE": "RUA_DAS_BANANEIRAS1448__PARQUE_SANTANA_06515-005", "LATITUDE": "-23.4776354", "LONGITUDE": "-46.8986406", "LMAPS": "https://www.google.com/maps?q=&layer=c&cbll=-46.8986406,-23.4776354", "O_QUE_FAZER": "FINALIZADO", "ER_REGIAO_CIDADE_min": "Santana de Parnaíba_Osasco" }, "geometry": { "type": "Point", "coordinates": [ -46.8986406, -23.4776354 ] } },
{ "type": "Feature", "properties": { "CNPJ": "36420971000138", "IDCIDADE": "SANTANA_DE_PARNAIBA", "NOMEFANTASIA": "NOVVO_BEM_ESTAR_COMERCIO_DE_PRODUTOS_NATURAIS_LTDA", "RAZAOSOCIAL": "NOVVO_BEM_ESTAR", "ENDEE": "ESTRADA_TENENTE_MARQUES1980__CHACARAS_SANTA_CRUZ_06525-001", "LATITUDE": "-23.4339264", "LONGITUDE": "-46.9068142", "LMAPS": "https://www.google.com/maps?q=&layer=c&cbll=-46.9068142,-23.4339264", "O_QUE_FAZER": "FINALIZADO", "ER_REGIAO_CIDADE_min": "Santana de Parnaíba_Osasco" }, "geometry": { "type": "Point", "coordinates": [ -46.9068142, -23.4339264 ] } },
{ "type": "Feature", "properties": { "CNPJ": "50437412000161", "IDCIDADE": "SANTANA_DE_PARNAIBA", "NOMEFANTASIA": "50.437.412_DANILO_DOS_SANTOS_MOREIRA", "RAZAOSOCIAL": "GRUPO_DM", "ENDEE": "RUA_MARIA_MACHADO211__JARDIM_BELA_VISTA_06528-211", "LATITUDE": "-23.4102089", "LONGITUDE": "-46.903306", "LMAPS": "https://www.google.com/maps?q=&layer=c&cbll=-46.903306,-23.4102089", "O_QUE_FAZER": "FINALIZADO", "ER_REGIAO_CIDADE_min": "Santana de Parnaíba_Osasco" }, "geometry": { "type": "Point", "coordinates": [ -46.903306, -23.4102089 ] } },
{ "type": "Feature", "properties": { "CNPJ": "20076423000100", "IDCIDADE": "SANTANA_DE_PARNAIBA", "NOMEFANTASIA": "IZES_-_COMERCIO_DE_ZIPERES_E_EMBALAGENS_LTDA", "RAZAOSOCIAL": "IZES", "ENDEE": "RUA_HIRISHO_OKADA6__FAZENDINHA_06529-350", "LATITUDE": "-23.4025341", "LONGITUDE": "-46.8766143", "LMAPS": "https://www.google.com/maps?q=&layer=c&cbll=-46.8766143,-23.4025341", "O_QUE_FAZER": "FINALIZADO", "ER_REGIAO_CIDADE_min": "Santana de Parnaíba_Osasco" }, "geometry": { "type": "Point", "coordinates": [ -46.8766143, -23.4025341 ] } },
{ "type": "Feature", "properties": { "CNPJ": "53480550000111", "IDCIDADE": "SANTANA_DE_PARNAIBA", "NOMEFANTASIA": "NADJA_ALVES_DOS_SANTOS", "RAZAOSOCIAL": "MAXIMOS_DIESEL", "ENDEE": "RUA_RIO_DE_JANEIRO1132__CHACARA_DO_SOLAR_I_06530-020", "LATITUDE": "-23.4095992", "LONGITUDE": "-46.8782517", "LMAPS": "https://www.google.com/maps?q=&layer=c&cbll=-46.8782517,-23.4095992", "O_QUE_FAZER": "FINALIZADO", "ER_REGIAO_CIDADE_min": "Santana de Parnaíba_Osasco" }, "geometry": { "type": "Point", "coordinates": [ -46.8782517, -23.4095992 ] } },
{ "type": "Feature", "properties": { "CNPJ": "63029731000180", "IDCIDADE": "SANTANA_DE_PARNAIBA", "NOMEFANTASIA": "63.029.731_GABRIEL_BRENDO_SILVA_ROCHA", "RAZAOSOCIAL": "INFINITY_GLOBAL", "ENDEE": "RUA_MATO_GROSSO28__JARDIM_DIVA_(FAZENDINHA)_06530-445", "LATITUDE": "-23.4135396", "LONGITUDE": "-46.882936", "LMAPS": "https://www.google.com/maps?q=&layer=c&cbll=-46.882936,-23.4135396", "O_QUE_FAZER": "FINALIZADO", "ER_REGIAO_CIDADE_min": "Santana de Parnaíba_Osasco" }, "geometry": { "type": "Point", "coordinates": [ -46.882936, -23.4135396 ] } },
{ "type": "Feature", "properties": { "CNPJ": "45109438000140", "IDCIDADE": "SANTANA_DE_PARNAIBA", "NOMEFANTASIA": "ANALICE_SILVA_LIMA_54164699515", "RAZAOSOCIAL": "ATELIE_AGUIA_DA_COSTURA", "ENDEE": "RUA_SOL25__CHACARA_DO_SOLAR_II_(FAZENDINHA)_06531-055", "LATITUDE": "-23.4259405", "LONGITUDE": "-46.8839651", "LMAPS": "https://www.google.com/maps?q=&layer=c&cbll=-46.8839651,-23.4259405", "O_QUE_FAZER": "FINALIZADO", "ER_REGIAO_CIDADE_min": "Santana de Parnaíba_Osasco" }, "geometry": { "type": "Point", "coordinates": [ -46.8839651, -23.4259405 ] } },
{ "type": "Feature", "properties": { "CNPJ": "22674823000135", "IDCIDADE": "SANTANA_DE_PARNAIBA", "NOMEFANTASIA": "ROBSON_MUNIZ_DE_AGUIAR", "RAZAOSOCIAL": "STUDIO_PREMIUM_CABELEREIROS", "ENDEE": "AVENIDA_FORTUNATO_CAMARGO1208__CIDADE_SAO_PEDRO_-_GLEBA_A_06535-020", "LATITUDE": "-23.4321262", "LONGITUDE": "-46.8604768", "LMAPS": "https://www.google.com/maps?q=&layer=c&cbll=-46.8604768,-23.4321262", "O_QUE_FAZER": "FINALIZADO", "ER_REGIAO_CIDADE_min": "Santana de Parnaíba_Osasco" }, "geometry": { "type": "Point", "coordinates": [ -46.8604768, -23.4321262 ] } },
{ "type": "Feature", "properties": { "CNPJ": "48063625000129", "IDCIDADE": "SANTANA_DE_PARNAIBA", "NOMEFANTASIA": "48.063.625_GABRIEL_LIMA_SANTOS", "RAZAOSOCIAL": "MOMENT_BARBEARIA", "ENDEE": "AVENIDA_DAS_CONCHAS391__CIDADE_SAO_PEDRO_-_GLEBA_B_06535-205", "LATITUDE": "-23.4239574", "LONGITUDE": "-46.8512508", "LMAPS": "https://www.google.com/maps?q=&layer=c&cbll=-46.8512508,-23.4239574", "O_QUE_FAZER": "FINALIZADO", "ER_REGIAO_CIDADE_min": "Santana de Parnaíba_Osasco" }, "geometry": { "type": "Point", "coordinates": [ -46.8512508, -23.4239574 ] } },
{ "type": "Feature", "properties": { "CNPJ": "30861003000180", "IDCIDADE": "SANTANA_DE_PARNAIBA", "NOMEFANTASIA": "JOELSON_BERNARDO_DOS_SANTOS_PANIFICADORA", "RAZAOSOCIAL": "NOSSA_PADARIA", "ENDEE": "AVENIDA_DAS_CONCHAS592__CIDADE_SAO_PEDRO_-_GLEBA_B_06535-205", "LATITUDE": "-23.4253269", "LONGITUDE": "-46.8520525", "LMAPS": "https://www.google.com/maps?q=&layer=c&cbll=-46.8520525,-23.4253269", "O_QUE_FAZER": "FINALIZADO", "ER_REGIAO_CIDADE_min": "Santana de Parnaíba_Osasco" }, "geometry": { "type": "Point", "coordinates": [ -46.8520525, -23.4253269 ] } },
{ "type": "Feature", "properties": { "CNPJ": "57078421000152", "IDCIDADE": "SANTANA_DE_PARNAIBA", "NOMEFANTASIA": "57.078.421_ANTONIO_ROBERTO_DA_SILVA_MOREIRA", "RAZAOSOCIAL": "57.078.421_ANTONIO_ROBERTO_DA_SILVA_MOREIRA", "ENDEE": "RUA_DO_PIRARUCU503__CIDADE_SAO_PEDRO_-_GLEBA_B_06535-310", "LATITUDE": "-23.4266644", "LONGITUDE": "-46.8527642", "LMAPS": "https://www.google.com/maps?q=&layer=c&cbll=-46.8527642,-23.4266644", "O_QUE_FAZER": "FINALIZADO", "ER_REGIAO_CIDADE_min": "Santana de Parnaíba_Osasco" }, "geometry": { "type": "Point", "coordinates": [ -46.8527642, -23.4266644 ] } },
{ "type": "Feature", "properties": { "CNPJ": "46521602000195", "IDCIDADE": "SANTANA_DE_PARNAIBA", "NOMEFANTASIA": "ROSANGELA_APARECIDA_ANASTACIO_DOS_SANTOS_21659221862", "RAZAOSOCIAL": "ROSANGELA_APARECIDA_ANASTACIO_DOS_SANTOS", "ENDEE": "RUA_BENTO_CRISPIM_DE_OLIVEIRA355__CIDADE_SAO_PEDRO_-_GLEBA_C_06535-415", "LATITUDE": "-23.4294639", "LONGITUDE": "-46.8572205", "LMAPS": "https://www.google.com/maps?q=&layer=c&cbll=-46.8572205,-23.4294639", "O_QUE_FAZER": "FINALIZADO", "ER_REGIAO_CIDADE_min": "Santana de Parnaíba_Osasco" }, "geometry": { "type": "Point", "coordinates": [ -46.8572205, -23.4294639 ] } },
{ "type": "Feature", "properties": { "CNPJ": "52303499000100", "IDCIDADE": "SANTANA_DE_PARNAIBA", "NOMEFANTASIA": "52.303.499_JANAINA_MARIA_DA_MAIA", "RAZAOSOCIAL": "52.303.499_JANAINA_MARIA_DA_MAIA", "ENDEE": "AVENIDA_ALDO_BONADEI80__COLINAS_DA_ANHANGUERA_06537-025", "LATITUDE": "-23.4230566", "LONGITUDE": "-46.8243094", "LMAPS": "https://www.google.com/maps?q=&layer=c&cbll=-46.8243094,-23.4230566", "O_QUE_FAZER": "FINALIZADO", "ER_REGIAO_CIDADE_min": "Santana de Parnaíba_Osasco" }, "geometry": { "type": "Point", "coordinates": [ -46.8243094, -23.4230566 ] } },
{ "type": "Feature", "properties": { "CNPJ": "25218200000146", "IDCIDADE": "SANTANA_DE_PARNAIBA", "NOMEFANTASIA": "GREENSERVICE_COMERCIO_E_SERVICOS_LTDA", "RAZAOSOCIAL": "GREENSERVICE_COMERCIO_E_SERVICOS_LTDA", "ENDEE": "RUA_DI_CAVALCANTI368__COLINAS_DA_ANHANGUERA_06537-085", "LATITUDE": "-23.4272956", "LONGITUDE": "-46.8265609", "LMAPS": "https://www.google.com/maps?q=&layer=c&cbll=-46.8265609,-23.4272956", "O_QUE_FAZER": "FINALIZADO", "ER_REGIAO_CIDADE_min": "Santana de Parnaíba_Osasco" }, "geometry": { "type": "Point", "coordinates": [ -46.8265609, -23.4272956 ] } },
{ "type": "Feature", "properties": { "CNPJ": "61360273000131", "IDCIDADE": "SANTANA_DE_PARNAIBA", "NOMEFANTASIA": "61.360.273_ANY_CAROLINY_SABINO_MOURA_DOS_SANTOS", "RAZAOSOCIAL": "0", "ENDEE": "RUA_JOAO_BATISTA_CASTAGNETO96__COLINAS_DA_ANHANGUERA_06537-095", "LATITUDE": "-23.4282701", "LONGITUDE": "-46.8261686", "LMAPS": "https://www.google.com/maps?q=&layer=c&cbll=-46.8261686,-23.4282701", "O_QUE_FAZER": "FINALIZADO", "ER_REGIAO_CIDADE_min": "Santana de Parnaíba_Osasco" }, "geometry": { "type": "Point", "coordinates": [ -46.8261686, -23.4282701 ] } },
{ "type": "Feature", "properties": { "CNPJ": "31530152000120", "IDCIDADE": "SANTANA_DE_PARNAIBA", "NOMEFANTASIA": "ANDERSON_APARECIDO_DE_CAMPOS_COMERCIO_DE_VELAS", "RAZAOSOCIAL": "VELAS_PARAISO", "ENDEE": "RUA_ANTONIO_GOMIDE13__COLINAS_DA_ANHANGUERA_06537-135", "LATITUDE": "-23.4325132", "LONGITUDE": "-46.8276564", "LMAPS": "https://www.google.com/maps?q=&layer=c&cbll=-46.8276564,-23.4325132", "O_QUE_FAZER": "FINALIZADO", "ER_REGIAO_CIDADE_min": "Santana de Parnaíba_Osasco" }, "geometry": { "type": "Point", "coordinates": [ -46.8276564, -23.4325132 ] } },
{ "type": "Feature", "properties": { "CNPJ": "37917013000130", "IDCIDADE": "SANTANA_DE_PARNAIBA", "NOMEFANTASIA": "G3_INDUSTRIA_E_COMERCIO_DE_BANHEIRAS_SPAS_E_OFUROS_LTDA", "RAZAOSOCIAL": "PERSONALIZZE_IND_E_COM_DE_BANHEIRAS_SPAS_OFUROS", "ENDEE": "ESTRADA_MUNICIPAL_BELA_VISTA917__ALPHAVILLE_06539-010", "LATITUDE": "-23.4509624", "LONGITUDE": "-46.9008616", "LMAPS": "https://www.google.com/maps?q=&layer=c&cbll=-46.9008616,-23.4509624", "O_QUE_FAZER": "FINALIZADO", "ER_REGIAO_CIDADE_min": "Santana de Parnaíba_Osasco" }, "geometry": { "type": "Point", "coordinates": [ -46.9008616, -23.4509624 ] } },
{ "type": "Feature", "properties": { "CNPJ": "47785004000196", "IDCIDADE": "SANTANA_DE_PARNAIBA", "NOMEFANTASIA": "R_R_C_REFORMAS__REPAROS_E_CONSTRUCOES_LTDA", "RAZAOSOCIAL": "R_R_C_REFORMAS_REPAROS_E_CONSTRUCOES", "ENDEE": "ALAMEDA_TOLEDO90__ALPHAVILLE_06539-055", "LATITUDE": "-23.4595769", "LONGITUDE": "-46.8897177", "LMAPS": "https://www.google.com/maps?q=&layer=c&cbll=-46.8897177,-23.4595769", "O_QUE_FAZER": "FINALIZADO", "ER_REGIAO_CIDADE_min": "Santana de Parnaíba_Osasco" }, "geometry": { "type": "Point", "coordinates": [ -46.8897177, -23.4595769 ] } },
{ "type": "Feature", "properties": { "CNPJ": "57003737000185", "IDCIDADE": "SANTANA_DE_PARNAIBA", "NOMEFANTASIA": "HCG_CONSULTORIA_EM_GESTAO_LTDA", "RAZAOSOCIAL": "HCG_CONSULTORIA_EM_GESTAO_LTDA", "ENDEE": "AVENIDA_MARTE273__ALPHAVILLE_06541-005", "LATITUDE": "-23.4620936", "LONGITUDE": "-46.8734758", "LMAPS": "https://www.google.com/maps?q=&layer=c&cbll=-46.8734758,-23.4620936", "O_QUE_FAZER": "FINALIZADO", "ER_REGIAO_CIDADE_min": "Santana de Parnaíba_Osasco" }, "geometry": { "type": "Point", "coordinates": [ -46.8734758, -23.4620936 ] } },
{ "type": "Feature", "properties": { "CNPJ": "40119390000138", "IDCIDADE": "SANTANA_DE_PARNAIBA", "NOMEFANTASIA": "LARA_FERREIRA_FARIA", "RAZAOSOCIAL": "LARA_FIT_PRODUTOS_NATURAIS", "ENDEE": "AVENIDA_MARTE624__ALPHAVILLE_06541-005", "LATITUDE": "-23.4620253", "LONGITUDE": "-46.8757862", "LMAPS": "https://www.google.com/maps?q=&layer=c&cbll=-46.8757862,-23.4620253", "O_QUE_FAZER": "FINALIZADO", "ER_REGIAO_CIDADE_min": "Santana de Parnaíba_Osasco" }, "geometry": { "type": "Point", "coordinates": [ -46.8757862, -23.4620253 ] } },
{ "type": "Feature", "properties": { "CNPJ": "08509948000189", "IDCIDADE": "SANTANA_DE_PARNAIBA", "NOMEFANTASIA": "GRUPO_EMPRESARIAL_KOMUNIKAR_INC_LTDA", "RAZAOSOCIAL": "GRUPO_KOMUNIKAR", "ENDEE": "AVENIDA_YOJIRO_TAKAOKA4384__ALPHAVILLE_06541-038", "LATITUDE": "-23.4742009", "LONGITUDE": "-46.8674646", "LMAPS": "https://www.google.com/maps?q=&layer=c&cbll=-46.8674646,-23.4742009", "O_QUE_FAZER": "FINALIZADO", "ER_REGIAO_CIDADE_min": "Santana de Parnaíba_Osasco" }, "geometry": { "type": "Point", "coordinates": [ -46.8674646, -23.4742009 ] } },
{ "type": "Feature", "properties": { "CNPJ": "40571404000150", "IDCIDADE": "SANTANA_DE_PARNAIBA", "NOMEFANTASIA": "40.571.404_JUCILEIA_RUFINO_DOS_SANTOS_LUZ", "RAZAOSOCIAL": "SAVANA_VARIEDADES", "ENDEE": "AVENIDA_MARCOS_PENTEADO_DE_ULHOA_RODRIGUES2113__TAMBORE_06543-001", "LATITUDE": "-23.463383", "LONGITUDE": "-46.8554828", "LMAPS": "https://www.google.com/maps?q=&layer=c&cbll=-46.8554828,-23.463383", "O_QUE_FAZER": "FINALIZADO", "ER_REGIAO_CIDADE_min": "Santana de Parnaíba_Osasco" }, "geometry": { "type": "Point", "coordinates": [ -46.8554828, -23.463383 ] } },
{ "type": "Feature", "properties": { "CNPJ": "55079632000184", "IDCIDADE": "SANTANA_DE_PARNAIBA", "NOMEFANTASIA": "55.079.632_RENATO_GONTAN_HENSEL", "RAZAOSOCIAL": "SURTUS", "ENDEE": "AVENIDA_MARCOS_PENTEADO_DE_ULHOA_RODRIGUES2113__TAMBORE_06543-001", "LATITUDE": "-23.463383", "LONGITUDE": "-46.8554828", "LMAPS": "https://www.google.com/maps?q=&layer=c&cbll=-46.8554828,-23.463383", "O_QUE_FAZER": "FINALIZADO", "ER_REGIAO_CIDADE_min": "Santana de Parnaíba_Osasco" }, "geometry": { "type": "Point", "coordinates": [ -46.8554828, -23.463383 ] } },
{ "type": "Feature", "properties": { "CNPJ": "19375298000142", "IDCIDADE": "SANTANA_DE_PARNAIBA", "NOMEFANTASIA": "H.N._SERVICOS_E_REPRESENTACAO_LTDA", "RAZAOSOCIAL": "H.N._SERVICOS_E_REPRESENTACAO_LTDA", "ENDEE": "AVENIDA_MARCOS_PENTEADO_DE_ULHOA_RODRIGUES4000__TAMBORE_06543-001", "LATITUDE": "-23.4728148", "LONGITUDE": "-46.8425413", "LMAPS": "https://www.google.com/maps?q=&layer=c&cbll=-46.8425413,-23.4728148", "O_QUE_FAZER": "FINALIZADO", "ER_REGIAO_CIDADE_min": "Santana de Parnaíba_Osasco" }, "geometry": { "type": "Point", "coordinates": [ -46.8425413, -23.4728148 ] } },
{ "type": "Feature", "properties": { "CNPJ": "05977837000109", "IDCIDADE": "SANTANA_DE_PARNAIBA", "NOMEFANTASIA": "ANW_COMUNICACAO_S/S_LTDA.", "RAZAOSOCIAL": "CONECTA", "ENDEE": "ALAMEDA_GREGORIO_BOGOSSIAN_SOBRINHO80__TAMBORE_06543-385", "LATITUDE": "-23.4729581", "LONGITUDE": "-46.8433547", "LMAPS": "https://www.google.com/maps?q=&layer=c&cbll=-46.8433547,-23.4729581", "O_QUE_FAZER": "FINALIZADO", "ER_REGIAO_CIDADE_min": "Santana de Parnaíba_Osasco" }, "geometry": { "type": "Point", "coordinates": [ -46.8433547, -23.4729581 ] } },
{ "type": "Feature", "properties": { "CNPJ": "51155901000193", "IDCIDADE": "CAJAMAR", "NOMEFANTASIA": "STILO_TINTAS", "RAZAOSOCIAL": "STYLLO_COMERCIO_DE_TINTAS_E_MATERIAIS_DE_ACABAMENTO_E_SERVICOS_LTDA", "ENDEE": "AVENIDA_TENENTE_MARQUES4941__IPES_07790-260", "LATITUDE": "-23.4082841", "LONGITUDE": "-46.8691517", "LMAPS": "https://www.google.com/maps?q=&layer=c&cbll=-46.8691517,-23.4082841", "O_QUE_FAZER": "CARTEIRA", "ER_REGIAO_CIDADE_min": "Santana de Parnaíba_Osasco" }, "geometry": { "type": "Point", "coordinates": [ -46.8691517, -23.4082841 ] } },
{ "type": "Feature", "properties": { "CNPJ": "34803108000800", "IDCIDADE": "CAJAMAR", "NOMEFANTASIA": "CEARA_BATERIAS", "RAZAOSOCIAL": "RBB_COMERCIO_DE_BATERIAS_LTDA", "ENDEE": "AVENIDA_TENENTE_MARQUES7326__IPES_07790-260", "LATITUDE": "-23.4090722", "LONGITUDE": "-46.8696243", "LMAPS": "https://www.google.com/maps?q=&layer=c&cbll=-46.8696243,-23.4090722", "O_QUE_FAZER": "CARTEIRA", "ER_REGIAO_CIDADE_min": "Santana de Parnaíba_Osasco" }, "geometry": { "type": "Point", "coordinates": [ -46.8696243, -23.4090722 ] } },
{ "type": "Feature", "properties": { "CNPJ": "11172524000186", "IDCIDADE": "CAJAMAR", "NOMEFANTASIA": "CONVENIENCIA_YASUI_LTDA", "RAZAOSOCIAL": "CONVENIENCIA_YASUI_LTDA", "ENDEE": "AVENIDA_TENENTE_MARQUES7406__PORTAIS_07790-260", "LATITUDE": "-23.4088593", "LONGITUDE": "-46.8697442", "LMAPS": "https://www.google.com/maps?q=&layer=c&cbll=-46.8697442,-23.4088593", "O_QUE_FAZER": "CARTEIRA", "ER_REGIAO_CIDADE_min": "Santana de Parnaíba_Osasco" }, "geometry": { "type": "Point", "coordinates": [ -46.8697442, -23.4088593 ] } },
{ "type": "Feature", "properties": { "CNPJ": "42759025000113", "IDCIDADE": "SANTANA_DE_PARNAIBA", "NOMEFANTASIA": "-", "RAZAOSOCIAL": "42.759.025 ANDRE LUIZ CAMARGO GIOVANI LOURENCO", "ENDEE": "RUA_DOS COQUEIROS_166_PARQUE SANTANA_06515-020_SANTANA_DE_PARNAIBA", "LATITUDE": "-23.4687748", "LONGITUDE": "-46.8999851", "LMAPS": "https://www.google.com/maps?q=&layer=c&cbll=-23.4687748,-46.8999851", "O_QUE_FAZER": "APLICAR T2", "ER_REGIAO_CIDADE_min": "Santana de Parnaíba_Osasco" }, "geometry": { "type": "Point", "coordinates": [ -46.8999851, -23.4687748 ] } }
]
}
