{
"type": "FeatureCollection",
"name": "ER_REGIAO_CIDADE_min_Magda_Votuporanga",
"crs": { "type": "name", "properties": { "name": "urn:ogc:def:crs:OGC:1.3:CRS84" } },
"xy_coordinate_resolution": 1e-15,
"features": [
{ "type": "Feature", "properties": { "CNPJ": "00147059000107", "IDCIDADE": "MAGDA", "NOMEFANTASIA": "MERCEARIA_FRANGO_MAG", "RAZAOSOCIAL": "MERCEARIA_FRANGO_MAG_LTDA", "ENDEE": "RUA AGENOR S TRINDADE, 360, CENTRO, 15310000, MAGDA, SP, BRASIL", "LATITUDE": "-20.6453483", "LONGITUDE": "-50.2230456", "LMAPS": "https://www.google.com/maps?q=&layer=c&cbll=-20.6453483,-50.2230456", "O_QUE_FAZER": "CARTEIRA - FAMPE", "field_10": null, "field_11": null, "field_12": null, "field_13": null, "ER_REGIAO_CIDADE_min": "Magda_Votuporanga" }, "geometry": { "type": "Point", "coordinates": [ -50.2230456, -20.6453483 ] } }
]
}
