{
"type": "FeatureCollection",
"name": "ER_REGIAO_CIDADE_min_Santa Cruz da Conceição_São Carlos",
"crs": { "type": "name", "properties": { "name": "urn:ogc:def:crs:OGC:1.3:CRS84" } },
"xy_coordinate_resolution": 1e-15,
"features": [
{ "type": "Feature", "properties": { "CNPJ": "43141699000112", "IDCIDADE": "SANTA_CRUZ_DA_CONCEICAO", "NOMEFANTASIA": "PAULO_RICARDO_DE_SOUZA_PATROCINIO_38347988862", "RAZAOSOCIAL": "MC_CENTER_CAR", "ENDEE": "RUA_VEREADOR_GASTAO_BIGHELINI156__CENTRO_13625-035", "LATITUDE": "-22.1351531", "LONGITUDE": "-47.4504091", "LMAPS": "https://www.google.com/maps?q=&layer=c&cbll=-47.4504091,-22.1351531", "O_QUE_FAZER": "FINALIZADO", "field_10": null, "field_11": null, "field_12": null, "field_13": null, "ER_REGIAO_CIDADE_min": "Santa Cruz da Conceição_São Carlos" }, "geometry": { "type": "Point", "coordinates": [ -47.4504091, -22.1351531 ] } },
{ "type": "Feature", "properties": { "CNPJ": "13087698000176", "IDCIDADE": "SANTA_CRUZ_DA_CONCEICAO", "NOMEFANTASIA": "ANA_PAULA_TESSARI_VILLELA_GANEO", "RAZAOSOCIAL": "PADARIA_DA_PAULA", "ENDEE": "RUA_DOUTOR__JORGE_TIBIRICA951__CENTRO_13625-000", "LATITUDE": "-22.1390221", "LONGITUDE": "-47.4521137", "LMAPS": "https://www.google.com/maps?q=&layer=c&cbll=-47.4521137,-22.1390221", "O_QUE_FAZER": "FINALIZADO", "field_10": null, "field_11": null, "field_12": null, "field_13": null, "ER_REGIAO_CIDADE_min": "Santa Cruz da Conceição_São Carlos" }, "geometry": { "type": "Point", "coordinates": [ -47.4521137, -22.1390221 ] } },
{ "type": "Feature", "properties": { "CNPJ": "20281422000190", "IDCIDADE": "SANTA CRUZ DA CONCEIÇÃO", "NOMEFANTASIA": "MAIA - PALLETS, MADEIRAS E TAMBORES", "RAZAOSOCIAL": "MAIA - COMERCIO DE PALETES, MADEIRAS E TAMBORES LTDA.", "ENDEE": "RODOVIA ANHANGUERA (PISTA SUL), S/N, KM 201, PARAISO, 13627-000, SANTA CRUZ DA CONCEIÇÃO, SP, BRASIL", "LATITUDE": "-22.1008978", "LONGITUDE": "-47.4151139", "LMAPS": "https://www.google.com/maps?q=&layer=c&cbll=-22.1008978,-47.4151139", "O_QUE_FAZER": "CARTEIRA - FAMPE", "field_10": null, "field_11": null, "field_12": null, "field_13": null, "ER_REGIAO_CIDADE_min": "Santa Cruz da Conceição_São Carlos" }, "geometry": { "type": "Point", "coordinates": [ -47.4151139, -22.1008978 ] } },
{ "type": "Feature", "properties": { "CNPJ": "50341712000142", "IDCIDADE": "SANTA CRUZ DA CONCEIÇÃO", "NOMEFANTASIA": "PONTO ZERO BEBIDAS", "RAZAOSOCIAL": "PONTO ZERO BEBIDAS LTDA", "ENDEE": "AVENIDA VEREADOR VICTORINO TESSARI, 07, CENTRO, 13625-037, SANTA CRUZ DA CONCEIÇÃO, SP, BRASIL", "LATITUDE": "-22.1361966", "LONGITUDE": "-47.4515869", "LMAPS": "https://www.google.com/maps?q=&layer=c&cbll=-22.1361966,-47.4515869", "O_QUE_FAZER": "CARTEIRA - FAMPE", "field_10": null, "field_11": null, "field_12": null, "field_13": null, "ER_REGIAO_CIDADE_min": "Santa Cruz da Conceição_São Carlos" }, "geometry": { "type": "Point", "coordinates": [ -47.4515869, -22.1361966 ] } },
{ "type": "Feature", "properties": { "CNPJ": "38437715000189", "IDCIDADE": "SANTA CRUZ DA CONCEIÇÃO", "NOMEFANTASIA": null, "RAZAOSOCIAL": "38.437.715 REGINALDO SOUZA DE JESUS", "ENDEE": "RUA DOUTOR JORGE TIBIRICA, 1091, CENTRO, 13625-021, SANTA CRUZ DA CONCEIÇÃO, SP, BRASIL", "LATITUDE": "-22.1376925", "LONGITUDE": "-47.4518092", "LMAPS": "https://www.google.com/maps?q=&layer=c&cbll=-22.1376925,-47.4518092", "O_QUE_FAZER": "CARTEIRA - FAMPE", "field_10": null, "field_11": null, "field_12": null, "field_13": null, "ER_REGIAO_CIDADE_min": "Santa Cruz da Conceição_São Carlos" }, "geometry": { "type": "Point", "coordinates": [ -47.4518092, -22.1376925 ] } },
{ "type": "Feature", "properties": { "CNPJ": "55536174000165", "IDCIDADE": "SANTA CRUZ DA CONCEIÇÃO", "NOMEFANTASIA": "TM CORRETORA", "RAZAOSOCIAL": "TM CORRETORA E NEGOCIOS LTDA", "ENDEE": "RUA ORQUIDEAS, 128, JARDIM ALTO DAS AGUAS, 13626-044, SANTA CRUZ DA CONCEIÇÃO, SP, BRASIL", "LATITUDE": "-22.1455109", "LONGITUDE": "-47.4493323", "LMAPS": "https://www.google.com/maps?q=&layer=c&cbll=-22.1455109,-47.4493323", "O_QUE_FAZER": "CARTEIRA - FAMPE", "field_10": null, "field_11": null, "field_12": null, "field_13": null, "ER_REGIAO_CIDADE_min": "Santa Cruz da Conceição_São Carlos" }, "geometry": { "type": "Point", "coordinates": [ -47.4493323, -22.1455109 ] } }
]
}
