{
"type": "FeatureCollection",
"name": "ER_REGIAO_CIDADE_min_Santa Rita d'Oeste_Santa Rita d'Oeste_Votuporanga",
"crs": { "type": "name", "properties": { "name": "urn:ogc:def:crs:OGC:1.3:CRS84" } },
"xy_coordinate_resolution": 1e-15,
"features": [
{ "type": "Feature", "properties": { "CNPJ": "50619409000169", "IDCIDADE": "SANTA_RITA_D'OESTE", "NOMEFANTASIA": "DROGARIA_SANTA_RITA", "RAZAOSOCIAL": "DROGARIA_E_PERFUMARIA_VILASBOAS_LTDA", "ENDEE": "AVENIDA_SAO_PAULO359__CENTRO_15780-000", "LATITUDE": "-20.1439827", "LONGITUDE": "-50.8310983", "LMAPS": "https://www.google.com/maps?q=&layer=c&cbll=-50.8310983,-20.1439827", "O_QUE_FAZER": "CARTEIRA", "field_10": null, "field_11": null, "field_12": null, "field_13": null, "ER_REGIAO_CIDADE_min": "Santa Rita d'Oeste_Santa Rita d'Oeste_Votuporanga" }, "geometry": { "type": "Point", "coordinates": [ -50.8310983, -20.1439827 ] } },
{ "type": "Feature", "properties": { "CNPJ": "00910603000120", "IDCIDADE": "SANTA_RITA_D'OESTE", "NOMEFANTASIA": "MERCADO_BOM_PRECO", "RAZAOSOCIAL": "ROSEMARY_APARECIDA_GIGANTE_EVANGELISTA", "ENDEE": "AVENIDA_SAO_PAULO594__CENTRO_15780-000", "LATITUDE": "-20.1442349", "LONGITUDE": "-50.83128", "LMAPS": "https://www.google.com/maps?q=&layer=c&cbll=-50.83128,-20.1442349", "O_QUE_FAZER": "CARTEIRA", "field_10": null, "field_11": null, "field_12": null, "field_13": null, "ER_REGIAO_CIDADE_min": "Santa Rita d'Oeste_Santa Rita d'Oeste_Votuporanga" }, "geometry": { "type": "Point", "coordinates": [ -50.83128, -20.1442349 ] } },
{ "type": "Feature", "properties": { "CNPJ": "40778561000130", "IDCIDADE": "SANTA_RITA_D'OESTE", "NOMEFANTASIA": "WK_MODAS", "RAZAOSOCIAL": "KELIS_MARA_DE_OLIVEIRA_-_ARTIGOS_DO_VESTUARIO_LTDA", "ENDEE": "RUA_RINALDO_FRANZOTTI222__CENTRO_15780-000", "LATITUDE": "-20.1445854", "LONGITUDE": "-50.8312684", "LMAPS": "https://www.google.com/maps?q=&layer=c&cbll=-50.8312684,-20.1445854", "O_QUE_FAZER": "CARTEIRA", "field_10": null, "field_11": null, "field_12": null, "field_13": null, "ER_REGIAO_CIDADE_min": "Santa Rita d'Oeste_Santa Rita d'Oeste_Votuporanga" }, "geometry": { "type": "Point", "coordinates": [ -50.8312684, -20.1445854 ] } },
{ "type": "Feature", "properties": { "CNPJ": "03845706000142", "IDCIDADE": "SANTA_RITA_D'OESTE", "NOMEFANTASIA": "FUNERARIA_SANTA_RITA", "RAZAOSOCIAL": "PATRICIA_APARECIDA_MAZOTI", "ENDEE": "AVENIDA_SAO_PAULO131__CENTRO_15780-000", "LATITUDE": "-20.1450752", "LONGITUDE": "-50.8331579", "LMAPS": "https://www.google.com/maps?q=&layer=c&cbll=-50.8331579,-20.1450752", "O_QUE_FAZER": "CARTEIRA", "field_10": null, "field_11": null, "field_12": null, "field_13": null, "ER_REGIAO_CIDADE_min": "Santa Rita d'Oeste_Santa Rita d'Oeste_Votuporanga" }, "geometry": { "type": "Point", "coordinates": [ -50.8331579, -20.1450752 ] } },
{ "type": "Feature", "properties": { "CNPJ": "05092183000136", "IDCIDADE": "SANTA_RITA_D'OESTE", "NOMEFANTASIA": "AUTO_POSTO_MOTTA", "RAZAOSOCIAL": "MOTTA_COMERCIO_DE_COMBUSTIVEIS_E_DERIVADOS_STA_RITA_LTDA", "ENDEE": "AVENIDA_SAO_PAULO486__CENTRO_15780-000", "LATITUDE": "-20.1457948", "LONGITUDE": "-50.8316209", "LMAPS": "https://www.google.com/maps?q=&layer=c&cbll=-50.8316209,-20.1457948", "O_QUE_FAZER": "CARTEIRA", "field_10": null, "field_11": null, "field_12": null, "field_13": null, "ER_REGIAO_CIDADE_min": "Santa Rita d'Oeste_Santa Rita d'Oeste_Votuporanga" }, "geometry": { "type": "Point", "coordinates": [ -50.8316209, -20.1457948 ] } },
{ "type": "Feature", "properties": { "CNPJ": "12395212000102", "IDCIDADE": "SANTA_RITA_D'OESTE", "NOMEFANTASIA": "MAX_ALIMENTOS", "RAZAOSOCIAL": "HELTON_DIEGO_ROSALES_CLEMENTE", "ENDEE": "AVENIDA_BRASIL710__DISTRITO_INDUSTRIAL_I_15780-000", "LATITUDE": "-20.1493052", "LONGITUDE": "-50.8329774", "LMAPS": "https://www.google.com/maps?q=&layer=c&cbll=-50.8329774,-20.1493052", "O_QUE_FAZER": "CARTEIRA", "field_10": null, "field_11": null, "field_12": null, "field_13": null, "ER_REGIAO_CIDADE_min": "Santa Rita d'Oeste_Santa Rita d'Oeste_Votuporanga" }, "geometry": { "type": "Point", "coordinates": [ -50.8329774, -20.1493052 ] } },
{ "type": "Feature", "properties": { "CNPJ": "15174621000169", "IDCIDADE": "SANTA_RITA_D'OESTE", "NOMEFANTASIA": "IRMAO_CLEMENTE_ENGENHARIA", "RAZAOSOCIAL": "IRMAOS_CLEMENTE_ENGENHARIA_LTDA", "ENDEE": "AVENIDA_BRASIL720__DISTRITO_INDUSTRIAL_15780-000", "LATITUDE": "-20.1494281", "LONGITUDE": "-50.8330241", "LMAPS": "https://www.google.com/maps?q=&layer=c&cbll=-50.8330241,-20.1494281", "O_QUE_FAZER": "CARTEIRA", "field_10": null, "field_11": null, "field_12": null, "field_13": null, "ER_REGIAO_CIDADE_min": "Santa Rita d'Oeste_Santa Rita d'Oeste_Votuporanga" }, "geometry": { "type": "Point", "coordinates": [ -50.8330241, -20.1494281 ] } },
{ "type": "Feature", "properties": { "CNPJ": "17745081000151", "IDCIDADE": "SANTA_RITA_D'OESTE", "NOMEFANTASIA": "MECANICA_AGRICOLA_SAO_PAULO", "RAZAOSOCIAL": "MARCOS_CAMACHO_SAURA", "ENDEE": "RUA_ALCIDES_CUNHA260__CENTRO_15780-000", "LATITUDE": "-20.1504339", "LONGITUDE": "-50.832826", "LMAPS": "https://www.google.com/maps?q=&layer=c&cbll=-50.832826,-20.1504339", "O_QUE_FAZER": "CARTEIRA", "field_10": null, "field_11": null, "field_12": null, "field_13": null, "ER_REGIAO_CIDADE_min": "Santa Rita d'Oeste_Santa Rita d'Oeste_Votuporanga" }, "geometry": { "type": "Point", "coordinates": [ -50.832826, -20.1504339 ] } },
{ "type": "Feature", "properties": { "CNPJ": "02422002000102", "IDCIDADE": "SANTA_RITA_D'OESTE", "NOMEFANTASIA": "TENDI_TUDO_MATERIAIS_PARA_CONSTRUCAO", "RAZAOSOCIAL": "APARECIDA_FERREIRA_GILIO_SIMIONI", "ENDEE": "AVENIDA_SAO_PAULO377__CENTRO_15780-005", "LATITUDE": "-20.1438827", "LONGITUDE": "-50.8308757", "LMAPS": "https://www.google.com/maps?q=&layer=c&cbll=-50.8308757,-20.1438827", "O_QUE_FAZER": "FINALIZADO", "field_10": null, "field_11": null, "field_12": null, "field_13": null, "ER_REGIAO_CIDADE_min": "Santa Rita d'Oeste_Santa Rita d'Oeste_Votuporanga" }, "geometry": { "type": "Point", "coordinates": [ -50.8308757, -20.1438827 ] } },
{ "type": "Feature", "properties": { "CNPJ": "18177328000143", "IDCIDADE": "SANTA_RITA_D'OESTE", "NOMEFANTASIA": "JOEL_SAMPAIO_MECANICA", "RAZAOSOCIAL": "JOEL_SAMPAIO_-_MECANICA", "ENDEE": "RUA_AVELINO_FANTIN260__CENTRO_15780-013", "LATITUDE": "-20.1440229", "LONGITUDE": "-50.8296919", "LMAPS": "https://www.google.com/maps?q=&layer=c&cbll=-50.8296919,-20.1440229", "O_QUE_FAZER": "FINALIZADO", "field_10": null, "field_11": null, "field_12": null, "field_13": null, "ER_REGIAO_CIDADE_min": "Santa Rita d'Oeste_Santa Rita d'Oeste_Votuporanga" }, "geometry": { "type": "Point", "coordinates": [ -50.8296919, -20.1440229 ] } },
{ "type": "Feature", "properties": { "CNPJ": "55461909000139", "IDCIDADE": "SANTA_RITA_D'OESTE", "NOMEFANTASIA": "BAZAR_NEUSA", "RAZAOSOCIAL": "DE_AMORIM_TAVARES_&_TORRES_AMORIM_LTDA", "ENDEE": "AVENIDA_SAO_PAULO325__CENTRO_15780-005", "LATITUDE": "-20.1441028", "LONGITUDE": "-50.8313453", "LMAPS": "https://www.google.com/maps?q=&layer=c&cbll=-50.8313453,-20.1441028", "O_QUE_FAZER": "FINALIZADO", "field_10": null, "field_11": null, "field_12": null, "field_13": null, "ER_REGIAO_CIDADE_min": "Santa Rita d'Oeste_Santa Rita d'Oeste_Votuporanga" }, "geometry": { "type": "Point", "coordinates": [ -50.8313453, -20.1441028 ] } },
{ "type": "Feature", "properties": { "CNPJ": "34101701000139", "IDCIDADE": "SANTA_RITA_D'OESTE", "NOMEFANTASIA": "PANIFICADORA  PÃO  QUENTE", "RAZAOSOCIAL": "PANIFICADORA E CAFE PAO QUENTE LTDA", "ENDEE": "SÃO PAULO, 370, CENTRO, 15780-005, SANTA RITA D'OESTE_15780-005", "LATITUDE": "-20.1441893", "LONGITUDE": "-50.8308202", "LMAPS": "https://www.google.com/maps?q=&layer=c&cbll=-20.1441893,-50.8308202", "O_QUE_FAZER": "FINALIZADO", "field_10": null, "field_11": null, "field_12": null, "field_13": null, "ER_REGIAO_CIDADE_min": "Santa Rita d'Oeste_Santa Rita d'Oeste_Votuporanga" }, "geometry": { "type": "Point", "coordinates": [ -50.8308202, -20.1441893 ] } },
{ "type": "Feature", "properties": { "CNPJ": "72006281000109", "IDCIDADE": "SANTA_RITA_D'OESTE", "NOMEFANTASIA": "LOJA_BEM_BOLADO", "RAZAOSOCIAL": "GILMARA_FERREIRA", "ENDEE": "AVENIDA_SAO_PAULO259__CENTRO_15780-005", "LATITUDE": "-20.1444185", "LONGITUDE": "-50.8320109", "LMAPS": "https://www.google.com/maps?q=&layer=c&cbll=-50.8320109,-20.1444185", "O_QUE_FAZER": "FINALIZADO", "field_10": null, "field_11": null, "field_12": null, "field_13": null, "ER_REGIAO_CIDADE_min": "Santa Rita d'Oeste_Santa Rita d'Oeste_Votuporanga" }, "geometry": { "type": "Point", "coordinates": [ -50.8320109, -20.1444185 ] } },
{ "type": "Feature", "properties": { "CNPJ": "54638442000197", "IDCIDADE": "SANTA_RITA_D'OESTE", "NOMEFANTASIA": "MARMITARIA DO ABACAXI", "RAZAOSOCIAL": "54.638.442 JUCIMAR ORTIZ MURCIA", "ENDEE": "RINALDO FRANZOTTI, 568, CENTRO, 15780-017, SANTA RITA D'OESTE_15780-017", "LATITUDE": "-20.1444836", "LONGITUDE": "-50.8313707", "LMAPS": "https://www.google.com/maps?q=&layer=c&cbll=-20.1444836,-50.8313707", "O_QUE_FAZER": "FINALIZADO", "field_10": null, "field_11": null, "field_12": null, "field_13": null, "ER_REGIAO_CIDADE_min": "Santa Rita d'Oeste_Santa Rita d'Oeste_Votuporanga" }, "geometry": { "type": "Point", "coordinates": [ -50.8313707, -20.1444836 ] } },
{ "type": "Feature", "properties": { "CNPJ": "43345949000136", "IDCIDADE": "SANTA_RITA_D'OESTE", "NOMEFANTASIA": "SORVETERIA  MKERO MAIS", "RAZAOSOCIAL": "43.345.949 MARLENE LUIZ DE FREITAS DA SILVA", "ENDEE": "RINALDO FRANZOTTI, 568, CENTRO, 15780-017, SANTA RITA D'OESTE_15780-017", "LATITUDE": "-20.1444836", "LONGITUDE": "-50.8313707", "LMAPS": "https://www.google.com/maps?q=&layer=c&cbll=-20.1444836,-50.8313707", "O_QUE_FAZER": "FINALIZADO", "field_10": null, "field_11": null, "field_12": null, "field_13": null, "ER_REGIAO_CIDADE_min": "Santa Rita d'Oeste_Santa Rita d'Oeste_Votuporanga" }, "geometry": { "type": "Point", "coordinates": [ -50.8313707, -20.1444836 ] } },
{ "type": "Feature", "properties": { "CNPJ": "66569036000107", "IDCIDADE": "SANTA_RITA_D'OESTE", "NOMEFANTASIA": "W K MODAS", "RAZAOSOCIAL": "66.569.036 KELIS MARA DE OLIVEIRA", "ENDEE": "RINALDO FRANZOTTI, 222, CENTRO, 15780-017, SANTA RITA D'OESTE_15780-017", "LATITUDE": "-20.144499", "LONGITUDE": "-50.8316342", "LMAPS": "https://www.google.com/maps?q=&layer=c&cbll=-20.144499,-50.8316342", "O_QUE_FAZER": "FINALIZADO", "field_10": null, "field_11": null, "field_12": null, "field_13": null, "ER_REGIAO_CIDADE_min": "Santa Rita d'Oeste_Santa Rita d'Oeste_Votuporanga" }, "geometry": { "type": "Point", "coordinates": [ -50.8316342, -20.144499 ] } },
{ "type": "Feature", "properties": { "CNPJ": "54188601000107", "IDCIDADE": "SANTA_RITA_D'OESTE", "NOMEFANTASIA": "SORVETERIA BORA LÁ", "RAZAOSOCIAL": "54.188.601 CLEITON VICENTE DA SILVA", "ENDEE": "SÃO PAULO, 220, CENTRO, 15780-005, SANTA RITA D'OESTE_15780-005", "LATITUDE": "-20.1445941", "LONGITUDE": "-50.8323578", "LMAPS": "https://www.google.com/maps?q=&layer=c&cbll=-20.1445941,-50.8323578", "O_QUE_FAZER": "FINALIZADO", "field_10": null, "field_11": null, "field_12": null, "field_13": null, "ER_REGIAO_CIDADE_min": "Santa Rita d'Oeste_Santa Rita d'Oeste_Votuporanga" }, "geometry": { "type": "Point", "coordinates": [ -50.8323578, -20.1445941 ] } },
{ "type": "Feature", "properties": { "CNPJ": "32416725000151", "IDCIDADE": "SANTA_RITA_D'OESTE", "NOMEFANTASIA": "CELIA CABELEIREIRA", "RAZAOSOCIAL": "32.416.725 CELIA RODRIGUES", "ENDEE": "SÃO PAULO, 222, CENTRO, 15780-005, SANTA RITA D'OESTE_15780-005", "LATITUDE": "-20.1446149", "LONGITUDE": "-50.8319206", "LMAPS": "https://www.google.com/maps?q=&layer=c&cbll=-20.1446149,-50.8319206", "O_QUE_FAZER": "FINALIZADO", "field_10": null, "field_11": null, "field_12": null, "field_13": null, "ER_REGIAO_CIDADE_min": "Santa Rita d'Oeste_Santa Rita d'Oeste_Votuporanga" }, "geometry": { "type": "Point", "coordinates": [ -50.8319206, -20.1446149 ] } },
{ "type": "Feature", "properties": { "CNPJ": "01501804000137", "IDCIDADE": "SANTA_RITA_D'OESTE", "NOMEFANTASIA": "DROGA_CENTRO", "RAZAOSOCIAL": "ALAOR_PASIAN", "ENDEE": "RUA_RINALDO_FRANZOTTI160__CENTRO_15780-017", "LATITUDE": "-20.1447656", "LONGITUDE": "-50.8312662", "LMAPS": "https://www.google.com/maps?q=&layer=c&cbll=-50.8312662,-20.1447656", "O_QUE_FAZER": "FINALIZADO", "field_10": null, "field_11": null, "field_12": null, "field_13": null, "ER_REGIAO_CIDADE_min": "Santa Rita d'Oeste_Santa Rita d'Oeste_Votuporanga" }, "geometry": { "type": "Point", "coordinates": [ -50.8312662, -20.1447656 ] } },
{ "type": "Feature", "properties": { "CNPJ": "22336402000285", "IDCIDADE": "SANTA_RITA_D'OESTE", "NOMEFANTASIA": "JALES_PET", "RAZAOSOCIAL": "SERGIO_ANTONIO_TERRADAS", "ENDEE": "AVENIDA_SAO_PAULO431__CENTRO_15780-005", "LATITUDE": "-20.1447982", "LONGITUDE": "-50.8326035", "LMAPS": "https://www.google.com/maps?q=&layer=c&cbll=-50.8326035,-20.1447982", "O_QUE_FAZER": "FINALIZADO", "field_10": null, "field_11": null, "field_12": null, "field_13": null, "ER_REGIAO_CIDADE_min": "Santa Rita d'Oeste_Santa Rita d'Oeste_Votuporanga" }, "geometry": { "type": "Point", "coordinates": [ -50.8326035, -20.1447982 ] } },
{ "type": "Feature", "properties": { "CNPJ": "55963259000120", "IDCIDADE": "SANTA_RITA_D'OESTE", "NOMEFANTASIA": "QUITANDA DA FAMÍLIA", "RAZAOSOCIAL": "55.963.259 MARIO AMOR FERREIRA", "ENDEE": "SÃO PAULO, 161, CENTRO, 15780-005, SANTA RITA D'OESTE_15780-005", "LATITUDE": "-20.1448596", "LONGITUDE": "-50.8328661", "LMAPS": "https://www.google.com/maps?q=&layer=c&cbll=-20.1448596,-50.8328661", "O_QUE_FAZER": "FINALIZADO", "field_10": null, "field_11": null, "field_12": null, "field_13": null, "ER_REGIAO_CIDADE_min": "Santa Rita d'Oeste_Santa Rita d'Oeste_Votuporanga" }, "geometry": { "type": "Point", "coordinates": [ -50.8328661, -20.1448596 ] } },
{ "type": "Feature", "properties": { "CNPJ": "04153262000147", "IDCIDADE": "SANTA_RITA_D'OESTE", "NOMEFANTASIA": "SUPERMERCADO_JJE", "RAZAOSOCIAL": "NILZA_APARECIDA_ZACHEO_ZERBINATI_LTDA", "ENDEE": "AVENIDA_SAO_PAULO385__CENTRO_15780-005", "LATITUDE": "-20.1449827", "LONGITUDE": "-50.8329566", "LMAPS": "https://www.google.com/maps?q=&layer=c&cbll=-50.8329566,-20.1449827", "O_QUE_FAZER": "FINALIZADO", "field_10": null, "field_11": null, "field_12": null, "field_13": null, "ER_REGIAO_CIDADE_min": "Santa Rita d'Oeste_Santa Rita d'Oeste_Votuporanga" }, "geometry": { "type": "Point", "coordinates": [ -50.8329566, -20.1449827 ] } },
{ "type": "Feature", "properties": { "CNPJ": "36632041000148", "IDCIDADE": "SANTA_RITA_D'OESTE", "NOMEFANTASIA": "AGROVETERINARIA_BONIOLIS", "RAZAOSOCIAL": "MARLON_BONIOLIS_MARTINS", "ENDEE": "AVENIDA_BRASIL709__DISTRITO_INDUSTRIAL_I_15780-372", "LATITUDE": "-20.1486246", "LONGITUDE": "-50.8329011", "LMAPS": "https://www.google.com/maps?q=&layer=c&cbll=-50.8329011,-20.1486246", "O_QUE_FAZER": "FINALIZADO", "field_10": null, "field_11": null, "field_12": null, "field_13": null, "ER_REGIAO_CIDADE_min": "Santa Rita d'Oeste_Santa Rita d'Oeste_Votuporanga" }, "geometry": { "type": "Point", "coordinates": [ -50.8329011, -20.1486246 ] } },
{ "type": "Feature", "properties": { "CNPJ": "27192645000120", "IDCIDADE": "SANTA_RITA_D'OESTE", "NOMEFANTASIA": "ISCAS_KORIAH", "RAZAOSOCIAL": "ISCAS_MORIAH_ARTIGOS_PARA_PESCA_LTDA", "ENDEE": "AVENIDA_BRASIL840__DISTRITO_INDUSTRIAL_15780-000", "LATITUDE": "-20.1498133", "LONGITUDE": "-50.8329884", "LMAPS": "https://www.google.com/maps?q=&layer=c&cbll=-50.8329884,-20.1498133", "O_QUE_FAZER": "CARTEIRA - FAMPE", "field_10": null, "field_11": null, "field_12": null, "field_13": null, "ER_REGIAO_CIDADE_min": "Santa Rita d'Oeste_Santa Rita d'Oeste_Votuporanga" }, "geometry": { "type": "Point", "coordinates": [ -50.8329884, -20.1498133 ] } },
{ "type": "Feature", "properties": { "CNPJ": "45171711000167", "IDCIDADE": "SANTA_RITA_D_OESTE", "NOMEFANTASIA": "45.171.711_JULIANA_BRITO_VIEIRA_DIAS", "RAZAOSOCIAL": "45.171.711_JULIANA_BRITO_VIEIRA_DIAS", "ENDEE": "AVENIDA_SAO_PAULO161__CENTRO_15780-005", "LATITUDE": "-20.1443691", "LONGITUDE": "-50.8315488", "LMAPS": "https://www.google.com/maps?q=&layer=c&cbll=-50.8315488,-20.1443691", "O_QUE_FAZER": "FINALIZADO", "field_10": null, "field_11": null, "field_12": null, "field_13": null, "ER_REGIAO_CIDADE_min": "Santa Rita d'Oeste_Santa Rita d'Oeste_Votuporanga" }, "geometry": { "type": "Point", "coordinates": [ -50.8315488, -20.1443691 ] } }
]
}
