{
"type": "FeatureCollection",
"name": "ER_REGIAO_CIDADE_min_Piracaia_Piracaia_Guarulhos",
"crs": { "type": "name", "properties": { "name": "urn:ogc:def:crs:OGC:1.3:CRS84" } },
"xy_coordinate_resolution": 1e-15,
"features": [
{ "type": "Feature", "properties": { "fid": 8158, "CNPJ": "01686691000191", "IDCIDADE": "PIRACAIA", "NOMEFANTASIA": null, "RAZAOSOCIAL": "JCF_AUTOMOTIVO_LTDA", "ENDEE": "AVENIDA_DANILO PECANHA_810_POUSO ALEGRE_12970-000_PIRACAIA", "LMAPS": "https://www.google.com/maps?q=&layer=c&cbll=-23.0517232,-46.3553303", "O_QUE_FAZER": "FINALIZADO", "ER_REGIAO_CIDADE_min": "Piracaia_Piracaia_Guarulhos" }, "geometry": { "type": "Point", "coordinates": [ -46.3553303, -23.0517232 ] } },
{ "type": "Feature", "properties": { "fid": 34690, "CNPJ": "05924150000105", "IDCIDADE": "PIRACAIA", "NOMEFANTASIA": "MEL_BIJU", "RAZAOSOCIAL": "MELCA_DAMARIS_RUBIO_GOUVEA", "ENDEE": "AVENIDA DR ALIPIO FERREIRA, 19, C-1, CENTRO, 12970-000, PIRACAIA, SP, BRASIL", "LMAPS": "https://www.google.com/maps?q=&layer=c&cbll=-23.0545667,-46.3543154", "O_QUE_FAZER": "CARTEIRA - FAMPE", "ER_REGIAO_CIDADE_min": "Piracaia_Piracaia_Guarulhos" }, "geometry": { "type": "Point", "coordinates": [ -46.3543154, -23.0545667 ] } },
{ "type": "Feature", "properties": { "fid": 58483, "CNPJ": "09461341000139", "IDCIDADE": "PIRACAIA", "NOMEFANTASIA": "PIRACAIA_SOFT", "RAZAOSOCIAL": "ALCIONE_ARJONA_GUIMARAES_LTDA", "ENDEE": "PRACA NOSSA SENHORA DO ROSARIO, 22, ANDAR 1 SALA 03, CENTRO, 12970-000, PIRACAIA, SP, BRASIL", "LMAPS": "https://www.google.com/maps?q=&layer=c&cbll=-23.0540292,-46.35726", "O_QUE_FAZER": "CARTEIRA - FAMPE", "ER_REGIAO_CIDADE_min": "Piracaia_Piracaia_Guarulhos" }, "geometry": { "type": "Point", "coordinates": [ -46.35726, -23.0540292 ] } },
{ "type": "Feature", "properties": { "fid": 60204, "CNPJ": "09662959000167", "IDCIDADE": "PIRACAIA", "NOMEFANTASIA": "PADARIA_E_LANCHONETE_POUSO_ALEGRE_LTDA", "RAZAOSOCIAL": "PADARIA_E_LANCHONETE_POUSO_ALEGRE_LTDA", "ENDEE": "RUA_HEBERT_LAMBERT_ZAGO1160__POUSO_ALEGRE_12970-000", "LMAPS": "https://www.google.com/maps?q=&layer=c&cbll=-23.0473724,-46.3368141", "O_QUE_FAZER": "FINALIZADO", "ER_REGIAO_CIDADE_min": "Piracaia_Piracaia_Guarulhos" }, "geometry": { "type": "Point", "coordinates": [ -46.3368141, -23.0473724 ] } },
{ "type": "Feature", "properties": { "fid": 78753, "CNPJ": "12661275000155", "IDCIDADE": "PIRACAIA", "NOMEFANTASIA": "12.661.275_VANDERLEY_JUNIOR_DA_SILVA", "RAZAOSOCIAL": "12.661.275_VANDERLEY_JUNIOR_DA_SILVA", "ENDEE": "RUA_ANTONIO_PEREIRA_DIAS141__JARDIM_VISTA_ALEGRE_12970-000", "LMAPS": "https://www.google.com/maps?q=&layer=c&cbll=-23.057344,-46.3514822", "O_QUE_FAZER": "FINALIZADO", "ER_REGIAO_CIDADE_min": "Piracaia_Piracaia_Guarulhos" }, "geometry": { "type": "Point", "coordinates": [ -46.3514822, -23.057344 ] } },
{ "type": "Feature", "properties": { "fid": 86325, "CNPJ": "14151026000145", "IDCIDADE": "PIRACAIA", "NOMEFANTASIA": "OFICINA_DO_AZEITE", "RAZAOSOCIAL": "OFICINA_DO_AZEITE_LTDA", "ENDEE": "RUA MIGUEL MILLEO, 125, SALA 2, CENTRO, 12970-000, PIRACAIA, SP, BRASIL", "LMAPS": "https://www.google.com/maps?q=&layer=c&cbll=-23.0519834,-46.3601834", "O_QUE_FAZER": "CARTEIRA - FAMPE", "ER_REGIAO_CIDADE_min": "Piracaia_Piracaia_Guarulhos" }, "geometry": { "type": "Point", "coordinates": [ -46.3601834, -23.0519834 ] } },
{ "type": "Feature", "properties": { "fid": 93064, "CNPJ": "15567880000150", "IDCIDADE": "PIRACAIA", "NOMEFANTASIA": null, "RAZAOSOCIAL": "VANIA_LUCIA_LIMA_DE_SOUZA_09464143860", "ENDEE": "AVENIDA DOUTOR VALENTIN DEL NERO, 44, BLOCO C, CENTRO, 12970-000, PIRACAIA, SP, BRASIL", "LMAPS": "https://www.google.com/maps?q=&layer=c&cbll=-23.0560579,-46.3516968", "O_QUE_FAZER": "CARTEIRA - FAMPE", "ER_REGIAO_CIDADE_min": "Piracaia_Piracaia_Guarulhos" }, "geometry": { "type": "Point", "coordinates": [ -46.3516968, -23.0560579 ] } },
{ "type": "Feature", "properties": { "fid": 103314, "CNPJ": "18281639000158", "IDCIDADE": "PIRACAIA", "NOMEFANTASIA": "18.281.639_OSWALDO_MARCOS_BARBOSA", "RAZAOSOCIAL": "OSWALDO_MARCOS_BARBOSA", "ENDEE": "RUA_JOAQUIM_RAMOS_DA_SILVA36__CENTRO_12970-000", "LMAPS": "https://www.google.com/maps?q=&layer=c&cbll=-23.047719,-46.3403383", "O_QUE_FAZER": "FINALIZADO", "ER_REGIAO_CIDADE_min": "Piracaia_Piracaia_Guarulhos" }, "geometry": { "type": "Point", "coordinates": [ -46.3403383, -23.047719 ] } },
{ "type": "Feature", "properties": { "fid": 104317, "CNPJ": "18506342000143", "IDCIDADE": "PIRACAIA", "NOMEFANTASIA": "Telma_Rosas", "RAZAOSOCIAL": "DECORE_COMUNICACAO_VISUAL_LTDA", "ENDEE": "ESTRADA PRC 229, 6001, PINHAL, 12970-000, PIRACAIA, SP, BRASIL", "LMAPS": "https://www.google.com/maps?q=&layer=c&cbll=-23.0412075,-46.335022", "O_QUE_FAZER": "CARTEIRA - FAMPE", "ER_REGIAO_CIDADE_min": "Piracaia_Piracaia_Guarulhos" }, "geometry": { "type": "Point", "coordinates": [ -46.335022, -23.0412075 ] } },
{ "type": "Feature", "properties": { "fid": 115818, "CNPJ": "21074480000105", "IDCIDADE": "PIRACAIA", "NOMEFANTASIA": null, "RAZAOSOCIAL": "GRILO_AUTO_CENTER_LTDA", "ENDEE": "AVENIDA DANILO PECANHA, 300, BOA VISTA, 12970-000, PIRACAIA, SP, BRASIL", "LMAPS": "https://www.google.com/maps?q=&layer=c&cbll=-23.0494348,-46.3582578", "O_QUE_FAZER": "CARTEIRA - FAMPE", "ER_REGIAO_CIDADE_min": "Piracaia_Piracaia_Guarulhos" }, "geometry": { "type": "Point", "coordinates": [ -46.3582578, -23.0494348 ] } },
{ "type": "Feature", "properties": { "fid": 116704, "CNPJ": "21261267000102", "IDCIDADE": "PIRACAIA", "NOMEFANTASIA": "AGROPECUARIA_SAO_PEDRO", "RAZAOSOCIAL": "MANOEL_CELIO_FERREIRA_DA_CUNHA_AGROPECUARIA", "ENDEE": "AVENIDA DR VALENTIN DEL NERO, 260, CENTRO, 12970-000, PIRACAIA, SP, BRASIL", "LMAPS": "https://www.google.com/maps?q=&layer=c&cbll=-23.055492,-46.3496965", "O_QUE_FAZER": "CARTEIRA - FAMPE", "ER_REGIAO_CIDADE_min": "Piracaia_Piracaia_Guarulhos" }, "geometry": { "type": "Point", "coordinates": [ -46.3496965, -23.055492 ] } },
{ "type": "Feature", "properties": { "fid": 121966, "CNPJ": "22410073000194", "IDCIDADE": "PIRACAIA", "NOMEFANTASIA": "CSRN_TERCEIRIZACOES", "RAZAOSOCIAL": "CSRN_PRESTADORA_DE_SERVICOS_LTDA", "ENDEE": "RUA DIRCE FIORELLINI BADARI, 116, LETRA A, CENTRO, 12970-007, PIRACAIA, SP, BRASIL", "LMAPS": "https://www.google.com/maps?q=&layer=c&cbll=-23.0527368,-46.3587147", "O_QUE_FAZER": "CARTEIRA - FAMPE", "ER_REGIAO_CIDADE_min": "Piracaia_Piracaia_Guarulhos" }, "geometry": { "type": "Point", "coordinates": [ -46.3587147, -23.0527368 ] } },
{ "type": "Feature", "properties": { "fid": 124485, "CNPJ": "22931382000100", "IDCIDADE": "PIRACAIA", "NOMEFANTASIA": "D.V._LIMA_MERCADO_E_APOIO", "RAZAOSOCIAL": "DV_LIMA_MERCADO_E_APOIO_LTDA", "ENDEE": "AVENIDA DR VALENTIN DEL NERO, 774, SALA 1, CATIGUA, 12970-202, PIRACAIA, SP, BRASIL", "LMAPS": "https://www.google.com/maps?q=&layer=c&cbll=-23.0521895,-46.3474566", "O_QUE_FAZER": "CARTEIRA - FAMPE", "ER_REGIAO_CIDADE_min": "Piracaia_Piracaia_Guarulhos" }, "geometry": { "type": "Point", "coordinates": [ -46.3474566, -23.0521895 ] } },
{ "type": "Feature", "properties": { "fid": 148271, "CNPJ": "28175037000170", "IDCIDADE": "PIRACAIA", "NOMEFANTASIA": "D._J._DA_SILVA_ROSA_EQUIPAMENTOS_INDUSTRIAIS", "RAZAOSOCIAL": "ATEND_PROJETO_E_FABRICACAO", "ENDEE": "RODOVIA_JAN_ANTONIN_BARA0__CANEDOS_12970-000", "LMAPS": "https://www.google.com/maps?q=&layer=c&cbll=-23.0541177,-46.3561298", "O_QUE_FAZER": "FINALIZADO", "ER_REGIAO_CIDADE_min": "Piracaia_Piracaia_Guarulhos" }, "geometry": { "type": "Point", "coordinates": [ -46.3561298, -23.0541177 ] } },
{ "type": "Feature", "properties": { "fid": 152283, "CNPJ": "28921216000109", "IDCIDADE": "PIRACAIA", "NOMEFANTASIA": "28.921.216_ROGERIO_BUENO_PASCHOAL", "RAZAOSOCIAL": "ROGERIO_BUENO_PASCHOAL", "ENDEE": "RUA_DOUTOR__VALENTIM_DEL_NERO229__CENTRO_12970-000", "LMAPS": "https://www.google.com/maps?q=&layer=c&cbll=-23.0553276,-46.3500379", "O_QUE_FAZER": "FINALIZADO", "ER_REGIAO_CIDADE_min": "Piracaia_Piracaia_Guarulhos" }, "geometry": { "type": "Point", "coordinates": [ -46.3500379, -23.0553276 ] } },
{ "type": "Feature", "properties": { "fid": 157792, "CNPJ": "30010724000187", "IDCIDADE": "PIRACAIA", "NOMEFANTASIA": "BANGALO", "RAZAOSOCIAL": "BANGALO_SECOS_E_MOLHADOS_LTDA", "ENDEE": "RUA SEBASTIAO FERREIRA DE ARAUJO FILHO, 318, BLOCO A, JD SANTO AFONSO, 12971-312, PIRACAIA, SP, BRASIL", "LMAPS": "https://www.google.com/maps?q=&layer=c&cbll=-23.0464972,-46.3461106", "O_QUE_FAZER": "CARTEIRA - FAMPE", "ER_REGIAO_CIDADE_min": "Piracaia_Piracaia_Guarulhos" }, "geometry": { "type": "Point", "coordinates": [ -46.3461106, -23.0464972 ] } },
{ "type": "Feature", "properties": { "fid": 162724, "CNPJ": "30938788000142", "IDCIDADE": "PIRACAIA", "NOMEFANTASIA": "LUIZINHO_ZANOTTI", "RAZAOSOCIAL": "LUIZINHO_ZANOTTI_VIDRACARIA_LTDA", "ENDEE": "ESTRADA MUNICIPAL LAMARTINE PECANHA, 65, LETRA B, BOA VISTA, 12970-000, PIRACAIA, SP, BRASIL", "LMAPS": "https://www.google.com/maps?q=&layer=c&cbll=-23.0493425,-46.3605037", "O_QUE_FAZER": "CARTEIRA - FAMPE", "ER_REGIAO_CIDADE_min": "Piracaia_Piracaia_Guarulhos" }, "geometry": { "type": "Point", "coordinates": [ -46.3605037, -23.0493425 ] } },
{ "type": "Feature", "properties": { "fid": 163796, "CNPJ": "31148431000123", "IDCIDADE": "PIRACAIA", "NOMEFANTASIA": "-", "RAZAOSOCIAL": "31.148.431_PEDRO_HENRIQUE_LO_SARDO_ALMEIDA_SANTOS", "ENDEE": "RUA MARECHAL DEODORO, 165, CENTRO, 12970-019, PIRACAIA, SP, BRASIL", "LMAPS": "https://www.google.com/maps?q=&layer=c&cbll=-23.0542388,-46.3557038", "O_QUE_FAZER": "CARTEIRA - FAMPE", "ER_REGIAO_CIDADE_min": "Piracaia_Piracaia_Guarulhos" }, "geometry": { "type": "Point", "coordinates": [ -46.3557038, -23.0542388 ] } },
{ "type": "Feature", "properties": { "fid": 164056, "CNPJ": "31204179000122", "IDCIDADE": "PIRACAIA", "NOMEFANTASIA": "BELLA_TATI_ARTESANATO_LTDA", "RAZAOSOCIAL": "BELLA_TATI_ARTESANATO", "ENDEE": "RUA_DEPUTADO_ALFREDO_FARAH164__SANTO_AFONSO_12970-000", "LMAPS": "https://www.google.com/maps?q=&layer=c&cbll=-23.0485638,-46.3439788", "O_QUE_FAZER": "FINALIZADO", "ER_REGIAO_CIDADE_min": "Piracaia_Piracaia_Guarulhos" }, "geometry": { "type": "Point", "coordinates": [ -46.3439788, -23.0485638 ] } },
{ "type": "Feature", "properties": { "fid": 166284, "CNPJ": "31662185000123", "IDCIDADE": "PIRACAIA", "NOMEFANTASIA": "-", "RAZAOSOCIAL": "31.662.185_BARBARA_HELLEN_RODRIGUES_DE_SOUZA", "ENDEE": "AVENIDA BEIRA RIO, 21A, BOA VISTA, 12970-000, PIRACAIA, SP, BRASIL", "LMAPS": "https://www.google.com/maps?q=&layer=c&cbll=-23.0488427,-46.3600398", "O_QUE_FAZER": "CARTEIRA - FAMPE", "ER_REGIAO_CIDADE_min": "Piracaia_Piracaia_Guarulhos" }, "geometry": { "type": "Point", "coordinates": [ -46.3600398, -23.0488427 ] } },
{ "type": "Feature", "properties": { "fid": 177956, "CNPJ": "33982655000161", "IDCIDADE": "PIRACAIA", "NOMEFANTASIA": "GLOBAL_SEGURANCA", "RAZAOSOCIAL": "GLOBAL_SEGURANCA_E_MONITORAMENTO_LTDA", "ENDEE": "RUA DUARTE BATISTA PINHEIRO, 96, POUSO ALEGRE, 12970-000, PIRACAIA, SP, BRASIL", "LMAPS": "https://www.google.com/maps?q=&layer=c&cbll=-23.0481424,-46.340548", "O_QUE_FAZER": "CARTEIRA - FAMPE", "ER_REGIAO_CIDADE_min": "Piracaia_Piracaia_Guarulhos" }, "geometry": { "type": "Point", "coordinates": [ -46.340548, -23.0481424 ] } },
{ "type": "Feature", "properties": { "fid": 181720, "CNPJ": "34734523000183", "IDCIDADE": "PIRACAIA", "NOMEFANTASIA": "GRUNWALD_ENGENHARIA", "RAZAOSOCIAL": "REGINALDO_D_GRUNWALD_NETO_ENGENHARIA", "ENDEE": "AVENIDA ROMA, 620, CONJ RES PQ SAN MARINO, CACHOEIRA ABAIXO, 12970-000, PIRACAIA, SP, BRASIL", "LMAPS": "https://www.google.com/maps?q=&layer=c&cbll=-23.0672932,-46.3784159", "O_QUE_FAZER": "CARTEIRA - FAMPE", "ER_REGIAO_CIDADE_min": "Piracaia_Piracaia_Guarulhos" }, "geometry": { "type": "Point", "coordinates": [ -46.3784159, -23.0672932 ] } },
{ "type": "Feature", "properties": { "fid": 182497, "CNPJ": "34879849000107", "IDCIDADE": "PIRACAIA", "NOMEFANTASIA": null, "RAZAOSOCIAL": "MARCELO_TIMOTEO_13804546897", "ENDEE": "AVENIDA ROMA, 476, PARQUE SAN MARINO, 12970-000, PIRACAIA, SP, BRASIL", "LMAPS": "https://www.google.com/maps?q=&layer=c&cbll=-23.0661205,-46.3779386", "O_QUE_FAZER": "CARTEIRA - FAMPE", "ER_REGIAO_CIDADE_min": "Piracaia_Piracaia_Guarulhos" }, "geometry": { "type": "Point", "coordinates": [ -46.3779386, -23.0661205 ] } },
{ "type": "Feature", "properties": { "fid": 192978, "CNPJ": "37268270000198", "IDCIDADE": "PIRACAIA", "NOMEFANTASIA": "YUMI_SUSHI_DELIVERY", "RAZAOSOCIAL": "YUMI_SUSHI_RESTAURANTE_DELIVERY_LTDA", "ENDEE": "AVENIDA DOUTOR VALENTIN DEL NERO, 457, CATIGUA, 12970-000, PIRACAIA, SP, BRASIL", "LMAPS": "https://www.google.com/maps?q=&layer=c&cbll=-23.0546199,-46.3480002", "O_QUE_FAZER": "CARTEIRA - FAMPE", "ER_REGIAO_CIDADE_min": "Piracaia_Piracaia_Guarulhos" }, "geometry": { "type": "Point", "coordinates": [ -46.3480002, -23.0546199 ] } },
{ "type": "Feature", "properties": { "fid": 204873, "CNPJ": "40210013000100", "IDCIDADE": "PIRACAIA", "NOMEFANTASIA": "40.210.013_WILLIAN_FERREIRA_DA_SILVA", "RAZAOSOCIAL": "EMPORIO_MINAS", "ENDEE": "RUA_FRANCISCO_DE_ALMEIDA830__POUSO_ALEGR_12970-000", "LMAPS": "https://www.google.com/maps?q=&layer=c&cbll=-23.047282,-46.3407861", "O_QUE_FAZER": "FINALIZADO", "ER_REGIAO_CIDADE_min": "Piracaia_Piracaia_Guarulhos" }, "geometry": { "type": "Point", "coordinates": [ -46.3407861, -23.047282 ] } },
{ "type": "Feature", "properties": { "fid": 212873, "CNPJ": "42242559000178", "IDCIDADE": "PIRACAIA", "NOMEFANTASIA": null, "RAZAOSOCIAL": "MARCIA_PECANHA_ZAGO_09464120819", "ENDEE": "RUA MARECHAL DEODORO, 11, CENTRO, 12970-000, PIRACAIA, SP, BRASIL", "LMAPS": "https://www.google.com/maps?q=&layer=c&cbll=-23.0538082,-46.3571001", "O_QUE_FAZER": "CARTEIRA - FAMPE", "ER_REGIAO_CIDADE_min": "Piracaia_Piracaia_Guarulhos" }, "geometry": { "type": "Point", "coordinates": [ -46.3571001, -23.0538082 ] } },
{ "type": "Feature", "properties": { "fid": 217606, "CNPJ": "43271566000160", "IDCIDADE": "PIRACAIA", "NOMEFANTASIA": "SIQUEIRA_TERRAPLENAGEM", "RAZAOSOCIAL": "B._R._F._TERRAPLENAGEM_SIQUEIRA_LTDA", "ENDEE": "AVENIDA JOAQUIM AFONSO FERREIRA, 555, SALA 01, JARDIM ALVORADA, 12970-000, PIRACAIA, SP, BRASIL", "LMAPS": "https://www.google.com/maps?q=&layer=c&cbll=-23.0573002,-46.3633496", "O_QUE_FAZER": "CARTEIRA - FAMPE", "ER_REGIAO_CIDADE_min": "Piracaia_Piracaia_Guarulhos" }, "geometry": { "type": "Point", "coordinates": [ -46.3633496, -23.0573002 ] } },
{ "type": "Feature", "properties": { "fid": 222879, "CNPJ": "44344312000198", "IDCIDADE": "PIRACAIA", "NOMEFANTASIA": null, "RAZAOSOCIAL": "TATIANA_CRISTINA_SALES_DA_SILVA_28419857840", "ENDEE": "RUA BENEDITO BENTO TEIXEIRA, 100, SANTO ANTONIO DA CACHOEIRA, 12970-000, PIRACAIA, SP, BRASIL", "LMAPS": "https://www.google.com/maps?q=&layer=c&cbll=-23.060962,-46.345484", "O_QUE_FAZER": "CARTEIRA - FAMPE", "ER_REGIAO_CIDADE_min": "Piracaia_Piracaia_Guarulhos" }, "geometry": { "type": "Point", "coordinates": [ -46.345484, -23.060962 ] } },
{ "type": "Feature", "properties": { "fid": 245101, "CNPJ": "48948496000156", "IDCIDADE": "PIRACAIA", "NOMEFANTASIA": "V_&_G_CERTIFICADO_DIGITAL", "RAZAOSOCIAL": "VASP_SERVICOS_E_NEGOCIOS_LTDA", "ENDEE": "PRACA BENEDITO PECANHA FRANCO, 28, CENTRO, 12970-000, PIRACAIA, SP, BRASIL", "LMAPS": "https://www.google.com/maps?q=&layer=c&cbll=-23.053353,-46.3610878", "O_QUE_FAZER": "CARTEIRA - FAMPE", "ER_REGIAO_CIDADE_min": "Piracaia_Piracaia_Guarulhos" }, "geometry": { "type": "Point", "coordinates": [ -46.3610878, -23.053353 ] } },
{ "type": "Feature", "properties": { "fid": 248866, "CNPJ": "49790018000123", "IDCIDADE": "PIRACAIA", "NOMEFANTASIA": "49.790.018_JULIANO_TEIXEIRA_LEAO", "RAZAOSOCIAL": "JULIANO_TEIXEIRA_LEAO", "ENDEE": "RUA_BENEDITO_PECANHA_FRANCO65__CENTRO_12970-000", "LMAPS": "https://www.google.com/maps?q=&layer=c&cbll=-23.0532678,-46.3615501", "O_QUE_FAZER": "FINALIZADO", "ER_REGIAO_CIDADE_min": "Piracaia_Piracaia_Guarulhos" }, "geometry": { "type": "Point", "coordinates": [ -46.3615501, -23.0532678 ] } },
{ "type": "Feature", "properties": { "fid": 258874, "CNPJ": "51775808000181", "IDCIDADE": "PIRACAIA", "NOMEFANTASIA": "51.775.808_GEREMIAS_CICERO_DA_SILVA", "RAZAOSOCIAL": "51.775.808_GEREMIAS_CICERO_DA_SILVA", "ENDEE": "AVENIDA_FRANCISCO_DE_ALMEIDA105__SANTO_AFONSO_12970-000", "LMAPS": "https://www.google.com/maps?q=&layer=c&cbll=-23.0502768,-46.3472318", "O_QUE_FAZER": "FINALIZADO", "ER_REGIAO_CIDADE_min": "Piracaia_Piracaia_Guarulhos" }, "geometry": { "type": "Point", "coordinates": [ -46.3472318, -23.0502768 ] } },
{ "type": "Feature", "properties": { "fid": 264691, "CNPJ": "52957262000142", "IDCIDADE": "PIRACAIA", "NOMEFANTASIA": "52.957.262_YASMIN_VITORIA_DA_SILVA", "RAZAOSOCIAL": "DUBAI", "ENDEE": "AVENIDA_FRANCISCO_DE_ALMEIDA36__CAPUAVA_12970-000", "LMAPS": "https://www.google.com/maps?q=&layer=c&cbll=-23.0506585,-46.3474281", "O_QUE_FAZER": "FINALIZADO", "ER_REGIAO_CIDADE_min": "Piracaia_Piracaia_Guarulhos" }, "geometry": { "type": "Point", "coordinates": [ -46.3474281, -23.0506585 ] } },
{ "type": "Feature", "properties": { "fid": 283894, "CNPJ": "57990678000186", "IDCIDADE": "PIRACAIA", "NOMEFANTASIA": "-", "RAZAOSOCIAL": "57.990.678_PEDRO_HENRIQUE_FRANCA_DA_SILVA", "ENDEE": "RUA JOSE AYRES, 35, POUSO ALEGRE, 12970-000, PIRACAIA, SP, BRASIL", "LMAPS": "https://www.google.com/maps?q=&layer=c&cbll=-23.0487987,-46.3366437", "O_QUE_FAZER": "CARTEIRA - FAMPE", "ER_REGIAO_CIDADE_min": "Piracaia_Piracaia_Guarulhos" }, "geometry": { "type": "Point", "coordinates": [ -46.3366437, -23.0487987 ] } },
{ "type": "Feature", "properties": { "fid": 292052, "CNPJ": "60631453000148", "IDCIDADE": "PIRACAIA", "NOMEFANTASIA": null, "RAZAOSOCIAL": "60.631.453_WILLIAN_CAMARGO_GOMES", "ENDEE": "RUA JORGE DE ALMEIDA FRANCO, 107, RECANTO POUSO ALEGRE, 12971-408, PIRACAIA, SP, BRASIL", "LMAPS": "https://www.google.com/maps?q=&layer=c&cbll=-23.0465698,-46.3381822", "O_QUE_FAZER": "CARTEIRA - FAMPE", "ER_REGIAO_CIDADE_min": "Piracaia_Piracaia_Guarulhos" }, "geometry": { "type": "Point", "coordinates": [ -46.3381822, -23.0465698 ] } },
{ "type": "Feature", "properties": { "fid": 293810, "CNPJ": "61240978000115", "IDCIDADE": "PIRACAIA", "NOMEFANTASIA": null, "RAZAOSOCIAL": "61.240.978_MARCELO_EVANGELISTA_DE_QUEIROZ", "ENDEE": "RODOVIA BRO CACHOEIRA ABAIXO, 2050, CASA 2, CACHOEIRA ABAIXO, 12970-000, PIRACAIA, SP, BRASIL", "LMAPS": "https://www.google.com/maps?q=&layer=c&cbll=-23.0568232,-46.382007", "O_QUE_FAZER": "CARTEIRA - FAMPE", "ER_REGIAO_CIDADE_min": "Piracaia_Piracaia_Guarulhos" }, "geometry": { "type": "Point", "coordinates": [ -46.382007, -23.0568232 ] } },
{ "type": "Feature", "properties": { "fid": 300202, "CNPJ": "64404538000144", "IDCIDADE": "PIRACAIA", "NOMEFANTASIA": null, "RAZAOSOCIAL": "64.404.538_LUCAS_DE_OLIVEIRA_GASPAR", "ENDEE": "RUA TURIM, 240, PARQUE SAN MARINO, 12972-234, PIRACAIA, SP, BRASIL", "LMAPS": "https://www.google.com/maps?q=&layer=c&cbll=-23.0650098,-46.3783611", "O_QUE_FAZER": "CARTEIRA - FAMPE", "ER_REGIAO_CIDADE_min": "Piracaia_Piracaia_Guarulhos" }, "geometry": { "type": "Point", "coordinates": [ -46.3783611, -23.0650098 ] } },
{ "type": "Feature", "properties": { "fid": 303516, "CNPJ": "66065608000102", "IDCIDADE": "PIRACAIA", "NOMEFANTASIA": "SAGLE_CONSULTORIA_E_TREINAMENTO_LTDA", "RAZAOSOCIAL": "MEU_CONSULTOR", "ENDEE": "AVENIDA_CAETANO_CARVALHO_BRANDAO520__JARDIM_SANTOS_REIS_12970-000", "LMAPS": "https://www.google.com/maps?q=&layer=c&cbll=-23.0566488,-46.371851", "O_QUE_FAZER": "FINALIZADO", "ER_REGIAO_CIDADE_min": "Piracaia_Piracaia_Guarulhos" }, "geometry": { "type": "Point", "coordinates": [ -46.371851, -23.0566488 ] } },
{ "type": "Feature", "properties": { "fid": 305500, "CNPJ": "67083423000193", "IDCIDADE": "PIRACAIA", "NOMEFANTASIA": null, "RAZAOSOCIAL": "67.083.423_ANTONIO_MARCIANO_DA_SILVA_NETO", "ENDEE": "RUA JOSE MAIA DA SILVA, 18, RECANTO DOS MAIAS, 12970-276, PIRACAIA, SP, BRASIL", "LMAPS": "https://www.google.com/maps?q=&layer=c&cbll=-23.0590184,-46.3473668", "O_QUE_FAZER": "CARTEIRA - FAMPE", "ER_REGIAO_CIDADE_min": "Piracaia_Piracaia_Guarulhos" }, "geometry": { "type": "Point", "coordinates": [ -46.3473668, -23.0590184 ] } },
{ "type": "Feature", "properties": { "fid": 312804, "CNPJ": "56905042000126", "IDCIDADE": "Piracaia", "NOMEFANTASIA": "AFETOMED CUIDADORES", "RAZAOSOCIAL": "AFETOMED CUIDADORES LTDA", "ENDEE": "RUA DOUTOR FLAVIO DEL NERO, 60, RESIDENCIAL MANTIQUEIRA, 12970-262, PIRACAIA, SP, BRASIL", "LMAPS": "https://www.google.com/maps?q=&layer=c&cbll=-23.0556364,-46.343605", "O_QUE_FAZER": "FINALIZADO", "ER_REGIAO_CIDADE_min": "Piracaia_Piracaia_Guarulhos" }, "geometry": { "type": "Point", "coordinates": [ -46.343605, -23.0556364 ] } }
]
}
