{
"type": "FeatureCollection",
"name": "ER_REGIAO_CIDADE_min_Ubirajara_Ubirajara_Bauru",
"crs": { "type": "name", "properties": { "name": "urn:ogc:def:crs:OGC:1.3:CRS84" } },
"xy_coordinate_resolution": 1e-15,
"features": [
{ "type": "Feature", "properties": { "CNPJ": "21998399000111", "IDCIDADE": "UBIRAJARA", "NOMEFANTASIA": "PAO_&_CIA", "RAZAOSOCIAL": "L._F._DE_MATOS_MOTERANI", "ENDEE": "RUA_DONA_BELA_DE_LIMA89__CENTRO_17440-003", "LMAPS": "https://www.google.com/maps?q=&layer=c&cbll=-49.6638444,-22.5238253", "O_QUE_FAZER": "CARTEIRA", "ER_REGIAO_CIDADE_min": "Ubirajara_Ubirajara_Bauru" }, "geometry": { "type": "Point", "coordinates": [ -49.6638444, -22.5238253 ] } },
{ "type": "Feature", "properties": { "CNPJ": "23010013000147", "IDCIDADE": "UBIRAJARA", "NOMEFANTASIA": "MARQUES_&_NADAI", "RAZAOSOCIAL": "CASA_MARQUES_&_NADAI_LTDA", "ENDEE": "PRACA_SEGUNDO_BOCARDI25__CENTRO_17440-005", "LMAPS": "https://www.google.com/maps?q=&layer=c&cbll=-49.6644555,-22.5239042", "O_QUE_FAZER": "CARTEIRA", "ER_REGIAO_CIDADE_min": "Ubirajara_Ubirajara_Bauru" }, "geometry": { "type": "Point", "coordinates": [ -49.6644555, -22.5239042 ] } },
{ "type": "Feature", "properties": { "CNPJ": "41316414000101", "IDCIDADE": "UBIRAJARA", "NOMEFANTASIA": "CASA_DE_CARNES_CRISTAL", "RAZAOSOCIAL": "MICHELE_RAMOS_ARAUJO", "ENDEE": "RUA_PREFEITO_JOSE_FERREIRA_DIAS205__CENTRO_17440-009", "LMAPS": "https://www.google.com/maps?q=&layer=c&cbll=-49.6651683,-22.5250967", "O_QUE_FAZER": "CARTEIRA", "ER_REGIAO_CIDADE_min": "Ubirajara_Ubirajara_Bauru" }, "geometry": { "type": "Point", "coordinates": [ -49.6651683, -22.5250967 ] } },
{ "type": "Feature", "properties": { "CNPJ": "51502778000210", "IDCIDADE": "UBIRAJARA", "NOMEFANTASIA": "BRAVIN_UBIRAJARA", "RAZAOSOCIAL": "AGROPECUARIA_J_BRAVIN_LTDA", "ENDEE": "RUA_PREFEITO_JOSE_FERREIRA_DIAS432__CENTRO_17440-009", "LMAPS": "https://www.google.com/maps?q=&layer=c&cbll=-49.6648723,-22.5249792", "O_QUE_FAZER": "CARTEIRA", "ER_REGIAO_CIDADE_min": "Ubirajara_Ubirajara_Bauru" }, "geometry": { "type": "Point", "coordinates": [ -49.6648723, -22.5249792 ] } },
{ "type": "Feature", "properties": { "CNPJ": "51992444000191", "IDCIDADE": "UBIRAJARA", "NOMEFANTASIA": "SUPERMERCADO_UBIRAJARA", "RAZAOSOCIAL": "SUPERMERCADO_UBIRAJARENSE_LTDA", "ENDEE": "RUA_GASPAR_RICARDO197__CENTRO_17440-017", "LMAPS": "https://www.google.com/maps?q=&layer=c&cbll=-49.6623893,-22.5260105", "O_QUE_FAZER": "CARTEIRA", "ER_REGIAO_CIDADE_min": "Ubirajara_Ubirajara_Bauru" }, "geometry": { "type": "Point", "coordinates": [ -49.6623893, -22.5260105 ] } },
{ "type": "Feature", "properties": { "CNPJ": "03393354000131", "IDCIDADE": "UBIRAJARA", "NOMEFANTASIA": "PANIFICADORA_CENTRAL", "RAZAOSOCIAL": "MAERCIO_DOS_SANTOS", "ENDEE": "RUA_GASPAR_RICARDO207__CENTRO_17440-017", "LMAPS": "https://www.google.com/maps?q=&layer=c&cbll=-49.6620083,-22.5259483", "O_QUE_FAZER": "CARTEIRA", "ER_REGIAO_CIDADE_min": "Ubirajara_Ubirajara_Bauru" }, "geometry": { "type": "Point", "coordinates": [ -49.6620083, -22.5259483 ] } },
{ "type": "Feature", "properties": { "CNPJ": "30908849000129", "IDCIDADE": "UBIRAJARA", "NOMEFANTASIA": "CADA_DETALHE", "RAZAOSOCIAL": "RODRIGO_GONCALVES_DOS_SANTOS_-_LOJAS_DE_VARIEDADES", "ENDEE": "RUA_GASPAR_RICARDO208__CENTRO_17440-017", "LMAPS": "https://www.google.com/maps?q=&layer=c&cbll=-49.6617964,-22.5260703", "O_QUE_FAZER": "CARTEIRA", "ER_REGIAO_CIDADE_min": "Ubirajara_Ubirajara_Bauru" }, "geometry": { "type": "Point", "coordinates": [ -49.6617964, -22.5260703 ] } },
{ "type": "Feature", "properties": { "CNPJ": "29425751000131", "IDCIDADE": "UBIRAJARA", "NOMEFANTASIA": "DROGARIA_TOTAL", "RAZAOSOCIAL": "DROGARIA_R.M._MORAIS_LTDA", "ENDEE": "RUA_GASPAR_RICARDO334__CENTRO_17440-017", "LMAPS": "https://www.google.com/maps?q=&layer=c&cbll=-49.6635675,-22.5265325", "O_QUE_FAZER": "CARTEIRA", "ER_REGIAO_CIDADE_min": "Ubirajara_Ubirajara_Bauru" }, "geometry": { "type": "Point", "coordinates": [ -49.6635675, -22.5265325 ] } },
{ "type": "Feature", "properties": { "CNPJ": "11551106000108", "IDCIDADE": "UBIRAJARA", "NOMEFANTASIA": "DROGA_FARMA", "RAZAOSOCIAL": "MONTEIRO_E_RADIGHIERI_DROGARIA_LTDA", "ENDEE": "RUA_GASPAR_RICARDO47__CENTRO_17440-017", "LMAPS": "https://www.google.com/maps?q=&layer=c&cbll=-49.663763,-22.5264191", "O_QUE_FAZER": "CARTEIRA", "ER_REGIAO_CIDADE_min": "Ubirajara_Ubirajara_Bauru" }, "geometry": { "type": "Point", "coordinates": [ -49.663763, -22.5264191 ] } },
{ "type": "Feature", "properties": { "CNPJ": "10773855000109", "IDCIDADE": "UBIRAJARA", "NOMEFANTASIA": "CACADOR_AGROPECUARIA", "RAZAOSOCIAL": "AGROPECUARIA_E_COMERCIO_DE_MATERIAL_DE_CONSTRUCAO_CACADOR_LTDA", "ENDEE": "RUA_PROFESSORA_MARIA_DO_CARMOS_SOARES_CORREIA_QUEIROZ508__CENTRO_17440-023", "LMAPS": "https://www.google.com/maps?q=&layer=c&cbll=-49.6626467,-22.5284233", "O_QUE_FAZER": "CARTEIRA", "ER_REGIAO_CIDADE_min": "Ubirajara_Ubirajara_Bauru" }, "geometry": { "type": "Point", "coordinates": [ -49.6626467, -22.5284233 ] } },
{ "type": "Feature", "properties": { "CNPJ": "41534737000171", "IDCIDADE": "UBIRAJARA", "NOMEFANTASIA": "BUENO_&_MENDES_SOLUCOES", "RAZAOSOCIAL": "BUENO_SOLUCOES_E_COMERCIO_LTDA", "ENDEE": "RUA_PROFESSORA_MARIA_DO_CARMOS_SOARES_CORREIA_QUEIROZ660__CENTRO_17440-023", "LMAPS": "https://www.google.com/maps?q=&layer=c&cbll=-49.6616041,-22.5279975", "O_QUE_FAZER": "CARTEIRA", "ER_REGIAO_CIDADE_min": "Ubirajara_Ubirajara_Bauru" }, "geometry": { "type": "Point", "coordinates": [ -49.6616041, -22.5279975 ] } },
{ "type": "Feature", "properties": { "CNPJ": "74606351000187", "IDCIDADE": "UBIRAJARA", "NOMEFANTASIA": "PURO_VICIO_UBIRAJARA", "RAZAOSOCIAL": "NILDA_ALMEIDA_DOS_SANTOS_CONFECCOES", "ENDEE": "RUA_PROFESSORA_MARIA_DO_CARMOS_SOARES_CORREIA_QUEIROZ673__CENTRO_17440-023", "LMAPS": "https://www.google.com/maps?q=&layer=c&cbll=-49.6613984,-22.5277385", "O_QUE_FAZER": "CARTEIRA", "ER_REGIAO_CIDADE_min": "Ubirajara_Ubirajara_Bauru" }, "geometry": { "type": "Point", "coordinates": [ -49.6613984, -22.5277385 ] } },
{ "type": "Feature", "properties": { "CNPJ": "08901806000243", "IDCIDADE": "UBIRAJARA", "NOMEFANTASIA": "NUNES_GAS", "RAZAOSOCIAL": "MARIA_PEREIRA_NUNES_FERREIRA", "ENDEE": "RUA_DONA_MARIA_JACINTA419__CENTRO_17440-025", "LMAPS": "https://www.google.com/maps?q=&layer=c&cbll=-49.6622462,-22.5268703", "O_QUE_FAZER": "CARTEIRA", "ER_REGIAO_CIDADE_min": "Ubirajara_Ubirajara_Bauru" }, "geometry": { "type": "Point", "coordinates": [ -49.6622462, -22.5268703 ] } },
{ "type": "Feature", "properties": { "CNPJ": "04226206000195", "IDCIDADE": "UBIRAJARA", "NOMEFANTASIA": "CASA_TABANEZ", "RAZAOSOCIAL": "CASA_TABANEZ_MATERIAIS_E_SERVICOS_LTDA", "ENDEE": "RUA_DONA_MARIA_JACINTA635__CENTRO_17440-025", "LMAPS": "https://www.google.com/maps?q=&layer=c&cbll=-49.6621777,-22.5281149", "O_QUE_FAZER": "CARTEIRA", "ER_REGIAO_CIDADE_min": "Ubirajara_Ubirajara_Bauru" }, "geometry": { "type": "Point", "coordinates": [ -49.6621777, -22.5281149 ] } },
{ "type": "Feature", "properties": { "CNPJ": "10417873000158", "IDCIDADE": "UBIRAJARA", "NOMEFANTASIA": "EMPORIO_NORDESTINA", "RAZAOSOCIAL": "LILIAN_A.C_DOS_SANTOS_PETSHOP", "ENDEE": "RUA_LAZARO_MACHADO_DE_OLIVEIRA207__CENTRO_17440-029", "LMAPS": "https://www.google.com/maps?q=&layer=c&cbll=-49.6646741,-22.5239946", "O_QUE_FAZER": "CARTEIRA", "ER_REGIAO_CIDADE_min": "Ubirajara_Ubirajara_Bauru" }, "geometry": { "type": "Point", "coordinates": [ -49.6646741, -22.5239946 ] } },
{ "type": "Feature", "properties": { "CNPJ": "49118987000132", "IDCIDADE": "UBIRAJARA", "NOMEFANTASIA": "SABOR_DA_BAHIA", "RAZAOSOCIAL": "L_F_FARIA", "ENDEE": "RUA_MAJOR_LEONIDAS_VIEIRA263__CENTRO_17440-029", "LMAPS": "https://www.google.com/maps?q=&layer=c&cbll=-49.6633216,-22.5253648", "O_QUE_FAZER": "CARTEIRA", "ER_REGIAO_CIDADE_min": "Ubirajara_Ubirajara_Bauru" }, "geometry": { "type": "Point", "coordinates": [ -49.6633216, -22.5253648 ] } },
{ "type": "Feature", "properties": { "CNPJ": "54107792000127", "IDCIDADE": "UBIRAJARA", "NOMEFANTASIA": "DROGARIA_NS_APARECIDA", "RAZAOSOCIAL": "DROGARIA_N_S_APARECIDA_DE_UBIRAJARA_LTDA", "ENDEE": "RUA_LAZARO_MACHADO_DE_OLIVEIRA360__CENTRO_17440-031", "LMAPS": "https://www.google.com/maps?q=&layer=c&cbll=-49.6641197,-22.5258838", "O_QUE_FAZER": "CARTEIRA", "ER_REGIAO_CIDADE_min": "Ubirajara_Ubirajara_Bauru" }, "geometry": { "type": "Point", "coordinates": [ -49.6641197, -22.5258838 ] } },
{ "type": "Feature", "properties": { "CNPJ": "26942457000109", "IDCIDADE": "UBIRAJARA", "NOMEFANTASIA": "M3_REPRESENTACOES", "RAZAOSOCIAL": "A._M._M._MORENO_CONSULTORIA_E_COMERCIO", "ENDEE": "RUA_JOSE_FRANCISCO_LEONEL190__CENTRO_17440-150", "LMAPS": "https://www.google.com/maps?q=&layer=c&cbll=-49.66104,-22.5286", "O_QUE_FAZER": "CARTEIRA", "ER_REGIAO_CIDADE_min": "Ubirajara_Ubirajara_Bauru" }, "geometry": { "type": "Point", "coordinates": [ -49.66104, -22.5286 ] } },
{ "type": "Feature", "properties": { "CNPJ": "03155395000190", "IDCIDADE": "UBIRAJARA", "NOMEFANTASIA": "MINI_PAO_PANIFICADORA", "RAZAOSOCIAL": "PANIFICADORA_MINI_PAO_DE_UBIRAJARA_LTDA", "ENDEE": "RUA_JOSE_FRANCISCO_LEONEL200__CENTRO_17440-150", "LMAPS": "https://www.google.com/maps?q=&layer=c&cbll=-49.6609938,-22.5286428", "O_QUE_FAZER": "CARTEIRA", "ER_REGIAO_CIDADE_min": "Ubirajara_Ubirajara_Bauru" }, "geometry": { "type": "Point", "coordinates": [ -49.6609938, -22.5286428 ] } },
{ "type": "Feature", "properties": { "CNPJ": "27872652000172", "IDCIDADE": "UBIRAJARA", "NOMEFANTASIA": "ZANETI_GAS", "RAZAOSOCIAL": "MATHEUS_ZANETI_DE_OLIVEIRA", "ENDEE": "RUA_JOAO_JACINTHO_DE_SIQUEIRA653__VILA_MARIA_17440-152", "LMAPS": "https://www.google.com/maps?q=&layer=c&cbll=-49.6593579,-22.5293812", "O_QUE_FAZER": "CARTEIRA", "ER_REGIAO_CIDADE_min": "Ubirajara_Ubirajara_Bauru" }, "geometry": { "type": "Point", "coordinates": [ -49.6593579, -22.5293812 ] } },
{ "type": "Feature", "properties": { "CNPJ": "05214674000102", "IDCIDADE": "UBIRAJARA", "NOMEFANTASIA": "MERCADO_UNIAO", "RAZAOSOCIAL": "EUZA_DE_JESUS_BOMFIM_ALEXANDRE", "ENDEE": "RUA_VEREADOR_ANTONIO_MAURO_BRIQUEZI350__VILA_MARIA_17440-156", "LMAPS": "https://www.google.com/maps?q=&layer=c&cbll=-49.6585416,-22.5294312", "O_QUE_FAZER": "CARTEIRA", "ER_REGIAO_CIDADE_min": "Ubirajara_Ubirajara_Bauru" }, "geometry": { "type": "Point", "coordinates": [ -49.6585416, -22.5294312 ] } },
{ "type": "Feature", "properties": { "CNPJ": "31349168000130", "IDCIDADE": "UBIRAJARA", "NOMEFANTASIA": "NADAI_GAS", "RAZAOSOCIAL": "NADAI_COMERCIO_DE_GAS_LTDA", "ENDEE": "RUA_VEREADOR_RUBENS_ALVES_DE_OLIVEIRA445__VILA_MARIA_17440-158", "LMAPS": "https://www.google.com/maps?q=&layer=c&cbll=-49.658121,-22.5278319", "O_QUE_FAZER": "CARTEIRA", "ER_REGIAO_CIDADE_min": "Ubirajara_Ubirajara_Bauru" }, "geometry": { "type": "Point", "coordinates": [ -49.658121, -22.5278319 ] } },
{ "type": "Feature", "properties": { "CNPJ": "44393792000187", "IDCIDADE": "UBIRAJARA", "NOMEFANTASIA": "ATO_CONTABIL", "RAZAOSOCIAL": "ATO_ESCRITORIO_CONTABIL_LTDA", "ENDEE": "RUA_VEREADOR_RUBENS_ALVES_DE_OLIVEIRA471__VILA_MARIA_17440-158", "LMAPS": "https://www.google.com/maps?q=&layer=c&cbll=-49.6580166,-22.528076", "O_QUE_FAZER": "CARTEIRA", "ER_REGIAO_CIDADE_min": "Ubirajara_Ubirajara_Bauru" }, "geometry": { "type": "Point", "coordinates": [ -49.6580166, -22.528076 ] } },
{ "type": "Feature", "properties": { "CNPJ": "18835448000190", "IDCIDADE": "UBIRAJARA", "NOMEFANTASIA": "PAULINVET", "RAZAOSOCIAL": "PAULO_HENRIQUE_FONTES_MARINI", "ENDEE": "AVENIDA_JOAO_BOCARDI225__VILA_MARIA_17440-180", "LMAPS": "https://www.google.com/maps?q=&layer=c&cbll=-49.6603986,-22.5294397", "O_QUE_FAZER": "CARTEIRA", "ER_REGIAO_CIDADE_min": "Ubirajara_Ubirajara_Bauru" }, "geometry": { "type": "Point", "coordinates": [ -49.6603986, -22.5294397 ] } }
]
}
