{
"type": "FeatureCollection",
"name": "ER_REGIAO_CIDADE_min_Júlio Mesquita_Bauru",
"crs": { "type": "name", "properties": { "name": "urn:ogc:def:crs:OGC:1.3:CRS84" } },
"xy_coordinate_resolution": 1e-15,
"features": [
{ "type": "Feature", "properties": { "CNPJ": "03587346000126", "IDCIDADE": "JULIO_MESQUITA", "NOMEFANTASIA": "SUPERMERCADO_LISBON", "RAZAOSOCIAL": "NELSON_ERNANDES_DA_FONSECA", "ENDEE": "RUA_SETE_DE_SETEMBRO1010__CENTRO_17550-001", "LMAPS": "https://www.google.com/maps?q=&layer=c&cbll=-49.7854298,-22.0083971", "O_QUE_FAZER": "CARTEIRA", "ER_REGIAO_CIDADE_min": "Júlio Mesquita_Bauru" }, "geometry": { "type": "Point", "coordinates": [ -49.7854298, -22.0083971 ] } },
{ "type": "Feature", "properties": { "CNPJ": "43292481000169", "IDCIDADE": "JULIO_MESQUITA", "NOMEFANTASIA": "SUPERMERCADO_PONTUAL", "RAZAOSOCIAL": "ELVIRA_CAZUCO_IRYN", "ENDEE": "AVENIDA_DOUTOR_HORACIO_SABINO347__CENTRO_17550-005", "LMAPS": "https://www.google.com/maps?q=&layer=c&cbll=-49.7912379,-22.0118387", "O_QUE_FAZER": "CARTEIRA", "ER_REGIAO_CIDADE_min": "Júlio Mesquita_Bauru" }, "geometry": { "type": "Point", "coordinates": [ -49.7912379, -22.0118387 ] } },
{ "type": "Feature", "properties": { "CNPJ": "18556184000136", "IDCIDADE": "JULIO_MESQUITA", "NOMEFANTASIA": "BIA_MARCH", "RAZAOSOCIAL": "FABIANA_SANTANA_COSTA_MARCHI", "ENDEE": "AVENIDA_DOUTOR_HORACIO_SABINO437__CENTRO_17550-005", "LMAPS": "https://www.google.com/maps?q=&layer=c&cbll=-49.7905986,-22.0110905", "O_QUE_FAZER": "CARTEIRA", "ER_REGIAO_CIDADE_min": "Júlio Mesquita_Bauru" }, "geometry": { "type": "Point", "coordinates": [ -49.7905986, -22.0110905 ] } },
{ "type": "Feature", "properties": { "CNPJ": "04791808000195", "IDCIDADE": "JULIO_MESQUITA", "NOMEFANTASIA": "MANDALA_DA_SORTE", "RAZAOSOCIAL": "MANDALA_DA_SORTE_LOTERIAS_LTDA", "ENDEE": "AVENIDA_DOUTOR_HORACIO_SABINO461__CENTRO_17550-005", "LMAPS": "https://www.google.com/maps?q=&layer=c&cbll=-49.7903996,-22.0108928", "O_QUE_FAZER": "CARTEIRA", "ER_REGIAO_CIDADE_min": "Júlio Mesquita_Bauru" }, "geometry": { "type": "Point", "coordinates": [ -49.7903996, -22.0108928 ] } },
{ "type": "Feature", "properties": { "CNPJ": "07581528000140", "IDCIDADE": "JULIO_MESQUITA", "NOMEFANTASIA": "DROGARIA_MULTI_FARMA", "RAZAOSOCIAL": "DROGARIA_MULTI_FARMA_JM_LTDA", "ENDEE": "AVENIDA_DOUTOR_HORACIO_SABINO471__CENTRO_17550-005", "LMAPS": "https://www.google.com/maps?q=&layer=c&cbll=-49.7903883,-22.0108367", "O_QUE_FAZER": "CARTEIRA", "ER_REGIAO_CIDADE_min": "Júlio Mesquita_Bauru" }, "geometry": { "type": "Point", "coordinates": [ -49.7903883, -22.0108367 ] } },
{ "type": "Feature", "properties": { "CNPJ": "04953943000190", "IDCIDADE": "JULIO_MESQUITA", "NOMEFANTASIA": "PAPELARTE", "RAZAOSOCIAL": "MARIA_ANEQUINE_DE_MACEDO", "ENDEE": "AVENIDA_DOUTOR_HORACIO_SABINO471__CENTRO_17550-005", "LMAPS": "https://www.google.com/maps?q=&layer=c&cbll=-49.7903969,-22.0109146", "O_QUE_FAZER": "CARTEIRA", "ER_REGIAO_CIDADE_min": "Júlio Mesquita_Bauru" }, "geometry": { "type": "Point", "coordinates": [ -49.7903969, -22.0109146 ] } },
{ "type": "Feature", "properties": { "CNPJ": "47200012000123", "IDCIDADE": "JULIO_MESQUITA", "NOMEFANTASIA": "TONINHO_MC", "RAZAOSOCIAL": "RENAN_MATERIAL_DE_CONSTRUCAO_LTDA", "ENDEE": "AVENIDA_DOUTOR_HORACIO_SABINO620__CENTRO_17550-005", "LMAPS": "https://www.google.com/maps?q=&layer=c&cbll=-49.7894549,-22.0098707", "O_QUE_FAZER": "CARTEIRA", "ER_REGIAO_CIDADE_min": "Júlio Mesquita_Bauru" }, "geometry": { "type": "Point", "coordinates": [ -49.7894549, -22.0098707 ] } },
{ "type": "Feature", "properties": { "CNPJ": "74369786000155", "IDCIDADE": "JULIO_MESQUITA", "NOMEFANTASIA": "MOVEIS_VENEZA", "RAZAOSOCIAL": "MARIO_PEREIRA_GUAIMBE", "ENDEE": "AVENIDA_DOUTOR_HORACIO_SABINO721__CENTRO_17550-005", "LMAPS": "https://www.google.com/maps?q=&layer=c&cbll=-49.7889827,-22.0091003", "O_QUE_FAZER": "CARTEIRA", "ER_REGIAO_CIDADE_min": "Júlio Mesquita_Bauru" }, "geometry": { "type": "Point", "coordinates": [ -49.7889827, -22.0091003 ] } },
{ "type": "Feature", "properties": { "CNPJ": "26507184000174", "IDCIDADE": "JULIO_MESQUITA", "NOMEFANTASIA": "SUPERMERCADO_ELIANA", "RAZAOSOCIAL": "M_R_PALU_PRODUTOS_ALIMENTICIOS_LTDA", "ENDEE": "RUA_JOAO_BECAO321__CENTRO_17550-007", "LMAPS": "https://www.google.com/maps?q=&layer=c&cbll=-49.7923317,-22.01131", "O_QUE_FAZER": "CARTEIRA", "ER_REGIAO_CIDADE_min": "Júlio Mesquita_Bauru" }, "geometry": { "type": "Point", "coordinates": [ -49.7923317, -22.01131 ] } },
{ "type": "Feature", "properties": { "CNPJ": "26144499000102", "IDCIDADE": "JULIO_MESQUITA", "NOMEFANTASIA": "FERNET_CONTABIL", "RAZAOSOCIAL": "ADRIANO_FERNET", "ENDEE": "RUA_JOAO_BECAO500__CENTRO_17550-007", "LMAPS": "https://www.google.com/maps?q=&layer=c&cbll=-49.7908227,-22.0103174", "O_QUE_FAZER": "CARTEIRA", "ER_REGIAO_CIDADE_min": "Júlio Mesquita_Bauru" }, "geometry": { "type": "Point", "coordinates": [ -49.7908227, -22.0103174 ] } },
{ "type": "Feature", "properties": { "CNPJ": "01887714000126", "IDCIDADE": "JULIO_MESQUITA", "NOMEFANTASIA": "PADOKA_PANIFICADORA", "RAZAOSOCIAL": "PANIFICADORA_PEREIRA_ROGERIO_DOS_SANTOS_LTDA", "ENDEE": "RUA_JOAO_BECAO570__CENTRO_17550-007", "LMAPS": "https://www.google.com/maps?q=&layer=c&cbll=-49.7902899,-22.0095521", "O_QUE_FAZER": "CARTEIRA", "ER_REGIAO_CIDADE_min": "Júlio Mesquita_Bauru" }, "geometry": { "type": "Point", "coordinates": [ -49.7902899, -22.0095521 ] } },
{ "type": "Feature", "properties": { "CNPJ": "73150641000104", "IDCIDADE": "JULIO_MESQUITA", "NOMEFANTASIA": "CASA_DE_CARNES_CONFIANCA", "RAZAOSOCIAL": "CARLOS_RIBERTO_DOS_SANTOS", "ENDEE": "RUA_FRANCISCO_DA_FONSECA344__CENTRO_17550-035", "LMAPS": "https://www.google.com/maps?q=&layer=c&cbll=-49.7905367,-22.01032", "O_QUE_FAZER": "CARTEIRA", "ER_REGIAO_CIDADE_min": "Júlio Mesquita_Bauru" }, "geometry": { "type": "Point", "coordinates": [ -49.7905367, -22.01032 ] } },
{ "type": "Feature", "properties": { "CNPJ": "60281037000167", "IDCIDADE": "JULIO_MESQUITA", "NOMEFANTASIA": "POLIFERROS", "RAZAOSOCIAL": "POLIFERROS-IND_E_COM_DE_MAT_P/_CONSTRUCAO_LTDA", "ENDEE": "RUA_LAERCIO_JOSE_ROMERO85__CENTRO_17550-200", "LMAPS": "https://www.google.com/maps?q=&layer=c&cbll=-49.791034,-22.0156524", "O_QUE_FAZER": "CARTEIRA", "ER_REGIAO_CIDADE_min": "Júlio Mesquita_Bauru" }, "geometry": { "type": "Point", "coordinates": [ -49.791034, -22.0156524 ] } },
{ "type": "Feature", "properties": { "CNPJ": "55633245000148", "IDCIDADE": "JULIO_MESQUITA", "NOMEFANTASIA": "55.633.245_SUELY_DA_SILVA_GUERREIRO", "RAZAOSOCIAL": "VENUSTA", "ENDEE": "RUA_SETE_DE_SETEMBRO473__CENTRO_17550-001", "LMAPS": "https://www.google.com/maps?q=&layer=c&cbll=-49.7888982,-22.0119589", "O_QUE_FAZER": "FINALIZADO", "ER_REGIAO_CIDADE_min": "Júlio Mesquita_Bauru" }, "geometry": { "type": "Point", "coordinates": [ -49.7888982, -22.0119589 ] } },
{ "type": "Feature", "properties": { "CNPJ": "51718589000107", "IDCIDADE": "JULIO_MESQUITA", "NOMEFANTASIA": "DOCE_SABOR_RESTAURANTE_E_DOCERIA_LTDA", "RAZAOSOCIAL": "DOCE_SABOR", "ENDEE": "RUA_SETE_DE_SETEMBRO510__CENTRO_17550-001", "LMAPS": "https://www.google.com/maps?q=&layer=c&cbll=-49.7885176,-22.0118568", "O_QUE_FAZER": "FINALIZADO", "ER_REGIAO_CIDADE_min": "Júlio Mesquita_Bauru" }, "geometry": { "type": "Point", "coordinates": [ -49.7885176, -22.0118568 ] } },
{ "type": "Feature", "properties": { "CNPJ": "18575791000143", "IDCIDADE": "JULIO_MESQUITA", "NOMEFANTASIA": "MRF_MATERIAS_DE_CONSTRUCAO_LTDA", "RAZAOSOCIAL": "COMPANHIA_DO_ACO", "ENDEE": "AVENIDA_DOUTOR_HORACIO_SABINO1024__CENTRO_17550-005", "LMAPS": "https://www.google.com/maps?q=&layer=c&cbll=-49.7871047,-22.0076014", "O_QUE_FAZER": "FINALIZADO", "ER_REGIAO_CIDADE_min": "Júlio Mesquita_Bauru" }, "geometry": { "type": "Point", "coordinates": [ -49.7871047, -22.0076014 ] } },
{ "type": "Feature", "properties": { "CNPJ": "42367386000114", "IDCIDADE": "JULIO_MESQUITA", "NOMEFANTASIA": "ERNESTO_DE_OLIVEIRA_JUNIOR_17172003896", "RAZAOSOCIAL": "LAN_HOUSE", "ENDEE": "AVENIDA_DOUTOR_HORACIO_SABINO437__CENTRO_17550-005", "LMAPS": "https://www.google.com/maps?q=&layer=c&cbll=-49.7906387,-22.0111254", "O_QUE_FAZER": "FINALIZADO", "ER_REGIAO_CIDADE_min": "Júlio Mesquita_Bauru" }, "geometry": { "type": "Point", "coordinates": [ -49.7906387, -22.0111254 ] } },
{ "type": "Feature", "properties": { "CNPJ": "59718598000100", "IDCIDADE": "JULIO_MESQUITA", "NOMEFANTASIA": "RIS_MATERIAIS_DE_CONSTRUCAO_LTDA", "RAZAOSOCIAL": "TONINHO_MC", "ENDEE": "AVENIDA_DOUTOR_HORACIO_SABINO603__CENTRO_17550-005", "LMAPS": "https://www.google.com/maps?q=&layer=c&cbll=-49.7895132,-22.0098644", "O_QUE_FAZER": "FINALIZADO", "ER_REGIAO_CIDADE_min": "Júlio Mesquita_Bauru" }, "geometry": { "type": "Point", "coordinates": [ -49.7895132, -22.0098644 ] } },
{ "type": "Feature", "properties": { "CNPJ": "10533491000190", "IDCIDADE": "JULIO_MESQUITA", "NOMEFANTASIA": "MARCOS_PAULO_FURLAN_-_VERDURAS", "RAZAOSOCIAL": "VALVERDE", "ENDEE": "AVENIDA_DOUTOR_HORACIO_SABINO610__CENTRO_17550-005", "LMAPS": "https://www.google.com/maps?q=&layer=c&cbll=-49.7893927,-22.0100323", "O_QUE_FAZER": "FINALIZADO", "ER_REGIAO_CIDADE_min": "Júlio Mesquita_Bauru" }, "geometry": { "type": "Point", "coordinates": [ -49.7893927, -22.0100323 ] } },
{ "type": "Feature", "properties": { "CNPJ": "19067046000156", "IDCIDADE": "JULIO_MESQUITA", "NOMEFANTASIA": "19.067.046_JOSE_VALTER_FERREIRA", "RAZAOSOCIAL": "JOSE_VALTER", "ENDEE": "AVENIDA_DOUTOR_HORACIO_SABINO632__CENTRO_17550-005", "LMAPS": "https://www.google.com/maps?q=&layer=c&cbll=-49.7930448,-22.0142198", "O_QUE_FAZER": "FINALIZADO", "ER_REGIAO_CIDADE_min": "Júlio Mesquita_Bauru" }, "geometry": { "type": "Point", "coordinates": [ -49.7930448, -22.0142198 ] } },
{ "type": "Feature", "properties": { "CNPJ": "24175836000195", "IDCIDADE": "JULIO_MESQUITA", "NOMEFANTASIA": "CLAUDINEIA_GUEDES_FERREIRA_73009687249", "RAZAOSOCIAL": "JOSE_TINTAS", "ENDEE": "AVENIDA_DOUTOR_HORACIO_SABINO649__CENTRO_17550-005", "LMAPS": "https://www.google.com/maps?q=&layer=c&cbll=-49.7893152,-22.0096115", "O_QUE_FAZER": "FINALIZADO", "ER_REGIAO_CIDADE_min": "Júlio Mesquita_Bauru" }, "geometry": { "type": "Point", "coordinates": [ -49.7893152, -22.0096115 ] } },
{ "type": "Feature", "properties": { "CNPJ": "14110679000186", "IDCIDADE": "JULIO_MESQUITA", "NOMEFANTASIA": "NILZA_APARECIDA_MENDES_SOARES_BATISTA_26068470830", "RAZAOSOCIAL": "VITORIA", "ENDEE": "AVENIDA_DOUTOR_HORACIO_SABINO667__CENTRO_17550-005", "LMAPS": "https://www.google.com/maps?q=&layer=c&cbll=-49.7892769,-22.0094522", "O_QUE_FAZER": "FINALIZADO", "ER_REGIAO_CIDADE_min": "Júlio Mesquita_Bauru" }, "geometry": { "type": "Point", "coordinates": [ -49.7892769, -22.0094522 ] } },
{ "type": "Feature", "properties": { "CNPJ": "39477964000160", "IDCIDADE": "JULIO_MESQUITA", "NOMEFANTASIA": "MARIZA_MARIUSSO_DO_NASCIMENTO", "RAZAOSOCIAL": "MARIUCCI", "ENDEE": "AVENIDA_DOUTOR_HORACIO_SABINO678__CENTRO_17550-005", "LMAPS": "https://www.google.com/maps?q=&layer=c&cbll=-49.7927013,-22.0137387", "O_QUE_FAZER": "FINALIZADO", "ER_REGIAO_CIDADE_min": "Júlio Mesquita_Bauru" }, "geometry": { "type": "Point", "coordinates": [ -49.7927013, -22.0137387 ] } },
{ "type": "Feature", "properties": { "CNPJ": "00874725000109", "IDCIDADE": "JULIO_MESQUITA", "NOMEFANTASIA": "ANTONIO_ROBERTO_DA_SILVA_JULIO_MESQUITA", "RAZAOSOCIAL": "MERCADO_ROMAO", "ENDEE": "AVENIDA_DOUTOR_HORACIO_SABINO781__CENTRO_17550-005", "LMAPS": "https://www.google.com/maps?q=&layer=c&cbll=-49.7885638,-22.0086444", "O_QUE_FAZER": "FINALIZADO", "ER_REGIAO_CIDADE_min": "Júlio Mesquita_Bauru" }, "geometry": { "type": "Point", "coordinates": [ -49.7885638, -22.0086444 ] } },
{ "type": "Feature", "properties": { "CNPJ": "62747891000100", "IDCIDADE": "JULIO_MESQUITA", "NOMEFANTASIA": "62.747.891_LARISSA_CRISTINA_DOS_SANTOS", "RAZAOSOCIAL": "CASA_DE_CARNES_JM", "ENDEE": "AVENIDA_DOUTOR_HORACIO_SABINO828__CENTRO_17550-005", "LMAPS": "https://www.google.com/maps?q=&layer=c&cbll=-49.7880149,-22.0085168", "O_QUE_FAZER": "FINALIZADO", "ER_REGIAO_CIDADE_min": "Júlio Mesquita_Bauru" }, "geometry": { "type": "Point", "coordinates": [ -49.7880149, -22.0085168 ] } },
{ "type": "Feature", "properties": { "CNPJ": "26842860000166", "IDCIDADE": "JULIO_MESQUITA", "NOMEFANTASIA": "26.842.860_ALMIR_DE_SOUSA", "RAZAOSOCIAL": "LAMANA_PIZZARIA_E_ESFIHARIA", "ENDEE": "AVENIDA_DOUTOR_HORACIO_SABINO975__CENTRO_17550-005", "LMAPS": "https://www.google.com/maps?q=&layer=c&cbll=-49.790409,-22.011024", "O_QUE_FAZER": "FINALIZADO", "ER_REGIAO_CIDADE_min": "Júlio Mesquita_Bauru" }, "geometry": { "type": "Point", "coordinates": [ -49.790409, -22.011024 ] } },
{ "type": "Feature", "properties": { "CNPJ": "31452882000150", "IDCIDADE": "JULIO_MESQUITA", "NOMEFANTASIA": "31.452.882_CLEUDIMARCIO_NUNES_SOUSA", "RAZAOSOCIAL": "RM_VARIEDADES", "ENDEE": "RUA_AGENOR_ROGERIO_DOS_SANTOS360__CENTRO_17550-045", "LMAPS": "https://www.google.com/maps?q=&layer=c&cbll=-49.7904814,-22.0091691", "O_QUE_FAZER": "FINALIZADO", "ER_REGIAO_CIDADE_min": "Júlio Mesquita_Bauru" }, "geometry": { "type": "Point", "coordinates": [ -49.7904814, -22.0091691 ] } }
]
}
