{
"type": "FeatureCollection",
"name": "ER_REGIAO_CIDADE_min_Herculândia_Juliânia_Marília",
"crs": { "type": "name", "properties": { "name": "urn:ogc:def:crs:OGC:1.3:CRS84" } },
"xy_coordinate_resolution": 1e-15,
"features": [
{ "type": "Feature", "properties": { "fid": 45247, "CNPJ": "41851358000105", "IDCIDADE": "ADAMANTINA", "NOMEFANTASIA": "FERMAX", "RAZAOSOCIAL": "NILSON_FERNANDO_PEREIRA", "ENDEE": "RUA_JOAO_TRINDADE61__ANEXO_A_AREA_COMERCIAL_LUIZ_STECHI_17806-210", "LMAPS": "https://www.google.com/maps?q=&layer=c&cbll=-50.3126633,-21.9680017", "O_QUE_FAZER": "CARTEIRA", "ER_REGIAO_CIDADE_min": "Herculândia_Juliânia_Marília" }, "geometry": { "type": "Point", "coordinates": [ -50.3126633, -21.9680017 ] } }
]
}
