{
"type": "FeatureCollection",
"name": "ER_REGIAO_CIDADE_min_Águas da Prata_São Roque da Fartura_São João da Boa Vista",
"crs": { "type": "name", "properties": { "name": "urn:ogc:def:crs:OGC:1.3:CRS84" } },
"xy_coordinate_resolution": 1e-15,
"features": [
{ "type": "Feature", "properties": { "CNPJ": "47580929000109", "IDCIDADE": "SAO_ROQUE_DA_FARTURA", "NOMEFANTASIA": "-", "RAZAOSOCIAL": "MIGS_COMERCIAL_DESTRO_LTDA", "ENDEE": "RUA_JOAO_MEIRELES_685_CENTRO_15220-033_SAO_ROQUE_DA_FARTURA", "LMAPS": "https://www.google.com/maps?q=&layer=c&cbll=-21.8370628,-46.7448731", "O_QUE_FAZER": "FINALIZADO", "ER_REGIAO_CIDADE_min": "Águas da Prata_São Roque da Fartura_São João da Boa Vista" }, "geometry": { "type": "Point", "coordinates": [ -46.7448731, -21.8370628 ] } }
]
}
