{
"type": "FeatureCollection",
"name": "ER_REGIAO_CIDADE_min_Euclides da Cunha Paulista_Presidente Prudente",
"crs": { "type": "name", "properties": { "name": "urn:ogc:def:crs:OGC:1.3:CRS84" } },
"xy_coordinate_resolution": 1e-15,
"features": [
{ "type": "Feature", "properties": { "fid": 67386, "CNPJ": "02450568000130", "IDCIDADE": "EUCLIDES_DA_CUNHA_PAULISTA", "NOMEFANTASIA": "POSTO_ZEPA", "RAZAOSOCIAL": "AUTO_POSTO_ZEPA_LTDA", "ENDEE": "AVENIDA_EUCLIDES_DA_CUNHA0__CENTRO_19275-000", "LMAPS": "https://www.google.com/maps?q=&layer=c&cbll=-52.5862692,-22.5515255", "O_QUE_FAZER": "CARTEIRA", "ER_REGIAO_CIDADE_min": "Euclides da Cunha Paulista_Presidente Prudente" }, "geometry": { "type": "Point", "coordinates": [ -52.5862692, -22.5515255 ] } },
{ "type": "Feature", "properties": { "fid": 67474, "CNPJ": "14136391000180", "IDCIDADE": "EUCLIDES_DA_CUNHA_PAULISTA", "NOMEFANTASIA": "DAL_GAS", "RAZAOSOCIAL": "JOSE_CLAUDIO_DA_SILVA_VIDRACARIA", "ENDEE": "AVENIDA_EUCLIDES_DA_CUNHA687__CENTRO_19275-000", "LMAPS": "https://www.google.com/maps?q=&layer=c&cbll=-52.5884268,-22.5543608", "O_QUE_FAZER": "CARTEIRA", "ER_REGIAO_CIDADE_min": "Euclides da Cunha Paulista_Presidente Prudente" }, "geometry": { "type": "Point", "coordinates": [ -52.5884268, -22.5543608 ] } },
{ "type": "Feature", "properties": { "fid": 67477, "CNPJ": "09283125000221", "IDCIDADE": "EUCLIDES_DA_CUNHA_PAULISTA", "NOMEFANTASIA": "DAL_MOTOS", "RAZAOSOCIAL": "SILVA_&_SPERIDIAO_LTDA", "ENDEE": "AVENIDA_EUCLIDES_DA_CUNHA687__CENTRO_19275-000", "LMAPS": "https://www.google.com/maps?q=&layer=c&cbll=-52.5884252,-22.5543814", "O_QUE_FAZER": "CARTEIRA", "ER_REGIAO_CIDADE_min": "Euclides da Cunha Paulista_Presidente Prudente" }, "geometry": { "type": "Point", "coordinates": [ -52.5884252, -22.5543814 ] } },
{ "type": "Feature", "properties": { "fid": 67484, "CNPJ": "17438809000100", "IDCIDADE": "EUCLIDES_DA_CUNHA_PAULISTA", "NOMEFANTASIA": "NOVA_CONVENIENCIA", "RAZAOSOCIAL": "MARIA_ELIZETE_DOS_SANTOS_FERREIRA", "ENDEE": "AVENIDA_EUCLIDES_DA_CUNHA643__CENTRO_19275-000", "LMAPS": "https://www.google.com/maps?q=&layer=c&cbll=-52.5885174,-22.5544957", "O_QUE_FAZER": "CARTEIRA", "ER_REGIAO_CIDADE_min": "Euclides da Cunha Paulista_Presidente Prudente" }, "geometry": { "type": "Point", "coordinates": [ -52.5885174, -22.5544957 ] } },
{ "type": "Feature", "properties": { "fid": 67501, "CNPJ": "02199196000110", "IDCIDADE": "EUCLIDES_DA_CUNHA_PAULISTA", "NOMEFANTASIA": "A_RURAL", "RAZAOSOCIAL": "ANDRADE_ROSA_AGROPECUARIA_LTDA", "ENDEE": "AVENIDA_EUCLIDES_DA_CUNHA587__CENTRO_19275-000", "LMAPS": "https://www.google.com/maps?q=&layer=c&cbll=-52.5887932,-22.5551487", "O_QUE_FAZER": "CARTEIRA", "ER_REGIAO_CIDADE_min": "Euclides da Cunha Paulista_Presidente Prudente" }, "geometry": { "type": "Point", "coordinates": [ -52.5887932, -22.5551487 ] } },
{ "type": "Feature", "properties": { "fid": 67517, "CNPJ": "28844307000198", "IDCIDADE": "EUCLIDES_DA_CUNHA_PAULISTA", "NOMEFANTASIA": "BIG_LOJA", "RAZAOSOCIAL": "SERGIO_LUIZ_ELEUTERIO", "ENDEE": "AVENIDA_EUCLIDES_DA_CUNHA494__CENTRO_19275-000", "LMAPS": "https://www.google.com/maps?q=&layer=c&cbll=-52.5888024,-22.5557187", "O_QUE_FAZER": "CARTEIRA", "ER_REGIAO_CIDADE_min": "Euclides da Cunha Paulista_Presidente Prudente" }, "geometry": { "type": "Point", "coordinates": [ -52.5888024, -22.5557187 ] } },
{ "type": "Feature", "properties": { "fid": 67519, "CNPJ": "48806004000198", "IDCIDADE": "EUCLIDES_DA_CUNHA_PAULISTA", "NOMEFANTASIA": "ZE_LUIZ_MATERIA_DE_CONSTRUCAO", "RAZAOSOCIAL": "CLAYTON_LUIZ_HENRIQUE_SILVA_LIMA", "ENDEE": "AVENIDA_EUCLIDES_DA_CUNHA503__CENTRO_19275-000", "LMAPS": "https://www.google.com/maps?q=&layer=c&cbll=-52.5893301,-22.5557612", "O_QUE_FAZER": "CARTEIRA", "ER_REGIAO_CIDADE_min": "Euclides da Cunha Paulista_Presidente Prudente" }, "geometry": { "type": "Point", "coordinates": [ -52.5893301, -22.5557612 ] } },
{ "type": "Feature", "properties": { "fid": 67531, "CNPJ": "41679134000168", "IDCIDADE": "EUCLIDES_DA_CUNHA_PAULISTA", "NOMEFANTASIA": "MANIA_DE_MOLEKA", "RAZAOSOCIAL": "EDNA_MARA_SONCIN_UNGARI_-_CALCADOS_E_ACESSORIOS", "ENDEE": "AVENIDA_EUCLIDES_DA_CUNHA483__CENTRO_19275-000", "LMAPS": "https://www.google.com/maps?q=&layer=c&cbll=-52.5892263,-22.5560483", "O_QUE_FAZER": "CARTEIRA", "ER_REGIAO_CIDADE_min": "Euclides da Cunha Paulista_Presidente Prudente" }, "geometry": { "type": "Point", "coordinates": [ -52.5892263, -22.5560483 ] } },
{ "type": "Feature", "properties": { "fid": 67532, "CNPJ": "04038029000113", "IDCIDADE": "EUCLIDES_DA_CUNHA_PAULISTA", "NOMEFANTASIA": "DROGA_MED", "RAZAOSOCIAL": "ELEUTERIO_&_ELEUTERIO_FARMACIA_LTDA.", "ENDEE": "AVENIDA_EUCLIDES_DA_CUNHA454__CENTRO_19275-000", "LMAPS": "https://www.google.com/maps?q=&layer=c&cbll=-52.5890038,-22.556097", "O_QUE_FAZER": "CARTEIRA", "ER_REGIAO_CIDADE_min": "Euclides da Cunha Paulista_Presidente Prudente" }, "geometry": { "type": "Point", "coordinates": [ -52.5890038, -22.556097 ] } },
{ "type": "Feature", "properties": { "fid": 67534, "CNPJ": "38373963000103", "IDCIDADE": "EUCLIDES_DA_CUNHA_PAULISTA", "NOMEFANTASIA": "NA_BRASA", "RAZAOSOCIAL": "CASA_DE_CARNES_NA_BRASA_LTDA", "ENDEE": "AVENIDA_EUCLIDES_DA_CUNHA455__CENTRO_19275-000", "LMAPS": "https://www.google.com/maps?q=&layer=c&cbll=-52.5894119,-22.5561319", "O_QUE_FAZER": "CARTEIRA", "ER_REGIAO_CIDADE_min": "Euclides da Cunha Paulista_Presidente Prudente" }, "geometry": { "type": "Point", "coordinates": [ -52.5894119, -22.5561319 ] } },
{ "type": "Feature", "properties": { "fid": 67535, "CNPJ": "13600724000118", "IDCIDADE": "EUCLIDES_DA_CUNHA_PAULISTA", "NOMEFANTASIA": "ELETRO_JUNIOR", "RAZAOSOCIAL": "CLEUSA_MARIA_PEREIRA", "ENDEE": "AVENIDA_EUCLIDES_DA_CUNHA430__CENTRO_19275-000", "LMAPS": "https://www.google.com/maps?q=&layer=c&cbll=-52.5890737,-22.5561841", "O_QUE_FAZER": "CARTEIRA", "ER_REGIAO_CIDADE_min": "Euclides da Cunha Paulista_Presidente Prudente" }, "geometry": { "type": "Point", "coordinates": [ -52.5890737, -22.5561841 ] } },
{ "type": "Feature", "properties": { "fid": 67536, "CNPJ": "09504968000120", "IDCIDADE": "EUCLIDES_DA_CUNHA_PAULISTA", "NOMEFANTASIA": "DROGARIA_AVENIDA", "RAZAOSOCIAL": "SILENE_SERRA_CREPALDI_MORAES", "ENDEE": "AVENIDA_EUCLIDES_DA_CUNHA455__CENTRO_19275-000", "LMAPS": "https://www.google.com/maps?q=&layer=c&cbll=-52.5893854,-22.5562103", "O_QUE_FAZER": "CARTEIRA", "ER_REGIAO_CIDADE_min": "Euclides da Cunha Paulista_Presidente Prudente" }, "geometry": { "type": "Point", "coordinates": [ -52.5893854, -22.5562103 ] } },
{ "type": "Feature", "properties": { "fid": 67547, "CNPJ": "18026090000155", "IDCIDADE": "EUCLIDES_DA_CUNHA_PAULISTA", "NOMEFANTASIA": "CENTER_FARMA", "RAZAOSOCIAL": "KATIA_KAORU_NANIWA_DROGARIA", "ENDEE": "AVENIDA_EUCLIDES_DA_CUNHA423__CENTRO_19275-000", "LMAPS": "https://www.google.com/maps?q=&layer=c&cbll=-52.5894939,-22.5564934", "O_QUE_FAZER": "CARTEIRA", "ER_REGIAO_CIDADE_min": "Euclides da Cunha Paulista_Presidente Prudente" }, "geometry": { "type": "Point", "coordinates": [ -52.5894939, -22.5564934 ] } },
{ "type": "Feature", "properties": { "fid": 67551, "CNPJ": "31354122000100", "IDCIDADE": "EUCLIDES_DA_CUNHA_PAULISTA", "NOMEFANTASIA": "CONVENIENCIA_REZENDE", "RAZAOSOCIAL": "MARIA_ZELIA_DE_DEUS_REZENDE", "ENDEE": "AVENIDA_EUCLIDES_DA_CUNHA384__CENTRO_19275-000", "LMAPS": "https://www.google.com/maps?q=&layer=c&cbll=-52.5892029,-22.5566141", "O_QUE_FAZER": "CARTEIRA", "ER_REGIAO_CIDADE_min": "Euclides da Cunha Paulista_Presidente Prudente" }, "geometry": { "type": "Point", "coordinates": [ -52.5892029, -22.5566141 ] } },
{ "type": "Feature", "properties": { "fid": 67552, "CNPJ": "27569603000165", "IDCIDADE": "EUCLIDES_DA_CUNHA_PAULISTA", "NOMEFANTASIA": "LOJA_CARVALHO", "RAZAOSOCIAL": "VERA_LUCIA_DE_ARAUJO_SILVA", "ENDEE": "AVENIDA_EUCLIDES_DA_CUNHA372__CENTRO_19275-000", "LMAPS": "https://www.google.com/maps?q=&layer=c&cbll=-52.5892531,-22.556654", "O_QUE_FAZER": "CARTEIRA", "ER_REGIAO_CIDADE_min": "Euclides da Cunha Paulista_Presidente Prudente" }, "geometry": { "type": "Point", "coordinates": [ -52.5892531, -22.556654 ] } },
{ "type": "Feature", "properties": { "fid": 67560, "CNPJ": "74612219000188", "IDCIDADE": "EUCLIDES_DA_CUNHA_PAULISTA", "NOMEFANTASIA": "MERCADO_MESQUITA", "RAZAOSOCIAL": "JOSE_MESQUITA_MATIAS", "ENDEE": "AVENIDA_EUCLIDES_DA_CUNHA362__CENTRO_19275-000", "LMAPS": "https://www.google.com/maps?q=&layer=c&cbll=-52.5893933,-22.5567871", "O_QUE_FAZER": "CARTEIRA", "ER_REGIAO_CIDADE_min": "Euclides da Cunha Paulista_Presidente Prudente" }, "geometry": { "type": "Point", "coordinates": [ -52.5893933, -22.5567871 ] } },
{ "type": "Feature", "properties": { "fid": 67563, "CNPJ": "02874405000184", "IDCIDADE": "EUCLIDES_DA_CUNHA_PAULISTA", "NOMEFANTASIA": "CONTI_MOVEIS_E_ELETRO", "RAZAOSOCIAL": "CAMILA_PIRES_CONTE_LOPES", "ENDEE": "AVENIDA_EUCLIDES_DA_CUNHA383__CENTRO_19275-000", "LMAPS": "https://www.google.com/maps?q=&layer=c&cbll=-52.589671,-22.5568353", "O_QUE_FAZER": "CARTEIRA", "ER_REGIAO_CIDADE_min": "Euclides da Cunha Paulista_Presidente Prudente" }, "geometry": { "type": "Point", "coordinates": [ -52.589671, -22.5568353 ] } },
{ "type": "Feature", "properties": { "fid": 67580, "CNPJ": "52137716000139", "IDCIDADE": "EUCLIDES_DA_CUNHA_PAULISTA", "NOMEFANTASIA": "MARAJA_CHAVEIRO_E_ACABAMENTOS", "RAZAOSOCIAL": "MATHEUS_FELIX_DE_ALMEIDA_SANTOS", "ENDEE": "AVENIDA_EUCLIDES_DA_CUNHA332__CENTRO_19275-000", "LMAPS": "https://www.google.com/maps?q=&layer=c&cbll=-52.5893758,-22.5570287", "O_QUE_FAZER": "CARTEIRA", "ER_REGIAO_CIDADE_min": "Euclides da Cunha Paulista_Presidente Prudente" }, "geometry": { "type": "Point", "coordinates": [ -52.5893758, -22.5570287 ] } },
{ "type": "Feature", "properties": { "fid": 67586, "CNPJ": "46470991000177", "IDCIDADE": "EUCLIDES_DA_CUNHA_PAULISTA", "NOMEFANTASIA": "2_IRMAOS_CASA_DE_CARNES", "RAZAOSOCIAL": "PAULO_CESAR_RODRIGUES_FERRARI", "ENDEE": "AVENIDA_EUCLIDES_DA_CUNHA316__CENTRO_19275-000", "LMAPS": "https://www.google.com/maps?q=&layer=c&cbll=-52.5895,-22.5571437", "O_QUE_FAZER": "CARTEIRA", "ER_REGIAO_CIDADE_min": "Euclides da Cunha Paulista_Presidente Prudente" }, "geometry": { "type": "Point", "coordinates": [ -52.5895, -22.5571437 ] } },
{ "type": "Feature", "properties": { "fid": 67599, "CNPJ": "14546809000128", "IDCIDADE": "EUCLIDES_DA_CUNHA_PAULISTA", "NOMEFANTASIA": "CREDFLEX", "RAZAOSOCIAL": "LIDIA_DA_SILVA_LOPES_NAVALON", "ENDEE": "AVENIDA_EUCLIDES_DA_CUNHA298__CENTRO_19275-000", "LMAPS": "https://www.google.com/maps?q=&layer=c&cbll=-52.5896887,-22.5574166", "O_QUE_FAZER": "CARTEIRA", "ER_REGIAO_CIDADE_min": "Euclides da Cunha Paulista_Presidente Prudente" }, "geometry": { "type": "Point", "coordinates": [ -52.5896887, -22.5574166 ] } },
{ "type": "Feature", "properties": { "fid": 67603, "CNPJ": "35059883000190", "IDCIDADE": "EUCLIDES_DA_CUNHA_PAULISTA", "NOMEFANTASIA": "OTICA_IMAGENS", "RAZAOSOCIAL": "ZORAIDE_APARECIDA_DOMINGOS_OTICA_LTDA", "ENDEE": "AVENIDA_EUCLIDES_DA_CUNHA293__CENTRO_19275-000", "LMAPS": "https://www.google.com/maps?q=&layer=c&cbll=-52.5900586,-22.5575198", "O_QUE_FAZER": "CARTEIRA", "ER_REGIAO_CIDADE_min": "Euclides da Cunha Paulista_Presidente Prudente" }, "geometry": { "type": "Point", "coordinates": [ -52.5900586, -22.5575198 ] } },
{ "type": "Feature", "properties": { "fid": 67609, "CNPJ": "07024309000160", "IDCIDADE": "EUCLIDES_DA_CUNHA_PAULISTA", "NOMEFANTASIA": "DROGARIA_ELEUTERIO", "RAZAOSOCIAL": "DROGARIA_ELEUTERIO_LTDA", "ENDEE": "AVENIDA_EUCLIDES_DA_CUNHA268__CENTRO_19275-000", "LMAPS": "https://www.google.com/maps?q=&layer=c&cbll=-52.5897231,-22.5575676", "O_QUE_FAZER": "CARTEIRA", "ER_REGIAO_CIDADE_min": "Euclides da Cunha Paulista_Presidente Prudente" }, "geometry": { "type": "Point", "coordinates": [ -52.5897231, -22.5575676 ] } },
{ "type": "Feature", "properties": { "fid": 67619, "CNPJ": "49851884000187", "IDCIDADE": "EUCLIDES_DA_CUNHA_PAULISTA", "NOMEFANTASIA": "BAZAR_ALCINAIR", "RAZAOSOCIAL": "ALCIDES_ALVES_BAZAR", "ENDEE": "AVENIDA_EUCLIDES_DA_CUNHA266__CENTRO_19275-000", "LMAPS": "https://www.google.com/maps?q=&layer=c&cbll=-52.5896994,-22.5576659", "O_QUE_FAZER": "CARTEIRA", "ER_REGIAO_CIDADE_min": "Euclides da Cunha Paulista_Presidente Prudente" }, "geometry": { "type": "Point", "coordinates": [ -52.5896994, -22.5576659 ] } },
{ "type": "Feature", "properties": { "fid": 67645, "CNPJ": "17373778000149", "IDCIDADE": "EUCLIDES_DA_CUNHA_PAULISTA", "NOMEFANTASIA": "PANIFICADORA_UNIAO", "RAZAOSOCIAL": "CLAUDINEI_NELSON_RIBEIRO_LEITE", "ENDEE": "RUA_ANTONIO_WERNECK_CUNHA1953__CENTRO_19275-000", "LMAPS": "https://www.google.com/maps?q=&layer=c&cbll=-52.5902351,-22.557983", "O_QUE_FAZER": "CARTEIRA", "ER_REGIAO_CIDADE_min": "Euclides da Cunha Paulista_Presidente Prudente" }, "geometry": { "type": "Point", "coordinates": [ -52.5902351, -22.557983 ] } },
{ "type": "Feature", "properties": { "fid": 67657, "CNPJ": "71894414000150", "IDCIDADE": "EUCLIDES_DA_CUNHA_PAULISTA", "NOMEFANTASIA": "MERCADO_15_NOVEMBRO", "RAZAOSOCIAL": "LINDALVA_MARIA_DA_CONCEICAO_SANTOS", "ENDEE": "RUA_ANTONIO_WERNECK_CUNHA1899__CENTRO_19275-000", "LMAPS": "https://www.google.com/maps?q=&layer=c&cbll=-52.5907817,-22.5581233", "O_QUE_FAZER": "CARTEIRA", "ER_REGIAO_CIDADE_min": "Euclides da Cunha Paulista_Presidente Prudente" }, "geometry": { "type": "Point", "coordinates": [ -52.5907817, -22.5581233 ] } },
{ "type": "Feature", "properties": { "fid": 67673, "CNPJ": "48659355000113", "IDCIDADE": "EUCLIDES_DA_CUNHA_PAULISTA", "NOMEFANTASIA": "ROCHA_ENGENHARIA_E_COMERCIO", "RAZAOSOCIAL": "GUILHERME_LUIZ_ROCHA", "ENDEE": "RUA_ANTONIO_WERNECK_CUNHA1870__CENTRO_19275-000", "LMAPS": "https://www.google.com/maps?q=&layer=c&cbll=-52.5910431,-22.5582516", "O_QUE_FAZER": "CARTEIRA", "ER_REGIAO_CIDADE_min": "Euclides da Cunha Paulista_Presidente Prudente" }, "geometry": { "type": "Point", "coordinates": [ -52.5910431, -22.5582516 ] } },
{ "type": "Feature", "properties": { "fid": 67674, "CNPJ": "05485258000149", "IDCIDADE": "EUCLIDES_DA_CUNHA_PAULISTA", "NOMEFANTASIA": "MERCADO_GALO", "RAZAOSOCIAL": "ENESIO_NICACIO_DE_LIMA", "ENDEE": "RUA_ANTONIO_WERNECK_CUNHA1846__CENTRO_19275-000", "LMAPS": "https://www.google.com/maps?q=&layer=c&cbll=-52.5912316,-22.5582691", "O_QUE_FAZER": "CARTEIRA", "ER_REGIAO_CIDADE_min": "Euclides da Cunha Paulista_Presidente Prudente" }, "geometry": { "type": "Point", "coordinates": [ -52.5912316, -22.5582691 ] } },
{ "type": "Feature", "properties": { "fid": 67686, "CNPJ": "22687691000186", "IDCIDADE": "EUCLIDES_DA_CUNHA_PAULISTA", "NOMEFANTASIA": "CR_CONTABILIDADES", "RAZAOSOCIAL": "CLAUDIO_RIBEIRO_CONTABILIDADE", "ENDEE": "AVENIDA_EUCLIDES_DA_CUNHA221__CENTRO_19275-000", "LMAPS": "https://www.google.com/maps?q=&layer=c&cbll=-52.5904559,-22.5584077", "O_QUE_FAZER": "CARTEIRA", "ER_REGIAO_CIDADE_min": "Euclides da Cunha Paulista_Presidente Prudente" }, "geometry": { "type": "Point", "coordinates": [ -52.5904559, -22.5584077 ] } },
{ "type": "Feature", "properties": { "fid": 67737, "CNPJ": "38026390000141", "IDCIDADE": "EUCLIDES_DA_CUNHA_PAULISTA", "NOMEFANTASIA": "AGRO_AMBIENTAL", "RAZAOSOCIAL": "FLAVIA_CAMILA_CUNHA_DA_SILVA_MENTE", "ENDEE": "AVENIDA_EUCLIDES_DA_CUNHA153__CENTRO_19275-000", "LMAPS": "https://www.google.com/maps?q=&layer=c&cbll=-52.5904634,-22.5586608", "O_QUE_FAZER": "CARTEIRA", "ER_REGIAO_CIDADE_min": "Euclides da Cunha Paulista_Presidente Prudente" }, "geometry": { "type": "Point", "coordinates": [ -52.5904634, -22.5586608 ] } },
{ "type": "Feature", "properties": { "fid": 67776, "CNPJ": "28506629000127", "IDCIDADE": "EUCLIDES_DA_CUNHA_PAULISTA", "NOMEFANTASIA": "AGROPECUARIA_FAGUNDES", "RAZAOSOCIAL": "BEATRIZ_BENTO_FAGUNDES", "ENDEE": "AVENIDA_EUCLIDES_DA_CUNHA122__CENTRO_19275-000", "LMAPS": "https://www.google.com/maps?q=&layer=c&cbll=-52.5904217,-22.5589967", "O_QUE_FAZER": "CARTEIRA", "ER_REGIAO_CIDADE_min": "Euclides da Cunha Paulista_Presidente Prudente" }, "geometry": { "type": "Point", "coordinates": [ -52.5904217, -22.5589967 ] } },
{ "type": "Feature", "properties": { "fid": 203382, "CNPJ": "05899507000142", "IDCIDADE": "EUCLIDES_DA_CUNHA_PAULISTA", "NOMEFANTASIA": "O_BARATAO", "RAZAOSOCIAL": "JOAO_BATISTA_FAVARO_OLIVIO", "ENDEE": "AVENIDA_EUCLIDES_DA_CUNHA928__CENTRO_19275-000", "LMAPS": "https://www.google.com/maps?q=&layer=c&cbll=-52.5870722,-22.5522743", "O_QUE_FAZER": "CARTEIRA - FAMPE", "ER_REGIAO_CIDADE_min": "Euclides da Cunha Paulista_Presidente Prudente" }, "geometry": { "type": "Point", "coordinates": [ -52.5870722, -22.5522743 ] } },
{ "type": "Feature", "properties": { "fid": 203385, "CNPJ": "08588112000117", "IDCIDADE": "EUCLIDES_DA_CUNHA_PAULISTA", "NOMEFANTASIA": "AUTO_PECAS_WVA", "RAZAOSOCIAL": "VILMA_MARTINS_CARVALHO", "ENDEE": "AVENIDA_EUCLIDES_DA_CUNHA604__CENTRO_19275-000", "LMAPS": "https://www.google.com/maps?q=&layer=c&cbll=-52.5884383,-22.5548451", "O_QUE_FAZER": "CARTEIRA - FAMPE", "ER_REGIAO_CIDADE_min": "Euclides da Cunha Paulista_Presidente Prudente" }, "geometry": { "type": "Point", "coordinates": [ -52.5884383, -22.5548451 ] } },
{ "type": "Feature", "properties": { "fid": 203388, "CNPJ": "20337719000120", "IDCIDADE": "EUCLIDES_DA_CUNHA_PAULISTA", "NOMEFANTASIA": "CHURRACARIA_CORSA", "RAZAOSOCIAL": "GILSON_LUIZ_ACORSI_JUNIOR_LTDA", "ENDEE": "AVENIDA_EUCLIDES_DA_CUNHA352__CENTRO_19275-000", "LMAPS": "https://www.google.com/maps?q=&layer=c&cbll=-52.5893389,-22.5568657", "O_QUE_FAZER": "CARTEIRA - FAMPE", "ER_REGIAO_CIDADE_min": "Euclides da Cunha Paulista_Presidente Prudente" }, "geometry": { "type": "Point", "coordinates": [ -52.5893389, -22.5568657 ] } },
{ "type": "Feature", "properties": { "fid": 259583, "CNPJ": "51192333000109", "IDCIDADE": "EUCLIDES_DA_CUNHA_PAULISTA", "NOMEFANTASIA": "51.192.333_DIEGO_HENRIQUE_RODRIGUES_LOURENCAO", "RAZAOSOCIAL": "DR_CENTRO_AUTOMOTIVO_", "ENDEE": "RUA_EUCLIDES_DA_CUNHA167__CENTRO_19275-000", "LMAPS": "https://www.google.com/maps?q=&layer=c&cbll=-52.5905698,-22.5585732", "O_QUE_FAZER": "FINALIZADO", "ER_REGIAO_CIDADE_min": "Euclides da Cunha Paulista_Presidente Prudente" }, "geometry": { "type": "Point", "coordinates": [ -52.5905698, -22.5585732 ] } }
]
}
