{
"type": "FeatureCollection",
"name": "ER_REGIAO_CIDADE_min_Itirapuã_Franca",
"crs": { "type": "name", "properties": { "name": "urn:ogc:def:crs:OGC:1.3:CRS84" } },
"xy_coordinate_resolution": 1e-15,
"features": [
{ "type": "Feature", "properties": { "fid": 158523, "CNPJ": "30142698000140", "IDCIDADE": "ITIRAPUA", "NOMEFANTASIA": null, "RAZAOSOCIAL": "A_P_DE_SOUZA_COSTA_DROGARIA_LTDA", "ENDEE": "RUA DOZITO MALVAR RIBAS, 4797, CENTRO, 14420-000, ITIRAPUÃ, SP, BRASIL", "LMAPS": "https://www.google.com/maps?q=&layer=c&cbll=-20.6414206,-47.2191342", "O_QUE_FAZER": "CARTEIRA - FAMPE", "ER_REGIAO_CIDADE_min": "Itirapuã_Franca" }, "geometry": { "type": "Point", "coordinates": [ -47.2191342, -20.6414206 ] } },
{ "type": "Feature", "properties": { "fid": 253062, "CNPJ": "50622883000140", "IDCIDADE": "ITIRAPUA", "NOMEFANTASIA": null, "RAZAOSOCIAL": "GUILHERME_FERREIRA_CORREA_NEVES", "ENDEE": "RUA IPE, 4376, RESIDENCIAL NASCIMENTO, 14420-000, ITIRAPUÃ, SP, BRASIL", "LMAPS": "https://www.google.com/maps?q=&layer=c&cbll=-20.6374371,-47.2168726", "O_QUE_FAZER": "CARTEIRA - FAMPE", "ER_REGIAO_CIDADE_min": "Itirapuã_Franca" }, "geometry": { "type": "Point", "coordinates": [ -47.2168726, -20.6374371 ] } }
]
}
