{
"type": "FeatureCollection",
"name": "ER_REGIAO_CIDADE_min_Chavantes_Chavantes_Ourinhos",
"crs": { "type": "name", "properties": { "name": "urn:ogc:def:crs:OGC:1.3:CRS84" } },
"xy_coordinate_resolution": 1e-15,
"features": [
{ "type": "Feature", "properties": { "fid": 39667, "CNPJ": "07065399000138", "IDCIDADE": "CHAVANTES", "NOMEFANTASIA": "SUPERNOVA", "RAZAOSOCIAL": "SUPERNOVA_COMERCIO_E_REPRESENTACOES_DE_ARTIGOS_DE_DECORACOES_LTDA", "ENDEE": "RUA MAJOR DIAS GRILLO, 207, CENTRO, 18970-005, CHAVANTES, SP, BRASIL", "LMAPS": "https://www.google.com/maps?q=&layer=c&cbll=-23.0389194,-49.7070133", "O_QUE_FAZER": "CARTEIRA - FAMPE", "ER_REGIAO_CIDADE_min": "Chavantes_Chavantes_Ourinhos" }, "geometry": { "type": "Point", "coordinates": [ -49.7070133, -23.0389194 ] } },
{ "type": "Feature", "properties": { "fid": 73907, "CNPJ": "11797546000131", "IDCIDADE": "CHAVANTES", "NOMEFANTASIA": "-", "RAZAOSOCIAL": "11.797.546_RICARDO_MARIOTTO_ROTELLI", "ENDEE": "AVENIDA JACOB ABDO, 125, SETOR A, CHAVANTES NOVO, 18970-282, CHAVANTES, SP, BRASIL", "LMAPS": "https://www.google.com/maps?q=&layer=c&cbll=-23.0375691,-49.7114397", "O_QUE_FAZER": "CARTEIRA - FAMPE", "ER_REGIAO_CIDADE_min": "Chavantes_Chavantes_Ourinhos" }, "geometry": { "type": "Point", "coordinates": [ -49.7114397, -23.0375691 ] } },
{ "type": "Feature", "properties": { "fid": 90781, "CNPJ": "15081167000100", "IDCIDADE": "CHAVANTES", "NOMEFANTASIA": "15.081.167_JOSE_ROBERTO_LIMA", "RAZAOSOCIAL": "LIMA_SOM", "ENDEE": "RUA_DIRCEU_VEDOVELLO324__JARDIM_NOSSO_LAR_18972-012", "LMAPS": "https://www.google.com/maps?q=&layer=c&cbll=-23.0348337,-49.7107036", "O_QUE_FAZER": "FINALIZADO", "ER_REGIAO_CIDADE_min": "Chavantes_Chavantes_Ourinhos" }, "geometry": { "type": "Point", "coordinates": [ -49.7107036, -23.0348337 ] } },
{ "type": "Feature", "properties": { "fid": 100751, "CNPJ": "17777105000154", "IDCIDADE": "CHAVANTES", "NOMEFANTASIA": "-", "RAZAOSOCIAL": "17.777.105_MATHEUS_GONCALVES_DOS_SANTOS", "ENDEE": "RUA CORONEL MANOEL FERREIRA, 428, FUNDOS, CENTRO, 18970-003, CHAVANTES, SP, BRASIL", "LMAPS": "https://www.google.com/maps?q=&layer=c&cbll=-23.039129,-49.7093256", "O_QUE_FAZER": "CARTEIRA - FAMPE", "ER_REGIAO_CIDADE_min": "Chavantes_Chavantes_Ourinhos" }, "geometry": { "type": "Point", "coordinates": [ -49.7093256, -23.039129 ] } },
{ "type": "Feature", "properties": { "fid": 113901, "CNPJ": "20633589000172", "IDCIDADE": "CHAVANTES", "NOMEFANTASIA": "-", "RAZAOSOCIAL": "20.633.589_IRENE_APARECIDA_DO_CARMO", "ENDEE": "RUA SENADOR MELLO PEIXOTO, 180, CENTRO, 18970-015, CHAVANTES, SP, BRASIL", "LMAPS": "https://www.google.com/maps?q=&layer=c&cbll=-23.0383266,-49.7103306", "O_QUE_FAZER": "CARTEIRA - FAMPE", "ER_REGIAO_CIDADE_min": "Chavantes_Chavantes_Ourinhos" }, "geometry": { "type": "Point", "coordinates": [ -49.7103306, -23.0383266 ] } },
{ "type": "Feature", "properties": { "fid": 135962, "CNPJ": "25265628000140", "IDCIDADE": "CHAVANTES", "NOMEFANTASIA": "-", "RAZAOSOCIAL": "25.265.628_SILVIA_MARCELA_OBRELLI_GOMES", "ENDEE": "RUA ANGELO MARIOTTO, 22, CHAVANTES NOVO, 18970-200, CHAVANTES, SP, BRASIL", "LMAPS": "https://www.google.com/maps?q=&layer=c&cbll=-23.0450461,-49.7071787", "O_QUE_FAZER": "CARTEIRA - FAMPE", "ER_REGIAO_CIDADE_min": "Chavantes_Chavantes_Ourinhos" }, "geometry": { "type": "Point", "coordinates": [ -49.7071787, -23.0450461 ] } },
{ "type": "Feature", "properties": { "fid": 142500, "CNPJ": "27084611000111", "IDCIDADE": "CHAVANTES", "NOMEFANTASIA": "EFATA_PELETIZADEIRAS", "RAZAOSOCIAL": "EFATA_-_PECAS_E_ACESSORIOS_PARA_PELETIZADEIRAS_LTDA", "ENDEE": "AVENIDA OLEGARIO BUENO, 1049, CHAVANTES NOVO, 18970234, CHAVANTES, SP, BRASIL", "LMAPS": "https://www.google.com/maps?q=&layer=c&cbll=-23.0473955,-49.70008", "O_QUE_FAZER": "CARTEIRA - FAMPE", "ER_REGIAO_CIDADE_min": "Chavantes_Chavantes_Ourinhos" }, "geometry": { "type": "Point", "coordinates": [ -49.70008, -23.0473955 ] } },
{ "type": "Feature", "properties": { "fid": 161408, "CNPJ": "30686535000129", "IDCIDADE": "CHAVANTES", "NOMEFANTASIA": "30.686.535_PAULO_EDUARDO_MAXIMINO_FONTES", "RAZAOSOCIAL": "30.686.535_PAULO_EDUARDO_MAXIMINO_FONTES", "ENDEE": "RUA_ZICO_LEITE116__CENTRO_18970-033", "LMAPS": "https://www.google.com/maps?q=&layer=c&cbll=-23.0384863,-49.7121381", "O_QUE_FAZER": "FINALIZADO", "ER_REGIAO_CIDADE_min": "Chavantes_Chavantes_Ourinhos" }, "geometry": { "type": "Point", "coordinates": [ -49.7121381, -23.0384863 ] } },
{ "type": "Feature", "properties": { "fid": 171999, "CNPJ": "32867348000177", "IDCIDADE": "CHAVANTES", "NOMEFANTASIA": "VLZ_TELECOMUNICACOES", "RAZAOSOCIAL": "CARLOS_R._A._VELOZO", "ENDEE": "RUA CORONEL MANOEL FERREIRA, 108, CENTRO, 18970-003, CHAVANTES, SP, BRASIL", "LMAPS": "https://www.google.com/maps?q=&layer=c&cbll=-23.0374928,-49.706575", "O_QUE_FAZER": "CARTEIRA - FAMPE", "ER_REGIAO_CIDADE_min": "Chavantes_Chavantes_Ourinhos" }, "geometry": { "type": "Point", "coordinates": [ -49.706575, -23.0374928 ] } },
{ "type": "Feature", "properties": { "fid": 231344, "CNPJ": "46135339000104", "IDCIDADE": "CHAVANTES", "NOMEFANTASIA": null, "RAZAOSOCIAL": "GILEARDE_GADIEL_SOUZA_REIS_42241599883", "ENDEE": "RUA ALTINO ARANTES, 323, CENTRO, 18970-007, CHAVANTES, SP, BRASIL", "LMAPS": "https://www.google.com/maps?q=&layer=c&cbll=-23.0391633,-49.7085014", "O_QUE_FAZER": "CARTEIRA - FAMPE", "ER_REGIAO_CIDADE_min": "Chavantes_Chavantes_Ourinhos" }, "geometry": { "type": "Point", "coordinates": [ -49.7085014, -23.0391633 ] } },
{ "type": "Feature", "properties": { "fid": 231577, "CNPJ": "46183146000110", "IDCIDADE": "CHAVANTES", "NOMEFANTASIA": "CESAR_MUSSIO_FERREIRA_15377889819", "RAZAOSOCIAL": "CESAR_MUSSIO_FERREIRA_15377889819", "ENDEE": "RUA_DINORAH_BUENO_PEREIRA_SILVA96__CHAVANTES_NOVO_18970-275", "LMAPS": "https://www.google.com/maps?q=&layer=c&cbll=-23.0443671,-49.6990948", "O_QUE_FAZER": "FINALIZADO", "ER_REGIAO_CIDADE_min": "Chavantes_Chavantes_Ourinhos" }, "geometry": { "type": "Point", "coordinates": [ -49.6990948, -23.0443671 ] } },
{ "type": "Feature", "properties": { "fid": 242184, "CNPJ": "48359269000195", "IDCIDADE": "CHAVANTES", "NOMEFANTASIA": "INDUSTRIA_GRAFICA_CHAVANTES_LTDA", "RAZAOSOCIAL": "INDUSTRIA_GRAFICA_CHAVANTES", "ENDEE": "RUA_MAESTRO_SEBASTIAO_FONSECA426__JARDIM_CONCEICAO_18970-176", "LMAPS": "https://www.google.com/maps?q=&layer=c&cbll=-23.0393282,-49.708231", "O_QUE_FAZER": "FINALIZADO", "ER_REGIAO_CIDADE_min": "Chavantes_Chavantes_Ourinhos" }, "geometry": { "type": "Point", "coordinates": [ -49.708231, -23.0393282 ] } },
{ "type": "Feature", "properties": { "fid": 247874, "CNPJ": "49595155000107", "IDCIDADE": "CHAVANTES", "NOMEFANTASIA": "-", "RAZAOSOCIAL": "49.595.155_FELIPE_ANTONIO_PEREZ", "ENDEE": "AVENIDA CONCEICAO, 518, FUNDOS, CHAVANTES NOVO, 18970-190, CHAVANTES, SP, BRASIL", "LMAPS": "https://www.google.com/maps?q=&layer=c&cbll=-23.0392924,-49.7046594", "O_QUE_FAZER": "CARTEIRA - FAMPE", "ER_REGIAO_CIDADE_min": "Chavantes_Chavantes_Ourinhos" }, "geometry": { "type": "Point", "coordinates": [ -49.7046594, -23.0392924 ] } },
{ "type": "Feature", "properties": { "fid": 263498, "CNPJ": "52694599000104", "IDCIDADE": "CHAVANTES", "NOMEFANTASIA": "-", "RAZAOSOCIAL": "52.694.599_DALTON_LOPES_FERREIRA_JUNIOR", "ENDEE": "RUA MAESTRO CARLOS GOMES, 144, JARDIM CONCEICAO, 18970-180, CHAVANTES, SP, BRASIL", "LMAPS": "https://www.google.com/maps?q=&layer=c&cbll=-23.0384488,-49.7053767", "O_QUE_FAZER": "CARTEIRA - FAMPE", "ER_REGIAO_CIDADE_min": "Chavantes_Chavantes_Ourinhos" }, "geometry": { "type": "Point", "coordinates": [ -49.7053767, -23.0384488 ] } },
{ "type": "Feature", "properties": { "fid": 269441, "CNPJ": "54068083000180", "IDCIDADE": "CHAVANTES", "NOMEFANTASIA": "54.068.083_DANILO_DE_JESUS_VELOZO", "RAZAOSOCIAL": "VELOZO_TELECOM", "ENDEE": "RUA_JOSE_ROQUEJANI112__ORLANDO_QUAGLIATO_18972-066", "LMAPS": "https://www.google.com/maps?q=&layer=c&cbll=-23.0350995,-49.7141258", "O_QUE_FAZER": "FINALIZADO", "ER_REGIAO_CIDADE_min": "Chavantes_Chavantes_Ourinhos" }, "geometry": { "type": "Point", "coordinates": [ -49.7141258, -23.0350995 ] } },
{ "type": "Feature", "properties": { "fid": 288471, "CNPJ": "59437759000189", "IDCIDADE": "CHAVANTES", "NOMEFANTASIA": null, "RAZAOSOCIAL": "59.437.759_BRUNA_ELY_FERREIRA", "ENDEE": "RUA DAS HORTENCIAS, 69, JARDIM DAS PAINEIRAS, 18970-160, CHAVANTES, SP, BRASIL", "LMAPS": "https://www.google.com/maps?q=&layer=c&cbll=-23.046129,-49.7083272", "O_QUE_FAZER": "CARTEIRA - FAMPE", "ER_REGIAO_CIDADE_min": "Chavantes_Chavantes_Ourinhos" }, "geometry": { "type": "Point", "coordinates": [ -49.7083272, -23.046129 ] } },
{ "type": "Feature", "properties": { "fid": 304333, "CNPJ": "66605058000177", "IDCIDADE": "CHAVANTES", "NOMEFANTASIA": null, "RAZAOSOCIAL": "66.605.058_GABRIEL_RODRIGUES_DE_CASTRO", "ENDEE": "RUA DIAMANTINO COSTA, 261, FUNDOS, CONJUNTO HABITACIONAL ELZA ATANAZIO ALONSO, 18972-104, CHAVANTES, SP, BRASIL", "LMAPS": "https://www.google.com/maps?q=&layer=c&cbll=-23.0313883,-49.7141258", "O_QUE_FAZER": "CARTEIRA - FAMPE", "ER_REGIAO_CIDADE_min": "Chavantes_Chavantes_Ourinhos" }, "geometry": { "type": "Point", "coordinates": [ -49.7141258, -23.0313883 ] } }
]
}
