{
"type": "FeatureCollection",
"name": "ER_REGIAO_CIDADE_min_Guaraçaí_Araçatuba",
"crs": { "type": "name", "properties": { "name": "urn:ogc:def:crs:OGC:1.3:CRS84" } },
"xy_coordinate_resolution": 1e-15,
"features": [
{ "type": "Feature", "properties": { "fid": 205783, "CNPJ": "07241015000190", "IDCIDADE": "GUARAÇAÍ", "NOMEFANTASIA": "IPE MOVEIS RUSTICOS", "RAZAOSOCIAL": "MAX FRANCO BALSAN", "ENDEE": "RECANTO NOSSA SENHORA APARECIDA, S/N, MOINHO, 16980-000, GUARAÇAÍ, SP, BRASIL", "LMAPS": "https://www.google.com/maps?q=&layer=c&cbll=-21.033561,-51.2083812", "O_QUE_FAZER": "CARTEIRA - FAMPE", "ER_REGIAO_CIDADE_min": "Guaraçaí_Araçatuba" }, "geometry": { "type": "Point", "coordinates": [ -51.2083812, -21.033561 ] } },
{ "type": "Feature", "properties": { "fid": 205786, "CNPJ": "01578779000190", "IDCIDADE": "GUARAÇAÍ", "NOMEFANTASIA": "MARCENARIA DOIS IRMAOS", "RAZAOSOCIAL": "CASEMIRO & CASEMIRO GUARACAI LTDA", "ENDEE": "ESTANCIA DOIS IRMAOS, S/N, PLANO ALTO, 16980-000, GUARAÇAÍ, SP, BRASIL", "LMAPS": "https://www.google.com/maps?q=&layer=c&cbll=-21.0360173,-51.2106483", "O_QUE_FAZER": "CARTEIRA - FAMPE", "ER_REGIAO_CIDADE_min": "Guaraçaí_Araçatuba" }, "geometry": { "type": "Point", "coordinates": [ -51.2106483, -21.0360173 ] } },
{ "type": "Feature", "properties": { "fid": 307605, "CNPJ": "54152164000163", "IDCIDADE": "GUARACAI", "NOMEFANTASIA": "-", "RAZAOSOCIAL": "54.152.164 CAMILA ALVES DOS SANTOS", "ENDEE": "RUA DONA ALCIDES CANDIDA DE SOUZA, 792, CENTRO, 16980-000, GUARAÇAÍ, SP, BRASIL", "LMAPS": "https://www.google.com/maps?q=&layer=c&cbll=-21.0322829,-51.2110995", "O_QUE_FAZER": "CARTEIRA - FAMPE", "ER_REGIAO_CIDADE_min": "Guaraçaí_Araçatuba" }, "geometry": { "type": "Point", "coordinates": [ -51.2110995, -21.0322829 ] } },
{ "type": "Feature", "properties": { "fid": 307606, "CNPJ": "42081577000115", "IDCIDADE": "GUARACAI", "NOMEFANTASIA": "-", "RAZAOSOCIAL": "42.081.577 MARCELO HENRIQUE DO PRADO", "ENDEE": "RUA JOAO DEMORI, 141, LOT DR JOSE OLAVO DINIZ, 16980-000, GUARAÇAÍ, SP, BRASIL", "LMAPS": "https://www.google.com/maps?q=&layer=c&cbll=-21.0292669,-51.2023638", "O_QUE_FAZER": "CARTEIRA - FAMPE", "ER_REGIAO_CIDADE_min": "Guaraçaí_Araçatuba" }, "geometry": { "type": "Point", "coordinates": [ -51.2023638, -21.0292669 ] } },
{ "type": "Feature", "properties": { "fid": 307607, "CNPJ": "63749724000152", "IDCIDADE": "GUARACAI", "NOMEFANTASIA": "-", "RAZAOSOCIAL": "63.749.724 RAFAEL DOS SANTOS GONZALEZ", "ENDEE": "RUA JOAO MACHADO, 211, CENTRO, 16980-970, GUARAÇAÍ, SP, BRASIL", "LMAPS": "https://www.google.com/maps?q=&layer=c&cbll=-21.0318787,-51.2097519", "O_QUE_FAZER": "CARTEIRA - FAMPE", "ER_REGIAO_CIDADE_min": "Guaraçaí_Araçatuba" }, "geometry": { "type": "Point", "coordinates": [ -51.2097519, -21.0318787 ] } }
]
}
