{
"type": "FeatureCollection",
"name": "ER_REGIAO_CIDADE_min_Ribeirão Pires_Ouro Fino Paulista_Alto Tietê",
"crs": { "type": "name", "properties": { "name": "urn:ogc:def:crs:OGC:1.3:CRS84" } },
"xy_coordinate_resolution": 1e-15,
"features": [
{ "type": "Feature", "properties": { "CNPJ": "37578240000188", "IDCIDADE": "RIBEIRAO_PIRES", "NOMEFANTASIA": "ATACADO_DOS_PISOS_R_PIRES", "RAZAOSOCIAL": "ATACADO_DOS_PISOS_R_PIRES_LTDA", "ENDEE": "RODOVIA_INDIO_TIBIRICA2975__CENTRO_DE_OURO_FINO_PAULISTA_09443-500", "LATITUDE": "-23.6713417", "LONGITUDE": "-46.34979", "LMAPS": "https://www.google.com/maps?q=&layer=c&cbll=-46.34979,-23.6713417", "O_QUE_FAZER": "CARTEIRA", "field_10": null, "field_11": null, "field_12": null, "field_13": null, "ER_REGIAO_CIDADE_min": "Ribeirão Pires_Ouro Fino Paulista_Alto Tietê" }, "geometry": { "type": "Point", "coordinates": [ -46.34979, -23.6713417 ] } },
{ "type": "Feature", "properties": { "CNPJ": "04258734000126", "IDCIDADE": "RIBEIRAO_PIRES", "NOMEFANTASIA": "ROMAVI_NUTRI", "RAZAOSOCIAL": "ROMAVI_NUTRI_ALIMENTOS_LTDA", "ENDEE": "RODOVIA_INDIO_TIBIRICA2977__POUSO_ALEGRE_09442-000", "LATITUDE": "-23.6717783", "LONGITUDE": "-46.3498932", "LMAPS": "https://www.google.com/maps?q=&layer=c&cbll=-46.3498932,-23.6717783", "O_QUE_FAZER": "CARTEIRA", "field_10": null, "field_11": null, "field_12": null, "field_13": null, "ER_REGIAO_CIDADE_min": "Ribeirão Pires_Ouro Fino Paulista_Alto Tietê" }, "geometry": { "type": "Point", "coordinates": [ -46.3498932, -23.6717783 ] } },
{ "type": "Feature", "properties": { "CNPJ": "11984906000104", "IDCIDADE": "RIBEIRAO_PIRES", "NOMEFANTASIA": "CASA_DE_RACOES_MARIANO", "RAZAOSOCIAL": "BRUNO_GARCIA_MARIANO", "ENDEE": "RODOVIA_INDIO_TIBIRICA2920__CENTRO_DE_OURO_FINO_PAULISTA_09443-500", "LATITUDE": "-23.6738375", "LONGITUDE": "-46.3496088", "LMAPS": "https://www.google.com/maps?q=&layer=c&cbll=-46.3496088,-23.6738375", "O_QUE_FAZER": "CARTEIRA", "field_10": null, "field_11": null, "field_12": null, "field_13": null, "ER_REGIAO_CIDADE_min": "Ribeirão Pires_Ouro Fino Paulista_Alto Tietê" }, "geometry": { "type": "Point", "coordinates": [ -46.3496088, -23.6738375 ] } },
{ "type": "Feature", "properties": { "CNPJ": "68226216000103", "IDCIDADE": "RIBEIRAO_PIRES", "NOMEFANTASIA": "ADIPEL", "RAZAOSOCIAL": "ALHO_DIESEL_COMERCIO_DE_PECAS_E_SERVICOS_LTDA", "ENDEE": "RODOVIA_INDIO_TIBIRICA3159__CENTRO_DE_OURO_FINO_PAULISTA_09442-000", "LATITUDE": "-23.6755819", "LONGITUDE": "-46.3504597", "LMAPS": "https://www.google.com/maps?q=&layer=c&cbll=-46.3504597,-23.6755819", "O_QUE_FAZER": "CARTEIRA", "field_10": null, "field_11": null, "field_12": null, "field_13": null, "ER_REGIAO_CIDADE_min": "Ribeirão Pires_Ouro Fino Paulista_Alto Tietê" }, "geometry": { "type": "Point", "coordinates": [ -46.3504597, -23.6755819 ] } },
{ "type": "Feature", "properties": { "CNPJ": "40126564000190", "IDCIDADE": "RIBEIRAO_PIRES", "NOMEFANTASIA": "PARAD'OURO_COUNTRY_LTDA", "RAZAOSOCIAL": "PARAD'OURO_COUNTRY_LTDA", "ENDEE": "RODOVIA_INDIO_TIBIRICA2990__CENTRO_DE_OURO_FINO_PAULISTA_09443-500", "LATITUDE": "-23.6756276", "LONGITUDE": "-46.3499803", "LMAPS": "https://www.google.com/maps?q=&layer=c&cbll=-46.3499803,-23.6756276", "O_QUE_FAZER": "CARTEIRA", "field_10": null, "field_11": null, "field_12": null, "field_13": null, "ER_REGIAO_CIDADE_min": "Ribeirão Pires_Ouro Fino Paulista_Alto Tietê" }, "geometry": { "type": "Point", "coordinates": [ -46.3499803, -23.6756276 ] } },
{ "type": "Feature", "properties": { "CNPJ": "50213800000169", "IDCIDADE": "RIBEIRAO_PIRES", "NOMEFANTASIA": "RIBEIRACO", "RAZAOSOCIAL": "RIBEIRACO_-_COMERCIO_DE_FERRO_E_ACO_LTDA", "ENDEE": "RODOVIA_INDIO_TIBIRICA2739__CENTRO_DE_OURO_FINO_PAULISTA_09442-000", "LATITUDE": "-23.6769047", "LONGITUDE": "-46.3516708", "LMAPS": "https://www.google.com/maps?q=&layer=c&cbll=-46.3516708,-23.6769047", "O_QUE_FAZER": "CARTEIRA", "field_10": null, "field_11": null, "field_12": null, "field_13": null, "ER_REGIAO_CIDADE_min": "Ribeirão Pires_Ouro Fino Paulista_Alto Tietê" }, "geometry": { "type": "Point", "coordinates": [ -46.3516708, -23.6769047 ] } },
{ "type": "Feature", "properties": { "CNPJ": "55895435000133", "IDCIDADE": "RIBEIRAO_PIRES", "NOMEFANTASIA": "IMOBILIARIA_MONTE_APRAZIVEL", "RAZAOSOCIAL": "MONTE_APRAZIVEL_CONSULTORIA_IMOBILIARIA_LTDA", "ENDEE": "RODOVIA_INDIO_TIBIRICA2642__CENTRO_DE_OURO_FINO_PAULISTA_09442-000", "LATITUDE": "-23.6769589", "LONGITUDE": "-46.3509895", "LMAPS": "https://www.google.com/maps?q=&layer=c&cbll=-46.3509895,-23.6769589", "O_QUE_FAZER": "CARTEIRA", "field_10": null, "field_11": null, "field_12": null, "field_13": null, "ER_REGIAO_CIDADE_min": "Ribeirão Pires_Ouro Fino Paulista_Alto Tietê" }, "geometry": { "type": "Point", "coordinates": [ -46.3509895, -23.6769589 ] } },
{ "type": "Feature", "properties": { "CNPJ": "52181377000198", "IDCIDADE": "RIBEIRAO_PIRES", "NOMEFANTASIA": "BAZAR_E_PAPELARIA_MITANI", "RAZAOSOCIAL": "YURIKO_OKUMA_MITANI", "ENDEE": "RODOVIA_INDIO_TIBIRICA2822__CENTRO_DE_OURO_FINO_PAULISTA_09442-000", "LATITUDE": "-23.6775917", "LONGITUDE": "-46.3516966", "LMAPS": "https://www.google.com/maps?q=&layer=c&cbll=-46.3516966,-23.6775917", "O_QUE_FAZER": "CARTEIRA", "field_10": null, "field_11": null, "field_12": null, "field_13": null, "ER_REGIAO_CIDADE_min": "Ribeirão Pires_Ouro Fino Paulista_Alto Tietê" }, "geometry": { "type": "Point", "coordinates": [ -46.3516966, -23.6775917 ] } },
{ "type": "Feature", "properties": { "CNPJ": "10306661000101", "IDCIDADE": "RIBEIRAO_PIRES", "NOMEFANTASIA": "AUTO_ESCOLA_OURO_FINO", "RAZAOSOCIAL": "CENTRO_DE_FORMACAO_DE_CONDUTORES_A_B_OURO_FINO_PAULISTA_LTDA.", "ENDEE": "RODOVIA_INDIO_TIBIRICA2615__CENTRO_DE_OURO_FINO_PAULISTA_09443-360", "LATITUDE": "-23.677782", "LONGITUDE": "-46.3525256", "LMAPS": "https://www.google.com/maps?q=&layer=c&cbll=-46.3525256,-23.677782", "O_QUE_FAZER": "CARTEIRA", "field_10": null, "field_11": null, "field_12": null, "field_13": null, "ER_REGIAO_CIDADE_min": "Ribeirão Pires_Ouro Fino Paulista_Alto Tietê" }, "geometry": { "type": "Point", "coordinates": [ -46.3525256, -23.677782 ] } },
{ "type": "Feature", "properties": { "CNPJ": "03330398000112", "IDCIDADE": "RIBEIRAO_PIRES", "NOMEFANTASIA": "AUTO_PECAS_MARCONDES", "RAZAOSOCIAL": "MARCONDES_PECAS_E_ACESSORIOS_PARA_VEICULOS_LTDA", "ENDEE": "ESTRADA_SP-0312570__REPRESA_09443-070", "LATITUDE": "-23.6784683", "LONGITUDE": "-46.360755", "LMAPS": "https://www.google.com/maps?q=&layer=c&cbll=-46.360755,-23.6784683", "O_QUE_FAZER": "CARTEIRA", "field_10": null, "field_11": null, "field_12": null, "field_13": null, "ER_REGIAO_CIDADE_min": "Ribeirão Pires_Ouro Fino Paulista_Alto Tietê" }, "geometry": { "type": "Point", "coordinates": [ -46.360755, -23.6784683 ] } },
{ "type": "Feature", "properties": { "CNPJ": "45652518000148", "IDCIDADE": "RIBEIRAO_PIRES", "NOMEFANTASIA": "COBAYAXI", "RAZAOSOCIAL": "COBAYAXI_COBAYAXI_LTDA", "ENDEE": "RODOVIA_INDIO_TIBIRICA2501__CENTRO_DE_OURO_FINO_PAULISTA_09442-000", "LATITUDE": "-23.6787576", "LONGITUDE": "-46.353997", "LMAPS": "https://www.google.com/maps?q=&layer=c&cbll=-46.353997,-23.6787576", "O_QUE_FAZER": "CARTEIRA", "field_10": null, "field_11": null, "field_12": null, "field_13": null, "ER_REGIAO_CIDADE_min": "Ribeirão Pires_Ouro Fino Paulista_Alto Tietê" }, "geometry": { "type": "Point", "coordinates": [ -46.353997, -23.6787576 ] } },
{ "type": "Feature", "properties": { "CNPJ": "64633027000102", "IDCIDADE": "RIBEIRAO_PIRES", "NOMEFANTASIA": "PIK_POOL", "RAZAOSOCIAL": "MARIO_LEITE_-_PRODUTOS_QUIMICOS_LTDA", "ENDEE": "RODOVIA_INDIO_TIBIRICA2502__POUSO_ALEGRE_09442-000", "LATITUDE": "-23.6793199", "LONGITUDE": "-46.3534033", "LMAPS": "https://www.google.com/maps?q=&layer=c&cbll=-46.3534033,-23.6793199", "O_QUE_FAZER": "CARTEIRA", "field_10": null, "field_11": null, "field_12": null, "field_13": null, "ER_REGIAO_CIDADE_min": "Ribeirão Pires_Ouro Fino Paulista_Alto Tietê" }, "geometry": { "type": "Point", "coordinates": [ -46.3534033, -23.6793199 ] } },
{ "type": "Feature", "properties": { "CNPJ": "16981614000131", "IDCIDADE": "RIBEIRAO_PIRES", "NOMEFANTASIA": "AGROPECUARIA_BRAQUEARA", "RAZAOSOCIAL": "EDILSON_ESTEVES_CASA_DE_RACAO", "ENDEE": "RODOVIA_INDIO_TIBIRICA3230__POUSO_ALEGRE_09410-000", "LATITUDE": "-23.6794995", "LONGITUDE": "-46.3538398", "LMAPS": "https://www.google.com/maps?q=&layer=c&cbll=-46.3538398,-23.6794995", "O_QUE_FAZER": "CARTEIRA", "field_10": null, "field_11": null, "field_12": null, "field_13": null, "ER_REGIAO_CIDADE_min": "Ribeirão Pires_Ouro Fino Paulista_Alto Tietê" }, "geometry": { "type": "Point", "coordinates": [ -46.3538398, -23.6794995 ] } },
{ "type": "Feature", "properties": { "CNPJ": "31195739000120", "IDCIDADE": "RIBEIRAO_PIRES", "NOMEFANTASIA": "MAQWEB", "RAZAOSOCIAL": "MJ_DA_ANUNCIACAO_FERREIRA_MAQUINAS", "ENDEE": "RODOVIA_INDIO_TIBIRICA2149__CENTRO_DE_OURO_FINO_PAULISTA_09442-000", "LATITUDE": "-23.6808818", "LONGITUDE": "-46.3622683", "LMAPS": "https://www.google.com/maps?q=&layer=c&cbll=-46.3622683,-23.6808818", "O_QUE_FAZER": "CARTEIRA", "field_10": null, "field_11": null, "field_12": null, "field_13": null, "ER_REGIAO_CIDADE_min": "Ribeirão Pires_Ouro Fino Paulista_Alto Tietê" }, "geometry": { "type": "Point", "coordinates": [ -46.3622683, -23.6808818 ] } },
{ "type": "Feature", "properties": { "CNPJ": "10565118000110", "IDCIDADE": "RIBEIRAO_PIRES", "NOMEFANTASIA": "SACOLAO_OURO_FINO", "RAZAOSOCIAL": "RAQUEL_CORREA_DE_SOUZA_SA", "ENDEE": "RODOVIA_INDIO_TIBIRICA2260__CENTRO_DE_OURO_FINO_PAULISTA_09442-000", "LATITUDE": "-23.6809072", "LONGITUDE": "-46.3580701", "LMAPS": "https://www.google.com/maps?q=&layer=c&cbll=-46.3580701,-23.6809072", "O_QUE_FAZER": "CARTEIRA", "field_10": null, "field_11": null, "field_12": null, "field_13": null, "ER_REGIAO_CIDADE_min": "Ribeirão Pires_Ouro Fino Paulista_Alto Tietê" }, "geometry": { "type": "Point", "coordinates": [ -46.3580701, -23.6809072 ] } },
{ "type": "Feature", "properties": { "CNPJ": "67882779000197", "IDCIDADE": "RIBEIRAO_PIRES", "NOMEFANTASIA": "VOLBENZ_DISTRIBUIDORA_DE_AUTO_PECAS_LTDA", "RAZAOSOCIAL": "VOLBENZ_DISTRIBUIDORA_DE_AUTO_PECAS_LTDA", "ENDEE": "RODOVIA_INDIO_TIBIRICA2151__CENTRO_DE_OURO_FINO_PAULISTA_09442-000", "LATITUDE": "-23.6811154", "LONGITUDE": "-46.3622261", "LMAPS": "https://www.google.com/maps?q=&layer=c&cbll=-46.3622261,-23.6811154", "O_QUE_FAZER": "CARTEIRA", "field_10": null, "field_11": null, "field_12": null, "field_13": null, "ER_REGIAO_CIDADE_min": "Ribeirão Pires_Ouro Fino Paulista_Alto Tietê" }, "geometry": { "type": "Point", "coordinates": [ -46.3622261, -23.6811154 ] } },
{ "type": "Feature", "properties": { "CNPJ": "58567378000151", "IDCIDADE": "RIBEIRAO_PIRES", "NOMEFANTASIA": "OASIS_PLANTAS", "RAZAOSOCIAL": "OASIS_PAISAGISMO_E_JARDINAGEM_LTDA", "ENDEE": "RODOVIA_INDIO_TIBIRICA2404__POUSO_ALEGRE_09410-000", "LATITUDE": "-23.6813596", "LONGITUDE": "-46.3583631", "LMAPS": "https://www.google.com/maps?q=&layer=c&cbll=-46.3583631,-23.6813596", "O_QUE_FAZER": "CARTEIRA", "field_10": null, "field_11": null, "field_12": null, "field_13": null, "ER_REGIAO_CIDADE_min": "Ribeirão Pires_Ouro Fino Paulista_Alto Tietê" }, "geometry": { "type": "Point", "coordinates": [ -46.3583631, -23.6813596 ] } },
{ "type": "Feature", "properties": { "CNPJ": "10406822000120", "IDCIDADE": "RIBEIRAO_PIRES", "NOMEFANTASIA": "TIBIA_FREIOS", "RAZAOSOCIAL": "EDUARDO_DIOGO_DE_OLIVEIRA", "ENDEE": "RODOVIA_INDIO_TIBIRICA2260__CENTRO_DE_OURO_FINO_PAULISTA_09442-000", "LATITUDE": "-23.6813738", "LONGITUDE": "-46.3577643", "LMAPS": "https://www.google.com/maps?q=&layer=c&cbll=-46.3577643,-23.6813738", "O_QUE_FAZER": "CARTEIRA", "field_10": null, "field_11": null, "field_12": null, "field_13": null, "ER_REGIAO_CIDADE_min": "Ribeirão Pires_Ouro Fino Paulista_Alto Tietê" }, "geometry": { "type": "Point", "coordinates": [ -46.3577643, -23.6813738 ] } },
{ "type": "Feature", "properties": { "CNPJ": "05729126000115", "IDCIDADE": "RIBEIRAO_PIRES", "NOMEFANTASIA": "JR_OIL", "RAZAOSOCIAL": "JR_OIL_LUBRIFICANTES_E_PECAS_LTDA", "ENDEE": "RODOVIA_INDIO_TIBIRICA2245__POUSO_ALEGRE_09442-000", "LATITUDE": "-23.6813758", "LONGITUDE": "-46.3647013", "LMAPS": "https://www.google.com/maps?q=&layer=c&cbll=-46.3647013,-23.6813758", "O_QUE_FAZER": "CARTEIRA", "field_10": null, "field_11": null, "field_12": null, "field_13": null, "ER_REGIAO_CIDADE_min": "Ribeirão Pires_Ouro Fino Paulista_Alto Tietê" }, "geometry": { "type": "Point", "coordinates": [ -46.3647013, -23.6813758 ] } },
{ "type": "Feature", "properties": { "CNPJ": "45771967000105", "IDCIDADE": "RIBEIRAO_PIRES", "NOMEFANTASIA": "PONTO_DO_PALMITO", "RAZAOSOCIAL": "PONTO_DO_PALMITO_COMERCIO_DE_PRODUTOS_ALIMENTICIOS_LTDA", "ENDEE": "RODOVIA_INDIO_TIBIRICA2318__CENTRO_DE_OURO_FINO_PAULISTA_09442-000", "LATITUDE": "-23.6814005", "LONGITUDE": "-46.3594812", "LMAPS": "https://www.google.com/maps?q=&layer=c&cbll=-46.3594812,-23.6814005", "O_QUE_FAZER": "CARTEIRA", "field_10": null, "field_11": null, "field_12": null, "field_13": null, "ER_REGIAO_CIDADE_min": "Ribeirão Pires_Ouro Fino Paulista_Alto Tietê" }, "geometry": { "type": "Point", "coordinates": [ -46.3594812, -23.6814005 ] } },
{ "type": "Feature", "properties": { "CNPJ": "42144813000103", "IDCIDADE": "RIBEIRAO_PIRES", "NOMEFANTASIA": "FUERTE", "RAZAOSOCIAL": "FUERTE_-_COMERCIO_SERVICOS_E_REPRESENTACOES_LTDA", "ENDEE": "RODOVIA_INDIO_TIBIRICA2366__POUSO_ALEGRE_09442-000", "LATITUDE": "-23.6814243", "LONGITUDE": "-46.3588762", "LMAPS": "https://www.google.com/maps?q=&layer=c&cbll=-46.3588762,-23.6814243", "O_QUE_FAZER": "CARTEIRA", "field_10": null, "field_11": null, "field_12": null, "field_13": null, "ER_REGIAO_CIDADE_min": "Ribeirão Pires_Ouro Fino Paulista_Alto Tietê" }, "geometry": { "type": "Point", "coordinates": [ -46.3588762, -23.6814243 ] } },
{ "type": "Feature", "properties": { "CNPJ": "60813326000160", "IDCIDADE": "RIBEIRAO_PIRES", "NOMEFANTASIA": "MAURO_MASSASHI_GUIOTOKO", "RAZAOSOCIAL": "MAURO_MASSASHI_GUIOTOKO", "ENDEE": "RODOVIA_INDIO_TIBIRICA2394__CENTRO_DE_OURO_FINO_PAULISTA_09442-000", "LATITUDE": "-23.6814762", "LONGITUDE": "-46.3585032", "LMAPS": "https://www.google.com/maps?q=&layer=c&cbll=-46.3585032,-23.6814762", "O_QUE_FAZER": "CARTEIRA", "field_10": null, "field_11": null, "field_12": null, "field_13": null, "ER_REGIAO_CIDADE_min": "Ribeirão Pires_Ouro Fino Paulista_Alto Tietê" }, "geometry": { "type": "Point", "coordinates": [ -46.3585032, -23.6814762 ] } },
{ "type": "Feature", "properties": { "CNPJ": "47290966000174", "IDCIDADE": "RIBEIRAO_PIRES", "NOMEFANTASIA": "ARR_CONSTRUCAO", "RAZAOSOCIAL": "ARR_CONSTRUCAO_E_LAZER_LTDA", "ENDEE": "RODOVIA_INDIO_TIBIRICA2310__POUSO_ALEGRE_09442-000", "LATITUDE": "-23.6815102", "LONGITUDE": "-46.3592728", "LMAPS": "https://www.google.com/maps?q=&layer=c&cbll=-46.3592728,-23.6815102", "O_QUE_FAZER": "CARTEIRA", "field_10": null, "field_11": null, "field_12": null, "field_13": null, "ER_REGIAO_CIDADE_min": "Ribeirão Pires_Ouro Fino Paulista_Alto Tietê" }, "geometry": { "type": "Point", "coordinates": [ -46.3592728, -23.6815102 ] } },
{ "type": "Feature", "properties": { "CNPJ": "09189757000140", "IDCIDADE": "RIBEIRAO_PIRES", "NOMEFANTASIA": "HL_TACOGRAFOS", "RAZAOSOCIAL": "BRUNA_DA_SILVA_BENTO", "ENDEE": "RODOVIA_INDIO_TIBIRICA2344__POUSO_ALEGRE_09410-000", "LATITUDE": "-23.6815367", "LONGITUDE": "-46.359036", "LMAPS": "https://www.google.com/maps?q=&layer=c&cbll=-46.359036,-23.6815367", "O_QUE_FAZER": "CARTEIRA", "field_10": null, "field_11": null, "field_12": null, "field_13": null, "ER_REGIAO_CIDADE_min": "Ribeirão Pires_Ouro Fino Paulista_Alto Tietê" }, "geometry": { "type": "Point", "coordinates": [ -46.359036, -23.6815367 ] } },
{ "type": "Feature", "properties": { "CNPJ": "56585094000162", "IDCIDADE": "RIBEIRAO_PIRES", "NOMEFANTASIA": "TUBOS_SOLEAR", "RAZAOSOCIAL": "INDUSTRIA_DE_BLOCOS_E_LAJES_SOLEAR_LTDA", "ENDEE": "RODOVIA_INDIO_TIBIRICA2320__POUSO_ALEGRE_09442-000", "LATITUDE": "-23.6815846", "LONGITUDE": "-46.3607678", "LMAPS": "https://www.google.com/maps?q=&layer=c&cbll=-46.3607678,-23.6815846", "O_QUE_FAZER": "CARTEIRA", "field_10": null, "field_11": null, "field_12": null, "field_13": null, "ER_REGIAO_CIDADE_min": "Ribeirão Pires_Ouro Fino Paulista_Alto Tietê" }, "geometry": { "type": "Point", "coordinates": [ -46.3607678, -23.6815846 ] } },
{ "type": "Feature", "properties": { "CNPJ": "57509564000171", "IDCIDADE": "RIBEIRAO_PIRES", "NOMEFANTASIA": "MERCADO_MURAKAMI", "RAZAOSOCIAL": "Y.MURAKAMI_&_CIA_LTDA", "ENDEE": "AVENIDA_VEREADOR_AROLDO_ALVES_NEVES10__SOMMA_09445-400", "LATITUDE": "-23.6815975", "LONGITUDE": "-46.3595456", "LMAPS": "https://www.google.com/maps?q=&layer=c&cbll=-46.3595456,-23.6815975", "O_QUE_FAZER": "CARTEIRA", "field_10": null, "field_11": null, "field_12": null, "field_13": null, "ER_REGIAO_CIDADE_min": "Ribeirão Pires_Ouro Fino Paulista_Alto Tietê" }, "geometry": { "type": "Point", "coordinates": [ -46.3595456, -23.6815975 ] } },
{ "type": "Feature", "properties": { "CNPJ": "02602117000170", "IDCIDADE": "RIBEIRAO_PIRES", "NOMEFANTASIA": "DO_CAMPO", "RAZAOSOCIAL": "GERALDO_VIEIRA_DE_ABRANTES", "ENDEE": "AVENIDA_VEREADOR_AROLDO_ALVES_NEVES61__SOMMA_09445-400", "LATITUDE": "-23.6817509", "LONGITUDE": "-46.3595211", "LMAPS": "https://www.google.com/maps?q=&layer=c&cbll=-46.3595211,-23.6817509", "O_QUE_FAZER": "CARTEIRA", "field_10": null, "field_11": null, "field_12": null, "field_13": null, "ER_REGIAO_CIDADE_min": "Ribeirão Pires_Ouro Fino Paulista_Alto Tietê" }, "geometry": { "type": "Point", "coordinates": [ -46.3595211, -23.6817509 ] } },
{ "type": "Feature", "properties": { "CNPJ": "33019096000199", "IDCIDADE": "RIBEIRAO_PIRES", "NOMEFANTASIA": "ACADEMIA_FOR_HEALTH", "RAZAOSOCIAL": "ACADEMIA_FOR_HEALTH_LTDA", "ENDEE": "RODOVIA_INDIO_TIBIRICA2291__POUSO_ALEGRE_09411-500", "LATITUDE": "-23.6818065", "LONGITUDE": "-46.3651037", "LMAPS": "https://www.google.com/maps?q=&layer=c&cbll=-46.3651037,-23.6818065", "O_QUE_FAZER": "CARTEIRA", "field_10": null, "field_11": null, "field_12": null, "field_13": null, "ER_REGIAO_CIDADE_min": "Ribeirão Pires_Ouro Fino Paulista_Alto Tietê" }, "geometry": { "type": "Point", "coordinates": [ -46.3651037, -23.6818065 ] } },
{ "type": "Feature", "properties": { "CNPJ": "45791217000103", "IDCIDADE": "RIBEIRAO_PIRES", "NOMEFANTASIA": "RESTAURANTE_TAGA", "RAZAOSOCIAL": "RESTAURANTE_BAR_E_MERCEARIA_TAGA_LTDA", "ENDEE": "RODOVIA_INDIO_TIBIRICA2231__POUSO_ALEGRE_09442-000", "LATITUDE": "-23.6818292", "LONGITUDE": "-46.3653957", "LMAPS": "https://www.google.com/maps?q=&layer=c&cbll=-46.3653957,-23.6818292", "O_QUE_FAZER": "CARTEIRA", "field_10": null, "field_11": null, "field_12": null, "field_13": null, "ER_REGIAO_CIDADE_min": "Ribeirão Pires_Ouro Fino Paulista_Alto Tietê" }, "geometry": { "type": "Point", "coordinates": [ -46.3653957, -23.6818292 ] } },
{ "type": "Feature", "properties": { "CNPJ": "68246727000197", "IDCIDADE": "RIBEIRAO_PIRES", "NOMEFANTASIA": "NOVA_CASANOVA", "RAZAOSOCIAL": "DEISE_MARTINS_DA_COSTA_CASANOVA", "ENDEE": "RUA_DOS_EUCALIPTOS25__POUSO_ALEGRE_09440-190", "LATITUDE": "-23.6820834", "LONGITUDE": "-46.3641417", "LMAPS": "https://www.google.com/maps?q=&layer=c&cbll=-46.3641417,-23.6820834", "O_QUE_FAZER": "CARTEIRA", "field_10": null, "field_11": null, "field_12": null, "field_13": null, "ER_REGIAO_CIDADE_min": "Ribeirão Pires_Ouro Fino Paulista_Alto Tietê" }, "geometry": { "type": "Point", "coordinates": [ -46.3641417, -23.6820834 ] } },
{ "type": "Feature", "properties": { "CNPJ": "74571738000145", "IDCIDADE": "RIBEIRAO_PIRES", "NOMEFANTASIA": "PADARIA_RECANTO_VERDE", "RAZAOSOCIAL": "RECANTO_VERDE_PANIFICADORA_E_CONFEITARIA_LTDA", "ENDEE": "RODOVIA_INDIO_TIBIRICA2288__POUSO_ALEGRE_09411-500", "LATITUDE": "-23.6822436", "LONGITUDE": "-46.3644517", "LMAPS": "https://www.google.com/maps?q=&layer=c&cbll=-46.3644517,-23.6822436", "O_QUE_FAZER": "CARTEIRA", "field_10": null, "field_11": null, "field_12": null, "field_13": null, "ER_REGIAO_CIDADE_min": "Ribeirão Pires_Ouro Fino Paulista_Alto Tietê" }, "geometry": { "type": "Point", "coordinates": [ -46.3644517, -23.6822436 ] } },
{ "type": "Feature", "properties": { "CNPJ": "19980585000181", "IDCIDADE": "RIBEIRAO_PIRES", "NOMEFANTASIA": "FELIPE_CALHAS", "RAZAOSOCIAL": "JESSICA_PAULO_FELIPE_FERRAGENS", "ENDEE": "RODOVIA_INDIO_TIBIRICA2264__POUSO_ALEGRE_09411-500", "LATITUDE": "-23.6822724", "LONGITUDE": "-46.3647249", "LMAPS": "https://www.google.com/maps?q=&layer=c&cbll=-46.3647249,-23.6822724", "O_QUE_FAZER": "CARTEIRA", "field_10": null, "field_11": null, "field_12": null, "field_13": null, "ER_REGIAO_CIDADE_min": "Ribeirão Pires_Ouro Fino Paulista_Alto Tietê" }, "geometry": { "type": "Point", "coordinates": [ -46.3647249, -23.6822724 ] } },
{ "type": "Feature", "properties": { "CNPJ": "07378702000152", "IDCIDADE": "RIBEIRAO_PIRES", "NOMEFANTASIA": "ABRANTES_COMERCIO_DE_PRODUTOS_AGROPECUARIO", "RAZAOSOCIAL": "EDNAILDA_RODRIGUES_DE_ABRANTES", "ENDEE": "RODOVIA_INDIO_TIBIRICA2258__RONCON_09442-000", "LATITUDE": "-23.6822956", "LONGITUDE": "-46.3648229", "LMAPS": "https://www.google.com/maps?q=&layer=c&cbll=-46.3648229,-23.6822956", "O_QUE_FAZER": "CARTEIRA", "field_10": null, "field_11": null, "field_12": null, "field_13": null, "ER_REGIAO_CIDADE_min": "Ribeirão Pires_Ouro Fino Paulista_Alto Tietê" }, "geometry": { "type": "Point", "coordinates": [ -46.3648229, -23.6822956 ] } },
{ "type": "Feature", "properties": { "CNPJ": "24006981000142", "IDCIDADE": "RIBEIRAO_PIRES", "NOMEFANTASIA": "SERRALHERIA_ROOSEWELT", "RAZAOSOCIAL": "CARLOS_SERGIO_XAVIER_ALMEIDA", "ENDEE": "RODOVIA_INDIO_TIBIRICA2292__RONCON_09442-000", "LATITUDE": "-23.6843233", "LONGITUDE": "-46.3643683", "LMAPS": "https://www.google.com/maps?q=&layer=c&cbll=-46.3643683,-23.6843233", "O_QUE_FAZER": "CARTEIRA", "field_10": null, "field_11": null, "field_12": null, "field_13": null, "ER_REGIAO_CIDADE_min": "Ribeirão Pires_Ouro Fino Paulista_Alto Tietê" }, "geometry": { "type": "Point", "coordinates": [ -46.3643683, -23.6843233 ] } },
{ "type": "Feature", "properties": { "CNPJ": "28692094000126", "IDCIDADE": "RIBEIRAO_PIRES", "NOMEFANTASIA": "GRAMAQ", "RAZAOSOCIAL": "GRAMAQ_VENDAS_E_SERVICOS_TECNICOS_LTDA", "ENDEE": "RODOVIA_INDIO_TIBIRICA2522__POUSO_ALEGRE_09442-000", "LATITUDE": "-23.6797037", "LONGITUDE": "-46.3544897", "LMAPS": "https://www.google.com/maps?q=&layer=c&cbll=-46.3544897,-23.6797037", "O_QUE_FAZER": "FINALIZADO", "field_10": null, "field_11": null, "field_12": null, "field_13": null, "ER_REGIAO_CIDADE_min": "Ribeirão Pires_Ouro Fino Paulista_Alto Tietê" }, "geometry": { "type": "Point", "coordinates": [ -46.3544897, -23.6797037 ] } },
{ "type": "Feature", "properties": { "CNPJ": "08027800000108", "IDCIDADE": "RIBEIRAO_PIRES", "NOMEFANTASIA": "OUROFARMA", "RAZAOSOCIAL": "NOVA_AZENHA_FARMA_LTDA", "ENDEE": "RODOVIA_INDIO_TIBIRICA2689__CENTRO_DE_OURO_FINO_PAULISTA_09442-000", "LATITUDE": "-23.6761983", "LONGITUDE": "-46.35116", "LMAPS": "https://www.google.com/maps?q=&layer=c&cbll=-46.35116,-23.6761983", "O_QUE_FAZER": "FINALIZADO", "field_10": null, "field_11": null, "field_12": null, "field_13": null, "ER_REGIAO_CIDADE_min": "Ribeirão Pires_Ouro Fino Paulista_Alto Tietê" }, "geometry": { "type": "Point", "coordinates": [ -46.35116, -23.6761983 ] } },
{ "type": "Feature", "properties": { "CNPJ": "57456827000121", "IDCIDADE": "RIBEIRAO_PIRES", "NOMEFANTASIA": "TIBIRIÇA", "RAZAOSOCIAL": "TIBIRIÇA", "ENDEE": "RUA_ÍNDIO TIBIRIÇÁ_2739_REPRESA_09415-000_RIBEIRAO_PIRES", "LATITUDE": "-23.6769144", "LONGITUDE": "-46.3516791", "LMAPS": "https://www.google.com/maps?q=&layer=c&cbll=-23.6769144,-46.3516791", "O_QUE_FAZER": "FINALIZADO", "field_10": null, "field_11": null, "field_12": null, "field_13": null, "ER_REGIAO_CIDADE_min": "Ribeirão Pires_Ouro Fino Paulista_Alto Tietê" }, "geometry": { "type": "Point", "coordinates": [ -46.3516791, -23.6769144 ] } },
{ "type": "Feature", "properties": { "CNPJ": "13992103000127", "IDCIDADE": "RIBEIRAO_PIRES", "NOMEFANTASIA": "OURO_FINO_TECIDOS", "RAZAOSOCIAL": "RODRIGO_DE_OLIVEIRA_VICENTE", "ENDEE": "RODOVIA_INDIO_TIBIRICA2850__CENTRO_DE_OURO_FINO_PAULISTA_09442-000", "LATITUDE": "-23.6772434", "LONGITUDE": "-46.3512376", "LMAPS": "https://www.google.com/maps?q=&layer=c&cbll=-46.3512376,-23.6772434", "O_QUE_FAZER": "FINALIZADO", "field_10": null, "field_11": null, "field_12": null, "field_13": null, "ER_REGIAO_CIDADE_min": "Ribeirão Pires_Ouro Fino Paulista_Alto Tietê" }, "geometry": { "type": "Point", "coordinates": [ -46.3512376, -23.6772434 ] } },
{ "type": "Feature", "properties": { "CNPJ": "35087328000171", "IDCIDADE": "RIBEIRAO_PIRES", "NOMEFANTASIA": "OURO_FINO_DEPOSITO_DE_MATERIAIS_DE_CONSTRUCOES", "RAZAOSOCIAL": "OURO_FINO_DEPOSITO_DE_MATERIAIS_DE_CONSTRUCOES_LTDA", "ENDEE": "RODOVIA_INDIO_TIBIRICA2659__CENTRO_DE_OURO_FINO_PAULISTA_09442-000", "LATITUDE": "-23.677359", "LONGITUDE": "-46.3523919", "LMAPS": "https://www.google.com/maps?q=&layer=c&cbll=-46.3523919,-23.677359", "O_QUE_FAZER": "FINALIZADO", "field_10": null, "field_11": null, "field_12": null, "field_13": null, "ER_REGIAO_CIDADE_min": "Ribeirão Pires_Ouro Fino Paulista_Alto Tietê" }, "geometry": { "type": "Point", "coordinates": [ -46.3523919, -23.677359 ] } },
{ "type": "Feature", "properties": { "CNPJ": "06953304000150", "IDCIDADE": "RIBEIRAO_PIRES", "NOMEFANTASIA": "BAR_E_LANCHONETE_PORTUGUES", "RAZAOSOCIAL": "ADELINO_SILVA_NEVES", "ENDEE": "RODOVIA_INDIO_TIBIRICA2824__CENTRO_DE_OURO_FINO_PAULISTA_09442-000", "LATITUDE": "-23.6774118", "LONGITUDE": "-46.3514358", "LMAPS": "https://www.google.com/maps?q=&layer=c&cbll=-46.3514358,-23.6774118", "O_QUE_FAZER": "FINALIZADO", "field_10": null, "field_11": null, "field_12": null, "field_13": null, "ER_REGIAO_CIDADE_min": "Ribeirão Pires_Ouro Fino Paulista_Alto Tietê" }, "geometry": { "type": "Point", "coordinates": [ -46.3514358, -23.6774118 ] } },
{ "type": "Feature", "properties": { "CNPJ": "17758633000166", "IDCIDADE": "RIBEIRAO_PIRES", "NOMEFANTASIA": "B_&_MG_TINTAS_LTDA", "RAZAOSOCIAL": "B_&_MG_TINTAS_LTDA", "ENDEE": "RODOVIA_INDIO_TIBIRICA2639__CENTRO_DE_OURO_FINO_PAULISTA_09442-000", "LATITUDE": "-23.677455", "LONGITUDE": "-46.3523183", "LMAPS": "https://www.google.com/maps?q=&layer=c&cbll=-46.3523183,-23.677455", "O_QUE_FAZER": "FINALIZADO", "field_10": null, "field_11": null, "field_12": null, "field_13": null, "ER_REGIAO_CIDADE_min": "Ribeirão Pires_Ouro Fino Paulista_Alto Tietê" }, "geometry": { "type": "Point", "coordinates": [ -46.3523183, -23.677455 ] } },
{ "type": "Feature", "properties": { "CNPJ": "56064057000109", "IDCIDADE": "RIBEIRAO_PIRES", "NOMEFANTASIA": "AGROPECUARIA_GUIU", "RAZAOSOCIAL": "AGROPECUARIA_GUIU_LTDA", "ENDEE": "RODOVIA_INDIO_TIBIRICA2615__CENTRO_DE_OURO_FINO_PAULISTA_09442-000", "LATITUDE": "-23.6777094", "LONGITUDE": "-46.3525439", "LMAPS": "https://www.google.com/maps?q=&layer=c&cbll=-46.3525439,-23.6777094", "O_QUE_FAZER": "FINALIZADO", "field_10": null, "field_11": null, "field_12": null, "field_13": null, "ER_REGIAO_CIDADE_min": "Ribeirão Pires_Ouro Fino Paulista_Alto Tietê" }, "geometry": { "type": "Point", "coordinates": [ -46.3525439, -23.6777094 ] } },
{ "type": "Feature", "properties": { "CNPJ": "14374889000181", "IDCIDADE": "RIBEIRAO_PIRES", "NOMEFANTASIA": "OURO_FARMA", "RAZAOSOCIAL": "AZENHA_FARMA_LTDA", "ENDEE": "RODOVIA_INDIO_TIBIRICA2812__CENTRO_DE_OURO_FINO_PAULISTA_09442-000", "LATITUDE": "-23.6777417", "LONGITUDE": "-46.3517833", "LMAPS": "https://www.google.com/maps?q=&layer=c&cbll=-46.3517833,-23.6777417", "O_QUE_FAZER": "FINALIZADO", "field_10": null, "field_11": null, "field_12": null, "field_13": null, "ER_REGIAO_CIDADE_min": "Ribeirão Pires_Ouro Fino Paulista_Alto Tietê" }, "geometry": { "type": "Point", "coordinates": [ -46.3517833, -23.6777417 ] } },
{ "type": "Feature", "properties": { "CNPJ": "09111456000101", "IDCIDADE": "RIBEIRAO_PIRES", "NOMEFANTASIA": "NUTRIPET_OUROFINO", "RAZAOSOCIAL": "KAORU_OCHIAI_RACOES", "ENDEE": "RODOVIA_INDIO_TIBIRICA2575__CENTRO_DE_OURO_FINO_PAULISTA_09440-000", "LATITUDE": "-23.6778614", "LONGITUDE": "-46.352812", "LMAPS": "https://www.google.com/maps?q=&layer=c&cbll=-46.352812,-23.6778614", "O_QUE_FAZER": "FINALIZADO", "field_10": null, "field_11": null, "field_12": null, "field_13": null, "ER_REGIAO_CIDADE_min": "Ribeirão Pires_Ouro Fino Paulista_Alto Tietê" }, "geometry": { "type": "Point", "coordinates": [ -46.352812, -23.6778614 ] } },
{ "type": "Feature", "properties": { "CNPJ": "02042431000146", "IDCIDADE": "RIBEIRAO_PIRES", "NOMEFANTASIA": "ROSA_H_S_MURAKI", "RAZAOSOCIAL": "ROSA_H_S_MURAKI", "ENDEE": "RODOVIA_INDIO_TIBIRICA2796__CENTRO_DE_OURO_FINO_PAULISTA_09442-000", "LATITUDE": "-23.6779067", "LONGITUDE": "-46.3518767", "LMAPS": "https://www.google.com/maps?q=&layer=c&cbll=-46.3518767,-23.6779067", "O_QUE_FAZER": "FINALIZADO", "field_10": null, "field_11": null, "field_12": null, "field_13": null, "ER_REGIAO_CIDADE_min": "Ribeirão Pires_Ouro Fino Paulista_Alto Tietê" }, "geometry": { "type": "Point", "coordinates": [ -46.3518767, -23.6779067 ] } },
{ "type": "Feature", "properties": { "CNPJ": "64945371000129", "IDCIDADE": "RIBEIRAO_PIRES", "NOMEFANTASIA": "MERCADO_BOM_GOSTO", "RAZAOSOCIAL": "BURIN_&_BURINI_LTDA", "ENDEE": "RODOVIA_INDIO_TIBIRICA2555__CENTRO_DE_OURO_FINO_PAULISTA_09442-000", "LATITUDE": "-23.6780536", "LONGITUDE": "-46.3530057", "LMAPS": "https://www.google.com/maps?q=&layer=c&cbll=-46.3530057,-23.6780536", "O_QUE_FAZER": "FINALIZADO", "field_10": null, "field_11": null, "field_12": null, "field_13": null, "ER_REGIAO_CIDADE_min": "Ribeirão Pires_Ouro Fino Paulista_Alto Tietê" }, "geometry": { "type": "Point", "coordinates": [ -46.3530057, -23.6780536 ] } },
{ "type": "Feature", "properties": { "CNPJ": "03330397000178", "IDCIDADE": "RIBEIRAO_PIRES", "NOMEFANTASIA": "GARDEN_OURO_FINO", "RAZAOSOCIAL": "PLANTAS_ORNAMENTAIS_DOIS_IRMAOS_OURO_FINO_LTDA", "ENDEE": "RODOVIA_INDIO_TIBIRICA2792__CENTRO_DE_OURO_FINO_PAULISTA_09442-000", "LATITUDE": "-23.6784637", "LONGITUDE": "-46.3523234", "LMAPS": "https://www.google.com/maps?q=&layer=c&cbll=-46.3523234,-23.6784637", "O_QUE_FAZER": "FINALIZADO", "field_10": null, "field_11": null, "field_12": null, "field_13": null, "ER_REGIAO_CIDADE_min": "Ribeirão Pires_Ouro Fino Paulista_Alto Tietê" }, "geometry": { "type": "Point", "coordinates": [ -46.3523234, -23.6784637 ] } },
{ "type": "Feature", "properties": { "CNPJ": "29932023000116", "IDCIDADE": "RIBEIRAO_PIRES", "NOMEFANTASIA": "MAIS_ESQUADRIAS", "RAZAOSOCIAL": "MAIS_ESQUADRIAS_METAIS_LTDA", "ENDEE": "RODOVIA_INDIO_TIBIRICA3130__CENTRO_DE_OURO_FINO_PAULISTA_09442-000", "LATITUDE": "-23.6794338", "LONGITUDE": "-46.3537715", "LMAPS": "https://www.google.com/maps?q=&layer=c&cbll=-46.3537715,-23.6794338", "O_QUE_FAZER": "FINALIZADO", "field_10": null, "field_11": null, "field_12": null, "field_13": null, "ER_REGIAO_CIDADE_min": "Ribeirão Pires_Ouro Fino Paulista_Alto Tietê" }, "geometry": { "type": "Point", "coordinates": [ -46.3537715, -23.6794338 ] } },
{ "type": "Feature", "properties": { "CNPJ": "64252833000122", "IDCIDADE": "RIBEIRAO_PIRES", "NOMEFANTASIA": "BRAQUEADA", "RAZAOSOCIAL": "BRAQUEADA", "ENDEE": "RODOVIA_ÍNDIO TIBIRIÇÁ_3230_CENTRO DE OURO FINO PAULISTA_09442-000_RIBEIRAO_PIRES", "LATITUDE": "-23.6795306", "LONGITUDE": "-46.3538282", "LMAPS": "https://www.google.com/maps?q=&layer=c&cbll=-23.6795306,-46.3538282", "O_QUE_FAZER": "FINALIZADO", "field_10": null, "field_11": null, "field_12": null, "field_13": null, "ER_REGIAO_CIDADE_min": "Ribeirão Pires_Ouro Fino Paulista_Alto Tietê" }, "geometry": { "type": "Point", "coordinates": [ -46.3538282, -23.6795306 ] } },
{ "type": "Feature", "properties": { "CNPJ": "50003945000135", "IDCIDADE": "RIBEIRAO_PIRES", "NOMEFANTASIA": "KDOIS DETAIL", "RAZAOSOCIAL": "KDOIS DETAIL", "ENDEE": "RODOVIA_ÍNDIO TIBIRIÇÁ_2522_POUSO ALEGRE_09440-000_RIBEIRAO_PIRES", "LATITUDE": "-23.6796058", "LONGITUDE": "-46.3545053", "LMAPS": "https://www.google.com/maps?q=&layer=c&cbll=-23.6796058,-46.3545053", "O_QUE_FAZER": "FINALIZADO", "field_10": null, "field_11": null, "field_12": null, "field_13": null, "ER_REGIAO_CIDADE_min": "Ribeirão Pires_Ouro Fino Paulista_Alto Tietê" }, "geometry": { "type": "Point", "coordinates": [ -46.3545053, -23.6796058 ] } },
{ "type": "Feature", "properties": { "CNPJ": "07969166000160", "IDCIDADE": "RIBEIRAO_PIRES", "NOMEFANTASIA": "VIVIAN_MIRANDA_MOTA", "RAZAOSOCIAL": "OURO_VET", "ENDEE": "RODOVIA_INDIO_TIBIRICA2645__POUSO_ALEGRE_09440-000", "LATITUDE": "-23.6768365", "LONGITUDE": "-46.3513646", "LMAPS": "https://www.google.com/maps?q=&layer=c&cbll=-46.3513646,-23.6768365", "O_QUE_FAZER": "FINALIZADO", "field_10": null, "field_11": null, "field_12": null, "field_13": null, "ER_REGIAO_CIDADE_min": "Ribeirão Pires_Ouro Fino Paulista_Alto Tietê" }, "geometry": { "type": "Point", "coordinates": [ -46.3513646, -23.6768365 ] } },
{ "type": "Feature", "properties": { "CNPJ": "45767609000129", "IDCIDADE": "RIBEIRAO_PIRES", "NOMEFANTASIA": "ANA_FLAVIA_ROSA_30869973894", "RAZAOSOCIAL": "ANA_FLAVIA_ROSA", "ENDEE": "RUA_JERICO55__POUSO_ALEGRE_09440-250", "LATITUDE": "-23.6895346", "LONGITUDE": "-46.3680278", "LMAPS": "https://www.google.com/maps?q=&layer=c&cbll=-46.3680278,-23.6895346", "O_QUE_FAZER": "FINALIZADO", "field_10": null, "field_11": null, "field_12": null, "field_13": null, "ER_REGIAO_CIDADE_min": "Ribeirão Pires_Ouro Fino Paulista_Alto Tietê" }, "geometry": { "type": "Point", "coordinates": [ -46.3680278, -23.6895346 ] } },
{ "type": "Feature", "properties": { "CNPJ": "35315098000150", "IDCIDADE": "RIBEIRÃO PIRES", "NOMEFANTASIA": "MARQUES FIGUEIRA REPRESENTACOES", "RAZAOSOCIAL": "TIBIRICA MULTIMARCAS, LOCADORA, VENDA E REPASSE LTDA", "ENDEE": "RODOVIA INDIO TIBIRICA, 2296, RONCON, 09410-000, RIBEIRÃO PIRES, SP, BRASIL", "LATITUDE": "-23.6811469", "LONGITUDE": "-46.3574825", "LMAPS": "https://www.google.com/maps?q=&layer=c&cbll=-23.6811469,-46.3574825", "O_QUE_FAZER": "CARTEIRA - FAMPE", "field_10": null, "field_11": null, "field_12": null, "field_13": null, "ER_REGIAO_CIDADE_min": "Ribeirão Pires_Ouro Fino Paulista_Alto Tietê" }, "geometry": { "type": "Point", "coordinates": [ -46.3574825, -23.6811469 ] } },
{ "type": "Feature", "properties": { "CNPJ": "19747413000162", "IDCIDADE": "RIBEIRÃO PIRES", "NOMEFANTASIA": "MAMF TRANSPORTES", "RAZAOSOCIAL": "MAMF TRANSPORTES LTDA", "ENDEE": "RUA CAFELANDIA, 338, CENTRO DE OURO FINO PAULISTA, 09443-070, RIBEIRÃO PIRES, SP, BRASIL", "LATITUDE": "-23.6829421", "LONGITUDE": "-46.3544934", "LMAPS": "https://www.google.com/maps?q=&layer=c&cbll=-23.6829421,-46.3544934", "O_QUE_FAZER": "CARTEIRA - FAMPE", "field_10": null, "field_11": null, "field_12": null, "field_13": null, "ER_REGIAO_CIDADE_min": "Ribeirão Pires_Ouro Fino Paulista_Alto Tietê" }, "geometry": { "type": "Point", "coordinates": [ -46.3544934, -23.6829421 ] } },
{ "type": "Feature", "properties": { "CNPJ": "37530925000154", "IDCIDADE": "RIBEIRÃO PIRES", "NOMEFANTASIA": "W.B TRANSPORTES", "RAZAOSOCIAL": "W.B TRANSPORTES LTDA", "ENDEE": "AVENIDA ANIBAL AUGUSTO, 160, CENTRO DE OURO FINO PAULISTA, 09443-195, RIBEIRÃO PIRES, SP, BRASIL", "LATITUDE": "-23.6839171", "LONGITUDE": "-46.3561587", "LMAPS": "https://www.google.com/maps?q=&layer=c&cbll=-23.6839171,-46.3561587", "O_QUE_FAZER": "CARTEIRA - FAMPE", "field_10": null, "field_11": null, "field_12": null, "field_13": null, "ER_REGIAO_CIDADE_min": "Ribeirão Pires_Ouro Fino Paulista_Alto Tietê" }, "geometry": { "type": "Point", "coordinates": [ -46.3561587, -23.6839171 ] } },
{ "type": "Feature", "properties": { "CNPJ": "50811532000187", "IDCIDADE": "RIBEIRÃO PIRES", "NOMEFANTASIA": "DELFINO COMPANY", "RAZAOSOCIAL": "DELFINO COMPANY LTDA", "ENDEE": "RUA JATOBA, 90, CENTRO DE OURO FINO PAULISTA, 09443-230, RIBEIRÃO PIRES, SP, BRASIL", "LATITUDE": "-23.6853316", "LONGITUDE": "-46.3544912", "LMAPS": "https://www.google.com/maps?q=&layer=c&cbll=-23.6853316,-46.3544912", "O_QUE_FAZER": "CARTEIRA - FAMPE", "field_10": null, "field_11": null, "field_12": null, "field_13": null, "ER_REGIAO_CIDADE_min": "Ribeirão Pires_Ouro Fino Paulista_Alto Tietê" }, "geometry": { "type": "Point", "coordinates": [ -46.3544912, -23.6853316 ] } }
]
}
