{
"type": "FeatureCollection",
"name": "ER_REGIAO_CIDADE_min_Mongaguá_Baixada Santista",
"crs": { "type": "name", "properties": { "name": "urn:ogc:def:crs:OGC:1.3:CRS84" } },
"xy_coordinate_resolution": 1e-15,
"features": [
{ "type": "Feature", "properties": { "CNPJ": "41351440000170", "IDCIDADE": "MONGAGUA", "NOMEFANTASIA": "-", "RAZAOSOCIAL": "LAIZA_KELLY_RIBEIRO_DA_SILVA_40805343881", "ENDEE": "AVENIDA_CASTRO_ALVES_248_JARDIM_PRAIA_GRANDE_11733-118_MONGAGUA", "LMAPS": "https://www.google.com/maps?q=&layer=c&cbll=-24.1094685,-46.6588274", "O_QUE_FAZER": "APLICAR T2", "ER_REGIAO_CIDADE_min": "Mongaguá_Baixada Santista" }, "geometry": { "type": "Point", "coordinates": [ -46.6588274, -24.1094685 ] } },
{ "type": "Feature", "properties": { "CNPJ": "22900610000184", "IDCIDADE": "MONGAGUA", "NOMEFANTASIA": "DIEGO_FERREIRA_DE_OLIVEIRA", "RAZAOSOCIAL": "DWM_STORE", "ENDEE": "AVENIDA_NOSSA_SENHORA_DE_FATIMA1633__ESTANCIA_BALNEARIO_DE_BIRIGUI_11730-000", "LMAPS": "https://www.google.com/maps?q=&layer=c&cbll=-46.6996752,-24.1214337", "O_QUE_FAZER": "FINALIZADO", "ER_REGIAO_CIDADE_min": "Mongaguá_Baixada Santista" }, "geometry": { "type": "Point", "coordinates": [ -46.6996752, -24.1214337 ] } },
{ "type": "Feature", "properties": { "CNPJ": "29603991000189", "IDCIDADE": "MONGAGUA", "NOMEFANTASIA": "29.603.991_RODRIGO_CARVALHO_PINI", "RAZAOSOCIAL": "AUTO_ELETRICA_MONGAGUA_", "ENDEE": "AVENIDA_VICENTE_DE_CARVALHO105__VILA_SEABRA_11730-000", "LMAPS": "https://www.google.com/maps?q=&layer=c&cbll=-46.6565693,-24.1099689", "O_QUE_FAZER": "FINALIZADO", "ER_REGIAO_CIDADE_min": "Mongaguá_Baixada Santista" }, "geometry": { "type": "Point", "coordinates": [ -46.6565693, -24.1099689 ] } },
{ "type": "Feature", "properties": { "CNPJ": "29740861000198", "IDCIDADE": "MONGAGUA", "NOMEFANTASIA": "GRAZIELE_ADELINA_ALVES_DE_NOVAES", "RAZAOSOCIAL": "IMPRIME_MAIS", "ENDEE": "RUA_GEYSA_MARCOCK870__ITAGUAI_11730-000", "LMAPS": "https://www.google.com/maps?q=&layer=c&cbll=-46.7006645,-24.1268094", "O_QUE_FAZER": "FINALIZADO", "ER_REGIAO_CIDADE_min": "Mongaguá_Baixada Santista" }, "geometry": { "type": "Point", "coordinates": [ -46.7006645, -24.1268094 ] } },
{ "type": "Feature", "properties": { "CNPJ": "60232672000154", "IDCIDADE": "MONGAGUA", "NOMEFANTASIA": "60.232.672_THIAGO_FERNANDES_CORAZZA", "RAZAOSOCIAL": "60.232.672_THIAGO_FERNANDES_CORAZZA", "ENDEE": "RUA_JOANA_CRISTINA_LOURENCO392__ITAGUAI_11730-000", "LMAPS": "https://www.google.com/maps?q=&layer=c&cbll=-46.6942472,-24.1283049", "O_QUE_FAZER": "FINALIZADO", "ER_REGIAO_CIDADE_min": "Mongaguá_Baixada Santista" }, "geometry": { "type": "Point", "coordinates": [ -46.6942472, -24.1283049 ] } },
{ "type": "Feature", "properties": { "CNPJ": "47882348000113", "IDCIDADE": "MONGAGUA", "NOMEFANTASIA": "47.882.348_KAREN_ANDREA_PIROVIC_PIRES", "RAZAOSOCIAL": "ATELIE_PUCTI_IMAGENI_", "ENDEE": "RUA_MARCILIO_DOS_SANTOS136__CONJUNTO_RESIDENCIAL_MAZZEO_11730-000", "LMAPS": "https://www.google.com/maps?q=&layer=c&cbll=-46.704287,-24.121509", "O_QUE_FAZER": "FINALIZADO", "ER_REGIAO_CIDADE_min": "Mongaguá_Baixada Santista" }, "geometry": { "type": "Point", "coordinates": [ -46.704287, -24.121509 ] } },
{ "type": "Feature", "properties": { "CNPJ": "47796469000142", "IDCIDADE": "MONGAGUA", "NOMEFANTASIA": "GLAYTON_OLIVEIRA_DE_BARROS_22468126823", "RAZAOSOCIAL": "GLAYTON_OLIVEIRA_DE_BARROS_22468126823", "ENDEE": "RUA_SAO_LUIZ441__VILA_ATLANTICA_11730-000", "LMAPS": "https://www.google.com/maps?q=&layer=c&cbll=-46.6460567,-24.1048608", "O_QUE_FAZER": "FINALIZADO", "ER_REGIAO_CIDADE_min": "Mongaguá_Baixada Santista" }, "geometry": { "type": "Point", "coordinates": [ -46.6460567, -24.1048608 ] } },
{ "type": "Feature", "properties": { "CNPJ": "52704684000106", "IDCIDADE": "MONGAGUA", "NOMEFANTASIA": "52.704.684_SILENE_DE_JESUS_NASCIMENTO", "RAZAOSOCIAL": "52.704.684_SILENE_DE_JESUS_NASCIMENTO", "ENDEE": "AVENIDA_SAO_PAULO4981__VILA_ATLANTICA_11731-056", "LMAPS": "https://www.google.com/maps?q=&layer=c&cbll=-46.6493608,-24.1087022", "O_QUE_FAZER": "FINALIZADO", "ER_REGIAO_CIDADE_min": "Mongaguá_Baixada Santista" }, "geometry": { "type": "Point", "coordinates": [ -46.6493608, -24.1087022 ] } }
]
}
