{
"type": "FeatureCollection",
"name": "ER_REGIAO_CIDADE_min_Miracatu_Santa Rita do Ribeira_Osasco",
"crs": { "type": "name", "properties": { "name": "urn:ogc:def:crs:OGC:1.3:CRS84" } },
"xy_coordinate_resolution": 1e-15,
"features": [
{ "type": "Feature", "properties": { "fid": 200665, "CNPJ": "04492405000145", "IDCIDADE": "MIRACATU", "NOMEFANTASIA": "COMERCIAL_OLIVEIRA", "RAZAOSOCIAL": "MARLI_BUENO_SILVA_DE_OLIVEIRA", "ENDEE": "RUA_SAO_PAULO166__SANTA_RITA_DO_RIBEIRA_11850-000", "LMAPS": "https://www.google.com/maps?q=&layer=c&cbll=-47.3179774,-24.14995", "O_QUE_FAZER": "CARTEIRA", "ER_REGIAO_CIDADE_min": "Miracatu_Santa Rita do Ribeira_Osasco" }, "geometry": { "type": "Point", "coordinates": [ -47.3179774, -24.14995 ] } },
{ "type": "Feature", "properties": { "fid": 216308, "CNPJ": "17930289000140", "IDCIDADE": "MIRACATU", "NOMEFANTASIA": "NTC - ME - OBRAS DE ALVENARIA E TRANSPORTE DE CARGAS", "RAZAOSOCIAL": "NTC - OBRAS DE ALVENARIA E TRANSPORTE DE CARGAS LTDA", "ENDEE": "RUA BRASILIA, 540, SANTA RITA, 11850-000, MIRACATU, SP, BRASIL", "LMAPS": "https://www.google.com/maps?q=&layer=c&cbll=-24.1490866,-47.3214121", "O_QUE_FAZER": "CARTEIRA - FAMPE", "ER_REGIAO_CIDADE_min": "Miracatu_Santa Rita do Ribeira_Osasco" }, "geometry": { "type": "Point", "coordinates": [ -47.3214121, -24.1490866 ] } }
]
}
