{
"type": "FeatureCollection",
"name": "ER_REGIAO_CIDADE_min_Boituva_Sorocaba",
"crs": { "type": "name", "properties": { "name": "urn:ogc:def:crs:OGC:1.3:CRS84" } },
"xy_coordinate_resolution": 1e-15,
"features": [
{ "type": "Feature", "properties": { "fid": 2108, "CNPJ": "00432396000146", "IDCIDADE": "BOITUVA", "NOMEFANTASIA": null, "RAZAOSOCIAL": "FABIO_ALESSANDRO_DE_ALBUQUERQUE", "ENDEE": "RUA CORONEL EUGENIO MOTTA, 521, LOJA 42 QUIOSQ3, CENTRO, 18550-000, BOITUVA, SP, BRASIL", "LMAPS": "https://www.google.com/maps?q=&layer=c&cbll=-23.2830326,-47.6705129", "O_QUE_FAZER": "CARTEIRA - FAMPE", "ER_REGIAO_CIDADE_min": "Boituva_Sorocaba" }, "geometry": { "type": "Point", "coordinates": [ -47.6705129, -23.2830326 ] } },
{ "type": "Feature", "properties": { "fid": 34479, "CNPJ": "05897385000155", "IDCIDADE": "BOITUVA", "NOMEFANTASIA": null, "RAZAOSOCIAL": "RODRIGUES_&_CAMPOS_PIZZARIA_LTDA", "ENDEE": "RUA JOAO LEITE, 39, CENTRO, 18550-065, BOITUVA, SP, BRASIL", "LMAPS": "https://www.google.com/maps?q=&layer=c&cbll=-23.2849731,-47.6748265", "O_QUE_FAZER": "CARTEIRA - FAMPE", "ER_REGIAO_CIDADE_min": "Boituva_Sorocaba" }, "geometry": { "type": "Point", "coordinates": [ -47.6748265, -23.2849731 ] } },
{ "type": "Feature", "properties": { "fid": 40270, "CNPJ": "07145985000192", "IDCIDADE": "BOITUVA", "NOMEFANTASIA": "DORNELAS", "RAZAOSOCIAL": "DORNELAS_EPI'S_E_FERRAMENTAS_LTDA", "ENDEE": "RUA ACACIO MANOEL DA SILVA VIANNA, 373, AGUIA DA CASTELO, 18550000, BOITUVA, SP, BRASIL", "LMAPS": "https://www.google.com/maps?q=&layer=c&cbll=-23.2825898,-47.6610964", "O_QUE_FAZER": "CARTEIRA - FAMPE", "ER_REGIAO_CIDADE_min": "Boituva_Sorocaba" }, "geometry": { "type": "Point", "coordinates": [ -47.6610964, -23.2825898 ] } },
{ "type": "Feature", "properties": { "fid": 47745, "CNPJ": "08062608000152", "IDCIDADE": "BOITUVA", "NOMEFANTASIA": "VAREJAO_BOITUVA", "RAZAOSOCIAL": "MC_PEIA_COMERCIO_DE_HORTIFRUTI_LTDA", "ENDEE": "AVENIDA MARIA PEDRO VERCELLINO, 100, CENTRO, 18550-000, BOITUVA, SP, BRASIL", "LMAPS": "https://www.google.com/maps?q=&layer=c&cbll=-23.2872025,-47.6786786", "O_QUE_FAZER": "CARTEIRA - FAMPE", "ER_REGIAO_CIDADE_min": "Boituva_Sorocaba" }, "geometry": { "type": "Point", "coordinates": [ -47.6786786, -23.2872025 ] } },
{ "type": "Feature", "properties": { "fid": 47792, "CNPJ": "08068048000143", "IDCIDADE": "BOITUVA", "NOMEFANTASIA": null, "RAZAOSOCIAL": "AGUASONEGO_-_TRANSPORTES_DE_AGUA_POTAVEL_LTDA.", "ENDEE": "AREA RURAL, 14000, CASA 02, AREA RURAL DE BOITUVA, 18559-899, BOITUVA, SP, BRASIL", "LMAPS": "https://www.google.com/maps?q=&layer=c&cbll=-23.2863329,-47.6783742", "O_QUE_FAZER": "CARTEIRA - FAMPE", "ER_REGIAO_CIDADE_min": "Boituva_Sorocaba" }, "geometry": { "type": "Point", "coordinates": [ -47.6783742, -23.2863329 ] } },
{ "type": "Feature", "properties": { "fid": 55836, "CNPJ": "09170880000119", "IDCIDADE": "BOITUVA", "NOMEFANTASIA": "PADARIA_NOVA_LUAN", "RAZAOSOCIAL": "PADARIA,_CONFEITARIA_E_MERCEARIA_ARAUJO_LTDA", "ENDEE": "RUA BENEDITO ANTONIO DE CAMPOS, 418, RESIDENCIAL DE LORENZI, 18550318, BOITUVA, SP, BRASIL", "LMAPS": "https://www.google.com/maps?q=&layer=c&cbll=-23.2910984,-47.6631353", "O_QUE_FAZER": "CARTEIRA - FAMPE", "ER_REGIAO_CIDADE_min": "Boituva_Sorocaba" }, "geometry": { "type": "Point", "coordinates": [ -47.6631353, -23.2910984 ] } },
{ "type": "Feature", "properties": { "fid": 57091, "CNPJ": "09312313000150", "IDCIDADE": "BOITUVA", "NOMEFANTASIA": null, "RAZAOSOCIAL": "EDELMA_EUSEBIO_MORAIS", "ENDEE": "RUA JOAQUIM PAES DE ALMEIDA, 272, JARDIM SAO PAULO, 18557-190, BOITUVA, SP, BRASIL", "LMAPS": "https://www.google.com/maps?q=&layer=c&cbll=-23.2819952,-47.6846413", "O_QUE_FAZER": "CARTEIRA - FAMPE", "ER_REGIAO_CIDADE_min": "Boituva_Sorocaba" }, "geometry": { "type": "Point", "coordinates": [ -47.6846413, -23.2819952 ] } },
{ "type": "Feature", "properties": { "fid": 62314, "CNPJ": "10388729000130", "IDCIDADE": "BOITUVA", "NOMEFANTASIA": "RAFISA ELETRICA E HOME CENTER", "RAZAOSOCIAL": "RAFIZA_ELETRICA_INDUSTRIAL_LTDA", "ENDEE": "AVENIDA ZELIA DE LIMA ROSA, 501, PORTAL VILLE AZALEIA, 18552320, BOITUVA, SP, BRASIL", "LMAPS": "https://www.google.com/maps?q=&layer=c&cbll=-23.2966146,-47.6479827", "O_QUE_FAZER": "CARTEIRA - FAMPE", "ER_REGIAO_CIDADE_min": "Boituva_Sorocaba" }, "geometry": { "type": "Point", "coordinates": [ -47.6479827, -23.2966146 ] } },
{ "type": "Feature", "properties": { "fid": 65401, "CNPJ": "10716639000121", "IDCIDADE": "BOITUVA", "NOMEFANTASIA": "INSTITUTO_DORIGHELLO", "RAZAOSOCIAL": "D._F._-_CLINICA_ODONTOLOGICA_LTDA.", "ENDEE": "RUA JOSE DA CONCEICAO HOLTZ, 61, JARDIM BELA VISTA, 18550-000, BOITUVA, SP, BRASIL", "LMAPS": "https://www.google.com/maps?q=&layer=c&cbll=-23.2809397,-47.6735943", "O_QUE_FAZER": "CARTEIRA - FAMPE", "ER_REGIAO_CIDADE_min": "Boituva_Sorocaba" }, "geometry": { "type": "Point", "coordinates": [ -47.6735943, -23.2809397 ] } },
{ "type": "Feature", "properties": { "fid": 69514, "CNPJ": "11181274000140", "IDCIDADE": "BOITUVA", "NOMEFANTASIA": "TAS_-_EXPRESS", "RAZAOSOCIAL": "TAS_EXPRESS_DE_BOITUVA_LTDA", "ENDEE": "AVENIDA ANTONIO ANGELO AMADIO, 1321, CENTRO EMPRESARIAL CASTELO BRANCO, 18552-112, BOITUVA, SP, BRASIL", "LMAPS": "https://www.google.com/maps?q=&layer=c&cbll=-23.3059807,-47.6541988", "O_QUE_FAZER": "CARTEIRA - FAMPE", "ER_REGIAO_CIDADE_min": "Boituva_Sorocaba" }, "geometry": { "type": "Point", "coordinates": [ -47.6541988, -23.3059807 ] } },
{ "type": "Feature", "properties": { "fid": 71947, "CNPJ": "11487380000157", "IDCIDADE": "BOITUVA", "NOMEFANTASIA": "FUNILAROA E PINTURA CENTRAL", "RAZAOSOCIAL": "P._FRANCISCO_DE_SANTANA", "ENDEE": "RUA ROQUE ISSA, 415, REAL PARQUE - DE LORENZI, 18550000, BOITUVA, SP, BRASIL", "LMAPS": "https://www.google.com/maps?q=&layer=c&cbll=-23.2894917,-47.6665897", "O_QUE_FAZER": "CARTEIRA - FAMPE", "ER_REGIAO_CIDADE_min": "Boituva_Sorocaba" }, "geometry": { "type": "Point", "coordinates": [ -47.6665897, -23.2894917 ] } },
{ "type": "Feature", "properties": { "fid": 81417, "CNPJ": "13231248000105", "IDCIDADE": "BOITUVA", "NOMEFANTASIA": null, "RAZAOSOCIAL": "JOAO_PAULO_CAVALCANTI_FERREIRA", "ENDEE": "AVENIDA PEREIRA INACIO, 581, CENTRO, 18550-000, BOITUVA, SP, BRASIL", "LMAPS": "https://www.google.com/maps?q=&layer=c&cbll=-23.2795955,-47.6758183", "O_QUE_FAZER": "CARTEIRA - FAMPE", "ER_REGIAO_CIDADE_min": "Boituva_Sorocaba" }, "geometry": { "type": "Point", "coordinates": [ -47.6758183, -23.2795955 ] } },
{ "type": "Feature", "properties": { "fid": 84261, "CNPJ": "13730024000148", "IDCIDADE": "BOITUVA", "NOMEFANTASIA": null, "RAZAOSOCIAL": "FRL_COMERCIO_DE_EQUIPAMENTOS_LTDA", "ENDEE": "ESTRADA DE SERVIDAO TERESINHA PALUDETO MARSON, 320, CAMPO DE BOITUVA, 18550-000, BOITUVA, SP, BRASIL", "LMAPS": "https://www.google.com/maps?q=&layer=c&cbll=-23.252276,-47.659951", "O_QUE_FAZER": "CARTEIRA - FAMPE", "ER_REGIAO_CIDADE_min": "Boituva_Sorocaba" }, "geometry": { "type": "Point", "coordinates": [ -47.659951, -23.252276 ] } },
{ "type": "Feature", "properties": { "fid": 88158, "CNPJ": "14517384000129", "IDCIDADE": "BOITUVA", "NOMEFANTASIA": "ESSENCIAL_MODAS", "RAZAOSOCIAL": "ESSENCIAL_MODA_MASCULINA_LTDA", "ENDEE": "RUA CEL. EUGENIO MOTTA, 409, CENTRO, 18550-000, BOITUVA, SP, BRASIL", "LMAPS": "https://www.google.com/maps?q=&layer=c&cbll=-23.2836956,-47.6714822", "O_QUE_FAZER": "CARTEIRA - FAMPE", "ER_REGIAO_CIDADE_min": "Boituva_Sorocaba" }, "geometry": { "type": "Point", "coordinates": [ -47.6714822, -23.2836956 ] } },
{ "type": "Feature", "properties": { "fid": 88399, "CNPJ": "14564909000187", "IDCIDADE": "BOITUVA", "NOMEFANTASIA": null, "RAZAOSOCIAL": "FATTUS_GESTAO_EMPRESARIAL_LTDA", "ENDEE": "RUA VITORIA BERTAGNA BISCARO, 45, JARDIM AMERICA, 18556-004, BOITUVA, SP, BRASIL", "LMAPS": "https://www.google.com/maps?q=&layer=c&cbll=-23.2919667,-47.6762675", "O_QUE_FAZER": "CARTEIRA - FAMPE", "ER_REGIAO_CIDADE_min": "Boituva_Sorocaba" }, "geometry": { "type": "Point", "coordinates": [ -47.6762675, -23.2919667 ] } },
{ "type": "Feature", "properties": { "fid": 91247, "CNPJ": "15186933000192", "IDCIDADE": "BOITUVA", "NOMEFANTASIA": null, "RAZAOSOCIAL": "PARAISO_DISTRIBUIDORA_DE_ALIMENTOS_LTDA", "ENDEE": "RUA ALCIDES CORREA, 43, CASA 2, JARDIM PARAISO, 18558-048, BOITUVA, SP, BRASIL", "LMAPS": "https://www.google.com/maps?q=&layer=c&cbll=-23.2619714,-47.6737248", "O_QUE_FAZER": "CARTEIRA - FAMPE", "ER_REGIAO_CIDADE_min": "Boituva_Sorocaba" }, "geometry": { "type": "Point", "coordinates": [ -47.6737248, -23.2619714 ] } },
{ "type": "Feature", "properties": { "fid": 94535, "CNPJ": "16458880000184", "IDCIDADE": "BOITUVA", "NOMEFANTASIA": null, "RAZAOSOCIAL": "CAIQUE_DE_ALMEIDA_CAMARGO", "ENDEE": "ESTRADA NATALE MODULO, 466, RETIRO, 18550-000, BOITUVA, SP, BRASIL", "LMAPS": "https://www.google.com/maps?q=&layer=c&cbll=-23.2964839,-47.6472464", "O_QUE_FAZER": "CARTEIRA - FAMPE", "ER_REGIAO_CIDADE_min": "Boituva_Sorocaba" }, "geometry": { "type": "Point", "coordinates": [ -47.6472464, -23.2964839 ] } },
{ "type": "Feature", "properties": { "fid": 96576, "CNPJ": "16930073000112", "IDCIDADE": "BOITUVA", "NOMEFANTASIA": null, "RAZAOSOCIAL": "TERESA_ELIDAMAR_GALERA_DA_ROSA_10430682875", "ENDEE": "RUA JORGE HENRIQUE DA COSTA, 275, JERIVA, 18550-000, BOITUVA, SP, BRASIL", "LMAPS": "https://www.google.com/maps?q=&layer=c&cbll=-23.2668695,-47.6643863", "O_QUE_FAZER": "CARTEIRA - FAMPE", "ER_REGIAO_CIDADE_min": "Boituva_Sorocaba" }, "geometry": { "type": "Point", "coordinates": [ -47.6643863, -23.2668695 ] } },
{ "type": "Feature", "properties": { "fid": 102077, "CNPJ": "18024139000130", "IDCIDADE": "BOITUVA", "NOMEFANTASIA": "SAINT_ROCH_SPORTS", "RAZAOSOCIAL": "SAINT_ROCH_SPORTS_ESCOLA_DE_FUTEBOL_LTDA", "ENDEE": "RUA JOAO DOMINGOS BARRETO, 282, CENTRO, 18550-000, BOITUVA, SP, BRASIL", "LMAPS": "https://www.google.com/maps?q=&layer=c&cbll=-23.2812294,-47.670614", "O_QUE_FAZER": "CARTEIRA - FAMPE", "ER_REGIAO_CIDADE_min": "Boituva_Sorocaba" }, "geometry": { "type": "Point", "coordinates": [ -47.670614, -23.2812294 ] } },
{ "type": "Feature", "properties": { "fid": 102101, "CNPJ": "18029722000134", "IDCIDADE": "BOITUVA", "NOMEFANTASIA": null, "RAZAOSOCIAL": "DONIZETE_MENDES_DE_MORAIS_27576814861", "ENDEE": "RUA NOVE DE JULHO, 155, CENTRO, 18550-000, BOITUVA, SP, BRASIL", "LMAPS": "https://www.google.com/maps?q=&layer=c&cbll=-23.2855111,-47.6725597", "O_QUE_FAZER": "CARTEIRA - FAMPE", "ER_REGIAO_CIDADE_min": "Boituva_Sorocaba" }, "geometry": { "type": "Point", "coordinates": [ -47.6725597, -23.2855111 ] } },
{ "type": "Feature", "properties": { "fid": 107103, "CNPJ": "19086819000141", "IDCIDADE": "BOITUVA", "NOMEFANTASIA": null, "RAZAOSOCIAL": "ESPACO_LILIAN_ABREU_PODOLOGIA_LTDA", "ENDEE": "TRAVESSA BANDEIRANTES, 172, SALA 2, CENTRO, 18550-047, BOITUVA, SP, BRASIL", "LMAPS": "https://www.google.com/maps?q=&layer=c&cbll=-23.2867431,-47.6773586", "O_QUE_FAZER": "CARTEIRA - FAMPE", "ER_REGIAO_CIDADE_min": "Boituva_Sorocaba" }, "geometry": { "type": "Point", "coordinates": [ -47.6773586, -23.2867431 ] } },
{ "type": "Feature", "properties": { "fid": 116718, "CNPJ": "21264119000141", "IDCIDADE": "BOITUVA", "NOMEFANTASIA": "MARTINS_E_RAMOS_IMOVEIS", "RAZAOSOCIAL": "GISLAINE_APARECIDA_MARTINS_GARCIA", "ENDEE": "RUA JOAO DOMINGOS BARRETO, 20, CENTRO, 18550000, BOITUVA, SP, BRASIL", "LMAPS": "https://www.google.com/maps?q=&layer=c&cbll=-23.281673,-47.6729365", "O_QUE_FAZER": "CARTEIRA - FAMPE", "ER_REGIAO_CIDADE_min": "Boituva_Sorocaba" }, "geometry": { "type": "Point", "coordinates": [ -47.6729365, -23.281673 ] } },
{ "type": "Feature", "properties": { "fid": 117913, "CNPJ": "21532110000174", "IDCIDADE": "BOITUVA", "NOMEFANTASIA": "RLSMOTOSPORT", "RAZAOSOCIAL": "RLSMOTOSPORT_COMERCIO_DE_MOTOCICLETA_LTDA", "ENDEE": "RUA MANOEL DOS SANTOS FREIRE, 422, CENTRO, 18550-073, BOITUVA, SP, BRASIL", "LMAPS": "https://www.google.com/maps?q=&layer=c&cbll=-23.2803148,-47.6730014", "O_QUE_FAZER": "CARTEIRA - FAMPE", "ER_REGIAO_CIDADE_min": "Boituva_Sorocaba" }, "geometry": { "type": "Point", "coordinates": [ -47.6730014, -23.2803148 ] } },
{ "type": "Feature", "properties": { "fid": 120933, "CNPJ": "22180959000199", "IDCIDADE": "BOITUVA", "NOMEFANTASIA": "VERDES_ARES", "RAZAOSOCIAL": "VERDES_ARES_SERVICOS_LTDA.", "ENDEE": "RUA PEDRO LEONARDO GALVAO, 120, COLINA NOVA BOITUVA, 18557-804, BOITUVA, SP, BRASIL", "LMAPS": "https://www.google.com/maps?q=&layer=c&cbll=-23.2676598,-47.6626329", "O_QUE_FAZER": "FINALIZADO", "ER_REGIAO_CIDADE_min": "Boituva_Sorocaba" }, "geometry": { "type": "Point", "coordinates": [ -47.6626329, -23.2676598 ] } },
{ "type": "Feature", "properties": { "fid": 122658, "CNPJ": "22547300000128", "IDCIDADE": "BOITUVA", "NOMEFANTASIA": "FABIANA_BEZERRA_DOS_SANTOS_MARSON", "RAZAOSOCIAL": "22.547.300_FABIANA_BEZERRA_DOS_SANTOS_MARSON", "ENDEE": "RUA GUIOMAR PERIM CAMARGO, 125, RESIDENCIAL DE LORENZI, 18550-334, BOITUVA, SP, BRASIL", "LMAPS": "https://www.google.com/maps?q=&layer=c&cbll=-23.2939973,-47.6653457", "O_QUE_FAZER": "APLICAR T3", "ER_REGIAO_CIDADE_min": "Boituva_Sorocaba" }, "geometry": { "type": "Point", "coordinates": [ -47.6653457, -23.2939973 ] } },
{ "type": "Feature", "properties": { "fid": 123041, "CNPJ": "22625072000167", "IDCIDADE": "BOITUVA", "NOMEFANTASIA": "GA_EMBALAGENS", "RAZAOSOCIAL": "GA_EMBALAGENS_LTDA", "ENDEE": "RUA ANTONIO PICCO, 221, GALPAO03, JARDIM HERMINIA, 18556-104, BOITUVA, SP, BRASIL", "LMAPS": "https://www.google.com/maps?q=&layer=c&cbll=-23.2907651,-47.6817248", "O_QUE_FAZER": "CARTEIRA - FAMPE", "ER_REGIAO_CIDADE_min": "Boituva_Sorocaba" }, "geometry": { "type": "Point", "coordinates": [ -47.6817248, -23.2907651 ] } },
{ "type": "Feature", "properties": { "fid": 131382, "CNPJ": "24387806000142", "IDCIDADE": "BOITUVA", "NOMEFANTASIA": "NIL PEÇAS", "RAZAOSOCIAL": "ESR_DISTRIBUIDORA_E_COMERCIO_DE_AUTO_PECAS_LTDA", "ENDEE": "RUA MANOEL DOS SANTOS FREIRE, 568, CENTRO, 18550-073, BOITUVA, SP, BRASIL", "LMAPS": "https://www.google.com/maps?q=&layer=c&cbll=-23.2790617,-47.6730697", "O_QUE_FAZER": "CARTEIRA - FAMPE", "ER_REGIAO_CIDADE_min": "Boituva_Sorocaba" }, "geometry": { "type": "Point", "coordinates": [ -47.6730697, -23.2790617 ] } },
{ "type": "Feature", "properties": { "fid": 131841, "CNPJ": "24467108000157", "IDCIDADE": "BOITUVA", "NOMEFANTASIA": "BOANERGES_MELQUIADES_11038273838", "RAZAOSOCIAL": "BOANERGES_MELQUIADES", "ENDEE": "RUA_JOSE_CAPELARI304__PARQUE_ECOLOGICO_I_18550-386", "LMAPS": "https://www.google.com/maps?q=&layer=c&cbll=-23.2902301,-47.6570008", "O_QUE_FAZER": "FINALIZADO", "ER_REGIAO_CIDADE_min": "Boituva_Sorocaba" }, "geometry": { "type": "Point", "coordinates": [ -47.6570008, -23.2902301 ] } },
{ "type": "Feature", "properties": { "fid": 134128, "CNPJ": "24924745000105", "IDCIDADE": "BOITUVA", "NOMEFANTASIA": "PIT STOP", "RAZAOSOCIAL": "COMERCIAL_PIT-STOP_BOITUVA_LTDA.", "ENDEE": "AVENIDA BRASIL, 18, RESIDENCIAL PRIMO, 18557444, BOITUVA, SP, BRASIL", "LMAPS": "https://www.google.com/maps?q=&layer=c&cbll=-23.2785867,-47.6733897", "O_QUE_FAZER": "CARTEIRA - FAMPE", "ER_REGIAO_CIDADE_min": "Boituva_Sorocaba" }, "geometry": { "type": "Point", "coordinates": [ -47.6733897, -23.2785867 ] } },
{ "type": "Feature", "properties": { "fid": 134911, "CNPJ": "25067451000177", "IDCIDADE": "BOITUVA", "NOMEFANTASIA": "SPG_Energia_Solar", "RAZAOSOCIAL": "SPG_ENERGIA_LTDA", "ENDEE": "RUA SAO ROQUE, 274, CENTRO, 18550-077, BOITUVA, SP, BRASIL", "LMAPS": "https://www.google.com/maps?q=&layer=c&cbll=-23.2863828,-47.671324", "O_QUE_FAZER": "CARTEIRA - FAMPE", "ER_REGIAO_CIDADE_min": "Boituva_Sorocaba" }, "geometry": { "type": "Point", "coordinates": [ -47.671324, -23.2863828 ] } },
{ "type": "Feature", "properties": { "fid": 138924, "CNPJ": "26374866000156", "IDCIDADE": "BOITUVA", "NOMEFANTASIA": null, "RAZAOSOCIAL": "ALFREDO_COSTA_LOVAGLIO", "ENDEE": "RUA MARIA ANGELINI CONSORTE, 215, SALA 1, RECANTO DAS PRIMAVERAS I, 18552-250, BOITUVA, SP, BRASIL", "LMAPS": "https://www.google.com/maps?q=&layer=c&cbll=-23.2900835,-47.6489175", "O_QUE_FAZER": "CARTEIRA - FAMPE", "ER_REGIAO_CIDADE_min": "Boituva_Sorocaba" }, "geometry": { "type": "Point", "coordinates": [ -47.6489175, -23.2900835 ] } },
{ "type": "Feature", "properties": { "fid": 140603, "CNPJ": "26687987000158", "IDCIDADE": "BOITUVA", "NOMEFANTASIA": null, "RAZAOSOCIAL": "RAFIZA_COMERCIAL_LTDA", "ENDEE": "AVENIDA ZELIA DE LIMA ROSA, 501, LOJA 2, PORTAL VILLE AZALEIA, 18552-320, BOITUVA, SP, BRASIL", "LMAPS": "https://www.google.com/maps?q=&layer=c&cbll=-23.2966146,-47.6479827", "O_QUE_FAZER": "CARTEIRA - FAMPE", "ER_REGIAO_CIDADE_min": "Boituva_Sorocaba" }, "geometry": { "type": "Point", "coordinates": [ -47.6479827, -23.2966146 ] } },
{ "type": "Feature", "properties": { "fid": 149872, "CNPJ": "28457362000125", "IDCIDADE": "BOITUVA", "NOMEFANTASIA": "ERIKA_MANZANO_MELENDES", "RAZAOSOCIAL": "E_M_MELENDES_HORTIFRUTIGRANJEIROS", "ENDEE": "RUA GUILHERME SONCIM CALEGARE, 15, FLORA VILLE, 18550-814, BOITUVA, SP, BRASIL", "LMAPS": "https://www.google.com/maps?q=&layer=c&cbll=-23.287229,-47.6482418", "O_QUE_FAZER": "APLICAR T4", "ER_REGIAO_CIDADE_min": "Boituva_Sorocaba" }, "geometry": { "type": "Point", "coordinates": [ -47.6482418, -23.287229 ] } },
{ "type": "Feature", "properties": { "fid": 150632, "CNPJ": "28609973000141", "IDCIDADE": "BOITUVA", "NOMEFANTASIA": null, "RAZAOSOCIAL": "LUIZ_CARLOS_AMORIM_07524925867", "ENDEE": "RUA JOSE MARIA PORTES, 313, CASA, JARDIM PARAISO, 18558-044, BOITUVA, SP, BRASIL", "LMAPS": "https://www.google.com/maps?q=&layer=c&cbll=-23.2643757,-47.6741182", "O_QUE_FAZER": "CARTEIRA - FAMPE", "ER_REGIAO_CIDADE_min": "Boituva_Sorocaba" }, "geometry": { "type": "Point", "coordinates": [ -47.6741182, -23.2643757 ] } },
{ "type": "Feature", "properties": { "fid": 152593, "CNPJ": "28975260000100", "IDCIDADE": "BOITUVA", "NOMEFANTASIA": "J.A._CLINICA", "RAZAOSOCIAL": "CLINICA_J._AVILINO_BIOESTETICA_LTDA", "ENDEE": "RUA DINORAH VESTENA GROSSO, 246, PORTAL VILLE JARDINS, 18552-034, BOITUVA, SP, BRASIL", "LMAPS": "https://www.google.com/maps?q=&layer=c&cbll=-23.2979085,-47.6642437", "O_QUE_FAZER": "CARTEIRA - FAMPE", "ER_REGIAO_CIDADE_min": "Boituva_Sorocaba" }, "geometry": { "type": "Point", "coordinates": [ -47.6642437, -23.2979085 ] } },
{ "type": "Feature", "properties": { "fid": 158792, "CNPJ": "30192699000108", "IDCIDADE": "BOITUVA", "NOMEFANTASIA": "AEROMAGIC_BALLOONS", "RAZAOSOCIAL": "AEROMAGIC_BALONISMO_LTDA", "ENDEE": "RUA NELSON ANDRADE, 800, CONJUNTO HABITACIONAL JOAO RUY NOGUEIRA, 18558-070, BOITUVA, SP, BRASIL", "LMAPS": "https://www.google.com/maps?q=&layer=c&cbll=-23.2595349,-47.6711947", "O_QUE_FAZER": "CARTEIRA - FAMPE", "ER_REGIAO_CIDADE_min": "Boituva_Sorocaba" }, "geometry": { "type": "Point", "coordinates": [ -47.6711947, -23.2595349 ] } },
{ "type": "Feature", "properties": { "fid": 158890, "CNPJ": "30210491000166", "IDCIDADE": "BOITUVA", "NOMEFANTASIA": "-", "RAZAOSOCIAL": "30.210.491_JEFFERSON_ANDRE_BURACOV_GABRIEL", "ENDEE": "RUA ALZIRA AGOSTINHO ATALLA, 1565, VILA DOS IPES, 18556-208, BOITUVA, SP, BRASIL", "LMAPS": "https://www.google.com/maps?q=&layer=c&cbll=-23.291488,-47.6913235", "O_QUE_FAZER": "CARTEIRA - FAMPE", "ER_REGIAO_CIDADE_min": "Boituva_Sorocaba" }, "geometry": { "type": "Point", "coordinates": [ -47.6913235, -23.291488 ] } },
{ "type": "Feature", "properties": { "fid": 158927, "CNPJ": "30217591000114", "IDCIDADE": "BOITUVA", "NOMEFANTASIA": "A.R_-MATERIAIS_PARA_CONTRUCAO", "RAZAOSOCIAL": "CONCREDEL_FABRICACAO_DE_ARTEFATOS_DE_CIMENTO_LTDA", "ENDEE": "RUA WANDERLEY PEREIRA CAMARGO, 216, JARDIM ESPLANADA, 18550-000, BOITUVA, SP, BRASIL", "LMAPS": "https://www.google.com/maps?q=&layer=c&cbll=-23.2703618,-47.67745", "O_QUE_FAZER": "CARTEIRA - FAMPE", "ER_REGIAO_CIDADE_min": "Boituva_Sorocaba" }, "geometry": { "type": "Point", "coordinates": [ -47.67745, -23.2703618 ] } },
{ "type": "Feature", "properties": { "fid": 159176, "CNPJ": "30266099000139", "IDCIDADE": "BOITUVA", "NOMEFANTASIA": null, "RAZAOSOCIAL": "PRFB_SERVICOS_INDUSTRIAIS_LTDA", "ENDEE": "ESTRADA MUNICIPAL ROQUE ANTUNES FRAGOZO, 826, CASA 458, FLORA VILLE, 18550-790, BOITUVA, SP, BRASIL", "LMAPS": "https://www.google.com/maps?q=&layer=c&cbll=-23.2875698,-47.645439", "O_QUE_FAZER": "CARTEIRA - FAMPE", "ER_REGIAO_CIDADE_min": "Boituva_Sorocaba" }, "geometry": { "type": "Point", "coordinates": [ -47.645439, -23.2875698 ] } },
{ "type": "Feature", "properties": { "fid": 159629, "CNPJ": "30360311000122", "IDCIDADE": "BOITUVA", "NOMEFANTASIA": "S.O.S_PISCINAS", "RAZAOSOCIAL": "SOS_PISCINAS_BOITUVA_LTDA", "ENDEE": "AVENIDA ZELIA DE LIMA ROSA, 463, RECANTO DAS PRIMAVERAS I, 18552252, BOITUVA, SP, BRASIL", "LMAPS": "https://www.google.com/maps?q=&layer=c&cbll=-23.2925088,-47.6505019", "O_QUE_FAZER": "CARTEIRA - FAMPE", "ER_REGIAO_CIDADE_min": "Boituva_Sorocaba" }, "geometry": { "type": "Point", "coordinates": [ -47.6505019, -23.2925088 ] } },
{ "type": "Feature", "properties": { "fid": 160542, "CNPJ": "30526999000178", "IDCIDADE": "BOITUVA", "NOMEFANTASIA": null, "RAZAOSOCIAL": "HOTEL_E_CRECHE_INFANTIL_ESPACO_MAGICO_LTDA.", "ENDEE": "AVENIDA PEREIRA IGNACIO, 281, CENTRO, 18550-069, BOITUVA, SP, BRASIL", "LMAPS": "https://www.google.com/maps?q=&layer=c&cbll=-23.2821387,-47.6749603", "O_QUE_FAZER": "CARTEIRA - FAMPE", "ER_REGIAO_CIDADE_min": "Boituva_Sorocaba" }, "geometry": { "type": "Point", "coordinates": [ -47.6749603, -23.2821387 ] } },
{ "type": "Feature", "properties": { "fid": 161565, "CNPJ": "30714019000160", "IDCIDADE": "BOITUVA", "NOMEFANTASIA": "CLORAR_COMERCIO_DE_PISCINAS", "RAZAOSOCIAL": "CLORAR_COMERCIO_SERVICOS_E_MANUTENCOES_DE_PISCINAS_LTDA", "ENDEE": "RUA EXPEDICIONARIO SOUZA FILHO, 277, CENTRO, 18550-000, BOITUVA, SP, BRASIL", "LMAPS": "https://www.google.com/maps?q=&layer=c&cbll=-23.2853008,-47.6719138", "O_QUE_FAZER": "CARTEIRA - FAMPE", "ER_REGIAO_CIDADE_min": "Boituva_Sorocaba" }, "geometry": { "type": "Point", "coordinates": [ -47.6719138, -23.2853008 ] } },
{ "type": "Feature", "properties": { "fid": 162399, "CNPJ": "30866190000195", "IDCIDADE": "BOITUVA", "NOMEFANTASIA": null, "RAZAOSOCIAL": "WANDERLEI_MACHADO_10131627813", "ENDEE": "RUA ANTONIO MASSARANA, 550, PARQUE RESIDENCIAL ESPLANADA, 18557-644, BOITUVA, SP, BRASIL", "LMAPS": "https://www.google.com/maps?q=&layer=c&cbll=-23.272873,-47.6751795", "O_QUE_FAZER": "CARTEIRA - FAMPE", "ER_REGIAO_CIDADE_min": "Boituva_Sorocaba" }, "geometry": { "type": "Point", "coordinates": [ -47.6751795, -23.272873 ] } },
{ "type": "Feature", "properties": { "fid": 167083, "CNPJ": "31823852000102", "IDCIDADE": "BOITUVA", "NOMEFANTASIA": "-", "RAZAOSOCIAL": "31.823.852_GILBERTO_BERNARDO_DE_LIMA", "ENDEE": "RUA RUA ROQUE ISSA, 158AB, JD DAS PALMEIRAS, 18550-000, BOITUVA, SP, BRASIL", "LMAPS": "https://www.google.com/maps?q=&layer=c&cbll=-23.2886319,-47.6667016", "O_QUE_FAZER": "CARTEIRA - FAMPE", "ER_REGIAO_CIDADE_min": "Boituva_Sorocaba" }, "geometry": { "type": "Point", "coordinates": [ -47.6667016, -23.2886319 ] } },
{ "type": "Feature", "properties": { "fid": 168082, "CNPJ": "32016564000109", "IDCIDADE": "BOITUVA", "NOMEFANTASIA": null, "RAZAOSOCIAL": "MONIQUE_ALESSANDRA_DE_CAMPOS_45177037894", "ENDEE": "RUA JOSE FERRIELLO, 107, SALA 1, CENTRO, 18550-037, BOITUVA, SP, BRASIL", "LMAPS": "https://www.google.com/maps?q=&layer=c&cbll=-23.2860582,-47.6756224", "O_QUE_FAZER": "CARTEIRA - FAMPE", "ER_REGIAO_CIDADE_min": "Boituva_Sorocaba" }, "geometry": { "type": "Point", "coordinates": [ -47.6756224, -23.2860582 ] } },
{ "type": "Feature", "properties": { "fid": 168418, "CNPJ": "32098524000153", "IDCIDADE": "BOITUVA", "NOMEFANTASIA": "AGRO_MAD", "RAZAOSOCIAL": "AGRO_MAD_EMBALAGENS_INDUSTRIAIS_LTDA", "ENDEE": "RUA ANTONIO PICCO, 221, GALPAO02, JARDIM HERMINIA, 18556-104, BOITUVA, SP, BRASIL", "LMAPS": "https://www.google.com/maps?q=&layer=c&cbll=-23.2907651,-47.6817248", "O_QUE_FAZER": "CARTEIRA - FAMPE", "ER_REGIAO_CIDADE_min": "Boituva_Sorocaba" }, "geometry": { "type": "Point", "coordinates": [ -47.6817248, -23.2907651 ] } },
{ "type": "Feature", "properties": { "fid": 174096, "CNPJ": "33260627000130", "IDCIDADE": "BOITUVA", "NOMEFANTASIA": "BTV_TECNOLOGIA", "RAZAOSOCIAL": "BTV_TECNOLOGIA_E_SERVICOS_LTDA", "ENDEE": "RUA JORGE MACRUZ, 305, PORTAL VILLE AZALEIA, 18552-336, BOITUVA, SP, BRASIL", "LMAPS": "https://www.google.com/maps?q=&layer=c&cbll=-23.2966146,-47.6479827", "O_QUE_FAZER": "CARTEIRA - FAMPE", "ER_REGIAO_CIDADE_min": "Boituva_Sorocaba" }, "geometry": { "type": "Point", "coordinates": [ -47.6479827, -23.2966146 ] } },
{ "type": "Feature", "properties": { "fid": 181038, "CNPJ": "34596740000154", "IDCIDADE": "BOITUVA", "NOMEFANTASIA": "USINAGEM COELHO", "RAZAOSOCIAL": "USINAGEM_COELHO_-_MANUTENCAO_DE_MAQUINAS_INDUSTRIAIS_LTDA", "ENDEE": "RUA DOS LAVRADORES, 34, CENTRO, 18550000, BOITUVA, SP, BRASIL", "LMAPS": "https://www.google.com/maps?q=&layer=c&cbll=-23.282638,-47.6683305", "O_QUE_FAZER": "CARTEIRA - FAMPE", "ER_REGIAO_CIDADE_min": "Boituva_Sorocaba" }, "geometry": { "type": "Point", "coordinates": [ -47.6683305, -23.282638 ] } },
{ "type": "Feature", "properties": { "fid": 184669, "CNPJ": "35358188000129", "IDCIDADE": "BOITUVA", "NOMEFANTASIA": null, "RAZAOSOCIAL": "MARIA_EUGENIO_DA_SILVA", "ENDEE": "RUA ADISTAO MARCON, 150, PORTAL VILLE AZALEIA, 18552-354, BOITUVA, SP, BRASIL", "LMAPS": "https://www.google.com/maps?q=&layer=c&cbll=-23.298756,-47.645848", "O_QUE_FAZER": "CARTEIRA - FAMPE", "ER_REGIAO_CIDADE_min": "Boituva_Sorocaba" }, "geometry": { "type": "Point", "coordinates": [ -47.645848, -23.298756 ] } },
{ "type": "Feature", "properties": { "fid": 185915, "CNPJ": "35634329000199", "IDCIDADE": "BOITUVA", "NOMEFANTASIA": "PLANEJAR_MARCENARIA", "RAZAOSOCIAL": "PLANEJAR_MARCENARIA_E_CARPINTARIA_LTDA", "ENDEE": "6A RUA MARIA SCOMPARIM MODOLO, 144, JARDIM AMERICA, 18550000, BOITUVA, SP, BRASIL", "LMAPS": "https://www.google.com/maps?q=&layer=c&cbll=-23.2912958,-47.6774102", "O_QUE_FAZER": "CARTEIRA - FAMPE", "ER_REGIAO_CIDADE_min": "Boituva_Sorocaba" }, "geometry": { "type": "Point", "coordinates": [ -47.6774102, -23.2912958 ] } },
{ "type": "Feature", "properties": { "fid": 187229, "CNPJ": "35895665000195", "IDCIDADE": "BOITUVA", "NOMEFANTASIA": "35.895.665_SILVIO_EDUARDO_FERNANDES_PATRICIO", "RAZAOSOCIAL": "FRC", "ENDEE": "RUA_PORTO_FELIZ184__JARDIM_BELA_VISTA_18557-600", "LMAPS": "https://www.google.com/maps?q=&layer=c&cbll=-23.2788971,-47.6740927", "O_QUE_FAZER": "FINALIZADO", "ER_REGIAO_CIDADE_min": "Boituva_Sorocaba" }, "geometry": { "type": "Point", "coordinates": [ -47.6740927, -23.2788971 ] } },
{ "type": "Feature", "properties": { "fid": 189493, "CNPJ": "36397646000100", "IDCIDADE": "BOITUVA", "NOMEFANTASIA": null, "RAZAOSOCIAL": "IBC_COMERCIO_LTDA", "ENDEE": "RUA HILDA GOMES DE GOES, 363, PORTAL VILLE JARDINS, 18552-082, BOITUVA, SP, BRASIL", "LMAPS": "https://www.google.com/maps?q=&layer=c&cbll=-23.3011759,-47.658422", "O_QUE_FAZER": "CARTEIRA - FAMPE", "ER_REGIAO_CIDADE_min": "Boituva_Sorocaba" }, "geometry": { "type": "Point", "coordinates": [ -47.658422, -23.3011759 ] } },
{ "type": "Feature", "properties": { "fid": 201462, "CNPJ": "39473899000103", "IDCIDADE": "BOITUVA", "NOMEFANTASIA": "-", "RAZAOSOCIAL": "39.473.899_SILVANA_PAULINO_SILVA", "ENDEE": "RUA SAO ROQUE, 299, CASA, CENTRO, 18550-077, BOITUVA, SP, BRASIL", "LMAPS": "https://www.google.com/maps?q=&layer=c&cbll=-23.2865441,-47.670923", "O_QUE_FAZER": "CARTEIRA - FAMPE", "ER_REGIAO_CIDADE_min": "Boituva_Sorocaba" }, "geometry": { "type": "Point", "coordinates": [ -47.670923, -23.2865441 ] } },
{ "type": "Feature", "properties": { "fid": 201575, "CNPJ": "39498105000158", "IDCIDADE": "BOITUVA", "NOMEFANTASIA": "JNJ_GAS_E_AGUA", "RAZAOSOCIAL": "NUNES_E_NUNES_COMERCIO_DE_GAS_E_AGUA_LTDA", "ENDEE": "RUA BENEDITO ANTONIO DE CAMPOS, 327, RESIDENCIAL DE LORENZI, 18550318, BOITUVA, SP, BRASIL", "LMAPS": "https://www.google.com/maps?q=&layer=c&cbll=-23.2911824,-47.6643878", "O_QUE_FAZER": "CARTEIRA - FAMPE", "ER_REGIAO_CIDADE_min": "Boituva_Sorocaba" }, "geometry": { "type": "Point", "coordinates": [ -47.6643878, -23.2911824 ] } },
{ "type": "Feature", "properties": { "fid": 203533, "CNPJ": "39911061000146", "IDCIDADE": "BOITUVA", "NOMEFANTASIA": "FOUR_TEAM_4T", "RAZAOSOCIAL": "FOURTEAM_LTDA", "ENDEE": "RUA MARIA JOSE DE OLIVEIRA PRESTES, 335, SALA 2, RESIDENCIAL VITORIA, 18550-374, BOITUVA, SP, BRASIL", "LMAPS": "https://www.google.com/maps?q=&layer=c&cbll=-23.2927765,-47.6575712", "O_QUE_FAZER": "CARTEIRA - FAMPE", "ER_REGIAO_CIDADE_min": "Boituva_Sorocaba" }, "geometry": { "type": "Point", "coordinates": [ -47.6575712, -23.2927765 ] } },
{ "type": "Feature", "properties": { "fid": 203606, "CNPJ": "39924826000182", "IDCIDADE": "BOITUVA", "NOMEFANTASIA": "ANA_MARIA_DE_ANDRADE_BRAGA_01560261390", "RAZAOSOCIAL": "KAMI_KIMONO", "ENDEE": "ESTRADA_BATISTA_FAVORETTI444__RESIDENCIAL_AGUA_BRANCA_18558-200", "LMAPS": "https://www.google.com/maps?q=&layer=c&cbll=-23.2542749,-47.6631005", "O_QUE_FAZER": "FINALIZADO", "ER_REGIAO_CIDADE_min": "Boituva_Sorocaba" }, "geometry": { "type": "Point", "coordinates": [ -47.6631005, -23.2542749 ] } },
{ "type": "Feature", "properties": { "fid": 203673, "CNPJ": "39937576000115", "IDCIDADE": "BOITUVA", "NOMEFANTASIA": "BELLA_ISAS_GELATO_E_CAFFE", "RAZAOSOCIAL": "LIMA_&_LIMA_SORVETERIA_LTDA", "ENDEE": "AVENIDA ZELIA DE LIMA ROSA, 1121, PORTAL VILLE AZALEIA, 18552320, BOITUVA, SP, BRASIL", "LMAPS": "https://www.google.com/maps?q=&layer=c&cbll=-23.2966146,-47.6479827", "O_QUE_FAZER": "CARTEIRA - FAMPE", "ER_REGIAO_CIDADE_min": "Boituva_Sorocaba" }, "geometry": { "type": "Point", "coordinates": [ -47.6479827, -23.2966146 ] } },
{ "type": "Feature", "properties": { "fid": 203849, "CNPJ": "39977209000145", "IDCIDADE": "BOITUVA", "NOMEFANTASIA": null, "RAZAOSOCIAL": "KAMILA_MARINATO_45766625898", "ENDEE": "RUA LUIZ ANTONIO DE PONTES, 2662, CASA, JARDIM HERMINIA, 18556-112, BOITUVA, SP, BRASIL", "LMAPS": "https://www.google.com/maps?q=&layer=c&cbll=-23.290639,-47.6855335", "O_QUE_FAZER": "CARTEIRA - FAMPE", "ER_REGIAO_CIDADE_min": "Boituva_Sorocaba" }, "geometry": { "type": "Point", "coordinates": [ -47.6855335, -23.290639 ] } },
{ "type": "Feature", "properties": { "fid": 204035, "CNPJ": "40017612000101", "IDCIDADE": "BOITUVA", "NOMEFANTASIA": null, "RAZAOSOCIAL": "WSX_MOVEIS_PLANEJADOS_LTDA", "ENDEE": "AVENIDA ZELIA DE LIMA ROSA, 1121, SALA 02 E 03, PORTAL VILLE AZALEIA, 18552-320, BOITUVA, SP, BRASIL", "LMAPS": "https://www.google.com/maps?q=&layer=c&cbll=-23.3011392,-47.6494152", "O_QUE_FAZER": "CARTEIRA - FAMPE", "ER_REGIAO_CIDADE_min": "Boituva_Sorocaba" }, "geometry": { "type": "Point", "coordinates": [ -47.6494152, -23.3011392 ] } },
{ "type": "Feature", "properties": { "fid": 205713, "CNPJ": "40464094000174", "IDCIDADE": "BOITUVA", "NOMEFANTASIA": null, "RAZAOSOCIAL": "SOLUVAN_COMERCIO_IMPORTACAO_E_EXPORTACAO_DE_MATERIAIS_ELETRICOS_LTDA", "ENDEE": "RUA BENEDITO ANTONIO DE CAMPOS, 475, GALPAO1-A, RESIDENCIAL DE LORENZI, 18550-318, BOITUVA, SP, BRASIL", "LMAPS": "https://www.google.com/maps?q=&layer=c&cbll=-23.2902918,-47.6629131", "O_QUE_FAZER": "CARTEIRA - FAMPE", "ER_REGIAO_CIDADE_min": "Boituva_Sorocaba" }, "geometry": { "type": "Point", "coordinates": [ -47.6629131, -23.2902918 ] } },
{ "type": "Feature", "properties": { "fid": 206025, "CNPJ": "40554866000169", "IDCIDADE": "BOITUVA", "NOMEFANTASIA": "-", "RAZAOSOCIAL": "40.554.866_PAULO_RAFAEL_DA_ROZA_LUNARDI", "ENDEE": "ESTRADA MUNICIPAL NATALE MODOLO, 1330, CASA, RETIRO, 18556-712, BOITUVA, SP, BRASIL", "LMAPS": "https://www.google.com/maps?q=&layer=c&cbll=-23.2955238,-47.6888897", "O_QUE_FAZER": "CARTEIRA - FAMPE", "ER_REGIAO_CIDADE_min": "Boituva_Sorocaba" }, "geometry": { "type": "Point", "coordinates": [ -47.6888897, -23.2955238 ] } },
{ "type": "Feature", "properties": { "fid": 207824, "CNPJ": "41007387000195", "IDCIDADE": "BOITUVA", "NOMEFANTASIA": null, "RAZAOSOCIAL": "STRAZZA_DISTRIBUIDORA_E_COMERCIO_LTDA", "ENDEE": "AVENIDA PROFESSORA CELIA LOURDES VERCELLINO, 1185, SALA 1, JARDIM SANTA CRUZ, 18557-020, BOITUVA, SP, BRASIL", "LMAPS": "https://www.google.com/maps?q=&layer=c&cbll=-23.2921725,-47.6796614", "O_QUE_FAZER": "CARTEIRA - FAMPE", "ER_REGIAO_CIDADE_min": "Boituva_Sorocaba" }, "geometry": { "type": "Point", "coordinates": [ -47.6796614, -23.2921725 ] } },
{ "type": "Feature", "properties": { "fid": 211351, "CNPJ": "41894442000106", "IDCIDADE": "BOITUVA", "NOMEFANTASIA": "SIMONE_CRISTINA__ROBEIRO_FODOR", "RAZAOSOCIAL": "SIMONE_CRISTINA_RIBEIRO_15064491824", "ENDEE": "RUA DOUTOR FERNANDO COSTA, 54, CENTRO, 18550-033, BOITUVA, SP, BRASIL", "LMAPS": "https://www.google.com/maps?q=&layer=c&cbll=-23.2853297,-47.6767887", "O_QUE_FAZER": "APLICAR T4", "ER_REGIAO_CIDADE_min": "Boituva_Sorocaba" }, "geometry": { "type": "Point", "coordinates": [ -47.6767887, -23.2853297 ] } },
{ "type": "Feature", "properties": { "fid": 218518, "CNPJ": "43455545000103", "IDCIDADE": "BOITUVA", "NOMEFANTASIA": "JANAINA_DE_LIMA_BARBOSA_48925696827", "RAZAOSOCIAL": "JANAINA_DE_LIMA_BARBOSA", "ENDEE": "RUA_VERONICA_MODOLO_MARSON11__PARQUE_RESIDENCIAL_NOVO_MUNDO_18558-006", "LMAPS": "https://www.google.com/maps?q=&layer=c&cbll=-23.2653052,-47.6725078", "O_QUE_FAZER": "FINALIZADO", "ER_REGIAO_CIDADE_min": "Boituva_Sorocaba" }, "geometry": { "type": "Point", "coordinates": [ -47.6725078, -23.2653052 ] } },
{ "type": "Feature", "properties": { "fid": 218545, "CNPJ": "43459827000170", "IDCIDADE": "BOITUVA", "NOMEFANTASIA": "GRUDA_AI_COMUNICACAO_VISUAL", "RAZAOSOCIAL": "GRUDA_AI_COMUNICACAO_VISUAL_LTDA", "ENDEE": "RUA PAULO VITIELLO, 1640, SALA 2, RESIDENCIAL VITIELLO, 18557-384, BOITUVA, SP, BRASIL", "LMAPS": "https://www.google.com/maps?q=&layer=c&cbll=-23.273293,-47.6815081", "O_QUE_FAZER": "CARTEIRA - FAMPE", "ER_REGIAO_CIDADE_min": "Boituva_Sorocaba" }, "geometry": { "type": "Point", "coordinates": [ -47.6815081, -23.273293 ] } },
{ "type": "Feature", "properties": { "fid": 219219, "CNPJ": "43606997000130", "IDCIDADE": "BOITUVA", "NOMEFANTASIA": "CL_CONSTRUCAO_E_LIMPEZA", "RAZAOSOCIAL": "CL_ENGENHARIA_CONSTRUCAO_E_LIMPEZA_LTDA", "ENDEE": "RUA RODRIGO HOLTZ, 1045, JARDIM SANTA CRUZ, 18557-022, BOITUVA, SP, BRASIL", "LMAPS": "https://www.google.com/maps?q=&layer=c&cbll=-23.2900455,-47.6887099", "O_QUE_FAZER": "CARTEIRA - FAMPE", "ER_REGIAO_CIDADE_min": "Boituva_Sorocaba" }, "geometry": { "type": "Point", "coordinates": [ -47.6887099, -23.2900455 ] } },
{ "type": "Feature", "properties": { "fid": 220305, "CNPJ": "43814863000105", "IDCIDADE": "BOITUVA", "NOMEFANTASIA": "NEXUS_ASSESSORIA_TECNICA_E_ENGENHARIA_LTDA", "RAZAOSOCIAL": "NEXUS_ASSESSORIA_TECNICA_E_ENGENHARIA_LTDA", "ENDEE": "AVENIDA_DO_TRABALHADOR2981__CENTRO_EMPRESARIAL_CASTELO_BRANCO_18552-100", "LMAPS": "https://www.google.com/maps?q=&layer=c&cbll=-23.3047475,-47.6500839", "O_QUE_FAZER": "FINALIZADO", "ER_REGIAO_CIDADE_min": "Boituva_Sorocaba" }, "geometry": { "type": "Point", "coordinates": [ -47.6500839, -23.3047475 ] } },
{ "type": "Feature", "properties": { "fid": 222672, "CNPJ": "44294182000126", "IDCIDADE": "BOITUVA", "NOMEFANTASIA": "ALMEIDA_MIRANDA_INFORMATICA_E_COMERCIO_LTDA.", "RAZAOSOCIAL": "AGUIA_PAPELARIA_E_PRESENTES", "ENDEE": "RUA_CORONEL_ARRUDA_BOTELHO376__CENTRO_18550-101", "LMAPS": "https://www.google.com/maps?q=&layer=c&cbll=-23.2846221,-47.6710929", "O_QUE_FAZER": "FINALIZADO", "ER_REGIAO_CIDADE_min": "Boituva_Sorocaba" }, "geometry": { "type": "Point", "coordinates": [ -47.6710929, -23.2846221 ] } },
{ "type": "Feature", "properties": { "fid": 224500, "CNPJ": "44662615000159", "IDCIDADE": "BOITUVA", "NOMEFANTASIA": "BUENO_REPRESENTACOES_LTDA", "RAZAOSOCIAL": "BUENO_COMERCIO_DE_PRODUTOS_LTDA", "ENDEE": "RUA PROFESSOR JOSE ASSAD ATALLA JUNIOR, 395, JARDIM OREANA, 18550-142, BOITUVA, SP, BRASIL", "LMAPS": "https://www.google.com/maps?q=&layer=c&cbll=-23.2876592,-47.6730595", "O_QUE_FAZER": "CARTEIRA - FAMPE", "ER_REGIAO_CIDADE_min": "Boituva_Sorocaba" }, "geometry": { "type": "Point", "coordinates": [ -47.6730595, -23.2876592 ] } },
{ "type": "Feature", "properties": { "fid": 235180, "CNPJ": "46919151000149", "IDCIDADE": "BOITUVA", "NOMEFANTASIA": "-", "RAZAOSOCIAL": "46.919.151_ANDERSON_LUIS_PELEGRINI", "ENDEE": "RUA MOACYR ROSA, 299, CASA, JARDIM EGIDIO LABRONICI, 18550-152, BOITUVA, SP, BRASIL", "LMAPS": "https://www.google.com/maps?q=&layer=c&cbll=-23.289386,-47.6709938", "O_QUE_FAZER": "CARTEIRA - FAMPE", "ER_REGIAO_CIDADE_min": "Boituva_Sorocaba" }, "geometry": { "type": "Point", "coordinates": [ -47.6709938, -23.289386 ] } },
{ "type": "Feature", "properties": { "fid": 239125, "CNPJ": "47739304000139", "IDCIDADE": "BOITUVA", "NOMEFANTASIA": null, "RAZAOSOCIAL": "JULIANA_JANUARIO_32501001885", "ENDEE": "AVENIDA BRASIL, 711, PARQUE RESIDENCIAL ESPLANADA, 18557-646, BOITUVA, SP, BRASIL", "LMAPS": "https://www.google.com/maps?q=&layer=c&cbll=-23.2723001,-47.6738194", "O_QUE_FAZER": "CARTEIRA - FAMPE", "ER_REGIAO_CIDADE_min": "Boituva_Sorocaba" }, "geometry": { "type": "Point", "coordinates": [ -47.6738194, -23.2723001 ] } },
{ "type": "Feature", "properties": { "fid": 241130, "CNPJ": "48148343000124", "IDCIDADE": "BOITUVA", "NOMEFANTASIA": null, "RAZAOSOCIAL": "ANA_PAULA_DOS_SANTOS_GODOY_30188416897", "ENDEE": "RUA JOSE MELARE, 177, JARDIM DAS PALMEIRAS, 18550-218, BOITUVA, SP, BRASIL", "LMAPS": "https://www.google.com/maps?q=&layer=c&cbll=-23.2838863,-47.6655898", "O_QUE_FAZER": "CARTEIRA - FAMPE", "ER_REGIAO_CIDADE_min": "Boituva_Sorocaba" }, "geometry": { "type": "Point", "coordinates": [ -47.6655898, -23.2838863 ] } },
{ "type": "Feature", "properties": { "fid": 243415, "CNPJ": "48596096000129", "IDCIDADE": "BOITUVA", "NOMEFANTASIA": "ASO PLANEJADOS", "RAZAOSOCIAL": "ASO_MOVEIS_PLANEJADOS_LTDA", "ENDEE": "RUA JOAO MAZULQUIM, 80, BRCAO 01, PORTAL VILLE AZALEIA, 18552-360, BOITUVA, SP, BRASIL", "LMAPS": "https://www.google.com/maps?q=&layer=c&cbll=-23.297093,-47.6489339", "O_QUE_FAZER": "CARTEIRA - FAMPE", "ER_REGIAO_CIDADE_min": "Boituva_Sorocaba" }, "geometry": { "type": "Point", "coordinates": [ -47.6489339, -23.297093 ] } },
{ "type": "Feature", "properties": { "fid": 243549, "CNPJ": "48629215000100", "IDCIDADE": "BOITUVA", "NOMEFANTASIA": "PETS_VILLAGE", "RAZAOSOCIAL": "PETS_VILLAGE_LTDA", "ENDEE": "RUA ROQUE ISSA, 439, RESIDENCIAL DE LORENZI, 18550-310, BOITUVA, SP, BRASIL", "LMAPS": "https://www.google.com/maps?q=&layer=c&cbll=-23.2898086,-47.6669148", "O_QUE_FAZER": "CARTEIRA - FAMPE", "ER_REGIAO_CIDADE_min": "Boituva_Sorocaba" }, "geometry": { "type": "Point", "coordinates": [ -47.6669148, -23.2898086 ] } },
{ "type": "Feature", "properties": { "fid": 245685, "CNPJ": "49112214000149", "IDCIDADE": "BOITUVA", "NOMEFANTASIA": null, "RAZAOSOCIAL": "ANTHONY_BLANDO_DOS_SANTOS", "ENDEE": "RUA ANA VIANA, 1125, JARDIM SAO PAULO, 18557-196, BOITUVA, SP, BRASIL", "LMAPS": "https://www.google.com/maps?q=&layer=c&cbll=-23.2750935,-47.6882252", "O_QUE_FAZER": "CARTEIRA - FAMPE", "ER_REGIAO_CIDADE_min": "Boituva_Sorocaba" }, "geometry": { "type": "Point", "coordinates": [ -47.6882252, -23.2750935 ] } },
{ "type": "Feature", "properties": { "fid": 249858, "CNPJ": "49972799000177", "IDCIDADE": "BOITUVA", "NOMEFANTASIA": "-", "RAZAOSOCIAL": "49.972.799_NATASHA_SILVA_BARROS", "ENDEE": "RUA CORONEL EUGENIO MOTTA, 609, CENTRO, 18550-103, BOITUVA, SP, BRASIL", "LMAPS": "https://www.google.com/maps?q=&layer=c&cbll=-23.2830552,-47.6695742", "O_QUE_FAZER": "CARTEIRA - FAMPE", "ER_REGIAO_CIDADE_min": "Boituva_Sorocaba" }, "geometry": { "type": "Point", "coordinates": [ -47.6695742, -23.2830552 ] } },
{ "type": "Feature", "properties": { "fid": 252979, "CNPJ": "50607327000102", "IDCIDADE": "BOITUVA", "NOMEFANTASIA": "-", "RAZAOSOCIAL": "50.607.327_ALESSANDRA_RAMOS_NOGUEIRA_VALADAO", "ENDEE": "ALAMEDA_URSA MENOR_128_PORTAL DAS ESTRELAS I_18555-322_BOITUVA", "LMAPS": "https://www.google.com/maps?q=&layer=c&cbll=-23.3191631,-47.6854157", "O_QUE_FAZER": "FINALIZADO", "ER_REGIAO_CIDADE_min": "Boituva_Sorocaba" }, "geometry": { "type": "Point", "coordinates": [ -47.6854157, -23.3191631 ] } },
{ "type": "Feature", "properties": { "fid": 257675, "CNPJ": "51520033000101", "IDCIDADE": "BOITUVA", "NOMEFANTASIA": "-", "RAZAOSOCIAL": "51.520.033_FELIPE_NASCIMENTO_DE_JESUS_FERREIRA", "ENDEE": "RUA PALMIRO SARTORELLI, 192, CENTRO, 18550-013, BOITUVA, SP, BRASIL", "LMAPS": "https://www.google.com/maps?q=&layer=c&cbll=-23.2819689,-47.6781655", "O_QUE_FAZER": "CARTEIRA - FAMPE", "ER_REGIAO_CIDADE_min": "Boituva_Sorocaba" }, "geometry": { "type": "Point", "coordinates": [ -47.6781655, -23.2819689 ] } },
{ "type": "Feature", "properties": { "fid": 265760, "CNPJ": "53200699000108", "IDCIDADE": "BOITUVA", "NOMEFANTASIA": "D_T_SERVICOS_LTDA", "RAZAOSOCIAL": "A_GENTE_RESOLVE", "ENDEE": "RUA_CORONEL_EUGENIO_MOTTA1085__CENTRO_18550-103", "LMAPS": "https://www.google.com/maps?q=&layer=c&cbll=-23.2819037,-47.6649936", "O_QUE_FAZER": "FINALIZADO", "ER_REGIAO_CIDADE_min": "Boituva_Sorocaba" }, "geometry": { "type": "Point", "coordinates": [ -47.6649936, -23.2819037 ] } },
{ "type": "Feature", "properties": { "fid": 268919, "CNPJ": "53943011000171", "IDCIDADE": "BOITUVA", "NOMEFANTASIA": null, "RAZAOSOCIAL": "NUTRI_SALUS_PRODUTOS_NUTRACEUTICOS_LTDA", "ENDEE": "RUA MARIA APARECIDA BALADELLI DORIGHELLO, 127, RECANTO DAS PRIMAVERAS I, 18552-264, BOITUVA, SP, BRASIL", "LMAPS": "https://www.google.com/maps?q=&layer=c&cbll=-23.2884657,-47.6462088", "O_QUE_FAZER": "CARTEIRA - FAMPE", "ER_REGIAO_CIDADE_min": "Boituva_Sorocaba" }, "geometry": { "type": "Point", "coordinates": [ -47.6462088, -23.2884657 ] } },
{ "type": "Feature", "properties": { "fid": 268924, "CNPJ": "53944238000131", "IDCIDADE": "BOITUVA", "NOMEFANTASIA": null, "RAZAOSOCIAL": "EDEN_PLANEJADOS_CONSULTORIA_E_INTERIORES_LTDA", "ENDEE": "AVENIDA DO TRABALHADOR, 1481, CENTRO EMPRESARIAL CASTELO BRANCO, 18552-100, BOITUVA, SP, BRASIL", "LMAPS": "https://www.google.com/maps?q=&layer=c&cbll=-23.2995235,-47.6645656", "O_QUE_FAZER": "CARTEIRA - FAMPE", "ER_REGIAO_CIDADE_min": "Boituva_Sorocaba" }, "geometry": { "type": "Point", "coordinates": [ -47.6645656, -23.2995235 ] } },
{ "type": "Feature", "properties": { "fid": 273694, "CNPJ": "54985556000103", "IDCIDADE": "BOITUVA", "NOMEFANTASIA": "-", "RAZAOSOCIAL": "54.985.556_PEDRO_HENRIQUE_MORAIS_DA_SILVA", "ENDEE": "RUA MARIA JOSE VIANNA, 211, TERRA DE SANTA CRUZ I, 18557-058, BOITUVA, SP, BRASIL", "LMAPS": "https://www.google.com/maps?q=&layer=c&cbll=-23.2842352,-47.687207", "O_QUE_FAZER": "CARTEIRA - FAMPE", "ER_REGIAO_CIDADE_min": "Boituva_Sorocaba" }, "geometry": { "type": "Point", "coordinates": [ -47.687207, -23.2842352 ] } },
{ "type": "Feature", "properties": { "fid": 277183, "CNPJ": "55812227000123", "IDCIDADE": "BOITUVA", "NOMEFANTASIA": "-", "RAZAOSOCIAL": "55.812.227_CARLOS_GIOVANE_SANTOS", "ENDEE": "RUA ACACIO MANOEL DA SILVA VIANNA, 262, VILA NOSSA SENHORA APARECIDA, 18550-451, BOITUVA, SP, BRASIL", "LMAPS": "https://www.google.com/maps?q=&layer=c&cbll=-23.2826121,-47.6622453", "O_QUE_FAZER": "CARTEIRA - FAMPE", "ER_REGIAO_CIDADE_min": "Boituva_Sorocaba" }, "geometry": { "type": "Point", "coordinates": [ -47.6622453, -23.2826121 ] } },
{ "type": "Feature", "properties": { "fid": 286612, "CNPJ": "58841727000181", "IDCIDADE": "BOITUVA", "NOMEFANTASIA": "HIPO", "RAZAOSOCIAL": "HIPO_-_RECICLAGEM_E_INDUSTRIA_DE_PLASTICOS_LTDA", "ENDEE": "RUA MANOEL DOS SANTOS FREIRE, 1150, CENTRO, 18550000, BOITUVA, SP, BRASIL", "LMAPS": "https://www.google.com/maps?q=&layer=c&cbll=-23.2737164,-47.6727349", "O_QUE_FAZER": "CARTEIRA - FAMPE", "ER_REGIAO_CIDADE_min": "Boituva_Sorocaba" }, "geometry": { "type": "Point", "coordinates": [ -47.6727349, -23.2737164 ] } },
{ "type": "Feature", "properties": { "fid": 287118, "CNPJ": "59020344000105", "IDCIDADE": "BOITUVA", "NOMEFANTASIA": null, "RAZAOSOCIAL": "59.020.344_DANILO_DOS_SANTOS_RODRIGUES", "ENDEE": "RUA_JOSÉ CARLOS CONSORTE_130_VILA DOS IPES_18556-204_BOITUVA", "LMAPS": "https://www.google.com/maps?q=&layer=c&cbll=-23.2944594,-47.6878876", "O_QUE_FAZER": "APLICAR T2", "ER_REGIAO_CIDADE_min": "Boituva_Sorocaba" }, "geometry": { "type": "Point", "coordinates": [ -47.6878876, -23.2944594 ] } },
{ "type": "Feature", "properties": { "fid": 291414, "CNPJ": "60408833000118", "IDCIDADE": "BOITUVA", "NOMEFANTASIA": "Faccas_Transportes", "RAZAOSOCIAL": "FACCAS_TRANSPORTES_LTDA", "ENDEE": "AVENIDA PROFESSORA CELIA LOURDES VERCELLINO, 1875, JARDIM SANTA CRUZ, 18557-020, BOITUVA, SP, BRASIL", "LMAPS": "https://www.google.com/maps?q=&layer=c&cbll=-23.290975,-47.6794758", "O_QUE_FAZER": "CARTEIRA - FAMPE", "ER_REGIAO_CIDADE_min": "Boituva_Sorocaba" }, "geometry": { "type": "Point", "coordinates": [ -47.6794758, -23.290975 ] } },
{ "type": "Feature", "properties": { "fid": 295173, "CNPJ": "61755296000145", "IDCIDADE": "BOITUVA", "NOMEFANTASIA": "Jah_Acai", "RAZAOSOCIAL": "JJMG_ACAI_E_SORVETES_COMERCIO_DE_ALIMENTOS_LTDA", "ENDEE": "AVENIDA ZELIA DE LIMA ROSA, 847, PORTAL VILLE AZALEIA, 18552-320, BOITUVA, SP, BRASIL", "LMAPS": "https://www.google.com/maps?q=&layer=c&cbll=-23.2966146,-47.6479827", "O_QUE_FAZER": "CARTEIRA - FAMPE", "ER_REGIAO_CIDADE_min": "Boituva_Sorocaba" }, "geometry": { "type": "Point", "coordinates": [ -47.6479827, -23.2966146 ] } },
{ "type": "Feature", "properties": { "fid": 295301, "CNPJ": "61811538000170", "IDCIDADE": "BOITUVA", "NOMEFANTASIA": null, "RAZAOSOCIAL": "MEL_DE_SA_ARQUITETURA_LTDA", "ENDEE": "AVENIDA JOAO FRANCISCO DE OLIVEIRA, 2980, PARQUE DAS ARVORES, 18555-200, BOITUVA, SP, BRASIL", "LMAPS": "https://www.google.com/maps?q=&layer=c&cbll=-23.2863329,-47.6783742", "O_QUE_FAZER": "CARTEIRA - FAMPE", "ER_REGIAO_CIDADE_min": "Boituva_Sorocaba" }, "geometry": { "type": "Point", "coordinates": [ -47.6783742, -23.2863329 ] } },
{ "type": "Feature", "properties": { "fid": 299271, "CNPJ": "63809013000126", "IDCIDADE": "BOITUVA", "NOMEFANTASIA": null, "RAZAOSOCIAL": "CLJ_CONSTRUCAO_LIMPEZA_E_JARDINAGEM_LTDA", "ENDEE": "RUA OSCAR GOMES, 41, RESERVA DO PARQUE, 18550-418, BOITUVA, SP, BRASIL", "LMAPS": "https://www.google.com/maps?q=&layer=c&cbll=-23.2896464,-47.6603584", "O_QUE_FAZER": "CARTEIRA - FAMPE", "ER_REGIAO_CIDADE_min": "Boituva_Sorocaba" }, "geometry": { "type": "Point", "coordinates": [ -47.6603584, -23.2896464 ] } },
{ "type": "Feature", "properties": { "fid": 300201, "CNPJ": "64403738000182", "IDCIDADE": "BOITUVA", "NOMEFANTASIA": "Ama_Seguranca_e_Medicina_Ocupacional", "RAZAOSOCIAL": "AMA_SEGURANCA_E_MEDICINA_OCUPACIONAL_LTDA", "ENDEE": "RUA SAO PAULO, 375, JARDIM BELA VISTA, 18557-612, BOITUVA, SP, BRASIL", "LMAPS": "https://www.google.com/maps?q=&layer=c&cbll=-23.2768134,-47.6748118", "O_QUE_FAZER": "CARTEIRA - FAMPE", "ER_REGIAO_CIDADE_min": "Boituva_Sorocaba" }, "geometry": { "type": "Point", "coordinates": [ -47.6748118, -23.2768134 ] } },
{ "type": "Feature", "properties": { "fid": 301272, "CNPJ": "64915597000187", "IDCIDADE": "BOITUVA", "NOMEFANTASIA": null, "RAZAOSOCIAL": "64.915.597_THAMILY_VIANA_SANTOS", "ENDEE": "RUA ANTONIO MESCOLOTO, 266, CASA, JARDIM SAO PAULO, 18557-194, BOITUVA, SP, BRASIL", "LMAPS": "https://www.google.com/maps?q=&layer=c&cbll=-23.2797606,-47.6852862", "O_QUE_FAZER": "CARTEIRA - FAMPE", "ER_REGIAO_CIDADE_min": "Boituva_Sorocaba" }, "geometry": { "type": "Point", "coordinates": [ -47.6852862, -23.2797606 ] } },
{ "type": "Feature", "properties": { "fid": 302465, "CNPJ": "65617168000196", "IDCIDADE": "BOITUVA", "NOMEFANTASIA": null, "RAZAOSOCIAL": "65.617.168_JOSE_FERNANDO_DE_OLIVEIRA_GONCALVES", "ENDEE": "RUA ALEXANDRE AMARO, 173, PARQUE RESIDENCIAL NOVO MUNDO, 18558-030, BOITUVA, SP, BRASIL", "LMAPS": "https://www.google.com/maps?q=&layer=c&cbll=-23.2605592,-47.6723115", "O_QUE_FAZER": "CARTEIRA - FAMPE", "ER_REGIAO_CIDADE_min": "Boituva_Sorocaba" }, "geometry": { "type": "Point", "coordinates": [ -47.6723115, -23.2605592 ] } },
{ "type": "Feature", "properties": { "fid": 303853, "CNPJ": "66254553000189", "IDCIDADE": "BOITUVA", "NOMEFANTASIA": null, "RAZAOSOCIAL": "MENDES_AUTO_PECAS_LTDA", "ENDEE": "RUA OSCAR GOMES, 41, RESERVA DO PARQUE, 18550-418, BOITUVA, SP, BRASIL", "LMAPS": "https://www.google.com/maps?q=&layer=c&cbll=-23.2896464,-47.6603584", "O_QUE_FAZER": "CARTEIRA - FAMPE", "ER_REGIAO_CIDADE_min": "Boituva_Sorocaba" }, "geometry": { "type": "Point", "coordinates": [ -47.6603584, -23.2896464 ] } },
{ "type": "Feature", "properties": { "fid": 305325, "CNPJ": "67012888000153", "IDCIDADE": "BOITUVA", "NOMEFANTASIA": "CLINICA_REIS", "RAZAOSOCIAL": "CLINICA_REIS_LTDA", "ENDEE": "RUA BENEDITO ANTÔNIO DE CAMPOS, 78, RESIDENCIAL DE LORENZI, 18550-318, BOITUVA, SP, BRASIL", "LMAPS": "https://www.google.com/maps?q=&layer=c&cbll=-23.2921469,-47.6666313", "O_QUE_FAZER": "APLICAR T4", "ER_REGIAO_CIDADE_min": "Boituva_Sorocaba" }, "geometry": { "type": "Point", "coordinates": [ -47.6666313, -23.2921469 ] } },
{ "type": "Feature", "properties": { "fid": 305329, "CNPJ": "67014043000105", "IDCIDADE": "BOITUVA", "NOMEFANTASIA": "DROGARIA SANTA CRUZ", "RAZAOSOCIAL": "DROGARIA_BOITUVA_LTDA", "ENDEE": "AVENIDA PROFESSORA CELIA LOURDES VERCELLINO, 470, CHACARA LIBRONICI, 18556052, BOITUVA, SP, BRASIL", "LMAPS": "https://www.google.com/maps?q=&layer=c&cbll=-23.2904448,-47.6793468", "O_QUE_FAZER": "CARTEIRA - FAMPE", "ER_REGIAO_CIDADE_min": "Boituva_Sorocaba" }, "geometry": { "type": "Point", "coordinates": [ -47.6793468, -23.2904448 ] } },
{ "type": "Feature", "properties": { "fid": 305987, "CNPJ": "67317044000110", "IDCIDADE": "BOITUVA", "NOMEFANTASIA": null, "RAZAOSOCIAL": "67.317.044_SILVIO_EDUARDO_FERNANDES_PATRICIO", "ENDEE": "RUA PORTO FELIZ, 184, JARDIM BELA VISTA, 18557-600, BOITUVA, SP, BRASIL", "LMAPS": "https://www.google.com/maps?q=&layer=c&cbll=-23.2788971,-47.6740927", "O_QUE_FAZER": "CARTEIRA - FAMPE", "ER_REGIAO_CIDADE_min": "Boituva_Sorocaba" }, "geometry": { "type": "Point", "coordinates": [ -47.6740927, -23.2788971 ] } },
{ "type": "Feature", "properties": { "fid": 306374, "CNPJ": "67557499000103", "IDCIDADE": "BOITUVA", "NOMEFANTASIA": null, "RAZAOSOCIAL": "67.557.499_KELLIN_APARECIDA_DA_SILVA", "ENDEE": "RUA SAO CARLOS, 119, JARDIM SANTO ANTONIO, 18550-436, BOITUVA, SP, BRASIL", "LMAPS": "https://www.google.com/maps?q=&layer=c&cbll=-23.2864062,-47.6626269", "O_QUE_FAZER": "CARTEIRA - FAMPE", "ER_REGIAO_CIDADE_min": "Boituva_Sorocaba" }, "geometry": { "type": "Point", "coordinates": [ -47.6626269, -23.2864062 ] } },
{ "type": "Feature", "properties": { "fid": 306397, "CNPJ": "67567409000165", "IDCIDADE": "BOITUVA", "NOMEFANTASIA": null, "RAZAOSOCIAL": "67.567.409_MARLON_GOMES_RODRIGUES_BORGES", "ENDEE": "RUA PROFESSORA DORA MARIA GIULIA PIEROTI HONORATO, 86, TERRA DE SANTA CRUZ I, 18557-094, BOITUVA, SP, BRASIL", "LMAPS": "https://www.google.com/maps?q=&layer=c&cbll=-23.2869015,-47.6822798", "O_QUE_FAZER": "CARTEIRA - FAMPE", "ER_REGIAO_CIDADE_min": "Boituva_Sorocaba" }, "geometry": { "type": "Point", "coordinates": [ -47.6822798, -23.2869015 ] } },
{ "type": "Feature", "properties": { "fid": 307634, "CNPJ": "68122286000111", "IDCIDADE": "BOITUVA", "NOMEFANTASIA": null, "RAZAOSOCIAL": "68.122.286_JOAO_VICTOR_SOUZA_DOS_SANTOS", "ENDEE": "RUA ROBERTO FARIA DE ALMEIDA, 100, COND, COLINA NOVA BOITUVA, 18557-800, BOITUVA, SP, BRASIL", "LMAPS": "https://www.google.com/maps?q=&layer=c&cbll=-23.2670614,-47.6677916", "O_QUE_FAZER": "CARTEIRA - FAMPE", "ER_REGIAO_CIDADE_min": "Boituva_Sorocaba" }, "geometry": { "type": "Point", "coordinates": [ -47.6677916, -23.2670614 ] } },
{ "type": "Feature", "properties": { "fid": 312835, "CNPJ": "40411759000181", "IDCIDADE": "BOITUVA", "NOMEFANTASIA": "SILVIA SATO DESENVOLVIMENTO HUMANO", "RAZAOSOCIAL": "SILVIA AYUMI SATO 25064855893", "ENDEE": "RUA ANA VIANA, 1005, JARDIM SAO PAULO, 18557-196, BOITUVA, SP, BRASIL", "LMAPS": "https://www.google.com/maps?q=&layer=c&cbll=-23.2752967,-47.6879372", "O_QUE_FAZER": "FINALIZADO", "ER_REGIAO_CIDADE_min": "Boituva_Sorocaba" }, "geometry": { "type": "Point", "coordinates": [ -47.6879372, -23.2752967 ] } },
{ "type": "Feature", "properties": { "fid": 312837, "CNPJ": "13296895000103", "IDCIDADE": "Boituva", "NOMEFANTASIA": "EDILSON AUGUSTO DA SILVA", "RAZAOSOCIAL": "13.296.895 EDILSON AUGUSTO DA SILVA", "ENDEE": "RUA TOMAS CARDOSO, 107, CASA 4, VILA GINASIAL, 18557-330, BOITUVA, SP, BRASIL", "LMAPS": "https://www.google.com/maps?q=&layer=c&cbll=-23.282631,-47.6802336", "O_QUE_FAZER": "FINALIZADO", "ER_REGIAO_CIDADE_min": "Boituva_Sorocaba" }, "geometry": { "type": "Point", "coordinates": [ -47.6802336, -23.282631 ] } }
]
}
