{
"type": "FeatureCollection",
"name": "ER_REGIAO_CIDADE_min_Campo Limpo Paulista_Botujuru_Jundiaí",
"crs": { "type": "name", "properties": { "name": "urn:ogc:def:crs:OGC:1.3:CRS84" } },
"xy_coordinate_resolution": 1e-15,
"features": [
{ "type": "Feature", "properties": { "CNPJ": "46334270000130", "IDCIDADE": "CAMPO_LIMPO_PAULISTA", "NOMEFANTASIA": "46.334.270_STEFANI_SILVA_OLIVEIRA", "RAZAOSOCIAL": "46.334.270_STEFANI_SILVA_OLIVEIRA", "ENDEE": "RUA_AVARE1121__VILA_CONSTANCA_13238-486", "LMAPS": "https://www.google.com/maps?q=&layer=c&cbll=-46.7592517,-23.2369442", "O_QUE_FAZER": "APLICAR T2", "ER_REGIAO_CIDADE_min": "Campo Limpo Paulista_Botujuru_Jundiaí" }, "geometry": { "type": "Point", "coordinates": [ -46.7592517, -23.2369442 ] } },
{ "type": "Feature", "properties": { "CNPJ": "24317344000197", "IDCIDADE": "CAMPO_LIMPO_PAULISTA", "NOMEFANTASIA": "BOM_BIFE_DE_CAMPO_LIMPO_PAULISTA", "RAZAOSOCIAL": "BOM_BIFE__MEAT", "ENDEE": "JOAO_BIZETTO_16_BOTUJURU_(BOTUJURU)_CAMPO_LIMPO_PAULISTA", "LMAPS": "https://www.google.com/maps?q=&layer=c&cbll=-23.2377353,-46.7673565", "O_QUE_FAZER": "APLICAR T2", "ER_REGIAO_CIDADE_min": "Campo Limpo Paulista_Botujuru_Jundiaí" }, "geometry": { "type": "Point", "coordinates": [ -46.7673565, -23.2377353 ] } },
{ "type": "Feature", "properties": { "CNPJ": "34808904000160", "IDCIDADE": "CAMPO_LIMPO_PAULISTA", "NOMEFANTASIA": "GAIA_ASSISTENCIA_TECNICA", "RAZAOSOCIAL": "GAIA_ASSISTENCIA_TECNICA", "ENDEE": "JOAO_BIZETTO_150_BOTUJURU_(BOTUJURU)_CAMPO_LIMPO_PAULISTA", "LMAPS": "https://www.google.com/maps?q=&layer=c&cbll=-23.2401692,-46.7664172", "O_QUE_FAZER": "APLICAR T2", "ER_REGIAO_CIDADE_min": "Campo Limpo Paulista_Botujuru_Jundiaí" }, "geometry": { "type": "Point", "coordinates": [ -46.7664172, -23.2401692 ] } },
{ "type": "Feature", "properties": { "CNPJ": "43438897000142", "IDCIDADE": "CAMPO_LIMPO_PAULISTA", "NOMEFANTASIA": "FDP_SOLUCOES_ASSISTENCIA_TECNICA", "RAZAOSOCIAL": "FDP_SOLUCOES_ASSISTENCIA_TECNICA", "ENDEE": "JOAO_BIZETTO_150_BOTUJURU_(BOTUJURU)_CAMPO_LIMPO_PAULISTA", "LMAPS": "https://www.google.com/maps?q=&layer=c&cbll=-23.2401692,-46.7664172", "O_QUE_FAZER": "APLICAR T2", "ER_REGIAO_CIDADE_min": "Campo Limpo Paulista_Botujuru_Jundiaí" }, "geometry": { "type": "Point", "coordinates": [ -46.7664172, -23.2401692 ] } },
{ "type": "Feature", "properties": { "CNPJ": "49468310000124", "IDCIDADE": "CAMPO_LIMPO_PAULISTA", "NOMEFANTASIA": "LIMA_TENIS", "RAZAOSOCIAL": "LIMA_TENIS", "ENDEE": "JOAO_BIZETTO_150_BOTUJURU_(BOTUJURU)_CAMPO_LIMPO_PAULISTA", "LMAPS": "https://www.google.com/maps?q=&layer=c&cbll=-23.2401692,-46.7664172", "O_QUE_FAZER": "APLICAR T2", "ER_REGIAO_CIDADE_min": "Campo Limpo Paulista_Botujuru_Jundiaí" }, "geometry": { "type": "Point", "coordinates": [ -46.7664172, -23.2401692 ] } },
{ "type": "Feature", "properties": { "CNPJ": "63421640000195", "IDCIDADE": "CAMPO_LIMPO_PAULISTA", "NOMEFANTASIA": "CINDIMY_LOJINHA_DA_CIDA", "RAZAOSOCIAL": "CINDIMY_LOJINHA_DA_CIDA", "ENDEE": "JOAO_BIZETTO_150_BOTUJURU_(BOTUJURU)_CAMPO_LIMPO_PAULISTA", "LMAPS": "https://www.google.com/maps?q=&layer=c&cbll=-23.2401692,-46.7664172", "O_QUE_FAZER": "APLICAR T2", "ER_REGIAO_CIDADE_min": "Campo Limpo Paulista_Botujuru_Jundiaí" }, "geometry": { "type": "Point", "coordinates": [ -46.7664172, -23.2401692 ] } },
{ "type": "Feature", "properties": { "CNPJ": "63706891000116", "IDCIDADE": "CAMPO_LIMPO_PAULISTA", "NOMEFANTASIA": "LA_VENEZUELANA", "RAZAOSOCIAL": "LA_VENEZUELANA", "ENDEE": "JOAO_BIZETTO_150_BOTUJURU_(BOTUJURU)_CAMPO_LIMPO_PAULISTA", "LMAPS": "https://www.google.com/maps?q=&layer=c&cbll=-23.2401692,-46.7664172", "O_QUE_FAZER": "APLICAR T2", "ER_REGIAO_CIDADE_min": "Campo Limpo Paulista_Botujuru_Jundiaí" }, "geometry": { "type": "Point", "coordinates": [ -46.7664172, -23.2401692 ] } },
{ "type": "Feature", "properties": { "CNPJ": "62343659000106", "IDCIDADE": "CAMPO_LIMPO_PAULISTA", "NOMEFANTASIA": "MS_MATERIAIS_DE_CONSTRUCAO", "RAZAOSOCIAL": "MS_MATERIAIS_DE_CONSTRUCAO", "ENDEE": "JOAO_BIZETTO_315_BOTUJURU_(BOTUJURU)_CAMPO_LIMPO_PAULISTA", "LMAPS": "https://www.google.com/maps?q=&layer=c&cbll=-23.2395423,-46.767119", "O_QUE_FAZER": "APLICAR T2", "ER_REGIAO_CIDADE_min": "Campo Limpo Paulista_Botujuru_Jundiaí" }, "geometry": { "type": "Point", "coordinates": [ -46.767119, -23.2395423 ] } },
{ "type": "Feature", "properties": { "CNPJ": "44410661000160", "IDCIDADE": "CAMPO_LIMPO_PAULISTA", "NOMEFANTASIA": "BAR_DO_LU", "RAZAOSOCIAL": "BAR_DO_LU", "ENDEE": "JOAO_BIZETTO_175_BOTUJURU_(BOTUJURU)_CAMPO_LIMPO_PAULISTA", "LMAPS": "https://www.google.com/maps?q=&layer=c&cbll=-23.2394355,-46.7670127", "O_QUE_FAZER": "APLICAR T2", "ER_REGIAO_CIDADE_min": "Campo Limpo Paulista_Botujuru_Jundiaí" }, "geometry": { "type": "Point", "coordinates": [ -46.7670127, -23.2394355 ] } },
{ "type": "Feature", "properties": { "CNPJ": "23648941000131", "IDCIDADE": "CAMPO_LIMPO_PAULISTA", "NOMEFANTASIA": "CENTRO_AUTOMOTIVO_ALVES", "RAZAOSOCIAL": "CENTRO_AUTOMOTIVO_ALVES", "ENDEE": "JOAO_BIZETTO_70_BOTUJURU_(BOTUJURU)_CAMPO_LIMPO_PAULISTA", "LMAPS": "https://www.google.com/maps?q=&layer=c&cbll=-23.2392301,-46.7674382", "O_QUE_FAZER": "APLICAR T2", "ER_REGIAO_CIDADE_min": "Campo Limpo Paulista_Botujuru_Jundiaí" }, "geometry": { "type": "Point", "coordinates": [ -46.7674382, -23.2392301 ] } },
{ "type": "Feature", "properties": { "CNPJ": "30955845000100", "IDCIDADE": "CAMPO_LIMPO_PAULISTA", "NOMEFANTASIA": "CONFEITARIA_ROZITTA", "RAZAOSOCIAL": "CONFEITARIA_ROZZITA", "ENDEE": "JOAO_BIZETTO_35_BOTUJURU_(BOTUJURU)_CAMPO_LIMPO_PAULISTA", "LMAPS": "https://www.google.com/maps?q=&layer=c&cbll=-23.2387658,-46.7673082", "O_QUE_FAZER": "APLICAR T2", "ER_REGIAO_CIDADE_min": "Campo Limpo Paulista_Botujuru_Jundiaí" }, "geometry": { "type": "Point", "coordinates": [ -46.7673082, -23.2387658 ] } },
{ "type": "Feature", "properties": { "CNPJ": "02478898000133", "IDCIDADE": "CAMPO_LIMPO_PAULISTA", "NOMEFANTASIA": "AGRO-COMERCIAL_MESSIAS", "RAZAOSOCIAL": "AGRO_MESSIAS", "ENDEE": "JOAO_BIZETTO_26_BOTUJURU_(BOTUJURU)_CAMPO_LIMPO_PAULISTA", "LMAPS": "https://www.google.com/maps?q=&layer=c&cbll=-23.2380431,-46.7673333", "O_QUE_FAZER": "APLICAR T2", "ER_REGIAO_CIDADE_min": "Campo Limpo Paulista_Botujuru_Jundiaí" }, "geometry": { "type": "Point", "coordinates": [ -46.7673333, -23.2380431 ] } },
{ "type": "Feature", "properties": { "CNPJ": "15268438000122", "IDCIDADE": "CAMPO_LIMPO_PAULISTA", "NOMEFANTASIA": "DAMA_EMBALAGENS", "RAZAOSOCIAL": "DAMA_EMBALAGENS", "ENDEE": "BELA_VISTA_130_BOTUJURU_(BOTUJURU)_CAMPO_LIMPO_PAULISTA", "LMAPS": "https://www.google.com/maps?q=&layer=c&cbll=-23.2374242,-46.7670697", "O_QUE_FAZER": "APLICAR T2", "ER_REGIAO_CIDADE_min": "Campo Limpo Paulista_Botujuru_Jundiaí" }, "geometry": { "type": "Point", "coordinates": [ -46.7670697, -23.2374242 ] } },
{ "type": "Feature", "properties": { "CNPJ": "14039235000100", "IDCIDADE": "CAMPO_LIMPO_PAULISTA", "NOMEFANTASIA": "CABELEIREIRO_ROMARIO", "RAZAOSOCIAL": "CABELEIREIRO_ROMARIO", "ENDEE": "BELA_VISTA_153_BOTUJURU_CAMPO_LIMPO_PAULISTA", "LMAPS": "https://www.google.com/maps?q=&layer=c&cbll=-23.2373255,-46.7675558", "O_QUE_FAZER": "APLICAR T2", "ER_REGIAO_CIDADE_min": "Campo Limpo Paulista_Botujuru_Jundiaí" }, "geometry": { "type": "Point", "coordinates": [ -46.7675558, -23.2373255 ] } },
{ "type": "Feature", "properties": { "CNPJ": "37344673000179", "IDCIDADE": "CAMPO_LIMPO_PAULISTA", "NOMEFANTASIA": "FAMILY_TECNOLOGY", "RAZAOSOCIAL": "FAMILY_TECNOLOGY", "ENDEE": "BELA_VISTA_153_BOTUJURU_(BOTUJURU)_CAMPO_LIMPO_PAULISTA", "LMAPS": "https://www.google.com/maps?q=&layer=c&cbll=-23.2373255,-46.7675558", "O_QUE_FAZER": "APLICAR T2", "ER_REGIAO_CIDADE_min": "Campo Limpo Paulista_Botujuru_Jundiaí" }, "geometry": { "type": "Point", "coordinates": [ -46.7675558, -23.2373255 ] } },
{ "type": "Feature", "properties": { "CNPJ": "19853604000109", "IDCIDADE": "CAMPO_LIMPO_PAULISTA", "NOMEFANTASIA": "CAROL_MODAS", "RAZAOSOCIAL": "CAROL_MODAS", "ENDEE": "BELA_VISTA_164_BOTUJURU_CAMPO_LIMPO_PAULISTA", "LMAPS": "https://www.google.com/maps?q=&layer=c&cbll=-23.2370068,-46.7674798", "O_QUE_FAZER": "APLICAR T2", "ER_REGIAO_CIDADE_min": "Campo Limpo Paulista_Botujuru_Jundiaí" }, "geometry": { "type": "Point", "coordinates": [ -46.7674798, -23.2370068 ] } },
{ "type": "Feature", "properties": { "CNPJ": "36111451000305", "IDCIDADE": "CAMPO_LIMPO_PAULISTA", "NOMEFANTASIA": "JG_CASA_DE_RACAO", "RAZAOSOCIAL": "JG_CASA_DE_RACAO", "ENDEE": "ITOBI_95_VILA_CONSTANCA_(BOTUJURU)_CAMPO_LIMPO_PAULISTA", "LMAPS": "https://www.google.com/maps?q=&layer=c&cbll=-23.2368156,-46.7649328", "O_QUE_FAZER": "APLICAR T2", "ER_REGIAO_CIDADE_min": "Campo Limpo Paulista_Botujuru_Jundiaí" }, "geometry": { "type": "Point", "coordinates": [ -46.7649328, -23.2368156 ] } },
{ "type": "Feature", "properties": { "CNPJ": "36111451000496", "IDCIDADE": "CAMPO_LIMPO_PAULISTA", "NOMEFANTASIA": "JOTAGE_CENTER_PET", "RAZAOSOCIAL": "AGRO_CENTER", "ENDEE": "BELA_VISTA_285_BOTUJURU_(BOTUJURU)_CAMPO_LIMPO_PAULISTA", "LMAPS": "https://www.google.com/maps?q=&layer=c&cbll=-23.2363182,-46.7681244", "O_QUE_FAZER": "APLICAR T2", "ER_REGIAO_CIDADE_min": "Campo Limpo Paulista_Botujuru_Jundiaí" }, "geometry": { "type": "Point", "coordinates": [ -46.7681244, -23.2363182 ] } },
{ "type": "Feature", "properties": { "CNPJ": "20765538000102", "IDCIDADE": "CAMPO_LIMPO_PAULISTA", "NOMEFANTASIA": "SORVETEIRA_ALEGRIA", "RAZAOSOCIAL": "SORVETEIRA_ALEGRIA", "ENDEE": "JOAO_JULIAO_MOREIRA_55_VILA_CONSTANCA_(BOTUJURU)_CAMPO_LIMPO_PAULISTA", "LMAPS": "https://www.google.com/maps?q=&layer=c&cbll=-23.2362322,-46.7647283", "O_QUE_FAZER": "APLICAR T2", "ER_REGIAO_CIDADE_min": "Campo Limpo Paulista_Botujuru_Jundiaí" }, "geometry": { "type": "Point", "coordinates": [ -46.7647283, -23.2362322 ] } },
{ "type": "Feature", "properties": { "CNPJ": "49369193000141", "IDCIDADE": "CAMPO_LIMPO_PAULISTA", "NOMEFANTASIA": "MAXCIEL_DA_SILVA_SOARES", "RAZAOSOCIAL": "MARCENARIA_REALIZA", "ENDEE": "RUA_PEDRO_LOBO171__VILA_FIRENZE_13238-663", "LMAPS": "https://www.google.com/maps?q=&layer=c&cbll=-46.7576946,-23.2468523", "O_QUE_FAZER": "FINALIZADO", "ER_REGIAO_CIDADE_min": "Campo Limpo Paulista_Botujuru_Jundiaí" }, "geometry": { "type": "Point", "coordinates": [ -46.7576946, -23.2468523 ] } }
]
}
