{
"type": "FeatureCollection",
"name": "ER_REGIAO_CIDADE_min_Coronel Macedo_Ourinhos",
"crs": { "type": "name", "properties": { "name": "urn:ogc:def:crs:OGC:1.3:CRS84" } },
"xy_coordinate_resolution": 1e-15,
"features": [
{ "type": "Feature", "properties": { "CNPJ": "31216661000182", "IDCIDADE": "CORONEL MACEDO", "NOMEFANTASIA": "SUPERMERCADO JONAS", "RAZAOSOCIAL": "TEREZA GARCIA DA SILVA 03099524840", "ENDEE": "RUA CAPITAO AMERICO F DA VEIGA, 445, CENTRO, 18745-000, CORONEL MACEDO, SP, BRASIL", "LATITUDE": "-23.6302192", "LONGITUDE": "-49.3138753", "LMAPS": "https://www.google.com/maps?q=&layer=c&cbll=-23.6302192,-49.3138753", "O_QUE_FAZER": "CARTEIRA - FAMPE", "field_10": null, "field_11": null, "field_12": null, "field_13": null, "ER_REGIAO_CIDADE_min": "Coronel Macedo_Ourinhos" }, "geometry": { "type": "Point", "coordinates": [ -49.3138753, -23.6302192 ] } },
{ "type": "Feature", "properties": { "CNPJ": "46183396000150", "IDCIDADE": "CORONEL MACEDO", "NOMEFANTASIA": null, "RAZAOSOCIAL": "ADRIANE DE ALMEIDA ROSA SANTOS 25336491802", "ENDEE": "10A RUA ANTONIO TONON, 10, ARMZ, CENTRO, 18745-000, CORONEL MACEDO, SP, BRASIL", "LATITUDE": "-23.6328426", "LONGITUDE": "-49.3083787", "LMAPS": "https://www.google.com/maps?q=&layer=c&cbll=-23.6328426,-49.3083787", "O_QUE_FAZER": "CARTEIRA - FAMPE", "field_10": null, "field_11": null, "field_12": null, "field_13": null, "ER_REGIAO_CIDADE_min": "Coronel Macedo_Ourinhos" }, "geometry": { "type": "Point", "coordinates": [ -49.3083787, -23.6328426 ] } },
{ "type": "Feature", "properties": { "CNPJ": "48808908000152", "IDCIDADE": "TAQUARITUBA", "NOMEFANTASIA": "LIV COMERCIO DE PECAS PARA CAMINHOES", "RAZAOSOCIAL": "LIV COMERCIO DE PECAS PARA CAMINHOES LTDA", "ENDEE": "RODOVIA SP 255 SENTIDO CORONEL MACEDO, 01 KM A ESQUERDA, S/N, RURAL, 18744-899, TAQUARITUBA, SP, BRASIL", "LATITUDE": "-23.6395176", "LONGITUDE": "-49.3135051", "LMAPS": "https://www.google.com/maps?q=&layer=c&cbll=-23.6395176,-49.3135051", "O_QUE_FAZER": "CARTEIRA - FAMPE", "field_10": null, "field_11": null, "field_12": null, "field_13": null, "ER_REGIAO_CIDADE_min": "Coronel Macedo_Ourinhos" }, "geometry": { "type": "Point", "coordinates": [ -49.3135051, -23.6395176 ] } }
]
}
