{
"type": "FeatureCollection",
"name": "ER_REGIAO_CIDADE_min_Barueri_Jardim Belval_Osasco",
"crs": { "type": "name", "properties": { "name": "urn:ogc:def:crs:OGC:1.3:CRS84" } },
"xy_coordinate_resolution": 1e-15,
"features": [
{ "type": "Feature", "properties": { "fid": 9886, "CNPJ": "02042777000225", "IDCIDADE": "BARUERI", "NOMEFANTASIA": "SORVESAN", "RAZAOSOCIAL": "R._A._B._V._SORVETES_LTDA", "ENDEE": "AVENIDA_ITAQUI602__JARDIM_BELVAL_06420-210", "LMAPS": "https://www.google.com/maps?q=&layer=c&cbll=-23.509784,-46.8954253", "O_QUE_FAZER": "CARTEIRA", "ER_REGIAO_CIDADE_min": "Barueri_Jardim Belval_Osasco" }, "geometry": { "type": "Point", "coordinates": [ -46.8954253, -23.509784 ] } },
{ "type": "Feature", "properties": { "fid": 20420, "CNPJ": "03865564000185", "IDCIDADE": "BARUERI", "NOMEFANTASIA": "JK_AUTO_MECANICA", "RAZAOSOCIAL": "J._K._AUTO_MECANICA_E_MULTSERVICOS_LTDA", "ENDEE": "AVENIDA_ITAQUI812__JARDIM_BELVAL_06420-210", "LMAPS": "https://www.google.com/maps?q=&layer=c&cbll=-23.5102309,-46.8973894", "O_QUE_FAZER": "CARTEIRA", "ER_REGIAO_CIDADE_min": "Barueri_Jardim Belval_Osasco" }, "geometry": { "type": "Point", "coordinates": [ -46.8973894, -23.5102309 ] } },
{ "type": "Feature", "properties": { "fid": 24690, "CNPJ": "04519791000111", "IDCIDADE": "BARUERI", "NOMEFANTASIA": "AKI_PECAS", "RAZAOSOCIAL": "JOSIEL_GOMES_DOS_SANTOS_BARUERI", "ENDEE": "AVENIDA_ITAQUI334__JARDIM_BELVAL_06420-210", "LMAPS": "https://www.google.com/maps?q=&layer=c&cbll=-23.5083639,-46.8933144", "O_QUE_FAZER": "CARTEIRA", "ER_REGIAO_CIDADE_min": "Barueri_Jardim Belval_Osasco" }, "geometry": { "type": "Point", "coordinates": [ -46.8933144, -23.5083639 ] } },
{ "type": "Feature", "properties": { "fid": 24888, "CNPJ": "04548875000183", "IDCIDADE": "BARUERI", "NOMEFANTASIA": "EVIDENCIAS_MODAS", "RAZAOSOCIAL": "MARIA_HELENA_BORGES", "ENDEE": "RUA_ENGENHEIRO_OSCAR_KESSELRING150__JARDIM_BELVAL_06420-160", "LMAPS": "https://www.google.com/maps?q=&layer=c&cbll=-23.5090494,-46.8923626", "O_QUE_FAZER": "CARTEIRA", "ER_REGIAO_CIDADE_min": "Barueri_Jardim Belval_Osasco" }, "geometry": { "type": "Point", "coordinates": [ -46.8923626, -23.5090494 ] } },
{ "type": "Feature", "properties": { "fid": 30351, "CNPJ": "05321295000111", "IDCIDADE": "BARUERI", "NOMEFANTASIA": "BATERIAS_BELVAL", "RAZAOSOCIAL": "KELLY_CRISTINA_DE_ALENCAR_ARRAIS_SILVA", "ENDEE": "AVENIDA_HENRIQUETA_MENDES_GUERRA1490__VILA_SAO_JOAO_06401-015", "LMAPS": "https://www.google.com/maps?q=&layer=c&cbll=-23.5097166,-46.8892424", "O_QUE_FAZER": "CARTEIRA", "ER_REGIAO_CIDADE_min": "Barueri_Jardim Belval_Osasco" }, "geometry": { "type": "Point", "coordinates": [ -46.8892424, -23.5097166 ] } },
{ "type": "Feature", "properties": { "fid": 32397, "CNPJ": "05609752000178", "IDCIDADE": "BARUERI", "NOMEFANTASIA": "DEPOSITO_JO", "RAZAOSOCIAL": "MEDEIROS_&_ARAUJO_COMERCIO_DE_MATERIAIS_DE_CONSTRUCAO_LTDA", "ENDEE": "RUA_GATANI117__JARDIM_BELVAL_06420-260", "LMAPS": "https://www.google.com/maps?q=&layer=c&cbll=-23.5102332,-46.89655", "O_QUE_FAZER": "CARTEIRA", "ER_REGIAO_CIDADE_min": "Barueri_Jardim Belval_Osasco" }, "geometry": { "type": "Point", "coordinates": [ -46.89655, -23.5102332 ] } },
{ "type": "Feature", "properties": { "fid": 35527, "CNPJ": "06031035000174", "IDCIDADE": "BARUERI", "NOMEFANTASIA": "DO_RE_MI_MUSICAL", "RAZAOSOCIAL": "INSTRUMENTOS_MUSICAIS_BARUERI_LTDA", "ENDEE": "AVENIDA_HENRIQUE_GONCALVES_BAPTISTA190__JARDIM_BELVAL_06420-130", "LMAPS": "https://www.google.com/maps?q=&layer=c&cbll=-23.5099707,-46.8899807", "O_QUE_FAZER": "CARTEIRA", "ER_REGIAO_CIDADE_min": "Barueri_Jardim Belval_Osasco" }, "geometry": { "type": "Point", "coordinates": [ -46.8899807, -23.5099707 ] } },
{ "type": "Feature", "properties": { "fid": 37184, "CNPJ": "06249626000112", "IDCIDADE": "BARUERI", "NOMEFANTASIA": "ULTRAGAS", "RAZAOSOCIAL": "SERGIO_ALZEMAN_DE_MORAIS", "ENDEE": "RUA_ANCHIETA26__JARDIM_BELVAL_06420-200", "LMAPS": "https://www.google.com/maps?q=&layer=c&cbll=-23.5090144,-46.8946618", "O_QUE_FAZER": "CARTEIRA", "ER_REGIAO_CIDADE_min": "Barueri_Jardim Belval_Osasco" }, "geometry": { "type": "Point", "coordinates": [ -46.8946618, -23.5090144 ] } },
{ "type": "Feature", "properties": { "fid": 42649, "CNPJ": "07431487000106", "IDCIDADE": "BARUERI", "NOMEFANTASIA": "BICHO_PAPAO", "RAZAOSOCIAL": "PEDRO_EDUARDO_CARAN_LIMA", "ENDEE": "RUA_ENGENHEIRO_OSCAR_KESSELRING114__JARDIM_BELVAL_06420-160", "LMAPS": "https://www.google.com/maps?q=&layer=c&cbll=-23.5092398,-46.8920334", "O_QUE_FAZER": "CARTEIRA", "ER_REGIAO_CIDADE_min": "Barueri_Jardim Belval_Osasco" }, "geometry": { "type": "Point", "coordinates": [ -46.8920334, -23.5092398 ] } },
{ "type": "Feature", "properties": { "fid": 43979, "CNPJ": "07597216000125", "IDCIDADE": "BARUERI", "NOMEFANTASIA": "RZRMINI_MERCADO", "RAZAOSOCIAL": "RZR_MINIMERCADO_LTDA", "ENDEE": "RUA_ENGENHEIRO_OSCAR_KESSELRING142__JARDIM_BELVAL_06420-160", "LMAPS": "https://www.google.com/maps?q=&layer=c&cbll=-23.5091826,-46.8922521", "O_QUE_FAZER": "CARTEIRA", "ER_REGIAO_CIDADE_min": "Barueri_Jardim Belval_Osasco" }, "geometry": { "type": "Point", "coordinates": [ -46.8922521, -23.5091826 ] } },
{ "type": "Feature", "properties": { "fid": 57752, "CNPJ": "09384127000126", "IDCIDADE": "BARUERI", "NOMEFANTASIA": "PERFORMANCE", "RAZAOSOCIAL": "PERFORMANCE_TRUCK_CAR_LTDA", "ENDEE": "AVENIDA_ITAQUI724__JARDIM_BELVAL_06420-210", "LMAPS": "https://www.google.com/maps?q=&layer=c&cbll=-23.5099967,-46.8964983", "O_QUE_FAZER": "CARTEIRA", "ER_REGIAO_CIDADE_min": "Barueri_Jardim Belval_Osasco" }, "geometry": { "type": "Point", "coordinates": [ -46.8964983, -23.5099967 ] } },
{ "type": "Feature", "properties": { "fid": 81153, "CNPJ": "13182051000123", "IDCIDADE": "JANDIRA", "NOMEFANTASIA": "DC_MERCADO", "RAZAOSOCIAL": "D_C_DE_OLIVEIRA_MINIMERCADO", "ENDEE": "RUA_MANOEL_ALVES_GARCIA410__JARDIM_SAO_LUIZ_06618-010", "LMAPS": "https://www.google.com/maps?q=&layer=c&cbll=-23.5236958,-46.8990355", "O_QUE_FAZER": "CARTEIRA - FAMPE", "ER_REGIAO_CIDADE_min": "Barueri_Jardim Belval_Osasco" }, "geometry": { "type": "Point", "coordinates": [ -46.8990355, -23.5236958 ] } },
{ "type": "Feature", "properties": { "fid": 81685, "CNPJ": "13280166000150", "IDCIDADE": "BARUERI", "NOMEFANTASIA": "KEROOO_+", "RAZAOSOCIAL": "LANCHONETE_KEROOO+_LTDA", "ENDEE": "AVENIDA_ITAQUI346__JARDIM_BELVAL_06420-210", "LMAPS": "https://www.google.com/maps?q=&layer=c&cbll=-23.5084938,-46.8931882", "O_QUE_FAZER": "CARTEIRA", "ER_REGIAO_CIDADE_min": "Barueri_Jardim Belval_Osasco" }, "geometry": { "type": "Point", "coordinates": [ -46.8931882, -23.5084938 ] } },
{ "type": "Feature", "properties": { "fid": 94316, "CNPJ": "15867530000109", "IDCIDADE": "BARUERI", "NOMEFANTASIA": "XP_POINT", "RAZAOSOCIAL": "LORENA_SAMANTA_DOS_SANTOS_GERMANO-PNEUS_E_RODAS", "ENDEE": "AVENIDA_HENRIQUETA_MENDES_GUERRA1486__VILA_SAO_JOAO_06401-015", "LMAPS": "https://www.google.com/maps?q=&layer=c&cbll=-23.5095477,-46.8890615", "O_QUE_FAZER": "CARTEIRA", "ER_REGIAO_CIDADE_min": "Barueri_Jardim Belval_Osasco" }, "geometry": { "type": "Point", "coordinates": [ -46.8890615, -23.5095477 ] } },
{ "type": "Feature", "properties": { "fid": 94381, "CNPJ": "16096150000261", "IDCIDADE": "BARUERI", "NOMEFANTASIA": "RRSILVA", "RAZAOSOCIAL": "R_F_DA_SILVA_COMERCIO_E_MANUTENCAO", "ENDEE": "RUA_ENGENHEIRO_OSCAR_KESSELRING291__JARDIM_BELVAL_06420-160", "LMAPS": "https://www.google.com/maps?q=&layer=c&cbll=-23.508312,-46.8933253", "O_QUE_FAZER": "CARTEIRA", "ER_REGIAO_CIDADE_min": "Barueri_Jardim Belval_Osasco" }, "geometry": { "type": "Point", "coordinates": [ -46.8933253, -23.508312 ] } },
{ "type": "Feature", "properties": { "fid": 95454, "CNPJ": "16700366000294", "IDCIDADE": "BARUERI", "NOMEFANTASIA": "DROGARIA_ARENA", "RAZAOSOCIAL": "DROGARIA_ARENA_LTDA", "ENDEE": "RUA_ENGENHEIRO_OSCAR_KESSELRING101__JARDIM_BELVAL_06420-160", "LMAPS": "https://www.google.com/maps?q=&layer=c&cbll=-23.5093822,-46.8921341", "O_QUE_FAZER": "CARTEIRA", "ER_REGIAO_CIDADE_min": "Barueri_Jardim Belval_Osasco" }, "geometry": { "type": "Point", "coordinates": [ -46.8921341, -23.5093822 ] } },
{ "type": "Feature", "properties": { "fid": 98135, "CNPJ": "17235075000154", "IDCIDADE": "BARUERI", "NOMEFANTASIA": "INFINITY", "RAZAOSOCIAL": "OTICA_INFINITY_LTDA", "ENDEE": "RUA_ENGENHEIRO_OSCAR_KESSELRING49__JARDIM_BELVAL_06420-160", "LMAPS": "https://www.google.com/maps?q=&layer=c&cbll=-23.5097991,-46.8917351", "O_QUE_FAZER": "CARTEIRA", "ER_REGIAO_CIDADE_min": "Barueri_Jardim Belval_Osasco" }, "geometry": { "type": "Point", "coordinates": [ -46.8917351, -23.5097991 ] } },
{ "type": "Feature", "properties": { "fid": 99004, "CNPJ": "17412418000109", "IDCIDADE": "BARUERI", "NOMEFANTASIA": "DROGARIA_MIRO", "RAZAOSOCIAL": "DROGARIA_MIRO_I_LTDA", "ENDEE": "AVENIDA_HENRIQUE_GONCALVES_BAPTISTA196__JARDIM_BELVAL_06420-130", "LMAPS": "https://www.google.com/maps?q=&layer=c&cbll=-23.5100673,-46.8900261", "O_QUE_FAZER": "CARTEIRA", "ER_REGIAO_CIDADE_min": "Barueri_Jardim Belval_Osasco" }, "geometry": { "type": "Point", "coordinates": [ -46.8900261, -23.5100673 ] } },
{ "type": "Feature", "properties": { "fid": 107445, "CNPJ": "19155447000168", "IDCIDADE": "BARUERI", "NOMEFANTASIA": "TINTAS_MEGACORES", "RAZAOSOCIAL": "MEGA_CORES_BELVAL_LTDA", "ENDEE": "RUA_ENGENHEIRO_OSCAR_KESSELRING449__JARDIM_BELVAL_06420-160", "LMAPS": "https://www.google.com/maps?q=&layer=c&cbll=-23.5072494,-46.8945164", "O_QUE_FAZER": "CARTEIRA", "ER_REGIAO_CIDADE_min": "Barueri_Jardim Belval_Osasco" }, "geometry": { "type": "Point", "coordinates": [ -46.8945164, -23.5072494 ] } },
{ "type": "Feature", "properties": { "fid": 111248, "CNPJ": "20032997000179", "IDCIDADE": "BARUERI", "NOMEFANTASIA": "NOVA_FORM", "RAZAOSOCIAL": "NOVA_FARM_DROGARIA_LTDA", "ENDEE": "RUA_DIOGENES_RIBEIRO_DE_LIMA843__JARDIM_BELVAL_06420-250", "LMAPS": "https://www.google.com/maps?q=&layer=c&cbll=-23.510605,-46.8959344", "O_QUE_FAZER": "CARTEIRA", "ER_REGIAO_CIDADE_min": "Barueri_Jardim Belval_Osasco" }, "geometry": { "type": "Point", "coordinates": [ -46.8959344, -23.510605 ] } },
{ "type": "Feature", "properties": { "fid": 124486, "CNPJ": "22931399000167", "IDCIDADE": "BARUERI", "NOMEFANTASIA": "A_LOJA_DO_BICHO", "RAZAOSOCIAL": "AGNERIO_NERI_FERREIRA", "ENDEE": "AVENIDA_HENRIQUE_GONCALVES_BAPTISTA188__JARDIM_BELVAL_06420-130", "LMAPS": "https://www.google.com/maps?q=&layer=c&cbll=-23.5099739,-46.8899149", "O_QUE_FAZER": "CARTEIRA", "ER_REGIAO_CIDADE_min": "Barueri_Jardim Belval_Osasco" }, "geometry": { "type": "Point", "coordinates": [ -46.8899149, -23.5099739 ] } },
{ "type": "Feature", "properties": { "fid": 127900, "CNPJ": "23661865000102", "IDCIDADE": "BARUERI", "NOMEFANTASIA": "APM", "RAZAOSOCIAL": "JC_MOTO_RACING_LTDA", "ENDEE": "AVENIDA_ITAQUI622__JARDIM_BELVAL_06420-210", "LMAPS": "https://www.google.com/maps?q=&layer=c&cbll=-23.5098256,-46.8955692", "O_QUE_FAZER": "CARTEIRA - FAMPE", "ER_REGIAO_CIDADE_min": "Barueri_Jardim Belval_Osasco" }, "geometry": { "type": "Point", "coordinates": [ -46.8955692, -23.5098256 ] } },
{ "type": "Feature", "properties": { "fid": 129392, "CNPJ": "23981113000110", "IDCIDADE": "BARUERI", "NOMEFANTASIA": null, "RAZAOSOCIAL": "F.C.B._SERPICO", "ENDEE": "AVENIDA DOS PASSAROS, 451, QUIOSQ2 QUINTA DA ALDEIA MAL, RESIDENCIAL MORADA DOS LAGOS, 06429-222, BARUERI, SP, BRASIL", "LMAPS": "https://www.google.com/maps?q=&layer=c&cbll=-23.493741,-46.9614898", "O_QUE_FAZER": "CARTEIRA - FAMPE", "ER_REGIAO_CIDADE_min": "Barueri_Jardim Belval_Osasco" }, "geometry": { "type": "Point", "coordinates": [ -46.9614898, -23.493741 ] } },
{ "type": "Feature", "properties": { "fid": 133833, "CNPJ": "24865744000137", "IDCIDADE": "BARUERI", "NOMEFANTASIA": "EMPORIO_BEM_ESTAR", "RAZAOSOCIAL": "CLAUDENICE_DA_SILVA", "ENDEE": "RUA_ENGENHEIRO_OSCAR_KESSELRING110__JARDIM_BELVAL_06420-160", "LMAPS": "https://www.google.com/maps?q=&layer=c&cbll=-23.5093712,-46.8920737", "O_QUE_FAZER": "CARTEIRA", "ER_REGIAO_CIDADE_min": "Barueri_Jardim Belval_Osasco" }, "geometry": { "type": "Point", "coordinates": [ -46.8920737, -23.5093712 ] } },
{ "type": "Feature", "properties": { "fid": 154355, "CNPJ": "29295325000120", "IDCIDADE": "BARUERI", "NOMEFANTASIA": "SUPERMERCADO_NAYARA", "RAZAOSOCIAL": "P._B._CARMO_-_SUPERMERCADO", "ENDEE": "RUA_ENGENHEIRO_OSCAR_KESSELRING71__JARDIM_BELVAL_06420-160", "LMAPS": "https://www.google.com/maps?q=&layer=c&cbll=-23.5095986,-46.8920022", "O_QUE_FAZER": "CARTEIRA", "ER_REGIAO_CIDADE_min": "Barueri_Jardim Belval_Osasco" }, "geometry": { "type": "Point", "coordinates": [ -46.8920022, -23.5095986 ] } },
{ "type": "Feature", "properties": { "fid": 157271, "CNPJ": "29909448000104", "IDCIDADE": "BARUERI", "NOMEFANTASIA": "VISAO_TOTAL", "RAZAOSOCIAL": "R&R_VISTORIA_E_SERVICO_VEICULAR_LTDA", "ENDEE": "AVENIDA_ITAQUI446__JARDIM_BELVAL_06420-210", "LMAPS": "https://www.google.com/maps?q=&layer=c&cbll=-23.5087464,-46.8944412", "O_QUE_FAZER": "CARTEIRA", "ER_REGIAO_CIDADE_min": "Barueri_Jardim Belval_Osasco" }, "geometry": { "type": "Point", "coordinates": [ -46.8944412, -23.5087464 ] } },
{ "type": "Feature", "properties": { "fid": 178357, "CNPJ": "34063790000176", "IDCIDADE": "BARUERI", "NOMEFANTASIA": "MERCADO_MIRASOL", "RAZAOSOCIAL": "JR_MIRASSOL_SUPERMERCADOS_LTDA", "ENDEE": "AVENIDA_ITAQUI477__JARDIM_BELVAL_06420-210", "LMAPS": "https://www.google.com/maps?q=&layer=c&cbll=-23.5096936,-46.8946141", "O_QUE_FAZER": "CARTEIRA", "ER_REGIAO_CIDADE_min": "Barueri_Jardim Belval_Osasco" }, "geometry": { "type": "Point", "coordinates": [ -46.8946141, -23.5096936 ] } },
{ "type": "Feature", "properties": { "fid": 190983, "CNPJ": "36686730000135", "IDCIDADE": "BARUERI", "NOMEFANTASIA": "FABRICA_DE_OCULOS_VD", "RAZAOSOCIAL": "OTICA_FABRICA_DE_OCULOS_VD_LTDA", "ENDEE": "RUA_ENGENHEIRO_OSCAR_KESSELRING120__JARDIM_BELVAL_06420-160", "LMAPS": "https://www.google.com/maps?q=&layer=c&cbll=-23.5092338,-46.8921507", "O_QUE_FAZER": "CARTEIRA", "ER_REGIAO_CIDADE_min": "Barueri_Jardim Belval_Osasco" }, "geometry": { "type": "Point", "coordinates": [ -46.8921507, -23.5092338 ] } },
{ "type": "Feature", "properties": { "fid": 196181, "CNPJ": "37904033000176", "IDCIDADE": "BARUERI", "NOMEFANTASIA": "ARENA_LANCHONETE", "RAZAOSOCIAL": "ARENA_PIZZARIA_E_ESFIHARIA_LTDA", "ENDEE": "AVENIDA_ITAQUI934__JARDIM_BELVAL_06420-210", "LMAPS": "https://www.google.com/maps?q=&layer=c&cbll=-23.5111303,-46.8979655", "O_QUE_FAZER": "CARTEIRA", "ER_REGIAO_CIDADE_min": "Barueri_Jardim Belval_Osasco" }, "geometry": { "type": "Point", "coordinates": [ -46.8979655, -23.5111303 ] } },
{ "type": "Feature", "properties": { "fid": 205170, "CNPJ": "40311156000108", "IDCIDADE": "BARUERI", "NOMEFANTASIA": "TOTO_PET_CENTER", "RAZAOSOCIAL": "TOTO_PET_CENTER_LTDA", "ENDEE": "AVENIDA_ITAQUI22__JARDIM_BELVAL_06420-210", "LMAPS": "https://www.google.com/maps?q=&layer=c&cbll=-23.5100417,-46.8909259", "O_QUE_FAZER": "CARTEIRA", "ER_REGIAO_CIDADE_min": "Barueri_Jardim Belval_Osasco" }, "geometry": { "type": "Point", "coordinates": [ -46.8909259, -23.5100417 ] } },
{ "type": "Feature", "properties": { "fid": 219807, "CNPJ": "43727092000119", "IDCIDADE": "BARUERI", "NOMEFANTASIA": "BELLA_SIX", "RAZAOSOCIAL": "BELLA_SIX_LTDA", "ENDEE": "RUA_ENGENHEIRO_OSCAR_KESSELRING91__JARDIM_BELVAL_06420-160", "LMAPS": "https://www.google.com/maps?q=&layer=c&cbll=-23.5095228,-46.8920495", "O_QUE_FAZER": "CARTEIRA", "ER_REGIAO_CIDADE_min": "Barueri_Jardim Belval_Osasco" }, "geometry": { "type": "Point", "coordinates": [ -46.8920495, -23.5095228 ] } },
{ "type": "Feature", "properties": { "fid": 228492, "CNPJ": "45570447000134", "IDCIDADE": "BARUERI", "NOMEFANTASIA": "AUTO_MOTO_ESCOLA_BARUERI", "RAZAOSOCIAL": "AUTO_MOTO_ESCOLA_BARUERI_LTDA", "ENDEE": "RUA_QUINZE_DE_NOVEMBRO5__VILA_NOVA_06420-000", "LMAPS": "https://www.google.com/maps?q=&layer=c&cbll=-23.5099337,-46.8894462", "O_QUE_FAZER": "CARTEIRA", "ER_REGIAO_CIDADE_min": "Barueri_Jardim Belval_Osasco" }, "geometry": { "type": "Point", "coordinates": [ -46.8894462, -23.5099337 ] } },
{ "type": "Feature", "properties": { "fid": 236744, "CNPJ": "47227299000185", "IDCIDADE": "BARUERI", "NOMEFANTASIA": "BOOKINFO", "RAZAOSOCIAL": "BOOKINFO_LTDA", "ENDEE": "AVENIDA QUEIMADA, 269, SALA 24, RESIDENCIAL MORADA DOS LAGOS, 06429-215, BARUERI, SP, BRASIL", "LMAPS": "https://www.google.com/maps?q=&layer=c&cbll=-23.4876322,-46.9552005", "O_QUE_FAZER": "CARTEIRA - FAMPE", "ER_REGIAO_CIDADE_min": "Barueri_Jardim Belval_Osasco" }, "geometry": { "type": "Point", "coordinates": [ -46.9552005, -23.4876322 ] } },
{ "type": "Feature", "properties": { "fid": 237187, "CNPJ": "47320170000117", "IDCIDADE": "BARUERI", "NOMEFANTASIA": "KN_FESTA", "RAZAOSOCIAL": "KN_FESTA_COMERCIO_LTDA", "ENDEE": "ESTRADA DOUTOR CICERO BORGES DE MORAIS, 2117, ANEXO B SALA 02, VILA UNIVERSAL, 06407-000, BARUERI, SP, BRASIL", "LMAPS": "https://www.google.com/maps?q=&layer=c&cbll=-23.5033046,-46.8981626", "O_QUE_FAZER": "CARTEIRA - FAMPE", "ER_REGIAO_CIDADE_min": "Barueri_Jardim Belval_Osasco" }, "geometry": { "type": "Point", "coordinates": [ -46.8981626, -23.5033046 ] } },
{ "type": "Feature", "properties": { "fid": 238513, "CNPJ": "47614439000178", "IDCIDADE": "BARUERI", "NOMEFANTASIA": "BELLA_ITAQUI", "RAZAOSOCIAL": "LEONARDO_HENRIQUE_SANTOS_DE_OLIVEIRA_MERCADO", "ENDEE": "AVENIDA_ITAQUI885__JARDIM_BELVAL_06420-210", "LMAPS": "https://www.google.com/maps?q=&layer=c&cbll=-23.5113098,-46.8977969", "O_QUE_FAZER": "CARTEIRA", "ER_REGIAO_CIDADE_min": "Barueri_Jardim Belval_Osasco" }, "geometry": { "type": "Point", "coordinates": [ -46.8977969, -23.5113098 ] } },
{ "type": "Feature", "properties": { "fid": 243716, "CNPJ": "48656646000158", "IDCIDADE": "BARUERI", "NOMEFANTASIA": "DISTRIBUIDORA_CEREJEIRA", "RAZAOSOCIAL": "DISTRIBUIDORA_CERVEJEIROS_LTDA", "ENDEE": "AVENIDA_ITAQUI153__JARDIM_BELVAL_06420-210", "LMAPS": "https://www.google.com/maps?q=&layer=c&cbll=-23.5089296,-46.8919336", "O_QUE_FAZER": "CARTEIRA", "ER_REGIAO_CIDADE_min": "Barueri_Jardim Belval_Osasco" }, "geometry": { "type": "Point", "coordinates": [ -46.8919336, -23.5089296 ] } },
{ "type": "Feature", "properties": { "fid": 248226, "CNPJ": "49660876000153", "IDCIDADE": "BARUERI", "NOMEFANTASIA": "MK_FERREIRA_CONSTRUCOES_LTDA", "RAZAOSOCIAL": "MK_FERREIRA", "ENDEE": "RUA_DEPUTADO_SCALAMANDRE_SOBRINHO339__JARDIM_ITAQUITI_06422-040", "LMAPS": "https://www.google.com/maps?q=&layer=c&cbll=-23.5180046,-46.9025817", "O_QUE_FAZER": "FINALIZADO", "ER_REGIAO_CIDADE_min": "Barueri_Jardim Belval_Osasco" }, "geometry": { "type": "Point", "coordinates": [ -46.9025817, -23.5180046 ] } },
{ "type": "Feature", "properties": { "fid": 257833, "CNPJ": "51549233000189", "IDCIDADE": "BARUERI", "NOMEFANTASIA": "FLEX_LAR", "RAZAOSOCIAL": "MAVILAR_COMERCIO_DE_MOVEIS_E_COLCHOES_LTDA", "ENDEE": "AVENIDA_HENRIQUETA_MENDES_GUERRA1486__VILA_SAO_JOAO_06401-015", "LMAPS": "https://www.google.com/maps?q=&layer=c&cbll=-23.5096199,-46.8891306", "O_QUE_FAZER": "CARTEIRA", "ER_REGIAO_CIDADE_min": "Barueri_Jardim Belval_Osasco" }, "geometry": { "type": "Point", "coordinates": [ -46.8891306, -23.5096199 ] } },
{ "type": "Feature", "properties": { "fid": 260059, "CNPJ": "51992411000141", "IDCIDADE": "BARUERI", "NOMEFANTASIA": "STOP_CAR", "RAZAOSOCIAL": "STOP_CAR_TAPECARIA_E_MECANICA_AUTOMOTIVA_LTDA", "ENDEE": "AVENIDA_HENRIQUE_GONCALVES_BAPTISTA214__JARDIM_BELVAL_06420-130", "LMAPS": "https://www.google.com/maps?q=&layer=c&cbll=-23.5100197,-46.8902214", "O_QUE_FAZER": "CARTEIRA", "ER_REGIAO_CIDADE_min": "Barueri_Jardim Belval_Osasco" }, "geometry": { "type": "Point", "coordinates": [ -46.8902214, -23.5100197 ] } },
{ "type": "Feature", "properties": { "fid": 260099, "CNPJ": "51999921000140", "IDCIDADE": "BARUERI", "NOMEFANTASIA": "EMPORIO_JACOBINA", "RAZAOSOCIAL": "EMPORIO_JACOBINA_LTDA", "ENDEE": "AVENIDA_ITAQUI424__JARDIM_BELVAL_06420-210", "LMAPS": "https://www.google.com/maps?q=&layer=c&cbll=-23.5088093,-46.8942394", "O_QUE_FAZER": "CARTEIRA", "ER_REGIAO_CIDADE_min": "Barueri_Jardim Belval_Osasco" }, "geometry": { "type": "Point", "coordinates": [ -46.8942394, -23.5088093 ] } },
{ "type": "Feature", "properties": { "fid": 261907, "CNPJ": "52376394000180", "IDCIDADE": "BARUERI", "NOMEFANTASIA": "-", "RAZAOSOCIAL": "52.376.394_THAIS_CAROLINE_SOUZA_NASCIMENTO", "ENDEE": "RUA CACILDA BECKER, 205, VILA IRACEMA-BELVAL, 06422-070, BARUERI, SP, BRASIL", "LMAPS": "https://www.google.com/maps?q=&layer=c&cbll=-23.5170543,-46.8983417", "O_QUE_FAZER": "CARTEIRA - FAMPE", "ER_REGIAO_CIDADE_min": "Barueri_Jardim Belval_Osasco" }, "geometry": { "type": "Point", "coordinates": [ -46.8983417, -23.5170543 ] } },
{ "type": "Feature", "properties": { "fid": 274264, "CNPJ": "55111853000192", "IDCIDADE": "BARUERI", "NOMEFANTASIA": "-", "RAZAOSOCIAL": "55.111.853_ANDREY_DOS_SANTOS_MIRANDA", "ENDEE": "AVENIDA HENRIQUE GONCALVES BAPTISTA, 258, CASA CASA 2, JARDIM BELVAL, 06420-130, BARUERI, SP, BRASIL", "LMAPS": "https://www.google.com/maps?q=&layer=c&cbll=-23.5100211,-46.8905825", "O_QUE_FAZER": "CARTEIRA - FAMPE", "ER_REGIAO_CIDADE_min": "Barueri_Jardim Belval_Osasco" }, "geometry": { "type": "Point", "coordinates": [ -46.8905825, -23.5100211 ] } },
{ "type": "Feature", "properties": { "fid": 276456, "CNPJ": "55629319000172", "IDCIDADE": "BARUERI", "NOMEFANTASIA": "CASA_DO_BOLO", "RAZAOSOCIAL": "SCG_VILLE_COMERCIO_LTDA", "ENDEE": "RUA_ENGENHEIRO_OSCAR_KESSELRING151__JARDIM_BELVAL_06420-160", "LMAPS": "https://www.google.com/maps?q=&layer=c&cbll=-23.5090435,-46.8924115", "O_QUE_FAZER": "CARTEIRA", "ER_REGIAO_CIDADE_min": "Barueri_Jardim Belval_Osasco" }, "geometry": { "type": "Point", "coordinates": [ -46.8924115, -23.5090435 ] } },
{ "type": "Feature", "properties": { "fid": 279153, "CNPJ": "56393724000105", "IDCIDADE": "BARUERI", "NOMEFANTASIA": "-", "RAZAOSOCIAL": "56.393.724_JOICE_SILVA_DE_AZEVEDO_DE_SOUZA", "ENDEE": "RUA ILHA BELA, 52, JARDIM MARIA CRISTINA, 06421-020, BARUERI, SP, BRASIL", "LMAPS": "https://www.google.com/maps?q=&layer=c&cbll=-23.5081506,-46.9005224", "O_QUE_FAZER": "CARTEIRA - FAMPE", "ER_REGIAO_CIDADE_min": "Barueri_Jardim Belval_Osasco" }, "geometry": { "type": "Point", "coordinates": [ -46.9005224, -23.5081506 ] } },
{ "type": "Feature", "properties": { "fid": 302825, "CNPJ": "65778682000103", "IDCIDADE": "BARUERI", "NOMEFANTASIA": null, "RAZAOSOCIAL": "65.778.682_RENATO_VOLOTAO_GONCALVES_SPOLTORE", "ENDEE": "RUA MACHADO DE ASSIS, 90, JARDIM BELVAL, 06420-380, BARUERI, SP, BRASIL", "LMAPS": "https://www.google.com/maps?q=&layer=c&cbll=-23.5141872,-46.8971094", "O_QUE_FAZER": "CARTEIRA - FAMPE", "ER_REGIAO_CIDADE_min": "Barueri_Jardim Belval_Osasco" }, "geometry": { "type": "Point", "coordinates": [ -46.8971094, -23.5141872 ] } },
{ "type": "Feature", "properties": { "fid": 305876, "CNPJ": "67269396000148", "IDCIDADE": "BARUERI", "NOMEFANTASIA": null, "RAZAOSOCIAL": "67.269.396_LUCIANO_BRUNO_DA_SILVA", "ENDEE": "RUA PRINCESA ISABEL, 78, JARDIM BELVAL, 06420-450, BARUERI, SP, BRASIL", "LMAPS": "https://www.google.com/maps?q=&layer=c&cbll=-23.5156398,-46.8965977", "O_QUE_FAZER": "CARTEIRA - FAMPE", "ER_REGIAO_CIDADE_min": "Barueri_Jardim Belval_Osasco" }, "geometry": { "type": "Point", "coordinates": [ -46.8965977, -23.5156398 ] } },
{ "type": "Feature", "properties": { "fid": 306778, "CNPJ": "67730454000199", "IDCIDADE": "BARUERI", "NOMEFANTASIA": null, "RAZAOSOCIAL": "67.730.454_ANA_CAROLINE_ALVES_MACHADO", "ENDEE": "RUA DEODORO, 356, VILA NOVA, 06420-020, BARUERI, SP, BRASIL", "LMAPS": "https://www.google.com/maps?q=&layer=c&cbll=-23.5077314,-46.8931038", "O_QUE_FAZER": "CARTEIRA - FAMPE", "ER_REGIAO_CIDADE_min": "Barueri_Jardim Belval_Osasco" }, "geometry": { "type": "Point", "coordinates": [ -46.8931038, -23.5077314 ] } },
{ "type": "Feature", "properties": { "fid": 314614, "CNPJ": "46282833000193", "IDCIDADE": "Barueri", "NOMEFANTASIA": "MAR CEU OTICA", "RAZAOSOCIAL": "MAR CEU OTICA LTDA", "ENDEE": "ENGENHEIRO OSCAR KESSELRING, 64, JARDIM BELVAL, 06420-160, Barueri, SP, BRASIL", "LMAPS": "https://www.google.com/maps?q=&layer=c&cbll=-23.5095054,-46.891756592", "O_QUE_FAZER": "APLICAR T2", "ER_REGIAO_CIDADE_min": "Barueri_Jardim Belval_Osasco" }, "geometry": { "type": "Point", "coordinates": [ -46.891756592, -23.5095054 ] } }
]
}
