{
"type": "FeatureCollection",
"name": "ER_REGIAO_CIDADE_min_Quadra_Botucatu",
"crs": { "type": "name", "properties": { "name": "urn:ogc:def:crs:OGC:1.3:CRS84" } },
"xy_coordinate_resolution": 1e-15,
"features": [
{ "type": "Feature", "properties": { "CNPJ": "04818345000108", "IDCIDADE": "QUADRA", "NOMEFANTASIA": null, "RAZAOSOCIAL": "LATICINIOS_QUEIJOS_COISA_NOSSA_LTDA", "ENDEE": "BAIRRO DO GUARANA, SN, GUARAPO DE CIMA, 18255-000, QUADRA, SP, BRASIL", "LATITUDE": "-23.3458111", "LONGITUDE": "-48.045634", "LMAPS": "https://www.google.com/maps?q=&layer=c&cbll=-23.3458111,-48.045634", "O_QUE_FAZER": "CARTEIRA - FAMPE", "field_10": null, "field_11": null, "field_12": null, "field_13": null, "ER_REGIAO_CIDADE_min": "Quadra_Botucatu" }, "geometry": { "type": "Point", "coordinates": [ -48.045634, -23.3458111 ] } },
{ "type": "Feature", "properties": { "CNPJ": "41974732000160", "IDCIDADE": "QUADRA", "NOMEFANTASIA": null, "RAZAOSOCIAL": "DAVID_DE_SOUZA_TAVECHIO_32346849871", "ENDEE": "SITIO TAVECHIO, SN, GUARAPO, 18255-000, QUADRA, SP, BRASIL", "LATITUDE": "-23.323161", "LONGITUDE": "-48.0059825", "LMAPS": "https://www.google.com/maps?q=&layer=c&cbll=-23.323161,-48.0059825", "O_QUE_FAZER": "CARTEIRA - FAMPE", "field_10": null, "field_11": null, "field_12": null, "field_13": null, "ER_REGIAO_CIDADE_min": "Quadra_Botucatu" }, "geometry": { "type": "Point", "coordinates": [ -48.0059825, -23.323161 ] } },
{ "type": "Feature", "properties": { "CNPJ": "46528133000136", "IDCIDADE": "QUADRA", "NOMEFANTASIA": null, "RAZAOSOCIAL": "ANA_LUCIA_MENDES_DA_SILVA_RODRIGUES_UNIPESSOAL_LTDA", "ENDEE": "PRACA CHICO VIEIRA, 92, CENTRO, 18255-013, QUADRA, SP, BRASIL", "LATITUDE": "-23.302265", "LONGITUDE": "-48.0530719", "LMAPS": "https://www.google.com/maps?q=&layer=c&cbll=-23.302265,-48.0530719", "O_QUE_FAZER": "CARTEIRA - FAMPE", "field_10": null, "field_11": null, "field_12": null, "field_13": null, "ER_REGIAO_CIDADE_min": "Quadra_Botucatu" }, "geometry": { "type": "Point", "coordinates": [ -48.0530719, -23.302265 ] } },
{ "type": "Feature", "properties": { "CNPJ": "34780749000110", "IDCIDADE": "QUADRA", "NOMEFANTASIA": null, "RAZAOSOCIAL": "34.780.749_LAILA_SAMARA_MESSA_GIMENES_RODRIGUES_SALES", "ENDEE": "7A RUA NINHO VERDE, 00, CONDOMINIO NINHO VERDE, 18255-000, QUADRA, SP, BRASIL", "LATITUDE": "-23.2460899", "LONGITUDE": "-48.0494613", "LMAPS": "https://www.google.com/maps?q=&layer=c&cbll=-23.2460899,-48.0494613", "O_QUE_FAZER": "CARTEIRA - FAMPE", "field_10": null, "field_11": null, "field_12": null, "field_13": null, "ER_REGIAO_CIDADE_min": "Quadra_Botucatu" }, "geometry": { "type": "Point", "coordinates": [ -48.0494613, -23.2460899 ] } },
{ "type": "Feature", "properties": { "CNPJ": "33311008000128", "IDCIDADE": "QUADRA", "NOMEFANTASIA": "Espaco_Recreativo_e_Eventos_Corujao", "RAZAOSOCIAL": "MC_HADDAD_EVENTOS", "ENDEE": "ACESSO BAIRRO BARREIRO, SN, BARREIRO, 18255-000, QUADRA, SP, BRASIL", "LATITUDE": "-23.2716149", "LONGITUDE": "-48.0555514", "LMAPS": "https://www.google.com/maps?q=&layer=c&cbll=-23.2716149,-48.0555514", "O_QUE_FAZER": "CARTEIRA - FAMPE", "field_10": null, "field_11": null, "field_12": null, "field_13": null, "ER_REGIAO_CIDADE_min": "Quadra_Botucatu" }, "geometry": { "type": "Point", "coordinates": [ -48.0555514, -23.2716149 ] } },
{ "type": "Feature", "properties": { "CNPJ": "36536123000199", "IDCIDADE": "PARDINHO", "NOMEFANTASIA": "-", "RAZAOSOCIAL": "36.536.123_SIBELE_CINTIA_FOGACA_AMARAL", "ENDEE": "RODOVIA CASTELO BRANCO, S/N, KM 196, CONDOMINIO NINHO VERDE, 18640-000, PARDINHO, SP, BRASIL", "LATITUDE": "-23.2462979", "LONGITUDE": "-48.0716171", "LMAPS": "https://www.google.com/maps?q=&layer=c&cbll=-23.2462979,-48.0716171", "O_QUE_FAZER": "CARTEIRA - FAMPE", "field_10": null, "field_11": null, "field_12": null, "field_13": null, "ER_REGIAO_CIDADE_min": "Quadra_Botucatu" }, "geometry": { "type": "Point", "coordinates": [ -48.0716171, -23.2462979 ] } }
]
}
