{
"type": "FeatureCollection",
"name": "ER_REGIAO_CIDADE_min_Itaporanga_Ourinhos",
"crs": { "type": "name", "properties": { "name": "urn:ogc:def:crs:OGC:1.3:CRS84" } },
"xy_coordinate_resolution": 1e-15,
"features": [
{ "type": "Feature", "properties": { "CNPJ": "42702778000192", "IDCIDADE": "PARANAPUA", "NOMEFANTASIA": "ENCANTO", "RAZAOSOCIAL": "ENCANTO", "ENDEE": "LUCIA2425__CENTRO_15745-035", "LATITUDE": "-23.7091485", "LONGITUDE": "-49.4898296", "LMAPS": "https://www.google.com/maps?q=&layer=c&cbll=-49.4898296,-23.7091485", "O_QUE_FAZER": "FINALIZADO", "field_10": null, "field_11": null, "field_12": null, "field_13": null, "ER_REGIAO_CIDADE_min": "Itaporanga_Ourinhos" }, "geometry": { "type": "Point", "coordinates": [ -49.4898296, -23.7091485 ] } },
{ "type": "Feature", "properties": { "CNPJ": "49609782000150", "IDCIDADE": "ITAPORANGA", "NOMEFANTASIA": "-", "RAZAOSOCIAL": "49.609.782_AUGUSTO_FRANCISCO_RIBEIRO", "ENDEE": "RUA_QUINZE DE NOVEMBRO_517_CENTRO_18480-000_ITAPORANGA", "LATITUDE": "-23.702542", "LONGITUDE": "-49.4830873", "LMAPS": "https://www.google.com/maps?q=&layer=c&cbll=-23.702542,-49.4830873", "O_QUE_FAZER": "FINALIZADO", "field_10": null, "field_11": null, "field_12": null, "field_13": null, "ER_REGIAO_CIDADE_min": "Itaporanga_Ourinhos" }, "geometry": { "type": "Point", "coordinates": [ -49.4830873, -23.702542 ] } },
{ "type": "Feature", "properties": { "CNPJ": "17855491000155", "IDCIDADE": "ITAPORANGA", "NOMEFANTASIA": null, "RAZAOSOCIAL": "17.855.491_LUCAS_FRANCISCO_DE_OLIVEIRA", "ENDEE": "RUA CAROLINA JOSE BARBOSA, 446, CDHU, 18480-000, ITAPORANGA, SP, BRASIL", "LATITUDE": "-23.7130194", "LONGITUDE": "-49.49933", "LMAPS": "https://www.google.com/maps?q=&layer=c&cbll=-23.7130194,-49.49933", "O_QUE_FAZER": "CARTEIRA - FAMPE", "field_10": null, "field_11": null, "field_12": null, "field_13": null, "ER_REGIAO_CIDADE_min": "Itaporanga_Ourinhos" }, "geometry": { "type": "Point", "coordinates": [ -49.49933, -23.7130194 ] } },
{ "type": "Feature", "properties": { "CNPJ": "36486178000131", "IDCIDADE": "ITAPORANGA", "NOMEFANTASIA": "MORITA_ODONTOLOGIA", "RAZAOSOCIAL": "ORLANDO_M._MORITA_NETO_ODONTOLOGIA", "ENDEE": "RUA 7 DE SETEMBRO, 1665, CENTRO, 18480-000, ITAPORANGA, SP, BRASIL", "LATITUDE": "-23.7099937", "LONGITUDE": "-49.4851874", "LMAPS": "https://www.google.com/maps?q=&layer=c&cbll=-23.7099937,-49.4851874", "O_QUE_FAZER": "CARTEIRA - FAMPE", "field_10": null, "field_11": null, "field_12": null, "field_13": null, "ER_REGIAO_CIDADE_min": "Itaporanga_Ourinhos" }, "geometry": { "type": "Point", "coordinates": [ -49.4851874, -23.7099937 ] } },
{ "type": "Feature", "properties": { "CNPJ": "30623349000140", "IDCIDADE": "ITAPORANGA", "NOMEFANTASIA": null, "RAZAOSOCIAL": "SANDRA_MARA_KNOPIKA_79314821900", "ENDEE": "RUA SAO JOAO, 741, BOX 1, CENTRO, 18480-000, ITAPORANGA, SP, BRASIL", "LATITUDE": "-23.7081136", "LONGITUDE": "-49.4844043", "LMAPS": "https://www.google.com/maps?q=&layer=c&cbll=-23.7081136,-49.4844043", "O_QUE_FAZER": "CARTEIRA - FAMPE", "field_10": null, "field_11": null, "field_12": null, "field_13": null, "ER_REGIAO_CIDADE_min": "Itaporanga_Ourinhos" }, "geometry": { "type": "Point", "coordinates": [ -49.4844043, -23.7081136 ] } },
{ "type": "Feature", "properties": { "CNPJ": "32217342000154", "IDCIDADE": "ITAPORANGA", "NOMEFANTASIA": "KONSTANT_TRANSPORTADORA", "RAZAOSOCIAL": "KONSTANT_TRANSPORTES_LTDA", "ENDEE": "RUA FREI PACIFICO DE MONTE FALCO, 1761, CENTRO, 18480-000, ITAPORANGA, SP, BRASIL", "LATITUDE": "-23.7046865", "LONGITUDE": "-49.4905978", "LMAPS": "https://www.google.com/maps?q=&layer=c&cbll=-23.7046865,-49.4905978", "O_QUE_FAZER": "CARTEIRA - FAMPE", "field_10": null, "field_11": null, "field_12": null, "field_13": null, "ER_REGIAO_CIDADE_min": "Itaporanga_Ourinhos" }, "geometry": { "type": "Point", "coordinates": [ -49.4905978, -23.7046865 ] } },
{ "type": "Feature", "properties": { "CNPJ": "31645780000150", "IDCIDADE": "ITAPORANGA", "NOMEFANTASIA": null, "RAZAOSOCIAL": "31.645.780_VAGNO_BRIENE_DE_CAMARGO", "ENDEE": "RUA VICENTE JOSE DE OLIVEIRA, 298, CONJUNTO HABITACIONAL JOAO BATISTA VOLPI, 18482-220, ITAPORANGA, SP, BRASIL", "LATITUDE": "-23.7118163", "LONGITUDE": "-49.4995719", "LMAPS": "https://www.google.com/maps?q=&layer=c&cbll=-23.7118163,-49.4995719", "O_QUE_FAZER": "CARTEIRA - FAMPE", "field_10": null, "field_11": null, "field_12": null, "field_13": null, "ER_REGIAO_CIDADE_min": "Itaporanga_Ourinhos" }, "geometry": { "type": "Point", "coordinates": [ -49.4995719, -23.7118163 ] } },
{ "type": "Feature", "properties": { "CNPJ": "36710774000153", "IDCIDADE": "ITAPORANGA", "NOMEFANTASIA": null, "RAZAOSOCIAL": "AMARILDO_DE_CASTILHO_31899050884", "ENDEE": "RUA JOSE BENENI, 980, CDHU, 18480-000, ITAPORANGA, SP, BRASIL", "LATITUDE": "-23.7113673", "LONGITUDE": "-49.4978448", "LMAPS": "https://www.google.com/maps?q=&layer=c&cbll=-23.7113673,-49.4978448", "O_QUE_FAZER": "CARTEIRA - FAMPE", "field_10": null, "field_11": null, "field_12": null, "field_13": null, "ER_REGIAO_CIDADE_min": "Itaporanga_Ourinhos" }, "geometry": { "type": "Point", "coordinates": [ -49.4978448, -23.7113673 ] } },
{ "type": "Feature", "properties": { "CNPJ": "54244788000100", "IDCIDADE": "ITAPORANGA", "NOMEFANTASIA": null, "RAZAOSOCIAL": "54.244.788_MONICA_DE_OLIVEIRA_MIRANDA", "ENDEE": "10A RUA RUI BENK, 687, RIO VERDE, 18480-000, ITAPORANGA, SP, BRASIL", "LATITUDE": "-23.7071469", "LONGITUDE": "-49.4697088", "LMAPS": "https://www.google.com/maps?q=&layer=c&cbll=-23.7071469,-49.4697088", "O_QUE_FAZER": "CARTEIRA - FAMPE", "field_10": null, "field_11": null, "field_12": null, "field_13": null, "ER_REGIAO_CIDADE_min": "Itaporanga_Ourinhos" }, "geometry": { "type": "Point", "coordinates": [ -49.4697088, -23.7071469 ] } },
{ "type": "Feature", "properties": { "CNPJ": "37737287000147", "IDCIDADE": "ITAPORANGA", "NOMEFANTASIA": null, "RAZAOSOCIAL": "37.737.287_CRISTIANO_MORAES_VIEIRA", "ENDEE": "RUA SAO JOAO, 675, CENTRO, 18480-000, ITAPORANGA, SP, BRASIL", "LATITUDE": "-23.7067557", "LONGITUDE": "-49.4881404", "LMAPS": "https://www.google.com/maps?q=&layer=c&cbll=-23.7067557,-49.4881404", "O_QUE_FAZER": "CARTEIRA - FAMPE", "field_10": null, "field_11": null, "field_12": null, "field_13": null, "ER_REGIAO_CIDADE_min": "Itaporanga_Ourinhos" }, "geometry": { "type": "Point", "coordinates": [ -49.4881404, -23.7067557 ] } },
{ "type": "Feature", "properties": { "CNPJ": "35313125000156", "IDCIDADE": "ITAPORANGA", "NOMEFANTASIA": null, "RAZAOSOCIAL": "35.313.125_LUIS_HENRIQUE_ISAIAS_LOPES", "ENDEE": "RUA DOUTOR FELIPE VITA, 1387, CENTRO, 18480-021, ITAPORANGA, SP, BRASIL", "LATITUDE": "-23.704765", "LONGITUDE": "-49.4872959", "LMAPS": "https://www.google.com/maps?q=&layer=c&cbll=-23.704765,-49.4872959", "O_QUE_FAZER": "CARTEIRA - FAMPE", "field_10": null, "field_11": null, "field_12": null, "field_13": null, "ER_REGIAO_CIDADE_min": "Itaporanga_Ourinhos" }, "geometry": { "type": "Point", "coordinates": [ -49.4872959, -23.704765 ] } },
{ "type": "Feature", "properties": { "CNPJ": "47771091000122", "IDCIDADE": "ITAPORANGA", "NOMEFANTASIA": null, "RAZAOSOCIAL": "47.771.091_LAUANA_DAS_GRACAS_MAZETTO_SILVA", "ENDEE": "10A RUA APARICIO FIUZA DE CARVALHO, 1, CENTRO, 18480-000, ITAPORANGA, SP, BRASIL", "LATITUDE": "-23.7017161", "LONGITUDE": "-49.4841671", "LMAPS": "https://www.google.com/maps?q=&layer=c&cbll=-23.7017161,-49.4841671", "O_QUE_FAZER": "CARTEIRA - FAMPE", "field_10": null, "field_11": null, "field_12": null, "field_13": null, "ER_REGIAO_CIDADE_min": "Itaporanga_Ourinhos" }, "geometry": { "type": "Point", "coordinates": [ -49.4841671, -23.7017161 ] } },
{ "type": "Feature", "properties": { "CNPJ": "35805776000163", "IDCIDADE": "ITAPORANGA", "NOMEFANTASIA": null, "RAZAOSOCIAL": "O._BERNARDES_DO_PRADO_LTDA", "ENDEE": "RUA DR. FELIPE VITA, 1226, CENTRO, 18480-000, ITAPORANGA, SP, BRASIL", "LATITUDE": "-23.7056619", "LONGITUDE": "-49.4835223", "LMAPS": "https://www.google.com/maps?q=&layer=c&cbll=-23.7056619,-49.4835223", "O_QUE_FAZER": "CARTEIRA - FAMPE", "field_10": null, "field_11": null, "field_12": null, "field_13": null, "ER_REGIAO_CIDADE_min": "Itaporanga_Ourinhos" }, "geometry": { "type": "Point", "coordinates": [ -49.4835223, -23.7056619 ] } },
{ "type": "Feature", "properties": { "CNPJ": "67512074000188", "IDCIDADE": "ITAPORANGA", "NOMEFANTASIA": "-", "RAZAOSOCIAL": "67.512.074_ANA_VITORIA_ALMEIDA_PEREIRA_OLIVEIRA", "ENDEE": "RUA XV DE NOVEMBRO, 579, CENTRO, 18480-055, ITAPORANGA, SP, BRASIL", "LATITUDE": "-23.7074565", "LONGITUDE": "-49.4849006", "LMAPS": "https://www.google.com/maps?q=&layer=c&cbll=-23.7074565,-49.4849006", "O_QUE_FAZER": "CARTEIRA - FAMPE", "field_10": null, "field_11": null, "field_12": null, "field_13": null, "ER_REGIAO_CIDADE_min": "Itaporanga_Ourinhos" }, "geometry": { "type": "Point", "coordinates": [ -49.4849006, -23.7074565 ] } },
{ "type": "Feature", "properties": { "CNPJ": "23523826000130", "IDCIDADE": "ITAPORANGA", "NOMEFANTASIA": "Comercial_3M", "RAZAOSOCIAL": "JM_DA_SILVA_COMERCIO_E_DISTRIBUIDORA_DE_ALIMENTOS", "ENDEE": "RUA ORLANDO GONCALVES DE OLIVEIRA PRIMO, 589, CASA 01, CENTRO, 18480-071, ITAPORANGA, SP, BRASIL", "LATITUDE": "-23.7068259", "LONGITUDE": "-49.4810161", "LMAPS": "https://www.google.com/maps?q=&layer=c&cbll=-23.7068259,-49.4810161", "O_QUE_FAZER": "CARTEIRA - FAMPE", "field_10": null, "field_11": null, "field_12": null, "field_13": null, "ER_REGIAO_CIDADE_min": "Itaporanga_Ourinhos" }, "geometry": { "type": "Point", "coordinates": [ -49.4810161, -23.7068259 ] } },
{ "type": "Feature", "properties": { "CNPJ": "66964627000170", "IDCIDADE": "ITAPORANGA", "NOMEFANTASIA": "-", "RAZAOSOCIAL": "66.964.627_MARCOS_GABRIEL_LISBOA_DE_OLIVEIRA", "ENDEE": "RUA FREI PACIFICO DE MONTEFALCO, 1212, CENTRO, 18480-017, ITAPORANGA, SP, BRASIL", "LATITUDE": "-23.7062958", "LONGITUDE": "-49.485029", "LMAPS": "https://www.google.com/maps?q=&layer=c&cbll=-23.7062958,-49.485029", "O_QUE_FAZER": "CARTEIRA - FAMPE", "field_10": null, "field_11": null, "field_12": null, "field_13": null, "ER_REGIAO_CIDADE_min": "Itaporanga_Ourinhos" }, "geometry": { "type": "Point", "coordinates": [ -49.485029, -23.7062958 ] } }
]
}
