{
"type": "FeatureCollection",
"name": "ER_REGIAO_CIDADE_min_Taquarivaí_Sudoeste Paulista",
"crs": { "type": "name", "properties": { "name": "urn:ogc:def:crs:OGC:1.3:CRS84" } },
"xy_coordinate_resolution": 1e-15,
"features": [
{ "type": "Feature", "properties": { "fid": 47458, "CNPJ": "08027445000177", "IDCIDADE": "TAQUARIVAI", "NOMEFANTASIA": "-", "RAZAOSOCIAL": "08.027.445_FERNANDA_BATISTA_MARIOSI", "ENDEE": "RUA FRANCISCO MARIOSI FILHO, 147, CENTRO, 18425-000, TAQUARIVAÍ, SP, BRASIL", "LMAPS": "https://www.google.com/maps?q=&layer=c&cbll=-23.9283669,-48.6645196", "O_QUE_FAZER": "CARTEIRA - FAMPE", "ER_REGIAO_CIDADE_min": "Taquarivaí_Sudoeste Paulista" }, "geometry": { "type": "Point", "coordinates": [ -48.6645196, -23.9283669 ] } },
{ "type": "Feature", "properties": { "fid": 93895, "CNPJ": "15742886000116", "IDCIDADE": "TAQUARIVAI", "NOMEFANTASIA": null, "RAZAOSOCIAL": "ELITE_GLASS_VIDROS_E_ESQUADRIAS_LTDA", "ENDEE": "RODOVIA ISRAEL SVERNER, 548, CENTRO, 18425-970, TAQUARIVAÍ, SP, BRASIL", "LMAPS": "https://www.google.com/maps?q=&layer=c&cbll=-23.9249264,-48.6984407", "O_QUE_FAZER": "CARTEIRA - FAMPE", "ER_REGIAO_CIDADE_min": "Taquarivaí_Sudoeste Paulista" }, "geometry": { "type": "Point", "coordinates": [ -48.6984407, -23.9249264 ] } },
{ "type": "Feature", "properties": { "fid": 110417, "CNPJ": "19844939000160", "IDCIDADE": "TAQUARIVAI", "NOMEFANTASIA": "-", "RAZAOSOCIAL": "19.844.939_MARIA_JOSE_DE_CAMARGO_BARROS", "ENDEE": "RUA BENEDITO PAULINO NOGUEIRA, 20, CENTRO, 18425-043, TAQUARIVAÍ, SP, BRASIL", "LMAPS": "https://www.google.com/maps?q=&layer=c&cbll=-23.9266818,-48.7012997", "O_QUE_FAZER": "CARTEIRA - FAMPE", "ER_REGIAO_CIDADE_min": "Taquarivaí_Sudoeste Paulista" }, "geometry": { "type": "Point", "coordinates": [ -48.7012997, -23.9266818 ] } },
{ "type": "Feature", "properties": { "fid": 151964, "CNPJ": "28859053000181", "IDCIDADE": "TAQUARIVAI", "NOMEFANTASIA": "-", "RAZAOSOCIAL": "28.859.053_THAIS_STEFANI_DOS_SANTOS", "ENDEE": "RUA ACACIO PAULINO, 215, CENTRO, 18425-025, TAQUARIVAÍ, SP, BRASIL", "LMAPS": "https://www.google.com/maps?q=&layer=c&cbll=-23.92671,-48.699874", "O_QUE_FAZER": "CARTEIRA - FAMPE", "ER_REGIAO_CIDADE_min": "Taquarivaí_Sudoeste Paulista" }, "geometry": { "type": "Point", "coordinates": [ -48.699874, -23.92671 ] } },
{ "type": "Feature", "properties": { "fid": 201040, "CNPJ": "39390655000159", "IDCIDADE": "TAQUARIVAI", "NOMEFANTASIA": null, "RAZAOSOCIAL": "AUTO_MECANICA_ZOIO_LTDA", "ENDEE": "AVENIDA LUCIA NATALIA BARRETO DAS NEVES, 305, JARDIM PRIMAVERA, 18425-420, TAQUARIVAÍ, SP, BRASIL", "LMAPS": "https://www.google.com/maps?q=&layer=c&cbll=-23.921836,-48.694521", "O_QUE_FAZER": "CARTEIRA - FAMPE", "ER_REGIAO_CIDADE_min": "Taquarivaí_Sudoeste Paulista" }, "geometry": { "type": "Point", "coordinates": [ -48.694521, -23.921836 ] } },
{ "type": "Feature", "properties": { "fid": 228737, "CNPJ": "45631645000160", "IDCIDADE": "TAQUARIVAI", "NOMEFANTASIA": "RESTAURANTE_CHAPADAO_LTDA_EPP", "RAZAOSOCIAL": "RESTAURANTE_CHAPADAO_LTDA", "ENDEE": "RODOVIA SP 258, S/N, KM 268, 0000000, 18425-000, TAQUARIVAÍ, SP, BRASIL", "LMAPS": "https://www.google.com/maps?q=&layer=c&cbll=-23.9283669,-48.6645196", "O_QUE_FAZER": "CARTEIRA - FAMPE", "ER_REGIAO_CIDADE_min": "Taquarivaí_Sudoeste Paulista" }, "geometry": { "type": "Point", "coordinates": [ -48.6645196, -23.9283669 ] } },
{ "type": "Feature", "properties": { "fid": 228907, "CNPJ": "45671601000164", "IDCIDADE": "TAQUARIVAI", "NOMEFANTASIA": null, "RAZAOSOCIAL": "KLLINSMANN_MARQUES_DE_OLIVEIRA_45345659842", "ENDEE": "RUA RUBENS AUGUSTO PIMENTEL, 236, CENTRO, 18425-000, TAQUARIVAÍ, SP, BRASIL", "LMAPS": "https://www.google.com/maps?q=&layer=c&cbll=-23.9233691,-48.6956892", "O_QUE_FAZER": "CARTEIRA - FAMPE", "ER_REGIAO_CIDADE_min": "Taquarivaí_Sudoeste Paulista" }, "geometry": { "type": "Point", "coordinates": [ -48.6956892, -23.9233691 ] } },
{ "type": "Feature", "properties": { "fid": 233841, "CNPJ": "46642868000196", "IDCIDADE": "TAQUARIVAI", "NOMEFANTASIA": "MERCADO_JULIE", "RAZAOSOCIAL": "MERCADO_JULIE_LTDA", "ENDEE": "RUA ITALIA, 139, JARDIM ADAUTO BARROS, 18425-434, TAQUARIVAÍ, SP, BRASIL", "LMAPS": "https://www.google.com/maps?q=&layer=c&cbll=-23.92671,-48.699874", "O_QUE_FAZER": "CARTEIRA - FAMPE", "ER_REGIAO_CIDADE_min": "Taquarivaí_Sudoeste Paulista" }, "geometry": { "type": "Point", "coordinates": [ -48.699874, -23.92671 ] } },
{ "type": "Feature", "properties": { "fid": 253686, "CNPJ": "50740013000175", "IDCIDADE": "TAQUARIVAI", "NOMEFANTASIA": "-", "RAZAOSOCIAL": "50.740.013_ANA_BEATRIZ_DA_SILVA_MONTEIRO", "ENDEE": "RUA RUA PROJETADA 7, 50, CASA, PARQUE HORACIO RODRIGUES DE BARROS, 18425-000, TAQUARIVAÍ, SP, BRASIL", "LMAPS": "https://www.google.com/maps?q=&layer=c&cbll=-23.92671,-48.699874", "O_QUE_FAZER": "CARTEIRA - FAMPE", "ER_REGIAO_CIDADE_min": "Taquarivaí_Sudoeste Paulista" }, "geometry": { "type": "Point", "coordinates": [ -48.699874, -23.92671 ] } },
{ "type": "Feature", "properties": { "fid": 260959, "CNPJ": "52186867000187", "IDCIDADE": "TAQUARIVAI", "NOMEFANTASIA": "-", "RAZAOSOCIAL": "52.186.867_OTONIEL_ARLINDO_CRAVO", "ENDEE": "AREA RURAL, 142, AREA RURAL DE TAQUARIVAI, 18429-899, TAQUARIVAÍ, SP, BRASIL", "LMAPS": "https://www.google.com/maps?q=&layer=c&cbll=-23.92671,-48.699874", "O_QUE_FAZER": "CARTEIRA - FAMPE", "ER_REGIAO_CIDADE_min": "Taquarivaí_Sudoeste Paulista" }, "geometry": { "type": "Point", "coordinates": [ -48.699874, -23.92671 ] } },
{ "type": "Feature", "properties": { "fid": 263339, "CNPJ": "52666706000190", "IDCIDADE": "TAQUARIVAI", "NOMEFANTASIA": "-", "RAZAOSOCIAL": "52.666.706_CARLA_JULIANA_VAZ_DE_PROENCA", "ENDEE": "RUA SIMPLICIO MARTINS DE BARROS, 100, JARDIM PANORAMA, 18425-100, TAQUARIVAÍ, SP, BRASIL", "LMAPS": "https://www.google.com/maps?q=&layer=c&cbll=-23.9281862,-48.7004994", "O_QUE_FAZER": "CARTEIRA - FAMPE", "ER_REGIAO_CIDADE_min": "Taquarivaí_Sudoeste Paulista" }, "geometry": { "type": "Point", "coordinates": [ -48.7004994, -23.9281862 ] } }
]
}
