{
"type": "FeatureCollection",
"name": "ER_REGIAO_CIDADE_min_Ribeirão Bonito_Ribeirão Bonito_Araraquara",
"crs": { "type": "name", "properties": { "name": "urn:ogc:def:crs:OGC:1.3:CRS84" } },
"xy_coordinate_resolution": 1e-15,
"features": [
{ "type": "Feature", "properties": { "fid": 52973, "CNPJ": "08834362000190", "IDCIDADE": "RIBEIRAO BONITO", "NOMEFANTASIA": null, "RAZAOSOCIAL": "TRANSPORTADORA_CHIAVOLONI_LTDA", "ENDEE": "CHACARA NOSSA SENHORA DAS GRACAS, S/N, ZONA RURAL, 13580-000, RIBEIRÃO BONITO, SP, BRASIL", "LMAPS": "https://www.google.com/maps?q=&layer=c&cbll=-22.0685833,-48.176577", "O_QUE_FAZER": "CARTEIRA - FAMPE", "ER_REGIAO_CIDADE_min": "Ribeirão Bonito_Ribeirão Bonito_Araraquara" }, "geometry": { "type": "Point", "coordinates": [ -48.176577, -22.0685833 ] } },
{ "type": "Feature", "properties": { "fid": 124954, "CNPJ": "23029710000140", "IDCIDADE": "RIBEIRAO BONITO", "NOMEFANTASIA": null, "RAZAOSOCIAL": "EVANIL_SOARES_MARTINS_18111186827", "ENDEE": "RUA PROFESSOR ALFREDO NORONHA JORGE, 82, CENTRO, 13580-000, RIBEIRÃO BONITO, SP, BRASIL", "LMAPS": "https://www.google.com/maps?q=&layer=c&cbll=-22.0673853,-48.1731591", "O_QUE_FAZER": "CARTEIRA - FAMPE", "ER_REGIAO_CIDADE_min": "Ribeirão Bonito_Ribeirão Bonito_Araraquara" }, "geometry": { "type": "Point", "coordinates": [ -48.1731591, -22.0673853 ] } },
{ "type": "Feature", "properties": { "fid": 196789, "CNPJ": "38009529000149", "IDCIDADE": "RIBEIRAO_BONITO", "NOMEFANTASIA": "AZUL_RAFIA_INDUSTRIA_E_COMERCIO_DE_PRODUTOS_PLASTICOS_LTDA", "RAZAOSOCIAL": "AZUL_RAFIA_INDUSTRIA_E_COMERCIO_DE_PRODUTOS_PLASTICOS_LTDA", "ENDEE": "RUA_SAO_PAULO0__CENTRO_13580-000", "LMAPS": "https://www.google.com/maps?q=&layer=c&cbll=-22.0745453,-48.1787996", "O_QUE_FAZER": "FINALIZADO", "ER_REGIAO_CIDADE_min": "Ribeirão Bonito_Ribeirão Bonito_Araraquara" }, "geometry": { "type": "Point", "coordinates": [ -48.1787996, -22.0745453 ] } },
{ "type": "Feature", "properties": { "fid": 226579, "CNPJ": "45151306000187", "IDCIDADE": "RIBEIRAO BONITO", "NOMEFANTASIA": "Vidracaria_Pcbox", "RAZAOSOCIAL": "VIDRACARIA_PCBOX_LTDA", "ENDEE": "RUA M, 12, JD HELIANA I, 13580-000, RIBEIRÃO BONITO, SP, BRASIL", "LMAPS": "https://www.google.com/maps?q=&layer=c&cbll=-22.0603692,-48.1661708", "O_QUE_FAZER": "CARTEIRA - FAMPE", "ER_REGIAO_CIDADE_min": "Ribeirão Bonito_Ribeirão Bonito_Araraquara" }, "geometry": { "type": "Point", "coordinates": [ -48.1661708, -22.0603692 ] } },
{ "type": "Feature", "properties": { "fid": 256741, "CNPJ": "51336264000151", "IDCIDADE": "RIBEIRAO BONITO", "NOMEFANTASIA": "G2o_Negocios", "RAZAOSOCIAL": "G2O_NEGOCIOS_LTDA", "ENDEE": "RUA SETE DE SETEMBRO, 226, ANEXO CONTAINER, CENTRO, 13580-000, RIBEIRÃO BONITO, SP, BRASIL", "LMAPS": "https://www.google.com/maps?q=&layer=c&cbll=-22.0694309,-48.1773186", "O_QUE_FAZER": "CARTEIRA - FAMPE", "ER_REGIAO_CIDADE_min": "Ribeirão Bonito_Ribeirão Bonito_Araraquara" }, "geometry": { "type": "Point", "coordinates": [ -48.1773186, -22.0694309 ] } },
{ "type": "Feature", "properties": { "fid": 303795, "CNPJ": "66190096000106", "IDCIDADE": "RIBEIRAO BONITO", "NOMEFANTASIA": null, "RAZAOSOCIAL": "66.190.096_LUIZ_FERNANDO_PEICHIN", "ENDEE": "RUA PROFESSOR JOSE CAMARGO DE MORAES, 82, JARDIM MORUMBI, 13580-174, RIBEIRÃO BONITO, SP, BRASIL", "LMAPS": "https://www.google.com/maps?q=&layer=c&cbll=-22.0716266,-48.1787277", "O_QUE_FAZER": "CARTEIRA - FAMPE", "ER_REGIAO_CIDADE_min": "Ribeirão Bonito_Ribeirão Bonito_Araraquara" }, "geometry": { "type": "Point", "coordinates": [ -48.1787277, -22.0716266 ] } },
{ "type": "Feature", "properties": { "fid": 312743, "CNPJ": "33936557000198", "IDCIDADE": "Ribeirão Bonito", "NOMEFANTASIA": "DMM SOLUCOES AUTOMOTIVAS", "RAZAOSOCIAL": "DMM SOLUCOES AUTOMOTIVAS LTDA", "ENDEE": "RUA ISSAMU YAMAGUCHI, 77, JARDIM CENTENARIO, 13582-004, RIBEIRÃO BONITO, SP, BRASIL", "LMAPS": "https://www.google.com/maps?q=&layer=c&cbll=-22.0626002,-48.1809729", "O_QUE_FAZER": "FINALIZADO", "ER_REGIAO_CIDADE_min": "Ribeirão Bonito_Ribeirão Bonito_Araraquara" }, "geometry": { "type": "Point", "coordinates": [ -48.1809729, -22.0626002 ] } },
{ "type": "Feature", "properties": { "fid": 312744, "CNPJ": "17497610000145", "IDCIDADE": "Ribeirão Bonito", "NOMEFANTASIA": "RODA DE FOGO", "RAZAOSOCIAL": "JOAO ANTONIO JACINTO COMERCIO DE PNEUS", "ENDEE": "RUA HORTENCIA, 281, CENTRO, 13580-073, RIBEIRÃO BONITO, SP, BRASIL", "LMAPS": "https://www.google.com/maps?q=&layer=c&cbll=-22.0726545,-48.1752533", "O_QUE_FAZER": "FINALIZADO", "ER_REGIAO_CIDADE_min": "Ribeirão Bonito_Ribeirão Bonito_Araraquara" }, "geometry": { "type": "Point", "coordinates": [ -48.1752533, -22.0726545 ] } }
]
}
