{
"type": "FeatureCollection",
"name": "ER_REGIAO_CIDADE_min_Ibirá_Termas de Ibirá_São José do Rio Preto",
"crs": { "type": "name", "properties": { "name": "urn:ogc:def:crs:OGC:1.3:CRS84" } },
"xy_coordinate_resolution": 1e-15,
"features": [
{ "type": "Feature", "properties": { "fid": 24416, "CNPJ": "25264396000105", "IDCIDADE": "IBIRA", "NOMEFANTASIA": "BEM_ESTAR", "RAZAOSOCIAL": "IGOR_DE_PAULA_-_DROGARIA", "ENDEE": "RUA_MINAS_GERAIS250__TERMAS_DE_IBIRA_15860-000", "LMAPS": "https://www.google.com/maps?q=&layer=c&cbll=-49.1884717,-21.1015663", "O_QUE_FAZER": "CARTEIRA", "ER_REGIAO_CIDADE_min": "Ibirá_Termas de Ibirá_São José do Rio Preto" }, "geometry": { "type": "Point", "coordinates": [ -49.1884717, -21.1015663 ] } },
{ "type": "Feature", "properties": { "fid": 24418, "CNPJ": "67268581000118", "IDCIDADE": "IBIRA", "NOMEFANTASIA": "SUPERMERCADO_TERMAS_DE_IBIRA", "RAZAOSOCIAL": "SUPERMERCADO_TERMAS_DE_IBIRA_LTDA", "ENDEE": "RUA_MINAS_GERAIS230__TERMAS_DE_IBIRA_15860-000", "LMAPS": "https://www.google.com/maps?q=&layer=c&cbll=-49.1887218,-21.1018094", "O_QUE_FAZER": "CARTEIRA", "ER_REGIAO_CIDADE_min": "Ibirá_Termas de Ibirá_São José do Rio Preto" }, "geometry": { "type": "Point", "coordinates": [ -49.1887218, -21.1018094 ] } },
{ "type": "Feature", "properties": { "fid": 307637, "CNPJ": "31580560000196", "IDCIDADE": "IBIRA", "NOMEFANTASIA": "Flecha Dedetizadora", "RAZAOSOCIAL": "ROBERTO JORGE ATTILIO", "ENDEE": "RUA PERNAMBUCO, 227, JARDIM BALNEARIO (TERMAS DE IBIRA), 15869-056, IBIRÁ, SP, BRASIL", "LMAPS": "https://www.google.com/maps?q=&layer=c&cbll=-21.1005534,-49.1907298", "O_QUE_FAZER": "CARTEIRA - FAMPE", "ER_REGIAO_CIDADE_min": "Ibirá_Termas de Ibirá_São José do Rio Preto" }, "geometry": { "type": "Point", "coordinates": [ -49.1907298, -21.1005534 ] } }
]
}
