{
"type": "FeatureCollection",
"name": "ER_REGIAO_CIDADE_min_Águas de São Pedro_Piracicaba",
"crs": { "type": "name", "properties": { "name": "urn:ogc:def:crs:OGC:1.3:CRS84" } },
"xy_coordinate_resolution": 1e-15,
"features": [
{ "type": "Feature", "properties": { "CNPJ": "42462083000180", "IDCIDADE": "AGUAS DE SAO PEDRO", "NOMEFANTASIA": "RAIZES_COSMETICA", "RAZAOSOCIAL": "RAIZES_COSMETICA_LTDA", "ENDEE": "AVENIDA CARLOS MAURO, 329, LOJA 2, CENTRO, 13528-027, ÁGUAS DE SÃO PEDRO, SP, BRASIL", "LATITUDE": "-22.5991794", "LONGITUDE": "-47.8765297", "LMAPS": "https://www.google.com/maps?q=&layer=c&cbll=-22.5991794,-47.8765297", "O_QUE_FAZER": "CARTEIRA - FAMPE", "field_10": null, "field_11": null, "field_12": null, "field_13": null, "ER_REGIAO_CIDADE_min": "Águas de São Pedro_Piracicaba" }, "geometry": { "type": "Point", "coordinates": [ -47.8765297, -22.5991794 ] } },
{ "type": "Feature", "properties": { "CNPJ": "26572451000197", "IDCIDADE": "AGUAS DE SAO PEDRO", "NOMEFANTASIA": "ESTACAO_DO_DOCE", "RAZAOSOCIAL": "ANA_JULIA_MACHADO_GONCALVES", "ENDEE": "AVENIDA CARLOS MAURO, 161, CENTRO, 13525000, ÁGUAS DE SÃO PEDRO, SP, BRASIL", "LATITUDE": "-22.5981909", "LONGITUDE": "-47.8778992", "LMAPS": "https://www.google.com/maps?q=&layer=c&cbll=-22.5981909,-47.8778992", "O_QUE_FAZER": "CARTEIRA - FAMPE", "field_10": null, "field_11": null, "field_12": null, "field_13": null, "ER_REGIAO_CIDADE_min": "Águas de São Pedro_Piracicaba" }, "geometry": { "type": "Point", "coordinates": [ -47.8778992, -22.5981909 ] } },
{ "type": "Feature", "properties": { "CNPJ": "44515312000103", "IDCIDADE": "AGUAS DE SAO PEDRO", "NOMEFANTASIA": "-", "RAZAOSOCIAL": "44.515.312_SIDNEIA_APARECIDA_FERREIRA", "ENDEE": "RUA DOS SABIAS, 106, CENTRO, 13528-075, ÁGUAS DE SÃO PEDRO, SP, BRASIL", "LATITUDE": "-22.6052007", "LONGITUDE": "-47.8702542", "LMAPS": "https://www.google.com/maps?q=&layer=c&cbll=-22.6052007,-47.8702542", "O_QUE_FAZER": "CARTEIRA - FAMPE", "field_10": null, "field_11": null, "field_12": null, "field_13": null, "ER_REGIAO_CIDADE_min": "Águas de São Pedro_Piracicaba" }, "geometry": { "type": "Point", "coordinates": [ -47.8702542, -22.6052007 ] } }
]
}
