{
"type": "FeatureCollection",
"name": "ER_REGIAO_CIDADE_min_Holambra_Campinas",
"crs": { "type": "name", "properties": { "name": "urn:ogc:def:crs:OGC:1.3:CRS84" } },
"xy_coordinate_resolution": 1e-15,
"features": [
{ "type": "Feature", "properties": { "fid": 1741, "CNPJ": "00348899000138", "IDCIDADE": "HOLAMBRA", "NOMEFANTASIA": "JDESBERCI_E/OU_CASA_MAIOR", "RAZAOSOCIAL": "J_&_D_ESBERCI_IMOBILIARIA_LTDA", "ENDEE": "RUA_ROTA_DOS_IMIGRANTES562__CENTRO_13825-067", "LMAPS": "https://www.google.com/maps?q=&layer=c&cbll=-22.6333631,-47.053774", "O_QUE_FAZER": "CARTEIRA", "ER_REGIAO_CIDADE_min": "Holambra_Campinas" }, "geometry": { "type": "Point", "coordinates": [ -47.053774, -22.6333631 ] } },
{ "type": "Feature", "properties": { "fid": 8517, "CNPJ": "01762754000141", "IDCIDADE": "HOLAMBRA", "NOMEFANTASIA": "MAKIM_SUPERMERCADOS", "RAZAOSOCIAL": "MAKIM_SUPERMERCADOS_LTDA", "ENDEE": "RUA_CAMPO_DE_POUSO702__CENTRO_13825-000", "LMAPS": "https://www.google.com/maps?q=&layer=c&cbll=-22.6325899,-47.0557964", "O_QUE_FAZER": "CARTEIRA", "ER_REGIAO_CIDADE_min": "Holambra_Campinas" }, "geometry": { "type": "Point", "coordinates": [ -47.0557964, -22.6325899 ] } },
{ "type": "Feature", "properties": { "fid": 9280, "CNPJ": "01897489000109", "IDCIDADE": "HOLAMBRA", "NOMEFANTASIA": "ELETRO_LIMA", "RAZAOSOCIAL": "ELETRO_LIMA_COMERCIO_E_IMPORTACAO_LTDA", "ENDEE": "RUA_CICLAMENS206__CENTRO_13825-000", "LMAPS": "https://www.google.com/maps?q=&layer=c&cbll=-22.6334767,-47.05889", "O_QUE_FAZER": "CARTEIRA", "ER_REGIAO_CIDADE_min": "Holambra_Campinas" }, "geometry": { "type": "Point", "coordinates": [ -47.05889, -22.6334767 ] } },
{ "type": "Feature", "properties": { "fid": 12370, "CNPJ": "02516176000126", "IDCIDADE": "HOLAMBRA", "NOMEFANTASIA": "HOLAMBRA_GARDEN_HOTEL", "RAZAOSOCIAL": "HOLAMBRA_GARDEN_HOTEL_LTDA", "ENDEE": "RUA_ROTA_DOS_IMIGRANTES620__CENTRO_13825-000", "LMAPS": "https://www.google.com/maps?q=&layer=c&cbll=-22.6331792,-47.053325", "O_QUE_FAZER": "CARTEIRA", "ER_REGIAO_CIDADE_min": "Holambra_Campinas" }, "geometry": { "type": "Point", "coordinates": [ -47.053325, -22.6331792 ] } },
{ "type": "Feature", "properties": { "fid": 14251, "CNPJ": "02860220000110", "IDCIDADE": "HOLAMBRA", "NOMEFANTASIA": "HOLNET_TELECOMUNICACOES", "RAZAOSOCIAL": "HOLNET_PROVEDOR_LTDA", "ENDEE": "RUA_CICLAMENS206__CENTRO_13825-000", "LMAPS": "https://www.google.com/maps?q=&layer=c&cbll=-22.6336354,-47.0593199", "O_QUE_FAZER": "CARTEIRA", "ER_REGIAO_CIDADE_min": "Holambra_Campinas" }, "geometry": { "type": "Point", "coordinates": [ -47.0593199, -22.6336354 ] } },
{ "type": "Feature", "properties": { "fid": 15182, "CNPJ": "03011018000187", "IDCIDADE": "HOLAMBRA", "NOMEFANTASIA": "O_BOTICARIO", "RAZAOSOCIAL": "OSCAR_CALSTROM_PERFUMES_LTDA", "ENDEE": "RUA_ROTA_DOS_IMIGRANTES325__CENTRO_13825-000", "LMAPS": "https://www.google.com/maps?q=&layer=c&cbll=-22.6334601,-47.0560698", "O_QUE_FAZER": "CARTEIRA", "ER_REGIAO_CIDADE_min": "Holambra_Campinas" }, "geometry": { "type": "Point", "coordinates": [ -47.0560698, -22.6334601 ] } },
{ "type": "Feature", "properties": { "fid": 22490, "CNPJ": "04172768000101", "IDCIDADE": "HOLAMBRA", "NOMEFANTASIA": "TRATOR_&_CIA", "RAZAOSOCIAL": "F._OLMEDO", "ENDEE": "RUA_DAS_DALIAS555__JARDIM_DAS_TULIPAS_13825-000", "LMAPS": "https://www.google.com/maps?q=&layer=c&cbll=-22.642106,-47.0504454", "O_QUE_FAZER": "CARTEIRA", "ER_REGIAO_CIDADE_min": "Holambra_Campinas" }, "geometry": { "type": "Point", "coordinates": [ -47.0504454, -22.642106 ] } },
{ "type": "Feature", "properties": { "fid": 23355, "CNPJ": "04317465000121", "IDCIDADE": "HOLAMBRA", "NOMEFANTASIA": "MACHADO_PNEUS", "RAZAOSOCIAL": "FLAVIO_MACHADO_&_CIA_LTDA", "ENDEE": "RUA_LIZIANTUZ24__CENTRO_13825-000", "LMAPS": "https://www.google.com/maps?q=&layer=c&cbll=-22.6335694,-47.0586318", "O_QUE_FAZER": "CARTEIRA", "ER_REGIAO_CIDADE_min": "Holambra_Campinas" }, "geometry": { "type": "Point", "coordinates": [ -47.0586318, -22.6335694 ] } },
{ "type": "Feature", "properties": { "fid": 23738, "CNPJ": "04372720000139", "IDCIDADE": "HOLAMBRA", "NOMEFANTASIA": "GERALDO_FRADE_PECAS", "RAZAOSOCIAL": "GERALDO_FRADE_PECAS", "ENDEE": "RUA_CAMPO_DO_POUSO826__CENTRO_13825-000", "LMAPS": "https://www.google.com/maps?q=&layer=c&cbll=-22.6322196,-47.0549283", "O_QUE_FAZER": "CARTEIRA", "ER_REGIAO_CIDADE_min": "Holambra_Campinas" }, "geometry": { "type": "Point", "coordinates": [ -47.0549283, -22.6322196 ] } },
{ "type": "Feature", "properties": { "fid": 23890, "CNPJ": "04393743000120", "IDCIDADE": "HOLAMBRA", "NOMEFANTASIA": "RESTAURANTE_MADURODAM", "RAZAOSOCIAL": "RESTAURANTE_MADURODAM_LTDA", "ENDEE": "RUA_LIZIANTUZ56__CENTRO_13825-000", "LMAPS": "https://www.google.com/maps?q=&layer=c&cbll=-22.6331887,-47.0587574", "O_QUE_FAZER": "CARTEIRA", "ER_REGIAO_CIDADE_min": "Holambra_Campinas" }, "geometry": { "type": "Point", "coordinates": [ -47.0587574, -22.6331887 ] } },
{ "type": "Feature", "properties": { "fid": 26350, "CNPJ": "04751971000124", "IDCIDADE": "HOLAMBRA", "NOMEFANTASIA": "PADARIA_TULIPA", "RAZAOSOCIAL": "MARAN_&_NUNES_PADARIA_LTDA", "ENDEE": "RUA_DAS_DALIAS542__JARDIM_DAS_TULIPAS_13825-000", "LMAPS": "https://www.google.com/maps?q=&layer=c&cbll=-22.6416283,-47.0503867", "O_QUE_FAZER": "CARTEIRA", "ER_REGIAO_CIDADE_min": "Holambra_Campinas" }, "geometry": { "type": "Point", "coordinates": [ -47.0503867, -22.6416283 ] } },
{ "type": "Feature", "properties": { "fid": 26887, "CNPJ": "04828830000162", "IDCIDADE": "HOLAMBRA", "NOMEFANTASIA": "ANDRE_AUTO_PECAS", "RAZAOSOCIAL": "ANDRE_L._CILUZZO_&_CIA._LTDA", "ENDEE": "RUA_SOLIDAGOS303__MORADA_DAS_FLORES_13825-000", "LMAPS": "https://www.google.com/maps?q=&layer=c&cbll=-22.6406205,-47.0521989", "O_QUE_FAZER": "CARTEIRA", "ER_REGIAO_CIDADE_min": "Holambra_Campinas" }, "geometry": { "type": "Point", "coordinates": [ -47.0521989, -22.6406205 ] } },
{ "type": "Feature", "properties": { "fid": 26999, "CNPJ": "04841535000146", "IDCIDADE": "HOLAMBRA", "NOMEFANTASIA": "ALIANCARH", "RAZAOSOCIAL": "SILVA_&_MELO_S/S_LTDA", "ENDEE": "RUA_DAS_CAMELIAS137__CENTRO_13825-000", "LMAPS": "https://www.google.com/maps?q=&layer=c&cbll=-22.6306553,-47.0514833", "O_QUE_FAZER": "CARTEIRA", "ER_REGIAO_CIDADE_min": "Holambra_Campinas" }, "geometry": { "type": "Point", "coordinates": [ -47.0514833, -22.6306553 ] } },
{ "type": "Feature", "properties": { "fid": 28774, "CNPJ": "05091869000102", "IDCIDADE": "HOLAMBRA", "NOMEFANTASIA": "COMERCIAL_RAMILA", "RAZAOSOCIAL": "COMERCIAL_RAMILA_LTDA", "ENDEE": "RUA_SOLIDAGOS180__MORADA_DAS_FLORES_13825-000", "LMAPS": "https://www.google.com/maps?q=&layer=c&cbll=-22.6394497,-47.0523668", "O_QUE_FAZER": "CARTEIRA", "ER_REGIAO_CIDADE_min": "Holambra_Campinas" }, "geometry": { "type": "Point", "coordinates": [ -47.0523668, -22.6394497 ] } },
{ "type": "Feature", "properties": { "fid": 30366, "CNPJ": "05323965000139", "IDCIDADE": "HOLAMBRA", "NOMEFANTASIA": "CASA_DA_ESFIHA_HOLAMBRA", "RAZAOSOCIAL": "PAULO_EDUARDO_JANIAK", "ENDEE": "RUA_CENTAUREA384__MORADA_DAS_FLORES_13825-000", "LMAPS": "https://www.google.com/maps?q=&layer=c&cbll=-22.641848,-47.0517572", "O_QUE_FAZER": "CARTEIRA", "ER_REGIAO_CIDADE_min": "Holambra_Campinas" }, "geometry": { "type": "Point", "coordinates": [ -47.0517572, -22.641848 ] } },
{ "type": "Feature", "properties": { "fid": 31760, "CNPJ": "05529130000130", "IDCIDADE": "HOLAMBRA", "NOMEFANTASIA": "LC_PRESENTES_E_UTILIDADES", "RAZAOSOCIAL": "L._C._PRESENTES_E_UTILIDADES_LTDA", "ENDEE": "RUA_DOUTOR_JORGE_LATOUR25__CENTRO_13825-073", "LMAPS": "https://www.google.com/maps?q=&layer=c&cbll=-22.6332467,-47.056192", "O_QUE_FAZER": "CARTEIRA", "ER_REGIAO_CIDADE_min": "Holambra_Campinas" }, "geometry": { "type": "Point", "coordinates": [ -47.056192, -22.6332467 ] } },
{ "type": "Feature", "properties": { "fid": 35552, "CNPJ": "06034559000119", "IDCIDADE": "HOLAMBRA", "NOMEFANTASIA": "TINTAS_NOGUEIRENSE", "RAZAOSOCIAL": "CANTO_&_CANTO_LTDA", "ENDEE": "RUA_SOLIDAGOS104__MORADA_DAS_FLORES_13825-000", "LMAPS": "https://www.google.com/maps?q=&layer=c&cbll=-22.6387149,-47.0527023", "O_QUE_FAZER": "CARTEIRA", "ER_REGIAO_CIDADE_min": "Holambra_Campinas" }, "geometry": { "type": "Point", "coordinates": [ -47.0527023, -22.6387149 ] } },
{ "type": "Feature", "properties": { "fid": 37165, "CNPJ": "06247630000141", "IDCIDADE": "HOLAMBRA", "NOMEFANTASIA": "RELOJOARIA_ROZALEZ", "RAZAOSOCIAL": "RENAN_ROZALEZ_RELOJOARIA", "ENDEE": "RUA_ROTA_DOS_IMIGRANTES379__CENTRO_13825-067", "LMAPS": "https://www.google.com/maps?q=&layer=c&cbll=-22.63338,-47.0555633", "O_QUE_FAZER": "CARTEIRA", "ER_REGIAO_CIDADE_min": "Holambra_Campinas" }, "geometry": { "type": "Point", "coordinates": [ -47.0555633, -22.63338 ] } },
{ "type": "Feature", "properties": { "fid": 40487, "CNPJ": "07172639000101", "IDCIDADE": "HOLAMBRA", "NOMEFANTASIA": "VAREJAO_UNIAO", "RAZAOSOCIAL": "BERTAZZO_HORTIFRUTI_LTDA", "ENDEE": "RUA_DAS_DALIAS427__JARDIM_DAS_TULIPAS_13825-000", "LMAPS": "https://www.google.com/maps?q=&layer=c&cbll=-22.6423196,-47.0492095", "O_QUE_FAZER": "CARTEIRA", "ER_REGIAO_CIDADE_min": "Holambra_Campinas" }, "geometry": { "type": "Point", "coordinates": [ -47.0492095, -22.6423196 ] } },
{ "type": "Feature", "properties": { "fid": 41460, "CNPJ": "07292142000119", "IDCIDADE": "HOLAMBRA", "NOMEFANTASIA": "SILVA_LOCADORA", "RAZAOSOCIAL": "VILSON_VITORINO_DA_SILVA_LOCADORA_LTDA", "ENDEE": "RUA HERMANS, 512, PQ. RES. DOS IMIGRANTES, 13825-000, HOLAMBRA, SP, BRASIL", "LMAPS": "https://www.google.com/maps?q=&layer=c&cbll=-22.6101989,-47.0652727", "O_QUE_FAZER": "CARTEIRA - FAMPE", "ER_REGIAO_CIDADE_min": "Holambra_Campinas" }, "geometry": { "type": "Point", "coordinates": [ -47.0652727, -22.6101989 ] } },
{ "type": "Feature", "properties": { "fid": 41486, "CNPJ": "07294672000104", "IDCIDADE": "HOLAMBRA", "NOMEFANTASIA": "RAFAELA_CALCADOS", "RAZAOSOCIAL": "JURAMIR_BUONO_DA_SILVA", "ENDEE": "RUA_ROTA_DOS_IMIGRANTES620__CENTRO_13825-000", "LMAPS": "https://www.google.com/maps?q=&layer=c&cbll=-22.6332595,-47.0532307", "O_QUE_FAZER": "CARTEIRA", "ER_REGIAO_CIDADE_min": "Holambra_Campinas" }, "geometry": { "type": "Point", "coordinates": [ -47.0532307, -22.6332595 ] } },
{ "type": "Feature", "properties": { "fid": 54767, "CNPJ": "09061329000137", "IDCIDADE": "HOLAMBRA", "NOMEFANTASIA": "MARATON", "RAZAOSOCIAL": "MARATON_RADIOLOGIA_E_IMAGENS_MEDICAS_LTDA", "ENDEE": "RUA_PRIMAVERA1391__CENTRO_13825-000", "LMAPS": "https://www.google.com/maps?q=&layer=c&cbll=-22.6291317,-47.0498817", "O_QUE_FAZER": "CARTEIRA", "ER_REGIAO_CIDADE_min": "Holambra_Campinas" }, "geometry": { "type": "Point", "coordinates": [ -47.0498817, -22.6291317 ] } },
{ "type": "Feature", "properties": { "fid": 54921, "CNPJ": "09075387000110", "IDCIDADE": "HOLAMBRA", "NOMEFANTASIA": "EL_SHADAI_MAGAZINE", "RAZAOSOCIAL": "S._A._BANDEIRA_MAGAZINE", "ENDEE": "RUA_ROTA_DOS_IMIGRANTES351__CENTRO_13825-067", "LMAPS": "https://www.google.com/maps?q=&layer=c&cbll=-22.6333819,-47.0559534", "O_QUE_FAZER": "CARTEIRA", "ER_REGIAO_CIDADE_min": "Holambra_Campinas" }, "geometry": { "type": "Point", "coordinates": [ -47.0559534, -22.6333819 ] } },
{ "type": "Feature", "properties": { "fid": 55150, "CNPJ": "09097227000171", "IDCIDADE": "HOLAMBRA", "NOMEFANTASIA": "VIDRACARIA_SANTANA", "RAZAOSOCIAL": "L._B._CALDEIRA", "ENDEE": "RUA_ANTONIO_DAMASIO_FILIPINI133__CENTRO_13825-000", "LMAPS": "https://www.google.com/maps?q=&layer=c&cbll=-22.6337635,-47.0546932", "O_QUE_FAZER": "CARTEIRA", "ER_REGIAO_CIDADE_min": "Holambra_Campinas" }, "geometry": { "type": "Point", "coordinates": [ -47.0546932, -22.6337635 ] } },
{ "type": "Feature", "properties": { "fid": 55800, "CNPJ": "09165898000122", "IDCIDADE": "HOLAMBRA", "NOMEFANTASIA": "BEL_SHASHION", "RAZAOSOCIAL": "ISABEL_C._REZENDE_VESTUARIO", "ENDEE": "RUA_ROTA_DOS_IMIGRANTES381__CENTRO_13825-067", "LMAPS": "https://www.google.com/maps?q=&layer=c&cbll=-22.6332217,-47.055835", "O_QUE_FAZER": "CARTEIRA", "ER_REGIAO_CIDADE_min": "Holambra_Campinas" }, "geometry": { "type": "Point", "coordinates": [ -47.055835, -22.6332217 ] } },
{ "type": "Feature", "properties": { "fid": 60708, "CNPJ": "10221235000167", "IDCIDADE": "HOLAMBRA", "NOMEFANTASIA": "SERRANA_PIZZARIA", "RAZAOSOCIAL": "HELIO_J._DA_PAIXAO_E_CIA_LTDA", "ENDEE": "RUA_PRIMAVERA1441__CENTRO_13825-000", "LMAPS": "https://www.google.com/maps?q=&layer=c&cbll=-22.6289992,-47.0495518", "O_QUE_FAZER": "CARTEIRA", "ER_REGIAO_CIDADE_min": "Holambra_Campinas" }, "geometry": { "type": "Point", "coordinates": [ -47.0495518, -22.6289992 ] } },
{ "type": "Feature", "properties": { "fid": 62830, "CNPJ": "10442469000134", "IDCIDADE": "HOLAMBRA", "NOMEFANTASIA": "JA_BAGGINI_LANCHONETE", "RAZAOSOCIAL": "J_A_BAGGINI_LANCHONETE_LTDA", "ENDEE": "RUA_DOUTOR_JORGE_LATOUR33__CENTRO_13825-000", "LMAPS": "https://www.google.com/maps?q=&layer=c&cbll=-22.6332716,-47.0561686", "O_QUE_FAZER": "CARTEIRA", "ER_REGIAO_CIDADE_min": "Holambra_Campinas" }, "geometry": { "type": "Point", "coordinates": [ -47.0561686, -22.6332716 ] } },
{ "type": "Feature", "properties": { "fid": 64417, "CNPJ": "10616596000102", "IDCIDADE": "HOLAMBRA", "NOMEFANTASIA": "CIA_DA_MEMORIA", "RAZAOSOCIAL": "LARISSA_DIAS_DE_FREITAS", "ENDEE": "RUA_ROTA_DOS_IMIGRANTES640__CENTRO_13825-067", "LMAPS": "https://www.google.com/maps?q=&layer=c&cbll=-22.6332262,-47.052397", "O_QUE_FAZER": "CARTEIRA", "ER_REGIAO_CIDADE_min": "Holambra_Campinas" }, "geometry": { "type": "Point", "coordinates": [ -47.052397, -22.6332262 ] } },
{ "type": "Feature", "properties": { "fid": 65871, "CNPJ": "10761895000130", "IDCIDADE": "HOLAMBRA", "NOMEFANTASIA": "VILLA_DOS_BICHOS", "RAZAOSOCIAL": "PASSOS_&_BRUNHANI_AGROPECUARIA_LTDA", "ENDEE": "RUA_SOLIDAGOS403__MORADA_DAS_FLORES_13825-000", "LMAPS": "https://www.google.com/maps?q=&layer=c&cbll=-22.641528,-47.052067", "O_QUE_FAZER": "CARTEIRA", "ER_REGIAO_CIDADE_min": "Holambra_Campinas" }, "geometry": { "type": "Point", "coordinates": [ -47.052067, -22.641528 ] } },
{ "type": "Feature", "properties": { "fid": 66276, "CNPJ": "10807343000116", "IDCIDADE": "HOLAMBRA", "NOMEFANTASIA": "CHOPP_&_CIA", "RAZAOSOCIAL": "VERGILIO_E_NASCIMENTO_BEBIDAS_LTDA", "ENDEE": "RUA_ROTA_DOS_IMIGRANTES191__CENTRO_13825-000", "LMAPS": "https://www.google.com/maps?q=&layer=c&cbll=-22.633725,-47.05702", "O_QUE_FAZER": "CARTEIRA", "ER_REGIAO_CIDADE_min": "Holambra_Campinas" }, "geometry": { "type": "Point", "coordinates": [ -47.05702, -22.633725 ] } },
{ "type": "Feature", "properties": { "fid": 66760, "CNPJ": "10855663000141", "IDCIDADE": "HOLAMBRA", "NOMEFANTASIA": "S._A_ADESIVOS", "RAZAOSOCIAL": "SANTOS_&_SANTOS_INFORMATICA_E_IMPRESSAO_LTDA", "ENDEE": "RUA_DAS_CAMELIAS137__CENTRO_13825-000", "LMAPS": "https://www.google.com/maps?q=&layer=c&cbll=-22.6304065,-47.0515717", "O_QUE_FAZER": "CARTEIRA", "ER_REGIAO_CIDADE_min": "Holambra_Campinas" }, "geometry": { "type": "Point", "coordinates": [ -47.0515717, -22.6304065 ] } },
{ "type": "Feature", "properties": { "fid": 71289, "CNPJ": "11404488000139", "IDCIDADE": "HOLAMBRA", "NOMEFANTASIA": "ECOLMAX", "RAZAOSOCIAL": "ECOLMAX_COMERCIO_E_DISTRIBUICAO_DE_INSUMOS_AGROPECUARIOS_LTDA", "ENDEE": "RUA_FREESIAS80__PARQUE_GIRASSOIS_DE_HOLANDA_13825-000", "LMAPS": "https://www.google.com/maps?q=&layer=c&cbll=-22.6268011,-47.0521031", "O_QUE_FAZER": "CARTEIRA", "ER_REGIAO_CIDADE_min": "Holambra_Campinas" }, "geometry": { "type": "Point", "coordinates": [ -47.0521031, -22.6268011 ] } },
{ "type": "Feature", "properties": { "fid": 72788, "CNPJ": "11623080000158", "IDCIDADE": "HOLAMBRA", "NOMEFANTASIA": "HC_2_SOLUCOES", "RAZAOSOCIAL": "HC2_-_HOLAMBRA_CAPTURING_CARBON_-_GESTAO_AMBIENTAL_SUSTENTAVEL_LTDA", "ENDEE": "RUA_CAMPO_DE_POUSO1413__CENTRO_13825-000", "LMAPS": "https://www.google.com/maps?q=&layer=c&cbll=-22.6307227,-47.0492924", "O_QUE_FAZER": "CARTEIRA", "ER_REGIAO_CIDADE_min": "Holambra_Campinas" }, "geometry": { "type": "Point", "coordinates": [ -47.0492924, -22.6307227 ] } },
{ "type": "Feature", "properties": { "fid": 72876, "CNPJ": "11636113000102", "IDCIDADE": "HOLAMBRA", "NOMEFANTASIA": "TAGUIMA_SERVICOS_EMPRESARIAIS", "RAZAOSOCIAL": "TAGUIMA_SERVICOS_EMPRESARIAIS_LTDA", "ENDEE": "RUA_DAS_DALIAS699__JARDIM_DAS_TULIPAS_13825-000", "LMAPS": "https://www.google.com/maps?q=&layer=c&cbll=-22.6425321,-47.0518041", "O_QUE_FAZER": "CARTEIRA", "ER_REGIAO_CIDADE_min": "Holambra_Campinas" }, "geometry": { "type": "Point", "coordinates": [ -47.0518041, -22.6425321 ] } },
{ "type": "Feature", "properties": { "fid": 76074, "CNPJ": "12187798000101", "IDCIDADE": "HOLAMBRA", "NOMEFANTASIA": "ARCHSHOP", "RAZAOSOCIAL": "W.E.Y_CONSTRUCOES_LTDA", "ENDEE": "RUA_FREESIAS213__PARQUE_GIRASSOIS_DE_HOLANDA_13825-000", "LMAPS": "https://www.google.com/maps?q=&layer=c&cbll=-22.6282546,-47.051699", "O_QUE_FAZER": "CARTEIRA", "ER_REGIAO_CIDADE_min": "Holambra_Campinas" }, "geometry": { "type": "Point", "coordinates": [ -47.051699, -22.6282546 ] } },
{ "type": "Feature", "properties": { "fid": 77733, "CNPJ": "12487974000201", "IDCIDADE": "HOLAMBRA", "NOMEFANTASIA": "FABRIL_DECOR", "RAZAOSOCIAL": "BIANCA_RODRIGUES_FORCATO_LTDA", "ENDEE": "RUA_ROTA_DOS_IMIGRANTES512__CENTRO_13825-067", "LMAPS": "https://www.google.com/maps?q=&layer=c&cbll=-22.6333084,-47.0543208", "O_QUE_FAZER": "CARTEIRA", "ER_REGIAO_CIDADE_min": "Holambra_Campinas" }, "geometry": { "type": "Point", "coordinates": [ -47.0543208, -22.6333084 ] } },
{ "type": "Feature", "properties": { "fid": 77998, "CNPJ": "12536266000132", "IDCIDADE": "HOLAMBRA", "NOMEFANTASIA": "PORTAAL_EMBALAGENS", "RAZAOSOCIAL": "RONALDI_GERALDO_MENON_&_CIA_LTDA", "ENDEE": "RUA_ANTONIO_DAMASIO_FILIPINI188__CENTRO_13825-000", "LMAPS": "https://www.google.com/maps?q=&layer=c&cbll=-22.6340244,-47.054161", "O_QUE_FAZER": "CARTEIRA", "ER_REGIAO_CIDADE_min": "Holambra_Campinas" }, "geometry": { "type": "Point", "coordinates": [ -47.054161, -22.6340244 ] } },
{ "type": "Feature", "properties": { "fid": 81846, "CNPJ": "13313421000114", "IDCIDADE": "HOLAMBRA", "NOMEFANTASIA": "BENGEZEN_FISIOTERAPIA", "RAZAOSOCIAL": "BENGEZEN_FISIOTERAPIA_LTDA", "ENDEE": "RUA_SOLIDAGOS367__MORADA_DAS_FLORES_13825-000", "LMAPS": "https://www.google.com/maps?q=&layer=c&cbll=-22.6413428,-47.0521349", "O_QUE_FAZER": "CARTEIRA", "ER_REGIAO_CIDADE_min": "Holambra_Campinas" }, "geometry": { "type": "Point", "coordinates": [ -47.0521349, -22.6413428 ] } },
{ "type": "Feature", "properties": { "fid": 82341, "CNPJ": "13395891000174", "IDCIDADE": "HOLAMBRA", "NOMEFANTASIA": null, "RAZAOSOCIAL": "JOAO_PAULO_DE_MORAES", "ENDEE": "SITIO IMPERIAL, SN, PALMEIRAS, 13825-000, HOLAMBRA, SP, BRASIL", "LMAPS": "https://www.google.com/maps?q=&layer=c&cbll=-22.6273804,-47.0493851", "O_QUE_FAZER": "CARTEIRA - FAMPE", "ER_REGIAO_CIDADE_min": "Holambra_Campinas" }, "geometry": { "type": "Point", "coordinates": [ -47.0493851, -22.6273804 ] } },
{ "type": "Feature", "properties": { "fid": 83583, "CNPJ": "13606096000188", "IDCIDADE": "HOLAMBRA", "NOMEFANTASIA": "MARTIN_HOLANDESA", "RAZAOSOCIAL": "MARTIN_GASTRONOMIA_LTDA", "ENDEE": "RUA_DORIA_VASCONCELOS144__CENTRO_13825-065", "LMAPS": "https://www.google.com/maps?q=&layer=c&cbll=-22.6357383,-47.0575917", "O_QUE_FAZER": "CARTEIRA", "ER_REGIAO_CIDADE_min": "Holambra_Campinas" }, "geometry": { "type": "Point", "coordinates": [ -47.0575917, -22.6357383 ] } },
{ "type": "Feature", "properties": { "fid": 84335, "CNPJ": "13745220000196", "IDCIDADE": "HOLAMBRA", "NOMEFANTASIA": "JFF_CONSTRUTORA", "RAZAOSOCIAL": "JFF_CONSTRUTORA_LTDA", "ENDEE": "PRACA_DAS_PALMAS75__JARDIM_HOLANDA_13825-000", "LMAPS": "https://www.google.com/maps?q=&layer=c&cbll=-22.641296,-47.0483519", "O_QUE_FAZER": "CARTEIRA", "ER_REGIAO_CIDADE_min": "Holambra_Campinas" }, "geometry": { "type": "Point", "coordinates": [ -47.0483519, -22.641296 ] } },
{ "type": "Feature", "properties": { "fid": 85282, "CNPJ": "13953858000201", "IDCIDADE": "HOLAMBRA", "NOMEFANTASIA": "OMA_BEPPIE_ALIMENTOS_LTDA", "RAZAOSOCIAL": "OMA_BEPPIE_ALIMENTOS_LTDA", "ENDEE": "RUA_CAMPO_DO_POUSO1050__CENTRO_13825-000", "LMAPS": "https://www.google.com/maps?q=&layer=c&cbll=-22.6320364,-47.0533833", "O_QUE_FAZER": "CARTEIRA", "ER_REGIAO_CIDADE_min": "Holambra_Campinas" }, "geometry": { "type": "Point", "coordinates": [ -47.0533833, -22.6320364 ] } },
{ "type": "Feature", "properties": { "fid": 85914, "CNPJ": "14073467000176", "IDCIDADE": "HOLAMBRA", "NOMEFANTASIA": "GRAFICA_5S", "RAZAOSOCIAL": "5S_EDITORA_GRAFICA_LTDA", "ENDEE": "RUA_ROTA_DOS_IMIGRANTES666__CENTRO_13825-067", "LMAPS": "https://www.google.com/maps?q=&layer=c&cbll=-22.6332543,-47.0525587", "O_QUE_FAZER": "CARTEIRA", "ER_REGIAO_CIDADE_min": "Holambra_Campinas" }, "geometry": { "type": "Point", "coordinates": [ -47.0525587, -22.6332543 ] } },
{ "type": "Feature", "properties": { "fid": 90903, "CNPJ": "15112098000146", "IDCIDADE": "HOLAMBRA", "NOMEFANTASIA": null, "RAZAOSOCIAL": "GIOVANE_DE_SOUZA_PEREIRA", "ENDEE": "RUA HIBISCO, 104, JARDIM DAS TULIPAS, 13825-000, HOLAMBRA, SP, BRASIL", "LMAPS": "https://www.google.com/maps?q=&layer=c&cbll=-22.6445751,-47.0507491", "O_QUE_FAZER": "CARTEIRA - FAMPE", "ER_REGIAO_CIDADE_min": "Holambra_Campinas" }, "geometry": { "type": "Point", "coordinates": [ -47.0507491, -22.6445751 ] } },
{ "type": "Feature", "properties": { "fid": 92360, "CNPJ": "15410938000157", "IDCIDADE": "HOLAMBRA", "NOMEFANTASIA": "HOLAM.VET", "RAZAOSOCIAL": "HOLAM.VET_CLINICA_VETERINARIA_LTDA", "ENDEE": "RUA_CAMPO_DE_POUSO770__CENTRO_13825-000", "LMAPS": "https://www.google.com/maps?q=&layer=c&cbll=-22.6324598,-47.0552532", "O_QUE_FAZER": "CARTEIRA", "ER_REGIAO_CIDADE_min": "Holambra_Campinas" }, "geometry": { "type": "Point", "coordinates": [ -47.0552532, -22.6324598 ] } },
{ "type": "Feature", "properties": { "fid": 93499, "CNPJ": "15649764000180", "IDCIDADE": "HOLAMBRA", "NOMEFANTASIA": "ANDREZINHO_INFORMATICA", "RAZAOSOCIAL": "ANDRE_LUIZ_OLIVEIRA_INFORMATICA", "ENDEE": "RUA_PRIMAVERA1420__CENTRO_13825-000", "LMAPS": "https://www.google.com/maps?q=&layer=c&cbll=-22.6294384,-47.0496395", "O_QUE_FAZER": "CARTEIRA", "ER_REGIAO_CIDADE_min": "Holambra_Campinas" }, "geometry": { "type": "Point", "coordinates": [ -47.0496395, -22.6294384 ] } },
{ "type": "Feature", "properties": { "fid": 94208, "CNPJ": "15822647000176", "IDCIDADE": "HOLAMBRA", "NOMEFANTASIA": "FH_SERVICOS_DE_APOIO_ADMINISTRATIVO_E_FINANCEIRO_LTDA", "RAZAOSOCIAL": "FH_SERVICOS_DE_APOIO_ADMINISTRATIVO_E_FINANCEIRO_LTDA", "ENDEE": "RUA_DERK_SYBRAND_BRUINS89__MOINHO_RESIDENCIAL_13828-316", "LMAPS": "https://www.google.com/maps?q=&layer=c&cbll=-22.618051,-47.0651622", "O_QUE_FAZER": "FINALIZADO", "ER_REGIAO_CIDADE_min": "Holambra_Campinas" }, "geometry": { "type": "Point", "coordinates": [ -47.0651622, -22.618051 ] } },
{ "type": "Feature", "properties": { "fid": 96230, "CNPJ": "16863575000178", "IDCIDADE": "HOLAMBRA", "NOMEFANTASIA": "LELIN", "RAZAOSOCIAL": "LE_LIN_BOUTIQUE_LTDA", "ENDEE": "RUA_SOLIDAGOS168__MORADA_DAS_FLORES_13825-000", "LMAPS": "https://www.google.com/maps?q=&layer=c&cbll=-22.6393592,-47.0525572", "O_QUE_FAZER": "CARTEIRA", "ER_REGIAO_CIDADE_min": "Holambra_Campinas" }, "geometry": { "type": "Point", "coordinates": [ -47.0525572, -22.6393592 ] } },
{ "type": "Feature", "properties": { "fid": 100575, "CNPJ": "17747974000136", "IDCIDADE": "HOLAMBRA", "NOMEFANTASIA": "PULVERIZACAO_&_CIA", "RAZAOSOCIAL": "PULVERIZACAO_&_CIA_LTDA", "ENDEE": "RUA_CICLAMES190__CENTRO_13825-000", "LMAPS": "https://www.google.com/maps?q=&layer=c&cbll=-22.6336184,-47.0591249", "O_QUE_FAZER": "CARTEIRA", "ER_REGIAO_CIDADE_min": "Holambra_Campinas" }, "geometry": { "type": "Point", "coordinates": [ -47.0591249, -22.6336184 ] } },
{ "type": "Feature", "properties": { "fid": 102108, "CNPJ": "18030434000108", "IDCIDADE": "HOLAMBRA", "NOMEFANTASIA": "BRASIL_&_SOUZA", "RAZAOSOCIAL": "MEIRE_APARECIDA_DE_SOUZA_MILKE_LTDA", "ENDEE": "RUA_ANTONIO_DAMASIO_FILIPINI188__CENTRO_13825-000", "LMAPS": "https://www.google.com/maps?q=&layer=c&cbll=-22.633899,-47.0541491", "O_QUE_FAZER": "CARTEIRA", "ER_REGIAO_CIDADE_min": "Holambra_Campinas" }, "geometry": { "type": "Point", "coordinates": [ -47.0541491, -22.633899 ] } },
{ "type": "Feature", "properties": { "fid": 103451, "CNPJ": "18314338000183", "IDCIDADE": "HOLAMBRA", "NOMEFANTASIA": "CONSTRUVIP_NOVA_HOLAMBRA", "RAZAOSOCIAL": "NOVA_HOLAMBRA_MATERIAIS_PARA_CONSTRUCAO_LTDA.", "ENDEE": "RUA_DAS_DALIAS517__JARDIM_DAS_TULIPAS_13825-000", "LMAPS": "https://www.google.com/maps?q=&layer=c&cbll=-22.64218,-47.0500952", "O_QUE_FAZER": "CARTEIRA", "ER_REGIAO_CIDADE_min": "Holambra_Campinas" }, "geometry": { "type": "Point", "coordinates": [ -47.0500952, -22.64218 ] } },
{ "type": "Feature", "properties": { "fid": 106625, "CNPJ": "18986421000107", "IDCIDADE": "HOLAMBRA", "NOMEFANTASIA": "MANDALA_ACESSORIOS", "RAZAOSOCIAL": "SWART_&_SWART_ACESSORIOS_LTDA", "ENDEE": "RUA_ROTA_DOS_IMIGRANTES454__CENTRO_13825-067", "LMAPS": "https://www.google.com/maps?q=&layer=c&cbll=-22.6334791,-47.0550461", "O_QUE_FAZER": "CARTEIRA", "ER_REGIAO_CIDADE_min": "Holambra_Campinas" }, "geometry": { "type": "Point", "coordinates": [ -47.0550461, -22.6334791 ] } },
{ "type": "Feature", "properties": { "fid": 107000, "CNPJ": "19065536000113", "IDCIDADE": "HOLAMBRA", "NOMEFANTASIA": "VILLA_GIRASSOL_RESTAURANTE", "RAZAOSOCIAL": "VILLA_GIRASSOL_RESTAURANTE_LTDA", "ENDEE": "RUA_CAMPO_DE_POUSO1089__CENTRO_13825-000", "LMAPS": "https://www.google.com/maps?q=&layer=c&cbll=-22.6312996,-47.0524285", "O_QUE_FAZER": "CARTEIRA", "ER_REGIAO_CIDADE_min": "Holambra_Campinas" }, "geometry": { "type": "Point", "coordinates": [ -47.0524285, -22.6312996 ] } },
{ "type": "Feature", "properties": { "fid": 110654, "CNPJ": "19900100000100", "IDCIDADE": "HOLAMBRA", "NOMEFANTASIA": "-", "RAZAOSOCIAL": "19.900.100_MARGARETE_CONCEICAO_ANDRADE_FERREIRA", "ENDEE": "10A RUA AGERATO, 106, BAIRRO GROOT, 13825-000, HOLAMBRA, SP, BRASIL", "LMAPS": "https://www.google.com/maps?q=&layer=c&cbll=-22.6431531,-47.0538542", "O_QUE_FAZER": "CARTEIRA - FAMPE", "ER_REGIAO_CIDADE_min": "Holambra_Campinas" }, "geometry": { "type": "Point", "coordinates": [ -47.0538542, -22.6431531 ] } },
{ "type": "Feature", "properties": { "fid": 112743, "CNPJ": "20355902000158", "IDCIDADE": "HOLAMBRA", "NOMEFANTASIA": "PLUG_SOLAR_ENERGIA", "RAZAOSOCIAL": "PLUG_SOLAR_ENERGIA_LTDA", "ENDEE": "RUA_DAS_DALIAS477__JARDIM_DAS_TULIPAS_13825-000", "LMAPS": "https://www.google.com/maps?q=&layer=c&cbll=-22.6420921,-47.0496916", "O_QUE_FAZER": "CARTEIRA", "ER_REGIAO_CIDADE_min": "Holambra_Campinas" }, "geometry": { "type": "Point", "coordinates": [ -47.0496916, -22.6420921 ] } },
{ "type": "Feature", "properties": { "fid": 116426, "CNPJ": "21207521000194", "IDCIDADE": "HOLAMBRA", "NOMEFANTASIA": "NK_COMERCIO_DE_VIDRO,_ALUMINIO_E_ACO_INOX", "RAZAOSOCIAL": "NK_COMERCIO_DE_VIDRO_ALUMINIO_E_ACO_INOX_LTDA", "ENDEE": "RUA_1631__PARQUE_RESIDENCIAL_NOVA_HOLANDA_13828-132", "LMAPS": "https://www.google.com/maps?q=&layer=c&cbll=-22.6343017,-47.0451683", "O_QUE_FAZER": "CARTEIRA", "ER_REGIAO_CIDADE_min": "Holambra_Campinas" }, "geometry": { "type": "Point", "coordinates": [ -47.0451683, -22.6343017 ] } },
{ "type": "Feature", "properties": { "fid": 116851, "CNPJ": "21289082000106", "IDCIDADE": "HOLAMBRA", "NOMEFANTASIA": "ROSAS_DE_HOLAMBRA_CAFETERIA", "RAZAOSOCIAL": "CAFETERIA_E_GELATERIA_LEME_COSTA_LTDA", "ENDEE": "RUA_DORIA_VASCONCELOS152__CENTRO_13825-000", "LMAPS": "https://www.google.com/maps?q=&layer=c&cbll=-22.6316986,-47.0522236", "O_QUE_FAZER": "CARTEIRA", "ER_REGIAO_CIDADE_min": "Holambra_Campinas" }, "geometry": { "type": "Point", "coordinates": [ -47.0522236, -22.6316986 ] } },
{ "type": "Feature", "properties": { "fid": 117730, "CNPJ": "21489932000110", "IDCIDADE": "HOLAMBRA", "NOMEFANTASIA": "SALDAGERIA", "RAZAOSOCIAL": "KOKEN_EN_BAKKEN_LTDA", "ENDEE": "RUA_CAMPO_DE_POUSO1213__CENTRO_13825-000", "LMAPS": "https://www.google.com/maps?q=&layer=c&cbll=-22.6311594,-47.0512354", "O_QUE_FAZER": "CARTEIRA", "ER_REGIAO_CIDADE_min": "Holambra_Campinas" }, "geometry": { "type": "Point", "coordinates": [ -47.0512354, -22.6311594 ] } },
{ "type": "Feature", "properties": { "fid": 124502, "CNPJ": "22934163000184", "IDCIDADE": "HOLAMBRA", "NOMEFANTASIA": "J_D_GALO_JUNIOR", "RAZAOSOCIAL": "NEW_AR", "ENDEE": "RUA_DAS_ESTRELITZIAS219__MORADA_DAS_FLORES_13827-022", "LMAPS": "https://www.google.com/maps?q=&layer=c&cbll=-22.6396548,-47.0528284", "O_QUE_FAZER": "FINALIZADO", "ER_REGIAO_CIDADE_min": "Holambra_Campinas" }, "geometry": { "type": "Point", "coordinates": [ -47.0528284, -22.6396548 ] } },
{ "type": "Feature", "properties": { "fid": 132150, "CNPJ": "24527627000163", "IDCIDADE": "HOLAMBRA", "NOMEFANTASIA": "CAF_-_CENTRO_ADMINISTRATIVO_FURIO", "RAZAOSOCIAL": "MARIANA_FURIO_DE_WIT_CORRETORA_DE_SEGUROS_E_IMOVEIS_LTDA", "ENDEE": "AVENIDA_DAS_TULIPAS45__CENTRO_13825-000", "LMAPS": "https://www.google.com/maps?q=&layer=c&cbll=-22.633406,-47.0529454", "O_QUE_FAZER": "CARTEIRA", "ER_REGIAO_CIDADE_min": "Holambra_Campinas" }, "geometry": { "type": "Point", "coordinates": [ -47.0529454, -22.633406 ] } },
{ "type": "Feature", "properties": { "fid": 133782, "CNPJ": "24855115000126", "IDCIDADE": "HOLAMBRA", "NOMEFANTASIA": "SOS_MOTOS_E_ACESSORIOS", "RAZAOSOCIAL": "SOS_MOTOS_COMERCIO_E_SERVICOS_LTDA", "ENDEE": "RUA_DAS_DALIAS417__JARDIM_DAS_TULIPAS_13825-000", "LMAPS": "https://www.google.com/maps?q=&layer=c&cbll=-22.6420415,-47.0490802", "O_QUE_FAZER": "CARTEIRA", "ER_REGIAO_CIDADE_min": "Holambra_Campinas" }, "geometry": { "type": "Point", "coordinates": [ -47.0490802, -22.6420415 ] } },
{ "type": "Feature", "properties": { "fid": 134473, "CNPJ": "24989201000121", "IDCIDADE": "HOLAMBRA", "NOMEFANTASIA": "EPS", "RAZAOSOCIAL": "EDINALDO_PEREIRA_DOS_SANTOS_ELETRICA", "ENDEE": "RUA_JORGE_LATOUR33__CENTRO_13825-073", "LMAPS": "https://www.google.com/maps?q=&layer=c&cbll=-22.633393,-47.0561715", "O_QUE_FAZER": "CARTEIRA", "ER_REGIAO_CIDADE_min": "Holambra_Campinas" }, "geometry": { "type": "Point", "coordinates": [ -47.0561715, -22.633393 ] } },
{ "type": "Feature", "properties": { "fid": 135057, "CNPJ": "25089870000100", "IDCIDADE": "HOLAMBRA", "NOMEFANTASIA": "AGRO_HOLAMBRA_PULVERIZADORES", "RAZAOSOCIAL": "AGRO_HOLAMBRA_PULVERIZADORES_LTDA", "ENDEE": "RUA_CICLAMES190__CENTRO_13825-000", "LMAPS": "https://www.google.com/maps?q=&layer=c&cbll=-22.633636,-47.0591729", "O_QUE_FAZER": "CARTEIRA", "ER_REGIAO_CIDADE_min": "Holambra_Campinas" }, "geometry": { "type": "Point", "coordinates": [ -47.0591729, -22.633636 ] } },
{ "type": "Feature", "properties": { "fid": 135949, "CNPJ": "25262763000131", "IDCIDADE": "HOLAMBRA", "NOMEFANTASIA": null, "RAZAOSOCIAL": "EMPORIO_DELICIA_LTDA", "ENDEE": "RUA STAPELBROEK, 189, RESIDENCIAL DOS IMIGRANTES, 13828-356, HOLAMBRA, SP, BRASIL", "LMAPS": "https://www.google.com/maps?q=&layer=c&cbll=-22.6122251,-47.0677791", "O_QUE_FAZER": "CARTEIRA - FAMPE", "ER_REGIAO_CIDADE_min": "Holambra_Campinas" }, "geometry": { "type": "Point", "coordinates": [ -47.0677791, -22.6122251 ] } },
{ "type": "Feature", "properties": { "fid": 138390, "CNPJ": "26276462000120", "IDCIDADE": "HOLAMBRA", "NOMEFANTASIA": "DOLCE_FLOR", "RAZAOSOCIAL": "DOLCE_FLOR_LTDA", "ENDEE": "RUA_SOLIDAGOS125__MORADA_DAS_FLORES_13825-000", "LMAPS": "https://www.google.com/maps?q=&layer=c&cbll=-22.6390284,-47.0527936", "O_QUE_FAZER": "CARTEIRA", "ER_REGIAO_CIDADE_min": "Holambra_Campinas" }, "geometry": { "type": "Point", "coordinates": [ -47.0527936, -22.6390284 ] } },
{ "type": "Feature", "properties": { "fid": 140965, "CNPJ": "26750724000146", "IDCIDADE": "HOLAMBRA", "NOMEFANTASIA": "RECANTO_PET", "RAZAOSOCIAL": "RECANTO_PET_LTDA", "ENDEE": "RUA_DAS_CAMELIAS362__CENTRO_13825-000", "LMAPS": "https://www.google.com/maps?q=&layer=c&cbll=-22.6302614,-47.0494529", "O_QUE_FAZER": "CARTEIRA", "ER_REGIAO_CIDADE_min": "Holambra_Campinas" }, "geometry": { "type": "Point", "coordinates": [ -47.0494529, -22.6302614 ] } },
{ "type": "Feature", "properties": { "fid": 141554, "CNPJ": "26878493000150", "IDCIDADE": "HOLAMBRA", "NOMEFANTASIA": "BISTRO_DA_ITI", "RAZAOSOCIAL": "BISTRO_DA_IDI_RESTAURANTE_LTDA", "ENDEE": "RUA_DAS_DALIAS497__JARDIM_DAS_TULIPAS_13825-000", "LMAPS": "https://www.google.com/maps?q=&layer=c&cbll=-22.6421171,-47.0498011", "O_QUE_FAZER": "CARTEIRA", "ER_REGIAO_CIDADE_min": "Holambra_Campinas" }, "geometry": { "type": "Point", "coordinates": [ -47.0498011, -22.6421171 ] } },
{ "type": "Feature", "properties": { "fid": 143151, "CNPJ": "27218289000176", "IDCIDADE": "HOLAMBRA", "NOMEFANTASIA": "ACADEMIA_ARENA_FITNESS", "RAZAOSOCIAL": "ACADEMIA_ARENA_FITNESS_ATIVIDADES_ESPORTIVAS_LTDA", "ENDEE": "RUA_FREESIAS147__PARQUE_GIRASSOIS_DE_HOLANDA_13825-000", "LMAPS": "https://www.google.com/maps?q=&layer=c&cbll=-22.6275633,-47.0518084", "O_QUE_FAZER": "CARTEIRA", "ER_REGIAO_CIDADE_min": "Holambra_Campinas" }, "geometry": { "type": "Point", "coordinates": [ -47.0518084, -22.6275633 ] } },
{ "type": "Feature", "properties": { "fid": 146918, "CNPJ": "27929825000141", "IDCIDADE": "HOLAMBRA", "NOMEFANTASIA": "KENDI_DOCES", "RAZAOSOCIAL": "SORAIA_H._R._HADDAD", "ENDEE": "RUA_ROTA_DOS_IMIGRANTES409__CENTRO_13825-000", "LMAPS": "https://www.google.com/maps?q=&layer=c&cbll=-22.6333461,-47.0551958", "O_QUE_FAZER": "CARTEIRA - FAMPE", "ER_REGIAO_CIDADE_min": "Holambra_Campinas" }, "geometry": { "type": "Point", "coordinates": [ -47.0551958, -22.6333461 ] } },
{ "type": "Feature", "properties": { "fid": 151158, "CNPJ": "28706089000125", "IDCIDADE": "HOLAMBRA", "NOMEFANTASIA": "AROMAS_DE_HOLAMBRA", "RAZAOSOCIAL": "AROART_COMERCIAL_LTDA", "ENDEE": "RUA_DORIA_VASCONCELOS152__CENTRO_13825-065", "LMAPS": "https://www.google.com/maps?q=&layer=c&cbll=-22.6319165,-47.0522037", "O_QUE_FAZER": "CARTEIRA", "ER_REGIAO_CIDADE_min": "Holambra_Campinas" }, "geometry": { "type": "Point", "coordinates": [ -47.0522037, -22.6319165 ] } },
{ "type": "Feature", "properties": { "fid": 151820, "CNPJ": "28829572000105", "IDCIDADE": "HOLAMBRA", "NOMEFANTASIA": "HOLLINE_INTERNET_SERVICE", "RAZAOSOCIAL": "HOLLINE_INTERNET_SERVICE_LTDA", "ENDEE": "RUA_ROTA_DOS_IMIGRANTES562__CENTRO_13825-000", "LMAPS": "https://www.google.com/maps?q=&layer=c&cbll=-22.633195,-47.0539063", "O_QUE_FAZER": "CARTEIRA - FAMPE", "ER_REGIAO_CIDADE_min": "Holambra_Campinas" }, "geometry": { "type": "Point", "coordinates": [ -47.0539063, -22.633195 ] } },
{ "type": "Feature", "properties": { "fid": 153797, "CNPJ": "29190561000182", "IDCIDADE": "HOLAMBRA", "NOMEFANTASIA": "IMOBILIARIA_RAVELYN", "RAZAOSOCIAL": "M._A._C._B._BRUNHANI_IMOVEIS_LTDA", "ENDEE": "AVENIDA_DAS_TULIPAS132__CENTRO_13825-089", "LMAPS": "https://www.google.com/maps?q=&layer=c&cbll=-22.6340166,-47.0530835", "O_QUE_FAZER": "CARTEIRA", "ER_REGIAO_CIDADE_min": "Holambra_Campinas" }, "geometry": { "type": "Point", "coordinates": [ -47.0530835, -22.6340166 ] } },
{ "type": "Feature", "properties": { "fid": 159662, "CNPJ": "30367324000123", "IDCIDADE": "HOLAMBRA", "NOMEFANTASIA": "MAEDA_MOTO_PECAS", "RAZAOSOCIAL": "DARIO_MAEDA_MOTOCICLETAS", "ENDEE": "AVENIDA_DAS_TULIPAS93__CENTRO_13825-000", "LMAPS": "https://www.google.com/maps?q=&layer=c&cbll=-22.6338689,-47.0527896", "O_QUE_FAZER": "CARTEIRA", "ER_REGIAO_CIDADE_min": "Holambra_Campinas" }, "geometry": { "type": "Point", "coordinates": [ -47.0527896, -22.6338689 ] } },
{ "type": "Feature", "properties": { "fid": 161657, "CNPJ": "30732050000124", "IDCIDADE": "HOLAMBRA", "NOMEFANTASIA": "TRATTORIA_ROVERBELLA", "RAZAOSOCIAL": "L.K._OTAKENO_RESTAURANTE_E_CAFE_LTDA", "ENDEE": "RUA_CAMPO_DO_POUSO1089__CENTRO_13825-063", "LMAPS": "https://www.google.com/maps?q=&layer=c&cbll=-22.6305217,-47.0556567", "O_QUE_FAZER": "CARTEIRA", "ER_REGIAO_CIDADE_min": "Holambra_Campinas" }, "geometry": { "type": "Point", "coordinates": [ -47.0556567, -22.6305217 ] } },
{ "type": "Feature", "properties": { "fid": 162591, "CNPJ": "30916797000132", "IDCIDADE": "HOLAMBRA", "NOMEFANTASIA": "OTICAS_IPANEMA", "RAZAOSOCIAL": "K.G_OTICA_LTDA", "ENDEE": "RUA_ROTA_DOS_IMIGRANTES397__CENTRO_13825-000", "LMAPS": "https://www.google.com/maps?q=&layer=c&cbll=-22.633308,-47.0553509", "O_QUE_FAZER": "CARTEIRA", "ER_REGIAO_CIDADE_min": "Holambra_Campinas" }, "geometry": { "type": "Point", "coordinates": [ -47.0553509, -22.633308 ] } },
{ "type": "Feature", "properties": { "fid": 163030, "CNPJ": "30997152000171", "IDCIDADE": "HOLAMBRA", "NOMEFANTASIA": "DEPOSITO_DE_BEBIDAS_CAROL", "RAZAOSOCIAL": "ACR_BEBIDAS_E_CONVENIENCIA_LTDA", "ENDEE": "RUA ANTONIO JORGE FRADE, 162, CENTRO, 13825-085, HOLAMBRA, SP, BRASIL", "LMAPS": "https://www.google.com/maps?q=&layer=c&cbll=-22.636221,-47.0539835", "O_QUE_FAZER": "CARTEIRA - FAMPE", "ER_REGIAO_CIDADE_min": "Holambra_Campinas" }, "geometry": { "type": "Point", "coordinates": [ -47.0539835, -22.636221 ] } },
{ "type": "Feature", "properties": { "fid": 163674, "CNPJ": "31119888000100", "IDCIDADE": "HOLAMBRA", "NOMEFANTASIA": "PADARIA_O_CHEFFE", "RAZAOSOCIAL": "VALDECIR_APARECIDO_GABRIEL", "ENDEE": "RUA_DEZESSEIS69__NOVA_HOLANDA_13825-000", "LMAPS": "https://www.google.com/maps?q=&layer=c&cbll=-22.6262031,-47.0499448", "O_QUE_FAZER": "CARTEIRA", "ER_REGIAO_CIDADE_min": "Holambra_Campinas" }, "geometry": { "type": "Point", "coordinates": [ -47.0499448, -22.6262031 ] } },
{ "type": "Feature", "properties": { "fid": 163811, "CNPJ": "31152286000154", "IDCIDADE": "HOLAMBRA", "NOMEFANTASIA": "ANDRE_AUTO_ELETRICA", "RAZAOSOCIAL": "CARLOS_ANDRE_MOISES", "ENDEE": "AVENIDA_PRIMULAS1006__PARQUE_RES._GIRASSOIS_DE_HOLANDA_13825-000", "LMAPS": "https://www.google.com/maps?q=&layer=c&cbll=-22.6269791,-47.0512109", "O_QUE_FAZER": "CARTEIRA", "ER_REGIAO_CIDADE_min": "Holambra_Campinas" }, "geometry": { "type": "Point", "coordinates": [ -47.0512109, -22.6269791 ] } },
{ "type": "Feature", "properties": { "fid": 164186, "CNPJ": "31250850000171", "IDCIDADE": "HOLAMBRA", "NOMEFANTASIA": "GIULIA_CAFE", "RAZAOSOCIAL": "JD_CAFETERIA_E_COMERCIO_LTDA", "ENDEE": "RUA_CAMPO_DE_POUSO702__CENTRO_13825-000", "LMAPS": "https://www.google.com/maps?q=&layer=c&cbll=-22.6325794,-47.0559557", "O_QUE_FAZER": "CARTEIRA", "ER_REGIAO_CIDADE_min": "Holambra_Campinas" }, "geometry": { "type": "Point", "coordinates": [ -47.0559557, -22.6325794 ] } },
{ "type": "Feature", "properties": { "fid": 164187, "CNPJ": "31250850000252", "IDCIDADE": "HOLAMBRA", "NOMEFANTASIA": "BASICO.COM", "RAZAOSOCIAL": "JD_CAFETERIA_E_COMERCIO_LTDA", "ENDEE": "RUA_ROTA_DOS_IMIGRANTES474__CENTRO_13825-067", "LMAPS": "https://www.google.com/maps?q=&layer=c&cbll=-22.6335025,-47.0548964", "O_QUE_FAZER": "CARTEIRA", "ER_REGIAO_CIDADE_min": "Holambra_Campinas" }, "geometry": { "type": "Point", "coordinates": [ -47.0548964, -22.6335025 ] } },
{ "type": "Feature", "properties": { "fid": 173027, "CNPJ": "33057524000178", "IDCIDADE": "HOLAMBRA", "NOMEFANTASIA": "QUINTAL_YAH_YAH", "RAZAOSOCIAL": "A2K_COMERCIO_DE_ARTIGOS_DO_VESTUARIO_E_ACESSORIOS_LTDA", "ENDEE": "RUA_CAMPO_DO_POUSO898__CENTRO_13825-000", "LMAPS": "https://www.google.com/maps?q=&layer=c&cbll=-22.6321414,-47.0542169", "O_QUE_FAZER": "CARTEIRA", "ER_REGIAO_CIDADE_min": "Holambra_Campinas" }, "geometry": { "type": "Point", "coordinates": [ -47.0542169, -22.6321414 ] } },
{ "type": "Feature", "properties": { "fid": 174121, "CNPJ": "33263855000164", "IDCIDADE": "HOLAMBRA", "NOMEFANTASIA": "HOTEL_1948", "RAZAOSOCIAL": "1948_HOTELARIA_LTDA", "ENDEE": "RUA_BROMELIAS206__CENTRO_13825-000", "LMAPS": "https://www.google.com/maps?q=&layer=c&cbll=-22.6286712,-47.050121", "O_QUE_FAZER": "CARTEIRA", "ER_REGIAO_CIDADE_min": "Holambra_Campinas" }, "geometry": { "type": "Point", "coordinates": [ -47.050121, -22.6286712 ] } },
{ "type": "Feature", "properties": { "fid": 176420, "CNPJ": "33694004000176", "IDCIDADE": "HOLAMBRA", "NOMEFANTASIA": "VILLA_PETIT", "RAZAOSOCIAL": "SALES_E_SALES_MODA_INFANTIL_LTDA", "ENDEE": "RUA_ROTA_DOS_IMIGRANTES490__CENTRO_13910-017", "LMAPS": "https://www.google.com/maps?q=&layer=c&cbll=-22.633414,-47.0547247", "O_QUE_FAZER": "APLICAR T2", "ER_REGIAO_CIDADE_min": "Holambra_Campinas" }, "geometry": { "type": "Point", "coordinates": [ -47.0547247, -22.633414 ] } },
{ "type": "Feature", "properties": { "fid": 176452, "CNPJ": "33700602000100", "IDCIDADE": "HOLAMBRA", "NOMEFANTASIA": "LIMA_NE_RINALDI", "RAZAOSOCIAL": "LIMA_NE_RINALDI_LTDA", "ENDEE": "ESTRADA HBR 167, 935, SALA 2003 B COND COMPLEXO ROYAL TULIPBLOCO TORRE B, ANGICO, 13825-000, HOLAMBRA, SP, BRASIL", "LMAPS": "https://www.google.com/maps?q=&layer=c&cbll=-22.6273804,-47.0493851", "O_QUE_FAZER": "CARTEIRA - FAMPE", "ER_REGIAO_CIDADE_min": "Holambra_Campinas" }, "geometry": { "type": "Point", "coordinates": [ -47.0493851, -22.6273804 ] } },
{ "type": "Feature", "properties": { "fid": 177388, "CNPJ": "33872704000103", "IDCIDADE": "HOLAMBRA", "NOMEFANTASIA": "LUBELA_OPTICA_LTDA", "RAZAOSOCIAL": "LUBELA_OPTICA_LTDA", "ENDEE": "RUA_ROTA_DOS_IMIGRANTES592__CENTRO_13825-067", "LMAPS": "https://www.google.com/maps?q=&layer=c&cbll=-22.6331773,-47.0537037", "O_QUE_FAZER": "CARTEIRA", "ER_REGIAO_CIDADE_min": "Holambra_Campinas" }, "geometry": { "type": "Point", "coordinates": [ -47.0537037, -22.6331773 ] } },
{ "type": "Feature", "properties": { "fid": 180112, "CNPJ": "34411695000116", "IDCIDADE": "HOLAMBRA", "NOMEFANTASIA": "VORSELEN_CORRETORA_DE_SEGUROS", "RAZAOSOCIAL": "VORSELEN_CORRETORA_DE_SEGUROS_LTDA", "ENDEE": "RUA_ROTA_DOS_IMIGRANTES640__CENTRO_13825-067", "LMAPS": "https://www.google.com/maps?q=&layer=c&cbll=-22.63321,-47.0526767", "O_QUE_FAZER": "CARTEIRA", "ER_REGIAO_CIDADE_min": "Holambra_Campinas" }, "geometry": { "type": "Point", "coordinates": [ -47.0526767, -22.63321 ] } },
{ "type": "Feature", "properties": { "fid": 181067, "CNPJ": "34605546000198", "IDCIDADE": "HOLAMBRA", "NOMEFANTASIA": "CA_CONTABILIDADE", "RAZAOSOCIAL": "CARVALHO_&_ALMEIDA_CONTABILIDADE_E_ASSESSORIA_CONTABIL_LTDA", "ENDEE": "AVENIDA_DAS_TULIPAS86__CENTRO_13825-089", "LMAPS": "https://www.google.com/maps?q=&layer=c&cbll=-22.6336077,-47.053175", "O_QUE_FAZER": "CARTEIRA", "ER_REGIAO_CIDADE_min": "Holambra_Campinas" }, "geometry": { "type": "Point", "coordinates": [ -47.053175, -22.6336077 ] } },
{ "type": "Feature", "properties": { "fid": 182213, "CNPJ": "34822018000190", "IDCIDADE": "HOLAMBRA", "NOMEFANTASIA": "BIOZONNE_GERADORES_DE_OZONIO_LTDA", "RAZAOSOCIAL": "BIOZONE_AMBIENTAL", "ENDEE": "RUA_SCHELTINGA94__RESIDENCIAL_DOS_IMIGRANTES_13828-328", "LMAPS": "https://www.google.com/maps?q=&layer=c&cbll=-22.6143789,-47.0615036", "O_QUE_FAZER": "FINALIZADO", "ER_REGIAO_CIDADE_min": "Holambra_Campinas" }, "geometry": { "type": "Point", "coordinates": [ -47.0615036, -22.6143789 ] } },
{ "type": "Feature", "properties": { "fid": 183447, "CNPJ": "35065587000100", "IDCIDADE": "HOLAMBRA", "NOMEFANTASIA": "CONSTRUMARCO", "RAZAOSOCIAL": "CONSTRUMARCO_COMERCIO_DE_MATERIAIS_DE_CONSTRUCAO_LTDA", "ENDEE": "AVENIDA PRIMULAS, 1066, GIRASSOIS DE HOLANDA, 13825-000, HOLAMBRA, SP, BRASIL", "LMAPS": "https://www.google.com/maps?q=&layer=c&cbll=-22.6271461,-47.0507022", "O_QUE_FAZER": "CARTEIRA - FAMPE", "ER_REGIAO_CIDADE_min": "Holambra_Campinas" }, "geometry": { "type": "Point", "coordinates": [ -47.0507022, -22.6271461 ] } },
{ "type": "Feature", "properties": { "fid": 183670, "CNPJ": "35107480000179", "IDCIDADE": "HOLAMBRA", "NOMEFANTASIA": "LEKKER_DOCES_E_SALGADOS", "RAZAOSOCIAL": "LEKKER_CONFEITARIA_E_COMERCIO_DE_ALIMENTOS_LTDA", "ENDEE": "RUA_DORIA_VASCONCELOS253__CENTRO_13825-065", "LMAPS": "https://www.google.com/maps?q=&layer=c&cbll=-22.6310168,-47.0528679", "O_QUE_FAZER": "CARTEIRA", "ER_REGIAO_CIDADE_min": "Holambra_Campinas" }, "geometry": { "type": "Point", "coordinates": [ -47.0528679, -22.6310168 ] } },
{ "type": "Feature", "properties": { "fid": 183890, "CNPJ": "35156034000154", "IDCIDADE": "HOLAMBRA", "NOMEFANTASIA": "SHELLTER_HOTEL", "RAZAOSOCIAL": "M_&_R_HOTELARIA_LTDA", "ENDEE": "AVENIDA_DAS_TULIPAS57__CENTRO_13825-000", "LMAPS": "https://www.google.com/maps?q=&layer=c&cbll=-22.6336416,-47.0528738", "O_QUE_FAZER": "CARTEIRA", "ER_REGIAO_CIDADE_min": "Holambra_Campinas" }, "geometry": { "type": "Point", "coordinates": [ -47.0528738, -22.6336416 ] } },
{ "type": "Feature", "properties": { "fid": 188235, "CNPJ": "36131628000173", "IDCIDADE": "HOLAMBRA", "NOMEFANTASIA": "LATO_COMEX", "RAZAOSOCIAL": "LATO_IMPORTACAO_E_EXPORTACAO_LTDA", "ENDEE": "RUA ROTA DOS IMIGRANTES, 485, SALA 105, CENTRO, 13825-067, HOLAMBRA, SP, BRASIL", "LMAPS": "https://www.google.com/maps?q=&layer=c&cbll=-22.6330866,-47.0545831", "O_QUE_FAZER": "CARTEIRA - FAMPE", "ER_REGIAO_CIDADE_min": "Holambra_Campinas" }, "geometry": { "type": "Point", "coordinates": [ -47.0545831, -22.6330866 ] } },
{ "type": "Feature", "properties": { "fid": 188776, "CNPJ": "36243942000148", "IDCIDADE": "HOLAMBRA", "NOMEFANTASIA": "ELLO_PRESENTES", "RAZAOSOCIAL": "ELLOISE_PRESENTES_LTDA", "ENDEE": "RUA_ROTA_DOS_IMIGRANTES460__CENTRO_13825-000", "LMAPS": "https://www.google.com/maps?q=&layer=c&cbll=-22.6334507,-47.0550195", "O_QUE_FAZER": "CARTEIRA", "ER_REGIAO_CIDADE_min": "Holambra_Campinas" }, "geometry": { "type": "Point", "coordinates": [ -47.0550195, -22.6334507 ] } },
{ "type": "Feature", "properties": { "fid": 190042, "CNPJ": "36503567000128", "IDCIDADE": "HOLAMBRA", "NOMEFANTASIA": "DU_CHEF", "RAZAOSOCIAL": "MONTREZOL_ALIMENTOS_LTDA", "ENDEE": "RUA_DAS_AZALEIAS667__MORADA_DAS_FLORES_13825-000", "LMAPS": "https://www.google.com/maps?q=&layer=c&cbll=-22.6404122,-47.052463", "O_QUE_FAZER": "CARTEIRA", "ER_REGIAO_CIDADE_min": "Holambra_Campinas" }, "geometry": { "type": "Point", "coordinates": [ -47.052463, -22.6404122 ] } },
{ "type": "Feature", "properties": { "fid": 192854, "CNPJ": "37243832000149", "IDCIDADE": "HOLAMBRA", "NOMEFANTASIA": "HOLAMBISTRO", "RAZAOSOCIAL": "DANIEL_SORIANO_RESTAURANTE", "ENDEE": "RUA_CAMPO_DE_POUSO1162__CENTRO_13825-000", "LMAPS": "https://www.google.com/maps?q=&layer=c&cbll=-22.6316719,-47.0518473", "O_QUE_FAZER": "CARTEIRA", "ER_REGIAO_CIDADE_min": "Holambra_Campinas" }, "geometry": { "type": "Point", "coordinates": [ -47.0518473, -22.6316719 ] } },
{ "type": "Feature", "properties": { "fid": 194721, "CNPJ": "37641246000152", "IDCIDADE": "HOLAMBRA", "NOMEFANTASIA": "SORRISO_&_SAUDE", "RAZAOSOCIAL": "TATIANA_MEULMAN_LEITE_BORTOLACI", "ENDEE": "RUA_IRIS61__CENTRO_13825-000", "LMAPS": "https://www.google.com/maps?q=&layer=c&cbll=-22.6332183,-47.0591505", "O_QUE_FAZER": "CARTEIRA", "ER_REGIAO_CIDADE_min": "Holambra_Campinas" }, "geometry": { "type": "Point", "coordinates": [ -47.0591505, -22.6332183 ] } },
{ "type": "Feature", "properties": { "fid": 195050, "CNPJ": "37699422000107", "IDCIDADE": "HOLAMBRA", "NOMEFANTASIA": "REQUINTE_DECOR", "RAZAOSOCIAL": "MATIELLO_MOVEIS_E_DECORACOES_LTDA", "ENDEE": "RUA_ROTA_DOS_IMIGRANTES1301__CENTRO_13825-067", "LMAPS": "https://www.google.com/maps?q=&layer=c&cbll=-22.634318,-47.0452277", "O_QUE_FAZER": "CARTEIRA", "ER_REGIAO_CIDADE_min": "Holambra_Campinas" }, "geometry": { "type": "Point", "coordinates": [ -47.0452277, -22.634318 ] } },
{ "type": "Feature", "properties": { "fid": 196191, "CNPJ": "37905374000166", "IDCIDADE": "HOLAMBRA", "NOMEFANTASIA": "HOLAMED_HOLAMBRA", "RAZAOSOCIAL": "HOLAMED_CLINICA_MEDICA_LTDA", "ENDEE": "RUA_CAMPO_DAS_PALMAS164__CENTRO_13825-000", "LMAPS": "https://www.google.com/maps?q=&layer=c&cbll=-22.6282909,-47.049487", "O_QUE_FAZER": "CARTEIRA", "ER_REGIAO_CIDADE_min": "Holambra_Campinas" }, "geometry": { "type": "Point", "coordinates": [ -47.049487, -22.6282909 ] } },
{ "type": "Feature", "properties": { "fid": 196872, "CNPJ": "38026301000167", "IDCIDADE": "HOLAMBRA", "NOMEFANTASIA": "LOJA_SANTANA", "RAZAOSOCIAL": "LUCRECIA_SIA_DE_SANTANA_GARCINO", "ENDEE": "RUA_CAMPO_DE_POUSO612__CENTRO_13825-000", "LMAPS": "https://www.google.com/maps?q=&layer=c&cbll=-22.6327333,-47.0568483", "O_QUE_FAZER": "CARTEIRA", "ER_REGIAO_CIDADE_min": "Holambra_Campinas" }, "geometry": { "type": "Point", "coordinates": [ -47.0568483, -22.6327333 ] } },
{ "type": "Feature", "properties": { "fid": 201225, "CNPJ": "39422254000133", "IDCIDADE": "HOLAMBRA", "NOMEFANTASIA": "PADARIA_PAO_DE_SAL", "RAZAOSOCIAL": "NOGUEIRA_VILELA_PADARIA_LTDA", "ENDEE": "RUA_DAS_DALIAS436__JARDIM_DAS_TULIPAS_13825-000", "LMAPS": "https://www.google.com/maps?q=&layer=c&cbll=-22.6415136,-47.0492964", "O_QUE_FAZER": "CARTEIRA", "ER_REGIAO_CIDADE_min": "Holambra_Campinas" }, "geometry": { "type": "Point", "coordinates": [ -47.0492964, -22.6415136 ] } },
{ "type": "Feature", "properties": { "fid": 203360, "CNPJ": "39875609000140", "IDCIDADE": "HOLAMBRA", "NOMEFANTASIA": "OP!_GELATWRIA", "RAZAOSOCIAL": "BARBOSA_E_WAGEMAKER_COMERCIO_DE_ALIMENTOS_LTDA", "ENDEE": "RUA_CAMPO_DO_POUSO1239__CENTRO_13825-063", "LMAPS": "https://www.google.com/maps?q=&layer=c&cbll=-22.6313017,-47.0509283", "O_QUE_FAZER": "CARTEIRA", "ER_REGIAO_CIDADE_min": "Holambra_Campinas" }, "geometry": { "type": "Point", "coordinates": [ -47.0509283, -22.6313017 ] } },
{ "type": "Feature", "properties": { "fid": 207897, "CNPJ": "41023429000181", "IDCIDADE": "HOLAMBRA", "NOMEFANTASIA": "ESSENCIAL_NUTRY", "RAZAOSOCIAL": "M.P._LOPES_ESSENCIAL_MERCADO_SAUDAVEL", "ENDEE": "RUA_CENTAUREAS219__JARDIM_MORADA_DAS_FLORES_13825-000", "LMAPS": "https://www.google.com/maps?q=&layer=c&cbll=-22.640299,-47.0515716", "O_QUE_FAZER": "CARTEIRA", "ER_REGIAO_CIDADE_min": "Holambra_Campinas" }, "geometry": { "type": "Point", "coordinates": [ -47.0515716, -22.640299 ] } },
{ "type": "Feature", "properties": { "fid": 208434, "CNPJ": "41161794000152", "IDCIDADE": "HOLAMBRA", "NOMEFANTASIA": "S_T_DESPACHANTES", "RAZAOSOCIAL": "SILVA_&_TRENTIN_DESPACHANTES_S/S_LTDA", "ENDEE": "RUA_ANTONIO_DAMASIO_FILIPINI188__CENTRO_13825-000", "LMAPS": "https://www.google.com/maps?q=&layer=c&cbll=-22.6338636,-47.0541808", "O_QUE_FAZER": "CARTEIRA", "ER_REGIAO_CIDADE_min": "Holambra_Campinas" }, "geometry": { "type": "Point", "coordinates": [ -47.0541808, -22.6338636 ] } },
{ "type": "Feature", "properties": { "fid": 209917, "CNPJ": "41577174000107", "IDCIDADE": "HOLAMBRA", "NOMEFANTASIA": "TROPICAL_JEANS", "RAZAOSOCIAL": "WALLEN_MARCEL_PAES_COMERCIO_DE_ROUPAS_LTDA", "ENDEE": "RUA_ROTA_DOS_IMIGRANTES620__CENTRO_13825-067", "LMAPS": "https://www.google.com/maps?q=&layer=c&cbll=-22.6331461,-47.0534772", "O_QUE_FAZER": "CARTEIRA", "ER_REGIAO_CIDADE_min": "Holambra_Campinas" }, "geometry": { "type": "Point", "coordinates": [ -47.0534772, -22.6331461 ] } },
{ "type": "Feature", "properties": { "fid": 210560, "CNPJ": "41725651000126", "IDCIDADE": "HOLAMBRA", "NOMEFANTASIA": "DIVINA_ALIMENTOS_SAUDAVEIS", "RAZAOSOCIAL": "DIVINA_ALIMENTOS_SAUDAVEIS_LTDA", "ENDEE": "RUA_ROTA_DOS_IMIGRANTES638__CENTRO_13825-067", "LMAPS": "https://www.google.com/maps?q=&layer=c&cbll=-22.6331574,-47.0529203", "O_QUE_FAZER": "CARTEIRA", "ER_REGIAO_CIDADE_min": "Holambra_Campinas" }, "geometry": { "type": "Point", "coordinates": [ -47.0529203, -22.6331574 ] } },
{ "type": "Feature", "properties": { "fid": 211115, "CNPJ": "41843361000187", "IDCIDADE": "HOLAMBRA", "NOMEFANTASIA": "DESPACHANTE_TRENTIN_LTDA", "RAZAOSOCIAL": "DESPACHANTE_TRENTIN_LTDA", "ENDEE": "RUA_ROTA_DOS_IMIGRANTES534__CENTRO_13825-067", "LMAPS": "https://www.google.com/maps?q=&layer=c&cbll=-22.6332511,-47.0541082", "O_QUE_FAZER": "CARTEIRA", "ER_REGIAO_CIDADE_min": "Holambra_Campinas" }, "geometry": { "type": "Point", "coordinates": [ -47.0541082, -22.6332511 ] } },
{ "type": "Feature", "properties": { "fid": 215107, "CNPJ": "42752803000142", "IDCIDADE": "HOLAMBRA", "NOMEFANTASIA": "DE_PIZZA_BAKKER", "RAZAOSOCIAL": "RGA_PIZZARIA_LTDA", "ENDEE": "RUA_CAMPO_DE_POUSO1239__CENTRO_13825-000", "LMAPS": "https://www.google.com/maps?q=&layer=c&cbll=-22.6311053,-47.050862", "O_QUE_FAZER": "CARTEIRA", "ER_REGIAO_CIDADE_min": "Holambra_Campinas" }, "geometry": { "type": "Point", "coordinates": [ -47.050862, -22.6311053 ] } },
{ "type": "Feature", "properties": { "fid": 217740, "CNPJ": "43298278000108", "IDCIDADE": "HOLAMBRA", "NOMEFANTASIA": "DEPOSITO_AGUA_LEVE", "RAZAOSOCIAL": "AGUA_LEVE_LTDA", "ENDEE": "RUA_ANTONIO_DAMASIO_FILIPINI221__CENTRO_13825-000", "LMAPS": "https://www.google.com/maps?q=&layer=c&cbll=-22.6335916,-47.053795", "O_QUE_FAZER": "CARTEIRA", "ER_REGIAO_CIDADE_min": "Holambra_Campinas" }, "geometry": { "type": "Point", "coordinates": [ -47.053795, -22.6335916 ] } },
{ "type": "Feature", "properties": { "fid": 220587, "CNPJ": "43877347000120", "IDCIDADE": "HOLAMBRA", "NOMEFANTASIA": "LUPO", "RAZAOSOCIAL": "A._G._WAGEMAKER_&_FILHOS_LTDA", "ENDEE": "RUA_ROTA_DOS_IMIGRANTES470__CENTRO_13825-000", "LMAPS": "https://www.google.com/maps?q=&layer=c&cbll=-22.6334657,-47.0550079", "O_QUE_FAZER": "CARTEIRA", "ER_REGIAO_CIDADE_min": "Holambra_Campinas" }, "geometry": { "type": "Point", "coordinates": [ -47.0550079, -22.6334657 ] } },
{ "type": "Feature", "properties": { "fid": 224282, "CNPJ": "44625452000134", "IDCIDADE": "HOLAMBRA", "NOMEFANTASIA": "CERVEJARIA_HALAMBIER", "RAZAOSOCIAL": "HOLAMBIER_LTDA", "ENDEE": "RUA_ROTA_DOS_IMIGRANTES653__CENTRO_13825-067", "LMAPS": "https://www.google.com/maps?q=&layer=c&cbll=-22.6328331,-47.0523668", "O_QUE_FAZER": "CARTEIRA", "ER_REGIAO_CIDADE_min": "Holambra_Campinas" }, "geometry": { "type": "Point", "coordinates": [ -47.0523668, -22.6328331 ] } },
{ "type": "Feature", "properties": { "fid": 227469, "CNPJ": "45343499000178", "IDCIDADE": "HOLAMBRA", "NOMEFANTASIA": "CENTRO_AUTOMOTIVO_PARANA", "RAZAOSOCIAL": "CENTRO_AUTOMOTIVO_LEANDRO_PARANA_LTDA", "ENDEE": "RUA_AGERATO36__PARQUE_RESIDENCIAL_GROOT_13825-000", "LMAPS": "https://www.google.com/maps?q=&layer=c&cbll=-22.6426282,-47.0539532", "O_QUE_FAZER": "CARTEIRA", "ER_REGIAO_CIDADE_min": "Holambra_Campinas" }, "geometry": { "type": "Point", "coordinates": [ -47.0539532, -22.6426282 ] } },
{ "type": "Feature", "properties": { "fid": 228899, "CNPJ": "45670300000116", "IDCIDADE": "HOLAMBRA", "NOMEFANTASIA": "DE_IMMIGRANT_CAFETERIA", "RAZAOSOCIAL": "DE_IMMIGRANT_CAFETERIA_LTDA.", "ENDEE": "RUA_DORIA_VASCONCELOS293__CENTRO_13825-000", "LMAPS": "https://www.google.com/maps?q=&layer=c&cbll=-22.6306404,-47.0528775", "O_QUE_FAZER": "CARTEIRA - FAMPE", "ER_REGIAO_CIDADE_min": "Holambra_Campinas" }, "geometry": { "type": "Point", "coordinates": [ -47.0528775, -22.6306404 ] } },
{ "type": "Feature", "properties": { "fid": 230993, "CNPJ": "46055113000195", "IDCIDADE": "HOLAMBRA", "NOMEFANTASIA": "OBELISCO_GELATERIA_HOLAMBRA", "RAZAOSOCIAL": "OBELISCO_GELATERIA_HOLAMBRA_LTDA", "ENDEE": "RUA_DORIA_VASCONCELOS152__CENTRO_13825-065", "LMAPS": "https://www.google.com/maps?q=&layer=c&cbll=-22.6320664,-47.0524402", "O_QUE_FAZER": "CARTEIRA", "ER_REGIAO_CIDADE_min": "Holambra_Campinas" }, "geometry": { "type": "Point", "coordinates": [ -47.0524402, -22.6320664 ] } },
{ "type": "Feature", "properties": { "fid": 233200, "CNPJ": "46514459000104", "IDCIDADE": "HOLAMBRA", "NOMEFANTASIA": "HOLANDECOR_CORTINAS_E_PERSIANAS", "RAZAOSOCIAL": "HOLANDECOR_CORTINAS_E_PERSIANAS_LTDA", "ENDEE": "RUA_ANTONIO_DAMASIO_FILIPINI137__CENTRO_13825-000", "LMAPS": "https://www.google.com/maps?q=&layer=c&cbll=-22.633761,-47.0546206", "O_QUE_FAZER": "CARTEIRA", "ER_REGIAO_CIDADE_min": "Holambra_Campinas" }, "geometry": { "type": "Point", "coordinates": [ -47.0546206, -22.633761 ] } },
{ "type": "Feature", "properties": { "fid": 234137, "CNPJ": "46704776000193", "IDCIDADE": "HOLAMBRA", "NOMEFANTASIA": "STUDIO_EVOLUCAO", "RAZAOSOCIAL": "STUDIO_EVOLUCAO_LTDA", "ENDEE": "RUA_DAS_DALIAS457__JARDIM_DAS_TULIPAS_13825-000", "LMAPS": "https://www.google.com/maps?q=&layer=c&cbll=-22.6420432,-47.0496033", "O_QUE_FAZER": "CARTEIRA", "ER_REGIAO_CIDADE_min": "Holambra_Campinas" }, "geometry": { "type": "Point", "coordinates": [ -47.0496033, -22.6420432 ] } },
{ "type": "Feature", "properties": { "fid": 234281, "CNPJ": "46733077000171", "IDCIDADE": "HOLAMBRA", "NOMEFANTASIA": "BICICLETARIA_CAPOSSE", "RAZAOSOCIAL": "JOSE_CAPOSSE", "ENDEE": "RUA_ANTONIO_DAMASIO_FILIPINI262__CENTRO_13825-000", "LMAPS": "https://www.google.com/maps?q=&layer=c&cbll=-22.6337146,-47.0535166", "O_QUE_FAZER": "CARTEIRA", "ER_REGIAO_CIDADE_min": "Holambra_Campinas" }, "geometry": { "type": "Point", "coordinates": [ -47.0535166, -22.6337146 ] } },
{ "type": "Feature", "properties": { "fid": 235775, "CNPJ": "47036044000135", "IDCIDADE": "HOLAMBRA", "NOMEFANTASIA": "VILLA_GRILL_HAMBURGUERIA_E_BAR", "RAZAOSOCIAL": "AMM_HAMBURGUERIA_LTDA", "ENDEE": "RUA ROTA DOS IMIGRANTES, 848, VAN GOGH, 13825-150, HOLAMBRA, SP, BRASIL", "LMAPS": "https://www.google.com/maps?q=&layer=c&cbll=-22.6337378,-47.0506703", "O_QUE_FAZER": "CARTEIRA - FAMPE", "ER_REGIAO_CIDADE_min": "Holambra_Campinas" }, "geometry": { "type": "Point", "coordinates": [ -47.0506703, -22.6337378 ] } },
{ "type": "Feature", "properties": { "fid": 239358, "CNPJ": "47787784000103", "IDCIDADE": "HOLAMBRA", "NOMEFANTASIA": "ADEMIR_PEREIRA_DOS_SANTOS_03826955935", "RAZAOSOCIAL": "HOLAM_BRINQUEDOS", "ENDEE": "RUA_ANTONIUS_VAN_DER_BRUGGEN67__MOINHO_RESIDENCIAL_13825-000", "LMAPS": "https://www.google.com/maps?q=&layer=c&cbll=-22.6176145,-47.0639836", "O_QUE_FAZER": "FINALIZADO", "ER_REGIAO_CIDADE_min": "Holambra_Campinas" }, "geometry": { "type": "Point", "coordinates": [ -47.0639836, -22.6176145 ] } },
{ "type": "Feature", "properties": { "fid": 241463, "CNPJ": "48225984000135", "IDCIDADE": "HOLAMBRA", "NOMEFANTASIA": "48.225.984_MARCO_AURELIO_GIACOMINI", "RAZAOSOCIAL": "DE_ALFA_A_OMEGA_EMPREENDIMENTOS_DIGITAIS", "ENDEE": "1086_RURAL319__AREA_RURAL_DE_HOLAMBRA_13829-899", "LMAPS": "https://www.google.com/maps?q=&layer=c&cbll=-22.6273804,-47.0493851", "O_QUE_FAZER": "FINALIZADO", "ER_REGIAO_CIDADE_min": "Holambra_Campinas" }, "geometry": { "type": "Point", "coordinates": [ -47.0493851, -22.6273804 ] } },
{ "type": "Feature", "properties": { "fid": 244627, "CNPJ": "48839922000113", "IDCIDADE": "HOLAMBRA", "NOMEFANTASIA": "MAGAZINE_ALCIONE", "RAZAOSOCIAL": "WAGEMAKER_&_GREGORIO_LTDA", "ENDEE": "RUA_ROTA_DOS_IMIGRANTES397__CENTRO_13825-000", "LMAPS": "https://www.google.com/maps?q=&layer=c&cbll=-22.6333245,-47.0555622", "O_QUE_FAZER": "CARTEIRA", "ER_REGIAO_CIDADE_min": "Holambra_Campinas" }, "geometry": { "type": "Point", "coordinates": [ -47.0555622, -22.6333245 ] } },
{ "type": "Feature", "properties": { "fid": 247194, "CNPJ": "49453765000176", "IDCIDADE": "HOLAMBRA", "NOMEFANTASIA": "CASA_DO_CONSTRUTOR", "RAZAOSOCIAL": "NSC_HOLAMBRA_LOCACAO_DE_EQUIPAMENTOS_LTDA", "ENDEE": "RUA_DAS_CAMELIAS365__CENTRO_13825-000", "LMAPS": "https://www.google.com/maps?q=&layer=c&cbll=-22.629921,-47.049702", "O_QUE_FAZER": "CARTEIRA", "ER_REGIAO_CIDADE_min": "Holambra_Campinas" }, "geometry": { "type": "Point", "coordinates": [ -47.049702, -22.629921 ] } },
{ "type": "Feature", "properties": { "fid": 247219, "CNPJ": "49458829000121", "IDCIDADE": "HOLAMBRA", "NOMEFANTASIA": "PADARIA_SANTA_TEREZINHA", "RAZAOSOCIAL": "WJ_PADARIA_SANTA_TEREZINHA_LTDA", "ENDEE": "RUA_SOLIDAGOS199__MORADA_DAS_FLORES_13825-000", "LMAPS": "https://www.google.com/maps?q=&layer=c&cbll=-22.6396507,-47.0523527", "O_QUE_FAZER": "CARTEIRA", "ER_REGIAO_CIDADE_min": "Holambra_Campinas" }, "geometry": { "type": "Point", "coordinates": [ -47.0523527, -22.6396507 ] } },
{ "type": "Feature", "properties": { "fid": 247262, "CNPJ": "49465274000145", "IDCIDADE": "HOLAMBRA", "NOMEFANTASIA": null, "RAZAOSOCIAL": "TROPICAL_JEANS_HOLAMBRA_LTDA", "ENDEE": "RUA ROTA DOS IMIGRANTES, 620, CENTRO, 13825-067, HOLAMBRA, SP, BRASIL", "LMAPS": "https://www.google.com/maps?q=&layer=c&cbll=-22.6331946,-47.052577", "O_QUE_FAZER": "CARTEIRA - FAMPE", "ER_REGIAO_CIDADE_min": "Holambra_Campinas" }, "geometry": { "type": "Point", "coordinates": [ -47.052577, -22.6331946 ] } },
{ "type": "Feature", "properties": { "fid": 249056, "CNPJ": "49828658000185", "IDCIDADE": "HOLAMBRA", "NOMEFANTASIA": "Carmoaria", "RAZAOSOCIAL": "CARMOARIA_LTDA", "ENDEE": "AVENIDA DAS DALIAS, 723, JARDIM DAS TULIPAS, 13827-070, HOLAMBRA, SP, BRASIL", "LMAPS": "https://www.google.com/maps?q=&layer=c&cbll=-22.6423089,-47.0521193", "O_QUE_FAZER": "CARTEIRA - FAMPE", "ER_REGIAO_CIDADE_min": "Holambra_Campinas" }, "geometry": { "type": "Point", "coordinates": [ -47.0521193, -22.6423089 ] } },
{ "type": "Feature", "properties": { "fid": 255476, "CNPJ": "51082500000150", "IDCIDADE": "HOLAMBRA", "NOMEFANTASIA": "SILVA_LOCADORA", "RAZAOSOCIAL": "SILVA_LOCADORA_DE_VEICULOS_LTDA", "ENDEE": "RUA_DAS_DALIAS699__JARDIM_DAS_TULIPAS_13825-000", "LMAPS": "https://www.google.com/maps?q=&layer=c&cbll=-22.6424169,-47.0517414", "O_QUE_FAZER": "CARTEIRA", "ER_REGIAO_CIDADE_min": "Holambra_Campinas" }, "geometry": { "type": "Point", "coordinates": [ -47.0517414, -22.6424169 ] } },
{ "type": "Feature", "properties": { "fid": 256542, "CNPJ": "51291963000122", "IDCIDADE": "HOLAMBRA", "NOMEFANTASIA": "51.291.963_ANDREA_CONTI_SERAPHIM", "RAZAOSOCIAL": "ANDREA_CONTI_SERAPHIM", "ENDEE": "ALAMEDA_PALMEIRA_GERIVA324__PALM_PARK_13828-104", "LMAPS": "https://www.google.com/maps?q=&layer=c&cbll=-22.6240875,-47.0473554", "O_QUE_FAZER": "FINALIZADO", "ER_REGIAO_CIDADE_min": "Holambra_Campinas" }, "geometry": { "type": "Point", "coordinates": [ -47.0473554, -22.6240875 ] } },
{ "type": "Feature", "properties": { "fid": 259763, "CNPJ": "51937434000153", "IDCIDADE": "HOLAMBRA", "NOMEFANTASIA": "DALRI_HAMBURGUERIA", "RAZAOSOCIAL": "F_S_S_AMARAL_LANCHONETE_LTDA", "ENDEE": "AVENIDA_DAS_TULIPAS44__CENTRO_13825-089", "LMAPS": "https://www.google.com/maps?q=&layer=c&cbll=-22.6333233,-47.0531668", "O_QUE_FAZER": "CARTEIRA", "ER_REGIAO_CIDADE_min": "Holambra_Campinas" }, "geometry": { "type": "Point", "coordinates": [ -47.0531668, -22.6333233 ] } },
{ "type": "Feature", "properties": { "fid": 260246, "CNPJ": "52030139000181", "IDCIDADE": "HOLAMBRA", "NOMEFANTASIA": "VANILLA_ICE_SORVETERIA", "RAZAOSOCIAL": "VANILLA_ICE_SORVETERIA_LTDA", "ENDEE": "AVENIDA_DAS_TULIPAS93__CENTRO_13825-089", "LMAPS": "https://www.google.com/maps?q=&layer=c&cbll=-22.6338467,-47.0529384", "O_QUE_FAZER": "CARTEIRA", "ER_REGIAO_CIDADE_min": "Holambra_Campinas" }, "geometry": { "type": "Point", "coordinates": [ -47.0529384, -22.6338467 ] } },
{ "type": "Feature", "properties": { "fid": 264048, "CNPJ": "52817706000144", "IDCIDADE": "HOLAMBRA", "NOMEFANTASIA": "CMM_FOODS_COMERCIO_DE_ALIMENTOS_LTDA", "RAZAOSOCIAL": "CMM_FOODS", "ENDEE": "RUA_HELIANTO207__JARDIM_DAS_TULIPAS_13827-078", "LMAPS": "https://www.google.com/maps?q=&layer=c&cbll=-22.6430757,-47.0499984", "O_QUE_FAZER": "FINALIZADO", "ER_REGIAO_CIDADE_min": "Holambra_Campinas" }, "geometry": { "type": "Point", "coordinates": [ -47.0499984, -22.6430757 ] } },
{ "type": "Feature", "properties": { "fid": 271016, "CNPJ": "54403322000100", "IDCIDADE": "HOLAMBRA", "NOMEFANTASIA": "-", "RAZAOSOCIAL": "54.403.322_JEREMIAS_BESERRA_AVELINO", "ENDEE": "RUA CAMPO DO POUSO, 826, CENTRO, 13825-063, HOLAMBRA, SP, BRASIL", "LMAPS": "https://www.google.com/maps?q=&layer=c&cbll=-22.6323803,-47.0549204", "O_QUE_FAZER": "CARTEIRA - FAMPE", "ER_REGIAO_CIDADE_min": "Holambra_Campinas" }, "geometry": { "type": "Point", "coordinates": [ -47.0549204, -22.6323803 ] } },
{ "type": "Feature", "properties": { "fid": 281930, "CNPJ": "57430748000141", "IDCIDADE": "HOLAMBRA", "NOMEFANTASIA": "DIEGOLI_CHOCOLATE_E_CAFE", "RAZAOSOCIAL": "DIEGOLI_CHOCOLATE_E_CAFE_LTDA", "ENDEE": "RUA_DORIA_VASCONCELOS243__CENTRO_13825-065", "LMAPS": "https://www.google.com/maps?q=&layer=c&cbll=-22.6311973,-47.0527923", "O_QUE_FAZER": "CARTEIRA", "ER_REGIAO_CIDADE_min": "Holambra_Campinas" }, "geometry": { "type": "Point", "coordinates": [ -47.0527923, -22.6311973 ] } },
{ "type": "Feature", "properties": { "fid": 286299, "CNPJ": "58731993000151", "IDCIDADE": "HOLAMBRA", "NOMEFANTASIA": "AXE_COMERCIAL_AGRICOLA", "RAZAOSOCIAL": "AXE_COMERCIAL_AGRICOLA_LTDA", "ENDEE": "RUA_CAMPO_DO_POUSO1126__CENTRO_13825-063", "LMAPS": "https://www.google.com/maps?q=&layer=c&cbll=-22.6317244,-47.0518513", "O_QUE_FAZER": "CARTEIRA", "ER_REGIAO_CIDADE_min": "Holambra_Campinas" }, "geometry": { "type": "Point", "coordinates": [ -47.0518513, -22.6317244 ] } },
{ "type": "Feature", "properties": { "fid": 287099, "CNPJ": "59014936000114", "IDCIDADE": "HOLAMBRA", "NOMEFANTASIA": "CGO_ASSESSORIA_EM_COMERCIO_EXTERIOR", "RAZAOSOCIAL": "CGO_ASSESSORIA_EM_COMERCIO_EXTERIOR_LTDA", "ENDEE": "RUA_VERBENIAS36__CENTRO_13825-000", "LMAPS": "https://www.google.com/maps?q=&layer=c&cbll=-22.6289875,-47.0514741", "O_QUE_FAZER": "CARTEIRA", "ER_REGIAO_CIDADE_min": "Holambra_Campinas" }, "geometry": { "type": "Point", "coordinates": [ -47.0514741, -22.6289875 ] } },
{ "type": "Feature", "properties": { "fid": 295627, "CNPJ": "61937850000105", "IDCIDADE": "HOLAMBRA", "NOMEFANTASIA": "DROGARIA_SANTA_HELENA_DE_HOLAMBRA", "RAZAOSOCIAL": "DROGARIA_SANTA_HELENA_DE_HOLAMBRA_LTDA.", "ENDEE": "RUA_ROTA_DOS_IMIGRANTES490__CENTRO_13825-000", "LMAPS": "https://www.google.com/maps?q=&layer=c&cbll=-22.6333611,-47.0547194", "O_QUE_FAZER": "CARTEIRA", "ER_REGIAO_CIDADE_min": "Holambra_Campinas" }, "geometry": { "type": "Point", "coordinates": [ -47.0547194, -22.6333611 ] } },
{ "type": "Feature", "properties": { "fid": 302470, "CNPJ": "65618837000144", "IDCIDADE": "HOLAMBRA", "NOMEFANTASIA": "AGROPEAVES", "RAZAOSOCIAL": "RUBENS_ANTONIO_AGROPECUARIA", "ENDEE": "RUA_DOUTOR_JORGE_LATOUR228__CENTRO_13825-073", "LMAPS": "https://www.google.com/maps?q=&layer=c&cbll=-22.6331798,-47.0565225", "O_QUE_FAZER": "CARTEIRA", "ER_REGIAO_CIDADE_min": "Holambra_Campinas" }, "geometry": { "type": "Point", "coordinates": [ -47.0565225, -22.6331798 ] } },
{ "type": "Feature", "properties": { "fid": 306128, "CNPJ": "67444018000153", "IDCIDADE": "HOLAMBRA", "NOMEFANTASIA": "SABOR_&_ARTE", "RAZAOSOCIAL": "SABOR_&_ARTE_SORVETERIA_E_CONFEITARIA_LTDA", "ENDEE": "RUA_ROTA_DOS_IMIGRANTES450__CENTRO_13825-000", "LMAPS": "https://www.google.com/maps?q=&layer=c&cbll=-22.6333772,-47.0552562", "O_QUE_FAZER": "CARTEIRA", "ER_REGIAO_CIDADE_min": "Holambra_Campinas" }, "geometry": { "type": "Point", "coordinates": [ -47.0552562, -22.6333772 ] } },
{ "type": "Feature", "properties": { "fid": 309072, "CNPJ": "69311397000139", "IDCIDADE": "HOLAMBRA", "NOMEFANTASIA": "TRATTERIE_HOLANDESA", "RAZAOSOCIAL": "MARCEL_PATRICK_BIJKERK", "ENDEE": "RUA_DAS_CAMELIAS317__CENTRO_13825-000", "LMAPS": "https://www.google.com/maps?q=&layer=c&cbll=-22.629939,-47.0499842", "O_QUE_FAZER": "CARTEIRA", "ER_REGIAO_CIDADE_min": "Holambra_Campinas" }, "geometry": { "type": "Point", "coordinates": [ -47.0499842, -22.629939 ] } },
{ "type": "Feature", "properties": { "fid": 311079, "CNPJ": "74306598000188", "IDCIDADE": "HOLAMBRA", "NOMEFANTASIA": "CANTINA_DA_OMA", "RAZAOSOCIAL": "CANTINA_DA_OMA_BAR_E_LANCHONETE_LTDA", "ENDEE": "RODOVIA_SP_1070__ZONA_RURAL_13825-000", "LMAPS": "https://www.google.com/maps?q=&layer=c&cbll=-22.627935,-47.0297484", "O_QUE_FAZER": "CARTEIRA", "ER_REGIAO_CIDADE_min": "Holambra_Campinas" }, "geometry": { "type": "Point", "coordinates": [ -47.0297484, -22.627935 ] } }
]
}
