{
"type": "FeatureCollection",
"name": "ER_REGIAO_CIDADE_min_Praia Grande_Solemar_Baixada Santista",
"crs": { "type": "name", "properties": { "name": "urn:ogc:def:crs:OGC:1.3:CRS84" } },
"xy_coordinate_resolution": 1e-15,
"features": [
{ "type": "Feature", "properties": { "fid": 4659, "CNPJ": "00964333000130", "IDCIDADE": "PRAIA_GRANDE", "NOMEFANTASIA": "RESTAURANTE_E_PIZZARIA_MASCOTE", "RAZAOSOCIAL": "PIZZARIA_E_CHOPERIA_MASCOTE_LTDA", "ENDEE": "AVENIDA_PRESIDENTE_KENNEDY738__REAL_11708-207", "LMAPS": "https://www.google.com/maps?q=&layer=c&cbll=-24.0722924,-46.5792626", "O_QUE_FAZER": "CARTEIRA", "ER_REGIAO_CIDADE_min": "Praia Grande_Solemar_Baixada Santista" }, "geometry": { "type": "Point", "coordinates": [ -46.5792626, -24.0722924 ] } },
{ "type": "Feature", "properties": { "fid": 10405, "CNPJ": "02136001000193", "IDCIDADE": "PRAIA_GRANDE", "NOMEFANTASIA": "POP'S_MODAS", "RAZAOSOCIAL": "JUSSARA_ALVES_DE_ALMEIDA", "ENDEE": "RUA_ITIBERE_DA_CUNHA59__ESMERALDA_11713-160", "LMAPS": "https://www.google.com/maps?q=&layer=c&cbll=-24.0297353,-46.5229894", "O_QUE_FAZER": "CARTEIRA", "ER_REGIAO_CIDADE_min": "Praia Grande_Solemar_Baixada Santista" }, "geometry": { "type": "Point", "coordinates": [ -46.5229894, -24.0297353 ] } },
{ "type": "Feature", "properties": { "fid": 10979, "CNPJ": "02237520000148", "IDCIDADE": "PRAIA GRANDE", "NOMEFANTASIA": "PRATA_MATERIAIS_PARA_CONSTRUCAO", "RAZAOSOCIAL": "PLAST-REAL_COMERCIO_DE_MATERIAIS_PARA_CONSTRUCAO_LTDA", "ENDEE": "AVENIDA DIAMANTINO CRUZ FERREIRA MOURAO, 16308, LOJA 16332, PRINCESA, 11711-125, PRAIA GRANDE, SP, BRASIL", "LMAPS": "https://www.google.com/maps?q=&layer=c&cbll=-24.0567272,-46.5538855", "O_QUE_FAZER": "CARTEIRA - FAMPE", "ER_REGIAO_CIDADE_min": "Praia Grande_Solemar_Baixada Santista" }, "geometry": { "type": "Point", "coordinates": [ -46.5538855, -24.0567272 ] } },
{ "type": "Feature", "properties": { "fid": 13193, "CNPJ": "02673351000270", "IDCIDADE": "PRAIA_GRANDE", "NOMEFANTASIA": "FARMACIA_HOLISTICA", "RAZAOSOCIAL": "FARMACIA_HOLISTICA_LTDA", "ENDEE": "AVENIDA_PRESIDENTE_KENNEDY13080__CAICARA_11707-005", "LMAPS": "https://www.google.com/maps?q=&layer=c&cbll=-24.0470842,-46.5304699", "O_QUE_FAZER": "CARTEIRA", "ER_REGIAO_CIDADE_min": "Praia Grande_Solemar_Baixada Santista" }, "geometry": { "type": "Point", "coordinates": [ -46.5304699, -24.0470842 ] } },
{ "type": "Feature", "properties": { "fid": 16126, "CNPJ": "03165185000182", "IDCIDADE": "PRAIA_GRANDE", "NOMEFANTASIA": "FEDERAL_SECURITY", "RAZAOSOCIAL": "S._G._DE_SOUZA_-_PRAIA_GRANDE", "ENDEE": "AVENIDA_PRESIDENTE_KENNEDY933__REAL_11709-005", "LMAPS": "https://www.google.com/maps?q=&layer=c&cbll=-24.0699865,-46.5745604", "O_QUE_FAZER": "CARTEIRA", "ER_REGIAO_CIDADE_min": "Praia Grande_Solemar_Baixada Santista" }, "geometry": { "type": "Point", "coordinates": [ -46.5745604, -24.0699865 ] } },
{ "type": "Feature", "properties": { "fid": 17911, "CNPJ": "03451282000131", "IDCIDADE": "PRAIA_GRANDE", "NOMEFANTASIA": "RESTAURANTE_SELMAR", "RAZAOSOCIAL": "SELMA_DAS_GRACAS_ALVES_FORNEIRO", "ENDEE": "AVENIDA_PRESIDENTE_KENNEDY14735__REAL_11708-000", "LMAPS": "https://www.google.com/maps?q=&layer=c&cbll=-24.0541029,-46.5448722", "O_QUE_FAZER": "CARTEIRA", "ER_REGIAO_CIDADE_min": "Praia Grande_Solemar_Baixada Santista" }, "geometry": { "type": "Point", "coordinates": [ -46.5448722, -24.0541029 ] } },
{ "type": "Feature", "properties": { "fid": 23310, "CNPJ": "04307506000107", "IDCIDADE": "PRAIA_GRANDE", "NOMEFANTASIA": "AVEIRO_IMOVEIS", "RAZAOSOCIAL": "EMPREENDIMENTOS_IMOBILIARIOS_AVEIRO_DE_PRAIA_GRANDE_LTDA", "ENDEE": "RUA_BENEDITO_LACERDA299__SOLEMAR_11709-120", "LMAPS": "https://www.google.com/maps?q=&layer=c&cbll=-24.0764702,-46.5860721", "O_QUE_FAZER": "CARTEIRA", "ER_REGIAO_CIDADE_min": "Praia Grande_Solemar_Baixada Santista" }, "geometry": { "type": "Point", "coordinates": [ -46.5860721, -24.0764702 ] } },
{ "type": "Feature", "properties": { "fid": 27940, "CNPJ": "04975568000189", "IDCIDADE": "PRAIA_GRANDE", "NOMEFANTASIA": "ADEGA_NOVA_VIDA", "RAZAOSOCIAL": "JAIME_PEREIRA_DOS_SANTOS_PRAIA_GRANDE", "ENDEE": "AVENIDA_DIAMANTINO_CRUZ_FERREIRA_MOURAO27238__SAMAMBAIA_11714-630", "LMAPS": "https://www.google.com/maps?q=&layer=c&cbll=-24.0371532,-46.5178131", "O_QUE_FAZER": "CARTEIRA", "ER_REGIAO_CIDADE_min": "Praia Grande_Solemar_Baixada Santista" }, "geometry": { "type": "Point", "coordinates": [ -46.5178131, -24.0371532 ] } },
{ "type": "Feature", "properties": { "fid": 31056, "CNPJ": "05421197000156", "IDCIDADE": "PRAIA_GRANDE", "NOMEFANTASIA": "IRMAOS_SILVA", "RAZAOSOCIAL": "G._S._VIEIRA_DA_SILVA_CONSTRUCAO", "ENDEE": "AVENIDA_PAU-BRASIL698__PARQUE_DAS_AMERICAS_11707-000", "LMAPS": "https://www.google.com/maps?q=&layer=c&cbll=-24.0336466,-46.523885", "O_QUE_FAZER": "CARTEIRA", "ER_REGIAO_CIDADE_min": "Praia Grande_Solemar_Baixada Santista" }, "geometry": { "type": "Point", "coordinates": [ -46.523885, -24.0336466 ] } },
{ "type": "Feature", "properties": { "fid": 45410, "CNPJ": "07752756000136", "IDCIDADE": "PRAIA_GRANDE", "NOMEFANTASIA": "PEIXARIA_MARCOSTRA", "RAZAOSOCIAL": "MARCOSTRA_COMERCIO_DE_PESCADOS_LTDA", "ENDEE": "AVENIDA_PRESIDENTE_KENNEDY566__REAL_11708-206", "LMAPS": "https://www.google.com/maps?q=&layer=c&cbll=-24.0715846,-46.5778909", "O_QUE_FAZER": "CARTEIRA", "ER_REGIAO_CIDADE_min": "Praia Grande_Solemar_Baixada Santista" }, "geometry": { "type": "Point", "coordinates": [ -46.5778909, -24.0715846 ] } },
{ "type": "Feature", "properties": { "fid": 55056, "CNPJ": "09089635000181", "IDCIDADE": "PRAIA_GRANDE", "NOMEFANTASIA": "DROGAMAIS", "RAZAOSOCIAL": "KARINE_VANESSA_DOS_SANTOS_DORES", "ENDEE": "AVENIDA_PRESIDENTE_KENNEDY309__REAL_11709-005", "LMAPS": "https://www.google.com/maps?q=&layer=c&cbll=-24.0654316,-46.5664533", "O_QUE_FAZER": "CARTEIRA", "ER_REGIAO_CIDADE_min": "Praia Grande_Solemar_Baixada Santista" }, "geometry": { "type": "Point", "coordinates": [ -46.5664533, -24.0654316 ] } },
{ "type": "Feature", "properties": { "fid": 57844, "CNPJ": "09394833000159", "IDCIDADE": "PRAIA_GRANDE", "NOMEFANTASIA": "MIX_TINTAS", "RAZAOSOCIAL": "LOJA_MIX_TINTAS_LTDA", "ENDEE": "AVENIDA_PRESIDENTE_KENNEDY13531__CAICARA_11702-200", "LMAPS": "https://www.google.com/maps?q=&layer=c&cbll=-24.0490711,-46.5342293", "O_QUE_FAZER": "CARTEIRA", "ER_REGIAO_CIDADE_min": "Praia Grande_Solemar_Baixada Santista" }, "geometry": { "type": "Point", "coordinates": [ -46.5342293, -24.0490711 ] } },
{ "type": "Feature", "properties": { "fid": 65199, "CNPJ": "10698122000157", "IDCIDADE": "PRAIA GRANDE", "NOMEFANTASIA": "LEMON_E_COMERCIO_-_ME", "RAZAOSOCIAL": "LEMON_PECAS_DE_ELEVADORES_LTDA", "ENDEE": "AVENIDA PRESIDENTE KENNEDY, 14196, CAICARA, 11707000, PRAIA GRANDE, SP, BRASIL", "LMAPS": "https://www.google.com/maps?q=&layer=c&cbll=-24.0516333,-46.5402766", "O_QUE_FAZER": "CARTEIRA - FAMPE", "ER_REGIAO_CIDADE_min": "Praia Grande_Solemar_Baixada Santista" }, "geometry": { "type": "Point", "coordinates": [ -46.5402766, -24.0516333 ] } },
{ "type": "Feature", "properties": { "fid": 65767, "CNPJ": "10751448000109", "IDCIDADE": "PRAIA_GRANDE", "NOMEFANTASIA": "MOURA_MINIMERCADO", "RAZAOSOCIAL": "M._DA_CRUZ_ALVES_DA_SILVA_MERCADINHO", "ENDEE": "AVENIDA_PRESIDENTE_KENNEDY13720__REAL_11708-000", "LMAPS": "https://www.google.com/maps?q=&layer=c&cbll=-24.0497113,-46.5363274", "O_QUE_FAZER": "CARTEIRA", "ER_REGIAO_CIDADE_min": "Praia Grande_Solemar_Baixada Santista" }, "geometry": { "type": "Point", "coordinates": [ -46.5363274, -24.0497113 ] } },
{ "type": "Feature", "properties": { "fid": 66976, "CNPJ": "10879778000176", "IDCIDADE": "PRAIA_GRANDE", "NOMEFANTASIA": "FELP_SURF", "RAZAOSOCIAL": "MAGNUM_BARBOSA_DA_SILVA", "ENDEE": "RUA_ITIBERE_DA_CUNHA3161__ESMERALDA_11713-160", "LMAPS": "https://www.google.com/maps?q=&layer=c&cbll=-24.0305716,-46.5235884", "O_QUE_FAZER": "CARTEIRA", "ER_REGIAO_CIDADE_min": "Praia Grande_Solemar_Baixada Santista" }, "geometry": { "type": "Point", "coordinates": [ -46.5235884, -24.0305716 ] } },
{ "type": "Feature", "properties": { "fid": 68882, "CNPJ": "11098975000110", "IDCIDADE": "PRAIA_GRANDE", "NOMEFANTASIA": "RIBEIRO_CONTABILIDADE", "RAZAOSOCIAL": "W.A._RIBEIRO", "ENDEE": "AVENIDA_PRESIDENTE_KENNEDY13198__CAICARA_11702-200", "LMAPS": "https://www.google.com/maps?q=&layer=c&cbll=-24.0474398,-46.5313652", "O_QUE_FAZER": "CARTEIRA", "ER_REGIAO_CIDADE_min": "Praia Grande_Solemar_Baixada Santista" }, "geometry": { "type": "Point", "coordinates": [ -46.5313652, -24.0474398 ] } },
{ "type": "Feature", "properties": { "fid": 69270, "CNPJ": "11153234000195", "IDCIDADE": "PRAIA_GRANDE", "NOMEFANTASIA": "GUIOMAR_IMOVEIS", "RAZAOSOCIAL": "A_A_COSSIGNANI_IMOVEIS_LTDA", "ENDEE": "AVENIDA_PRESIDENTE_KENNEDY13846__REAL_11708-000", "LMAPS": "https://www.google.com/maps?q=&layer=c&cbll=-24.0501922,-46.537345", "O_QUE_FAZER": "CARTEIRA", "ER_REGIAO_CIDADE_min": "Praia Grande_Solemar_Baixada Santista" }, "geometry": { "type": "Point", "coordinates": [ -46.537345, -24.0501922 ] } },
{ "type": "Feature", "properties": { "fid": 70050, "CNPJ": "11244663000178", "IDCIDADE": "PRAIA_GRANDE", "NOMEFANTASIA": "FREITAS_MATERIAIS_PARA_CONSTRUCAO", "RAZAOSOCIAL": "MARIA_SANDRA_ARAUJO_DE_FREITAS", "ENDEE": "RUA_ITIBERE_DA_CUNHA338__ESMERALDA_11713-395", "LMAPS": "https://www.google.com/maps?q=&layer=c&cbll=-24.0297585,-46.5232972", "O_QUE_FAZER": "CARTEIRA", "ER_REGIAO_CIDADE_min": "Praia Grande_Solemar_Baixada Santista" }, "geometry": { "type": "Point", "coordinates": [ -46.5232972, -24.0297585 ] } },
{ "type": "Feature", "properties": { "fid": 71439, "CNPJ": "11422999000183", "IDCIDADE": "PRAIA_GRANDE", "NOMEFANTASIA": "MATEUS_COSMETICOS", "RAZAOSOCIAL": "MARIA_EDILEUSA_DE_LIMA_BAZAR", "ENDEE": "RUA_ITIBERE_DA_CUNHA102__ESMERALDA_11713-395", "LMAPS": "https://www.google.com/maps?q=&layer=c&cbll=-24.0316798,-46.5246337", "O_QUE_FAZER": "CARTEIRA", "ER_REGIAO_CIDADE_min": "Praia Grande_Solemar_Baixada Santista" }, "geometry": { "type": "Point", "coordinates": [ -46.5246337, -24.0316798 ] } },
{ "type": "Feature", "properties": { "fid": 76194, "CNPJ": "12223155000176", "IDCIDADE": "PRAIA_GRANDE", "NOMEFANTASIA": "MARCOS_MATA_MINIMERCADO", "RAZAOSOCIAL": "MARCOS_ANTONIO_PERES_MATA", "ENDEE": "RUA_ITIBERE_DA_CUNHA313__ESMERALDA_11713-395", "LMAPS": "https://www.google.com/maps?q=&layer=c&cbll=-24.0293881,-46.5227748", "O_QUE_FAZER": "CARTEIRA", "ER_REGIAO_CIDADE_min": "Praia Grande_Solemar_Baixada Santista" }, "geometry": { "type": "Point", "coordinates": [ -46.5227748, -24.0293881 ] } },
{ "type": "Feature", "properties": { "fid": 76658, "CNPJ": "12306525000139", "IDCIDADE": "PRAIA_GRANDE", "NOMEFANTASIA": "MATEUS_PRESENTES", "RAZAOSOCIAL": "JOSE_MOACIR_DE_LIMA", "ENDEE": "RUA_ITIBERE_DA_CUNHA128__ESMERALDA_11713-160", "LMAPS": "https://www.google.com/maps?q=&layer=c&cbll=-24.031612,-46.5248216", "O_QUE_FAZER": "CARTEIRA", "ER_REGIAO_CIDADE_min": "Praia Grande_Solemar_Baixada Santista" }, "geometry": { "type": "Point", "coordinates": [ -46.5248216, -24.031612 ] } },
{ "type": "Feature", "properties": { "fid": 77022, "CNPJ": "12371799000101", "IDCIDADE": "PRAIA GRANDE", "NOMEFANTASIA": null, "RAZAOSOCIAL": "EDSON_PEREIRA_DE_ALMEIDA_99301512815", "ENDEE": "AVENIDA PROFESSOR DAIJIRO MATSUDA, 466, MARACANA, 11705-400, PRAIA GRANDE, SP, BRASIL", "LMAPS": "https://www.google.com/maps?q=&layer=c&cbll=-24.0374712,-46.5046125", "O_QUE_FAZER": "CARTEIRA - FAMPE", "ER_REGIAO_CIDADE_min": "Praia Grande_Solemar_Baixada Santista" }, "geometry": { "type": "Point", "coordinates": [ -46.5046125, -24.0374712 ] } },
{ "type": "Feature", "properties": { "fid": 78589, "CNPJ": "12633307000109", "IDCIDADE": "PRAIA_GRANDE", "NOMEFANTASIA": "AC_OLIVEIRA_GESTAO_DE_PROCESSOS", "RAZAOSOCIAL": "A_C_OLIVEIRA_GESTAO_DE_PROCESSOS_LIMITADA", "ENDEE": "AVENIDA_PRESIDENTE_KENNEDY15241__REAL_11708-000", "LMAPS": "https://www.google.com/maps?q=&layer=c&cbll=-24.0561185,-46.5492214", "O_QUE_FAZER": "CARTEIRA", "ER_REGIAO_CIDADE_min": "Praia Grande_Solemar_Baixada Santista" }, "geometry": { "type": "Point", "coordinates": [ -46.5492214, -24.0561185 ] } },
{ "type": "Feature", "properties": { "fid": 81009, "CNPJ": "13156099000167", "IDCIDADE": "PRAIA_GRANDE", "NOMEFANTASIA": "IXOYE_PESCADOS", "RAZAOSOCIAL": "IXOYE_COMERCIO_DE_PESCADOS_LTDA", "ENDEE": "AVENIDA_PRESIDENTE_KENNEDY14531__REAL_11708-000", "LMAPS": "https://www.google.com/maps?q=&layer=c&cbll=-24.0533385,-46.5431029", "O_QUE_FAZER": "CARTEIRA", "ER_REGIAO_CIDADE_min": "Praia Grande_Solemar_Baixada Santista" }, "geometry": { "type": "Point", "coordinates": [ -46.5431029, -24.0533385 ] } },
{ "type": "Feature", "properties": { "fid": 81981, "CNPJ": "13337602000180", "IDCIDADE": "PRAIA_GRANDE", "NOMEFANTASIA": "SOUZA_SANTOS_EMPREITEIRA_DE_MAO_DE_OBRA_LTDA", "RAZAOSOCIAL": "SC_SANTOS", "ENDEE": "AVENIDA_JAIRO_DE_CAMARGO_MARTINS1__SAMAMBAIA_11713-060", "LMAPS": "https://www.google.com/maps?q=&layer=c&cbll=-24.037068,-46.5173074", "O_QUE_FAZER": "FINALIZADO", "ER_REGIAO_CIDADE_min": "Praia Grande_Solemar_Baixada Santista" }, "geometry": { "type": "Point", "coordinates": [ -46.5173074, -24.037068 ] } },
{ "type": "Feature", "properties": { "fid": 82557, "CNPJ": "13431045000162", "IDCIDADE": "PRAIA_GRANDE", "NOMEFANTASIA": "OTICA_CLEAN", "RAZAOSOCIAL": "OTICA_TOP_CLEAN_LTDA", "ENDEE": "AVENIDA_PRESIDENTE_KENNEDY13082__CAICARA_11707-005", "LMAPS": "https://www.google.com/maps?q=&layer=c&cbll=-24.0470542,-46.5304764", "O_QUE_FAZER": "CARTEIRA", "ER_REGIAO_CIDADE_min": "Praia Grande_Solemar_Baixada Santista" }, "geometry": { "type": "Point", "coordinates": [ -46.5304764, -24.0470542 ] } },
{ "type": "Feature", "properties": { "fid": 86688, "CNPJ": "14221545000132", "IDCIDADE": "PRAIA GRANDE", "NOMEFANTASIA": null, "RAZAOSOCIAL": "EXPLOSOM,_SOM_E_ACESSORIOS_AUTOMOTIVOS_LTDA", "ENDEE": "AVENIDA PRESIDENTE KENNEDY, 12375, CAICARA, 11707-005, PRAIA GRANDE, SP, BRASIL", "LMAPS": "https://www.google.com/maps?q=&layer=c&cbll=-24.0444117,-46.5238023", "O_QUE_FAZER": "CARTEIRA - FAMPE", "ER_REGIAO_CIDADE_min": "Praia Grande_Solemar_Baixada Santista" }, "geometry": { "type": "Point", "coordinates": [ -46.5238023, -24.0444117 ] } },
{ "type": "Feature", "properties": { "fid": 87095, "CNPJ": "14305029000196", "IDCIDADE": "PRAIA_GRANDE", "NOMEFANTASIA": "FARMA_CUCA", "RAZAOSOCIAL": "SANTOS_E_ROCHA_FARMACIA_LTDA", "ENDEE": "AVENIDA_PRESIDENTE_KENNEDY16701__REAL_11708-000", "LMAPS": "https://www.google.com/maps?q=&layer=c&cbll=-24.0626921,-46.561776", "O_QUE_FAZER": "CARTEIRA", "ER_REGIAO_CIDADE_min": "Praia Grande_Solemar_Baixada Santista" }, "geometry": { "type": "Point", "coordinates": [ -46.561776, -24.0626921 ] } },
{ "type": "Feature", "properties": { "fid": 88762, "CNPJ": "14638868000126", "IDCIDADE": "PRAIA GRANDE", "NOMEFANTASIA": "LEGNO_PLANEJADOS", "RAZAOSOCIAL": "CLODOALDO_LIMA_CORREIA_MOVEIS", "ENDEE": "AVENIDA PRESIDENTE KENNEDY, 11500, BALNEARIO PAQUETA, 11705000, PRAIA GRANDE, SP, BRASIL", "LMAPS": "https://www.google.com/maps?q=&layer=c&cbll=-24.0419104,-46.5189777", "O_QUE_FAZER": "CARTEIRA - FAMPE", "ER_REGIAO_CIDADE_min": "Praia Grande_Solemar_Baixada Santista" }, "geometry": { "type": "Point", "coordinates": [ -46.5189777, -24.0419104 ] } },
{ "type": "Feature", "properties": { "fid": 91124, "CNPJ": "15162187000105", "IDCIDADE": "PRAIA_GRANDE", "NOMEFANTASIA": "KARINE_PEREIRA_DA_SILVA_CAMARGO", "RAZAOSOCIAL": "PIZZARIA_FLORIDA", "ENDEE": "RUA_FLORIDA47__REAL_11708-040", "LMAPS": "https://www.google.com/maps?q=&layer=c&cbll=-24.0653503,-46.5575756", "O_QUE_FAZER": "FINALIZADO", "ER_REGIAO_CIDADE_min": "Praia Grande_Solemar_Baixada Santista" }, "geometry": { "type": "Point", "coordinates": [ -46.5575756, -24.0653503 ] } },
{ "type": "Feature", "properties": { "fid": 92841, "CNPJ": "15517023000145", "IDCIDADE": "PRAIA_GRANDE", "NOMEFANTASIA": "GM_TINTAS", "RAZAOSOCIAL": "LIMA_&_VIDAL_COMERCIAL_DE_TINTAS_LTDA", "ENDEE": "AVENIDA_DO_CORRETOR_DE_IMOVEIS372__SAMAMBAIA_11712-400", "LMAPS": "https://www.google.com/maps?q=&layer=c&cbll=-24.0377294,-46.522371", "O_QUE_FAZER": "CARTEIRA", "ER_REGIAO_CIDADE_min": "Praia Grande_Solemar_Baixada Santista" }, "geometry": { "type": "Point", "coordinates": [ -46.522371, -24.0377294 ] } },
{ "type": "Feature", "properties": { "fid": 97098, "CNPJ": "17035303000142", "IDCIDADE": "PRAIA_GRANDE", "NOMEFANTASIA": "COLEGIO_FRANCA", "RAZAOSOCIAL": "INSTITUICAO_DE_ENSINO_LIDICE_E_CHRIS_LTDA", "ENDEE": "RUA_ANTONIO_REINALDO_GONCALVES634__CAICARA_11707-120", "LMAPS": "https://www.google.com/maps?q=&layer=c&cbll=-24.0532788,-46.5399206", "O_QUE_FAZER": "CARTEIRA", "ER_REGIAO_CIDADE_min": "Praia Grande_Solemar_Baixada Santista" }, "geometry": { "type": "Point", "coordinates": [ -46.5399206, -24.0532788 ] } },
{ "type": "Feature", "properties": { "fid": 97185, "CNPJ": "17051836000118", "IDCIDADE": "PRAIA GRANDE", "NOMEFANTASIA": "IMPERIO_DO_AR", "RAZAOSOCIAL": "IMPERIO_DE_CLIMATIZACAO_LTDA", "ENDEE": "RUA DOS CRAVOS, 504, FLORIDA, 11708-210, PRAIA GRANDE, SP, BRASIL", "LMAPS": "https://www.google.com/maps?q=&layer=c&cbll=-24.0671309,-46.5689725", "O_QUE_FAZER": "CARTEIRA - FAMPE", "ER_REGIAO_CIDADE_min": "Praia Grande_Solemar_Baixada Santista" }, "geometry": { "type": "Point", "coordinates": [ -46.5689725, -24.0671309 ] } },
{ "type": "Feature", "properties": { "fid": 99001, "CNPJ": "17411660000168", "IDCIDADE": "PRAIA_GRANDE", "NOMEFANTASIA": "HAMG_MOTOS", "RAZAOSOCIAL": "HAMG_MOTO_LTDA", "ENDEE": "AVENIDA_PRESIDENTE_KENNEDY13152__CAICARA_11702-200", "LMAPS": "https://www.google.com/maps?q=&layer=c&cbll=-24.0472613,-46.5310085", "O_QUE_FAZER": "CARTEIRA", "ER_REGIAO_CIDADE_min": "Praia Grande_Solemar_Baixada Santista" }, "geometry": { "type": "Point", "coordinates": [ -46.5310085, -24.0472613 ] } },
{ "type": "Feature", "properties": { "fid": 99121, "CNPJ": "17442731000190", "IDCIDADE": "PRAIA_GRANDE", "NOMEFANTASIA": "ULTRAGAZ", "RAZAOSOCIAL": "R.M._BRAZ_-_REVENDA_DE_GAS_(GLP)_LTDA", "ENDEE": "AVENIDA_PRESIDENTE_KENNEDY14544__REAL_11708-000", "LMAPS": "https://www.google.com/maps?q=&layer=c&cbll=-24.0531276,-46.543487", "O_QUE_FAZER": "CARTEIRA", "ER_REGIAO_CIDADE_min": "Praia Grande_Solemar_Baixada Santista" }, "geometry": { "type": "Point", "coordinates": [ -46.543487, -24.0531276 ] } },
{ "type": "Feature", "properties": { "fid": 99688, "CNPJ": "17559685000103", "IDCIDADE": "PRAIA_GRANDE", "NOMEFANTASIA": "SAO_JOSE_MATERIAIS_PARA_CONSTRUCAO", "RAZAOSOCIAL": "DE_CINTRA_PAIS_DEPOSITO_LTDA", "ENDEE": "AVENIDA_PRESIDENTE_KENNEDY16449__REAL_11708-000", "LMAPS": "https://www.google.com/maps?q=&layer=c&cbll=-24.0613458,-46.5591432", "O_QUE_FAZER": "CARTEIRA", "ER_REGIAO_CIDADE_min": "Praia Grande_Solemar_Baixada Santista" }, "geometry": { "type": "Point", "coordinates": [ -46.5591432, -24.0613458 ] } },
{ "type": "Feature", "properties": { "fid": 99692, "CNPJ": "17560273000193", "IDCIDADE": "PRAIA GRANDE", "NOMEFANTASIA": "NA_MEDIDA_TOLDO_PLACAS_E_POLICARBONETOS", "RAZAOSOCIAL": "M._C._SPINOSA_PESSOA", "ENDEE": "AVENIDA PRESIDENTE KENNEDY, 15601, REAL, 11708-005, PRAIA GRANDE, SP, BRASIL", "LMAPS": "https://www.google.com/maps?q=&layer=c&cbll=-24.0578358,-46.5525177", "O_QUE_FAZER": "CARTEIRA - FAMPE", "ER_REGIAO_CIDADE_min": "Praia Grande_Solemar_Baixada Santista" }, "geometry": { "type": "Point", "coordinates": [ -46.5525177, -24.0578358 ] } },
{ "type": "Feature", "properties": { "fid": 103082, "CNPJ": "18239676000106", "IDCIDADE": "PRAIA GRANDE", "NOMEFANTASIA": "Pet_Shop_Paty", "RAZAOSOCIAL": "PATRICIA_SANTOS_DA_SILVA_29072852893", "ENDEE": "AVENIDA ALMEIDA JUNIOR, 959, SAMAMBAIA, 11713-050, PRAIA GRANDE, SP, BRASIL", "LMAPS": "https://www.google.com/maps?q=&layer=c&cbll=-24.0320918,-46.525307", "O_QUE_FAZER": "CARTEIRA - FAMPE", "ER_REGIAO_CIDADE_min": "Praia Grande_Solemar_Baixada Santista" }, "geometry": { "type": "Point", "coordinates": [ -46.525307, -24.0320918 ] } },
{ "type": "Feature", "properties": { "fid": 106200, "CNPJ": "18893912000103", "IDCIDADE": "PRAIA_GRANDE", "NOMEFANTASIA": "FAMILIA_FELIZ_IMOVEIS", "RAZAOSOCIAL": "FAMILIA_FELIZ_IMOVEIS_LTDA", "ENDEE": "AVENIDA_PRESIDENTE_KENNEDY13518__REAL_11708-000", "LMAPS": "https://www.google.com/maps?q=&layer=c&cbll=-24.0487727,-46.534385", "O_QUE_FAZER": "CARTEIRA", "ER_REGIAO_CIDADE_min": "Praia Grande_Solemar_Baixada Santista" }, "geometry": { "type": "Point", "coordinates": [ -46.534385, -24.0487727 ] } },
{ "type": "Feature", "properties": { "fid": 106435, "CNPJ": "18945134000140", "IDCIDADE": "PRAIA GRANDE", "NOMEFANTASIA": "CASA_DE_MASSAS_EMANNUEL", "RAZAOSOCIAL": "S_N_DA_SILVA_MERCEARIA", "ENDEE": "RUA AFRANIO PEIXOTO, 1746, ESMERALDA, 11713-500, PRAIA GRANDE, SP, BRASIL", "LMAPS": "https://www.google.com/maps?q=&layer=c&cbll=-24.0250272,-46.5217222", "O_QUE_FAZER": "CARTEIRA - FAMPE", "ER_REGIAO_CIDADE_min": "Praia Grande_Solemar_Baixada Santista" }, "geometry": { "type": "Point", "coordinates": [ -46.5217222, -24.0250272 ] } },
{ "type": "Feature", "properties": { "fid": 109385, "CNPJ": "19601324000103", "IDCIDADE": "PRAIA_GRANDE", "NOMEFANTASIA": "JULIANA_GAEDE_COIFFEUR", "RAZAOSOCIAL": "JULIANA_GAEDE_NOGUEIRA", "ENDEE": "AVENIDA_PRESIDENTE_KENNEDY13438__CAICARA_11702-200", "LMAPS": "https://www.google.com/maps?q=&layer=c&cbll=-24.04849,-46.5336236", "O_QUE_FAZER": "CARTEIRA", "ER_REGIAO_CIDADE_min": "Praia Grande_Solemar_Baixada Santista" }, "geometry": { "type": "Point", "coordinates": [ -46.5336236, -24.04849 ] } },
{ "type": "Feature", "properties": { "fid": 111789, "CNPJ": "20141929000148", "IDCIDADE": "PRAIA_GRANDE", "NOMEFANTASIA": "RESTAURANTE_DA_CLAUDIA", "RAZAOSOCIAL": "RESTAURANTE_WR_LTDA", "ENDEE": "RUA_ITIBERE_DA_CUNHA288__ESMERALDA_11713-160", "LMAPS": "https://www.google.com/maps?q=&layer=c&cbll=-24.0319292,-46.5252013", "O_QUE_FAZER": "CARTEIRA", "ER_REGIAO_CIDADE_min": "Praia Grande_Solemar_Baixada Santista" }, "geometry": { "type": "Point", "coordinates": [ -46.5252013, -24.0319292 ] } },
{ "type": "Feature", "properties": { "fid": 111868, "CNPJ": "20161505000145", "IDCIDADE": "PRAIA_GRANDE", "NOMEFANTASIA": "ESKINA_DO_PAO", "RAZAOSOCIAL": "CARLA_PRISCILA_ALVES_SOARES", "ENDEE": "RUA_CANDIDO_PORTINARI159__SAMAMBAIA_11713-100", "LMAPS": "https://www.google.com/maps?q=&layer=c&cbll=-24.0366435,-46.5185989", "O_QUE_FAZER": "CARTEIRA", "ER_REGIAO_CIDADE_min": "Praia Grande_Solemar_Baixada Santista" }, "geometry": { "type": "Point", "coordinates": [ -46.5185989, -24.0366435 ] } },
{ "type": "Feature", "properties": { "fid": 112007, "CNPJ": "20197288000143", "IDCIDADE": "PRAIA_GRANDE", "NOMEFANTASIA": "CAFE_QUEMEL", "RAZAOSOCIAL": "MACA_VERDE_COFFEE_LTDA", "ENDEE": "RUA_ITIBERE_DA_CUNHA2064__ESMERALDA_11713-160", "LMAPS": "https://www.google.com/maps?q=&layer=c&cbll=-24.0306662,-46.5237428", "O_QUE_FAZER": "CARTEIRA", "ER_REGIAO_CIDADE_min": "Praia Grande_Solemar_Baixada Santista" }, "geometry": { "type": "Point", "coordinates": [ -46.5237428, -24.0306662 ] } },
{ "type": "Feature", "properties": { "fid": 117465, "CNPJ": "21425304000170", "IDCIDADE": "PRAIA_GRANDE", "NOMEFANTASIA": "SE_CALCADOS", "RAZAOSOCIAL": "SE_-_COMERCIO_DE_CALCADOS_E_ROUPAS_LTDA", "ENDEE": "RUA_ITIBERE_DA_CUNHA105__ESMERALDA_11713-395", "LMAPS": "https://www.google.com/maps?q=&layer=c&cbll=-24.0315926,-46.5245067", "O_QUE_FAZER": "CARTEIRA", "ER_REGIAO_CIDADE_min": "Praia Grande_Solemar_Baixada Santista" }, "geometry": { "type": "Point", "coordinates": [ -46.5245067, -24.0315926 ] } },
{ "type": "Feature", "properties": { "fid": 117934, "CNPJ": "21535493000134", "IDCIDADE": "PRAIA_GRANDE", "NOMEFANTASIA": "AUDIOSONIC", "RAZAOSOCIAL": "AUDIO_SONIC_LTDA", "ENDEE": "AVENIDA_DIAMANTINO_CRUZ_FERREIRA_MOURAO1231__SAMAMBAIA_11713-650", "LMAPS": "https://www.google.com/maps?q=&layer=c&cbll=-24.0349862,-46.513598", "O_QUE_FAZER": "CARTEIRA", "ER_REGIAO_CIDADE_min": "Praia Grande_Solemar_Baixada Santista" }, "geometry": { "type": "Point", "coordinates": [ -46.513598, -24.0349862 ] } },
{ "type": "Feature", "properties": { "fid": 118287, "CNPJ": "21613192000181", "IDCIDADE": "PRAIA_GRANDE", "NOMEFANTASIA": "DROGA_MAIS", "RAZAOSOCIAL": "RAMOS_&_RAMOS_FARMACIA_E_DROGARIA_LTDA.", "ENDEE": "AVENIDA_PRESIDENTE_KENNEDY16385__REAL_11708-000", "LMAPS": "https://www.google.com/maps?q=&layer=c&cbll=-24.0611793,-46.5590394", "O_QUE_FAZER": "CARTEIRA", "ER_REGIAO_CIDADE_min": "Praia Grande_Solemar_Baixada Santista" }, "geometry": { "type": "Point", "coordinates": [ -46.5590394, -24.0611793 ] } },
{ "type": "Feature", "properties": { "fid": 118916, "CNPJ": "21763945000135", "IDCIDADE": "PRAIA_GRANDE", "NOMEFANTASIA": "ROSANGELA_DE_SALES_SOUZA_09987944817", "RAZAOSOCIAL": "ROSANGELA_DE_SALES_SOUZA_09987944817", "ENDEE": "RUA_CATARINA_BANDIERA543__CAICARA_11706-200", "LMAPS": "https://www.google.com/maps?q=&layer=c&cbll=-24.0460009,-46.5251328", "O_QUE_FAZER": "FINALIZADO", "ER_REGIAO_CIDADE_min": "Praia Grande_Solemar_Baixada Santista" }, "geometry": { "type": "Point", "coordinates": [ -46.5251328, -24.0460009 ] } },
{ "type": "Feature", "properties": { "fid": 120539, "CNPJ": "22103531000142", "IDCIDADE": "PRAIA_GRANDE", "NOMEFANTASIA": "CAMPOS_SOLUCOES_EM_INFORMATICA", "RAZAOSOCIAL": "HB_SOLUCOES_EM_INFORMATICA_LTDA", "ENDEE": "RUA_DAS_ROSEDAS343__SAMAMBAIA_11712-660", "LMAPS": "https://www.google.com/maps?q=&layer=c&cbll=-24.033216,-46.5250806", "O_QUE_FAZER": "CARTEIRA", "ER_REGIAO_CIDADE_min": "Praia Grande_Solemar_Baixada Santista" }, "geometry": { "type": "Point", "coordinates": [ -46.5250806, -24.033216 ] } },
{ "type": "Feature", "properties": { "fid": 120990, "CNPJ": "22192837000201", "IDCIDADE": "PRAIA_GRANDE", "NOMEFANTASIA": "CLINICA_AMIGOS", "RAZAOSOCIAL": "LUANA_CUNHA_DA_MOTA_PET_SHOP", "ENDEE": "AVENIDA_PRESIDENTE_KENNEDY16930__SOLEMAR_11701-330", "LMAPS": "https://www.google.com/maps?q=&layer=c&cbll=-24.063627,-46.5637939", "O_QUE_FAZER": "CARTEIRA", "ER_REGIAO_CIDADE_min": "Praia Grande_Solemar_Baixada Santista" }, "geometry": { "type": "Point", "coordinates": [ -46.5637939, -24.063627 ] } },
{ "type": "Feature", "properties": { "fid": 125135, "CNPJ": "23065680000127", "IDCIDADE": "PRAIA_GRANDE", "NOMEFANTASIA": "POUPA_POPULAR", "RAZAOSOCIAL": "T.S.B_DOS_SANTOS_DROGARIA", "ENDEE": "RUA_ITIBERE_DA_CUNHA54__ESMERALDA_11713-160", "LMAPS": "https://www.google.com/maps?q=&layer=c&cbll=-24.0310418,-46.5243142", "O_QUE_FAZER": "CARTEIRA", "ER_REGIAO_CIDADE_min": "Praia Grande_Solemar_Baixada Santista" }, "geometry": { "type": "Point", "coordinates": [ -46.5243142, -24.0310418 ] } },
{ "type": "Feature", "properties": { "fid": 125886, "CNPJ": "23235283000237", "IDCIDADE": "PRAIA_GRANDE", "NOMEFANTASIA": "LARROSA_PET_SHOP", "RAZAOSOCIAL": "WILLIAM_LARROSA", "ENDEE": "AVENIDA_PRESIDENTE_KENNEDY15116__REAL_11708-000", "LMAPS": "https://www.google.com/maps?q=&layer=c&cbll=-24.0555495,-46.5485129", "O_QUE_FAZER": "CARTEIRA", "ER_REGIAO_CIDADE_min": "Praia Grande_Solemar_Baixada Santista" }, "geometry": { "type": "Point", "coordinates": [ -46.5485129, -24.0555495 ] } },
{ "type": "Feature", "properties": { "fid": 125904, "CNPJ": "23238767000159", "IDCIDADE": "PRAIA_GRANDE", "NOMEFANTASIA": "POWER_FIT", "RAZAOSOCIAL": "POWER_FIT_ACADEMIA_LTDA", "ENDEE": "AVENIDA_PRESIDENTE_KENNEDY867__REAL_11708-005", "LMAPS": "https://www.google.com/maps?q=&layer=c&cbll=-24.0635516,-46.5630767", "O_QUE_FAZER": "CARTEIRA", "ER_REGIAO_CIDADE_min": "Praia Grande_Solemar_Baixada Santista" }, "geometry": { "type": "Point", "coordinates": [ -46.5630767, -24.0635516 ] } },
{ "type": "Feature", "properties": { "fid": 132708, "CNPJ": "24634886000193", "IDCIDADE": "PRAIA_GRANDE", "NOMEFANTASIA": "KIKO'S_MATERIAIS_PARA_CONSTRUCAO", "RAZAOSOCIAL": "KIKO'S_COMERCIO_DE_MATERIAIS_PARA_CONSTRUCAO_LTDA", "ENDEE": "AVENIDA_PRESIDENTE_KENNEDY13874__REAL_11708-000", "LMAPS": "https://www.google.com/maps?q=&layer=c&cbll=-24.0502742,-46.5374727", "O_QUE_FAZER": "CARTEIRA", "ER_REGIAO_CIDADE_min": "Praia Grande_Solemar_Baixada Santista" }, "geometry": { "type": "Point", "coordinates": [ -46.5374727, -24.0502742 ] } },
{ "type": "Feature", "properties": { "fid": 132939, "CNPJ": "24688389000178", "IDCIDADE": "PRAIA_GRANDE", "NOMEFANTASIA": "EMPORIO_MIRAMAR", "RAZAOSOCIAL": "PANIFICADORA,_LANCHONETE_E_EMPORIO_MIRAMAR_LTDA", "ENDEE": "AVENIDA_PRESIDENTE_KENNEDY976__REAL_11708-207", "LMAPS": "https://www.google.com/maps?q=&layer=c&cbll=-24.0786103,-46.5902899", "O_QUE_FAZER": "CARTEIRA", "ER_REGIAO_CIDADE_min": "Praia Grande_Solemar_Baixada Santista" }, "geometry": { "type": "Point", "coordinates": [ -46.5902899, -24.0786103 ] } },
{ "type": "Feature", "properties": { "fid": 133419, "CNPJ": "24787342000161", "IDCIDADE": "PRAIA_GRANDE", "NOMEFANTASIA": "DEDIC_ADM", "RAZAOSOCIAL": "DEDIC_ADMINISTRACAO_DE_CONDOMINIOS_LTDA", "ENDEE": "AVENIDA_PRESIDENTE_KENNEDY13750__REAL_11708-000", "LMAPS": "https://www.google.com/maps?q=&layer=c&cbll=-24.0497573,-46.5363689", "O_QUE_FAZER": "CARTEIRA", "ER_REGIAO_CIDADE_min": "Praia Grande_Solemar_Baixada Santista" }, "geometry": { "type": "Point", "coordinates": [ -46.5363689, -24.0497573 ] } },
{ "type": "Feature", "properties": { "fid": 133581, "CNPJ": "24819080000170", "IDCIDADE": "PRAIA GRANDE", "NOMEFANTASIA": "DISTRIBUIDORA_ALCANTARA", "RAZAOSOCIAL": "J_P_R_ALCANTARA", "ENDEE": "RUA MARCELINO DE OLIVEIRA, 267, LOJA 1, MELVI, 11712-050, PRAIA GRANDE, SP, BRASIL", "LMAPS": "https://www.google.com/maps?q=&layer=c&cbll=-24.0415341,-46.5280652", "O_QUE_FAZER": "CARTEIRA - FAMPE", "ER_REGIAO_CIDADE_min": "Praia Grande_Solemar_Baixada Santista" }, "geometry": { "type": "Point", "coordinates": [ -46.5280652, -24.0415341 ] } },
{ "type": "Feature", "properties": { "fid": 136016, "CNPJ": "25276202000191", "IDCIDADE": "PRAIA_GRANDE", "NOMEFANTASIA": "CASA_DE_PAES_AMARAL", "RAZAOSOCIAL": "SARA_CRISTINA_RODRIGUES_AMARAL", "ENDEE": "RUA_ITIBERE_DA_CUNHA62__ESMERALDA_11713-395", "LMAPS": "https://www.google.com/maps?q=&layer=c&cbll=-24.0296468,-46.5230562", "O_QUE_FAZER": "CARTEIRA", "ER_REGIAO_CIDADE_min": "Praia Grande_Solemar_Baixada Santista" }, "geometry": { "type": "Point", "coordinates": [ -46.5230562, -24.0296468 ] } },
{ "type": "Feature", "properties": { "fid": 139591, "CNPJ": "26501164000196", "IDCIDADE": "PRAIA_GRANDE", "NOMEFANTASIA": "CASA_NOBRE", "RAZAOSOCIAL": "CASA_NOBRE_COMERCIO_DE_PRODUTOS_EM_GERAL_LTDA", "ENDEE": "AVENIDA_DIAMANTINO_CRUZ_FERREIRA_MOURAO642__SAMAMBAIA_11712-680", "LMAPS": "https://www.google.com/maps?q=&layer=c&cbll=-24.0359639,-46.5160287", "O_QUE_FAZER": "CARTEIRA", "ER_REGIAO_CIDADE_min": "Praia Grande_Solemar_Baixada Santista" }, "geometry": { "type": "Point", "coordinates": [ -46.5160287, -24.0359639 ] } },
{ "type": "Feature", "properties": { "fid": 140102, "CNPJ": "26597631000123", "IDCIDADE": "PRAIA_GRANDE", "NOMEFANTASIA": "SPINOLA_CONSULTORIA_IMOBILIARIA", "RAZAOSOCIAL": "SPINOLA_CONSULTORIA_IMOBILIARIA_LTDA", "ENDEE": "AVENIDA_PRESIDENTE_KENNEDY14672__REAL_11708-000", "LMAPS": "https://www.google.com/maps?q=&layer=c&cbll=-24.0536437,-46.5444771", "O_QUE_FAZER": "CARTEIRA", "ER_REGIAO_CIDADE_min": "Praia Grande_Solemar_Baixada Santista" }, "geometry": { "type": "Point", "coordinates": [ -46.5444771, -24.0536437 ] } },
{ "type": "Feature", "properties": { "fid": 140587, "CNPJ": "26686348000178", "IDCIDADE": "PRAIA GRANDE", "NOMEFANTASIA": "ALBUQUERQUE_ASSESSORIA", "RAZAOSOCIAL": "P_C_F_DE_BARROS_ASSESSORIA_EMPRESARIAL_LTDA", "ENDEE": "RUA POCOS DE CALDAS, 697, CASA 9, REAL, 11707-480, PRAIA GRANDE, SP, BRASIL", "LMAPS": "https://www.google.com/maps?q=&layer=c&cbll=-24.0635312,-46.554486", "O_QUE_FAZER": "CARTEIRA - FAMPE", "ER_REGIAO_CIDADE_min": "Praia Grande_Solemar_Baixada Santista" }, "geometry": { "type": "Point", "coordinates": [ -46.554486, -24.0635312 ] } },
{ "type": "Feature", "properties": { "fid": 141479, "CNPJ": "26864121000175", "IDCIDADE": "PRAIA GRANDE", "NOMEFANTASIA": "Auto_Pecas_Manelao", "RAZAOSOCIAL": "COMERCIAL_BIMBATI_PECAS_E_ACESSORIOS_LTDA", "ENDEE": "AVENIDA DIAMANTINO CRUZ FERREIRA MOURAO, 34142, RIBEIROPOLIS, 11714-630, PRAIA GRANDE, SP, BRASIL", "LMAPS": "https://www.google.com/maps?q=&layer=c&cbll=-24.040109,-46.523071", "O_QUE_FAZER": "CARTEIRA - FAMPE", "ER_REGIAO_CIDADE_min": "Praia Grande_Solemar_Baixada Santista" }, "geometry": { "type": "Point", "coordinates": [ -46.523071, -24.040109 ] } },
{ "type": "Feature", "properties": { "fid": 141724, "CNPJ": "26916389000103", "IDCIDADE": "PRAIA GRANDE", "NOMEFANTASIA": null, "RAZAOSOCIAL": "RODRIGO_OLIVEIRA_NASCIMENTO_36771150860", "ENDEE": "RUA VANIVALDO GOMES DE ARAGAO, 39, CASA 2, PRINCESA, 11711-110, PRAIA GRANDE, SP, BRASIL", "LMAPS": "https://www.google.com/maps?q=&layer=c&cbll=-24.063287,-46.5665509", "O_QUE_FAZER": "CARTEIRA - FAMPE", "ER_REGIAO_CIDADE_min": "Praia Grande_Solemar_Baixada Santista" }, "geometry": { "type": "Point", "coordinates": [ -46.5665509, -24.063287 ] } },
{ "type": "Feature", "properties": { "fid": 144187, "CNPJ": "27410385000111", "IDCIDADE": "PRAIA_GRANDE", "NOMEFANTASIA": "ASTURIAS_OUTLET", "RAZAOSOCIAL": "CLAUDIA_CORADI_PINTER", "ENDEE": "AVENIDA_PRESIDENTE_KENNEDY16670__REAL_11708-000", "LMAPS": "https://www.google.com/maps?q=&layer=c&cbll=-24.0620175,-46.561222", "O_QUE_FAZER": "CARTEIRA", "ER_REGIAO_CIDADE_min": "Praia Grande_Solemar_Baixada Santista" }, "geometry": { "type": "Point", "coordinates": [ -46.561222, -24.0620175 ] } },
{ "type": "Feature", "properties": { "fid": 145915, "CNPJ": "27744431000119", "IDCIDADE": "PRAIA_GRANDE", "NOMEFANTASIA": "SERRALHERIA_ALUMIFORTE", "RAZAOSOCIAL": "VIDRACARIA_ALUMIFORTE_LTDA", "ENDEE": "AVENIDA_PRESIDENTE_KENNEDY687__REAL_11708-207", "LMAPS": "https://www.google.com/maps?q=&layer=c&cbll=-24.0723849,-46.5786188", "O_QUE_FAZER": "CARTEIRA", "ER_REGIAO_CIDADE_min": "Praia Grande_Solemar_Baixada Santista" }, "geometry": { "type": "Point", "coordinates": [ -46.5786188, -24.0723849 ] } },
{ "type": "Feature", "properties": { "fid": 148062, "CNPJ": "28140607000196", "IDCIDADE": "PRAIA_GRANDE", "NOMEFANTASIA": "MOVEIS_HASSAN", "RAZAOSOCIAL": "AHMAD_HASSAN_ALI_MOVEIS", "ENDEE": "AVENIDA_PRESIDENTE_KENNEDY14011__REAL_11708-000", "LMAPS": "https://www.google.com/maps?q=&layer=c&cbll=-24.0509506,-46.5382496", "O_QUE_FAZER": "CARTEIRA", "ER_REGIAO_CIDADE_min": "Praia Grande_Solemar_Baixada Santista" }, "geometry": { "type": "Point", "coordinates": [ -46.5382496, -24.0509506 ] } },
{ "type": "Feature", "properties": { "fid": 148582, "CNPJ": "28230593000100", "IDCIDADE": "PRAIA_GRANDE", "NOMEFANTASIA": "NOVO_LAR", "RAZAOSOCIAL": "NOVO_LAR_CONSULTORIA_IMOBILIARIA_LTDA", "ENDEE": "AVENIDA_PRESIDENTE_KENNEDY655__REAL_11709-005", "LMAPS": "https://www.google.com/maps?q=&layer=c&cbll=-24.067652,-46.5703547", "O_QUE_FAZER": "CARTEIRA", "ER_REGIAO_CIDADE_min": "Praia Grande_Solemar_Baixada Santista" }, "geometry": { "type": "Point", "coordinates": [ -46.5703547, -24.067652 ] } },
{ "type": "Feature", "properties": { "fid": 149256, "CNPJ": "28348488000161", "IDCIDADE": "PRAIA_GRANDE", "NOMEFANTASIA": "28.348.488_SUELLEN_ELIDIA_MACHADO", "RAZAOSOCIAL": "28.348.488_SUELLEN_ELIDIA_MACHADO", "ENDEE": "RUA_ESMERALDA453__CIDADE_DA_CRIANCA_11710-190", "LMAPS": "https://www.google.com/maps?q=&layer=c&cbll=-24.074728,-46.5954519", "O_QUE_FAZER": "FINALIZADO", "ER_REGIAO_CIDADE_min": "Praia Grande_Solemar_Baixada Santista" }, "geometry": { "type": "Point", "coordinates": [ -46.5954519, -24.074728 ] } },
{ "type": "Feature", "properties": { "fid": 152015, "CNPJ": "28867887000139", "IDCIDADE": "PRAIA_GRANDE", "NOMEFANTASIA": "ARMARINHOS_RAHAL", "RAZAOSOCIAL": "ALESSANDRA_RAHAL_MOREIRA", "ENDEE": "AVENIDA_PRESIDENTE_KENNEDY16827__REAL_11708-000", "LMAPS": "https://www.google.com/maps?q=&layer=c&cbll=-24.0633144,-46.5627683", "O_QUE_FAZER": "CARTEIRA", "ER_REGIAO_CIDADE_min": "Praia Grande_Solemar_Baixada Santista" }, "geometry": { "type": "Point", "coordinates": [ -46.5627683, -24.0633144 ] } },
{ "type": "Feature", "properties": { "fid": 156346, "CNPJ": "29733248000143", "IDCIDADE": "PRAIA_GRANDE", "NOMEFANTASIA": "OTICA_CEISTAL_PLUS", "RAZAOSOCIAL": "VIVIANE_A.C._DE_SOUZA_OTICA", "ENDEE": "RUA_ITIBERE_DA_CUNHA59__ESMERALDA_11713-395", "LMAPS": "https://www.google.com/maps?q=&layer=c&cbll=-24.0297555,-46.5230282", "O_QUE_FAZER": "CARTEIRA", "ER_REGIAO_CIDADE_min": "Praia Grande_Solemar_Baixada Santista" }, "geometry": { "type": "Point", "coordinates": [ -46.5230282, -24.0297555 ] } },
{ "type": "Feature", "properties": { "fid": 159460, "CNPJ": "30318258000100", "IDCIDADE": "PRAIA_GRANDE", "NOMEFANTASIA": "LRN_REVISAO_AUTOMOTIVA", "RAZAOSOCIAL": "RENAN_VINICIUS_NEVES_SAMPAIO", "ENDEE": "AVENIDA_PRESIDENTE_KENNEDY330__REAL_11709-005", "LMAPS": "https://www.google.com/maps?q=&layer=c&cbll=-24.0655619,-46.5672472", "O_QUE_FAZER": "CARTEIRA", "ER_REGIAO_CIDADE_min": "Praia Grande_Solemar_Baixada Santista" }, "geometry": { "type": "Point", "coordinates": [ -46.5672472, -24.0655619 ] } },
{ "type": "Feature", "properties": { "fid": 161753, "CNPJ": "30746748000107", "IDCIDADE": "PRAIA GRANDE", "NOMEFANTASIA": "-", "RAZAOSOCIAL": "30.746.748_WAGNER_ALVES_MOTTA_DE_TOLEDO", "ENDEE": "AVENIDA MILTON DE OLIVEIRA, 155, MELVI, 11712-000, PRAIA GRANDE, SP, BRASIL", "LMAPS": "https://www.google.com/maps?q=&layer=c&cbll=-24.0424353,-46.5300207", "O_QUE_FAZER": "CARTEIRA - FAMPE", "ER_REGIAO_CIDADE_min": "Praia Grande_Solemar_Baixada Santista" }, "geometry": { "type": "Point", "coordinates": [ -46.5300207, -24.0424353 ] } },
{ "type": "Feature", "properties": { "fid": 162092, "CNPJ": "30808263000192", "IDCIDADE": "PRAIA_GRANDE", "NOMEFANTASIA": "BABOO_DOCES", "RAZAOSOCIAL": "ELVIS_DA_SILVA_DOCES", "ENDEE": "AVENIDA_PEDRO_AMERICO1040__PARQUE_DAS_AMERICAS_11713-295", "LMAPS": "https://www.google.com/maps?q=&layer=c&cbll=-24.0299787,-46.5232543", "O_QUE_FAZER": "CARTEIRA", "ER_REGIAO_CIDADE_min": "Praia Grande_Solemar_Baixada Santista" }, "geometry": { "type": "Point", "coordinates": [ -46.5232543, -24.0299787 ] } },
{ "type": "Feature", "properties": { "fid": 163292, "CNPJ": "31045001000186", "IDCIDADE": "PRAIA GRANDE", "NOMEFANTASIA": "-", "RAZAOSOCIAL": "31.045.001_ADELAIDE_MANUEL_GALVES", "ENDEE": "RUA ADHEMAR DE BARROS, 300, SOLEMAR, 11709-200, PRAIA GRANDE, SP, BRASIL", "LMAPS": "https://www.google.com/maps?q=&layer=c&cbll=-24.0788182,-46.5910771", "O_QUE_FAZER": "CARTEIRA - FAMPE", "ER_REGIAO_CIDADE_min": "Praia Grande_Solemar_Baixada Santista" }, "geometry": { "type": "Point", "coordinates": [ -46.5910771, -24.0788182 ] } },
{ "type": "Feature", "properties": { "fid": 163670, "CNPJ": "31118986000122", "IDCIDADE": "PRAIA GRANDE", "NOMEFANTASIA": "GAS_BOM", "RAZAOSOCIAL": "NIQUE_COMERCIO_DE_GAS_LTDA", "ENDEE": "AVENIDA DIAMANTINO CRUZ FERREIRA MOURAO, 8520, Q 27 L 09, PRINCESA, 11711-125, PRAIA GRANDE, SP, BRASIL", "LMAPS": "https://www.google.com/maps?q=&layer=c&cbll=-24.0593897,-46.5591698", "O_QUE_FAZER": "CARTEIRA - FAMPE", "ER_REGIAO_CIDADE_min": "Praia Grande_Solemar_Baixada Santista" }, "geometry": { "type": "Point", "coordinates": [ -46.5591698, -24.0593897 ] } },
{ "type": "Feature", "properties": { "fid": 164621, "CNPJ": "31343977000135", "IDCIDADE": "PRAIA_GRANDE", "NOMEFANTASIA": "OGGI", "RAZAOSOCIAL": "R._F._DIAS", "ENDEE": "RUA_ITIBERE_DA_CUNHA75__ESMERALDA_11713-395", "LMAPS": "https://www.google.com/maps?q=&layer=c&cbll=-24.0313399,-46.5243685", "O_QUE_FAZER": "CARTEIRA", "ER_REGIAO_CIDADE_min": "Praia Grande_Solemar_Baixada Santista" }, "geometry": { "type": "Point", "coordinates": [ -46.5243685, -24.0313399 ] } },
{ "type": "Feature", "properties": { "fid": 164672, "CNPJ": "31353061000166", "IDCIDADE": "PRAIA_GRANDE", "NOMEFANTASIA": "IMOBILIARIA_CAICARA", "RAZAOSOCIAL": "IMOBILIARIA_CAICARA_LTDA", "ENDEE": "AVENIDA_PRESIDENTE_KENNEDY14064__REAL_11708-000", "LMAPS": "https://www.google.com/maps?q=&layer=c&cbll=-24.0510962,-46.5391258", "O_QUE_FAZER": "CARTEIRA", "ER_REGIAO_CIDADE_min": "Praia Grande_Solemar_Baixada Santista" }, "geometry": { "type": "Point", "coordinates": [ -46.5391258, -24.0510962 ] } },
{ "type": "Feature", "properties": { "fid": 165597, "CNPJ": "31536369000147", "IDCIDADE": "PRAIA_GRANDE", "NOMEFANTASIA": "LITORAL_BOX_E_COLCHOES", "RAZAOSOCIAL": "M.A._KHALIL_-_COLCHOES", "ENDEE": "AVENIDA_PRESIDENTE_KENNEDY13227__CAICARA_11702-200", "LMAPS": "https://www.google.com/maps?q=&layer=c&cbll=-24.0477035,-46.5314927", "O_QUE_FAZER": "CARTEIRA", "ER_REGIAO_CIDADE_min": "Praia Grande_Solemar_Baixada Santista" }, "geometry": { "type": "Point", "coordinates": [ -46.5314927, -24.0477035 ] } },
{ "type": "Feature", "properties": { "fid": 167066, "CNPJ": "31820373000132", "IDCIDADE": "PRAIA_GRANDE", "NOMEFANTASIA": "FREITAS_PORTAS_E_JANELAS", "RAZAOSOCIAL": "LUCIANO_RODRIGUES_DO_NASCIMENTO_FREITAS", "ENDEE": "RUA_ITIBERE_DA_CUNHA350__ESMERALDA_11713-395", "LMAPS": "https://www.google.com/maps?q=&layer=c&cbll=-24.0298817,-46.5231426", "O_QUE_FAZER": "CARTEIRA", "ER_REGIAO_CIDADE_min": "Praia Grande_Solemar_Baixada Santista" }, "geometry": { "type": "Point", "coordinates": [ -46.5231426, -24.0298817 ] } },
{ "type": "Feature", "properties": { "fid": 167085, "CNPJ": "31823965000108", "IDCIDADE": "PRAIA_GRANDE", "NOMEFANTASIA": "VOLPI_IMOVEIS", "RAZAOSOCIAL": "VOLPI_NEGOCIOS_E_EMPREENDIMENTOS_IMOBILIARIOS_LTDA", "ENDEE": "RUA_ABILIO_DE_JESUS_MORAES399__CAICARA_11706-390", "LMAPS": "https://www.google.com/maps?q=&layer=c&cbll=-24.0478843,-46.5326016", "O_QUE_FAZER": "CARTEIRA", "ER_REGIAO_CIDADE_min": "Praia Grande_Solemar_Baixada Santista" }, "geometry": { "type": "Point", "coordinates": [ -46.5326016, -24.0478843 ] } },
{ "type": "Feature", "properties": { "fid": 169512, "CNPJ": "32310588000176", "IDCIDADE": "PRAIA_GRANDE", "NOMEFANTASIA": "FOX_VEICULOS", "RAZAOSOCIAL": "FOX_VEICULOS_DA_PRAIA_GRANDE_LTDA", "ENDEE": "AVENIDA_PRESIDENTE_KENNEDY10352__MARACANA_11705-750", "LMAPS": "https://www.google.com/maps?q=&layer=c&cbll=-24.0359267,-46.50593", "O_QUE_FAZER": "CARTEIRA", "ER_REGIAO_CIDADE_min": "Praia Grande_Solemar_Baixada Santista" }, "geometry": { "type": "Point", "coordinates": [ -46.50593, -24.0359267 ] } },
{ "type": "Feature", "properties": { "fid": 173964, "CNPJ": "33232305000188", "IDCIDADE": "PRAIA_GRANDE", "NOMEFANTASIA": "VETRON", "RAZAOSOCIAL": "FRANCISCO_LUIZ_MOTA_JUNIOR", "ENDEE": "AVENIDA_PRESIDENTE_KENNEDY13639__REAL_11708-000", "LMAPS": "https://www.google.com/maps?q=&layer=c&cbll=-24.0496193,-46.5352838", "O_QUE_FAZER": "CARTEIRA", "ER_REGIAO_CIDADE_min": "Praia Grande_Solemar_Baixada Santista" }, "geometry": { "type": "Point", "coordinates": [ -46.5352838, -24.0496193 ] } },
{ "type": "Feature", "properties": { "fid": 174498, "CNPJ": "33341609000183", "IDCIDADE": "PRAIA GRANDE", "NOMEFANTASIA": "BRISA_GAS", "RAZAOSOCIAL": "BRISA_GAS_LTDA", "ENDEE": "AVENIDA HERMENEGILDO PEREIRA DE FRANCA, 1552, TERREODEPOSITO, ESMERALDA, 11713-290, PRAIA GRANDE, SP, BRASIL", "LMAPS": "https://www.google.com/maps?q=&layer=c&cbll=-24.026601,-46.5260217", "O_QUE_FAZER": "CARTEIRA - FAMPE", "ER_REGIAO_CIDADE_min": "Praia Grande_Solemar_Baixada Santista" }, "geometry": { "type": "Point", "coordinates": [ -46.5260217, -24.026601 ] } },
{ "type": "Feature", "properties": { "fid": 175064, "CNPJ": "33449849000104", "IDCIDADE": "PRAIA_GRANDE", "NOMEFANTASIA": "SMO_NOBBRE", "RAZAOSOCIAL": "SMO_NOBBRE_CONSTRUCOES_E_REFORMAS_EM_GERAL_LTDA", "ENDEE": "RUA_MARIA_BELTRAME_BORLONI14417__CAICARA_11707-130", "LMAPS": "https://www.google.com/maps?q=&layer=c&cbll=-24.0528198,-46.5421863", "O_QUE_FAZER": "CARTEIRA", "ER_REGIAO_CIDADE_min": "Praia Grande_Solemar_Baixada Santista" }, "geometry": { "type": "Point", "coordinates": [ -46.5421863, -24.0528198 ] } },
{ "type": "Feature", "properties": { "fid": 176248, "CNPJ": "33657509000160", "IDCIDADE": "PRAIA_GRANDE", "NOMEFANTASIA": "SARA_MOVEIS_E_COLCHOES", "RAZAOSOCIAL": "SARA_MOVEIS_&_COLCHOES_LTDA", "ENDEE": "AVENIDA_MARGINAL26662__VILA_SONIA_11714-630", "LMAPS": "https://www.google.com/maps?q=&layer=c&cbll=-24.0352538,-46.5141726", "O_QUE_FAZER": "CARTEIRA", "ER_REGIAO_CIDADE_min": "Praia Grande_Solemar_Baixada Santista" }, "geometry": { "type": "Point", "coordinates": [ -46.5141726, -24.0352538 ] } },
{ "type": "Feature", "properties": { "fid": 178988, "CNPJ": "34201452000153", "IDCIDADE": "PRAIA GRANDE", "NOMEFANTASIA": "METRONBOX_ENGENHARIA_EM_ALUMINIO_E_VIDROS", "RAZAOSOCIAL": "METRONBOX_LTDA", "ENDEE": "AVENIDA PRESIDENTE KENNEDY, 14020, CAICARA, 11706-000, PRAIA GRANDE, SP, BRASIL", "LMAPS": "https://www.google.com/maps?q=&layer=c&cbll=-24.0508068,-46.5386014", "O_QUE_FAZER": "CARTEIRA - FAMPE", "ER_REGIAO_CIDADE_min": "Praia Grande_Solemar_Baixada Santista" }, "geometry": { "type": "Point", "coordinates": [ -46.5386014, -24.0508068 ] } },
{ "type": "Feature", "properties": { "fid": 180420, "CNPJ": "34473037000159", "IDCIDADE": "PRAIA_GRANDE", "NOMEFANTASIA": "FLOR_DO_REAL", "RAZAOSOCIAL": "RESTAURANTE_E_CHURRASCARIA_FLOR_DO_REAL_LTDA", "ENDEE": "AVENIDA_PRESIDENTE_KENNEDY175__REAL_11708-005", "LMAPS": "https://www.google.com/maps?q=&layer=c&cbll=-24.064971,-46.5656536", "O_QUE_FAZER": "CARTEIRA", "ER_REGIAO_CIDADE_min": "Praia Grande_Solemar_Baixada Santista" }, "geometry": { "type": "Point", "coordinates": [ -46.5656536, -24.064971 ] } },
{ "type": "Feature", "properties": { "fid": 183495, "CNPJ": "35072878000117", "IDCIDADE": "PRAIA_GRANDE", "NOMEFANTASIA": "FARMACIA_IMPERIO", "RAZAOSOCIAL": "GUSTAVO_ALVES_DOS_SANTOS", "ENDEE": "RUA_ITIBERE_DA_CUNHA149__ESMERALDA_11713-395", "LMAPS": "https://www.google.com/maps?q=&layer=c&cbll=-24.0318204,-46.5247314", "O_QUE_FAZER": "CARTEIRA", "ER_REGIAO_CIDADE_min": "Praia Grande_Solemar_Baixada Santista" }, "geometry": { "type": "Point", "coordinates": [ -46.5247314, -24.0318204 ] } },
{ "type": "Feature", "properties": { "fid": 184492, "CNPJ": "35304835000110", "IDCIDADE": "PRAIA GRANDE", "NOMEFANTASIA": null, "RAZAOSOCIAL": "ANTONINI_COMERCIO_E_DISTRIBUICAO_DE_PESCADOS_LTDA", "ENDEE": "AVENIDA PRESIDENTE KENNEDY, 14441, LOJA 5, CAICARA, 11707-005, PRAIA GRANDE, SP, BRASIL", "LMAPS": "https://www.google.com/maps?q=&layer=c&cbll=-24.0529218,-46.5423609", "O_QUE_FAZER": "CARTEIRA - FAMPE", "ER_REGIAO_CIDADE_min": "Praia Grande_Solemar_Baixada Santista" }, "geometry": { "type": "Point", "coordinates": [ -46.5423609, -24.0529218 ] } },
{ "type": "Feature", "properties": { "fid": 185909, "CNPJ": "35632833000150", "IDCIDADE": "PRAIA GRANDE", "NOMEFANTASIA": "BERNADEGA_GRANDE_FAMILIA_POINT", "RAZAOSOCIAL": "PETISCARIA_CRUZ_LTDA", "ENDEE": "AVENIDA PRESIDENTE CASTELO BRANCO, 14002, EDIF ESCRITORIO, CAICARA, 11706-500, PRAIA GRANDE, SP, BRASIL", "LMAPS": "https://www.google.com/maps?q=&layer=c&cbll=-24.053659,-46.5315359", "O_QUE_FAZER": "CARTEIRA - FAMPE", "ER_REGIAO_CIDADE_min": "Praia Grande_Solemar_Baixada Santista" }, "geometry": { "type": "Point", "coordinates": [ -46.5315359, -24.053659 ] } },
{ "type": "Feature", "properties": { "fid": 187850, "CNPJ": "36048785000110", "IDCIDADE": "PRAIA GRANDE", "NOMEFANTASIA": "-", "RAZAOSOCIAL": "36.048.785_CRISTINA_VICENTE_DE_BIAGI", "ENDEE": "AVENIDA LUIZ AMARO COSTA, 6046, MELVI, 11712-330, PRAIA GRANDE, SP, BRASIL", "LMAPS": "https://www.google.com/maps?q=&layer=c&cbll=-24.0348213,-46.5310862", "O_QUE_FAZER": "CARTEIRA - FAMPE", "ER_REGIAO_CIDADE_min": "Praia Grande_Solemar_Baixada Santista" }, "geometry": { "type": "Point", "coordinates": [ -46.5310862, -24.0348213 ] } },
{ "type": "Feature", "properties": { "fid": 190034, "CNPJ": "36501951000191", "IDCIDADE": "PRAIA_GRANDE", "NOMEFANTASIA": "COMANDO_HOOKAH", "RAZAOSOCIAL": "WELLINGTON_FERREIRA_PINTO", "ENDEE": "AVENIDA_PRESIDENTE_KENNEDY10414__MARACANA_11705-750", "LMAPS": "https://www.google.com/maps?q=&layer=c&cbll=-24.036897,-46.5078366", "O_QUE_FAZER": "CARTEIRA", "ER_REGIAO_CIDADE_min": "Praia Grande_Solemar_Baixada Santista" }, "geometry": { "type": "Point", "coordinates": [ -46.5078366, -24.036897 ] } },
{ "type": "Feature", "properties": { "fid": 190631, "CNPJ": "36623278000162", "IDCIDADE": "PRAIA_GRANDE", "NOMEFANTASIA": "LOJA_DO_MOSQUETEIRO", "RAZAOSOCIAL": "MOSQUETEIRO_EXPRESS_COMERCIO_DE_MOVEIS_E_ELETRODOMESTICOS_LTDA.", "ENDEE": "AVENIDA_PRESIDENTE_KENNEDY13684__REAL_11708-000", "LMAPS": "https://www.google.com/maps?q=&layer=c&cbll=-24.049311,-46.5354179", "O_QUE_FAZER": "CARTEIRA", "ER_REGIAO_CIDADE_min": "Praia Grande_Solemar_Baixada Santista" }, "geometry": { "type": "Point", "coordinates": [ -46.5354179, -24.049311 ] } },
{ "type": "Feature", "properties": { "fid": 190632, "CNPJ": "36623278000243", "IDCIDADE": "PRAIA_GRANDE", "NOMEFANTASIA": "LOJA_DO_MOSQUETEIRO", "RAZAOSOCIAL": "MOSQUETEIRO_EXPRESS_COMERCIO_DE_MOVEIS_E_ELETRODOMESTICOS_LTDA.", "ENDEE": "AVENIDA_PRESIDENTE_KENNEDY13700__REAL_11708-000", "LMAPS": "https://www.google.com/maps?q=&layer=c&cbll=-24.0495043,-46.5361252", "O_QUE_FAZER": "CARTEIRA - FAMPE", "ER_REGIAO_CIDADE_min": "Praia Grande_Solemar_Baixada Santista" }, "geometry": { "type": "Point", "coordinates": [ -46.5361252, -24.0495043 ] } },
{ "type": "Feature", "properties": { "fid": 191762, "CNPJ": "36966440000145", "IDCIDADE": "PRAIA_GRANDE", "NOMEFANTASIA": "AGRO_PET_VALLE", "RAZAOSOCIAL": "IRIS_DA_SILVA_ALVES", "ENDEE": "AVENIDA_PRESIDENTE_KENNEDY10692__MARACANA_11705-755", "LMAPS": "https://www.google.com/maps?q=&layer=c&cbll=-24.03733,-46.508875", "O_QUE_FAZER": "CARTEIRA", "ER_REGIAO_CIDADE_min": "Praia Grande_Solemar_Baixada Santista" }, "geometry": { "type": "Point", "coordinates": [ -46.508875, -24.03733 ] } },
{ "type": "Feature", "properties": { "fid": 191841, "CNPJ": "36991520000150", "IDCIDADE": "PRAIA_GRANDE", "NOMEFANTASIA": "VISUAL_ESTAMPADORA_DE_PLACAS", "RAZAOSOCIAL": "KETLIN_KELEN_IMACULADA_LOPES", "ENDEE": "AVENIDA_DIAMANTINO_CRUZ_FERREIRA_MOURAO3174__SAMAMBAIA_11713-650", "LMAPS": "https://www.google.com/maps?q=&layer=c&cbll=-24.0350021,-46.5136113", "O_QUE_FAZER": "CARTEIRA", "ER_REGIAO_CIDADE_min": "Praia Grande_Solemar_Baixada Santista" }, "geometry": { "type": "Point", "coordinates": [ -46.5136113, -24.0350021 ] } },
{ "type": "Feature", "properties": { "fid": 192274, "CNPJ": "37097325000225", "IDCIDADE": "PRAIA_GRANDE", "NOMEFANTASIA": "KASCAO", "RAZAOSOCIAL": "BRUNA_NOVAK_DIAS_-_SORVETES", "ENDEE": "AVENIDA_PRESIDENTE_KENNEDY15470__REAL_11708-000", "LMAPS": "https://www.google.com/maps?q=&layer=c&cbll=-24.0569933,-46.5515333", "O_QUE_FAZER": "CARTEIRA", "ER_REGIAO_CIDADE_min": "Praia Grande_Solemar_Baixada Santista" }, "geometry": { "type": "Point", "coordinates": [ -46.5515333, -24.0569933 ] } },
{ "type": "Feature", "properties": { "fid": 194586, "CNPJ": "37609209000167", "IDCIDADE": "PRAIA_GRANDE", "NOMEFANTASIA": "SOFA_MAR", "RAZAOSOCIAL": "SOFA_MAR_ESTOFADOS_LTDA", "ENDEE": "AVENIDA_PRESIDENTE_KENNEDY10101__MARACANA_11706-005", "LMAPS": "https://www.google.com/maps?q=&layer=c&cbll=-24.0357255,-46.5047052", "O_QUE_FAZER": "CARTEIRA", "ER_REGIAO_CIDADE_min": "Praia Grande_Solemar_Baixada Santista" }, "geometry": { "type": "Point", "coordinates": [ -46.5047052, -24.0357255 ] } },
{ "type": "Feature", "properties": { "fid": 195336, "CNPJ": "37745228000110", "IDCIDADE": "PRAIA_GRANDE", "NOMEFANTASIA": "JVA_ADEGA", "RAZAOSOCIAL": "A.C.S_DE_ALBUQUERQUE", "ENDEE": "RUA_DAS_GARDENIAS480__FLORIDA_11708-260", "LMAPS": "https://www.google.com/maps?q=&layer=c&cbll=-24.0678902,-46.571264", "O_QUE_FAZER": "CARTEIRA", "ER_REGIAO_CIDADE_min": "Praia Grande_Solemar_Baixada Santista" }, "geometry": { "type": "Point", "coordinates": [ -46.571264, -24.0678902 ] } },
{ "type": "Feature", "properties": { "fid": 195563, "CNPJ": "37788061000175", "IDCIDADE": "PRAIA_GRANDE", "NOMEFANTASIA": "O_AR_DA_GRACA_DECORACOES", "RAZAOSOCIAL": "J.M.GENTIL", "ENDEE": "AVENIDA_PRESIDENTE_KENNEDY812__REAL_11708-206", "LMAPS": "https://www.google.com/maps?q=&layer=c&cbll=-24.0679404,-46.5712736", "O_QUE_FAZER": "CARTEIRA", "ER_REGIAO_CIDADE_min": "Praia Grande_Solemar_Baixada Santista" }, "geometry": { "type": "Point", "coordinates": [ -46.5712736, -24.0679404 ] } },
{ "type": "Feature", "properties": { "fid": 197290, "CNPJ": "38099064000164", "IDCIDADE": "PRAIA_GRANDE", "NOMEFANTASIA": "FARMA_SARON", "RAZAOSOCIAL": "SILMARA_VIANA_PAIVA_CAMARGO_PORTELA", "ENDEE": "AVENIDA_PRESIDENTE_KENNEDY10441__MARACANA_11705-750", "LMAPS": "https://www.google.com/maps?q=&layer=c&cbll=-24.0368873,-46.5078779", "O_QUE_FAZER": "CARTEIRA", "ER_REGIAO_CIDADE_min": "Praia Grande_Solemar_Baixada Santista" }, "geometry": { "type": "Point", "coordinates": [ -46.5078779, -24.0368873 ] } },
{ "type": "Feature", "properties": { "fid": 198047, "CNPJ": "38253112000127", "IDCIDADE": "PRAIA_GRANDE", "NOMEFANTASIA": "MAXWEL_CARNEIRO_DA_SILVA_04854612428", "RAZAOSOCIAL": "A_REFOMAQ", "ENDEE": "AVENIDA_MILENA_PERUTICH1325__MELVI_11712-030", "LMAPS": "https://www.google.com/maps?q=&layer=c&cbll=-24.034842,-46.5372341", "O_QUE_FAZER": "FINALIZADO", "ER_REGIAO_CIDADE_min": "Praia Grande_Solemar_Baixada Santista" }, "geometry": { "type": "Point", "coordinates": [ -46.5372341, -24.034842 ] } },
{ "type": "Feature", "properties": { "fid": 199304, "CNPJ": "38504050000189", "IDCIDADE": "PRAIA GRANDE", "NOMEFANTASIA": null, "RAZAOSOCIAL": "KATIA_MARIA_PEREIRA_CANALE_08392326830", "ENDEE": "AVENIDA ANGELO PERINO, 389, MARACANA, 11705-580, PRAIA GRANDE, SP, BRASIL", "LMAPS": "https://www.google.com/maps?q=&layer=c&cbll=-24.0405489,-46.5095544", "O_QUE_FAZER": "CARTEIRA - FAMPE", "ER_REGIAO_CIDADE_min": "Praia Grande_Solemar_Baixada Santista" }, "geometry": { "type": "Point", "coordinates": [ -46.5095544, -24.0405489 ] } },
{ "type": "Feature", "properties": { "fid": 199479, "CNPJ": "38707693000120", "IDCIDADE": "PRAIA_GRANDE", "NOMEFANTASIA": "RS_REFRIGERACAO", "RAZAOSOCIAL": "RS_REFRIGERACAO_LTDA", "ENDEE": "AVENIDA_DO_CORRETOR_DE_IMOVEIS297__SAMAMBAIA_11712-420", "LMAPS": "https://www.google.com/maps?q=&layer=c&cbll=-24.0375893,-46.5229082", "O_QUE_FAZER": "CARTEIRA - FAMPE", "ER_REGIAO_CIDADE_min": "Praia Grande_Solemar_Baixada Santista" }, "geometry": { "type": "Point", "coordinates": [ -46.5229082, -24.0375893 ] } },
{ "type": "Feature", "properties": { "fid": 200824, "CNPJ": "39349869000181", "IDCIDADE": "PRAIA_GRANDE", "NOMEFANTASIA": "PET_SHOP_PASSARO_PRETO", "RAZAOSOCIAL": "JOAO_AURELIO_LOPES", "ENDEE": "RUA_FLORIDA617__REAL_11708-040", "LMAPS": "https://www.google.com/maps?q=&layer=c&cbll=-24.0622259,-46.5619051", "O_QUE_FAZER": "CARTEIRA", "ER_REGIAO_CIDADE_min": "Praia Grande_Solemar_Baixada Santista" }, "geometry": { "type": "Point", "coordinates": [ -46.5619051, -24.0622259 ] } },
{ "type": "Feature", "properties": { "fid": 204733, "CNPJ": "40177712000103", "IDCIDADE": "PRAIA_GRANDE", "NOMEFANTASIA": "GODOI", "RAZAOSOCIAL": "DEPOSITO_PARA_MATERIAIS_DE_CONSTRUCAO_GODOI_LTDA", "ENDEE": "RUA_BALNEARIA594__REAL_11707-420", "LMAPS": "https://www.google.com/maps?q=&layer=c&cbll=-24.0591567,-46.5543883", "O_QUE_FAZER": "CARTEIRA", "ER_REGIAO_CIDADE_min": "Praia Grande_Solemar_Baixada Santista" }, "geometry": { "type": "Point", "coordinates": [ -46.5543883, -24.0591567 ] } },
{ "type": "Feature", "properties": { "fid": 204782, "CNPJ": "40186201000140", "IDCIDADE": "PRAIA_GRANDE", "NOMEFANTASIA": "CRIS_AGUAS", "RAZAOSOCIAL": "CRISPUKA_DISTRIBUIDORA_DE_AGUA_E_GAS_LTDA", "ENDEE": "AVENIDA_PRESIDENTE_KENNEDY289__REAL_11708-207", "LMAPS": "https://www.google.com/maps?q=&layer=c&cbll=-24.0743889,-46.5823143", "O_QUE_FAZER": "CARTEIRA", "ER_REGIAO_CIDADE_min": "Praia Grande_Solemar_Baixada Santista" }, "geometry": { "type": "Point", "coordinates": [ -46.5823143, -24.0743889 ] } },
{ "type": "Feature", "properties": { "fid": 205343, "CNPJ": "40366325000107", "IDCIDADE": "PRAIA_GRANDE", "NOMEFANTASIA": "ACADEMIA_PANOBIANCO", "RAZAOSOCIAL": "J.V._ACADEMIA_LTDA", "ENDEE": "AVENIDA_PRESIDENTE_KENNEDY13408__CAICARA_11702-200", "LMAPS": "https://www.google.com/maps?q=&layer=c&cbll=-24.04837,-46.5333375", "O_QUE_FAZER": "CARTEIRA", "ER_REGIAO_CIDADE_min": "Praia Grande_Solemar_Baixada Santista" }, "geometry": { "type": "Point", "coordinates": [ -46.5333375, -24.04837 ] } },
{ "type": "Feature", "properties": { "fid": 205553, "CNPJ": "40416541000110", "IDCIDADE": "PRAIA_GRANDE", "NOMEFANTASIA": "40.416.541_DANIEL_MILTON_ALFREDO_GODAN", "RAZAOSOCIAL": "DDW_CALHAS", "ENDEE": "RUA_AFONSO_D'ESCRAGNOLLE_TAUNAY465__ESMERALDA_11713-490", "LMAPS": "https://www.google.com/maps?q=&layer=c&cbll=-24.030784,-46.5145621", "O_QUE_FAZER": "FINALIZADO", "ER_REGIAO_CIDADE_min": "Praia Grande_Solemar_Baixada Santista" }, "geometry": { "type": "Point", "coordinates": [ -46.5145621, -24.030784 ] } },
{ "type": "Feature", "properties": { "fid": 205684, "CNPJ": "40456242000109", "IDCIDADE": "PRAIA_GRANDE", "NOMEFANTASIA": "PANIFICADORA_FAMILIA_SOARES", "RAZAOSOCIAL": "I_L_SOARES_BRITO_PADARIA", "ENDEE": "AVENIDA_PRESIDENTE_KENNEDY14125__REAL_11708-000", "LMAPS": "https://www.google.com/maps?q=&layer=c&cbll=-24.0514306,-46.5393326", "O_QUE_FAZER": "CARTEIRA", "ER_REGIAO_CIDADE_min": "Praia Grande_Solemar_Baixada Santista" }, "geometry": { "type": "Point", "coordinates": [ -46.5393326, -24.0514306 ] } },
{ "type": "Feature", "properties": { "fid": 206737, "CNPJ": "40754785000102", "IDCIDADE": "PRAIA_GRANDE", "NOMEFANTASIA": "PRAIEIRA_PADARIA_E_RESTAURANTE", "RAZAOSOCIAL": "W_H_BAPTISTA", "ENDEE": "AVENIDA_PRESIDENTE_KENNEDY15141__REAL_11708-000", "LMAPS": "https://www.google.com/maps?q=&layer=c&cbll=-24.0557507,-46.5483184", "O_QUE_FAZER": "CARTEIRA", "ER_REGIAO_CIDADE_min": "Praia Grande_Solemar_Baixada Santista" }, "geometry": { "type": "Point", "coordinates": [ -46.5483184, -24.0557507 ] } },
{ "type": "Feature", "properties": { "fid": 207126, "CNPJ": "40841320000199", "IDCIDADE": "PRAIA GRANDE", "NOMEFANTASIA": "MILNA_COSTA", "RAZAOSOCIAL": "40.841.320_MILNA_MARA_CANDIDO_COSTA", "ENDEE": "RUA JURUBAIBA, 474, CAICARA, 11706-140, PRAIA GRANDE, SP, BRASIL", "LMAPS": "https://www.google.com/maps?q=&layer=c&cbll=-24.0443896,-46.5206432", "O_QUE_FAZER": "FINALIZADO", "ER_REGIAO_CIDADE_min": "Praia Grande_Solemar_Baixada Santista" }, "geometry": { "type": "Point", "coordinates": [ -46.5206432, -24.0443896 ] } },
{ "type": "Feature", "properties": { "fid": 208248, "CNPJ": "41102850000188", "IDCIDADE": "PRAIA_GRANDE", "NOMEFANTASIA": "RESTAURANTE_E_PIZZARIA_TRADICAO", "RAZAOSOCIAL": "PATRICIA_ANGELICA_SILVA_COTRIM_FAURER", "ENDEE": "AVENIDA_PRESIDENTE_KENNEDY309__REAL_11709-005", "LMAPS": "https://www.google.com/maps?q=&layer=c&cbll=-24.0655992,-46.566774", "O_QUE_FAZER": "CARTEIRA", "ER_REGIAO_CIDADE_min": "Praia Grande_Solemar_Baixada Santista" }, "geometry": { "type": "Point", "coordinates": [ -46.566774, -24.0655992 ] } },
{ "type": "Feature", "properties": { "fid": 208908, "CNPJ": "41302386000173", "IDCIDADE": "PRAIA_GRANDE", "NOMEFANTASIA": "LUXURIA_STYLO", "RAZAOSOCIAL": "LUXURIA_STYLO_MODA_E_ACESSORIOS_LTDA", "ENDEE": "RUA_ITIBERE_DA_CUNHA302__ESMERALDA_11713-395", "LMAPS": "https://www.google.com/maps?q=&layer=c&cbll=-24.0293114,-46.5228846", "O_QUE_FAZER": "CARTEIRA", "ER_REGIAO_CIDADE_min": "Praia Grande_Solemar_Baixada Santista" }, "geometry": { "type": "Point", "coordinates": [ -46.5228846, -24.0293114 ] } },
{ "type": "Feature", "properties": { "fid": 209022, "CNPJ": "41334346000103", "IDCIDADE": "PRAIA GRANDE", "NOMEFANTASIA": "LAVA_RÁPIDO_VALLE", "RAZAOSOCIAL": "LAVA_RÁPIDO_VALLE", "ENDEE": "HERMENEGILDO PEREIRA DE FRANÇA, 223, ESMERALDA, PRAIA GRANDE", "LMAPS": "https://www.google.com/maps?q=&layer=c&cbll=-24.0335257,-46.5163859", "O_QUE_FAZER": "FINALIZADO", "ER_REGIAO_CIDADE_min": "Praia Grande_Solemar_Baixada Santista" }, "geometry": { "type": "Point", "coordinates": [ -46.5163859, -24.0335257 ] } },
{ "type": "Feature", "properties": { "fid": 210216, "CNPJ": "41642598000108", "IDCIDADE": "PRAIA GRANDE", "NOMEFANTASIA": "RESTAURANTE OCIAN 1956", "RAZAOSOCIAL": "RESTAURANTE_OCIAN_1956_LTDA", "ENDEE": "AVENIDA PRESIDENTE CASTELO BRANCO, 7375, OCIAN, 11704305, PRAIA GRANDE, SP, BRASIL", "LMAPS": "https://www.google.com/maps?q=&layer=c&cbll=-24.0395864,-46.4992658", "O_QUE_FAZER": "CARTEIRA - FAMPE", "ER_REGIAO_CIDADE_min": "Praia Grande_Solemar_Baixada Santista" }, "geometry": { "type": "Point", "coordinates": [ -46.4992658, -24.0395864 ] } },
{ "type": "Feature", "properties": { "fid": 212428, "CNPJ": "42140600000103", "IDCIDADE": "PRAIA_GRANDE", "NOMEFANTASIA": "EMPORIO_DOS_PETS", "RAZAOSOCIAL": "BRENO_ALEXANDRE_DA_SILVA_CARDOSO_PETSHOP", "ENDEE": "AVENIDA_PRESIDENTE_KENNEDY834__REAL_11708-005", "LMAPS": "https://www.google.com/maps?q=&layer=c&cbll=-24.063183,-46.562851", "O_QUE_FAZER": "CARTEIRA", "ER_REGIAO_CIDADE_min": "Praia Grande_Solemar_Baixada Santista" }, "geometry": { "type": "Point", "coordinates": [ -46.562851, -24.063183 ] } },
{ "type": "Feature", "properties": { "fid": 213787, "CNPJ": "42456132000172", "IDCIDADE": "PRAIA_GRANDE", "NOMEFANTASIA": "MERCADO_E_PADARIA_SEMPRE_VALLE_PRAIA", "RAZAOSOCIAL": "MERCADO_E_PADARIA_SEMPRE_VALLE_PRAIA_LTDA", "ENDEE": "AVENIDA_PRESIDENTE_KENNEDY10469__MARACANA_11705-755", "LMAPS": "https://www.google.com/maps?q=&layer=c&cbll=-24.0373986,-46.5083376", "O_QUE_FAZER": "CARTEIRA", "ER_REGIAO_CIDADE_min": "Praia Grande_Solemar_Baixada Santista" }, "geometry": { "type": "Point", "coordinates": [ -46.5083376, -24.0373986 ] } },
{ "type": "Feature", "properties": { "fid": 214258, "CNPJ": "42553542000131", "IDCIDADE": "PRAIA GRANDE", "NOMEFANTASIA": "Complax_Gesso_Ltda", "RAZAOSOCIAL": "COMPLAX_GESSO_LTDA", "ENDEE": "RUA COMANDANTE RODOLFO COELHO DA SILVA, 69, CAICARA, 11707-040, PRAIA GRANDE, SP, BRASIL", "LMAPS": "https://www.google.com/maps?q=&layer=c&cbll=-24.0542259,-46.5338603", "O_QUE_FAZER": "CARTEIRA - FAMPE", "ER_REGIAO_CIDADE_min": "Praia Grande_Solemar_Baixada Santista" }, "geometry": { "type": "Point", "coordinates": [ -46.5338603, -24.0542259 ] } },
{ "type": "Feature", "properties": { "fid": 215692, "CNPJ": "42886469000110", "IDCIDADE": "PRAIA GRANDE", "NOMEFANTASIA": null, "RAZAOSOCIAL": "GONCALVES_&_GOMES_CONSTRUTORA_E_INCOPORADORA_LTDA", "ENDEE": "AVENIDA NOSSA SENHORA DE FATIMA, 48, LOJA 01, CAICARA, 11706-300, PRAIA GRANDE, SP, BRASIL", "LMAPS": "https://www.google.com/maps?q=&layer=c&cbll=-24.0493713,-46.5278183", "O_QUE_FAZER": "CARTEIRA - FAMPE", "ER_REGIAO_CIDADE_min": "Praia Grande_Solemar_Baixada Santista" }, "geometry": { "type": "Point", "coordinates": [ -46.5278183, -24.0493713 ] } },
{ "type": "Feature", "properties": { "fid": 218333, "CNPJ": "43409152000155", "IDCIDADE": "PRAIA_GRANDE", "NOMEFANTASIA": "ALPET", "RAZAOSOCIAL": "F_R_DE_ARAUJO_FIGUEIREDO", "ENDEE": "AVENIDA_DIAMANTINO_CRUZ_FERREIRA_MOURAO2998__SAMAMBAIA_11713-650", "LMAPS": "https://www.google.com/maps?q=&layer=c&cbll=-24.034138,-46.5122803", "O_QUE_FAZER": "CARTEIRA", "ER_REGIAO_CIDADE_min": "Praia Grande_Solemar_Baixada Santista" }, "geometry": { "type": "Point", "coordinates": [ -46.5122803, -24.034138 ] } },
{ "type": "Feature", "properties": { "fid": 224723, "CNPJ": "44726166000165", "IDCIDADE": "PRAIA GRANDE", "NOMEFANTASIA": null, "RAZAOSOCIAL": "ALISSON_DA_SILVA_GERALDO_47886618882", "ENDEE": "RUA DOUTOR ANTONIO MANOEL DE CARVALHO, 470, CONJ, CAICARA, 11706-050, PRAIA GRANDE, SP, BRASIL", "LMAPS": "https://www.google.com/maps?q=&layer=c&cbll=-24.0402457,-46.5197006", "O_QUE_FAZER": "CARTEIRA - FAMPE", "ER_REGIAO_CIDADE_min": "Praia Grande_Solemar_Baixada Santista" }, "geometry": { "type": "Point", "coordinates": [ -46.5197006, -24.0402457 ] } },
{ "type": "Feature", "properties": { "fid": 225925, "CNPJ": "45001711000119", "IDCIDADE": "PRAIA_GRANDE", "NOMEFANTASIA": "SUPERMERCADO_IDEAL", "RAZAOSOCIAL": "IDEAL_COMERCIO_DE_ALIMENTOS_DO_LITORAL_LTDA", "ENDEE": "AVENIDA_PRESIDENTE_KENNEDY14183__REAL_11708-000", "LMAPS": "https://www.google.com/maps?q=&layer=c&cbll=-24.0513468,-46.5391163", "O_QUE_FAZER": "CARTEIRA", "ER_REGIAO_CIDADE_min": "Praia Grande_Solemar_Baixada Santista" }, "geometry": { "type": "Point", "coordinates": [ -46.5391163, -24.0513468 ] } },
{ "type": "Feature", "properties": { "fid": 229189, "CNPJ": "45722368000100", "IDCIDADE": "PRAIA_GRANDE", "NOMEFANTASIA": "FOX_VEICULOS", "RAZAOSOCIAL": "G.T._COMERCIO_DE_VEICULOS_E_INTERMEDIACAO_DE_NEGOCIOS_LTDA", "ENDEE": "AVENIDA_PRESIDENTE_KENNEDY10161__MARACANA_11706-005", "LMAPS": "https://www.google.com/maps?q=&layer=c&cbll=-24.035945,-46.50512", "O_QUE_FAZER": "CARTEIRA", "ER_REGIAO_CIDADE_min": "Praia Grande_Solemar_Baixada Santista" }, "geometry": { "type": "Point", "coordinates": [ -46.50512, -24.035945 ] } },
{ "type": "Feature", "properties": { "fid": 229322, "CNPJ": "45747075000179", "IDCIDADE": "PRAIA GRANDE", "NOMEFANTASIA": null, "RAZAOSOCIAL": "KALENT_REFRIGERACAO_E_SOLUCOES_LTDA", "ENDEE": "AVENIDA MILENA PERUTICH, 1276, MELVI, 11712-030, PRAIA GRANDE, SP, BRASIL", "LMAPS": "https://www.google.com/maps?q=&layer=c&cbll=-24.0349766,-46.5368154", "O_QUE_FAZER": "CARTEIRA - FAMPE", "ER_REGIAO_CIDADE_min": "Praia Grande_Solemar_Baixada Santista" }, "geometry": { "type": "Point", "coordinates": [ -46.5368154, -24.0349766 ] } },
{ "type": "Feature", "properties": { "fid": 230687, "CNPJ": "46006104000104", "IDCIDADE": "PRAIA GRANDE", "NOMEFANTASIA": null, "RAZAOSOCIAL": "GABRIELA_GALVES_DA_SILVA_38050466850", "ENDEE": "RUA ADHEMAR DE BARROS, 300, CONJ, SOLEMAR, 11709-200, PRAIA GRANDE, SP, BRASIL", "LMAPS": "https://www.google.com/maps?q=&layer=c&cbll=-24.0788182,-46.5910771", "O_QUE_FAZER": "CARTEIRA - FAMPE", "ER_REGIAO_CIDADE_min": "Praia Grande_Solemar_Baixada Santista" }, "geometry": { "type": "Point", "coordinates": [ -46.5910771, -24.0788182 ] } },
{ "type": "Feature", "properties": { "fid": 233550, "CNPJ": "46589694000145", "IDCIDADE": "PRAIA_GRANDE", "NOMEFANTASIA": "-", "RAZAOSOCIAL": "46.589.694_GABRIEL_DE_MOURA_SEVERO", "ENDEE": "AVENIDA_CARLOS ALBERTO PERRONE_725_MARACANA_11705-420_PRAIA_GRANDE", "LMAPS": "https://www.google.com/maps?q=&layer=c&cbll=-24.0366927,-46.5077433", "O_QUE_FAZER": "FINALIZADO", "ER_REGIAO_CIDADE_min": "Praia Grande_Solemar_Baixada Santista" }, "geometry": { "type": "Point", "coordinates": [ -46.5077433, -24.0366927 ] } },
{ "type": "Feature", "properties": { "fid": 234537, "CNPJ": "46785034000300", "IDCIDADE": "PRAIA_GRANDE", "NOMEFANTASIA": "BOI_NOBRE", "RAZAOSOCIAL": "REDE_BOI_NOBRE_DE_CARNES_LTDA", "ENDEE": "RUA_ITIBERE_DA_CUNHA138__ESMERALDA_11713-160", "LMAPS": "https://www.google.com/maps?q=&layer=c&cbll=-24.03166,-46.5248736", "O_QUE_FAZER": "CARTEIRA", "ER_REGIAO_CIDADE_min": "Praia Grande_Solemar_Baixada Santista" }, "geometry": { "type": "Point", "coordinates": [ -46.5248736, -24.03166 ] } },
{ "type": "Feature", "properties": { "fid": 234538, "CNPJ": "46785034000482", "IDCIDADE": "PRAIA_GRANDE", "NOMEFANTASIA": "CENTRAL_DE_CARNES_BOI_NOBRE", "RAZAOSOCIAL": "REDE_BOI_NOBRE_DE_CARNES_LTDA", "ENDEE": "AVENIDA_PRESIDENTE_KENNEDY10451__MARACANA_11705-755", "LMAPS": "https://www.google.com/maps?q=&layer=c&cbll=-24.0373116,-46.5081124", "O_QUE_FAZER": "CARTEIRA", "ER_REGIAO_CIDADE_min": "Praia Grande_Solemar_Baixada Santista" }, "geometry": { "type": "Point", "coordinates": [ -46.5081124, -24.0373116 ] } },
{ "type": "Feature", "properties": { "fid": 235034, "CNPJ": "46890613000142", "IDCIDADE": "PRAIA_GRANDE", "NOMEFANTASIA": "BOI_BOM", "RAZAOSOCIAL": "R_P_ALVES_ACOUGUE_E_MINIMERCADO", "ENDEE": "AVENIDA_PRESIDENTE_KENNEDY13239__CAICARA_11702-200", "LMAPS": "https://www.google.com/maps?q=&layer=c&cbll=-24.0478939,-46.5316151", "O_QUE_FAZER": "CARTEIRA", "ER_REGIAO_CIDADE_min": "Praia Grande_Solemar_Baixada Santista" }, "geometry": { "type": "Point", "coordinates": [ -46.5316151, -24.0478939 ] } },
{ "type": "Feature", "properties": { "fid": 235457, "CNPJ": "46974494000106", "IDCIDADE": "PRAIA_GRANDE", "NOMEFANTASIA": "INSTITUTO_MATHEUS_ALVARES", "RAZAOSOCIAL": "CMA_MATHEUS_ALVARES_LTDA", "ENDEE": "AVENIDA_PRESIDENTE_KENNEDY13534__REAL_11708-000", "LMAPS": "https://www.google.com/maps?q=&layer=c&cbll=-24.0488032,-46.5345137", "O_QUE_FAZER": "CARTEIRA", "ER_REGIAO_CIDADE_min": "Praia Grande_Solemar_Baixada Santista" }, "geometry": { "type": "Point", "coordinates": [ -46.5345137, -24.0488032 ] } },
{ "type": "Feature", "properties": { "fid": 239294, "CNPJ": "47774050000190", "IDCIDADE": "PRAIA_GRANDE", "NOMEFANTASIA": "CACAU_SHOW", "RAZAOSOCIAL": "CHAMMAS_&_SILVA_CHOCOLATES_LTDA", "ENDEE": "RUA_ITIBERE_DA_CUNHA655__ESMERALDA_11713-395", "LMAPS": "https://www.google.com/maps?q=&layer=c&cbll=-24.0294285,-46.5229178", "O_QUE_FAZER": "CARTEIRA - FAMPE", "ER_REGIAO_CIDADE_min": "Praia Grande_Solemar_Baixada Santista" }, "geometry": { "type": "Point", "coordinates": [ -46.5229178, -24.0294285 ] } },
{ "type": "Feature", "properties": { "fid": 240291, "CNPJ": "47977956000101", "IDCIDADE": "PRAIA_GRANDE", "NOMEFANTASIA": "REAL_ODONTO", "RAZAOSOCIAL": "PAOLA_RITA_RODRIGUES_CASASANTA", "ENDEE": "AVENIDA_PRESIDENTE_KENNEDY983__REAL_11708-005", "LMAPS": "https://www.google.com/maps?q=&layer=c&cbll=-24.0639949,-46.5640184", "O_QUE_FAZER": "CARTEIRA", "ER_REGIAO_CIDADE_min": "Praia Grande_Solemar_Baixada Santista" }, "geometry": { "type": "Point", "coordinates": [ -46.5640184, -24.0639949 ] } },
{ "type": "Feature", "properties": { "fid": 241364, "CNPJ": "48206399000279", "IDCIDADE": "PRAIA_GRANDE", "NOMEFANTASIA": "SODIE", "RAZAOSOCIAL": "LA_ALMEIDA_CONFEITARIA_LTDA", "ENDEE": "AVENIDA_PRESIDENTE_KENNEDY13527__REAL_11708-000", "LMAPS": "https://www.google.com/maps?q=&layer=c&cbll=-24.0491592,-46.5340396", "O_QUE_FAZER": "CARTEIRA", "ER_REGIAO_CIDADE_min": "Praia Grande_Solemar_Baixada Santista" }, "geometry": { "type": "Point", "coordinates": [ -46.5340396, -24.0491592 ] } },
{ "type": "Feature", "properties": { "fid": 242142, "CNPJ": "48353864000113", "IDCIDADE": "PRAIA GRANDE", "NOMEFANTASIA": "Pier_15", "RAZAOSOCIAL": "PIER_15_LANCHES_E_REFEICOES_LTDA", "ENDEE": "AVENIDA PRESIDENTE CASTELO BRANCO, 12501, QUIOSQ15, CAICARA, 11706-500, PRAIA GRANDE, SP, BRASIL", "LMAPS": "https://www.google.com/maps?q=&layer=c&cbll=-24.0483436,-46.5188098", "O_QUE_FAZER": "CARTEIRA - FAMPE", "ER_REGIAO_CIDADE_min": "Praia Grande_Solemar_Baixada Santista" }, "geometry": { "type": "Point", "coordinates": [ -46.5188098, -24.0483436 ] } },
{ "type": "Feature", "properties": { "fid": 242295, "CNPJ": "48378595000140", "IDCIDADE": "PRAIA_GRANDE", "NOMEFANTASIA": "PONTOCAO.BR", "RAZAOSOCIAL": "IZABELA_ARAGAO_DA_SILVA", "ENDEE": "AVENIDA_DO_CORRETOR_DE_IMOVEIS281__SAMAMBAIA_11712-420", "LMAPS": "https://www.google.com/maps?q=&layer=c&cbll=-24.0378688,-46.5228292", "O_QUE_FAZER": "CARTEIRA", "ER_REGIAO_CIDADE_min": "Praia Grande_Solemar_Baixada Santista" }, "geometry": { "type": "Point", "coordinates": [ -46.5228292, -24.0378688 ] } },
{ "type": "Feature", "properties": { "fid": 243192, "CNPJ": "48557098000109", "IDCIDADE": "PRAIA_GRANDE", "NOMEFANTASIA": "SOLANGE_DEL_NERO_00773857800", "RAZAOSOCIAL": "DALMERIO_REPRESENTACOES_", "ENDEE": "AVENIDA_PROFESSOR_DAIJIRO_MATSUDA201__MARACANA_11705-400", "LMAPS": "https://www.google.com/maps?q=&layer=c&cbll=-24.0392397,-46.5028278", "O_QUE_FAZER": "FINALIZADO", "ER_REGIAO_CIDADE_min": "Praia Grande_Solemar_Baixada Santista" }, "geometry": { "type": "Point", "coordinates": [ -46.5028278, -24.0392397 ] } },
{ "type": "Feature", "properties": { "fid": 243533, "CNPJ": "48626441000120", "IDCIDADE": "PRAIA_GRANDE", "NOMEFANTASIA": "SUPER_UTIL", "RAZAOSOCIAL": "SUPER_UTIL_VARIEDADES_LTDA", "ENDEE": "RUA_ITIBERE_DA_CUNHA324__ESMERALDA_11713-160", "LMAPS": "https://www.google.com/maps?q=&layer=c&cbll=-24.0299607,-46.5232807", "O_QUE_FAZER": "CARTEIRA", "ER_REGIAO_CIDADE_min": "Praia Grande_Solemar_Baixada Santista" }, "geometry": { "type": "Point", "coordinates": [ -46.5232807, -24.0299607 ] } },
{ "type": "Feature", "properties": { "fid": 244082, "CNPJ": "48723117000120", "IDCIDADE": "PRAIA GRANDE", "NOMEFANTASIA": "-", "RAZAOSOCIAL": "48.723.117_ANA_JULIA_KETTY_DE_OLIVEIRA_MARTINS", "ENDEE": "AVENIDA DOUTOR ANTONIO SYLVIO CUNHA BUENO, 859, MELVI, 11712-040, PRAIA GRANDE, SP, BRASIL", "LMAPS": "https://www.google.com/maps?q=&layer=c&cbll=-24.0371709,-46.5330677", "O_QUE_FAZER": "CARTEIRA - FAMPE", "ER_REGIAO_CIDADE_min": "Praia Grande_Solemar_Baixada Santista" }, "geometry": { "type": "Point", "coordinates": [ -46.5330677, -24.0371709 ] } },
{ "type": "Feature", "properties": { "fid": 244837, "CNPJ": "48880998000192", "IDCIDADE": "PRAIA_GRANDE", "NOMEFANTASIA": "MATHEUS_MOTOS", "RAZAOSOCIAL": "MATHEUS_MOTOS_LTDA", "ENDEE": "AVENIDA_DIAMANTINO_CRUZ_FERREIRA_MOURAO3150__SAMAMBAIA_11712-005", "LMAPS": "https://www.google.com/maps?q=&layer=c&cbll=-24.0348673,-46.5134382", "O_QUE_FAZER": "CARTEIRA", "ER_REGIAO_CIDADE_min": "Praia Grande_Solemar_Baixada Santista" }, "geometry": { "type": "Point", "coordinates": [ -46.5134382, -24.0348673 ] } },
{ "type": "Feature", "properties": { "fid": 247622, "CNPJ": "49547657000162", "IDCIDADE": "PRAIA_GRANDE", "NOMEFANTASIA": "49.547.657_JOSILENE_VITAL_DA_SILVA_SANTOS", "RAZAOSOCIAL": "MUNDO_DAS_TINTAS_SP", "ENDEE": "AVENIDA_MARIA_CAVALCANTE_DA_SILVA550__SAMAMBAIA_11712-560", "LMAPS": "https://www.google.com/maps?q=&layer=c&cbll=-24.0339697,-46.5294666", "O_QUE_FAZER": "FINALIZADO", "ER_REGIAO_CIDADE_min": "Praia Grande_Solemar_Baixada Santista" }, "geometry": { "type": "Point", "coordinates": [ -46.5294666, -24.0339697 ] } },
{ "type": "Feature", "properties": { "fid": 247963, "CNPJ": "49607913000160", "IDCIDADE": "PRAIA_GRANDE", "NOMEFANTASIA": "10.200_VEICULOS", "RAZAOSOCIAL": "10.200_VEICULOS_LTDA", "ENDEE": "AVENIDA_PRESIDENTE_KENNEDY10200__MARACANA_11705-750", "LMAPS": "https://www.google.com/maps?q=&layer=c&cbll=-24.0357083,-46.50558", "O_QUE_FAZER": "CARTEIRA - FAMPE", "ER_REGIAO_CIDADE_min": "Praia Grande_Solemar_Baixada Santista" }, "geometry": { "type": "Point", "coordinates": [ -46.50558, -24.0357083 ] } },
{ "type": "Feature", "properties": { "fid": 249759, "CNPJ": "49956972000143", "IDCIDADE": "PRAIA_GRANDE", "NOMEFANTASIA": "ITAPOAN", "RAZAOSOCIAL": "ITAPOAN_-_PRAIA_GRANDE_COMERCIO_DE_MATERIAIS_PARA_CONSTRUCOES_LTDA", "ENDEE": "AVENIDA_PRESIDENTE_KENNEDY13908__REAL_11708-000", "LMAPS": "https://www.google.com/maps?q=&layer=c&cbll=-24.050408,-46.5377957", "O_QUE_FAZER": "CARTEIRA", "ER_REGIAO_CIDADE_min": "Praia Grande_Solemar_Baixada Santista" }, "geometry": { "type": "Point", "coordinates": [ -46.5377957, -24.050408 ] } },
{ "type": "Feature", "properties": { "fid": 252044, "CNPJ": "50404386000175", "IDCIDADE": "PRAIA GRANDE", "NOMEFANTASIA": "-", "RAZAOSOCIAL": "50.404.386_JOAO_FELIPE_VIEIRA_SOUZA", "ENDEE": "AVENIDA PRESIDENTE KENNEDY, 13881, SOLEMAR, 11709-005, PRAIA GRANDE, SP, BRASIL", "LMAPS": "https://www.google.com/maps?q=&layer=c&cbll=-24.0505941,-46.5374059", "O_QUE_FAZER": "CARTEIRA - FAMPE", "ER_REGIAO_CIDADE_min": "Praia Grande_Solemar_Baixada Santista" }, "geometry": { "type": "Point", "coordinates": [ -46.5374059, -24.0505941 ] } },
{ "type": "Feature", "properties": { "fid": 252247, "CNPJ": "50451198000106", "IDCIDADE": "PRAIA_GRANDE", "NOMEFANTASIA": "ALPET", "RAZAOSOCIAL": "R_DE_O_MEDEIROS_-_PET_SHOP", "ENDEE": "AVENIDA_PRESIDENTE_KENNEDY13376__CAICARA_11702-200", "LMAPS": "https://www.google.com/maps?q=&layer=c&cbll=-24.0484718,-46.5329218", "O_QUE_FAZER": "CARTEIRA", "ER_REGIAO_CIDADE_min": "Praia Grande_Solemar_Baixada Santista" }, "geometry": { "type": "Point", "coordinates": [ -46.5329218, -24.0484718 ] } },
{ "type": "Feature", "properties": { "fid": 252686, "CNPJ": "50551036000131", "IDCIDADE": "PRAIA_GRANDE", "NOMEFANTASIA": "50.551.036_JACIRA_BERNARDINO_ALVES", "RAZAOSOCIAL": "CARRINHO_DA_JACIRA", "ENDEE": "RUA_MATHILDE_DE_AZEVEDO_SETUBAL287__CAICARA_11706-360", "LMAPS": "https://www.google.com/maps?q=&layer=c&cbll=-24.0436297,-46.5264784", "O_QUE_FAZER": "FINALIZADO", "ER_REGIAO_CIDADE_min": "Praia Grande_Solemar_Baixada Santista" }, "geometry": { "type": "Point", "coordinates": [ -46.5264784, -24.0436297 ] } },
{ "type": "Feature", "properties": { "fid": 254113, "CNPJ": "50819939000150", "IDCIDADE": "PRAIA_GRANDE", "NOMEFANTASIA": "OGGI", "RAZAOSOCIAL": "BRUNA_NOVAK_SORVETES_LTDA", "ENDEE": "AVENIDA_DO_CORRETOR_DE_IMOVEIS531__SAMAMBAIA_11712-400", "LMAPS": "https://www.google.com/maps?q=&layer=c&cbll=-24.0360251,-46.5251352", "O_QUE_FAZER": "CARTEIRA", "ER_REGIAO_CIDADE_min": "Praia Grande_Solemar_Baixada Santista" }, "geometry": { "type": "Point", "coordinates": [ -46.5251352, -24.0360251 ] } },
{ "type": "Feature", "properties": { "fid": 255436, "CNPJ": "51076917000100", "IDCIDADE": "PRAIA_GRANDE", "NOMEFANTASIA": "BENE_ADMINISTRACAO", "RAZAOSOCIAL": "BENE_ADMINISTRACAO_DE_CONDOMINIOS_LTDA.", "ENDEE": "AVENIDA_PRESIDENTE_KENNEDY13167__CAICARA_11702-200", "LMAPS": "https://www.google.com/maps?q=&layer=c&cbll=-24.0475931,-46.5310982", "O_QUE_FAZER": "CARTEIRA", "ER_REGIAO_CIDADE_min": "Praia Grande_Solemar_Baixada Santista" }, "geometry": { "type": "Point", "coordinates": [ -46.5310982, -24.0475931 ] } },
{ "type": "Feature", "properties": { "fid": 256016, "CNPJ": "51172581000180", "IDCIDADE": "PRAIA GRANDE", "NOMEFANTASIA": "-", "RAZAOSOCIAL": "51.172.581_FLAVIO_CORDEIRO_DA_SILVA", "ENDEE": "RUA TOPAZIO, 15, CIDADE DA CRIANCA, 11710-160, PRAIA GRANDE, SP, BRASIL", "LMAPS": "https://www.google.com/maps?q=&layer=c&cbll=-24.0780903,-46.5940727", "O_QUE_FAZER": "CARTEIRA - FAMPE", "ER_REGIAO_CIDADE_min": "Praia Grande_Solemar_Baixada Santista" }, "geometry": { "type": "Point", "coordinates": [ -46.5940727, -24.0780903 ] } },
{ "type": "Feature", "properties": { "fid": 257853, "CNPJ": "51555433000144", "IDCIDADE": "PRAIA_GRANDE", "NOMEFANTASIA": "ADEGA_MARESIAS_BEACH", "RAZAOSOCIAL": "LIDIANE_SANTANA_QUEIROZ_DA_SILVA", "ENDEE": "AVENIDA_PRESIDENTE_KENNEDY16599__REAL_11708-000", "LMAPS": "https://www.google.com/maps?q=&layer=c&cbll=-24.0618279,-46.5603233", "O_QUE_FAZER": "CARTEIRA", "ER_REGIAO_CIDADE_min": "Praia Grande_Solemar_Baixada Santista" }, "geometry": { "type": "Point", "coordinates": [ -46.5603233, -24.0618279 ] } },
{ "type": "Feature", "properties": { "fid": 260259, "CNPJ": "52032442000113", "IDCIDADE": "PRAIA_GRANDE", "NOMEFANTASIA": "LUISI_BIKE_SHOP", "RAZAOSOCIAL": "LUISI_BIKE_SHOP_LTDA", "ENDEE": "AVENIDA_DO_CORRETOR_DE_IMOVEIS10__SAMAMBAIA_11712-420", "LMAPS": "https://www.google.com/maps?q=&layer=c&cbll=-24.0379353,-46.5222915", "O_QUE_FAZER": "CARTEIRA", "ER_REGIAO_CIDADE_min": "Praia Grande_Solemar_Baixada Santista" }, "geometry": { "type": "Point", "coordinates": [ -46.5222915, -24.0379353 ] } },
{ "type": "Feature", "properties": { "fid": 262068, "CNPJ": "52414442000188", "IDCIDADE": "PRAIA_GRANDE", "NOMEFANTASIA": "IDEAL_PRESENTES", "RAZAOSOCIAL": "IDEAL_PRESENTES_CRIATIVOS_LTDA", "ENDEE": "AVENIDA_PRESIDENTE_KENNEDY16685__REAL_11708-000", "LMAPS": "https://www.google.com/maps?q=&layer=c&cbll=-24.0624783,-46.5615709", "O_QUE_FAZER": "CARTEIRA", "ER_REGIAO_CIDADE_min": "Praia Grande_Solemar_Baixada Santista" }, "geometry": { "type": "Point", "coordinates": [ -46.5615709, -24.0624783 ] } },
{ "type": "Feature", "properties": { "fid": 267440, "CNPJ": "53602447000105", "IDCIDADE": "PRAIA_GRANDE", "NOMEFANTASIA": "LOJAS_DANNY", "RAZAOSOCIAL": "MINI_LOJA_DANIMAR_LTDA", "ENDEE": "AVENIDA_PRESIDENTE_KENNEDY205__REAL_11702-205", "LMAPS": "https://www.google.com/maps?q=&layer=c&cbll=-24.065102,-46.5659938", "O_QUE_FAZER": "CARTEIRA", "ER_REGIAO_CIDADE_min": "Praia Grande_Solemar_Baixada Santista" }, "geometry": { "type": "Point", "coordinates": [ -46.5659938, -24.065102 ] } },
{ "type": "Feature", "properties": { "fid": 267741, "CNPJ": "53682273000120", "IDCIDADE": "PRAIA GRANDE", "NOMEFANTASIA": "-", "RAZAOSOCIAL": "53.682.273_MARIANA_SILVA_DOS_SANTOS", "ENDEE": "AVENIDA ANA PEREIRA DA FRANCA, 369, ESMERALDA, 11713-280, PRAIA GRANDE, SP, BRASIL", "LMAPS": "https://www.google.com/maps?q=&layer=c&cbll=-24.0329551,-46.5163449", "O_QUE_FAZER": "CARTEIRA - FAMPE", "ER_REGIAO_CIDADE_min": "Praia Grande_Solemar_Baixada Santista" }, "geometry": { "type": "Point", "coordinates": [ -46.5163449, -24.0329551 ] } },
{ "type": "Feature", "properties": { "fid": 273669, "CNPJ": "54980525000160", "IDCIDADE": "PRAIA GRANDE", "NOMEFANTASIA": "-", "RAZAOSOCIAL": "54.980.525_RITA_DE_CASSIA_SOUZA", "ENDEE": "RUA ESMERALDA, 366, CIDADE DA CRIANCA, 11710-190, PRAIA GRANDE, SP, BRASIL", "LMAPS": "https://www.google.com/maps?q=&layer=c&cbll=-24.0750006,-46.5945844", "O_QUE_FAZER": "CARTEIRA - FAMPE", "ER_REGIAO_CIDADE_min": "Praia Grande_Solemar_Baixada Santista" }, "geometry": { "type": "Point", "coordinates": [ -46.5945844, -24.0750006 ] } },
{ "type": "Feature", "properties": { "fid": 275045, "CNPJ": "55297063000143", "IDCIDADE": "PRAIA_GRANDE", "NOMEFANTASIA": "CASA_DE_FERRAGENS_TRIANGULO_II", "RAZAOSOCIAL": "CASA_DE_FERRAGENS_TRIANGULO_II_LTDA", "ENDEE": "AVENIDA_PRESIDENTE_KENNEDY13350__CAICARA_11702-200", "LMAPS": "https://www.google.com/maps?q=&layer=c&cbll=-24.048092,-46.5329363", "O_QUE_FAZER": "CARTEIRA", "ER_REGIAO_CIDADE_min": "Praia Grande_Solemar_Baixada Santista" }, "geometry": { "type": "Point", "coordinates": [ -46.5329363, -24.048092 ] } },
{ "type": "Feature", "properties": { "fid": 276674, "CNPJ": "55687229000138", "IDCIDADE": "PRAIA GRANDE", "NOMEFANTASIA": "-", "RAZAOSOCIAL": "55.687.229_GLAUCYA_CHRISTINA_DA_SILVA_ROSA", "ENDEE": "RUA BENEDITO ALVES DOS SANTOS, 219, PRINCESA, 11711-597, PRAIA GRANDE, SP, BRASIL", "LMAPS": "https://www.google.com/maps?q=&layer=c&cbll=-24.0572287,-46.5587487", "O_QUE_FAZER": "CARTEIRA - FAMPE", "ER_REGIAO_CIDADE_min": "Praia Grande_Solemar_Baixada Santista" }, "geometry": { "type": "Point", "coordinates": [ -46.5587487, -24.0572287 ] } },
{ "type": "Feature", "properties": { "fid": 277681, "CNPJ": "55940664000122", "IDCIDADE": "PRAIA GRANDE", "NOMEFANTASIA": "Impacta_Cross_Suportes_e_Acessorios", "RAZAOSOCIAL": "IMPACTA_CROSS_LTDA", "ENDEE": "AVENIDA PRESIDENTE KENNEDY, 15393, LOJA 3, REAL, 11708-005, PRAIA GRANDE, SP, BRASIL", "LMAPS": "https://www.google.com/maps?q=&layer=c&cbll=-24.0566261,-46.5502112", "O_QUE_FAZER": "CARTEIRA - FAMPE", "ER_REGIAO_CIDADE_min": "Praia Grande_Solemar_Baixada Santista" }, "geometry": { "type": "Point", "coordinates": [ -46.5502112, -24.0566261 ] } },
{ "type": "Feature", "properties": { "fid": 277900, "CNPJ": "55995223000128", "IDCIDADE": "PRAIA GRANDE", "NOMEFANTASIA": "-", "RAZAOSOCIAL": "55.995.223_MARCOS_AURELIO_VILAS_BOAS", "ENDEE": "RUA JOAQUIM OSORIO DUQUE ESTRADA, 1097, ESMERALDA, 11713-510, PRAIA GRANDE, SP, BRASIL", "LMAPS": "https://www.google.com/maps?q=&layer=c&cbll=-24.0267349,-46.5185089", "O_QUE_FAZER": "CARTEIRA - FAMPE", "ER_REGIAO_CIDADE_min": "Praia Grande_Solemar_Baixada Santista" }, "geometry": { "type": "Point", "coordinates": [ -46.5185089, -24.0267349 ] } },
{ "type": "Feature", "properties": { "fid": 281007, "CNPJ": "57182888000148", "IDCIDADE": "PRAIA_GRANDE", "NOMEFANTASIA": "MEL_MANICURE", "RAZAOSOCIAL": "MEL_MANICURE", "ENDEE": "PRESIDENTE_COSTA_E_SILVA609__BOQUEIRAO_11706-450", "LMAPS": "https://www.google.com/maps?q=&layer=c&cbll=-24.0487916,-46.5322033", "O_QUE_FAZER": "FINALIZADO", "ER_REGIAO_CIDADE_min": "Praia Grande_Solemar_Baixada Santista" }, "geometry": { "type": "Point", "coordinates": [ -46.5322033, -24.0487916 ] } },
{ "type": "Feature", "properties": { "fid": 285516, "CNPJ": "58461489000189", "IDCIDADE": "PRAIA GRANDE", "NOMEFANTASIA": "-", "RAZAOSOCIAL": "58.461.489_JULIA_LAURA_SMITH", "ENDEE": "RUA FREI FRANCISCO DO MONTE ALVERNE, 30112, MELVI, 11712-090, PRAIA GRANDE, SP, BRASIL", "LMAPS": "https://www.google.com/maps?q=&layer=c&cbll=-24.0365407,-46.5319836", "O_QUE_FAZER": "CARTEIRA - FAMPE", "ER_REGIAO_CIDADE_min": "Praia Grande_Solemar_Baixada Santista" }, "geometry": { "type": "Point", "coordinates": [ -46.5319836, -24.0365407 ] } },
{ "type": "Feature", "properties": { "fid": 287156, "CNPJ": "59032876000162", "IDCIDADE": "PRAIA GRANDE", "NOMEFANTASIA": null, "RAZAOSOCIAL": "59.032.876_ELISABETH_DE_ALMEIDA_COLONTONIO", "ENDEE": "RUA SANTO AGOSTINHO, 51, CASA 1, CAICARA, 11706-150, PRAIA GRANDE, SP, BRASIL", "LMAPS": "https://www.google.com/maps?q=&layer=c&cbll=-24.0473426,-46.5180228", "O_QUE_FAZER": "CARTEIRA - FAMPE", "ER_REGIAO_CIDADE_min": "Praia Grande_Solemar_Baixada Santista" }, "geometry": { "type": "Point", "coordinates": [ -46.5180228, -24.0473426 ] } },
{ "type": "Feature", "properties": { "fid": 289718, "CNPJ": "59817670000148", "IDCIDADE": "PRAIA_GRANDE", "NOMEFANTASIA": "59.817.670_LUANNA_GOMES_DE_SOUZA", "RAZAOSOCIAL": "LUMI_SABORES", "ENDEE": "AVENIDA_PROFESSORA_HELENY_ROSA1448__JARDIM_MELVI_11712-150", "LMAPS": "https://www.google.com/maps?q=&layer=c&cbll=-24.0334459,-46.5367538", "O_QUE_FAZER": "FINALIZADO", "ER_REGIAO_CIDADE_min": "Praia Grande_Solemar_Baixada Santista" }, "geometry": { "type": "Point", "coordinates": [ -46.5367538, -24.0334459 ] } },
{ "type": "Feature", "properties": { "fid": 290723, "CNPJ": "60163395000175", "IDCIDADE": "PRAIA_GRANDE", "NOMEFANTASIA": "CALVIN_JONATHAS_FERNANDES", "RAZAOSOCIAL": "LAR_FERNANDES", "ENDEE": "RUA_GEZIAEL_PEREIRA_DA_SILVA1425__ESMERALDA_11713-285", "LMAPS": "https://www.google.com/maps?q=&layer=c&cbll=-24.0295289,-46.5232186", "O_QUE_FAZER": "FINALIZADO", "ER_REGIAO_CIDADE_min": "Praia Grande_Solemar_Baixada Santista" }, "geometry": { "type": "Point", "coordinates": [ -46.5232186, -24.0295289 ] } },
{ "type": "Feature", "properties": { "fid": 293677, "CNPJ": "61191915000116", "IDCIDADE": "PRAIA GRANDE", "NOMEFANTASIA": null, "RAZAOSOCIAL": "61.191.915_RUAN_ASSUNCAO_PENNA_FERREIRA", "ENDEE": "RUA ATIBAIA, 408, REAL, 11707-380, PRAIA GRANDE, SP, BRASIL", "LMAPS": "https://www.google.com/maps?q=&layer=c&cbll=-24.0590083,-46.5517556", "O_QUE_FAZER": "CARTEIRA - FAMPE", "ER_REGIAO_CIDADE_min": "Praia Grande_Solemar_Baixada Santista" }, "geometry": { "type": "Point", "coordinates": [ -46.5517556, -24.0590083 ] } },
{ "type": "Feature", "properties": { "fid": 295413, "CNPJ": "61843588000130", "IDCIDADE": "PRAIA_GRANDE", "NOMEFANTASIA": null, "RAZAOSOCIAL": "61.843.588_CAROLINA_COSTA_LEMES", "ENDEE": "RUA_CESAR RODRIGUES REIS_147_MARACANA_11705-510_PRAIA_GRANDE", "LMAPS": "https://www.google.com/maps?q=&layer=c&cbll=-24.0414864,-46.5065316", "O_QUE_FAZER": "APLICAR M1", "ER_REGIAO_CIDADE_min": "Praia Grande_Solemar_Baixada Santista" }, "geometry": { "type": "Point", "coordinates": [ -46.5065316, -24.0414864 ] } },
{ "type": "Feature", "properties": { "fid": 295506, "CNPJ": "61891596000151", "IDCIDADE": "PRAIA GRANDE", "NOMEFANTASIA": null, "RAZAOSOCIAL": "61.891.596_BRUNA_MACHADO", "ENDEE": "RUA SANTO ANTONIO, 760, CAICARA, 11706-200, PRAIA GRANDE, SP, BRASIL", "LMAPS": "https://www.google.com/maps?q=&layer=c&cbll=-24.0439662,-46.5253446", "O_QUE_FAZER": "CARTEIRA - FAMPE", "ER_REGIAO_CIDADE_min": "Praia Grande_Solemar_Baixada Santista" }, "geometry": { "type": "Point", "coordinates": [ -46.5253446, -24.0439662 ] } },
{ "type": "Feature", "properties": { "fid": 297039, "CNPJ": "62523582000148", "IDCIDADE": "PRAIA GRANDE", "NOMEFANTASIA": null, "RAZAOSOCIAL": "62.523.582_RICARDO_GABRIEL_DE_CAMPOS_TEIXEIRA", "ENDEE": "RUA SANTA RITA DE CASSIA, 961, MARACANA, 11705-650, PRAIA GRANDE, SP, BRASIL", "LMAPS": "https://www.google.com/maps?q=&layer=c&cbll=-24.0390731,-46.5183942", "O_QUE_FAZER": "CARTEIRA - FAMPE", "ER_REGIAO_CIDADE_min": "Praia Grande_Solemar_Baixada Santista" }, "geometry": { "type": "Point", "coordinates": [ -46.5183942, -24.0390731 ] } },
{ "type": "Feature", "properties": { "fid": 300037, "CNPJ": "64241594000105", "IDCIDADE": "PRAIA GRANDE", "NOMEFANTASIA": null, "RAZAOSOCIAL": "64.241.594_CLAUDIA_BARROS_DOS_SANTOS", "ENDEE": "AVENIDA DOUTOR ANTONIO SYLVIO CUNHA BUENO, 136, CASA 1, MELVI, 11712-040, PRAIA GRANDE, SP, BRASIL", "LMAPS": "https://www.google.com/maps?q=&layer=c&cbll=-24.0409212,-46.5273143", "O_QUE_FAZER": "CARTEIRA - FAMPE", "ER_REGIAO_CIDADE_min": "Praia Grande_Solemar_Baixada Santista" }, "geometry": { "type": "Point", "coordinates": [ -46.5273143, -24.0409212 ] } },
{ "type": "Feature", "properties": { "fid": 300242, "CNPJ": "64441437000143", "IDCIDADE": "PRAIA GRANDE", "NOMEFANTASIA": null, "RAZAOSOCIAL": "64.441.437_JOSE_AILTON_DOS_SANTOS", "ENDEE": "AVENIDA DIAMANTINO CRUZ FERREIRA MOURAO, 2618, RIBEIROPOLIS, 11714-630, PRAIA GRANDE, SP, BRASIL", "LMAPS": "https://www.google.com/maps?q=&layer=c&cbll=-24.031562,-46.5111581", "O_QUE_FAZER": "CARTEIRA - FAMPE", "ER_REGIAO_CIDADE_min": "Praia Grande_Solemar_Baixada Santista" }, "geometry": { "type": "Point", "coordinates": [ -46.5111581, -24.031562 ] } },
{ "type": "Feature", "properties": { "fid": 301406, "CNPJ": "64976226000105", "IDCIDADE": "PRAIA GRANDE", "NOMEFANTASIA": null, "RAZAOSOCIAL": "64.976.226_ALEXANDRE_DIAS_DE_TOLEDO", "ENDEE": "AVENIDA MILTON DE OLIVEIRA, 155, MELVI, 11712-000, PRAIA GRANDE, SP, BRASIL", "LMAPS": "https://www.google.com/maps?q=&layer=c&cbll=-24.0424353,-46.5300207", "O_QUE_FAZER": "CARTEIRA - FAMPE", "ER_REGIAO_CIDADE_min": "Praia Grande_Solemar_Baixada Santista" }, "geometry": { "type": "Point", "coordinates": [ -46.5300207, -24.0424353 ] } },
{ "type": "Feature", "properties": { "fid": 301475, "CNPJ": "65007687000132", "IDCIDADE": "PRAIA GRANDE", "NOMEFANTASIA": null, "RAZAOSOCIAL": "65.007.687_LEONARDO_DE_SOUZA_PEREIRA", "ENDEE": "RUA MATHILDE DE AZEVEDO SETUBAL, 485, APT 142, CAICARA, 11706-360, PRAIA GRANDE, SP, BRASIL", "LMAPS": "https://www.google.com/maps?q=&layer=c&cbll=-24.0447541,-46.5278584", "O_QUE_FAZER": "CARTEIRA - FAMPE", "ER_REGIAO_CIDADE_min": "Praia Grande_Solemar_Baixada Santista" }, "geometry": { "type": "Point", "coordinates": [ -46.5278584, -24.0447541 ] } },
{ "type": "Feature", "properties": { "fid": 301696, "CNPJ": "65163504000178", "IDCIDADE": "PRAIA GRANDE", "NOMEFANTASIA": null, "RAZAOSOCIAL": "65.163.504_TAINA_DE_OLIVEIRA_NASCIMENTO", "ENDEE": "AVENIDA JAIRO DE CAMARGO MARTINS, 999, CASA 3, SAMAMBAIA, 11713-060, PRAIA GRANDE, SP, BRASIL", "LMAPS": "https://www.google.com/maps?q=&layer=c&cbll=-24.0315017,-46.5248535", "O_QUE_FAZER": "CARTEIRA - FAMPE", "ER_REGIAO_CIDADE_min": "Praia Grande_Solemar_Baixada Santista" }, "geometry": { "type": "Point", "coordinates": [ -46.5248535, -24.0315017 ] } },
{ "type": "Feature", "properties": { "fid": 304018, "CNPJ": "66412621000190", "IDCIDADE": "PRAIA GRANDE", "NOMEFANTASIA": null, "RAZAOSOCIAL": "66.412.621_CRISTIANE_DE_JESUS_SILVA", "ENDEE": "RUA JAMIL ISSA, 114, CAICARA, 11706-510, PRAIA GRANDE, SP, BRASIL", "LMAPS": "https://www.google.com/maps?q=&layer=c&cbll=-24.0529929,-46.5316438", "O_QUE_FAZER": "CARTEIRA - FAMPE", "ER_REGIAO_CIDADE_min": "Praia Grande_Solemar_Baixada Santista" }, "geometry": { "type": "Point", "coordinates": [ -46.5316438, -24.0529929 ] } },
{ "type": "Feature", "properties": { "fid": 306865, "CNPJ": "67764250000179", "IDCIDADE": "PRAIA GRANDE", "NOMEFANTASIA": null, "RAZAOSOCIAL": "67.764.250_MARIA_ISABELA_COSTA_DE_SOUZA", "ENDEE": "AVENIDA DOS JATOBAS, 52, SAMAMBAIA, 11712-530, PRAIA GRANDE, SP, BRASIL", "LMAPS": "https://www.google.com/maps?q=&layer=c&cbll=-24.0290591,-46.5314619", "O_QUE_FAZER": "CARTEIRA - FAMPE", "ER_REGIAO_CIDADE_min": "Praia Grande_Solemar_Baixada Santista" }, "geometry": { "type": "Point", "coordinates": [ -46.5314619, -24.0290591 ] } },
{ "type": "Feature", "properties": { "fid": 307619, "CNPJ": "68116623000168", "IDCIDADE": "PRAIA_GRANDE", "NOMEFANTASIA": "OPCAO_MODAS", "RAZAOSOCIAL": "OPCAO_MODAS_VILA_CAICARA_LTDA", "ENDEE": "AVENIDA_PRESIDENTE_KENNEDY13183__CAICARA_11707-005", "LMAPS": "https://www.google.com/maps?q=&layer=c&cbll=-24.0477309,-46.5311603", "O_QUE_FAZER": "CARTEIRA", "ER_REGIAO_CIDADE_min": "Praia Grande_Solemar_Baixada Santista" }, "geometry": { "type": "Point", "coordinates": [ -46.5311603, -24.0477309 ] } },
{ "type": "Feature", "properties": { "fid": 310798, "CNPJ": "73158362000189", "IDCIDADE": "PRAIA_GRANDE", "NOMEFANTASIA": "SKINAO_DO_FERRO", "RAZAOSOCIAL": "SKINAO_COMERCIO_FERRO_ACO_LTDA", "ENDEE": "AVENIDA_MARGINAL274__VILA_SONIA_11714-630", "LMAPS": "https://www.google.com/maps?q=&layer=c&cbll=-24.0383255,-46.5200191", "O_QUE_FAZER": "CARTEIRA", "ER_REGIAO_CIDADE_min": "Praia Grande_Solemar_Baixada Santista" }, "geometry": { "type": "Point", "coordinates": [ -46.5200191, -24.0383255 ] } },
{ "type": "Feature", "properties": { "fid": 313083, "CNPJ": "05834533000192", "IDCIDADE": "PRAIA GRANDE", "NOMEFANTASIA": "COOPERATIVA DOS TRABALHADORES AUTONOMOS DO ARTESANATO EM MADEIRA, FIBRAS NATURAIS E COZINHA ARTESANAL DE PRAIA GRANDE - COOPERATIVA ABELHINHAS DE SIAO", "RAZAOSOCIAL": "COOPERATIVA DOS TRABALHADORES AUTONOMOS DO ARTESANATO EM MADEIRA, FIBRAS NATURAIS E COZINHA ARTESANAL DE PRAIA GRANDE", "ENDEE": "RUA ADRIANO DOS SANTOS, S/N, COMPLEXO CIDADE DA CRIANCA, SOLEMAR, 11710-110, PRAIA GRANDE, SP, BRASIL", "LMAPS": "https://www.google.com/maps?q=&layer=c&cbll=-24.0784258,-46.5978763", "O_QUE_FAZER": "APLICAR T2", "ER_REGIAO_CIDADE_min": "Praia Grande_Solemar_Baixada Santista" }, "geometry": { "type": "Point", "coordinates": [ -46.5978763, -24.0784258 ] } }
]
}
