{
"type": "FeatureCollection",
"name": "ER_REGIAO_CIDADE_min_Novo Horizonte_Novo Horizonte_Araraquara",
"crs": { "type": "name", "properties": { "name": "urn:ogc:def:crs:OGC:1.3:CRS84" } },
"xy_coordinate_resolution": 1e-15,
"features": [
{ "type": "Feature", "properties": { "fid": 2494, "CNPJ": "00512295000185", "IDCIDADE": "NOVO_HORIZONTE", "NOMEFANTASIA": "SYSTEM_INFORMATICA_ASSISTENCIA", "RAZAOSOCIAL": "SYSTEM_NOVO_HORIZONTE_INFORMATICA_LTDA", "ENDEE": "RUA_TRAJANO_MACHADO852__CENTRO_14960-064", "LMAPS": "https://www.google.com/maps?q=&layer=c&cbll=-21.4662919,-49.2226372", "O_QUE_FAZER": "CARTEIRA", "ER_REGIAO_CIDADE_min": "Novo Horizonte_Novo Horizonte_Araraquara" }, "geometry": { "type": "Point", "coordinates": [ -49.2226372, -21.4662919 ] } },
{ "type": "Feature", "properties": { "fid": 3931, "CNPJ": "00812999000688", "IDCIDADE": "NOVO_HORIZONTE", "NOMEFANTASIA": "HELP", "RAZAOSOCIAL": "JULIO_CESAR_ROSSI_LTDA", "ENDEE": "RUA_CAMPOS_SALLES650__CENTRO_14960-038", "LMAPS": "https://www.google.com/maps?q=&layer=c&cbll=-21.4674477,-49.2233386", "O_QUE_FAZER": "CARTEIRA", "ER_REGIAO_CIDADE_min": "Novo Horizonte_Novo Horizonte_Araraquara" }, "geometry": { "type": "Point", "coordinates": [ -49.2233386, -21.4674477 ] } },
{ "type": "Feature", "properties": { "fid": 5574, "CNPJ": "01149884000103", "IDCIDADE": "NOVO_HORIZONTE", "NOMEFANTASIA": "ENIGMA_MODAS", "RAZAOSOCIAL": "ROSEMARY_CRISTINA_MANFRIM_ALARCON_&_CIA_LTDA", "ENDEE": "RUA_TRAJANO_MACHADO733__CENTRO_14960-064", "LMAPS": "https://www.google.com/maps?q=&layer=c&cbll=-21.4670631,-49.221801", "O_QUE_FAZER": "CARTEIRA", "ER_REGIAO_CIDADE_min": "Novo Horizonte_Novo Horizonte_Araraquara" }, "geometry": { "type": "Point", "coordinates": [ -49.221801, -21.4670631 ] } },
{ "type": "Feature", "properties": { "fid": 7366, "CNPJ": "01520842000137", "IDCIDADE": "NOVO_HORIZONTE", "NOMEFANTASIA": "PE_D'ANJO", "RAZAOSOCIAL": "PIOVANI_CALCADOS_PE_D'ANJO_LTDA", "ENDEE": "RUA_QUINZE_DE_NOVEMBRO872__CENTRO_14960-062", "LMAPS": "https://www.google.com/maps?q=&layer=c&cbll=-21.4669414,-49.2233735", "O_QUE_FAZER": "CARTEIRA", "ER_REGIAO_CIDADE_min": "Novo Horizonte_Novo Horizonte_Araraquara" }, "geometry": { "type": "Point", "coordinates": [ -49.2233735, -21.4669414 ] } },
{ "type": "Feature", "properties": { "fid": 7760, "CNPJ": "01597213000105", "IDCIDADE": "NOVO_HORIZONTE", "NOMEFANTASIA": "ZAMBONI_PRESENTES", "RAZAOSOCIAL": "ZAMBONI_&_ALVAREZ_LTDA", "ENDEE": "PRACA_DOUTOR_EUCLIDES_CARDOSO_CASTILHO50__CENTRO_14960-062", "LMAPS": "https://www.google.com/maps?q=&layer=c&cbll=-21.4686808,-49.2209548", "O_QUE_FAZER": "CARTEIRA", "ER_REGIAO_CIDADE_min": "Novo Horizonte_Novo Horizonte_Araraquara" }, "geometry": { "type": "Point", "coordinates": [ -49.2209548, -21.4686808 ] } },
{ "type": "Feature", "properties": { "fid": 8747, "CNPJ": "01805542000102", "IDCIDADE": "NOVO_HORIZONTE", "NOMEFANTASIA": "ACQUALUA", "RAZAOSOCIAL": "ACQUALUA_CONFECCOES_LTDA", "ENDEE": "RUA_TRAJANO_MACHADO717__CENTRO_14960-064", "LMAPS": "https://www.google.com/maps?q=&layer=c&cbll=-21.4670353,-49.2216788", "O_QUE_FAZER": "CARTEIRA", "ER_REGIAO_CIDADE_min": "Novo Horizonte_Novo Horizonte_Araraquara" }, "geometry": { "type": "Point", "coordinates": [ -49.2216788, -21.4670353 ] } },
{ "type": "Feature", "properties": { "fid": 8831, "CNPJ": "01812159000173", "IDCIDADE": "NOVO_HORIZONTE", "NOMEFANTASIA": "SANAUTICA_BARCOS_DE_ALUMINIO_LTDA", "RAZAOSOCIAL": "SANAUTICA_BARCOS_DE_ALUMINIO", "ENDEE": "AVENIDA_CONEGO_ALFREDO_REITH1331__JARDIM_SAO_VICENTE_DE_PAULO_14962-474", "LMAPS": "https://www.google.com/maps?q=&layer=c&cbll=-21.468732,-49.2388148", "O_QUE_FAZER": "FINALIZADO", "ER_REGIAO_CIDADE_min": "Novo Horizonte_Novo Horizonte_Araraquara" }, "geometry": { "type": "Point", "coordinates": [ -49.2388148, -21.468732 ] } },
{ "type": "Feature", "properties": { "fid": 9876, "CNPJ": "02040013000110", "IDCIDADE": "NOVO_HORIZONTE", "NOMEFANTASIA": "MALUGRAF", "RAZAOSOCIAL": "MALUGRAF-GRAFICA_EDICAO_E_COMERCIO_DE_IMPRESSOS_LTDA", "ENDEE": "AVENIDA_CORONEL_JUNQUEIRA535__CENTRO_14960-046", "LMAPS": "https://www.google.com/maps?q=&layer=c&cbll=-21.4652772,-49.2248368", "O_QUE_FAZER": "CARTEIRA", "ER_REGIAO_CIDADE_min": "Novo Horizonte_Novo Horizonte_Araraquara" }, "geometry": { "type": "Point", "coordinates": [ -49.2248368, -21.4652772 ] } },
{ "type": "Feature", "properties": { "fid": 10086, "CNPJ": "02076460000129", "IDCIDADE": "NOVO_HORIZONTE", "NOMEFANTASIA": "DANI_SOM", "RAZAOSOCIAL": "ACESSORIOS_DANI_LTDA", "ENDEE": "RUA_TRAJANO_MACHADO1050__CENTRO_14960-064", "LMAPS": "https://www.google.com/maps?q=&layer=c&cbll=-21.4653429,-49.2242218", "O_QUE_FAZER": "CARTEIRA", "ER_REGIAO_CIDADE_min": "Novo Horizonte_Novo Horizonte_Araraquara" }, "geometry": { "type": "Point", "coordinates": [ -49.2242218, -21.4653429 ] } },
{ "type": "Feature", "properties": { "fid": 13041, "CNPJ": "02648440000185", "IDCIDADE": "NOVO_HORIZONTE", "NOMEFANTASIA": "ESQUINA_DA_VISAO", "RAZAOSOCIAL": "OTICA_ESQUINA_DA_VISAO_NOVO_HORIZONTE_LIMITADA", "ENDEE": "RUA_TRAJANO_MACHADO997__CENTRO_14960-064", "LMAPS": "https://www.google.com/maps?q=&layer=c&cbll=-21.4656734,-49.2237874", "O_QUE_FAZER": "CARTEIRA", "ER_REGIAO_CIDADE_min": "Novo Horizonte_Novo Horizonte_Araraquara" }, "geometry": { "type": "Point", "coordinates": [ -49.2237874, -21.4656734 ] } },
{ "type": "Feature", "properties": { "fid": 14162, "CNPJ": "02845771000105", "IDCIDADE": "NOVO_HORIZONTE", "NOMEFANTASIA": "GULAO_MOTOS", "RAZAOSOCIAL": "LUIZ_GUSTAVO_ZINEZI", "ENDEE": "AVENIDA_JOSE_WILIBALDO_DE_FREITAS1774__IV_CENTENARIO_14965-028", "LMAPS": "https://www.google.com/maps?q=&layer=c&cbll=-21.4733536,-49.2137391", "O_QUE_FAZER": "CARTEIRA", "ER_REGIAO_CIDADE_min": "Novo Horizonte_Novo Horizonte_Araraquara" }, "geometry": { "type": "Point", "coordinates": [ -49.2137391, -21.4733536 ] } },
{ "type": "Feature", "properties": { "fid": 14649, "CNPJ": "02922207000149", "IDCIDADE": "NOVO_HORIZONTE", "NOMEFANTASIA": "METHA_EQUIPAMENTOS", "RAZAOSOCIAL": "METHA_EQUIPAMENTOS_DE_SEGURANCA_LTDA", "ENDEE": "AVENIDA_JOSE_WILIBALDO_DE_FREITAS1872__IV_CENTENARIO_14965-038", "LMAPS": "https://www.google.com/maps?q=&layer=c&cbll=-21.4742175,-49.2137916", "O_QUE_FAZER": "CARTEIRA", "ER_REGIAO_CIDADE_min": "Novo Horizonte_Novo Horizonte_Araraquara" }, "geometry": { "type": "Point", "coordinates": [ -49.2137916, -21.4742175 ] } },
{ "type": "Feature", "properties": { "fid": 15730, "CNPJ": "03096122000111", "IDCIDADE": "NOVO_HORIZONTE", "NOMEFANTASIA": "CFC_IRANDY", "RAZAOSOCIAL": "CENTRO_DE_FORMACAO_DE_CONDUTORES_IRANDY_LTDA", "ENDEE": "PRACA_PADRE_PAULO_LEPICH134__CENTRO_14960-062", "LMAPS": "https://www.google.com/maps?q=&layer=c&cbll=-21.4678904,-49.222367", "O_QUE_FAZER": "CARTEIRA", "ER_REGIAO_CIDADE_min": "Novo Horizonte_Novo Horizonte_Araraquara" }, "geometry": { "type": "Point", "coordinates": [ -49.222367, -21.4678904 ] } },
{ "type": "Feature", "properties": { "fid": 17680, "CNPJ": "03419677000157", "IDCIDADE": "NOVO_HORIZONTE", "NOMEFANTASIA": "ELETRO_VAL", "RAZAOSOCIAL": "ELETROVAL_MOVEIS_E_ELETRODOMESTICOS_LTDA", "ENDEE": "RUA_TRAJANO_MACHADO564__CENTRO_14960-064", "LMAPS": "https://www.google.com/maps?q=&layer=c&cbll=-21.467824,-49.2203406", "O_QUE_FAZER": "CARTEIRA", "ER_REGIAO_CIDADE_min": "Novo Horizonte_Novo Horizonte_Araraquara" }, "geometry": { "type": "Point", "coordinates": [ -49.2203406, -21.467824 ] } },
{ "type": "Feature", "properties": { "fid": 20521, "CNPJ": "03883921000138", "IDCIDADE": "NOVO_HORIZONTE", "NOMEFANTASIA": "NOVA_OPCAO_CALCADOS", "RAZAOSOCIAL": "NOVA_OPCAO_-_CALCADOS_DE_NOVO_HORIZONTE_LTDA", "ENDEE": "RUA_TRAJANO_MACHADO874__CENTRO_14960-064", "LMAPS": "https://www.google.com/maps?q=&layer=c&cbll=-21.4664238,-49.2230791", "O_QUE_FAZER": "CARTEIRA", "ER_REGIAO_CIDADE_min": "Novo Horizonte_Novo Horizonte_Araraquara" }, "geometry": { "type": "Point", "coordinates": [ -49.2230791, -21.4664238 ] } },
{ "type": "Feature", "properties": { "fid": 20911, "CNPJ": "03955038000106", "IDCIDADE": "NOVO_HORIZONTE", "NOMEFANTASIA": "CASA_E_CIA", "RAZAOSOCIAL": "CRISTINA_APARECIDA_FERREIRA_GARCIA", "ENDEE": "RUA_QUINZE_DE_NOVEMBRO820__CENTRO_14960-062", "LMAPS": "https://www.google.com/maps?q=&layer=c&cbll=-21.4671088,-49.2231358", "O_QUE_FAZER": "CARTEIRA", "ER_REGIAO_CIDADE_min": "Novo Horizonte_Novo Horizonte_Araraquara" }, "geometry": { "type": "Point", "coordinates": [ -49.2231358, -21.4671088 ] } },
{ "type": "Feature", "properties": { "fid": 21745, "CNPJ": "04070972000103", "IDCIDADE": "NOVO_HORIZONTE", "NOMEFANTASIA": "SYSTEM_INFORMATICA", "RAZAOSOCIAL": "D._T._S._-_COMERCIO_DE_MATERIAIS_DE_INFORMATICA_LTDA", "ENDEE": "RUA_TRAJANO_MACHADO852__CENTRO_14960-064", "LMAPS": "https://www.google.com/maps?q=&layer=c&cbll=-21.4662537,-49.2227278", "O_QUE_FAZER": "CARTEIRA", "ER_REGIAO_CIDADE_min": "Novo Horizonte_Novo Horizonte_Araraquara" }, "geometry": { "type": "Point", "coordinates": [ -49.2227278, -21.4662537 ] } },
{ "type": "Feature", "properties": { "fid": 22668, "CNPJ": "04199224000125", "IDCIDADE": "NOVO_HORIZONTE", "NOMEFANTASIA": "MARIANA_ARMARINHOS", "RAZAOSOCIAL": "VERA_LUCIA_DE_FATIMA_PASSONE_DA_SILVA", "ENDEE": "RUA_TRAJANO_MACHADO765__CENTRO_14960-064", "LMAPS": "https://www.google.com/maps?q=&layer=c&cbll=-21.4669775,-49.2221215", "O_QUE_FAZER": "CARTEIRA", "ER_REGIAO_CIDADE_min": "Novo Horizonte_Novo Horizonte_Araraquara" }, "geometry": { "type": "Point", "coordinates": [ -49.2221215, -21.4669775 ] } },
{ "type": "Feature", "properties": { "fid": 25553, "CNPJ": "04640997000103", "IDCIDADE": "NOVO_HORIZONTE", "NOMEFANTASIA": "DROGA_XV", "RAZAOSOCIAL": "FRANCISCO_T._M._DE_LIMA", "ENDEE": "RUA_QUINZE_DE_NOVEMBRO328__CENTRO_14960-062", "LMAPS": "https://www.google.com/maps?q=&layer=c&cbll=-21.4698026,-49.21911", "O_QUE_FAZER": "CARTEIRA", "ER_REGIAO_CIDADE_min": "Novo Horizonte_Novo Horizonte_Araraquara" }, "geometry": { "type": "Point", "coordinates": [ -49.21911, -21.4698026 ] } },
{ "type": "Feature", "properties": { "fid": 26239, "CNPJ": "04737238000155", "IDCIDADE": "NOVO_HORIZONTE", "NOMEFANTASIA": "CENTRO_DE_COPIAS", "RAZAOSOCIAL": "SANDRA_T._C._PIMENTEL", "ENDEE": "RUA_QUINZE_DE_NOVEMBRO745__CENTRO_14960-062", "LMAPS": "https://www.google.com/maps?q=&layer=c&cbll=-21.4677327,-49.2224856", "O_QUE_FAZER": "CARTEIRA", "ER_REGIAO_CIDADE_min": "Novo Horizonte_Novo Horizonte_Araraquara" }, "geometry": { "type": "Point", "coordinates": [ -49.2224856, -21.4677327 ] } },
{ "type": "Feature", "properties": { "fid": 26346, "CNPJ": "04751633000192", "IDCIDADE": "NOVO_HORIZONTE", "NOMEFANTASIA": "CARAMELO", "RAZAOSOCIAL": "CARAMELO_MERCANTIL_LTDA", "ENDEE": "RUA_QUINZE_DE_NOVEMBRO817__CENTRO_14960-062", "LMAPS": "https://www.google.com/maps?q=&layer=c&cbll=-21.4673835,-49.2230418", "O_QUE_FAZER": "CARTEIRA", "ER_REGIAO_CIDADE_min": "Novo Horizonte_Novo Horizonte_Araraquara" }, "geometry": { "type": "Point", "coordinates": [ -49.2230418, -21.4673835 ] } },
{ "type": "Feature", "properties": { "fid": 27733, "CNPJ": "04948252000106", "IDCIDADE": "NOVO_HORIZONTE", "NOMEFANTASIA": "VAREJAO_DA_ECONOMIA", "RAZAOSOCIAL": "E._QUESADA_XAVIER_COMERCIO_DE_HORTIFRUTI_LTDA", "ENDEE": "RUA_GUARANTA321__JARDIM_SANTA_CLARA_14962-224", "LMAPS": "https://www.google.com/maps?q=&layer=c&cbll=-21.4767996,-49.2173084", "O_QUE_FAZER": "CARTEIRA - FAMPE", "ER_REGIAO_CIDADE_min": "Novo Horizonte_Novo Horizonte_Araraquara" }, "geometry": { "type": "Point", "coordinates": [ -49.2173084, -21.4767996 ] } },
{ "type": "Feature", "properties": { "fid": 28224, "CNPJ": "05012041000111", "IDCIDADE": "NOVO_HORIZONTE", "NOMEFANTASIA": "RONCAO_ESCAPAMENTOS", "RAZAOSOCIAL": "CAMILA_GABRIELA_DA_CONCEICAO_LTDA", "ENDEE": "AVENIDA_DOMINGOS_BARALDO1812__CENTRO_14960-048", "LMAPS": "https://www.google.com/maps?q=&layer=c&cbll=-21.4733202,-49.2238345", "O_QUE_FAZER": "CARTEIRA", "ER_REGIAO_CIDADE_min": "Novo Horizonte_Novo Horizonte_Araraquara" }, "geometry": { "type": "Point", "coordinates": [ -49.2238345, -21.4733202 ] } },
{ "type": "Feature", "properties": { "fid": 32399, "CNPJ": "05609775000182", "IDCIDADE": "NOVO_HORIZONTE", "NOMEFANTASIA": "SEMPRE_BELLA", "RAZAOSOCIAL": "PATRICIA_DOMINGOS_DE_SOUZA_BEVOLO_-_COSMETICOS", "ENDEE": "PRACA_DOUTOR_EUCLIDES_CARDOSO_CASTILHO10__CENTRO_14960-062", "LMAPS": "https://www.google.com/maps?q=&layer=c&cbll=-21.469042,-49.2207901", "O_QUE_FAZER": "CARTEIRA", "ER_REGIAO_CIDADE_min": "Novo Horizonte_Novo Horizonte_Araraquara" }, "geometry": { "type": "Point", "coordinates": [ -49.2207901, -21.469042 ] } },
{ "type": "Feature", "properties": { "fid": 33546, "CNPJ": "05781322000139", "IDCIDADE": "NOVO_HORIZONTE", "NOMEFANTASIA": "MOCA_BONITA", "RAZAOSOCIAL": "MOCA_BONITA_-_COMERCIO_DE_COSMETICOS_LTDA", "ENDEE": "RUA_TRAJANO_MACHADO814__CENTRO_14960-064", "LMAPS": "https://www.google.com/maps?q=&layer=c&cbll=-21.4664793,-49.2223005", "O_QUE_FAZER": "CARTEIRA", "ER_REGIAO_CIDADE_min": "Novo Horizonte_Novo Horizonte_Araraquara" }, "geometry": { "type": "Point", "coordinates": [ -49.2223005, -21.4664793 ] } },
{ "type": "Feature", "properties": { "fid": 34264, "CNPJ": "05870433000111", "IDCIDADE": "NOVO_HORIZONTE", "NOMEFANTASIA": "HELISARO_MODAS", "RAZAOSOCIAL": "ROSA_MARIA_DE_CARVALHO_OTOBONI", "ENDEE": "RUA_SAO_SEBASTIAO585__CENTRO_14960-062", "LMAPS": "https://www.google.com/maps?q=&layer=c&cbll=-21.4663727,-49.2231891", "O_QUE_FAZER": "CARTEIRA", "ER_REGIAO_CIDADE_min": "Novo Horizonte_Novo Horizonte_Araraquara" }, "geometry": { "type": "Point", "coordinates": [ -49.2231891, -21.4663727 ] } },
{ "type": "Feature", "properties": { "fid": 35734, "CNPJ": "06060221000131", "IDCIDADE": "NOVO_HORIZONTE", "NOMEFANTASIA": "MARI_FLORA", "RAZAOSOCIAL": "MARIA_AMELIA_ZANON_PLANTAS", "ENDEE": "AVENIDA_DA_SAUDADE491__IV_CENTENARIO_14965-172", "LMAPS": "https://www.google.com/maps?q=&layer=c&cbll=-21.4719684,-49.2136701", "O_QUE_FAZER": "CARTEIRA", "ER_REGIAO_CIDADE_min": "Novo Horizonte_Novo Horizonte_Araraquara" }, "geometry": { "type": "Point", "coordinates": [ -49.2136701, -21.4719684 ] } },
{ "type": "Feature", "properties": { "fid": 37937, "CNPJ": "06347861000127", "IDCIDADE": "NOVO_HORIZONTE", "NOMEFANTASIA": "DIVINA_BELEZA", "RAZAOSOCIAL": "LOURENCETI_&_SANTOS_LTDA", "ENDEE": "RUA_QUINZE_DE_NOVEMBRO882__CENTRO_14960-062", "LMAPS": "https://www.google.com/maps?q=&layer=c&cbll=-21.4671848,-49.2232071", "O_QUE_FAZER": "CARTEIRA", "ER_REGIAO_CIDADE_min": "Novo Horizonte_Novo Horizonte_Araraquara" }, "geometry": { "type": "Point", "coordinates": [ -49.2232071, -21.4671848 ] } },
{ "type": "Feature", "properties": { "fid": 43328, "CNPJ": "07518487000148", "IDCIDADE": "NOVO_HORIZONTE", "NOMEFANTASIA": "PADARIA_ROMAR", "RAZAOSOCIAL": "MARCELO_DA_SILVA_VILELA", "ENDEE": "RUA_GUARANTA361__JARDIM_SANTA_CLARA_14968-899", "LMAPS": "https://www.google.com/maps?q=&layer=c&cbll=-21.4770962,-49.2174734", "O_QUE_FAZER": "CARTEIRA", "ER_REGIAO_CIDADE_min": "Novo Horizonte_Novo Horizonte_Araraquara" }, "geometry": { "type": "Point", "coordinates": [ -49.2174734, -21.4770962 ] } },
{ "type": "Feature", "properties": { "fid": 43502, "CNPJ": "07546141000153", "IDCIDADE": "NOVO_HORIZONTE", "NOMEFANTASIA": "SAO_FRANCISCO_SERV_FESTA", "RAZAOSOCIAL": "SAO_FRANCISCO_-_NOVO_HORIZONTE_COMERCIO_DE_BEBIDAS_LTDA", "ENDEE": "AVENIDA_GUIDO_DELLA_TOGNA373__JARDIM_AEROPORTO_14962-400", "LMAPS": "https://www.google.com/maps?q=&layer=c&cbll=-21.4748445,-49.2273554", "O_QUE_FAZER": "CARTEIRA", "ER_REGIAO_CIDADE_min": "Novo Horizonte_Novo Horizonte_Araraquara" }, "geometry": { "type": "Point", "coordinates": [ -49.2273554, -21.4748445 ] } },
{ "type": "Feature", "properties": { "fid": 46874, "CNPJ": "07933023000106", "IDCIDADE": "NOVO_HORIZONTE", "NOMEFANTASIA": "LOJA_DA_AMIZADE", "RAZAOSOCIAL": "E.M.SERAFIM_SEMENSATO", "ENDEE": "RUA_QUINZE_DE_NOVEMBRO254__CENTRO_14960-062", "LMAPS": "https://www.google.com/maps?q=&layer=c&cbll=-21.470343,-49.2184808", "O_QUE_FAZER": "CARTEIRA", "ER_REGIAO_CIDADE_min": "Novo Horizonte_Novo Horizonte_Araraquara" }, "geometry": { "type": "Point", "coordinates": [ -49.2184808, -21.470343 ] } },
{ "type": "Feature", "properties": { "fid": 52763, "CNPJ": "08811594000122", "IDCIDADE": "NOVO_HORIZONTE", "NOMEFANTASIA": "PIOVANI_MODAS", "RAZAOSOCIAL": "DORACI_SOLANGE_PIOVANI_DE_AGUIAR", "ENDEE": "RUA_QUINZE_DE_NOVEMBRO280__CENTRO_14960-062", "LMAPS": "https://www.google.com/maps?q=&layer=c&cbll=-21.4700113,-49.2187237", "O_QUE_FAZER": "CARTEIRA", "ER_REGIAO_CIDADE_min": "Novo Horizonte_Novo Horizonte_Araraquara" }, "geometry": { "type": "Point", "coordinates": [ -49.2187237, -21.4700113 ] } },
{ "type": "Feature", "properties": { "fid": 53983, "CNPJ": "08957218000140", "IDCIDADE": "NOVO_HORIZONTE", "NOMEFANTASIA": "NAKILINY_CALCADOS", "RAZAOSOCIAL": "NAKOLINY_CALCADOS_LTDA", "ENDEE": "RUA_QUINZE_DE_NOVEMBRO761__CENTRO_14960-062", "LMAPS": "https://www.google.com/maps?q=&layer=c&cbll=-21.4676226,-49.2225747", "O_QUE_FAZER": "CARTEIRA", "ER_REGIAO_CIDADE_min": "Novo Horizonte_Novo Horizonte_Araraquara" }, "geometry": { "type": "Point", "coordinates": [ -49.2225747, -21.4676226 ] } },
{ "type": "Feature", "properties": { "fid": 55194, "CNPJ": "09100274000127", "IDCIDADE": "NOVO_HORIZONTE", "NOMEFANTASIA": "GM_KIDS", "RAZAOSOCIAL": "SIMONE_MICHELMANN_AMATO", "ENDEE": "RUA_TRAJANO_MACHADO554__CENTRO_14960-064", "LMAPS": "https://www.google.com/maps?q=&layer=c&cbll=-21.4679928,-49.2203287", "O_QUE_FAZER": "CARTEIRA", "ER_REGIAO_CIDADE_min": "Novo Horizonte_Novo Horizonte_Araraquara" }, "geometry": { "type": "Point", "coordinates": [ -49.2203287, -21.4679928 ] } },
{ "type": "Feature", "properties": { "fid": 55707, "CNPJ": "09153353000104", "IDCIDADE": "NOVO_HORIZONTE", "NOMEFANTASIA": "OFICINA_TELLES", "RAZAOSOCIAL": "FABIO_TELES_DE_SOUSA", "ENDEE": "AVENIDA_JOSE_WILIBALDO_DE_FREITAS1650__IV_CENTENARIO_14965-038", "LMAPS": "https://www.google.com/maps?q=&layer=c&cbll=-21.4722163,-49.2136535", "O_QUE_FAZER": "CARTEIRA", "ER_REGIAO_CIDADE_min": "Novo Horizonte_Novo Horizonte_Araraquara" }, "geometry": { "type": "Point", "coordinates": [ -49.2136535, -21.4722163 ] } },
{ "type": "Feature", "properties": { "fid": 55837, "CNPJ": "09171039000146", "IDCIDADE": "NOVO_HORIZONTE", "NOMEFANTASIA": "MALHAS_KIDS", "RAZAOSOCIAL": "MALHAS_NOVO_HORIZONTE_LTDA", "ENDEE": "RUA_TRAJANO_MACHADO774__CENTRO_14960-064", "LMAPS": "https://www.google.com/maps?q=&layer=c&cbll=-21.4667706,-49.221942", "O_QUE_FAZER": "CARTEIRA", "ER_REGIAO_CIDADE_min": "Novo Horizonte_Novo Horizonte_Araraquara" }, "geometry": { "type": "Point", "coordinates": [ -49.221942, -21.4667706 ] } },
{ "type": "Feature", "properties": { "fid": 59179, "CNPJ": "09535997000159", "IDCIDADE": "NOVO_HORIZONTE", "NOMEFANTASIA": "AUTO_CENTE_STOP_CAR", "RAZAOSOCIAL": "LEANDRO_DIEGO_RODRIGUES", "ENDEE": "AVENIDA_DOMINGOS_BARALDO1579__CENTRO_14968-899", "LMAPS": "https://www.google.com/maps?q=&layer=c&cbll=-21.4741623,-49.2231915", "O_QUE_FAZER": "CARTEIRA", "ER_REGIAO_CIDADE_min": "Novo Horizonte_Novo Horizonte_Araraquara" }, "geometry": { "type": "Point", "coordinates": [ -49.2231915, -21.4741623 ] } },
{ "type": "Feature", "properties": { "fid": 60188, "CNPJ": "09661040000159", "IDCIDADE": "NOVO_HORIZONTE", "NOMEFANTASIA": "ROSA_E_MEL", "RAZAOSOCIAL": "ALESSANDRA_DORIGAO_MANFRINATO_LEAO_&_CIA_LTDA", "ENDEE": "RUA_QUINZE_DE_NOVEMBRO444__CENTRO_14960-062", "LMAPS": "https://www.google.com/maps?q=&layer=c&cbll=-21.4691761,-49.2200332", "O_QUE_FAZER": "CARTEIRA", "ER_REGIAO_CIDADE_min": "Novo Horizonte_Novo Horizonte_Araraquara" }, "geometry": { "type": "Point", "coordinates": [ -49.2200332, -21.4691761 ] } },
{ "type": "Feature", "properties": { "fid": 60775, "CNPJ": "10227837000121", "IDCIDADE": "NOVO_HORIZONTE", "NOMEFANTASIA": "AC_ZAMBONI", "RAZAOSOCIAL": "A_ZAMBONI_COMERCIO_DE_IMPLEMENTOS_E_PECAS_AGRICOLAS_LTDA", "ENDEE": "AVENIDA_JOSE_WILIBALDO_DE_FREITAS1745__IV_CENTENARIO_14965-172", "LMAPS": "https://www.google.com/maps?q=&layer=c&cbll=-21.473194,-49.213211", "O_QUE_FAZER": "CARTEIRA", "ER_REGIAO_CIDADE_min": "Novo Horizonte_Novo Horizonte_Araraquara" }, "geometry": { "type": "Point", "coordinates": [ -49.213211, -21.473194 ] } },
{ "type": "Feature", "properties": { "fid": 64475, "CNPJ": "10621641000117", "IDCIDADE": "NOVO_HORIZONTE", "NOMEFANTASIA": "MINI_LOJA_CAMA_MESA_E_BANHO", "RAZAOSOCIAL": "JOAO_B._B._RODRIGUES", "ENDEE": "RUA_TRAJANO_MACHADO718__CENTRO_14960-064", "LMAPS": "https://www.google.com/maps?q=&layer=c&cbll=-21.4669604,-49.2215878", "O_QUE_FAZER": "CARTEIRA", "ER_REGIAO_CIDADE_min": "Novo Horizonte_Novo Horizonte_Araraquara" }, "geometry": { "type": "Point", "coordinates": [ -49.2215878, -21.4669604 ] } },
{ "type": "Feature", "properties": { "fid": 65541, "CNPJ": "10731971000165", "IDCIDADE": "NOVO_HORIZONTE", "NOMEFANTASIA": "ACADEMIA_MEDLEY", "RAZAOSOCIAL": "ACADEMIA_MEDLEY_SPORTS_DE_NOVO_HORIZONTE_LTDA", "ENDEE": "AVENIDA_GUIDO_DELLA_TOGNA412__JARDIM_AEROPORTO_14962-400", "LMAPS": "https://www.google.com/maps?q=&layer=c&cbll=-21.4748696,-49.2277692", "O_QUE_FAZER": "CARTEIRA", "ER_REGIAO_CIDADE_min": "Novo Horizonte_Novo Horizonte_Araraquara" }, "geometry": { "type": "Point", "coordinates": [ -49.2277692, -21.4748696 ] } },
{ "type": "Feature", "properties": { "fid": 66232, "CNPJ": "10803002000172", "IDCIDADE": "NOVO_HORIZONTE", "NOMEFANTASIA": "CASCATA_SERV_FESTA", "RAZAOSOCIAL": "CASCATA_NOVO_HORIZONTE_COMERCIO_DE_BEBIDAS_LTDA", "ENDEE": "AVENIDA_GUIDO_DELLA_TOGNA46__JARDIM_AEROPORTO_14962-400", "LMAPS": "https://www.google.com/maps?q=&layer=c&cbll=-21.4728195,-49.226081", "O_QUE_FAZER": "CARTEIRA", "ER_REGIAO_CIDADE_min": "Novo Horizonte_Novo Horizonte_Araraquara" }, "geometry": { "type": "Point", "coordinates": [ -49.226081, -21.4728195 ] } },
{ "type": "Feature", "properties": { "fid": 66393, "CNPJ": "10818444000192", "IDCIDADE": "NOVO_HORIZONTE", "NOMEFANTASIA": "VAREJAO_DA_ECONOMIA", "RAZAOSOCIAL": "QUESADA_HORTIFRUTI_E_MERCEARIA_LTDA", "ENDEE": "AVENIDA_JOSE_WILIBALDO_DE_FREITAS550__CENTRO_14962-400", "LMAPS": "https://www.google.com/maps?q=&layer=c&cbll=-21.4641725,-49.2183833", "O_QUE_FAZER": "CARTEIRA", "ER_REGIAO_CIDADE_min": "Novo Horizonte_Novo Horizonte_Araraquara" }, "geometry": { "type": "Point", "coordinates": [ -49.2183833, -21.4641725 ] } },
{ "type": "Feature", "properties": { "fid": 66846, "CNPJ": "10864945000105", "IDCIDADE": "NOVO_HORIZONTE", "NOMEFANTASIA": "CARAMELO_KIDS", "RAZAOSOCIAL": "CATELAN_&_FORMIS_KIDS_LTDA", "ENDEE": "RUA_TRAJANO_MACHADO850__CENTRO_14960-064", "LMAPS": "https://www.google.com/maps?q=&layer=c&cbll=-21.4663496,-49.2225857", "O_QUE_FAZER": "CARTEIRA", "ER_REGIAO_CIDADE_min": "Novo Horizonte_Novo Horizonte_Araraquara" }, "geometry": { "type": "Point", "coordinates": [ -49.2225857, -21.4663496 ] } },
{ "type": "Feature", "properties": { "fid": 67142, "CNPJ": "10897761000141", "IDCIDADE": "NOVO_HORIZONTE", "NOMEFANTASIA": "CACAU_SHOW", "RAZAOSOCIAL": "NAKOLINY_CHOCOLATES_LTDA", "ENDEE": "RUA_CAMPOS_SALLES623__CENTRO_14960-038", "LMAPS": "https://www.google.com/maps?q=&layer=c&cbll=-21.4677522,-49.223082", "O_QUE_FAZER": "CARTEIRA", "ER_REGIAO_CIDADE_min": "Novo Horizonte_Novo Horizonte_Araraquara" }, "geometry": { "type": "Point", "coordinates": [ -49.223082, -21.4677522 ] } },
{ "type": "Feature", "properties": { "fid": 67599, "CNPJ": "10950968000132", "IDCIDADE": "NOVO_HORIZONTE", "NOMEFANTASIA": "LIVKA_MALHAS", "RAZAOSOCIAL": "FORMIS_&_CATELAN_LTDA", "ENDEE": "RUA_QUINZE_DE_NOVEMBRO814__CENTRO_14960-062", "LMAPS": "https://www.google.com/maps?q=&layer=c&cbll=-21.4671437,-49.2229847", "O_QUE_FAZER": "CARTEIRA", "ER_REGIAO_CIDADE_min": "Novo Horizonte_Novo Horizonte_Araraquara" }, "geometry": { "type": "Point", "coordinates": [ -49.2229847, -21.4671437 ] } },
{ "type": "Feature", "properties": { "fid": 67989, "CNPJ": "10991027000147", "IDCIDADE": "NOVO_HORIZONTE", "NOMEFANTASIA": "HERING", "RAZAOSOCIAL": "M_S_G_-_MALHAS_DE_NOVO_HORIZONTE_LTDA", "ENDEE": "RUA_TRAJANO_MACHADO766__CENTRO_14960-064", "LMAPS": "https://www.google.com/maps?q=&layer=c&cbll=-21.4667552,-49.2219266", "O_QUE_FAZER": "CARTEIRA", "ER_REGIAO_CIDADE_min": "Novo Horizonte_Novo Horizonte_Araraquara" }, "geometry": { "type": "Point", "coordinates": [ -49.2219266, -21.4667552 ] } },
{ "type": "Feature", "properties": { "fid": 69237, "CNPJ": "11147189000166", "IDCIDADE": "NOVO_HORIZONTE", "NOMEFANTASIA": "ORTOKING", "RAZAOSOCIAL": "M._L._DUARTE_COLCHOES_LTDA", "ENDEE": "RUA_TRAJANO_MACHADO681__CENTRO_14960-064", "LMAPS": "https://www.google.com/maps?q=&layer=c&cbll=-21.4672719,-49.2212695", "O_QUE_FAZER": "CARTEIRA", "ER_REGIAO_CIDADE_min": "Novo Horizonte_Novo Horizonte_Araraquara" }, "geometry": { "type": "Point", "coordinates": [ -49.2212695, -21.4672719 ] } },
{ "type": "Feature", "properties": { "fid": 69427, "CNPJ": "11168951000190", "IDCIDADE": "NOVO_HORIZONTE", "NOMEFANTASIA": "OTICA_NOVO_HORIZONTE", "RAZAOSOCIAL": "CARVALHO_COSMO_&_CIA._LTDA", "ENDEE": "RUA_QUINZE_DE_NOVEMBRO742__CENTRO_14960-062", "LMAPS": "https://www.google.com/maps?q=&layer=c&cbll=-21.4677233,-49.2223611", "O_QUE_FAZER": "CARTEIRA", "ER_REGIAO_CIDADE_min": "Novo Horizonte_Novo Horizonte_Araraquara" }, "geometry": { "type": "Point", "coordinates": [ -49.2223611, -21.4677233 ] } },
{ "type": "Feature", "properties": { "fid": 70077, "CNPJ": "11247882000100", "IDCIDADE": "NOVO_HORIZONTE", "NOMEFANTASIA": "NOVO_ACO", "RAZAOSOCIAL": "JOSE_LEANDRO_RIBEIRO_FERRAGENS_LTDA", "ENDEE": "AVENIDA_DOMINGOS_BARALDO1557__CENTRO_14968-899", "LMAPS": "https://www.google.com/maps?q=&layer=c&cbll=-21.4743706,-49.222542", "O_QUE_FAZER": "CARTEIRA", "ER_REGIAO_CIDADE_min": "Novo Horizonte_Novo Horizonte_Araraquara" }, "geometry": { "type": "Point", "coordinates": [ -49.222542, -21.4743706 ] } },
{ "type": "Feature", "properties": { "fid": 72469, "CNPJ": "11573220000120", "IDCIDADE": "NOVO_HORIZONTE", "NOMEFANTASIA": "MODA_BELLA", "RAZAOSOCIAL": "N_DE_ALESSIO_SEGURA", "ENDEE": "RUA_TRAJANO_MACHADO654__CENTRO_14960-064", "LMAPS": "https://www.google.com/maps?q=&layer=c&cbll=-21.4671875,-49.220956", "O_QUE_FAZER": "CARTEIRA", "ER_REGIAO_CIDADE_min": "Novo Horizonte_Novo Horizonte_Araraquara" }, "geometry": { "type": "Point", "coordinates": [ -49.220956, -21.4671875 ] } },
{ "type": "Feature", "properties": { "fid": 72599, "CNPJ": "11593023000173", "IDCIDADE": "NOVO HORIZONTE", "NOMEFANTASIA": null, "RAZAOSOCIAL": "JPB_ALVES_SERVICOS_AGRICOLAS_LTDA", "ENDEE": "RUA D. PEDRO I, 670, PARQUE VILA REAL, 14960-000, NOVO HORIZONTE, SP, BRASIL", "LMAPS": "https://www.google.com/maps?q=&layer=c&cbll=-21.478385,-49.2295974", "O_QUE_FAZER": "CARTEIRA - FAMPE", "ER_REGIAO_CIDADE_min": "Novo Horizonte_Novo Horizonte_Araraquara" }, "geometry": { "type": "Point", "coordinates": [ -49.2295974, -21.478385 ] } },
{ "type": "Feature", "properties": { "fid": 74105, "CNPJ": "11840625000188", "IDCIDADE": "NOVO_HORIZONTE", "NOMEFANTASIA": "DROGARIA_RENATO", "RAZAOSOCIAL": "LOPES_&_LOPES_NOVO_HORIZONTE_LTDA", "ENDEE": "RUA_TRAJANO_MACHADO639__CENTRO_14960-064", "LMAPS": "https://www.google.com/maps?q=&layer=c&cbll=-21.4676411,-49.2210543", "O_QUE_FAZER": "CARTEIRA", "ER_REGIAO_CIDADE_min": "Novo Horizonte_Novo Horizonte_Araraquara" }, "geometry": { "type": "Point", "coordinates": [ -49.2210543, -21.4676411 ] } },
{ "type": "Feature", "properties": { "fid": 74906, "CNPJ": "11969940000100", "IDCIDADE": "NOVO_HORIZONTE", "NOMEFANTASIA": "PHARMA_15", "RAZAOSOCIAL": "MINARI_&_CASAGRANDE_LTDA", "ENDEE": "RUA_QUINZE_DE_NOVEMBRO320__CENTRO_14960-062", "LMAPS": "https://www.google.com/maps?q=&layer=c&cbll=-21.4699862,-49.2191321", "O_QUE_FAZER": "CARTEIRA", "ER_REGIAO_CIDADE_min": "Novo Horizonte_Novo Horizonte_Araraquara" }, "geometry": { "type": "Point", "coordinates": [ -49.2191321, -21.4699862 ] } },
{ "type": "Feature", "properties": { "fid": 80345, "CNPJ": "13017687000110", "IDCIDADE": "NOVO HORIZONTE", "NOMEFANTASIA": null, "RAZAOSOCIAL": "THIAGO_MARTINS_IGAMI_LTDA", "ENDEE": "AVENIDA CORONEL JUNQUEIRA, 400, VILA PATTI, 14960-176, NOVO HORIZONTE, SP, BRASIL", "LMAPS": "https://www.google.com/maps?q=&layer=c&cbll=-21.4611332,-49.2216067", "O_QUE_FAZER": "CARTEIRA - FAMPE", "ER_REGIAO_CIDADE_min": "Novo Horizonte_Novo Horizonte_Araraquara" }, "geometry": { "type": "Point", "coordinates": [ -49.2216067, -21.4611332 ] } },
{ "type": "Feature", "properties": { "fid": 83349, "CNPJ": "13565902000117", "IDCIDADE": "NOVO_HORIZONTE", "NOMEFANTASIA": "BRUNO_SAPATARIA", "RAZAOSOCIAL": "VANILDA_DE_LAZARI_COMERCIO_DE_CALCADOS_LTDA", "ENDEE": "RUA_CAMPOS_SALLES544__CENTRO_14960-038", "LMAPS": "https://www.google.com/maps?q=&layer=c&cbll=-21.466896,-49.2225404", "O_QUE_FAZER": "CARTEIRA", "ER_REGIAO_CIDADE_min": "Novo Horizonte_Novo Horizonte_Araraquara" }, "geometry": { "type": "Point", "coordinates": [ -49.2225404, -21.466896 ] } },
{ "type": "Feature", "properties": { "fid": 85327, "CNPJ": "13964190000109", "IDCIDADE": "NOVO_HORIZONTE", "NOMEFANTASIA": "ATACADAO_DO_REAL", "RAZAOSOCIAL": "JULIANA_REGINA_MACIEIRA", "ENDEE": "RUA_QUINZE_DE_NOVEMBRO457__CENTRO_14960-062", "LMAPS": "https://www.google.com/maps?q=&layer=c&cbll=-21.4692706,-49.2201979", "O_QUE_FAZER": "CARTEIRA", "ER_REGIAO_CIDADE_min": "Novo Horizonte_Novo Horizonte_Araraquara" }, "geometry": { "type": "Point", "coordinates": [ -49.2201979, -21.4692706 ] } },
{ "type": "Feature", "properties": { "fid": 87335, "CNPJ": "14355517000108", "IDCIDADE": "NOVO_HORIZONTE", "NOMEFANTASIA": "GISELDA_RIBEIRO_DE_MARINS_SIVIERO", "RAZAOSOCIAL": "GISELDA_RIBEIRO_DE_MARINS_SIVIERO", "ENDEE": "RUA_JOAO_DE_CASTRO199__IV_CENTENARIO_14965-024", "LMAPS": "https://www.google.com/maps?q=&layer=c&cbll=-21.4737051,-49.214718", "O_QUE_FAZER": "FINALIZADO", "ER_REGIAO_CIDADE_min": "Novo Horizonte_Novo Horizonte_Araraquara" }, "geometry": { "type": "Point", "coordinates": [ -49.214718, -21.4737051 ] } },
{ "type": "Feature", "properties": { "fid": 93995, "CNPJ": "15770113000143", "IDCIDADE": "NOVO HORIZONTE", "NOMEFANTASIA": null, "RAZAOSOCIAL": "PIEDRA_DE_LUNA_VESTUARIO_LTDA", "ENDEE": "RUA TRAJANO MACHADO, 654, CENTRO, 14960-064, NOVO HORIZONTE, SP, BRASIL", "LMAPS": "https://www.google.com/maps?q=&layer=c&cbll=-21.4672312,-49.2209942", "O_QUE_FAZER": "CARTEIRA - FAMPE", "ER_REGIAO_CIDADE_min": "Novo Horizonte_Novo Horizonte_Araraquara" }, "geometry": { "type": "Point", "coordinates": [ -49.2209942, -21.4672312 ] } },
{ "type": "Feature", "properties": { "fid": 94619, "CNPJ": "16500450000183", "IDCIDADE": "NOVO_HORIZONTE", "NOMEFANTASIA": "VIDA_LIVRE", "RAZAOSOCIAL": "VIDA_LIVRE_NOVO_HORIZONTE_LTDA", "ENDEE": "RUA_TRAJANO_MACHADO514__CENTRO_14960-064", "LMAPS": "https://www.google.com/maps?q=&layer=c&cbll=-21.4680928,-49.2200936", "O_QUE_FAZER": "CARTEIRA", "ER_REGIAO_CIDADE_min": "Novo Horizonte_Novo Horizonte_Araraquara" }, "geometry": { "type": "Point", "coordinates": [ -49.2200936, -21.4680928 ] } },
{ "type": "Feature", "properties": { "fid": 95177, "CNPJ": "16634132000105", "IDCIDADE": "NOVO_HORIZONTE", "NOMEFANTASIA": "OTICA_RICARDO", "RAZAOSOCIAL": "R.O_OTICAS_LTDA", "ENDEE": "RUA_CAMPOS_SALES560__CENTRO_14960-038", "LMAPS": "https://www.google.com/maps?q=&layer=c&cbll=-21.4671317,-49.222943", "O_QUE_FAZER": "CARTEIRA", "ER_REGIAO_CIDADE_min": "Novo Horizonte_Novo Horizonte_Araraquara" }, "geometry": { "type": "Point", "coordinates": [ -49.222943, -21.4671317 ] } },
{ "type": "Feature", "properties": { "fid": 102606, "CNPJ": "18137696000168", "IDCIDADE": "NOVO_HORIZONTE", "NOMEFANTASIA": "DIRCEU_VIDROS", "RAZAOSOCIAL": "DIRCEU_VIDROS_&_CIA_LTDA", "ENDEE": "AVENIDA_DOMINGOS_BARALDO2167__CENTRO_14962-440", "LMAPS": "https://www.google.com/maps?q=&layer=c&cbll=-21.4710955,-49.2279474", "O_QUE_FAZER": "CARTEIRA", "ER_REGIAO_CIDADE_min": "Novo Horizonte_Novo Horizonte_Araraquara" }, "geometry": { "type": "Point", "coordinates": [ -49.2279474, -21.4710955 ] } },
{ "type": "Feature", "properties": { "fid": 105510, "CNPJ": "18749125000184", "IDCIDADE": "NOVO_HORIZONTE", "NOMEFANTASIA": "JOICE_MODAS", "RAZAOSOCIAL": "JOICE_MARA_ALVES_BRAGA", "ENDEE": "RUA_TRAJANO_MACHADO923__CENTRO_14960-064", "LMAPS": "https://www.google.com/maps?q=&layer=c&cbll=-21.4660949,-49.223163", "O_QUE_FAZER": "CARTEIRA", "ER_REGIAO_CIDADE_min": "Novo Horizonte_Novo Horizonte_Araraquara" }, "geometry": { "type": "Point", "coordinates": [ -49.223163, -21.4660949 ] } },
{ "type": "Feature", "properties": { "fid": 105658, "CNPJ": "18784296000144", "IDCIDADE": "NOVO_HORIZONTE", "NOMEFANTASIA": "18.784.296_ELISANGELA_RODRIGUES_DE_MELLO_ROQUE", "RAZAOSOCIAL": "ELISANGELA_RODIGUES_DE_MELO_ROQUE", "ENDEE": "RUA_FLORINDO_DALBELLO209__RESIDENCIAL_GARCIA_14962-524", "LMAPS": "https://www.google.com/maps?q=&layer=c&cbll=-21.466154,-49.2380319", "O_QUE_FAZER": "FINALIZADO", "ER_REGIAO_CIDADE_min": "Novo Horizonte_Novo Horizonte_Araraquara" }, "geometry": { "type": "Point", "coordinates": [ -49.2380319, -21.466154 ] } },
{ "type": "Feature", "properties": { "fid": 106539, "CNPJ": "18966058000150", "IDCIDADE": "NOVO_HORIZONTE", "NOMEFANTASIA": "PURCINELI_AUTO_CENTER", "RAZAOSOCIAL": "EDSON_RICARDO_PURCINELI", "ENDEE": "AVENIDA_DOMINGOS_BARALDO2535__CENTRO_14962-440", "LMAPS": "https://www.google.com/maps?q=&layer=c&cbll=-21.4694969,-49.2302283", "O_QUE_FAZER": "CARTEIRA", "ER_REGIAO_CIDADE_min": "Novo Horizonte_Novo Horizonte_Araraquara" }, "geometry": { "type": "Point", "coordinates": [ -49.2302283, -21.4694969 ] } },
{ "type": "Feature", "properties": { "fid": 108121, "CNPJ": "19312029000137", "IDCIDADE": "NOVO_HORIZONTE", "NOMEFANTASIA": "NETFILTROS", "RAZAOSOCIAL": "NETFILTROS_LTDA", "ENDEE": "RUA_TRAJANO_MACHADO783__CENTRO_14960-064", "LMAPS": "https://www.google.com/maps?q=&layer=c&cbll=-21.4669221,-49.2219274", "O_QUE_FAZER": "CARTEIRA", "ER_REGIAO_CIDADE_min": "Novo Horizonte_Novo Horizonte_Araraquara" }, "geometry": { "type": "Point", "coordinates": [ -49.2219274, -21.4669221 ] } },
{ "type": "Feature", "properties": { "fid": 109927, "CNPJ": "19727000000116", "IDCIDADE": "NOVO_HORIZONTE", "NOMEFANTASIA": "NOVILHO_DE_OURO", "RAZAOSOCIAL": "JOSE_CATUZO", "ENDEE": "RUA_GUARANTA330__JARDIM_SANTA_CLARA_14962-224", "LMAPS": "https://www.google.com/maps?q=&layer=c&cbll=-21.476725,-49.2175648", "O_QUE_FAZER": "CARTEIRA", "ER_REGIAO_CIDADE_min": "Novo Horizonte_Novo Horizonte_Araraquara" }, "geometry": { "type": "Point", "coordinates": [ -49.2175648, -21.476725 ] } },
{ "type": "Feature", "properties": { "fid": 111257, "CNPJ": "20034927000230", "IDCIDADE": "NOVO_HORIZONTE", "NOMEFANTASIA": "RPA_MODA_COUNTRY", "RAZAOSOCIAL": "RPA_MODA_COUNTRY_LTDA", "ENDEE": "RUA_QUINZE_DE_NOVEMBRO720__CENTRO_14960-062", "LMAPS": "https://www.google.com/maps?q=&layer=c&cbll=-21.4678312,-49.2220744", "O_QUE_FAZER": "CARTEIRA", "ER_REGIAO_CIDADE_min": "Novo Horizonte_Novo Horizonte_Araraquara" }, "geometry": { "type": "Point", "coordinates": [ -49.2220744, -21.4678312 ] } },
{ "type": "Feature", "properties": { "fid": 111411, "CNPJ": "20067413000109", "IDCIDADE": "NOVO_HORIZONTE", "NOMEFANTASIA": "ALVES_MATERIAIS_HIDRAULICOS_E_ELETRICOS", "RAZAOSOCIAL": "ALVES_MATERIAIS_DE_CONSTRUCAO_DE_NH_LTDA", "ENDEE": "AVENIDA_JOSE_WILIBALDO_DE_FREITAS1836__IV_CENTENARIO_14965-038", "LMAPS": "https://www.google.com/maps?q=&layer=c&cbll=-21.4739253,-49.2138001", "O_QUE_FAZER": "CARTEIRA", "ER_REGIAO_CIDADE_min": "Novo Horizonte_Novo Horizonte_Araraquara" }, "geometry": { "type": "Point", "coordinates": [ -49.2138001, -21.4739253 ] } },
{ "type": "Feature", "properties": { "fid": 112713, "CNPJ": "20350262000193", "IDCIDADE": "NOVO_HORIZONTE", "NOMEFANTASIA": "TECKCELL", "RAZAOSOCIAL": "JULIEDRI_GONCALVES_PRIMO", "ENDEE": "RUA_TRAJANO_MACHADO823__CENTRO_14960-064", "LMAPS": "https://www.google.com/maps?q=&layer=c&cbll=-21.4664663,-49.2227137", "O_QUE_FAZER": "CARTEIRA", "ER_REGIAO_CIDADE_min": "Novo Horizonte_Novo Horizonte_Araraquara" }, "geometry": { "type": "Point", "coordinates": [ -49.2227137, -21.4664663 ] } },
{ "type": "Feature", "properties": { "fid": 113553, "CNPJ": "20520638000160", "IDCIDADE": "NOVO_HORIZONTE", "NOMEFANTASIA": "VALNATURA", "RAZAOSOCIAL": "BAUER_A._MARIANO_PRODUTOS_COSMESTICOS_E_PRESENTES_LTDA", "ENDEE": "RUA_TRAJANO_MACHADO821__CENTRO_14960-064", "LMAPS": "https://www.google.com/maps?q=&layer=c&cbll=-21.4666219,-49.2224395", "O_QUE_FAZER": "CARTEIRA", "ER_REGIAO_CIDADE_min": "Novo Horizonte_Novo Horizonte_Araraquara" }, "geometry": { "type": "Point", "coordinates": [ -49.2224395, -21.4666219 ] } },
{ "type": "Feature", "properties": { "fid": 114689, "CNPJ": "20809355000133", "IDCIDADE": "NOVO_HORIZONTE", "NOMEFANTASIA": "FARMACIA_MAGISTRALLE", "RAZAOSOCIAL": "MARTINS_&_DALL_BELLO_LTDA", "ENDEE": "RUA_TRAJANO_MACHADO956__CENTRO_14960-064", "LMAPS": "https://www.google.com/maps?q=&layer=c&cbll=-21.4657632,-49.2234392", "O_QUE_FAZER": "CARTEIRA", "ER_REGIAO_CIDADE_min": "Novo Horizonte_Novo Horizonte_Araraquara" }, "geometry": { "type": "Point", "coordinates": [ -49.2234392, -21.4657632 ] } },
{ "type": "Feature", "properties": { "fid": 115480, "CNPJ": "21000030000178", "IDCIDADE": "NOVO_HORIZONTE", "NOMEFANTASIA": "MILLER_PRESENTES", "RAZAOSOCIAL": "L_G_BELISSIMO", "ENDEE": "RUA_TRAJANO_MACHADO528__CENTRO_14960-064", "LMAPS": "https://www.google.com/maps?q=&layer=c&cbll=-21.4680132,-49.2201559", "O_QUE_FAZER": "CARTEIRA", "ER_REGIAO_CIDADE_min": "Novo Horizonte_Novo Horizonte_Araraquara" }, "geometry": { "type": "Point", "coordinates": [ -49.2201559, -21.4680132 ] } },
{ "type": "Feature", "properties": { "fid": 126108, "CNPJ": "23282349000169", "IDCIDADE": "NOVO_HORIZONTE", "NOMEFANTASIA": "AUTO_ELETRICO_BUENO", "RAZAOSOCIAL": "NEUSA_LUCA_DA_PAIXAO_BUENO", "ENDEE": "AVENIDA_DOMINGOS_BARALDO1792__CENTRO_14968-899", "LMAPS": "https://www.google.com/maps?q=&layer=c&cbll=-21.4736421,-49.2237045", "O_QUE_FAZER": "CARTEIRA", "ER_REGIAO_CIDADE_min": "Novo Horizonte_Novo Horizonte_Araraquara" }, "geometry": { "type": "Point", "coordinates": [ -49.2237045, -21.4736421 ] } },
{ "type": "Feature", "properties": { "fid": 129233, "CNPJ": "23946444000110", "IDCIDADE": "NOVO_HORIZONTE", "NOMEFANTASIA": "MARI_PESCA", "RAZAOSOCIAL": "EDSON_RAVAZI", "ENDEE": "AVENIDA_JOSE_WILIBALDO_DE_FREITAS1642__IV_CENTENARIO_14965-038", "LMAPS": "https://www.google.com/maps?q=&layer=c&cbll=-21.4720965,-49.2135308", "O_QUE_FAZER": "CARTEIRA", "ER_REGIAO_CIDADE_min": "Novo Horizonte_Novo Horizonte_Araraquara" }, "geometry": { "type": "Point", "coordinates": [ -49.2135308, -21.4720965 ] } },
{ "type": "Feature", "properties": { "fid": 130678, "CNPJ": "24240242000110", "IDCIDADE": "NOVO_HORIZONTE", "NOMEFANTASIA": "NOBRE_COZINHA", "RAZAOSOCIAL": "GARCIA_NOVO_HORIZONTE_COMERCIO_DE_ARTIGOS_E_PRESENTES_LTDA", "ENDEE": "RUA_QUINZE_DE_NOVEMBRO868__CENTRO_14960-062", "LMAPS": "https://www.google.com/maps?q=&layer=c&cbll=-21.4668329,-49.2234604", "O_QUE_FAZER": "CARTEIRA", "ER_REGIAO_CIDADE_min": "Novo Horizonte_Novo Horizonte_Araraquara" }, "geometry": { "type": "Point", "coordinates": [ -49.2234604, -21.4668329 ] } },
{ "type": "Feature", "properties": { "fid": 130801, "CNPJ": "24262938000148", "IDCIDADE": "NOVO_HORIZONTE", "NOMEFANTASIA": "DROGANOSSA", "RAZAOSOCIAL": "DROGARIA_MAGRI_LTDA", "ENDEE": "RUA_QUINZE_DE_NOVEMBRO494__CENTRO_14960-062", "LMAPS": "https://www.google.com/maps?q=&layer=c&cbll=-21.4689629,-49.2203755", "O_QUE_FAZER": "CARTEIRA", "ER_REGIAO_CIDADE_min": "Novo Horizonte_Novo Horizonte_Araraquara" }, "geometry": { "type": "Point", "coordinates": [ -49.2203755, -21.4689629 ] } },
{ "type": "Feature", "properties": { "fid": 137209, "CNPJ": "26064829000141", "IDCIDADE": "NOVO_HORIZONTE", "NOMEFANTASIA": "PIOVANI_MODAS_PLU_SIZE", "RAZAOSOCIAL": "PIOVANI_PLUS_SIZE_LTDA", "ENDEE": "RUA_QUINZE_DE_NOVEMBRO308__CENTRO_14960-062", "LMAPS": "https://www.google.com/maps?q=&layer=c&cbll=-21.4696472,-49.2189605", "O_QUE_FAZER": "CARTEIRA", "ER_REGIAO_CIDADE_min": "Novo Horizonte_Novo Horizonte_Araraquara" }, "geometry": { "type": "Point", "coordinates": [ -49.2189605, -21.4696472 ] } },
{ "type": "Feature", "properties": { "fid": 139036, "CNPJ": "26395603000123", "IDCIDADE": "NOVO_HORIZONTE", "NOMEFANTASIA": "WR_PNEUS", "RAZAOSOCIAL": "W_R_PNEUS_SIERRA_BALERO_LTDA", "ENDEE": "AVENIDA_GUIDO_DELLA_TOGNA84__JARDIM_AEROPORTO_14962-400", "LMAPS": "https://www.google.com/maps?q=&layer=c&cbll=-21.4730052,-49.2262931", "O_QUE_FAZER": "CARTEIRA", "ER_REGIAO_CIDADE_min": "Novo Horizonte_Novo Horizonte_Araraquara" }, "geometry": { "type": "Point", "coordinates": [ -49.2262931, -21.4730052 ] } },
{ "type": "Feature", "properties": { "fid": 143088, "CNPJ": "27206548000149", "IDCIDADE": "NOVO_HORIZONTE", "NOMEFANTASIA": "MUNDO_LUZ", "RAZAOSOCIAL": "MUNDO_LUZ_COMERCIO_DE_MATERIAIS_ELETRICOS_LTDA", "ENDEE": "AVENIDA_DA_SAUDADE441__IV_CENTENARIO_14965-038", "LMAPS": "https://www.google.com/maps?q=&layer=c&cbll=-21.4719769,-49.2142819", "O_QUE_FAZER": "CARTEIRA", "ER_REGIAO_CIDADE_min": "Novo Horizonte_Novo Horizonte_Araraquara" }, "geometry": { "type": "Point", "coordinates": [ -49.2142819, -21.4719769 ] } },
{ "type": "Feature", "properties": { "fid": 146740, "CNPJ": "27897139000136", "IDCIDADE": "NOVO_HORIZONTE", "NOMEFANTASIA": "DOUTOR_CONFORTO", "RAZAOSOCIAL": "E.K._MANZINI_CATHARINO", "ENDEE": "RUA_TRAJANO_MACHADO920__CENTRO_14960-064", "LMAPS": "https://www.google.com/maps?q=&layer=c&cbll=-21.465912,-49.2230453", "O_QUE_FAZER": "CARTEIRA", "ER_REGIAO_CIDADE_min": "Novo Horizonte_Novo Horizonte_Araraquara" }, "geometry": { "type": "Point", "coordinates": [ -49.2230453, -21.465912 ] } },
{ "type": "Feature", "properties": { "fid": 148017, "CNPJ": "28131800000160", "IDCIDADE": "NOVO_HORIZONTE", "NOMEFANTASIA": "MODA_BELLA_MOVEIS", "RAZAOSOCIAL": "PAULO_H_LANCA", "ENDEE": "RUA_TRAJANO_MACHADO628__CENTRO_14960-064", "LMAPS": "https://www.google.com/maps?q=&layer=c&cbll=-21.4673625,-49.2218359", "O_QUE_FAZER": "CARTEIRA", "ER_REGIAO_CIDADE_min": "Novo Horizonte_Novo Horizonte_Araraquara" }, "geometry": { "type": "Point", "coordinates": [ -49.2218359, -21.4673625 ] } },
{ "type": "Feature", "properties": { "fid": 148198, "CNPJ": "28164022000106", "IDCIDADE": "NOVO HORIZONTE", "NOMEFANTASIA": "ROBSON__GOMES", "RAZAOSOCIAL": "28.164.022_ALINE_GOMES_DA_SILVA_LOPES", "ENDEE": "RUA JOSÉ RUIS GALINDO, 1146, RESIDENCIAL IZALTINA MARIA RIBEIRO RONCOLETTA, 14967-510, NOVO HORIZONTE, SP, BRASIL", "LMAPS": "https://www.google.com/maps?q=&layer=c&cbll=-21.4634329,-49.205492", "O_QUE_FAZER": "FINALIZADO", "ER_REGIAO_CIDADE_min": "Novo Horizonte_Novo Horizonte_Araraquara" }, "geometry": { "type": "Point", "coordinates": [ -49.205492, -21.4634329 ] } },
{ "type": "Feature", "properties": { "fid": 149160, "CNPJ": "28330578000125", "IDCIDADE": "NOVO_HORIZONTE", "NOMEFANTASIA": "WECLIX", "RAZAOSOCIAL": "MT_NET_SERVICOS_DE_INTERNET_DE_NOVO_HORIZONTE_LTDA", "ENDEE": "RUA_QUINZE_DE_NOVEMBRO800__CENTRO_14960-062", "LMAPS": "https://www.google.com/maps?q=&layer=c&cbll=-21.467304,-49.2229827", "O_QUE_FAZER": "CARTEIRA", "ER_REGIAO_CIDADE_min": "Novo Horizonte_Novo Horizonte_Araraquara" }, "geometry": { "type": "Point", "coordinates": [ -49.2229827, -21.467304 ] } },
{ "type": "Feature", "properties": { "fid": 154393, "CNPJ": "29301228000101", "IDCIDADE": "ITAJOBI", "NOMEFANTASIA": null, "RAZAOSOCIAL": "CEFAZ_INDUSTRIA_METALURGICA_LTDA", "ENDEE": "RODOVIA CEZARIO JOSE DE CASTILHO, 91, PAPAGAIO, 15841-050, ITAJOBI, SP, BRASIL", "LMAPS": "https://www.google.com/maps?q=&layer=c&cbll=-21.4785997,-49.2090859", "O_QUE_FAZER": "CARTEIRA - FAMPE", "ER_REGIAO_CIDADE_min": "Novo Horizonte_Novo Horizonte_Araraquara" }, "geometry": { "type": "Point", "coordinates": [ -49.2090859, -21.4785997 ] } },
{ "type": "Feature", "properties": { "fid": 157798, "CNPJ": "30012621000156", "IDCIDADE": "NOVO_HORIZONTE", "NOMEFANTASIA": "PET_SHOP_RAFER", "RAZAOSOCIAL": "ROCHA_&_ROTELLA_LTDA", "ENDEE": "RUA_TRAJANO_MACHADO538__CENTRO_14960-064", "LMAPS": "https://www.google.com/maps?q=&layer=c&cbll=-21.4683802,-49.2201617", "O_QUE_FAZER": "CARTEIRA", "ER_REGIAO_CIDADE_min": "Novo Horizonte_Novo Horizonte_Araraquara" }, "geometry": { "type": "Point", "coordinates": [ -49.2201617, -21.4683802 ] } },
{ "type": "Feature", "properties": { "fid": 158881, "CNPJ": "30209188000143", "IDCIDADE": "NOVO HORIZONTE", "NOMEFANTASIA": null, "RAZAOSOCIAL": "W.A._DISTRIBUIDORA_DE_PRODUTOS_ALIMENTICIOS_LTDA", "ENDEE": "AVENIDA DOMINGOS BARALDO, 350, JARDIM ALMICI, 14965-184, NOVO HORIZONTE, SP, BRASIL", "LMAPS": "https://www.google.com/maps?q=&layer=c&cbll=-21.4755834,-49.2115716", "O_QUE_FAZER": "CARTEIRA - FAMPE", "ER_REGIAO_CIDADE_min": "Novo Horizonte_Novo Horizonte_Araraquara" }, "geometry": { "type": "Point", "coordinates": [ -49.2115716, -21.4755834 ] } },
{ "type": "Feature", "properties": { "fid": 159271, "CNPJ": "30282584000104", "IDCIDADE": "NOVO_HORIZONTE", "NOMEFANTASIA": "CENTRAL_PET", "RAZAOSOCIAL": "FLAVIA_RAQUEL_RODRIGUES", "ENDEE": "RUA_QUINZE_DE_NOVEMBRO1082__CENTRO_14960-062", "LMAPS": "https://www.google.com/maps?q=&layer=c&cbll=-21.4657441,-49.2250276", "O_QUE_FAZER": "CARTEIRA", "ER_REGIAO_CIDADE_min": "Novo Horizonte_Novo Horizonte_Araraquara" }, "geometry": { "type": "Point", "coordinates": [ -49.2250276, -21.4657441 ] } },
{ "type": "Feature", "properties": { "fid": 159865, "CNPJ": "30408608000463", "IDCIDADE": "NOVO_HORIZONTE", "NOMEFANTASIA": "VIP_CELL", "RAZAOSOCIAL": "VIP_CELL_COMERCIO_ELETRONICO_E_SERVICOS_LTDA.", "ENDEE": "RUA_TRAJANO_MACHADO781__CENTRO_14960-064", "LMAPS": "https://www.google.com/maps?q=&layer=c&cbll=-21.4671881,-49.2221587", "O_QUE_FAZER": "CARTEIRA", "ER_REGIAO_CIDADE_min": "Novo Horizonte_Novo Horizonte_Araraquara" }, "geometry": { "type": "Point", "coordinates": [ -49.2221587, -21.4671881 ] } },
{ "type": "Feature", "properties": { "fid": 164100, "CNPJ": "31227279000174", "IDCIDADE": "NOVO_HORIZONTE", "NOMEFANTASIA": "RPA_MODA", "RAZAOSOCIAL": "R.P._ASCENCIO_MODA_COUNTRY", "ENDEE": "RUA_QUINZE_DE_NOVEMBRO720__CENTRO_14960-062", "LMAPS": "https://www.google.com/maps?q=&layer=c&cbll=-21.467911,-49.2221094", "O_QUE_FAZER": "CARTEIRA - FAMPE", "ER_REGIAO_CIDADE_min": "Novo Horizonte_Novo Horizonte_Araraquara" }, "geometry": { "type": "Point", "coordinates": [ -49.2221094, -21.467911 ] } },
{ "type": "Feature", "properties": { "fid": 165506, "CNPJ": "31520443000137", "IDCIDADE": "NOVO_HORIZONTE", "NOMEFANTASIA": "CRIS_KING", "RAZAOSOCIAL": "CRIS_KING_BIJUTERIAS_LTDA.", "ENDEE": "RUA_TRAJANO_MACHADO753__CENTRO_14960-064", "LMAPS": "https://www.google.com/maps?q=&layer=c&cbll=-21.4671347,-49.2219517", "O_QUE_FAZER": "CARTEIRA", "ER_REGIAO_CIDADE_min": "Novo Horizonte_Novo Horizonte_Araraquara" }, "geometry": { "type": "Point", "coordinates": [ -49.2219517, -21.4671347 ] } },
{ "type": "Feature", "properties": { "fid": 165972, "CNPJ": "31602180000105", "IDCIDADE": "NOVO_HORIZONTE", "NOMEFANTASIA": "NINNA_E_CO", "RAZAOSOCIAL": "RAYES_E_BORGES_LTDA", "ENDEE": "RUA_CAMPOS_SALLES532__CENTRO_14960-038", "LMAPS": "https://www.google.com/maps?q=&layer=c&cbll=-21.4667565,-49.2224945", "O_QUE_FAZER": "CARTEIRA", "ER_REGIAO_CIDADE_min": "Novo Horizonte_Novo Horizonte_Araraquara" }, "geometry": { "type": "Point", "coordinates": [ -49.2224945, -21.4667565 ] } },
{ "type": "Feature", "properties": { "fid": 166219, "CNPJ": "31647055000111", "IDCIDADE": "NOVO_HORIZONTE", "NOMEFANTASIA": "CONVENIO_SAO_JOSE", "RAZAOSOCIAL": "MELISSA_CAROLINE_RAMOS_OGAWA", "ENDEE": "AVENIDA_CORONEL_JUNQUEIRA527__CENTRO_14960-046", "LMAPS": "https://www.google.com/maps?q=&layer=c&cbll=-21.4651316,-49.2245728", "O_QUE_FAZER": "CARTEIRA", "ER_REGIAO_CIDADE_min": "Novo Horizonte_Novo Horizonte_Araraquara" }, "geometry": { "type": "Point", "coordinates": [ -49.2245728, -21.4651316 ] } },
{ "type": "Feature", "properties": { "fid": 167840, "CNPJ": "31970972000132", "IDCIDADE": "NOVO_HORIZONTE", "NOMEFANTASIA": "AGROPET_CAMPEAO", "RAZAOSOCIAL": "AGROPET_CAMPEAO_COMERCIO_DE_RACOES_LTDA", "ENDEE": "AVENIDA_GUIDO_DELLA_TOGNA346__JARDIM_AEROPORTO_14962-400", "LMAPS": "https://www.google.com/maps?q=&layer=c&cbll=-21.4745146,-49.2274303", "O_QUE_FAZER": "CARTEIRA", "ER_REGIAO_CIDADE_min": "Novo Horizonte_Novo Horizonte_Araraquara" }, "geometry": { "type": "Point", "coordinates": [ -49.2274303, -21.4745146 ] } },
{ "type": "Feature", "properties": { "fid": 169819, "CNPJ": "32396658000231", "IDCIDADE": "NOVO_HORIZONTE", "NOMEFANTASIA": "ADOLETA_MODA_KIDS", "RAZAOSOCIAL": "ADOLETA_MODA_KIDS_LTDA", "ENDEE": "RUA_TRAJANO_MACHADO565__CENTRO_14960-064", "LMAPS": "https://www.google.com/maps?q=&layer=c&cbll=-21.4680438,-49.2205169", "O_QUE_FAZER": "CARTEIRA", "ER_REGIAO_CIDADE_min": "Novo Horizonte_Novo Horizonte_Araraquara" }, "geometry": { "type": "Point", "coordinates": [ -49.2205169, -21.4680438 ] } },
{ "type": "Feature", "properties": { "fid": 172852, "CNPJ": "33027692000110", "IDCIDADE": "NOVO_HORIZONTE", "NOMEFANTASIA": "ORTOKING_DECOR", "RAZAOSOCIAL": "MANOEL_HENRIQUE_DUARTE_-_MOVEIS", "ENDEE": "RUA_PRUDENTE_DE_MORAES550__CENTRO_14960-038", "LMAPS": "https://www.google.com/maps?q=&layer=c&cbll=-21.467555,-49.2218995", "O_QUE_FAZER": "CARTEIRA", "ER_REGIAO_CIDADE_min": "Novo Horizonte_Novo Horizonte_Araraquara" }, "geometry": { "type": "Point", "coordinates": [ -49.2218995, -21.467555 ] } },
{ "type": "Feature", "properties": { "fid": 174646, "CNPJ": "33372916000121", "IDCIDADE": "NOVO_HORIZONTE", "NOMEFANTASIA": "ELLA_LINGERIE", "RAZAOSOCIAL": "SILVANA_MARIA_MARIN_DO_AMARAL", "ENDEE": "RUA_TRAJANO_MACHADO815__CENTRO_14960-064", "LMAPS": "https://www.google.com/maps?q=&layer=c&cbll=-21.4666707,-49.2224008", "O_QUE_FAZER": "CARTEIRA", "ER_REGIAO_CIDADE_min": "Novo Horizonte_Novo Horizonte_Araraquara" }, "geometry": { "type": "Point", "coordinates": [ -49.2224008, -21.4666707 ] } },
{ "type": "Feature", "properties": { "fid": 174649, "CNPJ": "33373573000110", "IDCIDADE": "NOVO HORIZONTE", "NOMEFANTASIA": "MT_TRANSPORTES", "RAZAOSOCIAL": "RAVAZI_TRANSPORTES_LTDA", "ENDEE": "RUA CAMPOS SALES, 132, JARDIM AEROPORTO, 14960-000, NOVO HORIZONTE, SP, BRASIL", "LMAPS": "https://www.google.com/maps?q=&layer=c&cbll=-21.4617659,-49.2186189", "O_QUE_FAZER": "CARTEIRA - FAMPE", "ER_REGIAO_CIDADE_min": "Novo Horizonte_Novo Horizonte_Araraquara" }, "geometry": { "type": "Point", "coordinates": [ -49.2186189, -21.4617659 ] } },
{ "type": "Feature", "properties": { "fid": 180892, "CNPJ": "34567335000108", "IDCIDADE": "NOVO_HORIZONTE", "NOMEFANTASIA": "SRTA._BELA", "RAZAOSOCIAL": "JULIELI_DEL_NERO_LEPRE", "ENDEE": "RUA_TRAJANO_MACHADO974__CENTRO_14960-064", "LMAPS": "https://www.google.com/maps?q=&layer=c&cbll=-21.4661134,-49.223009", "O_QUE_FAZER": "CARTEIRA", "ER_REGIAO_CIDADE_min": "Novo Horizonte_Novo Horizonte_Araraquara" }, "geometry": { "type": "Point", "coordinates": [ -49.223009, -21.4661134 ] } },
{ "type": "Feature", "properties": { "fid": 183708, "CNPJ": "35117607000130", "IDCIDADE": "NOVO_HORIZONTE", "NOMEFANTASIA": "PET_SHOP_A_GATINHA", "RAZAOSOCIAL": "PET_SHOP_BANHO_E_TOSA_A_GATINHA_LTDA.", "ENDEE": "AVENIDA_DOMINGOS_BARALDO1488__CENTRO_14965-028", "LMAPS": "https://www.google.com/maps?q=&layer=c&cbll=-21.4740053,-49.2217186", "O_QUE_FAZER": "CARTEIRA", "ER_REGIAO_CIDADE_min": "Novo Horizonte_Novo Horizonte_Araraquara" }, "geometry": { "type": "Point", "coordinates": [ -49.2217186, -21.4740053 ] } },
{ "type": "Feature", "properties": { "fid": 186294, "CNPJ": "35710886000141", "IDCIDADE": "NOVO_HORIZONTE", "NOMEFANTASIA": "WORLD_NET", "RAZAOSOCIAL": "RICARDO_A._PAVARINI", "ENDEE": "RUA_QUINZE_DE_NOVEMBRO391__CENTRO_14960-062", "LMAPS": "https://www.google.com/maps?q=&layer=c&cbll=-21.469809,-49.2196497", "O_QUE_FAZER": "CARTEIRA", "ER_REGIAO_CIDADE_min": "Novo Horizonte_Novo Horizonte_Araraquara" }, "geometry": { "type": "Point", "coordinates": [ -49.2196497, -21.469809 ] } },
{ "type": "Feature", "properties": { "fid": 189029, "CNPJ": "36298072000104", "IDCIDADE": "NOVO_HORIZONTE", "NOMEFANTASIA": "REINALDO_AUTO_PECAS", "RAZAOSOCIAL": "R_P_DE_ALMEIDA_-_PECAS", "ENDEE": "AVENIDA_DOMINGOS_BARALDO1782__CENTRO_14960-048", "LMAPS": "https://www.google.com/maps?q=&layer=c&cbll=-21.4735707,-49.2237573", "O_QUE_FAZER": "CARTEIRA", "ER_REGIAO_CIDADE_min": "Novo Horizonte_Novo Horizonte_Araraquara" }, "geometry": { "type": "Point", "coordinates": [ -49.2237573, -21.4735707 ] } },
{ "type": "Feature", "properties": { "fid": 189290, "CNPJ": "36355750000123", "IDCIDADE": "NOVO_HORIZONTE", "NOMEFANTASIA": "EMPLACAR", "RAZAOSOCIAL": "EMPLA_CAR_NH_-_COMERCIO_DE_PLACAS_AUTOMOTIVAS_E_SERVICOS_LTDA.", "ENDEE": "AVENIDA_DOMINGOS_BARALDO2545__CENTRO_14962-440", "LMAPS": "https://www.google.com/maps?q=&layer=c&cbll=-21.4695517,-49.2302186", "O_QUE_FAZER": "CARTEIRA", "ER_REGIAO_CIDADE_min": "Novo Horizonte_Novo Horizonte_Araraquara" }, "geometry": { "type": "Point", "coordinates": [ -49.2302186, -21.4695517 ] } },
{ "type": "Feature", "properties": { "fid": 191666, "CNPJ": "36936188000121", "IDCIDADE": "NOVO HORIZONTE", "NOMEFANTASIA": null, "RAZAOSOCIAL": "FIND_AGRO_INDUSTRIAL_LTDA", "ENDEE": "RUA OLIVIO CARRARA, 822, JARDIM FALCAO, 14960-000, NOVO HORIZONTE, SP, BRASIL", "LMAPS": "https://www.google.com/maps?q=&layer=c&cbll=-21.4690023,-49.2051423", "O_QUE_FAZER": "CARTEIRA - FAMPE", "ER_REGIAO_CIDADE_min": "Novo Horizonte_Novo Horizonte_Araraquara" }, "geometry": { "type": "Point", "coordinates": [ -49.2051423, -21.4690023 ] } },
{ "type": "Feature", "properties": { "fid": 192348, "CNPJ": "37117000000186", "IDCIDADE": "NOVO_HORIZONTE", "NOMEFANTASIA": "SPORT_BILLY", "RAZAOSOCIAL": "LUIS_B_DO_PRADO_NETO", "ENDEE": "RUA_QUINZE_DE_NOVEMBRO737__CENTRO_14960-062", "LMAPS": "https://www.google.com/maps?q=&layer=c&cbll=-21.4678025,-49.2224693", "O_QUE_FAZER": "CARTEIRA", "ER_REGIAO_CIDADE_min": "Novo Horizonte_Novo Horizonte_Araraquara" }, "geometry": { "type": "Point", "coordinates": [ -49.2224693, -21.4678025 ] } },
{ "type": "Feature", "properties": { "fid": 199635, "CNPJ": "38815007000134", "IDCIDADE": "NOVO_HORIZONTE", "NOMEFANTASIA": "SO_FORMULA", "RAZAOSOCIAL": "SO_FORMULA_FARMACIA_DE_MANIPULACAO_LTDA", "ENDEE": "RUA_TRAJANO_MACHADO735__CENTRO_14960-064", "LMAPS": "https://www.google.com/maps?q=&layer=c&cbll=-21.4671849,-49.2218568", "O_QUE_FAZER": "CARTEIRA", "ER_REGIAO_CIDADE_min": "Novo Horizonte_Novo Horizonte_Araraquara" }, "geometry": { "type": "Point", "coordinates": [ -49.2218568, -21.4671849 ] } },
{ "type": "Feature", "properties": { "fid": 203297, "CNPJ": "39853992000135", "IDCIDADE": "NOVO_HORIZONTE", "NOMEFANTASIA": "EDMAIS", "RAZAOSOCIAL": "CONFECCOES_EDIHORIZONTE_LTDA", "ENDEE": "RUA_TRAJANO_MACHADO620__CENTRO_14960-064", "LMAPS": "https://www.google.com/maps?q=&layer=c&cbll=-21.4673798,-49.2205728", "O_QUE_FAZER": "CARTEIRA", "ER_REGIAO_CIDADE_min": "Novo Horizonte_Novo Horizonte_Araraquara" }, "geometry": { "type": "Point", "coordinates": [ -49.2205728, -21.4673798 ] } },
{ "type": "Feature", "properties": { "fid": 205104, "CNPJ": "40288736000121", "IDCIDADE": "NOVO_HORIZONTE", "NOMEFANTASIA": "RIOTICA", "RAZAOSOCIAL": "RGR_OLIVEIRA_MARCHESINI_COMERCIO_DE_ARTIGOS_DE_OTICA_LTDA.", "ENDEE": "RUA_SAO_SEBASTIAO567__CENTRO_14960-040", "LMAPS": "https://www.google.com/maps?q=&layer=c&cbll=-21.4664995,-49.2232931", "O_QUE_FAZER": "CARTEIRA", "ER_REGIAO_CIDADE_min": "Novo Horizonte_Novo Horizonte_Araraquara" }, "geometry": { "type": "Point", "coordinates": [ -49.2232931, -21.4664995 ] } },
{ "type": "Feature", "properties": { "fid": 206883, "CNPJ": "40789668000184", "IDCIDADE": "NOVO_HORIZONTE", "NOMEFANTASIA": "JEANS_E_CIA", "RAZAOSOCIAL": "ALEXANDRE_DIAS_ROSA_COMERCIO_DE_VESTUARIO", "ENDEE": "RUA_TRAJANO_MACHADO710__CENTRO_14960-064", "LMAPS": "https://www.google.com/maps?q=&layer=c&cbll=-21.4670993,-49.2215565", "O_QUE_FAZER": "CARTEIRA", "ER_REGIAO_CIDADE_min": "Novo Horizonte_Novo Horizonte_Araraquara" }, "geometry": { "type": "Point", "coordinates": [ -49.2215565, -21.4670993 ] } },
{ "type": "Feature", "properties": { "fid": 208897, "CNPJ": "41299127000130", "IDCIDADE": "NOVO_HORIZONTE", "NOMEFANTASIA": "DROGARIAS_POUP_AQUI", "RAZAOSOCIAL": "W&E_DROGARIAS_LTDA", "ENDEE": "RUA_TRAJANO_MACHADO822__CENTRO_14960-064", "LMAPS": "https://www.google.com/maps?q=&layer=c&cbll=-21.4664756,-49.2223306", "O_QUE_FAZER": "CARTEIRA", "ER_REGIAO_CIDADE_min": "Novo Horizonte_Novo Horizonte_Araraquara" }, "geometry": { "type": "Point", "coordinates": [ -49.2223306, -21.4664756 ] } },
{ "type": "Feature", "properties": { "fid": 210796, "CNPJ": "41774017000183", "IDCIDADE": "NOVO_HORIZONTE", "NOMEFANTASIA": "START_SHOP", "RAZAOSOCIAL": "D_&_G_START_SHOP_COMERCIO_DE_PRODUTOS_DE_LIMPEZA_LTDA", "ENDEE": "RUA_TRAJANO_MACHADO574__CENTRO_14960-064", "LMAPS": "https://www.google.com/maps?q=&layer=c&cbll=-21.4678969,-49.2204217", "O_QUE_FAZER": "CARTEIRA", "ER_REGIAO_CIDADE_min": "Novo Horizonte_Novo Horizonte_Araraquara" }, "geometry": { "type": "Point", "coordinates": [ -49.2204217, -21.4678969 ] } },
{ "type": "Feature", "properties": { "fid": 212275, "CNPJ": "42107552000143", "IDCIDADE": "NOVO_HORIZONTE", "NOMEFANTASIA": "OTICA_RICARDO_2", "RAZAOSOCIAL": "R_O_COMERCIO_DE_ARTIGOS_DE_OTICA_LTDA", "ENDEE": "RUA_QUINZE_DE_NOVEMBRO818__CENTRO_14960-038", "LMAPS": "https://www.google.com/maps?q=&layer=c&cbll=-21.4671672,-49.2230753", "O_QUE_FAZER": "CARTEIRA", "ER_REGIAO_CIDADE_min": "Novo Horizonte_Novo Horizonte_Araraquara" }, "geometry": { "type": "Point", "coordinates": [ -49.2230753, -21.4671672 ] } },
{ "type": "Feature", "properties": { "fid": 212436, "CNPJ": "42144274000102", "IDCIDADE": "NOVO HORIZONTE", "NOMEFANTASIA": null, "RAZAOSOCIAL": "CASA_DA_MUSSARELA_CORREA_NH_LTDA", "ENDEE": "AVENIDA DA SAUDADE, 161, JARDIM DAS ACACIAS, 14960-000, NOVO HORIZONTE, SP, BRASIL", "LMAPS": "https://www.google.com/maps?q=&layer=c&cbll=-21.4649748,-49.2246518", "O_QUE_FAZER": "CARTEIRA - FAMPE", "ER_REGIAO_CIDADE_min": "Novo Horizonte_Novo Horizonte_Araraquara" }, "geometry": { "type": "Point", "coordinates": [ -49.2246518, -21.4649748 ] } },
{ "type": "Feature", "properties": { "fid": 213474, "CNPJ": "42379733000129", "IDCIDADE": "NOVO_HORIZONTE", "NOMEFANTASIA": "FAUSTUR_VIAGEM", "RAZAOSOCIAL": "FAUSTO_MIZAEL_VIAGENS", "ENDEE": "RUA_QUINZE_DE_NOVEMBRO721__CENTRO_14960-062", "LMAPS": "https://www.google.com/maps?q=&layer=c&cbll=-21.4689119,-49.2207334", "O_QUE_FAZER": "CARTEIRA", "ER_REGIAO_CIDADE_min": "Novo Horizonte_Novo Horizonte_Araraquara" }, "geometry": { "type": "Point", "coordinates": [ -49.2207334, -21.4689119 ] } },
{ "type": "Feature", "properties": { "fid": 221007, "CNPJ": "43961277000193", "IDCIDADE": "NOVO_HORIZONTE", "NOMEFANTASIA": "MUNDO_CAO", "RAZAOSOCIAL": "EDER_JOSE_PEDRO", "ENDEE": "AVENIDA_DA_SAUDADE451__IV_CENTENARIO_14965-038", "LMAPS": "https://www.google.com/maps?q=&layer=c&cbll=-21.471922,-49.2141242", "O_QUE_FAZER": "CARTEIRA", "ER_REGIAO_CIDADE_min": "Novo Horizonte_Novo Horizonte_Araraquara" }, "geometry": { "type": "Point", "coordinates": [ -49.2141242, -21.471922 ] } },
{ "type": "Feature", "properties": { "fid": 224938, "CNPJ": "44782845000151", "IDCIDADE": "NOVO_HORIZONTE", "NOMEFANTASIA": "MOTOGER", "RAZAOSOCIAL": "CLAUDENIR_GERSON_RONCOLETA", "ENDEE": "AVENIDA_GUIDO_DELLA_TOGNA36__JARDIM_AEROPORTO_14962-400", "LMAPS": "https://www.google.com/maps?q=&layer=c&cbll=-21.4725963,-49.2262252", "O_QUE_FAZER": "CARTEIRA", "ER_REGIAO_CIDADE_min": "Novo Horizonte_Novo Horizonte_Araraquara" }, "geometry": { "type": "Point", "coordinates": [ -49.2262252, -21.4725963 ] } },
{ "type": "Feature", "properties": { "fid": 231570, "CNPJ": "46182310000175", "IDCIDADE": "NOVO_HORIZONTE", "NOMEFANTASIA": "KAWAII", "RAZAOSOCIAL": "LOJA_KAWAII_MODA_FEMININA_LTDA", "ENDEE": "RUA_QUINZE_DE_NOVEMBRO751__CENTRO_14960-062", "LMAPS": "https://www.google.com/maps?q=&layer=c&cbll=-21.4676284,-49.2226257", "O_QUE_FAZER": "CARTEIRA", "ER_REGIAO_CIDADE_min": "Novo Horizonte_Novo Horizonte_Araraquara" }, "geometry": { "type": "Point", "coordinates": [ -49.2226257, -21.4676284 ] } },
{ "type": "Feature", "properties": { "fid": 233818, "CNPJ": "46639649000158", "IDCIDADE": "NOVO HORIZONTE", "NOMEFANTASIA": "-", "RAZAOSOCIAL": "46.639.649_ANDRESA_LOPES_RODRIGUES_MARIA", "ENDEE": "RUA PRUDENTE DE MORAES, 547, CENTRO, 14960-030, NOVO HORIZONTE, SP, BRASIL", "LMAPS": "https://www.google.com/maps?q=&layer=c&cbll=-21.4671378,-49.2213337", "O_QUE_FAZER": "CARTEIRA - FAMPE", "ER_REGIAO_CIDADE_min": "Novo Horizonte_Novo Horizonte_Araraquara" }, "geometry": { "type": "Point", "coordinates": [ -49.2213337, -21.4671378 ] } },
{ "type": "Feature", "properties": { "fid": 234944, "CNPJ": "46875712000155", "IDCIDADE": "NOVO_HORIZONTE", "NOMEFANTASIA": "MINI_LOJA", "RAZAOSOCIAL": "RODRIGUES_&_FUMAGALLI_LTDA", "ENDEE": "RUA_TRAJANO_MACHADO721__CENTRO_14960-064", "LMAPS": "https://www.google.com/maps?q=&layer=c&cbll=-21.4671373,-49.2217053", "O_QUE_FAZER": "CARTEIRA", "ER_REGIAO_CIDADE_min": "Novo Horizonte_Novo Horizonte_Araraquara" }, "geometry": { "type": "Point", "coordinates": [ -49.2217053, -21.4671373 ] } },
{ "type": "Feature", "properties": { "fid": 237409, "CNPJ": "47371660000142", "IDCIDADE": "NOVO HORIZONTE", "NOMEFANTASIA": null, "RAZAOSOCIAL": "LUCIANO_GODOI_VITA", "ENDEE": "RUA TRAJANO MACHADO, 1205, VILA PATTI, 14960-160, NOVO HORIZONTE, SP, BRASIL", "LMAPS": "https://www.google.com/maps?q=&layer=c&cbll=-21.4644819,-49.2254487", "O_QUE_FAZER": "CARTEIRA - FAMPE", "ER_REGIAO_CIDADE_min": "Novo Horizonte_Novo Horizonte_Araraquara" }, "geometry": { "type": "Point", "coordinates": [ -49.2254487, -21.4644819 ] } },
{ "type": "Feature", "properties": { "fid": 241270, "CNPJ": "48189534000134", "IDCIDADE": "NOVO_HORIZONTE", "NOMEFANTASIA": "DELMAR", "RAZAOSOCIAL": "RODOLFO_ETTORE_MARTINELLI_&_CIA._LTDA.", "ENDEE": "AVENIDA_GUIDO_DELLA_TOGNA429__JARDIM_AEROPORTO_14962-400", "LMAPS": "https://www.google.com/maps?q=&layer=c&cbll=-21.4752503,-49.2276841", "O_QUE_FAZER": "CARTEIRA", "ER_REGIAO_CIDADE_min": "Novo Horizonte_Novo Horizonte_Araraquara" }, "geometry": { "type": "Point", "coordinates": [ -49.2276841, -21.4752503 ] } },
{ "type": "Feature", "properties": { "fid": 254445, "CNPJ": "50888369000150", "IDCIDADE": "NOVO_HORIZONTE", "NOMEFANTASIA": "2J_STORE", "RAZAOSOCIAL": "JVX_FLORIANO_COMERCIO_VAREJISTA_DE_ARTIGOS_DO_VESTUARIO", "ENDEE": "RUA_QUINZE_DE_NOVEMBRO491__CENTRO_14960-062", "LMAPS": "https://www.google.com/maps?q=&layer=c&cbll=-21.4693816,-49.2208906", "O_QUE_FAZER": "CARTEIRA", "ER_REGIAO_CIDADE_min": "Novo Horizonte_Novo Horizonte_Araraquara" }, "geometry": { "type": "Point", "coordinates": [ -49.2208906, -21.4693816 ] } },
{ "type": "Feature", "properties": { "fid": 255370, "CNPJ": "51063860000105", "IDCIDADE": "NOVO_HORIZONTE", "NOMEFANTASIA": "ONLY_PARFUM", "RAZAOSOCIAL": "GP_PERFUMARIA_E_COSMETICOS_LTDA", "ENDEE": "RUA_QUINZE_DE_NOVEMBRO740__CENTRO_14960-062", "LMAPS": "https://www.google.com/maps?q=&layer=c&cbll=-21.4677426,-49.2223526", "O_QUE_FAZER": "CARTEIRA", "ER_REGIAO_CIDADE_min": "Novo Horizonte_Novo Horizonte_Araraquara" }, "geometry": { "type": "Point", "coordinates": [ -49.2223526, -21.4677426 ] } },
{ "type": "Feature", "properties": { "fid": 256801, "CNPJ": "51347086000164", "IDCIDADE": "NOVO_HORIZONTE", "NOMEFANTASIA": "LACAROTTE", "RAZAOSOCIAL": "DANRO_CONFECCOES_E_ACESSORIOS_LTDA", "ENDEE": "RUA_CAMPOS_SALLES699__CENTRO_14960-038", "LMAPS": "https://www.google.com/maps?q=&layer=c&cbll=-21.4680548,-49.2233075", "O_QUE_FAZER": "CARTEIRA", "ER_REGIAO_CIDADE_min": "Novo Horizonte_Novo Horizonte_Araraquara" }, "geometry": { "type": "Point", "coordinates": [ -49.2233075, -21.4680548 ] } },
{ "type": "Feature", "properties": { "fid": 260984, "CNPJ": "52194798000153", "IDCIDADE": "NOVO HORIZONTE", "NOMEFANTASIA": null, "RAZAOSOCIAL": "CANDIDO_APARECIDO_DE_AGUIAR_LTDA", "ENDEE": "RUA JOAO DE CASTRO, 243, IV CENTENARIO, 14965-024, NOVO HORIZONTE, SP, BRASIL", "LMAPS": "https://www.google.com/maps?q=&layer=c&cbll=-21.4740511,-49.2147341", "O_QUE_FAZER": "CARTEIRA - FAMPE", "ER_REGIAO_CIDADE_min": "Novo Horizonte_Novo Horizonte_Araraquara" }, "geometry": { "type": "Point", "coordinates": [ -49.2147341, -21.4740511 ] } },
{ "type": "Feature", "properties": { "fid": 262787, "CNPJ": "52554238000162", "IDCIDADE": "NOVO HORIZONTE", "NOMEFANTASIA": "-", "RAZAOSOCIAL": "52.554.238_SAMUEL_PONTES_CAMARGO", "ENDEE": "RUA 28 DE OUTUBRO, 447, CENTRO, 14960-060, NOVO HORIZONTE, SP, BRASIL", "LMAPS": "https://www.google.com/maps?q=&layer=c&cbll=-21.4701837,-49.2208277", "O_QUE_FAZER": "CARTEIRA - FAMPE", "ER_REGIAO_CIDADE_min": "Novo Horizonte_Novo Horizonte_Araraquara" }, "geometry": { "type": "Point", "coordinates": [ -49.2208277, -21.4701837 ] } },
{ "type": "Feature", "properties": { "fid": 265615, "CNPJ": "53171534000147", "IDCIDADE": "NOVO_HORIZONTE", "NOMEFANTASIA": "ELETRICA_TRES_IRMAOS", "RAZAOSOCIAL": "EID_&_CIA.LTDA", "ENDEE": "RUA_TRAJANO_MACHADO973__CENTRO_14960-064", "LMAPS": "https://www.google.com/maps?q=&layer=c&cbll=-21.4657976,-49.2236622", "O_QUE_FAZER": "CARTEIRA", "ER_REGIAO_CIDADE_min": "Novo Horizonte_Novo Horizonte_Araraquara" }, "geometry": { "type": "Point", "coordinates": [ -49.2236622, -21.4657976 ] } },
{ "type": "Feature", "properties": { "fid": 274129, "CNPJ": "55084258000105", "IDCIDADE": "NOVO HORIZONTE", "NOMEFANTASIA": null, "RAZAOSOCIAL": "TRANSPORTES_3_IRMAOS_NH_LTDA", "ENDEE": "RUA SILVIA REGINA MILANI, 1011, JARDIM ACAPULCO, 14962-310, NOVO HORIZONTE, SP, BRASIL", "LMAPS": "https://www.google.com/maps?q=&layer=c&cbll=-21.482806,-49.224532", "O_QUE_FAZER": "CARTEIRA - FAMPE", "ER_REGIAO_CIDADE_min": "Novo Horizonte_Novo Horizonte_Araraquara" }, "geometry": { "type": "Point", "coordinates": [ -49.224532, -21.482806 ] } },
{ "type": "Feature", "properties": { "fid": 275384, "CNPJ": "55375778000177", "IDCIDADE": "NOVO_HORIZONTE", "NOMEFANTASIA": "FOTO_QUEIROZ", "RAZAOSOCIAL": "JOAO_APARECIDO_TEIXEIRA", "ENDEE": "PRACA_DOUTOR_EUCLIDES_CARDOSO_CASTILHO46__CENTRO_14960-062", "LMAPS": "https://www.google.com/maps?q=&layer=c&cbll=-21.468575,-49.2208134", "O_QUE_FAZER": "CARTEIRA", "ER_REGIAO_CIDADE_min": "Novo Horizonte_Novo Horizonte_Araraquara" }, "geometry": { "type": "Point", "coordinates": [ -49.2208134, -21.468575 ] } },
{ "type": "Feature", "properties": { "fid": 275990, "CNPJ": "55513386000127", "IDCIDADE": "NOVO_HORIZONTE", "NOMEFANTASIA": "ARMAZEM_SAO_PAULO", "RAZAOSOCIAL": "EDGAR_F._LOTO_&_CIA._LTDA", "ENDEE": "RUA_TRAJANO_MACHADO675__CENTRO_14960-064", "LMAPS": "https://www.google.com/maps?q=&layer=c&cbll=-21.4674955,-49.2214051", "O_QUE_FAZER": "CARTEIRA", "ER_REGIAO_CIDADE_min": "Novo Horizonte_Novo Horizonte_Araraquara" }, "geometry": { "type": "Point", "coordinates": [ -49.2214051, -21.4674955 ] } },
{ "type": "Feature", "properties": { "fid": 279370, "CNPJ": "56496904000104", "IDCIDADE": "NOVO_HORIZONTE", "NOMEFANTASIA": "NOMACON", "RAZAOSOCIAL": "NO-MACON_DEPOSITO_DE_MADEIRA_E_MATERIAL_DE_CONSTRUCAO_LTDA", "ENDEE": "AVENIDA_DOMINGOS_BARALDO1793__CENTRO_14962-370", "LMAPS": "https://www.google.com/maps?q=&layer=c&cbll=-21.4739561,-49.2241131", "O_QUE_FAZER": "CARTEIRA", "ER_REGIAO_CIDADE_min": "Novo Horizonte_Novo Horizonte_Araraquara" }, "geometry": { "type": "Point", "coordinates": [ -49.2241131, -21.4739561 ] } },
{ "type": "Feature", "properties": { "fid": 286749, "CNPJ": "58890029000176", "IDCIDADE": "NOVO HORIZONTE", "NOMEFANTASIA": null, "RAZAOSOCIAL": "58.890.029_ANA_CAROLINA_OLIVEIRA_VICENTE", "ENDEE": "RUA LUIS FLORES ARO, 203, ALTO DA VILA PATTI, 14960-546, NOVO HORIZONTE, SP, BRASIL", "LMAPS": "https://www.google.com/maps?q=&layer=c&cbll=-21.4559089,-49.228345", "O_QUE_FAZER": "CARTEIRA - FAMPE", "ER_REGIAO_CIDADE_min": "Novo Horizonte_Novo Horizonte_Araraquara" }, "geometry": { "type": "Point", "coordinates": [ -49.228345, -21.4559089 ] } },
{ "type": "Feature", "properties": { "fid": 287784, "CNPJ": "59233726000460", "IDCIDADE": "NOVO_HORIZONTE", "NOMEFANTASIA": "ELETRO_MOVEIS", "RAZAOSOCIAL": "SILVA_&_MEM_LTDA", "ENDEE": "RUA_TRAJANO_MACHADO833__CENTRO_14960-064", "LMAPS": "https://www.google.com/maps?q=&layer=c&cbll=-21.4667809,-49.222709", "O_QUE_FAZER": "CARTEIRA", "ER_REGIAO_CIDADE_min": "Novo Horizonte_Novo Horizonte_Araraquara" }, "geometry": { "type": "Point", "coordinates": [ -49.222709, -21.4667809 ] } },
{ "type": "Feature", "properties": { "fid": 291096, "CNPJ": "60294295000188", "IDCIDADE": "NOVO_HORIZONTE", "NOMEFANTASIA": "OTICA_OCULAR", "RAZAOSOCIAL": "BAZAGLIA_ALVES_OPTICA_LTDA", "ENDEE": "RUA_CAMPOS_SALLES650__CENTRO_14960-038", "LMAPS": "https://www.google.com/maps?q=&layer=c&cbll=-21.4676701,-49.2231983", "O_QUE_FAZER": "CARTEIRA", "ER_REGIAO_CIDADE_min": "Novo Horizonte_Novo Horizonte_Araraquara" }, "geometry": { "type": "Point", "coordinates": [ -49.2231983, -21.4676701 ] } },
{ "type": "Feature", "properties": { "fid": 292264, "CNPJ": "60706328000150", "IDCIDADE": "NOVO HORIZONTE", "NOMEFANTASIA": null, "RAZAOSOCIAL": "60.706.328_ALEXANDRE_EDUARDO_RODRIGUES", "ENDEE": "AVENIDA NAGIB EID, 330, JARDIM ESPLANADA, 14966-044, NOVO HORIZONTE, SP, BRASIL", "LMAPS": "https://www.google.com/maps?q=&layer=c&cbll=-21.4627299,-49.2216637", "O_QUE_FAZER": "CARTEIRA - FAMPE", "ER_REGIAO_CIDADE_min": "Novo Horizonte_Novo Horizonte_Araraquara" }, "geometry": { "type": "Point", "coordinates": [ -49.2216637, -21.4627299 ] } },
{ "type": "Feature", "properties": { "fid": 293230, "CNPJ": "61034807000130", "IDCIDADE": "NOVO_HORIZONTE", "NOMEFANTASIA": "JEANS_E_CIA", "RAZAOSOCIAL": "ANA_MEIRE_MANSO_DE_LIMA_GUILHERME", "ENDEE": "RUA_QUINZE_DE_NOVEMBRO726__CENTRO_14960-062", "LMAPS": "https://www.google.com/maps?q=&layer=c&cbll=-21.4677363,-49.2221844", "O_QUE_FAZER": "CARTEIRA", "ER_REGIAO_CIDADE_min": "Novo Horizonte_Novo Horizonte_Araraquara" }, "geometry": { "type": "Point", "coordinates": [ -49.2221844, -21.4677363 ] } },
{ "type": "Feature", "properties": { "fid": 297219, "CNPJ": "62600523000126", "IDCIDADE": "NOVO_HORIZONTE", "NOMEFANTASIA": "N_N_MOVEIS", "RAZAOSOCIAL": "N.N._NOVO_HORIZONTE_INDUSTRIA_DE_MOVEIS_LTDA", "ENDEE": "AVENIDA_JOSE_WILIBALDO_DE_FREITAS1726__IV_CENTENARIO_14965-028", "LMAPS": "https://www.google.com/maps?q=&layer=c&cbll=-21.4728478,-49.2137262", "O_QUE_FAZER": "CARTEIRA", "ER_REGIAO_CIDADE_min": "Novo Horizonte_Novo Horizonte_Araraquara" }, "geometry": { "type": "Point", "coordinates": [ -49.2137262, -21.4728478 ] } },
{ "type": "Feature", "properties": { "fid": 301382, "CNPJ": "64967755000142", "IDCIDADE": "NOVO_HORIZONTE", "NOMEFANTASIA": "AUTO_PECAS_SAO_SEBASTIAO", "RAZAOSOCIAL": "JOSE_EVERARDO_BOZZETTI", "ENDEE": "AVENIDA_JOSE_WILLIBALDO_FREITAS343__VILA_BAUMAN_14960-064", "LMAPS": "https://www.google.com/maps?q=&layer=c&cbll=-21.4622841,-49.2198151", "O_QUE_FAZER": "CARTEIRA", "ER_REGIAO_CIDADE_min": "Novo Horizonte_Novo Horizonte_Araraquara" }, "geometry": { "type": "Point", "coordinates": [ -49.2198151, -21.4622841 ] } },
{ "type": "Feature", "properties": { "fid": 302669, "CNPJ": "65710808000108", "IDCIDADE": "NOVO_HORIZONTE", "NOMEFANTASIA": "CITRUS_NOVO", "RAZAOSOCIAL": "CITRUS_NOVO_S/C_DE_COMERCIALIZACAO_DE_PRODS_AGRICOLAS", "ENDEE": "AVENIDA_GUIDO_DELLA_TOGNA450__JARDIM_AEROPORTO_14962-400", "LMAPS": "https://www.google.com/maps?q=&layer=c&cbll=-21.4752755,-49.2280335", "O_QUE_FAZER": "CARTEIRA", "ER_REGIAO_CIDADE_min": "Novo Horizonte_Novo Horizonte_Araraquara" }, "geometry": { "type": "Point", "coordinates": [ -49.2280335, -21.4752755 ] } },
{ "type": "Feature", "properties": { "fid": 302941, "CNPJ": "65822223000180", "IDCIDADE": "NOVO_HORIZONTE", "NOMEFANTASIA": "LOJA_DECADA", "RAZAOSOCIAL": "DECADA_NOVO_HORIZONTE_COMERCIO_DE_ROUPAS_LTDA", "ENDEE": "RUA_TRAJANO_MACHADO990__CENTRO_14960-064", "LMAPS": "https://www.google.com/maps?q=&layer=c&cbll=-21.4656016,-49.2236298", "O_QUE_FAZER": "CARTEIRA", "ER_REGIAO_CIDADE_min": "Novo Horizonte_Novo Horizonte_Araraquara" }, "geometry": { "type": "Point", "coordinates": [ -49.2236298, -21.4656016 ] } },
{ "type": "Feature", "properties": { "fid": 303323, "CNPJ": "65977376000104", "IDCIDADE": "NOVO HORIZONTE", "NOMEFANTASIA": null, "RAZAOSOCIAL": "65.977.376_GABRIEL_SILVA_DE_PAULA", "ENDEE": "AVENIDA JOSE WILIBALDO DE FREITAS, 811, CENTRO, 14960-076, NOVO HORIZONTE, SP, BRASIL", "LMAPS": "https://www.google.com/maps?q=&layer=c&cbll=-21.4675454,-49.2153951", "O_QUE_FAZER": "CARTEIRA - FAMPE", "ER_REGIAO_CIDADE_min": "Novo Horizonte_Novo Horizonte_Araraquara" }, "geometry": { "type": "Point", "coordinates": [ -49.2153951, -21.4675454 ] } },
{ "type": "Feature", "properties": { "fid": 303969, "CNPJ": "66361706000197", "IDCIDADE": "NOVO HORIZONTE", "NOMEFANTASIA": null, "RAZAOSOCIAL": "66.361.706_GEOVANA_TIBERIO_FERNANDES_PEREIRA", "ENDEE": "AVENIDA DAVID JOSE ASCHKAR, 1263, JARDIM GUANABARA, 14965-230, NOVO HORIZONTE, SP, BRASIL", "LMAPS": "https://www.google.com/maps?q=&layer=c&cbll=-21.4741119,-49.2065356", "O_QUE_FAZER": "CARTEIRA - FAMPE", "ER_REGIAO_CIDADE_min": "Novo Horizonte_Novo Horizonte_Araraquara" }, "geometry": { "type": "Point", "coordinates": [ -49.2065356, -21.4741119 ] } },
{ "type": "Feature", "properties": { "fid": 306021, "CNPJ": "67341776000146", "IDCIDADE": "NOVO_HORIZONTE", "NOMEFANTASIA": "PIOVANI_COLCHOES", "RAZAOSOCIAL": "PIOVANI_COLCHOES_LTDA", "ENDEE": "RUA_QUINZE_DE_NOVEMBRO354__CENTRO_14960-062", "LMAPS": "https://www.google.com/maps?q=&layer=c&cbll=-21.4697496,-49.2193741", "O_QUE_FAZER": "CARTEIRA", "ER_REGIAO_CIDADE_min": "Novo Horizonte_Novo Horizonte_Araraquara" }, "geometry": { "type": "Point", "coordinates": [ -49.2193741, -21.4697496 ] } },
{ "type": "Feature", "properties": { "fid": 310150, "CNPJ": "72803695000150", "IDCIDADE": "NOVO_HORIZONTE", "NOMEFANTASIA": "AEROPORTO_MADEIRAS", "RAZAOSOCIAL": "AEROPORTO_MADEIRAS_LTDA", "ENDEE": "AVENIDA_JOSE_WILIBALDO_DE_FREITAS1735__IV_CENTENARIO_14965-172", "LMAPS": "https://www.google.com/maps?q=&layer=c&cbll=-21.4729648,-49.213144", "O_QUE_FAZER": "CARTEIRA", "ER_REGIAO_CIDADE_min": "Novo Horizonte_Novo Horizonte_Araraquara" }, "geometry": { "type": "Point", "coordinates": [ -49.213144, -21.4729648 ] } }
]
}
