{
"type": "FeatureCollection",
"name": "ER_REGIAO_CIDADE_min_Guareí_Botucatu",
"crs": { "type": "name", "properties": { "name": "urn:ogc:def:crs:OGC:1.3:CRS84" } },
"xy_coordinate_resolution": 1e-15,
"features": [
{ "type": "Feature", "properties": { "fid": 85486, "CNPJ": "13994566000128", "IDCIDADE": "GUAREI", "NOMEFANTASIA": "DMARI_MODAS", "RAZAOSOCIAL": "DEBORA_SANTOS_TENORIO_GUAREI", "ENDEE": "10A RUA UGOLINO DE MORAES, 271, CENTRO, 18250-000, GUAREÍ, SP, BRASIL", "LMAPS": "https://www.google.com/maps?q=&layer=c&cbll=-23.3714835,-48.1850174", "O_QUE_FAZER": "CARTEIRA - FAMPE", "ER_REGIAO_CIDADE_min": "Guareí_Botucatu" }, "geometry": { "type": "Point", "coordinates": [ -48.1850174, -23.3714835 ] } },
{ "type": "Feature", "properties": { "fid": 228510, "CNPJ": "45577484000174", "IDCIDADE": "GUAREI", "NOMEFANTASIA": "LIVPED_CONFECCOES", "RAZAOSOCIAL": "LIVPED_CONFECCOES_LTDA", "ENDEE": "RUA LUIZ DE ALMEIDA FONSECA, 175, JARDIM NOVA GUAREI, 18250-000, GUAREÍ, SP, BRASIL", "LMAPS": "https://www.google.com/maps?q=&layer=c&cbll=-23.3675844,-48.181947", "O_QUE_FAZER": "CARTEIRA - FAMPE", "ER_REGIAO_CIDADE_min": "Guareí_Botucatu" }, "geometry": { "type": "Point", "coordinates": [ -48.181947, -23.3675844 ] } },
{ "type": "Feature", "properties": { "fid": 229907, "CNPJ": "45859101000150", "IDCIDADE": "GUAREI", "NOMEFANTASIA": "ROCHA_&_ROCHA_GUAREI_LTDA", "RAZAOSOCIAL": "NINHO_VERDE", "ENDEE": "1086_AREA_RURAL0__AREA_RURAL_DE_GUAREI_18250-000", "LMAPS": "https://www.google.com/maps?q=&layer=c&cbll=-23.3712304,-48.184405", "O_QUE_FAZER": "FINALIZADO", "ER_REGIAO_CIDADE_min": "Guareí_Botucatu" }, "geometry": { "type": "Point", "coordinates": [ -48.184405, -23.3712304 ] } },
{ "type": "Feature", "properties": { "fid": 230287, "CNPJ": "45926485000187", "IDCIDADE": "GUAREI", "NOMEFANTASIA": "RODRIGUES_ENGENHARIA_&_CONTROLE_TECNOLOGICO", "RAZAOSOCIAL": "RODRIGUES_ENGENHARIA_&_CONSTRUCOES_LTDA", "ENDEE": "RUA OLEGARIO INACIO DE ALMEIDA, 160, CENTRO, 18250-000, GUAREÍ, SP, BRASIL", "LMAPS": "https://www.google.com/maps?q=&layer=c&cbll=-23.3799467,-48.1925187", "O_QUE_FAZER": "CARTEIRA - FAMPE", "ER_REGIAO_CIDADE_min": "Guareí_Botucatu" }, "geometry": { "type": "Point", "coordinates": [ -48.1925187, -23.3799467 ] } },
{ "type": "Feature", "properties": { "fid": 296293, "CNPJ": "62182609000186", "IDCIDADE": "GUAREI", "NOMEFANTASIA": null, "RAZAOSOCIAL": "62.182.609_GEICIANE_OLIVEIRA_MACHADO", "ENDEE": "RUA VEREADOR PEDRO DOMINGUES DE BARROS, 88, BAIRRO DA FAZENDA, 18251-012, GUAREÍ, SP, BRASIL", "LMAPS": "https://www.google.com/maps?q=&layer=c&cbll=-23.3793736,-48.1941398", "O_QUE_FAZER": "CARTEIRA - FAMPE", "ER_REGIAO_CIDADE_min": "Guareí_Botucatu" }, "geometry": { "type": "Point", "coordinates": [ -48.1941398, -23.3793736 ] } },
{ "type": "Feature", "properties": { "fid": 312842, "CNPJ": "65038067000160", "IDCIDADE": "Guareí", "NOMEFANTASIA": "JOSE CONCEICAO NETO", "RAZAOSOCIAL": "65.038.067 JOSE CONCEICAO NETO", "ENDEE": "RUA VEREADOR RAIMUNDO JOSE SOARES, 62, BAIRRO DA FAZENDA, 18251-016, GUAREÍ, SP, BRASIL", "LMAPS": "https://www.google.com/maps?q=&layer=c&cbll=-23.3790253,-48.1945482", "O_QUE_FAZER": "FINALIZADO", "ER_REGIAO_CIDADE_min": "Guareí_Botucatu" }, "geometry": { "type": "Point", "coordinates": [ -48.1945482, -23.3790253 ] } }
]
}
