{
"type": "FeatureCollection",
"name": "ER_REGIAO_CIDADE_min_Pitangueiras_Pitangueiras_Barretos",
"crs": { "type": "name", "properties": { "name": "urn:ogc:def:crs:OGC:1.3:CRS84" } },
"xy_coordinate_resolution": 1e-15,
"features": [
{ "type": "Feature", "properties": { "fid": 1787, "CNPJ": "00358934000108", "IDCIDADE": "PITANGUEIRAS", "NOMEFANTASIA": "FORESTI_PET_SHOP", "RAZAOSOCIAL": "ANTONIO_MARCELINO_DA_SILVA_SOBRINHO", "ENDEE": "RUA_LEOLINO_COTRIM256__CENTRO_14750-000", "LMAPS": "https://www.google.com/maps?q=&layer=c&cbll=-21.0119715,-48.2222538", "O_QUE_FAZER": "CARTEIRA", "ER_REGIAO_CIDADE_min": "Pitangueiras_Pitangueiras_Barretos" }, "geometry": { "type": "Point", "coordinates": [ -48.2222538, -21.0119715 ] } },
{ "type": "Feature", "properties": { "fid": 2081, "CNPJ": "00425869000188", "IDCIDADE": "PITANGUEIRAS", "NOMEFANTASIA": "PATRICIA_BOUTIQUE", "RAZAOSOCIAL": "PATRICIA_APARECIDA_SARNI_CUSSIOLI", "ENDEE": "RUA_PARANA482__CENTRO_14750-000", "LMAPS": "https://www.google.com/maps?q=&layer=c&cbll=-21.0114451,-48.2213277", "O_QUE_FAZER": "CARTEIRA", "ER_REGIAO_CIDADE_min": "Pitangueiras_Pitangueiras_Barretos" }, "geometry": { "type": "Point", "coordinates": [ -48.2213277, -21.0114451 ] } },
{ "type": "Feature", "properties": { "fid": 12450, "CNPJ": "02532693000199", "IDCIDADE": "PITANGUEIRAS", "NOMEFANTASIA": "ESPORTE_VIDA", "RAZAOSOCIAL": "MARIA_REGINA_FERNANDES_MATERIAIS_ESPORTIVOS", "ENDEE": "RUA_PARANA505__CENTRO_14750-000", "LMAPS": "https://www.google.com/maps?q=&layer=c&cbll=-21.0114352,-48.2214835", "O_QUE_FAZER": "CARTEIRA", "ER_REGIAO_CIDADE_min": "Pitangueiras_Pitangueiras_Barretos" }, "geometry": { "type": "Point", "coordinates": [ -48.2214835, -21.0114352 ] } },
{ "type": "Feature", "properties": { "fid": 16017, "CNPJ": "03145065000113", "IDCIDADE": "PITANGUEIRAS", "NOMEFANTASIA": "PAPELARIA_FRANCIS", "RAZAOSOCIAL": "WAGNER_FERDINANDO", "ENDEE": "RUA_DOUTOR_EUCLIDES_ZANINI_CALDAS341__CENTRO_14750-000", "LMAPS": "https://www.google.com/maps?q=&layer=c&cbll=-21.0098247,-48.2172284", "O_QUE_FAZER": "CARTEIRA", "ER_REGIAO_CIDADE_min": "Pitangueiras_Pitangueiras_Barretos" }, "geometry": { "type": "Point", "coordinates": [ -48.2172284, -21.0098247 ] } },
{ "type": "Feature", "properties": { "fid": 23044, "CNPJ": "04266012000113", "IDCIDADE": "PITANGUEIRAS", "NOMEFANTASIA": "OTICA_NACIONAL", "RAZAOSOCIAL": "RENATA_CRISTINA_BORGES_DA_SILVA", "ENDEE": "RUA_LEOLINO_COTRIM285__CENTRO_14750-000", "LMAPS": "https://www.google.com/maps?q=&layer=c&cbll=-21.0117012,-48.2220568", "O_QUE_FAZER": "CARTEIRA", "ER_REGIAO_CIDADE_min": "Pitangueiras_Pitangueiras_Barretos" }, "geometry": { "type": "Point", "coordinates": [ -48.2220568, -21.0117012 ] } },
{ "type": "Feature", "properties": { "fid": 37852, "CNPJ": "06335909000187", "IDCIDADE": "PITANGUEIRAS", "NOMEFANTASIA": "NOVATEL_CELULARES", "RAZAOSOCIAL": "NOVATEL_CELULARES_LTDA", "ENDEE": "RUA_DOUTOR_EUCLIDES_ZANINI_CALDAS391__CENTRO_14750-000", "LMAPS": "https://www.google.com/maps?q=&layer=c&cbll=-21.0097707,-48.2166541", "O_QUE_FAZER": "CARTEIRA - FAMPE", "ER_REGIAO_CIDADE_min": "Pitangueiras_Pitangueiras_Barretos" }, "geometry": { "type": "Point", "coordinates": [ -48.2166541, -21.0097707 ] } },
{ "type": "Feature", "properties": { "fid": 39338, "CNPJ": "07027579000125", "IDCIDADE": "PITANGUEIRAS", "NOMEFANTASIA": "-", "RAZAOSOCIAL": "07.027.579_FABIANO_CESAR_ROCHA", "ENDEE": "RUA SERGIPE, 440, CENTRO, 14750-000, PITANGUEIRAS, SP, BRASIL", "LMAPS": "https://www.google.com/maps?q=&layer=c&cbll=-21.0096271,-48.2167634", "O_QUE_FAZER": "CARTEIRA - FAMPE", "ER_REGIAO_CIDADE_min": "Pitangueiras_Pitangueiras_Barretos" }, "geometry": { "type": "Point", "coordinates": [ -48.2167634, -21.0096271 ] } },
{ "type": "Feature", "properties": { "fid": 46681, "CNPJ": "07894790000145", "IDCIDADE": "PITANGUEIRAS", "NOMEFANTASIA": "DRUDI_MOTOS", "RAZAOSOCIAL": "LUIS_FERNANDO_DRUDI_ALMEIDA", "ENDEE": "RUA_PERNAMBUCO307__CENTRO_14750-000", "LMAPS": "https://www.google.com/maps?q=&layer=c&cbll=-21.0074121,-48.215343", "O_QUE_FAZER": "CARTEIRA", "ER_REGIAO_CIDADE_min": "Pitangueiras_Pitangueiras_Barretos" }, "geometry": { "type": "Point", "coordinates": [ -48.215343, -21.0074121 ] } },
{ "type": "Feature", "properties": { "fid": 47414, "CNPJ": "08021650000206", "IDCIDADE": "PITANGUEIRAS", "NOMEFANTASIA": "O_BOTICARIO", "RAZAOSOCIAL": "RAFAEL_JUNQUEIRA_NICO_AREIAS_PERFUMES_LTDA", "ENDEE": "RUA_DOUTOR_EUCLIDES_ZANINI_CALDAS176__CENTRO_14750-000", "LMAPS": "https://www.google.com/maps?q=&layer=c&cbll=-21.0101344,-48.2188133", "O_QUE_FAZER": "CARTEIRA", "ER_REGIAO_CIDADE_min": "Pitangueiras_Pitangueiras_Barretos" }, "geometry": { "type": "Point", "coordinates": [ -48.2188133, -21.0101344 ] } },
{ "type": "Feature", "properties": { "fid": 51872, "CNPJ": "08707276000469", "IDCIDADE": "PITANGUEIRAS", "NOMEFANTASIA": "OTICAS_CAROL", "RAZAOSOCIAL": "GIOVANA_SIBERI_PIOVESAN", "ENDEE": "PRACA_SAO_SEBASTIAO10__CENTRO_14750-000", "LMAPS": "https://www.google.com/maps?q=&layer=c&cbll=-21.0112745,-48.2214034", "O_QUE_FAZER": "CARTEIRA", "ER_REGIAO_CIDADE_min": "Pitangueiras_Pitangueiras_Barretos" }, "geometry": { "type": "Point", "coordinates": [ -48.2214034, -21.0112745 ] } },
{ "type": "Feature", "properties": { "fid": 52303, "CNPJ": "08755105000162", "IDCIDADE": "PITANGUEIRAS", "NOMEFANTASIA": "SLECHI_INDUSTRIA_DE_ALIMENTOS_LTDA", "RAZAOSOCIAL": "SLECHI_SORVETES", "ENDEE": "AVENIDA_DAS_PITANGUEIRAS380__CENTRO_14750-000", "LMAPS": "https://www.google.com/maps?q=&layer=c&cbll=-21.0078967,-48.2218248", "O_QUE_FAZER": "FINALIZADO", "ER_REGIAO_CIDADE_min": "Pitangueiras_Pitangueiras_Barretos" }, "geometry": { "type": "Point", "coordinates": [ -48.2218248, -21.0078967 ] } },
{ "type": "Feature", "properties": { "fid": 52507, "CNPJ": "08781325000160", "IDCIDADE": "PITANGUEIRAS", "NOMEFANTASIA": "DONDOCA", "RAZAOSOCIAL": "GALATTI_&_MALAGUTTI_VESTUARIOS_LTDA", "ENDEE": "RUA_PARANA472__CENTRO_14750-000", "LMAPS": "https://www.google.com/maps?q=&layer=c&cbll=-21.0114741,-48.2211856", "O_QUE_FAZER": "CARTEIRA", "ER_REGIAO_CIDADE_min": "Pitangueiras_Pitangueiras_Barretos" }, "geometry": { "type": "Point", "coordinates": [ -48.2211856, -21.0114741 ] } },
{ "type": "Feature", "properties": { "fid": 55089, "CNPJ": "09092988000130", "IDCIDADE": "PITANGUEIRAS", "NOMEFANTASIA": "3_A_X_FIBRA", "RAZAOSOCIAL": "MICHELETO_INTERNET_LTDA", "ENDEE": "RUA_RIO_GRANDE_DO_SUL600__CENTRO_14750-000", "LMAPS": "https://www.google.com/maps?q=&layer=c&cbll=-21.0120923,-48.2234797", "O_QUE_FAZER": "CARTEIRA", "ER_REGIAO_CIDADE_min": "Pitangueiras_Pitangueiras_Barretos" }, "geometry": { "type": "Point", "coordinates": [ -48.2234797, -21.0120923 ] } },
{ "type": "Feature", "properties": { "fid": 59198, "CNPJ": "09538423000134", "IDCIDADE": "PITANGUEIRAS", "NOMEFANTASIA": "ESCOLA_ATENA", "RAZAOSOCIAL": "MIRIAN_SOARES_BIGAI", "ENDEE": "RUA_RIO_GRANDE_DO_SUL581__CENTRO_14750-000", "LMAPS": "https://www.google.com/maps?q=&layer=c&cbll=-21.0120818,-48.2236283", "O_QUE_FAZER": "CARTEIRA", "ER_REGIAO_CIDADE_min": "Pitangueiras_Pitangueiras_Barretos" }, "geometry": { "type": "Point", "coordinates": [ -48.2236283, -21.0120818 ] } },
{ "type": "Feature", "properties": { "fid": 66796, "CNPJ": "10860011000103", "IDCIDADE": "PITANGUEIRAS", "NOMEFANTASIA": "LIDIANE_SAALGADOS", "RAZAOSOCIAL": "LIDIANE_BATISTA_DOS_ANJOS_CARACATO", "ENDEE": "RUA_LEOLINO_COTRIM302__CENTRO_14750-000", "LMAPS": "https://www.google.com/maps?q=&layer=c&cbll=-21.0116625,-48.2219685", "O_QUE_FAZER": "CARTEIRA", "ER_REGIAO_CIDADE_min": "Pitangueiras_Pitangueiras_Barretos" }, "geometry": { "type": "Point", "coordinates": [ -48.2219685, -21.0116625 ] } },
{ "type": "Feature", "properties": { "fid": 68549, "CNPJ": "11056748000122", "IDCIDADE": "PITANGUEIRAS", "NOMEFANTASIA": "COMPSTAITON_COMPUTADORES", "RAZAOSOCIAL": "ERIK_MARTINS_DA_SILVA", "ENDEE": "RUA_PARANA501__CENTRO_14750-000", "LMAPS": "https://www.google.com/maps?q=&layer=c&cbll=-21.0114238,-48.2214804", "O_QUE_FAZER": "CARTEIRA", "ER_REGIAO_CIDADE_min": "Pitangueiras_Pitangueiras_Barretos" }, "geometry": { "type": "Point", "coordinates": [ -48.2214804, -21.0114238 ] } },
{ "type": "Feature", "properties": { "fid": 73153, "CNPJ": "11683283000130", "IDCIDADE": "PITANGUEIRAS", "NOMEFANTASIA": "TOP_PERICIAS_E_VISTORIAS", "RAZAOSOCIAL": "TAMINATO_VISTORIA_DE_VEICULOS_LTDA", "ENDEE": "RUA ARNALDO CARONI, 289, VILA CARONI, 14750000, PITANGUEIRAS, SP, BRASIL", "LMAPS": "https://www.google.com/maps?q=&layer=c&cbll=-21.0035223,-48.2144107", "O_QUE_FAZER": "CARTEIRA - FAMPE", "ER_REGIAO_CIDADE_min": "Pitangueiras_Pitangueiras_Barretos" }, "geometry": { "type": "Point", "coordinates": [ -48.2144107, -21.0035223 ] } },
{ "type": "Feature", "properties": { "fid": 77217, "CNPJ": "12403450000104", "IDCIDADE": "PITANGUEIRAS", "NOMEFANTASIA": "CHIQUITA_BONITA", "RAZAOSOCIAL": "KAREN_DE_FELICIO_CONSOLI", "ENDEE": "RUA_AMAZONAS611__CENTRO_14750-000", "LMAPS": "https://www.google.com/maps?q=&layer=c&cbll=-21.008806,-48.2153532", "O_QUE_FAZER": "CARTEIRA", "ER_REGIAO_CIDADE_min": "Pitangueiras_Pitangueiras_Barretos" }, "geometry": { "type": "Point", "coordinates": [ -48.2153532, -21.008806 ] } },
{ "type": "Feature", "properties": { "fid": 77895, "CNPJ": "12516962000187", "IDCIDADE": "PITANGUEIRAS", "NOMEFANTASIA": "CAO_PEAO_PET_SHOP", "RAZAOSOCIAL": "CAO_PEAO_PET_SHOP_LTDA.", "ENDEE": "RUA_DOUTOR_EUCLIDES_ZANINI_CALDAS640__CENTRO_14750-000", "LMAPS": "https://www.google.com/maps?q=&layer=c&cbll=-21.0097201,-48.2140815", "O_QUE_FAZER": "CARTEIRA", "ER_REGIAO_CIDADE_min": "Pitangueiras_Pitangueiras_Barretos" }, "geometry": { "type": "Point", "coordinates": [ -48.2140815, -21.0097201 ] } },
{ "type": "Feature", "properties": { "fid": 78494, "CNPJ": "12616874000408", "IDCIDADE": "PITANGUEIRAS", "NOMEFANTASIA": "100%_JEANS", "RAZAOSOCIAL": "JOSE_EDUARDO_LUSTOZA_DE_SOUZA", "ENDEE": "RUA_DOUTOR_EUCLIDES_ZANINI_CALDAS520__CENTRO_14750-000", "LMAPS": "https://www.google.com/maps?q=&layer=c&cbll=-21.0096445,-48.2155596", "O_QUE_FAZER": "CARTEIRA", "ER_REGIAO_CIDADE_min": "Pitangueiras_Pitangueiras_Barretos" }, "geometry": { "type": "Point", "coordinates": [ -48.2155596, -21.0096445 ] } },
{ "type": "Feature", "properties": { "fid": 83343, "CNPJ": "13564930000110", "IDCIDADE": "PITANGUEIRAS", "NOMEFANTASIA": "PIT_STOP_MODAS", "RAZAOSOCIAL": "MAJU_ARTIGOS_DO_VESTUARIO_E_ACESSORIOS_LTDA", "ENDEE": "RUA_DOUTOR_EUCLIDES_ZANINI_CALDAS451__CENTRO_14750-000", "LMAPS": "https://www.google.com/maps?q=&layer=c&cbll=-21.0095998,-48.2161741", "O_QUE_FAZER": "CARTEIRA", "ER_REGIAO_CIDADE_min": "Pitangueiras_Pitangueiras_Barretos" }, "geometry": { "type": "Point", "coordinates": [ -48.2161741, -21.0095998 ] } },
{ "type": "Feature", "properties": { "fid": 93449, "CNPJ": "15641082000120", "IDCIDADE": "PITANGUEIRAS", "NOMEFANTASIA": "CLAUDIO_MACAO", "RAZAOSOCIAL": "M.C.TINTAS_E_PECAS_AUTOMOTIVAS_LTDA", "ENDEE": "RUA BRUNO ARMANDO TOSO, 164, DISTRITO INDUSTRIAL, 14750-000, PITANGUEIRAS, SP, BRASIL", "LMAPS": "https://www.google.com/maps?q=&layer=c&cbll=-21.0262871,-48.2199726", "O_QUE_FAZER": "CARTEIRA - FAMPE", "ER_REGIAO_CIDADE_min": "Pitangueiras_Pitangueiras_Barretos" }, "geometry": { "type": "Point", "coordinates": [ -48.2199726, -21.0262871 ] } },
{ "type": "Feature", "properties": { "fid": 96154, "CNPJ": "16847366000130", "IDCIDADE": "PITANGUEIRAS", "NOMEFANTASIA": "CHOKODELICIA", "RAZAOSOCIAL": "FARAH_DOCERIA_LTDA", "ENDEE": "RUA_MINAS_GERAIS307__CENTRO_14750-000", "LMAPS": "https://www.google.com/maps?q=&layer=c&cbll=-21.0125369,-48.2213668", "O_QUE_FAZER": "CARTEIRA", "ER_REGIAO_CIDADE_min": "Pitangueiras_Pitangueiras_Barretos" }, "geometry": { "type": "Point", "coordinates": [ -48.2213668, -21.0125369 ] } },
{ "type": "Feature", "properties": { "fid": 100963, "CNPJ": "17811891000169", "IDCIDADE": "PITANGUEIRAS", "NOMEFANTASIA": null, "RAZAOSOCIAL": "FACINA_SERVICOS_AGRICOLAS_LTDA", "ENDEE": "RUA HIDERALDO RAMIRO GUIMARAES, 117, JD SAO HEITOR, 14750-000, PITANGUEIRAS, SP, BRASIL", "LMAPS": "https://www.google.com/maps?q=&layer=c&cbll=-21.004082,-48.2225566", "O_QUE_FAZER": "CARTEIRA - FAMPE", "ER_REGIAO_CIDADE_min": "Pitangueiras_Pitangueiras_Barretos" }, "geometry": { "type": "Point", "coordinates": [ -48.2225566, -21.004082 ] } },
{ "type": "Feature", "properties": { "fid": 106431, "CNPJ": "18943851000133", "IDCIDADE": "PITANGUEIRAS", "NOMEFANTASIA": "EVERTON_FRANCISCO_CARDOSO", "RAZAOSOCIAL": "FORNOS_CHARRUA", "ENDEE": "AVENIDA_ACRE410__JARDIM_BRASILIA_14750-000", "LMAPS": "https://www.google.com/maps?q=&layer=c&cbll=-21.0114758,-48.2151972", "O_QUE_FAZER": "FINALIZADO", "ER_REGIAO_CIDADE_min": "Pitangueiras_Pitangueiras_Barretos" }, "geometry": { "type": "Point", "coordinates": [ -48.2151972, -21.0114758 ] } },
{ "type": "Feature", "properties": { "fid": 118321, "CNPJ": "21617911000132", "IDCIDADE": "PITANGUEIRAS", "NOMEFANTASIA": "-", "RAZAOSOCIAL": "21.617.911_DAIANA_DE_CASSIA_PEREIRA_GALO", "ENDEE": "RUA SAO PAULO, 1600, QUADRA 4 - CASA 3 - RUA 1, RESIDENCIAL QUINTA DOS VENTOS, 14753-220, PITANGUEIRAS, SP, BRASIL", "LMAPS": "https://www.google.com/maps?q=&layer=c&cbll=-21.0000819,-48.2306163", "O_QUE_FAZER": "CARTEIRA - FAMPE", "ER_REGIAO_CIDADE_min": "Pitangueiras_Pitangueiras_Barretos" }, "geometry": { "type": "Point", "coordinates": [ -48.2306163, -21.0000819 ] } },
{ "type": "Feature", "properties": { "fid": 121560, "CNPJ": "22317157000188", "IDCIDADE": "PITANGUEIRAS", "NOMEFANTASIA": "BAR_PIMENTEL", "RAZAOSOCIAL": "ANSELMO_DA_SILVA_PIMENTEL_LANCHONETE", "ENDEE": "RUA SANTOS DUMONT, 99, CENTRO, 14750-000, PITANGUEIRAS, SP, BRASIL", "LMAPS": "https://www.google.com/maps?q=&layer=c&cbll=-21.0128142,-48.229513", "O_QUE_FAZER": "CARTEIRA - FAMPE", "ER_REGIAO_CIDADE_min": "Pitangueiras_Pitangueiras_Barretos" }, "geometry": { "type": "Point", "coordinates": [ -48.229513, -21.0128142 ] } },
{ "type": "Feature", "properties": { "fid": 124531, "CNPJ": "22939007000106", "IDCIDADE": "PITANGUEIRAS", "NOMEFANTASIA": "CACAU_SHOW", "RAZAOSOCIAL": "REIS_E_FELICIO_LTDA", "ENDEE": "RUA_LEOLINO_COTRIM330__CENTRO_14750-000", "LMAPS": "https://www.google.com/maps?q=&layer=c&cbll=-21.0114379,-48.2217229", "O_QUE_FAZER": "CARTEIRA", "ER_REGIAO_CIDADE_min": "Pitangueiras_Pitangueiras_Barretos" }, "geometry": { "type": "Point", "coordinates": [ -48.2217229, -21.0114379 ] } },
{ "type": "Feature", "properties": { "fid": 128268, "CNPJ": "23739751000120", "IDCIDADE": "PITANGUEIRAS", "NOMEFANTASIA": "SILVAN_TURISMO", "RAZAOSOCIAL": "JAQUELINE_MARTINS_DE_SOUSA_LTDA", "ENDEE": "RUA ANTONIO MAZZER, 363, JARDIM VENEZA, 14750-000, PITANGUEIRAS, SP, BRASIL", "LMAPS": "https://www.google.com/maps?q=&layer=c&cbll=-21.0190095,-48.2332601", "O_QUE_FAZER": "CARTEIRA - FAMPE", "ER_REGIAO_CIDADE_min": "Pitangueiras_Pitangueiras_Barretos" }, "geometry": { "type": "Point", "coordinates": [ -48.2332601, -21.0190095 ] } },
{ "type": "Feature", "properties": { "fid": 144136, "CNPJ": "27399924000169", "IDCIDADE": "PITANGUEIRAS", "NOMEFANTASIA": "ROSIMEIRE_GOMES_DOS_SANTOS_FERNANDES_35848997888", "RAZAOSOCIAL": "BELLA_ROSE", "ENDEE": "RUA_FRANCISCO_TEIXEIRA125__SAO_SEBASTIAO_14750-000", "LMAPS": "https://www.google.com/maps?q=&layer=c&cbll=-21.0140772,-48.2239833", "O_QUE_FAZER": "FINALIZADO", "ER_REGIAO_CIDADE_min": "Pitangueiras_Pitangueiras_Barretos" }, "geometry": { "type": "Point", "coordinates": [ -48.2239833, -21.0140772 ] } },
{ "type": "Feature", "properties": { "fid": 144533, "CNPJ": "27473219000164", "IDCIDADE": "PITANGUEIRAS", "NOMEFANTASIA": "VISTORI", "RAZAOSOCIAL": "PITANGUEIRAS_VISTORIAS_VEICULARES_LTDA", "ENDEE": "AVENIDA_DAS_PITANGUEIRAS1361__CENTRO_14750-000", "LMAPS": "https://www.google.com/maps?q=&layer=c&cbll=-21.0071474,-48.2160311", "O_QUE_FAZER": "CARTEIRA", "ER_REGIAO_CIDADE_min": "Pitangueiras_Pitangueiras_Barretos" }, "geometry": { "type": "Point", "coordinates": [ -48.2160311, -21.0071474 ] } },
{ "type": "Feature", "properties": { "fid": 145244, "CNPJ": "27599826000175", "IDCIDADE": "PITANGUEIRAS", "NOMEFANTASIA": "SANTA_ROSA_AGRO_E_PET", "RAZAOSOCIAL": "VINICIUS_ATHAYDES_CANELLO_VETERINARIA", "ENDEE": "RUA_LEOLINO_COTRIM119__CENTRO_14750-000", "LMAPS": "https://www.google.com/maps?q=&layer=c&cbll=-21.01265,-48.2233133", "O_QUE_FAZER": "CARTEIRA", "ER_REGIAO_CIDADE_min": "Pitangueiras_Pitangueiras_Barretos" }, "geometry": { "type": "Point", "coordinates": [ -48.2233133, -21.01265 ] } },
{ "type": "Feature", "properties": { "fid": 145958, "CNPJ": "27754170000118", "IDCIDADE": "PITANGUEIRAS", "NOMEFANTASIA": "JW_ENGENHARIA", "RAZAOSOCIAL": "VANESSA_GRAZIELA_TEREZINHA_DE_SOUZA", "ENDEE": "RUA RIO DE JANEIRO, 85, CENTRO, 14750-000, PITANGUEIRAS, SP, BRASIL", "LMAPS": "https://www.google.com/maps?q=&layer=c&cbll=-21.0109342,-48.219698", "O_QUE_FAZER": "CARTEIRA - FAMPE", "ER_REGIAO_CIDADE_min": "Pitangueiras_Pitangueiras_Barretos" }, "geometry": { "type": "Point", "coordinates": [ -48.219698, -21.0109342 ] } },
{ "type": "Feature", "properties": { "fid": 155251, "CNPJ": "29504333000130", "IDCIDADE": "PITANGUEIRAS", "NOMEFANTASIA": "-", "RAZAOSOCIAL": "29.504.333_PATRICIA_RODRIGUES_MACHADO_BEZERRA", "ENDEE": "RUA FRANCISCO FERDINANDO, 509, JARDIM CANADA, 14750-000, PITANGUEIRAS, SP, BRASIL", "LMAPS": "https://www.google.com/maps?q=&layer=c&cbll=-21.0114811,-48.2338367", "O_QUE_FAZER": "CARTEIRA - FAMPE", "ER_REGIAO_CIDADE_min": "Pitangueiras_Pitangueiras_Barretos" }, "geometry": { "type": "Point", "coordinates": [ -48.2338367, -21.0114811 ] } },
{ "type": "Feature", "properties": { "fid": 161550, "CNPJ": "30711011000140", "IDCIDADE": "PITANGUEIRAS", "NOMEFANTASIA": "LUIZA_CALCADOS", "RAZAOSOCIAL": "MELINA_SANCHES_DA_FONSECA", "ENDEE": "RUA_SAO_PAULO149__CENTRO_14750-000", "LMAPS": "https://www.google.com/maps?q=&layer=c&cbll=-21.0104721,-48.2208974", "O_QUE_FAZER": "CARTEIRA", "ER_REGIAO_CIDADE_min": "Pitangueiras_Pitangueiras_Barretos" }, "geometry": { "type": "Point", "coordinates": [ -48.2208974, -21.0104721 ] } },
{ "type": "Feature", "properties": { "fid": 169986, "CNPJ": "32439517000178", "IDCIDADE": "PITANGUEIRAS", "NOMEFANTASIA": null, "RAZAOSOCIAL": "LUCAS_MONTECHI_CONTI", "ENDEE": "RUA PARANA, 680, CENTRO, 14750-000, PITANGUEIRAS, SP, BRASIL", "LMAPS": "https://www.google.com/maps?q=&layer=c&cbll=-21.009879,-48.2225989", "O_QUE_FAZER": "CARTEIRA - FAMPE", "ER_REGIAO_CIDADE_min": "Pitangueiras_Pitangueiras_Barretos" }, "geometry": { "type": "Point", "coordinates": [ -48.2225989, -21.009879 ] } },
{ "type": "Feature", "properties": { "fid": 184426, "CNPJ": "35288501000108", "IDCIDADE": "PITANGUEIRAS", "NOMEFANTASIA": null, "RAZAOSOCIAL": "LUIZ_ANTONIO_SANCHEZ_RUARO_42312734800", "ENDEE": "AVENIDA ACRE, 511, CENTRO, 14750-000, PITANGUEIRAS, SP, BRASIL", "LMAPS": "https://www.google.com/maps?q=&layer=c&cbll=-21.0110847,-48.214307", "O_QUE_FAZER": "CARTEIRA - FAMPE", "ER_REGIAO_CIDADE_min": "Pitangueiras_Pitangueiras_Barretos" }, "geometry": { "type": "Point", "coordinates": [ -48.214307, -21.0110847 ] } },
{ "type": "Feature", "properties": { "fid": 187467, "CNPJ": "35959392000103", "IDCIDADE": "PITANGUEIRAS", "NOMEFANTASIA": null, "RAZAOSOCIAL": "VALDIR_GONCALVES_PIRES_36173418886", "ENDEE": "RUA ZULMIRO NOGUEIRA, 162, JD BELA VISTA, 14750-000, PITANGUEIRAS, SP, BRASIL", "LMAPS": "https://www.google.com/maps?q=&layer=c&cbll=-21.0220513,-48.2276063", "O_QUE_FAZER": "CARTEIRA - FAMPE", "ER_REGIAO_CIDADE_min": "Pitangueiras_Pitangueiras_Barretos" }, "geometry": { "type": "Point", "coordinates": [ -48.2276063, -21.0220513 ] } },
{ "type": "Feature", "properties": { "fid": 204982, "CNPJ": "40251565000166", "IDCIDADE": "PITANGUEIRAS", "NOMEFANTASIA": "MARCOS_ALVES_DA_SILVA_JUNIOR", "RAZAOSOCIAL": "MARCOS_ALVES_DA_SILVA_JUNIOR_40131063880", "ENDEE": "RUA RIO GRANDE DO SUL, 600, CENTRO, 14750-049, PITANGUEIRAS, SP, BRASIL", "LMAPS": "https://www.google.com/maps?q=&layer=c&cbll=-21.0119662,-48.2233866", "O_QUE_FAZER": "FINALIZADO", "ER_REGIAO_CIDADE_min": "Pitangueiras_Pitangueiras_Barretos" }, "geometry": { "type": "Point", "coordinates": [ -48.2233866, -21.0119662 ] } },
{ "type": "Feature", "properties": { "fid": 218532, "CNPJ": "43458507000104", "IDCIDADE": "PITANGUEIRAS", "NOMEFANTASIA": null, "RAZAOSOCIAL": "CANTINHO_DO_PETISCO_ESPETOS_E_PORCOES_PITANGUEIRAS_LTDA", "ENDEE": "AVENIDA DAS PITANGUEIRAS, 410, CENTRO, 14750-000, PITANGUEIRAS, SP, BRASIL", "LMAPS": "https://www.google.com/maps?q=&layer=c&cbll=-21.0078912,-48.221648", "O_QUE_FAZER": "CARTEIRA - FAMPE", "ER_REGIAO_CIDADE_min": "Pitangueiras_Pitangueiras_Barretos" }, "geometry": { "type": "Point", "coordinates": [ -48.221648, -21.0078912 ] } },
{ "type": "Feature", "properties": { "fid": 218580, "CNPJ": "43466628000190", "IDCIDADE": "PITANGUEIRAS", "NOMEFANTASIA": "A.S.S.E.M.I.L.", "RAZAOSOCIAL": "ANTENOR_APARECIDO_LIOTTI_SERVICOS_DE_USINAGEM_LTDA", "ENDEE": "RUA SIDNEY BUZZATI, 131, MORADA DO SOL, 14750-000, PITANGUEIRAS, SP, BRASIL", "LMAPS": "https://www.google.com/maps?q=&layer=c&cbll=-21.0189412,-48.2211111", "O_QUE_FAZER": "CARTEIRA - FAMPE", "ER_REGIAO_CIDADE_min": "Pitangueiras_Pitangueiras_Barretos" }, "geometry": { "type": "Point", "coordinates": [ -48.2211111, -21.0189412 ] } },
{ "type": "Feature", "properties": { "fid": 222367, "CNPJ": "44230296000102", "IDCIDADE": "PITANGUEIRAS", "NOMEFANTASIA": "MAIS_MAQUIAGEM", "RAZAOSOCIAL": "MAIS_MAQUIAGEM_COMERCIO_DE_COSMETICOS_LTDA", "ENDEE": "RUA_LEOLINO_COTRIM264__CENTRO_14750-000", "LMAPS": "https://www.google.com/maps?q=&layer=c&cbll=-21.0119363,-48.222159", "O_QUE_FAZER": "CARTEIRA", "ER_REGIAO_CIDADE_min": "Pitangueiras_Pitangueiras_Barretos" }, "geometry": { "type": "Point", "coordinates": [ -48.222159, -21.0119363 ] } },
{ "type": "Feature", "properties": { "fid": 228322, "CNPJ": "45531707000162", "IDCIDADE": "PITANGUEIRAS", "NOMEFANTASIA": "CASA_DE_RACAO_S._BENEDITO_II", "RAZAOSOCIAL": "EMERSON_DOMINGUES_DE_ANDRADE", "ENDEE": "RUA ARTHUR LUCATO, 14, JD SAO BENEDITO, 14750-000, PITANGUEIRAS, SP, BRASIL", "LMAPS": "https://www.google.com/maps?q=&layer=c&cbll=-21.0090779,-48.2062973", "O_QUE_FAZER": "CARTEIRA - FAMPE", "ER_REGIAO_CIDADE_min": "Pitangueiras_Pitangueiras_Barretos" }, "geometry": { "type": "Point", "coordinates": [ -48.2062973, -21.0090779 ] } },
{ "type": "Feature", "properties": { "fid": 243011, "CNPJ": "48519669000110", "IDCIDADE": "PITANGUEIRAS", "NOMEFANTASIA": "OTICA_VISUAL", "RAZAOSOCIAL": "JENIFER_CAMARGO_DE_SOUSA_LTDA", "ENDEE": "RUA_LEOLINO_COTRIM311__CENTRO_14750-000", "LMAPS": "https://www.google.com/maps?q=&layer=c&cbll=-21.0115116,-48.2218809", "O_QUE_FAZER": "CARTEIRA", "ER_REGIAO_CIDADE_min": "Pitangueiras_Pitangueiras_Barretos" }, "geometry": { "type": "Point", "coordinates": [ -48.2218809, -21.0115116 ] } },
{ "type": "Feature", "properties": { "fid": 245494, "CNPJ": "49056753000108", "IDCIDADE": "PITANGUEIRAS", "NOMEFANTASIA": "49.056.753_ERICA_GERACINA_DE_PAULA_FIGUEIREDO", "RAZAOSOCIAL": "ERICA_GERACINA_DE_PAULA_FIGUEIREDO", "ENDEE": "RUA_ZULMIRA_NADALIN11__JARDIM_ALVORADA_14750-000", "LMAPS": "https://www.google.com/maps?q=&layer=c&cbll=-21.011579,-48.227598", "O_QUE_FAZER": "FINALIZADO", "ER_REGIAO_CIDADE_min": "Pitangueiras_Pitangueiras_Barretos" }, "geometry": { "type": "Point", "coordinates": [ -48.227598, -21.011579 ] } },
{ "type": "Feature", "properties": { "fid": 249325, "CNPJ": "49875425000133", "IDCIDADE": "PITANGUEIRAS", "NOMEFANTASIA": null, "RAZAOSOCIAL": "ISA_ALMEIDA_VESTUARIO_LTDA", "ENDEE": "RUA ESPIRITO SANTO, 137, TERREON 111, CENTRO, 14750-000, PITANGUEIRAS, SP, BRASIL", "LMAPS": "https://www.google.com/maps?q=&layer=c&cbll=-21.0096381,-48.217952", "O_QUE_FAZER": "CARTEIRA - FAMPE", "ER_REGIAO_CIDADE_min": "Pitangueiras_Pitangueiras_Barretos" }, "geometry": { "type": "Point", "coordinates": [ -48.217952, -21.0096381 ] } },
{ "type": "Feature", "properties": { "fid": 263278, "CNPJ": "52657223000120", "IDCIDADE": "PITANGUEIRAS", "NOMEFANTASIA": "Carol_MIX", "RAZAOSOCIAL": "CAROL_MIX_LTDA", "ENDEE": "RUA LEOLINO COTRIM, 327, CENTRO, 14750-069, PITANGUEIRAS, SP, BRASIL", "LMAPS": "https://www.google.com/maps?q=&layer=c&cbll=-21.0113831,-48.2219361", "O_QUE_FAZER": "CARTEIRA - FAMPE", "ER_REGIAO_CIDADE_min": "Pitangueiras_Pitangueiras_Barretos" }, "geometry": { "type": "Point", "coordinates": [ -48.2219361, -21.0113831 ] } },
{ "type": "Feature", "properties": { "fid": 271428, "CNPJ": "54490724000190", "IDCIDADE": "PITANGUEIRAS", "NOMEFANTASIA": "54.490.724_THIERRY_HENRIQUE_DE_OLIVEIRA", "RAZAOSOCIAL": "THIERRY_HENRIQUE_DE_OLIVEIRA", "ENDEE": "10_MARANHAO496__VILA_CARONE_14750-000", "LMAPS": "https://www.google.com/maps?q=&layer=c&cbll=-21.0053043,-48.218204", "O_QUE_FAZER": "FINALIZADO", "ER_REGIAO_CIDADE_min": "Pitangueiras_Pitangueiras_Barretos" }, "geometry": { "type": "Point", "coordinates": [ -48.218204, -21.0053043 ] } },
{ "type": "Feature", "properties": { "fid": 277058, "CNPJ": "55779318000104", "IDCIDADE": "PITANGUEIRAS", "NOMEFANTASIA": "PICKTITA", "RAZAOSOCIAL": "EDNA_DRUDE_ALMEIDA", "ENDEE": "PRACA_SAO_SEBASTIAO22__CENTRO_14750-000", "LMAPS": "https://www.google.com/maps?q=&layer=c&cbll=-21.0112031,-48.2212111", "O_QUE_FAZER": "CARTEIRA", "ER_REGIAO_CIDADE_min": "Pitangueiras_Pitangueiras_Barretos" }, "geometry": { "type": "Point", "coordinates": [ -48.2212111, -21.0112031 ] } },
{ "type": "Feature", "properties": { "fid": 278042, "CNPJ": "56031693000134", "IDCIDADE": "PITANGUEIRAS", "NOMEFANTASIA": "TRIBO_DOS_ANJOS", "RAZAOSOCIAL": "MARIA_ERMOCINDA_LEONE", "ENDEE": "RUA_LEOLINO_COTRIM322__CENTRO_14750-000", "LMAPS": "https://www.google.com/maps?q=&layer=c&cbll=-21.011423,-48.2217568", "O_QUE_FAZER": "CARTEIRA", "ER_REGIAO_CIDADE_min": "Pitangueiras_Pitangueiras_Barretos" }, "geometry": { "type": "Point", "coordinates": [ -48.2217568, -21.011423 ] } },
{ "type": "Feature", "properties": { "fid": 278951, "CNPJ": "56305868000154", "IDCIDADE": "PITANGUEIRAS", "NOMEFANTASIA": "-", "RAZAOSOCIAL": "56.305.868_PEDRO_ANDRE_PRATA", "ENDEE": "AVENIDA DAS PITANGUEIRAS, 300, BRCAO, CENTRO, 14750-000, PITANGUEIRAS, SP, BRASIL", "LMAPS": "https://www.google.com/maps?q=&layer=c&cbll=-21.0100249,-48.2250427", "O_QUE_FAZER": "CARTEIRA - FAMPE", "ER_REGIAO_CIDADE_min": "Pitangueiras_Pitangueiras_Barretos" }, "geometry": { "type": "Point", "coordinates": [ -48.2250427, -21.0100249 ] } },
{ "type": "Feature", "properties": { "fid": 279326, "CNPJ": "56459167000170", "IDCIDADE": "PITANGUEIRAS", "NOMEFANTASIA": "JC_MODAS", "RAZAOSOCIAL": "JOSE_CARLOS_CAMPANINI_&_CIA_LTDA", "ENDEE": "RUA_DOUTOR_EUCLIDES_ZANINI_CALDAS415__CENTRO_14750-000", "LMAPS": "https://www.google.com/maps?q=&layer=c&cbll=-21.0094792,-48.216475", "O_QUE_FAZER": "CARTEIRA", "ER_REGIAO_CIDADE_min": "Pitangueiras_Pitangueiras_Barretos" }, "geometry": { "type": "Point", "coordinates": [ -48.216475, -21.0094792 ] } },
{ "type": "Feature", "properties": { "fid": 288456, "CNPJ": "59431260000164", "IDCIDADE": "PITANGUEIRAS", "NOMEFANTASIA": null, "RAZAOSOCIAL": "F_M_TAURUS_SHOP_LTDA", "ENDEE": "RUA CEARA, 202, CENTRO, 14750-151, PITANGUEIRAS, SP, BRASIL", "LMAPS": "https://www.google.com/maps?q=&layer=c&cbll=-21.010169,-48.2106489", "O_QUE_FAZER": "CARTEIRA - FAMPE", "ER_REGIAO_CIDADE_min": "Pitangueiras_Pitangueiras_Barretos" }, "geometry": { "type": "Point", "coordinates": [ -48.2106489, -21.010169 ] } },
{ "type": "Feature", "properties": { "fid": 290773, "CNPJ": "60182830000109", "IDCIDADE": "PITANGUEIRAS", "NOMEFANTASIA": null, "RAZAOSOCIAL": "60.182.830_LETICIA_BARROSO", "ENDEE": "RUA PATRICIA FERREIRA, 207, JARDIM SAO LOURENCO, 14757-106, PITANGUEIRAS, SP, BRASIL", "LMAPS": "https://www.google.com/maps?q=&layer=c&cbll=-21.022307,-48.223638", "O_QUE_FAZER": "CARTEIRA - FAMPE", "ER_REGIAO_CIDADE_min": "Pitangueiras_Pitangueiras_Barretos" }, "geometry": { "type": "Point", "coordinates": [ -48.223638, -21.022307 ] } },
{ "type": "Feature", "properties": { "fid": 291646, "CNPJ": "60489252000158", "IDCIDADE": "PITANGUEIRAS", "NOMEFANTASIA": null, "RAZAOSOCIAL": "60.489.252_PABLO_HENRIQUE_SANTIAGO_SILVA", "ENDEE": "RUA CARLOS CONSOLI, 45, JARDIM MACEDO, 14757-070, PITANGUEIRAS, SP, BRASIL", "LMAPS": "https://www.google.com/maps?q=&layer=c&cbll=-21.020054,-48.2201668", "O_QUE_FAZER": "CARTEIRA - FAMPE", "ER_REGIAO_CIDADE_min": "Pitangueiras_Pitangueiras_Barretos" }, "geometry": { "type": "Point", "coordinates": [ -48.2201668, -21.020054 ] } },
{ "type": "Feature", "properties": { "fid": 300027, "CNPJ": "64235342000173", "IDCIDADE": "PITANGUEIRAS", "NOMEFANTASIA": null, "RAZAOSOCIAL": "64.235.342_TAIS_OLIVEIRA_SALUSTIANO", "ENDEE": "RUA ANTONIO MAZER, 93, JARDIM VENEZA, 14755-544, PITANGUEIRAS, SP, BRASIL", "LMAPS": "https://www.google.com/maps?q=&layer=c&cbll=-21.017174,-48.232245", "O_QUE_FAZER": "CARTEIRA - FAMPE", "ER_REGIAO_CIDADE_min": "Pitangueiras_Pitangueiras_Barretos" }, "geometry": { "type": "Point", "coordinates": [ -48.232245, -21.017174 ] } },
{ "type": "Feature", "properties": { "fid": 302112, "CNPJ": "65459982000120", "IDCIDADE": "PITANGUEIRAS", "NOMEFANTASIA": null, "RAZAOSOCIAL": "65.459.982_GABRIEL_SILVERIO_SCARPIM", "ENDEE": "RUA GERALDO SALANDINI, 154, JARDIM GUMERCINDO HENTZ SOARES II, 14753-110, PITANGUEIRAS, SP, BRASIL", "LMAPS": "https://www.google.com/maps?q=&layer=c&cbll=-21.0005402,-48.2205152", "O_QUE_FAZER": "CARTEIRA - FAMPE", "ER_REGIAO_CIDADE_min": "Pitangueiras_Pitangueiras_Barretos" }, "geometry": { "type": "Point", "coordinates": [ -48.2205152, -21.0005402 ] } },
{ "type": "Feature", "properties": { "fid": 302856, "CNPJ": "65786928000199", "IDCIDADE": "PITANGUEIRAS", "NOMEFANTASIA": null, "RAZAOSOCIAL": "D_&_E_MENIN_LTDA", "ENDEE": "RUA GERSON PEREIRA DA SILVA, 116, CENTRO, 14750-045, PITANGUEIRAS, SP, BRASIL", "LMAPS": "https://www.google.com/maps?q=&layer=c&cbll=-21.0121648,-48.2257527", "O_QUE_FAZER": "CARTEIRA - FAMPE", "ER_REGIAO_CIDADE_min": "Pitangueiras_Pitangueiras_Barretos" }, "geometry": { "type": "Point", "coordinates": [ -48.2257527, -21.0121648 ] } },
{ "type": "Feature", "properties": { "fid": 306933, "CNPJ": "67792119000115", "IDCIDADE": "PITANGUEIRAS", "NOMEFANTASIA": "CANELLO_MAGAZINE", "RAZAOSOCIAL": "DENIZE_ALVES_CANELO", "ENDEE": "RUA_DOUTOR_EUCLIDES_ZANINI_CALDAS129__CENTRO_14750-000", "LMAPS": "https://www.google.com/maps?q=&layer=c&cbll=-21.0100671,-48.2192414", "O_QUE_FAZER": "CARTEIRA", "ER_REGIAO_CIDADE_min": "Pitangueiras_Pitangueiras_Barretos" }, "geometry": { "type": "Point", "coordinates": [ -48.2192414, -21.0100671 ] } },
{ "type": "Feature", "properties": { "fid": 307185, "CNPJ": "67894725000141", "IDCIDADE": "PITANGUEIRAS", "NOMEFANTASIA": "PAPELARIA_A_CRIATIVA", "RAZAOSOCIAL": "JULIO_CEZAR_DA_SILVA_CANELO", "ENDEE": "RUA_LEOLINO_COTRIM269__CENTRO_14750-000", "LMAPS": "https://www.google.com/maps?q=&layer=c&cbll=-21.0117635,-48.2222415", "O_QUE_FAZER": "CARTEIRA", "ER_REGIAO_CIDADE_min": "Pitangueiras_Pitangueiras_Barretos" }, "geometry": { "type": "Point", "coordinates": [ -48.2222415, -21.0117635 ] } },
{ "type": "Feature", "properties": { "fid": 311271, "CNPJ": "74435645000193", "IDCIDADE": "PITANGUEIRAS", "NOMEFANTASIA": "TELEVASCO", "RAZAOSOCIAL": "TELEVASCO-COMERCIO_DE_ELETRODOMESTICOS_LTDA", "ENDEE": "RUA_DOUTOR_EUCLIDES_ZANINI_CALDAS562__CENTRO_14750-000", "LMAPS": "https://www.google.com/maps?q=&layer=c&cbll=-21.0096972,-48.2151064", "O_QUE_FAZER": "CARTEIRA", "ER_REGIAO_CIDADE_min": "Pitangueiras_Pitangueiras_Barretos" }, "geometry": { "type": "Point", "coordinates": [ -48.2151064, -21.0096972 ] } }
]
}
