{
"type": "FeatureCollection",
"name": "ER_REGIAO_CIDADE_min_Reginópolis_Araraquara",
"crs": { "type": "name", "properties": { "name": "urn:ogc:def:crs:OGC:1.3:CRS84" } },
"xy_coordinate_resolution": 1e-15,
"features": [
{ "type": "Feature", "properties": { "CNPJ": "05816886000160", "IDCIDADE": "REGINOPOLIS", "NOMEFANTASIA": "MARIA_JOSE_NERY_RAMOS", "RAZAOSOCIAL": "CASA_QUADROS", "ENDEE": "RUA_BOA_VISTA674__CENTRO_17190-005", "LATITUDE": "-21.8889199", "LONGITUDE": "-49.2258984", "LMAPS": "https://www.google.com/maps?q=&layer=c&cbll=-49.2258984,-21.8889199", "O_QUE_FAZER": "FINALIZADO", "field_10": null, "field_11": null, "field_12": null, "field_13": null, "ER_REGIAO_CIDADE_min": "Reginópolis_Araraquara" }, "geometry": { "type": "Point", "coordinates": [ -49.2258984, -21.8889199 ] } },
{ "type": "Feature", "properties": { "CNPJ": "38133175000140", "IDCIDADE": "REGINOPOLIS", "NOMEFANTASIA": "38.133.175_CLAUDIA_MAYARA_CUSTODIO_PICINATO", "RAZAOSOCIAL": "CEE_PRESENTES", "ENDEE": "RUA_JOAO_TOMAZ78__NUCLEO_RESIDENCIAL_JOSE_DE_JULIO_17192-030", "LATITUDE": "-21.8789491", "LONGITUDE": "-49.2256311", "LMAPS": "https://www.google.com/maps?q=&layer=c&cbll=-49.2256311,-21.8789491", "O_QUE_FAZER": "FINALIZADO", "field_10": null, "field_11": null, "field_12": null, "field_13": null, "ER_REGIAO_CIDADE_min": "Reginópolis_Araraquara" }, "geometry": { "type": "Point", "coordinates": [ -49.2256311, -21.8789491 ] } },
{ "type": "Feature", "properties": { "CNPJ": "55573299000165", "IDCIDADE": "REGINOPOLIS", "NOMEFANTASIA": "AUTO_PECAS", "RAZAOSOCIAL": "AUTO_PECAS_REGINOPOLIS_LTDA", "ENDEE": "RUA_BOA_VISTA14__CENTRO_17190-005", "LATITUDE": "-21.8887125", "LONGITUDE": "-49.2302054", "LMAPS": "https://www.google.com/maps?q=&layer=c&cbll=-49.2302054,-21.8887125", "O_QUE_FAZER": "CARTEIRA", "field_10": null, "field_11": null, "field_12": null, "field_13": null, "ER_REGIAO_CIDADE_min": "Reginópolis_Araraquara" }, "geometry": { "type": "Point", "coordinates": [ -49.2302054, -21.8887125 ] } },
{ "type": "Feature", "properties": { "CNPJ": "14281523000168", "IDCIDADE": "REGINOPOLIS", "NOMEFANTASIA": "ELETRO_225", "RAZAOSOCIAL": "M_DE_LURDES_V_SAEGER-MATERIAL_ELETRICO", "ENDEE": "RUA_BOA_VISTA225__CENTRO_17190-005", "LATITUDE": "-21.8884756", "LONGITUDE": "-49.2282437", "LMAPS": "https://www.google.com/maps?q=&layer=c&cbll=-49.2282437,-21.8884756", "O_QUE_FAZER": "CARTEIRA", "field_10": null, "field_11": null, "field_12": null, "field_13": null, "ER_REGIAO_CIDADE_min": "Reginópolis_Araraquara" }, "geometry": { "type": "Point", "coordinates": [ -49.2282437, -21.8884756 ] } },
{ "type": "Feature", "properties": { "CNPJ": "54402045000111", "IDCIDADE": "REGINOPOLIS", "NOMEFANTASIA": "RAINHA_AUTO_PECAS", "RAZAOSOCIAL": "KLEBER_SANTOS_JUNQUEIRA", "ENDEE": "RUA_VIRGILINA_RAMOS251__CENTRO_17190-005", "LATITUDE": "-21.8892126", "LONGITUDE": "-49.2282336", "LMAPS": "https://www.google.com/maps?q=&layer=c&cbll=-49.2282336,-21.8892126", "O_QUE_FAZER": "CARTEIRA", "field_10": null, "field_11": null, "field_12": null, "field_13": null, "ER_REGIAO_CIDADE_min": "Reginópolis_Araraquara" }, "geometry": { "type": "Point", "coordinates": [ -49.2282336, -21.8892126 ] } },
{ "type": "Feature", "properties": { "CNPJ": "67437327000104", "IDCIDADE": "REGINOPOLIS", "NOMEFANTASIA": "AGROPECUARIA_PARAISO", "RAZAOSOCIAL": "ONIVALDO_MAFFEI_&_CIA._LTDA.", "ENDEE": "RUA_BOA_VISTA259__CENTRO_17199-899", "LATITUDE": "-21.8886214", "LONGITUDE": "-49.2279416", "LMAPS": "https://www.google.com/maps?q=&layer=c&cbll=-49.2279416,-21.8886214", "O_QUE_FAZER": "CARTEIRA", "field_10": null, "field_11": null, "field_12": null, "field_13": null, "ER_REGIAO_CIDADE_min": "Reginópolis_Araraquara" }, "geometry": { "type": "Point", "coordinates": [ -49.2279416, -21.8886214 ] } },
{ "type": "Feature", "properties": { "CNPJ": "49852640000119", "IDCIDADE": "REGINOPOLIS", "NOMEFANTASIA": "PLANTA_LABORATORIO", "RAZAOSOCIAL": "DAILA_MARIA_MAESTER_RAMOS_LTDA", "ENDEE": "RUA_BOA_VISTA281__CENTRO_17190-005", "LATITUDE": "-21.8886802", "LONGITUDE": "-49.2273345", "LMAPS": "https://www.google.com/maps?q=&layer=c&cbll=-49.2273345,-21.8886802", "O_QUE_FAZER": "CARTEIRA", "field_10": null, "field_11": null, "field_12": null, "field_13": null, "ER_REGIAO_CIDADE_min": "Reginópolis_Araraquara" }, "geometry": { "type": "Point", "coordinates": [ -49.2273345, -21.8886802 ] } },
{ "type": "Feature", "properties": { "CNPJ": "04929962000180", "IDCIDADE": "REGINOPOLIS", "NOMEFANTASIA": "LOJA_DO_COELHO", "RAZAOSOCIAL": "LEANDRO_TEIXEIRA_VAREJAO_&_CIA_LTDA", "ENDEE": "RUA_BOA_VISTA348__CENTRO_17199-899", "LATITUDE": "-21.8888517", "LONGITUDE": "-49.2267118", "LMAPS": "https://www.google.com/maps?q=&layer=c&cbll=-49.2267118,-21.8888517", "O_QUE_FAZER": "CARTEIRA", "field_10": null, "field_11": null, "field_12": null, "field_13": null, "ER_REGIAO_CIDADE_min": "Reginópolis_Araraquara" }, "geometry": { "type": "Point", "coordinates": [ -49.2267118, -21.8888517 ] } },
{ "type": "Feature", "properties": { "CNPJ": "00632200000167", "IDCIDADE": "REGINOPOLIS", "NOMEFANTASIA": "ZAVAN_PNEUS", "RAZAOSOCIAL": "SERGIO_ZAVAN", "ENDEE": "RUA_PADRE_MOISES_DE_MIRANDA280__CENTRO_17190-039", "LATITUDE": "-21.8899398", "LONGITUDE": "-49.2264812", "LMAPS": "https://www.google.com/maps?q=&layer=c&cbll=-49.2264812,-21.8899398", "O_QUE_FAZER": "CARTEIRA", "field_10": null, "field_11": null, "field_12": null, "field_13": null, "ER_REGIAO_CIDADE_min": "Reginópolis_Araraquara" }, "geometry": { "type": "Point", "coordinates": [ -49.2264812, -21.8899398 ] } },
{ "type": "Feature", "properties": { "CNPJ": "09453427000110", "IDCIDADE": "REGINOPOLIS", "NOMEFANTASIA": "CAS_CARNES_NENO", "RAZAOSOCIAL": "THAIS_H_P_LORIANO_&_CIA_LTDA", "ENDEE": "RUA_BOA_VISTA347__CENTRO_17190-025", "LATITUDE": "-21.8887399", "LONGITUDE": "-49.226466", "LMAPS": "https://www.google.com/maps?q=&layer=c&cbll=-49.226466,-21.8887399", "O_QUE_FAZER": "CARTEIRA", "field_10": null, "field_11": null, "field_12": null, "field_13": null, "ER_REGIAO_CIDADE_min": "Reginópolis_Araraquara" }, "geometry": { "type": "Point", "coordinates": [ -49.226466, -21.8887399 ] } },
{ "type": "Feature", "properties": { "CNPJ": "00678282000180", "IDCIDADE": "REGINOPOLIS", "NOMEFANTASIA": "LOJA_DEBOIS", "RAZAOSOCIAL": "VILMA_DUBOIS_CASAGRANDE_DIANA", "ENDEE": "RUA_AGDA_MARTINS_PIQUEIRA428__CENTRO_17190-039", "LATITUDE": "-21.889027", "LONGITUDE": "-49.2263371", "LMAPS": "https://www.google.com/maps?q=&layer=c&cbll=-49.2263371,-21.889027", "O_QUE_FAZER": "CARTEIRA", "field_10": null, "field_11": null, "field_12": null, "field_13": null, "ER_REGIAO_CIDADE_min": "Reginópolis_Araraquara" }, "geometry": { "type": "Point", "coordinates": [ -49.2263371, -21.889027 ] } },
{ "type": "Feature", "properties": { "CNPJ": "23065739000187", "IDCIDADE": "REGINOPOLIS", "NOMEFANTASIA": "CR_EMPREENDIMENTOS", "RAZAOSOCIAL": "C._R._DE_SOUSA_CONSTRUTORA_LTDA", "ENDEE": "RUA_BOA_VISTA444__CENTRO_17199-899", "LATITUDE": "-21.8888942", "LONGITUDE": "-49.226318", "LMAPS": "https://www.google.com/maps?q=&layer=c&cbll=-49.226318,-21.8888942", "O_QUE_FAZER": "CARTEIRA", "field_10": null, "field_11": null, "field_12": null, "field_13": null, "ER_REGIAO_CIDADE_min": "Reginópolis_Araraquara" }, "geometry": { "type": "Point", "coordinates": [ -49.226318, -21.8888942 ] } },
{ "type": "Feature", "properties": { "CNPJ": "03368317000173", "IDCIDADE": "REGINOPOLIS", "NOMEFANTASIA": "SORVETEIRA_LIAN", "RAZAOSOCIAL": "LIAN_SORVETES_LTDA.", "ENDEE": "RUA_PADRE_MOISES_DE_MIRANDA292__CENTRO_17190-039", "LATITUDE": "-21.8897997", "LONGITUDE": "-49.2262711", "LMAPS": "https://www.google.com/maps?q=&layer=c&cbll=-49.2262711,-21.8897997", "O_QUE_FAZER": "CARTEIRA", "field_10": null, "field_11": null, "field_12": null, "field_13": null, "ER_REGIAO_CIDADE_min": "Reginópolis_Araraquara" }, "geometry": { "type": "Point", "coordinates": [ -49.2262711, -21.8897997 ] } },
{ "type": "Feature", "properties": { "CNPJ": "07832198000119", "IDCIDADE": "REGINOPOLIS", "NOMEFANTASIA": "BAZAR_ITAPETI", "RAZAOSOCIAL": "JOSE_ALVES_DE_OLIVEIRA_-_VARIEDADES", "ENDEE": "RUA_BOA_VISTA402__CENTRO_17190-005", "LATITUDE": "-21.8888424", "LONGITUDE": "-49.226027", "LMAPS": "https://www.google.com/maps?q=&layer=c&cbll=-49.226027,-21.8888424", "O_QUE_FAZER": "CARTEIRA", "field_10": null, "field_11": null, "field_12": null, "field_13": null, "ER_REGIAO_CIDADE_min": "Reginópolis_Araraquara" }, "geometry": { "type": "Point", "coordinates": [ -49.226027, -21.8888424 ] } },
{ "type": "Feature", "properties": { "CNPJ": "54731658000100", "IDCIDADE": "REGINOPOLIS", "NOMEFANTASIA": "DROGARIA_SAO_CARLOS", "RAZAOSOCIAL": "RUTH_LUIZAO_MODOLO_&_FILHOS_LTDA.", "ENDEE": "RUA_BOA_VISTA412__CENTRO_17190-005", "LATITUDE": "-21.8888963", "LONGITUDE": "-49.2259204", "LMAPS": "https://www.google.com/maps?q=&layer=c&cbll=-49.2259204,-21.8888963", "O_QUE_FAZER": "CARTEIRA", "field_10": null, "field_11": null, "field_12": null, "field_13": null, "ER_REGIAO_CIDADE_min": "Reginópolis_Araraquara" }, "geometry": { "type": "Point", "coordinates": [ -49.2259204, -21.8888963 ] } },
{ "type": "Feature", "properties": { "CNPJ": "68857259000197", "IDCIDADE": "REGINOPOLIS", "NOMEFANTASIA": "CASA_DE_CARNES_SAO_JOSE", "RAZAOSOCIAL": "VERA_L_F_B_DIAS", "ENDEE": "RUA_BOA_VISTA432__CENTRO_17190-005", "LATITUDE": "-21.8888642", "LONGITUDE": "-49.2258165", "LMAPS": "https://www.google.com/maps?q=&layer=c&cbll=-49.2258165,-21.8888642", "O_QUE_FAZER": "CARTEIRA", "field_10": null, "field_11": null, "field_12": null, "field_13": null, "ER_REGIAO_CIDADE_min": "Reginópolis_Araraquara" }, "geometry": { "type": "Point", "coordinates": [ -49.2258165, -21.8888642 ] } },
{ "type": "Feature", "properties": { "CNPJ": "12842529000131", "IDCIDADE": "REGINOPOLIS", "NOMEFANTASIA": "ESCRITORIO_CONTABIL_O_GLOBO", "RAZAOSOCIAL": "ESCRITORIO_CONTABIL_O_GLOBO_REGINOPOLIS_-_SOCIEDADE_SIMPLES_LTDA.", "ENDEE": "RUA_MAJOR_ALVARO_FERNANDES_DE_FREITAS180__CENTRO_17190-025", "LATITUDE": "-21.8875417", "LONGITUDE": "-49.225335", "LMAPS": "https://www.google.com/maps?q=&layer=c&cbll=-49.225335,-21.8875417", "O_QUE_FAZER": "CARTEIRA", "field_10": null, "field_11": null, "field_12": null, "field_13": null, "ER_REGIAO_CIDADE_min": "Reginópolis_Araraquara" }, "geometry": { "type": "Point", "coordinates": [ -49.225335, -21.8875417 ] } },
{ "type": "Feature", "properties": { "CNPJ": "01579033000109", "IDCIDADE": "REGINOPOLIS", "NOMEFANTASIA": "QUITANDA_RAINHA", "RAZAOSOCIAL": "VANDERLEA_MARTINS_BENTO", "ENDEE": "RUA_MAJOR_ALVARO_FERNANDES_DE_FREITAS348__CENTRO_17190-005", "LATITUDE": "-21.8891242", "LONGITUDE": "-49.2253266", "LMAPS": "https://www.google.com/maps?q=&layer=c&cbll=-49.2253266,-21.8891242", "O_QUE_FAZER": "CARTEIRA", "field_10": null, "field_11": null, "field_12": null, "field_13": null, "ER_REGIAO_CIDADE_min": "Reginópolis_Araraquara" }, "geometry": { "type": "Point", "coordinates": [ -49.2253266, -21.8891242 ] } },
{ "type": "Feature", "properties": { "CNPJ": "04921873000198", "IDCIDADE": "REGINOPOLIS", "NOMEFANTASIA": "PEPONE_GAS", "RAZAOSOCIAL": "CELSO_APARECIDO_DEL_PUPPO", "ENDEE": "RUA_MAJOR_ALVARO_FERNANDES_DE_FREITAS161__CENTRO_17190-025", "LATITUDE": "-21.8875867", "LONGITUDE": "-49.2253083", "LMAPS": "https://www.google.com/maps?q=&layer=c&cbll=-49.2253083,-21.8875867", "O_QUE_FAZER": "CARTEIRA", "field_10": null, "field_11": null, "field_12": null, "field_13": null, "ER_REGIAO_CIDADE_min": "Reginópolis_Araraquara" }, "geometry": { "type": "Point", "coordinates": [ -49.2253083, -21.8875867 ] } },
{ "type": "Feature", "properties": { "CNPJ": "03234014000168", "IDCIDADE": "REGINOPOLIS", "NOMEFANTASIA": "O_GLOBO", "RAZAOSOCIAL": "AUTO_-_ESCOLA_O_GLOBO_REGINOPOLIS_LTDA", "ENDEE": "RUA_EXPEDICIONARIOS309__CENTRO_17190-025", "LATITUDE": "-21.8878173", "LONGITUDE": "-49.2252768", "LMAPS": "https://www.google.com/maps?q=&layer=c&cbll=-49.2252768,-21.8878173", "O_QUE_FAZER": "CARTEIRA", "field_10": null, "field_11": null, "field_12": null, "field_13": null, "ER_REGIAO_CIDADE_min": "Reginópolis_Araraquara" }, "geometry": { "type": "Point", "coordinates": [ -49.2252768, -21.8878173 ] } },
{ "type": "Feature", "properties": { "CNPJ": "06907775000121", "IDCIDADE": "REGINOPOLIS", "NOMEFANTASIA": "TENDTUDO", "RAZAOSOCIAL": "LOURDES_MARIA_S._M._DE_ARAUJO_VIEIRA", "ENDEE": "RUA_MAJOR_ALVARO_FERNANDES_DE_FREITAS158__CENTRO_17190-025", "LATITUDE": "-21.8875867", "LONGITUDE": "-49.225235", "LMAPS": "https://www.google.com/maps?q=&layer=c&cbll=-49.225235,-21.8875867", "O_QUE_FAZER": "CARTEIRA", "field_10": null, "field_11": null, "field_12": null, "field_13": null, "ER_REGIAO_CIDADE_min": "Reginópolis_Araraquara" }, "geometry": { "type": "Point", "coordinates": [ -49.225235, -21.8875867 ] } },
{ "type": "Feature", "properties": { "CNPJ": "43719407000186", "IDCIDADE": "REGINOPOLIS", "NOMEFANTASIA": "SKINAO_BEBIDAS", "RAZAOSOCIAL": "CARLOS_ALBERTO_MENDONCA_BEBIDAS", "ENDEE": "RUA_PAULO_MARTINS7__NUCLEO_RESIDENCIAL_JOSE_DE_JULIO_17192-012", "LATITUDE": "-21.8833072", "LONGITUDE": "-49.2251535", "LMAPS": "https://www.google.com/maps?q=&layer=c&cbll=-49.2251535,-21.8833072", "O_QUE_FAZER": "CARTEIRA", "field_10": null, "field_11": null, "field_12": null, "field_13": null, "ER_REGIAO_CIDADE_min": "Reginópolis_Araraquara" }, "geometry": { "type": "Point", "coordinates": [ -49.2251535, -21.8833072 ] } },
{ "type": "Feature", "properties": { "CNPJ": "02870277000443", "IDCIDADE": "REGINOPOLIS", "NOMEFANTASIA": "MAGAZINE_JERUSALEM", "RAZAOSOCIAL": "SAMIR_AHMAD_MUSTAFA", "ENDEE": "RUA_BOA_VISTA524__CENTRO_17190-005", "LATITUDE": "-21.8888295", "LONGITUDE": "-49.2250654", "LMAPS": "https://www.google.com/maps?q=&layer=c&cbll=-49.2250654,-21.8888295", "O_QUE_FAZER": "CARTEIRA", "field_10": null, "field_11": null, "field_12": null, "field_13": null, "ER_REGIAO_CIDADE_min": "Reginópolis_Araraquara" }, "geometry": { "type": "Point", "coordinates": [ -49.2250654, -21.8888295 ] } },
{ "type": "Feature", "properties": { "CNPJ": "32076427000160", "IDCIDADE": "REGINOPOLIS", "NOMEFANTASIA": "SUPERMERCADO_SERVE_BEM", "RAZAOSOCIAL": "SUPERMERCADO_SERVE_BEM_REGINOPOLIS_LTDA", "ENDEE": "RUA_MAJOR_ALVARO_FERNANDES_DE_FREITAS121__CENTRO_17190-025", "LATITUDE": "-21.8871172", "LONGITUDE": "-49.2250273", "LMAPS": "https://www.google.com/maps?q=&layer=c&cbll=-49.2250273,-21.8871172", "O_QUE_FAZER": "CARTEIRA", "field_10": null, "field_11": null, "field_12": null, "field_13": null, "ER_REGIAO_CIDADE_min": "Reginópolis_Araraquara" }, "geometry": { "type": "Point", "coordinates": [ -49.2250273, -21.8871172 ] } },
{ "type": "Feature", "properties": { "CNPJ": "13337767000152", "IDCIDADE": "REGINOPOLIS", "NOMEFANTASIA": "ART_CAPRICHO", "RAZAOSOCIAL": "THALITA_HELOISA_PASTRELLO_FRAGOSO", "ENDEE": "RUA_MAJOR_ALVARO_FERNANDES_DE_FREITAS175__CENTRO_17190-007", "LATITUDE": "-21.8876325", "LONGITUDE": "-49.2250091", "LMAPS": "https://www.google.com/maps?q=&layer=c&cbll=-49.2250091,-21.8876325", "O_QUE_FAZER": "CARTEIRA", "field_10": null, "field_11": null, "field_12": null, "field_13": null, "ER_REGIAO_CIDADE_min": "Reginópolis_Araraquara" }, "geometry": { "type": "Point", "coordinates": [ -49.2250091, -21.8876325 ] } },
{ "type": "Feature", "properties": { "CNPJ": "45096774000104", "IDCIDADE": "REGINOPOLIS", "NOMEFANTASIA": "MADEIREIRA_JDA", "RAZAOSOCIAL": "JOSE_APARECIDO_DE_ALMEIDA", "ENDEE": "RUA_MAJOR_ALVARO_FERNANDES_DE_FREITAS35__CENTRO_17190-025", "LATITUDE": "-21.8864118", "LONGITUDE": "-49.2250087", "LMAPS": "https://www.google.com/maps?q=&layer=c&cbll=-49.2250087,-21.8864118", "O_QUE_FAZER": "CARTEIRA", "field_10": null, "field_11": null, "field_12": null, "field_13": null, "ER_REGIAO_CIDADE_min": "Reginópolis_Araraquara" }, "geometry": { "type": "Point", "coordinates": [ -49.2250087, -21.8864118 ] } },
{ "type": "Feature", "properties": { "CNPJ": "09066167000120", "IDCIDADE": "REGINOPOLIS", "NOMEFANTASIA": "ACOUGUE_DO_BARBICHA", "RAZAOSOCIAL": "BRUNO_DA_SILVA_LORIANO", "ENDEE": "RUA_MAJOR_ALVARO_FERNANDES_DE_FREITAS231__CENTRO_17190-007", "LATITUDE": "-21.8881133", "LONGITUDE": "-49.2250017", "LMAPS": "https://www.google.com/maps?q=&layer=c&cbll=-49.2250017,-21.8881133", "O_QUE_FAZER": "CARTEIRA", "field_10": null, "field_11": null, "field_12": null, "field_13": null, "ER_REGIAO_CIDADE_min": "Reginópolis_Araraquara" }, "geometry": { "type": "Point", "coordinates": [ -49.2250017, -21.8881133 ] } },
{ "type": "Feature", "properties": { "CNPJ": "39912978000165", "IDCIDADE": "REGINOPOLIS", "NOMEFANTASIA": "CLINICA_SAO_BENTO", "RAZAOSOCIAL": "BRUNA_DA_CUNHA_MAFEI", "ENDEE": "RUA_MAJOR_ALVARO_FERNANDES_DE_FREITAS141__CENTRO_17190-025", "LATITUDE": "-21.887307", "LONGITUDE": "-49.2249923", "LMAPS": "https://www.google.com/maps?q=&layer=c&cbll=-49.2249923,-21.887307", "O_QUE_FAZER": "CARTEIRA", "field_10": null, "field_11": null, "field_12": null, "field_13": null, "ER_REGIAO_CIDADE_min": "Reginópolis_Araraquara" }, "geometry": { "type": "Point", "coordinates": [ -49.2249923, -21.887307 ] } },
{ "type": "Feature", "properties": { "CNPJ": "04616279000274", "IDCIDADE": "REGINOPOLIS", "NOMEFANTASIA": "SUPERMERCADO_MONARI", "RAZAOSOCIAL": "SUPERMERCADO_MONARI_LTDA", "ENDEE": "ESTRADA_MARIA_CORINA_NARESSI_DA_CRUZ2__CHACARA_SAO_JOAO_17192-240", "LATITUDE": "-21.8814325", "LONGITUDE": "-49.2248983", "LMAPS": "https://www.google.com/maps?q=&layer=c&cbll=-49.2248983,-21.8814325", "O_QUE_FAZER": "CARTEIRA", "field_10": null, "field_11": null, "field_12": null, "field_13": null, "ER_REGIAO_CIDADE_min": "Reginópolis_Araraquara" }, "geometry": { "type": "Point", "coordinates": [ -49.2248983, -21.8814325 ] } },
{ "type": "Feature", "properties": { "CNPJ": "10409581000173", "IDCIDADE": "REGINOPOLIS", "NOMEFANTASIA": "ZANIRATO", "RAZAOSOCIAL": "CARLOS_AUGUSTO_ZANIRATO", "ENDEE": "RUA_DOS_EXPEDICIONARIOS429__CENTRO_17190-027", "LATITUDE": "-21.8880047", "LONGITUDE": "-49.2247795", "LMAPS": "https://www.google.com/maps?q=&layer=c&cbll=-49.2247795,-21.8880047", "O_QUE_FAZER": "CARTEIRA", "field_10": null, "field_11": null, "field_12": null, "field_13": null, "ER_REGIAO_CIDADE_min": "Reginópolis_Araraquara" }, "geometry": { "type": "Point", "coordinates": [ -49.2247795, -21.8880047 ] } },
{ "type": "Feature", "properties": { "CNPJ": "04860553000175", "IDCIDADE": "REGINOPOLIS", "NOMEFANTASIA": "LOTERICA_2000", "RAZAOSOCIAL": "ALMEIDA_LOTERIAS_LTDA", "ENDEE": "RUA_BOA_VISTA548__CENTRO_17190-005", "LATITUDE": "-21.8889083", "LONGITUDE": "-49.224695", "LMAPS": "https://www.google.com/maps?q=&layer=c&cbll=-49.224695,-21.8889083", "O_QUE_FAZER": "CARTEIRA", "field_10": null, "field_11": null, "field_12": null, "field_13": null, "ER_REGIAO_CIDADE_min": "Reginópolis_Araraquara" }, "geometry": { "type": "Point", "coordinates": [ -49.224695, -21.8889083 ] } },
{ "type": "Feature", "properties": { "CNPJ": "43910925000182", "IDCIDADE": "REGINOPOLIS", "NOMEFANTASIA": "NETCENTER", "RAZAOSOCIAL": "NETCENTER_FIBRA_TELECOMUNICACOES_LTDA", "ENDEE": "RUA_EXPEDICIONARIOS355__CENTRO_17190-007", "LATITUDE": "-21.8879617", "LONGITUDE": "-49.224635", "LMAPS": "https://www.google.com/maps?q=&layer=c&cbll=-49.224635,-21.8879617", "O_QUE_FAZER": "CARTEIRA", "field_10": null, "field_11": null, "field_12": null, "field_13": null, "ER_REGIAO_CIDADE_min": "Reginópolis_Araraquara" }, "geometry": { "type": "Point", "coordinates": [ -49.224635, -21.8879617 ] } },
{ "type": "Feature", "properties": { "CNPJ": "05023644000119", "IDCIDADE": "REGINOPOLIS", "NOMEFANTASIA": "TATICO_PAPELARIA", "RAZAOSOCIAL": "VALDEMIR_SANCHES_FERNANDES", "ENDEE": "RUA_MIGUEL_RADUAN59__CENTRO_17190-027", "LATITUDE": "-21.884795", "LONGITUDE": "-49.22463", "LMAPS": "https://www.google.com/maps?q=&layer=c&cbll=-49.22463,-21.884795", "O_QUE_FAZER": "CARTEIRA", "field_10": null, "field_11": null, "field_12": null, "field_13": null, "ER_REGIAO_CIDADE_min": "Reginópolis_Araraquara" }, "geometry": { "type": "Point", "coordinates": [ -49.22463, -21.884795 ] } },
{ "type": "Feature", "properties": { "CNPJ": "12943608000139", "IDCIDADE": "REGINOPOLIS", "NOMEFANTASIA": "INFOTEC", "RAZAOSOCIAL": "RENAN_RODRIGUES_DA_COSTA_&_CIA._LTDA.", "ENDEE": "RUA_EXPEDICIONARIOS356__CENTRO_17190-007", "LATITUDE": "-21.8879458", "LONGITUDE": "-49.2246191", "LMAPS": "https://www.google.com/maps?q=&layer=c&cbll=-49.2246191,-21.8879458", "O_QUE_FAZER": "CARTEIRA", "field_10": null, "field_11": null, "field_12": null, "field_13": null, "ER_REGIAO_CIDADE_min": "Reginópolis_Araraquara" }, "geometry": { "type": "Point", "coordinates": [ -49.2246191, -21.8879458 ] } },
{ "type": "Feature", "properties": { "CNPJ": "01369518000160", "IDCIDADE": "REGINOPOLIS", "NOMEFANTASIA": "BAZAR_CENTRAL", "RAZAOSOCIAL": "NIDELCI_COSTA_E_SILVA_OLIVEIRA", "ENDEE": "RUA_BOA_VISTA571__CENTRO_17190-025", "LATITUDE": "-21.8887105", "LONGITUDE": "-49.2245416", "LMAPS": "https://www.google.com/maps?q=&layer=c&cbll=-49.2245416,-21.8887105", "O_QUE_FAZER": "CARTEIRA", "field_10": null, "field_11": null, "field_12": null, "field_13": null, "ER_REGIAO_CIDADE_min": "Reginópolis_Araraquara" }, "geometry": { "type": "Point", "coordinates": [ -49.2245416, -21.8887105 ] } },
{ "type": "Feature", "properties": { "CNPJ": "38333562000120", "IDCIDADE": "REGINOPOLIS", "NOMEFANTASIA": "ENERGIA_SUPERMERCADO", "RAZAOSOCIAL": "OLIVEIRA_E_CAMPOS_REGINOPOLIS_SUPERMERCADO_LTDA", "ENDEE": "RUA_BOA_VISTA587__CENTRO_17190-005", "LATITUDE": "-21.888765", "LONGITUDE": "-49.2243957", "LMAPS": "https://www.google.com/maps?q=&layer=c&cbll=-49.2243957,-21.888765", "O_QUE_FAZER": "CARTEIRA", "field_10": null, "field_11": null, "field_12": null, "field_13": null, "ER_REGIAO_CIDADE_min": "Reginópolis_Araraquara" }, "geometry": { "type": "Point", "coordinates": [ -49.2243957, -21.888765 ] } },
{ "type": "Feature", "properties": { "CNPJ": "38360934000107", "IDCIDADE": "REGINOPOLIS", "NOMEFANTASIA": "EMPORIO_BOM_GOSTO", "RAZAOSOCIAL": "GABRIEL_ALMEIDA_DE_CAMARGO", "ENDEE": "RODOVIA_ALAOR_AUGUSTO_VICENZI570__CHACARA_SAO_JOAO_17192-240", "LATITUDE": "-21.878285", "LONGITUDE": "-49.2243933", "LMAPS": "https://www.google.com/maps?q=&layer=c&cbll=-49.2243933,-21.878285", "O_QUE_FAZER": "CARTEIRA", "field_10": null, "field_11": null, "field_12": null, "field_13": null, "ER_REGIAO_CIDADE_min": "Reginópolis_Araraquara" }, "geometry": { "type": "Point", "coordinates": [ -49.2243933, -21.878285 ] } },
{ "type": "Feature", "properties": { "CNPJ": "04430695000100", "IDCIDADE": "REGINOPOLIS", "NOMEFANTASIA": "AGRO_REGINOPOLIS", "RAZAOSOCIAL": "GUMERCINDO_MONTEIRA_JUNIOR", "ENDEE": "RUA_BOA_VISTA590__CENTRO_17190-005", "LATITUDE": "-21.8889449", "LONGITUDE": "-49.224362", "LMAPS": "https://www.google.com/maps?q=&layer=c&cbll=-49.224362,-21.8889449", "O_QUE_FAZER": "CARTEIRA", "field_10": null, "field_11": null, "field_12": null, "field_13": null, "ER_REGIAO_CIDADE_min": "Reginópolis_Araraquara" }, "geometry": { "type": "Point", "coordinates": [ -49.224362, -21.8889449 ] } },
{ "type": "Feature", "properties": { "CNPJ": "04353139000250", "IDCIDADE": "REGINOPOLIS", "NOMEFANTASIA": "O_BOTICARIO", "RAZAOSOCIAL": "LUCIANA_CARINHATO_PIRAJUI", "ENDEE": "RUA_EXPEDICIONARIOS371__CENTRO_17190-007", "LATITUDE": "-21.8878909", "LONGITUDE": "-49.2243316", "LMAPS": "https://www.google.com/maps?q=&layer=c&cbll=-49.2243316,-21.8878909", "O_QUE_FAZER": "CARTEIRA", "field_10": null, "field_11": null, "field_12": null, "field_13": null, "ER_REGIAO_CIDADE_min": "Reginópolis_Araraquara" }, "geometry": { "type": "Point", "coordinates": [ -49.2243316, -21.8878909 ] } },
{ "type": "Feature", "properties": { "CNPJ": "11162934000146", "IDCIDADE": "REGINOPOLIS", "NOMEFANTASIA": "TOTAL_REGINOPOLIS", "RAZAOSOCIAL": "CITA_DROGARIA_LTDA", "ENDEE": "RUA_MIGUEL_RADUAN280__CENTRO_17190-007", "LATITUDE": "-21.8881073", "LONGITUDE": "-49.2242666", "LMAPS": "https://www.google.com/maps?q=&layer=c&cbll=-49.2242666,-21.8881073", "O_QUE_FAZER": "CARTEIRA", "field_10": null, "field_11": null, "field_12": null, "field_13": null, "ER_REGIAO_CIDADE_min": "Reginópolis_Araraquara" }, "geometry": { "type": "Point", "coordinates": [ -49.2242666, -21.8881073 ] } },
{ "type": "Feature", "properties": { "CNPJ": "07094262000101", "IDCIDADE": "REGINOPOLIS", "NOMEFANTASIA": "RESTAURANTE_DO_MACHADO", "RAZAOSOCIAL": "SANDRA_MACHADO_DE_MELO_&_CIA_LTDA", "ENDEE": "RUA_MIGUEL_RADUAN303__CENTRO_17190-005", "LATITUDE": "-21.8884782", "LONGITUDE": "-49.224078", "LMAPS": "https://www.google.com/maps?q=&layer=c&cbll=-49.224078,-21.8884782", "O_QUE_FAZER": "CARTEIRA", "field_10": null, "field_11": null, "field_12": null, "field_13": null, "ER_REGIAO_CIDADE_min": "Reginópolis_Araraquara" }, "geometry": { "type": "Point", "coordinates": [ -49.224078, -21.8884782 ] } },
{ "type": "Feature", "properties": { "CNPJ": "00308673000103", "IDCIDADE": "REGINOPOLIS", "NOMEFANTASIA": "PASSO_A_PASSO", "RAZAOSOCIAL": "ADRIANA_POMBO_DIANA", "ENDEE": "RUA_BOA_VISTA630__CENTRO_17190-005", "LATITUDE": "-21.8889727", "LONGITUDE": "-49.2239267", "LMAPS": "https://www.google.com/maps?q=&layer=c&cbll=-49.2239267,-21.8889727", "O_QUE_FAZER": "CARTEIRA", "field_10": null, "field_11": null, "field_12": null, "field_13": null, "ER_REGIAO_CIDADE_min": "Reginópolis_Araraquara" }, "geometry": { "type": "Point", "coordinates": [ -49.2239267, -21.8889727 ] } },
{ "type": "Feature", "properties": { "CNPJ": "21896587000139", "IDCIDADE": "REGINOPOLIS", "NOMEFANTASIA": "SUCOS_&_CIA", "RAZAOSOCIAL": "MARINEIDE_APARECIDA_CARNEIRO", "ENDEE": "RUA_BOA_VISTA620__CENTRO_17190-005", "LATITUDE": "-21.8890534", "LONGITUDE": "-49.2238329", "LMAPS": "https://www.google.com/maps?q=&layer=c&cbll=-49.2238329,-21.8890534", "O_QUE_FAZER": "CARTEIRA", "field_10": null, "field_11": null, "field_12": null, "field_13": null, "ER_REGIAO_CIDADE_min": "Reginópolis_Araraquara" }, "geometry": { "type": "Point", "coordinates": [ -49.2238329, -21.8890534 ] } },
{ "type": "Feature", "properties": { "CNPJ": "19716971000160", "IDCIDADE": "REGINOPOLIS", "NOMEFANTASIA": "REPICAR_ACESSORIOS", "RAZAOSOCIAL": "ANTONIA_APARECIDA_VERONEZ", "ENDEE": "RUA_PADRE_GEREMIAS558__CENTRO_17190-009", "LATITUDE": "-21.8871762", "LONGITUDE": "-49.2236141", "LMAPS": "https://www.google.com/maps?q=&layer=c&cbll=-49.2236141,-21.8871762", "O_QUE_FAZER": "CARTEIRA", "field_10": null, "field_11": null, "field_12": null, "field_13": null, "ER_REGIAO_CIDADE_min": "Reginópolis_Araraquara" }, "geometry": { "type": "Point", "coordinates": [ -49.2236141, -21.8871762 ] } },
{ "type": "Feature", "properties": { "CNPJ": "96399084000157", "IDCIDADE": "REGINOPOLIS", "NOMEFANTASIA": "PEDRO_CINEL", "RAZAOSOCIAL": "PEDRO_CINEL", "ENDEE": "RUA_BOA_VISTA679__CENTRO_17190-005", "LATITUDE": "-21.8887404", "LONGITUDE": "-49.2234065", "LMAPS": "https://www.google.com/maps?q=&layer=c&cbll=-49.2234065,-21.8887404", "O_QUE_FAZER": "CARTEIRA", "field_10": null, "field_11": null, "field_12": null, "field_13": null, "ER_REGIAO_CIDADE_min": "Reginópolis_Araraquara" }, "geometry": { "type": "Point", "coordinates": [ -49.2234065, -21.8887404 ] } },
{ "type": "Feature", "properties": { "CNPJ": "39734761000102", "IDCIDADE": "REGINOPOLIS", "NOMEFANTASIA": "FAMILIA_PET", "RAZAOSOCIAL": "BIANCA_GODOI_TRABAQUINI_ATIVIDADES_VETERINARIAS", "ENDEE": "RUA_JOSE_PEDRO_ALEXANDRINO182__CENTRO_17190-031", "LATITUDE": "-21.8881842", "LONGITUDE": "-49.2222808", "LMAPS": "https://www.google.com/maps?q=&layer=c&cbll=-49.2222808,-21.8881842", "O_QUE_FAZER": "CARTEIRA", "field_10": null, "field_11": null, "field_12": null, "field_13": null, "ER_REGIAO_CIDADE_min": "Reginópolis_Araraquara" }, "geometry": { "type": "Point", "coordinates": [ -49.2222808, -21.8881842 ] } },
{ "type": "Feature", "properties": { "CNPJ": "05620690000103", "IDCIDADE": "REGINOPOLIS", "NOMEFANTASIA": "FARMACIA_ALQUIMIA", "RAZAOSOCIAL": "MARINA_LAZARI_CAMARGO", "ENDEE": "RUA_JOSE_PEDRO_ALEXANDRINO213__CENTRO_17190-005", "LATITUDE": "-21.8885955", "LONGITUDE": "-49.2220899", "LMAPS": "https://www.google.com/maps?q=&layer=c&cbll=-49.2220899,-21.8885955", "O_QUE_FAZER": "CARTEIRA", "field_10": null, "field_11": null, "field_12": null, "field_13": null, "ER_REGIAO_CIDADE_min": "Reginópolis_Araraquara" }, "geometry": { "type": "Point", "coordinates": [ -49.2220899, -21.8885955 ] } },
{ "type": "Feature", "properties": { "CNPJ": "08782387000197", "IDCIDADE": "REGINOPOLIS", "NOMEFANTASIA": "HBL", "RAZAOSOCIAL": "PAULO_CESAR_HERRERO_BARBOSA_LUCENA", "ENDEE": "RUA_PADRE_GEREMIAS771__CENTRO_17190-009", "LATITUDE": "-21.8869573", "LONGITUDE": "-49.2214743", "LMAPS": "https://www.google.com/maps?q=&layer=c&cbll=-49.2214743,-21.8869573", "O_QUE_FAZER": "CARTEIRA", "field_10": null, "field_11": null, "field_12": null, "field_13": null, "ER_REGIAO_CIDADE_min": "Reginópolis_Araraquara" }, "geometry": { "type": "Point", "coordinates": [ -49.2214743, -21.8869573 ] } },
{ "type": "Feature", "properties": { "CNPJ": "26916461000100", "IDCIDADE": "REGINOPOLIS", "NOMEFANTASIA": "SOLANGE_TURISMO", "RAZAOSOCIAL": "SOLANGE_ANTUNES", "ENDEE": "RUA_PADRE_GEREMIAS769__CENTRO_17190-009", "LATITUDE": "-21.8869908", "LONGITUDE": "-49.2214236", "LMAPS": "https://www.google.com/maps?q=&layer=c&cbll=-49.2214236,-21.8869908", "O_QUE_FAZER": "CARTEIRA", "field_10": null, "field_11": null, "field_12": null, "field_13": null, "ER_REGIAO_CIDADE_min": "Reginópolis_Araraquara" }, "geometry": { "type": "Point", "coordinates": [ -49.2214236, -21.8869908 ] } },
{ "type": "Feature", "properties": { "CNPJ": "01151228000145", "IDCIDADE": "REGINOPOLIS", "NOMEFANTASIA": "ROVERSI", "RAZAOSOCIAL": "SINVAL_ROVERSI", "ENDEE": "RUA_JOAO_BENVINDO_DE_CAMARGO334__CENTRO_17190-102", "LATITUDE": "-21.890656", "LONGITUDE": "-49.22141", "LMAPS": "https://www.google.com/maps?q=&layer=c&cbll=-49.22141,-21.890656", "O_QUE_FAZER": "CARTEIRA", "field_10": null, "field_11": null, "field_12": null, "field_13": null, "ER_REGIAO_CIDADE_min": "Reginópolis_Araraquara" }, "geometry": { "type": "Point", "coordinates": [ -49.22141, -21.890656 ] } },
{ "type": "Feature", "properties": { "CNPJ": "20102407000137", "IDCIDADE": "REGINOPOLIS", "NOMEFANTASIA": "STILO_UNICO_E_KIDS", "RAZAOSOCIAL": "CARLA_STEFANIA_CARVALHO_LOZANO", "ENDEE": "RUA_FRANCISCO_DIORIO279__CENTRO_17190-102", "LATITUDE": "-21.8902313", "LONGITUDE": "-49.2212835", "LMAPS": "https://www.google.com/maps?q=&layer=c&cbll=-49.2212835,-21.8902313", "O_QUE_FAZER": "CARTEIRA", "field_10": null, "field_11": null, "field_12": null, "field_13": null, "ER_REGIAO_CIDADE_min": "Reginópolis_Araraquara" }, "geometry": { "type": "Point", "coordinates": [ -49.2212835, -21.8902313 ] } },
{ "type": "Feature", "properties": { "CNPJ": "05776432000102", "IDCIDADE": "REGINOPOLIS", "NOMEFANTASIA": "CONSTRUPIU", "RAZAOSOCIAL": "VANILZA_TEREZINHA_DE_MENDONCA", "ENDEE": "AVENIDA_PADRE_ANCHIETA462__CENTRO_17190-031", "LATITUDE": "-21.8905842", "LONGITUDE": "-49.22048", "LMAPS": "https://www.google.com/maps?q=&layer=c&cbll=-49.22048,-21.8905842", "O_QUE_FAZER": "CARTEIRA", "field_10": null, "field_11": null, "field_12": null, "field_13": null, "ER_REGIAO_CIDADE_min": "Reginópolis_Araraquara" }, "geometry": { "type": "Point", "coordinates": [ -49.22048, -21.8905842 ] } },
{ "type": "Feature", "properties": { "CNPJ": "14408598000167", "IDCIDADE": "REGINOPOLIS", "NOMEFANTASIA": "GRAU_MOTOS", "RAZAOSOCIAL": "JULIANO_APARECIDO_RIBEIRO_LOPES", "ENDEE": "RUA_FRANCISCO_DIORIO132__CENTRO_17190-102", "LATITUDE": "-21.8912991", "LONGITUDE": "-49.2203879", "LMAPS": "https://www.google.com/maps?q=&layer=c&cbll=-49.2203879,-21.8912991", "O_QUE_FAZER": "CARTEIRA", "field_10": null, "field_11": null, "field_12": null, "field_13": null, "ER_REGIAO_CIDADE_min": "Reginópolis_Araraquara" }, "geometry": { "type": "Point", "coordinates": [ -49.2203879, -21.8912991 ] } },
{ "type": "Feature", "properties": { "CNPJ": "17385570000140", "IDCIDADE": "REGINOPOLIS", "NOMEFANTASIA": "DETONER", "RAZAOSOCIAL": "PAULO_HENRIQUE_DE_OLIVEIRA_LIMA_LTDA", "ENDEE": "RUA_FRANCISCO_DIORIO160__CENTRO_17190-102", "LATITUDE": "-21.8915008", "LONGITUDE": "-49.2202228", "LMAPS": "https://www.google.com/maps?q=&layer=c&cbll=-49.2202228,-21.8915008", "O_QUE_FAZER": "CARTEIRA", "field_10": null, "field_11": null, "field_12": null, "field_13": null, "ER_REGIAO_CIDADE_min": "Reginópolis_Araraquara" }, "geometry": { "type": "Point", "coordinates": [ -49.2202228, -21.8915008 ] } },
{ "type": "Feature", "properties": { "CNPJ": "07652346000113", "IDCIDADE": "REGINOPOLIS", "NOMEFANTASIA": "PADARIA_GARUZI", "RAZAOSOCIAL": "BENEDITA_B._DA_SILVA", "ENDEE": "AVENIDA_PADRE_ANCHIETA385__CENTRO_17190-031", "LATITUDE": "-21.8897622", "LONGITUDE": "-49.2200818", "LMAPS": "https://www.google.com/maps?q=&layer=c&cbll=-49.2200818,-21.8897622", "O_QUE_FAZER": "CARTEIRA", "field_10": null, "field_11": null, "field_12": null, "field_13": null, "ER_REGIAO_CIDADE_min": "Reginópolis_Araraquara" }, "geometry": { "type": "Point", "coordinates": [ -49.2200818, -21.8897622 ] } },
{ "type": "Feature", "properties": { "CNPJ": "50616449000157", "IDCIDADE": "REGINOPOLIS", "NOMEFANTASIA": "SUPER_GAS", "RAZAOSOCIAL": "AMILTON_T_DE_LIMA_JUNIOR_DEPOSITO_DE_GAS_LTDA", "ENDEE": "RUA_BOA_VISTA1374__CENTRO_17190-005", "LATITUDE": "-21.8893367", "LONGITUDE": "-49.2168316", "LMAPS": "https://www.google.com/maps?q=&layer=c&cbll=-49.2168316,-21.8893367", "O_QUE_FAZER": "CARTEIRA", "field_10": null, "field_11": null, "field_12": null, "field_13": null, "ER_REGIAO_CIDADE_min": "Reginópolis_Araraquara" }, "geometry": { "type": "Point", "coordinates": [ -49.2168316, -21.8893367 ] } },
{ "type": "Feature", "properties": { "CNPJ": "29188017000104", "IDCIDADE": "REGINOPOLIS", "NOMEFANTASIA": "BORRACHARIA_TREVI", "RAZAOSOCIAL": "LUIZ_FELIPE_DEL_PUPPO", "ENDEE": "RODOVIA_SP_-331_HILARIO_SPURI_JORGE113__AREA_RURAL_DE_REGINOPOLIS_17199-899", "LATITUDE": "-21.8944329", "LONGITUDE": "-49.2166686", "LMAPS": "https://www.google.com/maps?q=&layer=c&cbll=-49.2166686,-21.8944329", "O_QUE_FAZER": "CARTEIRA", "field_10": null, "field_11": null, "field_12": null, "field_13": null, "ER_REGIAO_CIDADE_min": "Reginópolis_Araraquara" }, "geometry": { "type": "Point", "coordinates": [ -49.2166686, -21.8944329 ] } },
{ "type": "Feature", "properties": { "CNPJ": "27913418000146", "IDCIDADE": "REGINOPOLIS", "NOMEFANTASIA": "-", "RAZAOSOCIAL": "ADALBERTO_TRABAQUINI_14307579810", "ENDEE": "RUA RUA BOA VISTA, 823, CASA, CENTRO, 17190-000, REGINÓPOLIS, SP, BRASIL", "LATITUDE": "-21.8887522", "LONGITUDE": "-49.2243757", "LMAPS": "https://www.google.com/maps?q=&layer=c&cbll=-21.8887522,-49.2243757", "O_QUE_FAZER": "CARTEIRA - FAMPE", "field_10": null, "field_11": null, "field_12": null, "field_13": null, "ER_REGIAO_CIDADE_min": "Reginópolis_Araraquara" }, "geometry": { "type": "Point", "coordinates": [ -49.2243757, -21.8887522 ] } }
]
}
