{
"type": "FeatureCollection",
"name": "ER_REGIAO_CIDADE_min_Santa Albertina_Votuporanga",
"crs": { "type": "name", "properties": { "name": "urn:ogc:def:crs:OGC:1.3:CRS84" } },
"xy_coordinate_resolution": 1e-15,
"features": [
{ "type": "Feature", "properties": { "fid": 1220, "CNPJ": "00248403000154", "IDCIDADE": "SANTA_ALBERTINA", "NOMEFANTASIA": "CASA_DE_CARNES_BEIRA_RIO", "RAZAOSOCIAL": "LISBOA_&_JORDAO_LTDA", "ENDEE": "AVENIDA_FRANCISCO_SCHIMIDT765__CENTRO_15750-000", "LMAPS": "https://www.google.com/maps?q=&layer=c&cbll=-20.0347646,-50.7265588", "O_QUE_FAZER": "CARTEIRA", "ER_REGIAO_CIDADE_min": "Santa Albertina_Votuporanga" }, "geometry": { "type": "Point", "coordinates": [ -50.7265588, -20.0347646 ] } },
{ "type": "Feature", "properties": { "fid": 4332, "CNPJ": "00900145000149", "IDCIDADE": "SANTA_ALBERTINA", "NOMEFANTASIA": "AUTO_POSTO_SANTA_ALBERTINA", "RAZAOSOCIAL": "AUTO_POSTO_SANTA_ALBERTINA_LTDA", "ENDEE": "AVENIDA_SILVIO_RALIO974__CENTRO_15750-033", "LMAPS": "https://www.google.com/maps?q=&layer=c&cbll=-20.0321343,-50.7266506", "O_QUE_FAZER": "FINALIZADO", "ER_REGIAO_CIDADE_min": "Santa Albertina_Votuporanga" }, "geometry": { "type": "Point", "coordinates": [ -50.7266506, -20.0321343 ] } },
{ "type": "Feature", "properties": { "fid": 7720, "CNPJ": "01589691000173", "IDCIDADE": "SANTA_ALBERTINA", "NOMEFANTASIA": "SUPERMERCADO_PORTUGUESA", "RAZAOSOCIAL": "LOPES_&_REINA_LTDA", "ENDEE": "AVENIDA_FRANCISCO_SCHIMIDT963__CENTRO_15750-009", "LMAPS": "https://www.google.com/maps?q=&layer=c&cbll=-20.0335258,-50.7278559", "O_QUE_FAZER": "APLICAR T4", "ER_REGIAO_CIDADE_min": "Santa Albertina_Votuporanga" }, "geometry": { "type": "Point", "coordinates": [ -50.7278559, -20.0335258 ] } },
{ "type": "Feature", "properties": { "fid": 12716, "CNPJ": "02590723000113", "IDCIDADE": "SANTA_ALBERTINA", "NOMEFANTASIA": "AUTO_ELETRICO_AVENIDA", "RAZAOSOCIAL": "IVAN_CARLO_RODRIGUES", "ENDEE": "AVENIDA_SILVIO_RALIO1172__CENTRO_15750-033", "LMAPS": "https://www.google.com/maps?q=&layer=c&cbll=-20.0310003,-50.7253852", "O_QUE_FAZER": "FINALIZADO", "ER_REGIAO_CIDADE_min": "Santa Albertina_Votuporanga" }, "geometry": { "type": "Point", "coordinates": [ -50.7253852, -20.0310003 ] } },
{ "type": "Feature", "properties": { "fid": 13261, "CNPJ": "02683694000134", "IDCIDADE": "SANTA_ALBERTINA", "NOMEFANTASIA": "MECANICA_BORGES", "RAZAOSOCIAL": "JOAO_BORGES_DE_ARAUJO-SANTA_ALBERTINA", "ENDEE": "AVENIDA_FRANCISCO_SCHMIDT1492__CENTRO_15750-009", "LMAPS": "https://www.google.com/maps?q=&layer=c&cbll=-20.0300491,-50.7312058", "O_QUE_FAZER": "FINALIZADO", "ER_REGIAO_CIDADE_min": "Santa Albertina_Votuporanga" }, "geometry": { "type": "Point", "coordinates": [ -50.7312058, -20.0300491 ] } },
{ "type": "Feature", "properties": { "fid": 14223, "CNPJ": "02855806000197", "IDCIDADE": "SANTA_ALBERTINA", "NOMEFANTASIA": "MINI_LOJA_SARA", "RAZAOSOCIAL": "VALTER_DONIZETE_POLISELI", "ENDEE": "AVENIDA_FRANCISCO_SCHMIDT940__CENTRO_15750-009", "LMAPS": "https://www.google.com/maps?q=&layer=c&cbll=-20.0335029,-50.7274916", "O_QUE_FAZER": "FINALIZADO", "ER_REGIAO_CIDADE_min": "Santa Albertina_Votuporanga" }, "geometry": { "type": "Point", "coordinates": [ -50.7274916, -20.0335029 ] } },
{ "type": "Feature", "properties": { "fid": 14605, "CNPJ": "02917534000293", "IDCIDADE": "SANTA_ALBERTINA", "NOMEFANTASIA": "ROSA_MISTICA", "RAZAOSOCIAL": "ROSA_MISTICA_LTDA", "ENDEE": "RUA_MARCOS_ROQUE875__CENTRO_15750-000", "LMAPS": "https://www.google.com/maps?q=&layer=c&cbll=-20.035737,-50.7241021", "O_QUE_FAZER": "CARTEIRA", "ER_REGIAO_CIDADE_min": "Santa Albertina_Votuporanga" }, "geometry": { "type": "Point", "coordinates": [ -50.7241021, -20.035737 ] } },
{ "type": "Feature", "properties": { "fid": 15835, "CNPJ": "03114432000111", "IDCIDADE": "SANTA_ALBERTINA", "NOMEFANTASIA": "MAZALLI_BIKE", "RAZAOSOCIAL": "EDMAR_CEREZO_MAZALLI", "ENDEE": "RUA_GABRIEL_GONZALES954__CENTRO_15750-000", "LMAPS": "https://www.google.com/maps?q=&layer=c&cbll=-20.0315672,-50.7274501", "O_QUE_FAZER": "CARTEIRA", "ER_REGIAO_CIDADE_min": "Santa Albertina_Votuporanga" }, "geometry": { "type": "Point", "coordinates": [ -50.7274501, -20.0315672 ] } },
{ "type": "Feature", "properties": { "fid": 20808, "CNPJ": "03934983000121", "IDCIDADE": "SANTA_ALBERTINA", "NOMEFANTASIA": "NAKAI_AGROPECUARIA", "RAZAOSOCIAL": "MOURA_NAKAI_AGRONEGOCIOS_LTDA", "ENDEE": "AVENIDA_FRANCISCO_SCHIMIDT1170__CENTRO_15750-000", "LMAPS": "https://www.google.com/maps?q=&layer=c&cbll=-20.0319243,-50.7290723", "O_QUE_FAZER": "CARTEIRA", "ER_REGIAO_CIDADE_min": "Santa Albertina_Votuporanga" }, "geometry": { "type": "Point", "coordinates": [ -50.7290723, -20.0319243 ] } },
{ "type": "Feature", "properties": { "fid": 25962, "CNPJ": "04700101000126", "IDCIDADE": "SANTA_ALBERTINA", "NOMEFANTASIA": "AGROPECUARIA_SOUZA_TANAKA", "RAZAOSOCIAL": "JOAQUIM_TOSTA_TANAKA", "ENDEE": "AVENIDA_FRANCISCO_SCHMIDT1229__CENTRO_15750-009", "LMAPS": "https://www.google.com/maps?q=&layer=c&cbll=-20.0316877,-50.729657", "O_QUE_FAZER": "FINALIZADO", "ER_REGIAO_CIDADE_min": "Santa Albertina_Votuporanga" }, "geometry": { "type": "Point", "coordinates": [ -50.729657, -20.0316877 ] } },
{ "type": "Feature", "properties": { "fid": 28666, "CNPJ": "05076530000137", "IDCIDADE": "SANTA_ALBERTINA", "NOMEFANTASIA": "FORMULA_EXATA,_FARMACIA_E_DROGARIA", "RAZAOSOCIAL": "JULIANA_BRANICIO_TANAKA", "ENDEE": "AVENIDA_FRANCISCO_SCHIMIDT1118__CENTRO_15750-009", "LMAPS": "https://www.google.com/maps?q=&layer=c&cbll=-20.0322715,-50.7286794", "O_QUE_FAZER": "FINALIZADO", "ER_REGIAO_CIDADE_min": "Santa Albertina_Votuporanga" }, "geometry": { "type": "Point", "coordinates": [ -50.7286794, -20.0322715 ] } },
{ "type": "Feature", "properties": { "fid": 37014, "CNPJ": "06231909000137", "IDCIDADE": "SANTA_ALBERTINA", "NOMEFANTASIA": "MERCADO_OURO_BRANCO", "RAZAOSOCIAL": "JOSUE_MESSIAS_LIRA_-_MERCEARIA", "ENDEE": "RUA_OLIMPIO_ESTEVAO_DE_LACERDA1430__CENTRO_15750-001", "LMAPS": "https://www.google.com/maps?q=&layer=c&cbll=-20.0328022,-50.7335706", "O_QUE_FAZER": "FINALIZADO", "ER_REGIAO_CIDADE_min": "Santa Albertina_Votuporanga" }, "geometry": { "type": "Point", "coordinates": [ -50.7335706, -20.0328022 ] } },
{ "type": "Feature", "properties": { "fid": 38712, "CNPJ": "06954183000160", "IDCIDADE": "SANTA_ALBERTINA", "NOMEFANTASIA": "ZOEL_CENTER", "RAZAOSOCIAL": "CLEIDE_BIZO_FURIA", "ENDEE": "AVENIDA_FRANCISCO_SCHIMIDT1035__CENTRO_15750-009", "LMAPS": "https://www.google.com/maps?q=&layer=c&cbll=-20.0330143,-50.7284366", "O_QUE_FAZER": "FINALIZADO", "ER_REGIAO_CIDADE_min": "Santa Albertina_Votuporanga" }, "geometry": { "type": "Point", "coordinates": [ -50.7284366, -20.0330143 ] } },
{ "type": "Feature", "properties": { "fid": 39624, "CNPJ": "07059809000138", "IDCIDADE": "SANTA_ALBERTINA", "NOMEFANTASIA": "GG_MOVEIS", "RAZAOSOCIAL": "CARLOS_ROBERTO_CRUZ_GUTIERREZ", "ENDEE": "AVENIDA_FRANCISCO_SCHIMIDT875__CENTRO_15750-009", "LMAPS": "https://www.google.com/maps?q=&layer=c&cbll=-20.0341762,-50.7273493", "O_QUE_FAZER": "FINALIZADO", "ER_REGIAO_CIDADE_min": "Santa Albertina_Votuporanga" }, "geometry": { "type": "Point", "coordinates": [ -50.7273493, -20.0341762 ] } },
{ "type": "Feature", "properties": { "fid": 41530, "CNPJ": "07301198000192", "IDCIDADE": "SANTA_ALBERTINA", "NOMEFANTASIA": "SANTANA_MATERIAIS_ELETRICOS", "RAZAOSOCIAL": "FABIANI_C_SANTANA_&_CIA_LTDA", "ENDEE": "AVENIDA_FRANCISCO_SCHMIDT1053__CENTRO_15750-009", "LMAPS": "https://www.google.com/maps?q=&layer=c&cbll=-20.0329061,-50.7284948", "O_QUE_FAZER": "FINALIZADO", "ER_REGIAO_CIDADE_min": "Santa Albertina_Votuporanga" }, "geometry": { "type": "Point", "coordinates": [ -50.7284948, -20.0329061 ] } },
{ "type": "Feature", "properties": { "fid": 43315, "CNPJ": "07515922000180", "IDCIDADE": "SANTA_ALBERTINA", "NOMEFANTASIA": "T.S_NET_TELECOM", "RAZAOSOCIAL": "TAMYRIS_SOUZA_LTDA", "ENDEE": "AVENIDA_FRANCISCO_SCHIMIDT804__CENTRO_15750-000", "LMAPS": "https://www.google.com/maps?q=&layer=c&cbll=-20.034294,-50.7266303", "O_QUE_FAZER": "CARTEIRA", "ER_REGIAO_CIDADE_min": "Santa Albertina_Votuporanga" }, "geometry": { "type": "Point", "coordinates": [ -50.7266303, -20.034294 ] } },
{ "type": "Feature", "properties": { "fid": 43612, "CNPJ": "07560753000109", "IDCIDADE": "SANTA_ALBERTINA", "NOMEFANTASIA": "CASA_DE_CARNES_NOSSA_SENHORA_APARECIDA", "RAZAOSOCIAL": "ADIB_AMADO_ACOUGUE", "ENDEE": "AVENIDA_FRANCISCO_SCHIMIDT1085__CENTRO_15750-009", "LMAPS": "https://www.google.com/maps?q=&layer=c&cbll=-20.0327117,-50.7286731", "O_QUE_FAZER": "FINALIZADO", "ER_REGIAO_CIDADE_min": "Santa Albertina_Votuporanga" }, "geometry": { "type": "Point", "coordinates": [ -50.7286731, -20.0327117 ] } },
{ "type": "Feature", "properties": { "fid": 44341, "CNPJ": "07643520000161", "IDCIDADE": "SANTA_ALBERTINA", "NOMEFANTASIA": "RN_AUTO_ELETRICA", "RAZAOSOCIAL": "RN_AUTO_ELETRICA", "ENDEE": "AVENIDA_SILVIO_RALI__956_15750-033", "LMAPS": "https://www.google.com/maps?q=&layer=c&cbll=-20.0332854,-50.7299857", "O_QUE_FAZER": "FINALIZADO", "ER_REGIAO_CIDADE_min": "Santa Albertina_Votuporanga" }, "geometry": { "type": "Point", "coordinates": [ -50.7299857, -20.0332854 ] } },
{ "type": "Feature", "properties": { "fid": 47864, "CNPJ": "08077632000165", "IDCIDADE": "SANTA_ALBERTINA", "NOMEFANTASIA": "MINI_MERCADO_SAO_ROQUE", "RAZAOSOCIAL": "RICARDO_ROQUE_POLISELI", "ENDEE": "AVENIDA_FRANCISCO_SCHIMIDT820__CENTRO_15750-009", "LMAPS": "https://www.google.com/maps?q=&layer=c&cbll=-20.0342264,-50.7268422", "O_QUE_FAZER": "FINALIZADO", "ER_REGIAO_CIDADE_min": "Santa Albertina_Votuporanga" }, "geometry": { "type": "Point", "coordinates": [ -50.7268422, -20.0342264 ] } },
{ "type": "Feature", "properties": { "fid": 48515, "CNPJ": "08185197000192", "IDCIDADE": "SANTA_ALBERTINA", "NOMEFANTASIA": "VILALBA_MODAS", "RAZAOSOCIAL": "ELIZABETE_VILALBA_OLIVEIRA", "ENDEE": "AVENIDA_FRANCISCO_SCHIMIDT860__CENTRO_15750-009", "LMAPS": "https://www.google.com/maps?q=&layer=c&cbll=-20.0339789,-50.7270338", "O_QUE_FAZER": "FINALIZADO", "ER_REGIAO_CIDADE_min": "Santa Albertina_Votuporanga" }, "geometry": { "type": "Point", "coordinates": [ -50.7270338, -20.0339789 ] } },
{ "type": "Feature", "properties": { "fid": 52169, "CNPJ": "08740794000131", "IDCIDADE": "SANTA_ALBERTINA", "NOMEFANTASIA": "ELETRO_MOTOS", "RAZAOSOCIAL": "ELETRO_MOTOS", "ENDEE": "FRANCISCO_SCHMIDT1425__CENTRO_15750-009", "LMAPS": "https://www.google.com/maps?q=&layer=c&cbll=-20.0305242,-50.7310149", "O_QUE_FAZER": "FINALIZADO", "ER_REGIAO_CIDADE_min": "Santa Albertina_Votuporanga" }, "geometry": { "type": "Point", "coordinates": [ -50.7310149, -20.0305242 ] } },
{ "type": "Feature", "properties": { "fid": 52427, "CNPJ": "08771497000153", "IDCIDADE": "SANTA_ALBERTINA", "NOMEFANTASIA": "PET_SHOP_CAOPANHEIROS", "RAZAOSOCIAL": "GILMAR_PIRES_PAULA", "ENDEE": "RUA_PEDRO_PRUDENTE_DE_MORAES1050__CENTRO_15750-011", "LMAPS": "https://www.google.com/maps?q=&layer=c&cbll=-20.0320536,-50.7275606", "O_QUE_FAZER": "FINALIZADO", "ER_REGIAO_CIDADE_min": "Santa Albertina_Votuporanga" }, "geometry": { "type": "Point", "coordinates": [ -50.7275606, -20.0320536 ] } },
{ "type": "Feature", "properties": { "fid": 53708, "CNPJ": "08929940000171", "IDCIDADE": "SANTA_ALBERTINA", "NOMEFANTASIA": "VIDRACARIA_VIDREX", "RAZAOSOCIAL": "LOURIVAL_DA_SILVA_MARTINS", "ENDEE": "RUA_PEDRO_PRUDENTE_DE_MORAES963__CENTRO_15750-011", "LMAPS": "https://www.google.com/maps?q=&layer=c&cbll=-20.0328186,-50.7271267", "O_QUE_FAZER": "FINALIZADO", "ER_REGIAO_CIDADE_min": "Santa Albertina_Votuporanga" }, "geometry": { "type": "Point", "coordinates": [ -50.7271267, -20.0328186 ] } },
{ "type": "Feature", "properties": { "fid": 54328, "CNPJ": "08998117000118", "IDCIDADE": "SANTA_ALBERTINA", "NOMEFANTASIA": "AUTO_POSTO_FENIX", "RAZAOSOCIAL": "LUIZ_CARLOS_CURILA", "ENDEE": "AVENIDA_FRANCISCO_SCHMIDT575__CENTRO_15750-000", "LMAPS": "https://www.google.com/maps?q=&layer=c&cbll=-20.036023,-50.7253545", "O_QUE_FAZER": "CARTEIRA", "ER_REGIAO_CIDADE_min": "Santa Albertina_Votuporanga" }, "geometry": { "type": "Point", "coordinates": [ -50.7253545, -20.036023 ] } },
{ "type": "Feature", "properties": { "fid": 59949, "CNPJ": "09634921000180", "IDCIDADE": "SANTA_ALBERTINA", "NOMEFANTASIA": "BAZIZA_CALÇADOS", "RAZAOSOCIAL": "09.634.921_JOAO_BAZIZA", "ENDEE": "GABRIEL GONZALES, 769, CENTRO, 15750-031, SANTA ALBERTINA_15750-031", "LMAPS": "https://www.google.com/maps?q=&layer=c&cbll=-20.0326849,-50.7290628", "O_QUE_FAZER": "FINALIZADO", "ER_REGIAO_CIDADE_min": "Santa Albertina_Votuporanga" }, "geometry": { "type": "Point", "coordinates": [ -50.7290628, -20.0326849 ] } },
{ "type": "Feature", "properties": { "fid": 60223, "CNPJ": "09665047000149", "IDCIDADE": "SANTA_ALBERTINA", "NOMEFANTASIA": "MERCEARIA_SAO_LUIZ", "RAZAOSOCIAL": "SEBASTIANA_QUIRINO_DE_ALMEIDA_ROQUE", "ENDEE": "AVENIDA_FRANCISCO_SCHMIDT550__CENTRO_15750-000", "LMAPS": "https://www.google.com/maps?q=&layer=c&cbll=-20.0359828,-50.7249181", "O_QUE_FAZER": "CARTEIRA", "ER_REGIAO_CIDADE_min": "Santa Albertina_Votuporanga" }, "geometry": { "type": "Point", "coordinates": [ -50.7249181, -20.0359828 ] } },
{ "type": "Feature", "properties": { "fid": 60886, "CNPJ": "10241723000136", "IDCIDADE": "SANTA_ALBERTINA", "NOMEFANTASIA": "MERCEARIA_CASA_REAL", "RAZAOSOCIAL": "RONALDO_R_DE_SOUSA-_MERCEARIA", "ENDEE": "AVENIDA_FRANCISCO_SCHMIDT1306__CENTRO_15750-009", "LMAPS": "https://www.google.com/maps?q=&layer=c&cbll=-20.0311787,-50.7299695", "O_QUE_FAZER": "FINALIZADO", "ER_REGIAO_CIDADE_min": "Santa Albertina_Votuporanga" }, "geometry": { "type": "Point", "coordinates": [ -50.7299695, -20.0311787 ] } },
{ "type": "Feature", "properties": { "fid": 61011, "CNPJ": "10257628000120", "IDCIDADE": "SANTA_ALBERTINA", "NOMEFANTASIA": "DROGARIA_N.S_APARECIDA", "RAZAOSOCIAL": "ELIANA_DE_FATIMA_BUSETTE", "ENDEE": "AVENIDA_FRANCISCO_SCHIMIDT980__CENTRO_15750-000", "LMAPS": "https://www.google.com/maps?q=&layer=c&cbll=-20.0332492,-50.7277761", "O_QUE_FAZER": "CARTEIRA", "ER_REGIAO_CIDADE_min": "Santa Albertina_Votuporanga" }, "geometry": { "type": "Point", "coordinates": [ -50.7277761, -20.0332492 ] } },
{ "type": "Feature", "properties": { "fid": 69215, "CNPJ": "11143339000163", "IDCIDADE": "SANTA_ALBERTINA", "NOMEFANTASIA": "OPTICA_STILO", "RAZAOSOCIAL": "LUZIA_MEIRA_DE_SOUZA_ASSUNCAO_&_CIA_LTDA", "ENDEE": "AVENIDA_FRANCISCO_SCHIMIDT806__CENTRO_15750-009", "LMAPS": "https://www.google.com/maps?q=&layer=c&cbll=-20.034114,-50.7268198", "O_QUE_FAZER": "FINALIZADO", "ER_REGIAO_CIDADE_min": "Santa Albertina_Votuporanga" }, "geometry": { "type": "Point", "coordinates": [ -50.7268198, -20.034114 ] } },
{ "type": "Feature", "properties": { "fid": 77502, "CNPJ": "12450132000102", "IDCIDADE": "SANTA_ALBERTINA", "NOMEFANTASIA": "BORRACHARIA_DO_CARLOS", "RAZAOSOCIAL": "CARLOS_JOSE_NUNES_PEREIRA", "ENDEE": "AVENIDA_FRANCISCO_SCHIMIDT495__CENTRO_15750-000", "LMAPS": "https://www.google.com/maps?q=&layer=c&cbll=-20.0361777,-50.7249776", "O_QUE_FAZER": "FINALIZADO", "ER_REGIAO_CIDADE_min": "Santa Albertina_Votuporanga" }, "geometry": { "type": "Point", "coordinates": [ -50.7249776, -20.0361777 ] } },
{ "type": "Feature", "properties": { "fid": 78086, "CNPJ": "12553304000165", "IDCIDADE": "SANTA_ALBERTINA", "NOMEFANTASIA": "ALUVIDIA", "RAZAOSOCIAL": "DIA_ENGENHARIA_E_CONSTRUCOES_LTDA", "ENDEE": "RUA_OLIMPIO_ESTEVAO_DE_LACERDA1713__CENTRO_15750-000", "LMAPS": "https://www.google.com/maps?q=&layer=c&cbll=-20.031127,-50.7356525", "O_QUE_FAZER": "CARTEIRA", "ER_REGIAO_CIDADE_min": "Santa Albertina_Votuporanga" }, "geometry": { "type": "Point", "coordinates": [ -50.7356525, -20.031127 ] } },
{ "type": "Feature", "properties": { "fid": 78280, "CNPJ": "12584951000134", "IDCIDADE": "SANTA_ALBERTINA", "NOMEFANTASIA": "REFRIGERACAO__DENIR", "RAZAOSOCIAL": "REFRIGERACAO__DENIR", "ENDEE": "ANTONIO_GERALDO_FEBOLI246__RESIDENCIAL_E_COMERCIAL_MILITAO_15750-100", "LMAPS": "https://www.google.com/maps?q=&layer=c&cbll=-20.0331384,-50.7279818", "O_QUE_FAZER": "FINALIZADO", "ER_REGIAO_CIDADE_min": "Santa Albertina_Votuporanga" }, "geometry": { "type": "Point", "coordinates": [ -50.7279818, -20.0331384 ] } },
{ "type": "Feature", "properties": { "fid": 81100, "CNPJ": "13173561000134", "IDCIDADE": "SANTA_ALBERTINA", "NOMEFANTASIA": "CANTINHO__DO_IMPORTADO", "RAZAOSOCIAL": "CANTINHO__DO_IMPORTADO", "ENDEE": "FRANCISCO_SCHMIDT1123__CENTRO_15750-009", "LMAPS": "https://www.google.com/maps?q=&layer=c&cbll=-20.0339611,-50.7269454", "O_QUE_FAZER": "FINALIZADO", "ER_REGIAO_CIDADE_min": "Santa Albertina_Votuporanga" }, "geometry": { "type": "Point", "coordinates": [ -50.7269454, -20.0339611 ] } },
{ "type": "Feature", "properties": { "fid": 82489, "CNPJ": "13420947000101", "IDCIDADE": "SANTA_ALBERTINA", "NOMEFANTASIA": "INFOGIL", "RAZAOSOCIAL": "FERNANDO_RIBEIRO_GIL", "ENDEE": "PARÁ, 956, CENTRO, 15750-027, SANTA ALBERTINA_15750-027", "LMAPS": "https://www.google.com/maps?q=&layer=c&cbll=-20.0332854,-50.7299857", "O_QUE_FAZER": "FINALIZADO", "ER_REGIAO_CIDADE_min": "Santa Albertina_Votuporanga" }, "geometry": { "type": "Point", "coordinates": [ -50.7299857, -20.0332854 ] } },
{ "type": "Feature", "properties": { "fid": 82800, "CNPJ": "13473435000103", "IDCIDADE": "SANTA_ALBERTINA", "NOMEFANTASIA": "RESTAURANTE__SOL_E_LUA", "RAZAOSOCIAL": "RESTAURANTE__SOL_E_LUA", "ENDEE": "FRANCISCO__SCHMIDT709__CENTRO_15750-000", "LMAPS": "https://www.google.com/maps?q=&layer=c&cbll=-20.0352029,-50.7262333", "O_QUE_FAZER": "APLICAR T4", "ER_REGIAO_CIDADE_min": "Santa Albertina_Votuporanga" }, "geometry": { "type": "Point", "coordinates": [ -50.7262333, -20.0352029 ] } },
{ "type": "Feature", "properties": { "fid": 82848, "CNPJ": "13482279000139", "IDCIDADE": "SANTA_ALBERTINA", "NOMEFANTASIA": "CASA_DE_PESCA_RIO_GRANDE", "RAZAOSOCIAL": "FRANCISCO_ANTONIO_PONDIAN", "ENDEE": "AVENIDA_FRANCISCO_SCHIMIDT802__CENTRO_15750-009", "LMAPS": "https://www.google.com/maps?q=&layer=c&cbll=-20.0343506,-50.7265948", "O_QUE_FAZER": "FINALIZADO", "ER_REGIAO_CIDADE_min": "Santa Albertina_Votuporanga" }, "geometry": { "type": "Point", "coordinates": [ -50.7265948, -20.0343506 ] } },
{ "type": "Feature", "properties": { "fid": 101300, "CNPJ": "17866800000192", "IDCIDADE": "SANTA_ALBERTINA", "NOMEFANTASIA": "PADARIA_CASA_NOVA", "RAZAOSOCIAL": "JAQUELINE_DE_SOUZA_AGUIAR", "ENDEE": "AVENIDA_FRANCISCO_SCHMIDT925__CENTRO_15750-009", "LMAPS": "https://www.google.com/maps?q=&layer=c&cbll=-20.0337695,-50.7276503", "O_QUE_FAZER": "FINALIZADO", "ER_REGIAO_CIDADE_min": "Santa Albertina_Votuporanga" }, "geometry": { "type": "Point", "coordinates": [ -50.7276503, -20.0337695 ] } },
{ "type": "Feature", "properties": { "fid": 102344, "CNPJ": "18076447000100", "IDCIDADE": "SANTA_ALBERTINA", "NOMEFANTASIA": "RIBEIRO_TECH", "RAZAOSOCIAL": "RIBEIRONET_INTERNET_LTDA", "ENDEE": "AVENIDA_FRANCISCO_SCHIMIDT880__CENTRO_15750-009", "LMAPS": "https://www.google.com/maps?q=&layer=c&cbll=-20.0338509,-50.7271187", "O_QUE_FAZER": "FINALIZADO", "ER_REGIAO_CIDADE_min": "Santa Albertina_Votuporanga" }, "geometry": { "type": "Point", "coordinates": [ -50.7271187, -20.0338509 ] } },
{ "type": "Feature", "properties": { "fid": 103870, "CNPJ": "18392914000100", "IDCIDADE": "SANTA_ALBERTINA", "NOMEFANTASIA": "TORNEARIA_ANTUNES", "RAZAOSOCIAL": "ALCIDES_ANTUNES_SIMOES_NETO", "ENDEE": "AVENIDA_FRANCISCO_SCHMIDT1462__CENTRO_15750-000", "LMAPS": "https://www.google.com/maps?q=&layer=c&cbll=-20.0300292,-50.7309751", "O_QUE_FAZER": "CARTEIRA", "ER_REGIAO_CIDADE_min": "Santa Albertina_Votuporanga" }, "geometry": { "type": "Point", "coordinates": [ -50.7309751, -20.0300292 ] } },
{ "type": "Feature", "properties": { "fid": 105461, "CNPJ": "18736491000107", "IDCIDADE": "SANTA_ALBERTINA", "NOMEFANTASIA": "GLOBAL_ACESSORIOS", "RAZAOSOCIAL": "GLOBAL_ACESSORIOS", "ENDEE": "FRANCISCO_SCHIMIDT935__CENTRO_15750-009", "LMAPS": "https://www.google.com/maps?q=&layer=c&cbll=-20.0336709,-50.7276437", "O_QUE_FAZER": "FINALIZADO", "ER_REGIAO_CIDADE_min": "Santa Albertina_Votuporanga" }, "geometry": { "type": "Point", "coordinates": [ -50.7276437, -20.0336709 ] } },
{ "type": "Feature", "properties": { "fid": 107040, "CNPJ": "19074282000108", "IDCIDADE": "SANTA_ALBERTINA", "NOMEFANTASIA": "19.074.282_ANGELA_MARIA_CESTARI_DE_SANT_ANA", "RAZAOSOCIAL": "LACOS_E_FITA", "ENDEE": "RUA_FRANCISCO_SCHIMIDT904__CENTRO_15750-000", "LMAPS": "https://www.google.com/maps?q=&layer=c&cbll=-20.03368,-50.727269", "O_QUE_FAZER": "FINALIZADO", "ER_REGIAO_CIDADE_min": "Santa Albertina_Votuporanga" }, "geometry": { "type": "Point", "coordinates": [ -50.727269, -20.03368 ] } },
{ "type": "Feature", "properties": { "fid": 108475, "CNPJ": "19393171000156", "IDCIDADE": "SANTA_ALBERTINA", "NOMEFANTASIA": "ESCRITORIO_E_DESPACHANTE_BATISTA", "RAZAOSOCIAL": "RODRIGUES_&_RODRIGUES_CONTABILIDADE_LTDA", "ENDEE": "AVENIDA_FRANCISCO_SCHIMIDT756__CENTRO_15750-000", "LMAPS": "https://www.google.com/maps?q=&layer=c&cbll=-20.0345925,-50.7262471", "O_QUE_FAZER": "CARTEIRA", "ER_REGIAO_CIDADE_min": "Santa Albertina_Votuporanga" }, "geometry": { "type": "Point", "coordinates": [ -50.7262471, -20.0345925 ] } },
{ "type": "Feature", "properties": { "fid": 111133, "CNPJ": "20004737000190", "IDCIDADE": "SANTA_ALBERTINA", "NOMEFANTASIA": "MUNDO_DE_VARIEDADES", "RAZAOSOCIAL": "MUNDO_DE_VARIEDADES", "ENDEE": "FRANCISCO_SCHMIDT822__CENTRO_15750-000", "LMAPS": "https://www.google.com/maps?q=&layer=c&cbll=-20.0342354,-50.7267917", "O_QUE_FAZER": "FINALIZADO", "ER_REGIAO_CIDADE_min": "Santa Albertina_Votuporanga" }, "geometry": { "type": "Point", "coordinates": [ -50.7267917, -20.0342354 ] } },
{ "type": "Feature", "properties": { "fid": 112793, "CNPJ": "20363029000145", "IDCIDADE": "SANTA_ALBERTINA", "NOMEFANTASIA": "BIONAD_LABORATORIO_DE_ANALISES_CLINICAS", "RAZAOSOCIAL": "BIONAD_LABORATORIO_DE_ANALISES_CLINICAS_LTDA", "ENDEE": "AVENIDA_FRANCISCO_SCHIMIDT470__CENTRO_15745-039", "LMAPS": "https://www.google.com/maps?q=&layer=c&cbll=-20.0363769,-50.7244337", "O_QUE_FAZER": "FINALIZADO", "ER_REGIAO_CIDADE_min": "Santa Albertina_Votuporanga" }, "geometry": { "type": "Point", "coordinates": [ -50.7244337, -20.0363769 ] } },
{ "type": "Feature", "properties": { "fid": 115761, "CNPJ": "21060963000312", "IDCIDADE": "SANTA_ALBERTINA", "NOMEFANTASIA": "CICUTO_SUPERMERCADO", "RAZAOSOCIAL": "GD_CICUTO_SUPERMERCADO_LTDA", "ENDEE": "AVENIDA_FRANCISCO_SCHIMIDT950__CENTRO_15750-000", "LMAPS": "https://www.google.com/maps?q=&layer=c&cbll=-20.0333989,-50.727561", "O_QUE_FAZER": "CARTEIRA - FAMPE", "ER_REGIAO_CIDADE_min": "Santa Albertina_Votuporanga" }, "geometry": { "type": "Point", "coordinates": [ -50.727561, -20.0333989 ] } },
{ "type": "Feature", "properties": { "fid": 124819, "CNPJ": "22999637000176", "IDCIDADE": "SANTA_ALBERTINA", "NOMEFANTASIA": "ESCRITORIO_CRUZEIRO", "RAZAOSOCIAL": "PAMELA_ROBERTA_DE_ARRUDA_CAMPOS_YAMAZAKI", "ENDEE": "AVENIDA_FRANCISCO_SCHIMIDT904__CENTRO_15750-000", "LMAPS": "https://www.google.com/maps?q=&layer=c&cbll=-20.033539,-50.727086", "O_QUE_FAZER": "CARTEIRA", "ER_REGIAO_CIDADE_min": "Santa Albertina_Votuporanga" }, "geometry": { "type": "Point", "coordinates": [ -50.727086, -20.033539 ] } },
{ "type": "Feature", "properties": { "fid": 126022, "CNPJ": "23266626000140", "IDCIDADE": "SANTA_ALBERTINA", "NOMEFANTASIA": "MERCEARIA_DO_LUIZ", "RAZAOSOCIAL": "MARCIANA_REGINA_CARDOZO_TORO", "ENDEE": "RUA_PEDRO_PRUDENTE_DE_MORAES1002__CENTRO_15750-000", "LMAPS": "https://www.google.com/maps?q=&layer=c&cbll=-20.0323895,-50.7273084", "O_QUE_FAZER": "CARTEIRA", "ER_REGIAO_CIDADE_min": "Santa Albertina_Votuporanga" }, "geometry": { "type": "Point", "coordinates": [ -50.7273084, -20.0323895 ] } },
{ "type": "Feature", "properties": { "fid": 126304, "CNPJ": "23324210000130", "IDCIDADE": "SANTA_ALBERTINA", "NOMEFANTASIA": "CORTEZ_SUPERMERCADO", "RAZAOSOCIAL": "SUPERMERCADO_CORTEZ_LTDA", "ENDEE": "RUA_OLIVIO_LAINE460__CENTRO_15750-000", "LMAPS": "https://www.google.com/maps?q=&layer=c&cbll=-20.0321875,-50.7335577", "O_QUE_FAZER": "CARTEIRA", "ER_REGIAO_CIDADE_min": "Santa Albertina_Votuporanga" }, "geometry": { "type": "Point", "coordinates": [ -50.7335577, -20.0321875 ] } },
{ "type": "Feature", "properties": { "fid": 127211, "CNPJ": "23512045000140", "IDCIDADE": "SANTA_ALBERTINA", "NOMEFANTASIA": "MINI_MERCADO_CORUJAO", "RAZAOSOCIAL": "LEONICE_VITORIA_COLOMBO_LOPES", "ENDEE": "AVENIDA_FRANCISCO_SCHIMIDT659__CENTRO_15750-001", "LMAPS": "https://www.google.com/maps?q=&layer=c&cbll=-20.0353867,-50.7258736", "O_QUE_FAZER": "FINALIZADO", "ER_REGIAO_CIDADE_min": "Santa Albertina_Votuporanga" }, "geometry": { "type": "Point", "coordinates": [ -50.7258736, -20.0353867 ] } },
{ "type": "Feature", "properties": { "fid": 134897, "CNPJ": "25065413000185", "IDCIDADE": "SANTA_ALBERTINA", "NOMEFANTASIA": "SNDRADE_CONSTRUCOES", "RAZAOSOCIAL": "MARCELO_HENRIQUE_DA_SILVEIRA_ANDRADE", "ENDEE": "AVENIDA_FRANCISCO_SCHIMIDT904__CENTRO_15750-000", "LMAPS": "https://www.google.com/maps?q=&layer=c&cbll=-20.0337054,-50.7273052", "O_QUE_FAZER": "CARTEIRA", "ER_REGIAO_CIDADE_min": "Santa Albertina_Votuporanga" }, "geometry": { "type": "Point", "coordinates": [ -50.7273052, -20.0337054 ] } },
{ "type": "Feature", "properties": { "fid": 137113, "CNPJ": "26048689000118", "IDCIDADE": "SANTA_ALBERTINA", "NOMEFANTASIA": "RESTAURANTE_DA_TATINHA", "RAZAOSOCIAL": "TAINARA_FERNANDA_PIANI", "ENDEE": "AVENIDA_FRANCISCO_SCHIMIDT540__CENTRO_15750-001", "LMAPS": "https://www.google.com/maps?q=&layer=c&cbll=-20.0361255,-50.7248895", "O_QUE_FAZER": "FINALIZADO", "ER_REGIAO_CIDADE_min": "Santa Albertina_Votuporanga" }, "geometry": { "type": "Point", "coordinates": [ -50.7248895, -20.0361255 ] } },
{ "type": "Feature", "properties": { "fid": 141777, "CNPJ": "26928536000165", "IDCIDADE": "SANTA_ALBERTINA", "NOMEFANTASIA": "ARCO_IRES", "RAZAOSOCIAL": "FELIPPE_TEIXEIRA_DE_GODOI", "ENDEE": "AVENIDA_FRANCISCO_SCHIMIDT860__CENTRO_15750-009", "LMAPS": "https://www.google.com/maps?q=&layer=c&cbll=-20.0338223,-50.7269032", "O_QUE_FAZER": "FINALIZADO", "ER_REGIAO_CIDADE_min": "Santa Albertina_Votuporanga" }, "geometry": { "type": "Point", "coordinates": [ -50.7269032, -20.0338223 ] } },
{ "type": "Feature", "properties": { "fid": 143006, "CNPJ": "27193315000159", "IDCIDADE": "SANTA_ALBERTINA", "NOMEFANTASIA": "MAMEDE_GAS", "RAZAOSOCIAL": "SILVA_GAS_SANTA_ALBERTINA_LTDA", "ENDEE": "RUA_GABRIEL_GONZALES1071__CENTRO_15750-031", "LMAPS": "https://www.google.com/maps?q=&layer=c&cbll=-20.0307675,-50.7268264", "O_QUE_FAZER": "FINALIZADO", "ER_REGIAO_CIDADE_min": "Santa Albertina_Votuporanga" }, "geometry": { "type": "Point", "coordinates": [ -50.7268264, -20.0307675 ] } },
{ "type": "Feature", "properties": { "fid": 149119, "CNPJ": "28324607000146", "IDCIDADE": "SANTA_ALBERTINA", "NOMEFANTASIA": "FEMINICES_DA_NATI", "RAZAOSOCIAL": "FEMINICES_DA_NATI", "ENDEE": "ALCIDES_AMBROSIO_GONCALVES850__CENTRO_15750-037", "LMAPS": "https://www.google.com/maps?q=&layer=c&cbll=-20.0369105,-50.7293288", "O_QUE_FAZER": "FINALIZADO", "ER_REGIAO_CIDADE_min": "Santa Albertina_Votuporanga" }, "geometry": { "type": "Point", "coordinates": [ -50.7293288, -20.0369105 ] } },
{ "type": "Feature", "properties": { "fid": 150882, "CNPJ": "28654865000190", "IDCIDADE": "SANTA_ALBERTINA", "NOMEFANTASIA": "SABOR_MAIS_PANIFICADORA_E_CONFEITARIA", "RAZAOSOCIAL": "CICERO_ALVES_LIMA", "ENDEE": "RUA_OLIMPIO_ESTEVAO_DE_LACERDA1201__CENTRO_15750-001", "LMAPS": "https://www.google.com/maps?q=&layer=c&cbll=-20.0344007,-50.7321214", "O_QUE_FAZER": "FINALIZADO", "ER_REGIAO_CIDADE_min": "Santa Albertina_Votuporanga" }, "geometry": { "type": "Point", "coordinates": [ -50.7321214, -20.0344007 ] } },
{ "type": "Feature", "properties": { "fid": 153119, "CNPJ": "29075258000139", "IDCIDADE": "SANTA_ALBERTINA", "NOMEFANTASIA": "BOM_APETITE", "RAZAOSOCIAL": "BOM_APETITE", "ENDEE": "FRANCISCO_SCHIMIDT904__CENTRO_15750-009", "LMAPS": "https://www.google.com/maps?q=&layer=c&cbll=-20.03368,-50.727269", "O_QUE_FAZER": "FINALIZADO", "ER_REGIAO_CIDADE_min": "Santa Albertina_Votuporanga" }, "geometry": { "type": "Point", "coordinates": [ -50.727269, -20.03368 ] } },
{ "type": "Feature", "properties": { "fid": 154063, "CNPJ": "29242098000175", "IDCIDADE": "SANTA_ALBERTINA", "NOMEFANTASIA": "AZARITI_TELECOM", "RAZAOSOCIAL": "ANDRE_L._AZARITI_&_CIA_LTDA", "ENDEE": "AVENIDA_FRANCISCO_SCHIMIDT1124__CENTRO_15750-000", "LMAPS": "https://www.google.com/maps?q=&layer=c&cbll=-20.0322562,-50.7287951", "O_QUE_FAZER": "CARTEIRA", "ER_REGIAO_CIDADE_min": "Santa Albertina_Votuporanga" }, "geometry": { "type": "Point", "coordinates": [ -50.7287951, -20.0322562 ] } },
{ "type": "Feature", "properties": { "fid": 155584, "CNPJ": "29582551000192", "IDCIDADE": "SANTA ALBERTINA", "NOMEFANTASIA": "TORO_PINTURA_AUTOMOTIVA", "RAZAOSOCIAL": "RENAN_LUIZ_TORO_LTDA", "ENDEE": "RUA MIGUEL IGRECIAS, 1274, RECANTO DO SOL, 15750-000, SANTA ALBERTINA, SP, BRASIL", "LMAPS": "https://www.google.com/maps?q=&layer=c&cbll=-20.0244533,-50.7273815", "O_QUE_FAZER": "CARTEIRA - FAMPE", "ER_REGIAO_CIDADE_min": "Santa Albertina_Votuporanga" }, "geometry": { "type": "Point", "coordinates": [ -50.7273815, -20.0244533 ] } },
{ "type": "Feature", "properties": { "fid": 157032, "CNPJ": "29858173000127", "IDCIDADE": "SANTA_ALBERTINA", "NOMEFANTASIA": "RONI_CESAR_SANT_ANNA_DANTAS", "RAZAOSOCIAL": "RONI_CESAR_SANT_ANNA_DANTAS_LTDA", "ENDEE": "AVENIDA_FRANCISCO_SCHIMIDT679__CENTRO_01575-009", "LMAPS": "https://www.google.com/maps?q=&layer=c&cbll=-20.035349,-50.7260221", "O_QUE_FAZER": "FINALIZADO", "ER_REGIAO_CIDADE_min": "Santa Albertina_Votuporanga" }, "geometry": { "type": "Point", "coordinates": [ -50.7260221, -20.035349 ] } },
{ "type": "Feature", "properties": { "fid": 165026, "CNPJ": "31422495000170", "IDCIDADE": "SANTA_ALBERTINA", "NOMEFANTASIA": "EXPLOSAO__DE_SABORES", "RAZAOSOCIAL": "EXPLOSAO__DE_SABORES", "ENDEE": "FRANCISCO_SCHIMIDT771__CENTRO_15750-009", "LMAPS": "https://www.google.com/maps?q=&layer=c&cbll=-20.0346882,-50.7266716", "O_QUE_FAZER": "FINALIZADO", "ER_REGIAO_CIDADE_min": "Santa Albertina_Votuporanga" }, "geometry": { "type": "Point", "coordinates": [ -50.7266716, -20.0346882 ] } },
{ "type": "Feature", "properties": { "fid": 165879, "CNPJ": "31583718000181", "IDCIDADE": "SANTA_ALBERTINA", "NOMEFANTASIA": "Q_BONITA__MODAS", "RAZAOSOCIAL": "Q_BONITA__MODAS", "ENDEE": "FRANCISCO_SCHIMIDT964__CENTRO_15750-009", "LMAPS": "https://www.google.com/maps?q=&layer=c&cbll=-20.0351733,-50.725819", "O_QUE_FAZER": "FINALIZADO", "ER_REGIAO_CIDADE_min": "Santa Albertina_Votuporanga" }, "geometry": { "type": "Point", "coordinates": [ -50.725819, -20.0351733 ] } },
{ "type": "Feature", "properties": { "fid": 168428, "CNPJ": "32100609000129", "IDCIDADE": "SANTA_ALBERTINA", "NOMEFANTASIA": null, "RAZAOSOCIAL": "FACILITE_REPRESENTACOES_MATERIAL_DE_CONSTRUCAO_LTDA", "ENDEE": "RUA_SENHORA NEUSA MARIA SAR CHANQUETTE_143_RESIDENCIAIS FAZENDA ITAPEMA_13485-528_SANTA_ALBERTINA", "LMAPS": "https://www.google.com/maps?q=&layer=c&cbll=-20.0331531,-50.7279922", "O_QUE_FAZER": "APLICAR T2", "ER_REGIAO_CIDADE_min": "Santa Albertina_Votuporanga" }, "geometry": { "type": "Point", "coordinates": [ -50.7279922, -20.0331531 ] } },
{ "type": "Feature", "properties": { "fid": 170710, "CNPJ": "32598136000131", "IDCIDADE": "SANTA_ALBERTINA", "NOMEFANTASIA": "FUNERARIA_SANTA_ALBERTINA", "RAZAOSOCIAL": "FRANCO_&_MAZETE_LTDA", "ENDEE": "AVENIDA_FRANCISCO_SCHMIDT1376__CENTRO_15750-000", "LMAPS": "https://www.google.com/maps?q=&layer=c&cbll=-20.0305577,-50.73044", "O_QUE_FAZER": "CARTEIRA", "ER_REGIAO_CIDADE_min": "Santa Albertina_Votuporanga" }, "geometry": { "type": "Point", "coordinates": [ -50.73044, -20.0305577 ] } },
{ "type": "Feature", "properties": { "fid": 178540, "CNPJ": "34101161000193", "IDCIDADE": "SANTA_ALBERTINA", "NOMEFANTASIA": "ABBA_HOTEL", "RAZAOSOCIAL": "ABBA_HOTEL_LTDA", "ENDEE": "RUA_ALCIDES_AMBROSIO_GONCALVES741__CENTRO_15750-037", "LMAPS": "https://www.google.com/maps?q=&layer=c&cbll=-20.0347703,-50.7270985", "O_QUE_FAZER": "FINALIZADO", "ER_REGIAO_CIDADE_min": "Santa Albertina_Votuporanga" }, "geometry": { "type": "Point", "coordinates": [ -50.7270985, -20.0347703 ] } },
{ "type": "Feature", "properties": { "fid": 180534, "CNPJ": "34495917000126", "IDCIDADE": "SANTA_ALBERTINA", "NOMEFANTASIA": "MARKI_CELULARES", "RAZAOSOCIAL": "MARKI_CELULARES", "ENDEE": "FRANCISCO_SCHMIDT1148__CENTRO_15750-009", "LMAPS": "https://www.google.com/maps?q=&layer=c&cbll=-20.0364612,-50.7246817", "O_QUE_FAZER": "FINALIZADO", "ER_REGIAO_CIDADE_min": "Santa Albertina_Votuporanga" }, "geometry": { "type": "Point", "coordinates": [ -50.7246817, -20.0364612 ] } },
{ "type": "Feature", "properties": { "fid": 181791, "CNPJ": "34749057000100", "IDCIDADE": "SANTA_ALBERTINA", "NOMEFANTASIA": "BARIANI_MOTO_PECAS_E_OFICINA", "RAZAOSOCIAL": "BARIANI_MOTO_PECAS_E_OFICINA", "ENDEE": "FRANCISCO_SCHMIDT40123__CENTRO_15750-009", "LMAPS": "https://www.google.com/maps?q=&layer=c&cbll=-20.0331763,-50.7280534", "O_QUE_FAZER": "FINALIZADO", "ER_REGIAO_CIDADE_min": "Santa Albertina_Votuporanga" }, "geometry": { "type": "Point", "coordinates": [ -50.7280534, -20.0331763 ] } },
{ "type": "Feature", "properties": { "fid": 184963, "CNPJ": "35426375000100", "IDCIDADE": "SANTA_ALBERTINA", "NOMEFANTASIA": "DROGARIA_SANTA_ALBERTINA", "RAZAOSOCIAL": "DROGARIA_TOTAL_SANTA_ALBERTINA_LTDA", "ENDEE": "AVENIDA_FRANCISCO_SCHIMIDT903__CENTRO_15750-000", "LMAPS": "https://www.google.com/maps?q=&layer=c&cbll=-20.0339278,-50.7275067", "O_QUE_FAZER": "CARTEIRA", "ER_REGIAO_CIDADE_min": "Santa Albertina_Votuporanga" }, "geometry": { "type": "Point", "coordinates": [ -50.7275067, -20.0339278 ] } },
{ "type": "Feature", "properties": { "fid": 194190, "CNPJ": "37537542000108", "IDCIDADE": "RIOLANDIA", "NOMEFANTASIA": "WASHINGTON_DO_AMORIM_SANTOS", "RAZAOSOCIAL": "SHEER_ADVENTURE", "ENDEE": "AVENIDA_111104__CENTRO_15497-014", "LMAPS": "https://www.google.com/maps?q=&layer=c&cbll=-20.03303,-50.727247", "O_QUE_FAZER": "FINALIZADO", "ER_REGIAO_CIDADE_min": "Santa Albertina_Votuporanga" }, "geometry": { "type": "Point", "coordinates": [ -50.727247, -20.03303 ] } },
{ "type": "Feature", "properties": { "fid": 194468, "CNPJ": "37587900000197", "IDCIDADE": "SANTA_ALBERTINA", "NOMEFANTASIA": "AUTO_MECANICA__NOVA_MECANICA", "RAZAOSOCIAL": "AUTO_MECANICA__NOVA_MECANICA", "ENDEE": "AVENIDA_ANTONIO_GERALDO_FEBOLI__342_15750-100", "LMAPS": "https://www.google.com/maps?q=&layer=c&cbll=-20.0331384,-50.7279818", "O_QUE_FAZER": "FINALIZADO", "ER_REGIAO_CIDADE_min": "Santa Albertina_Votuporanga" }, "geometry": { "type": "Point", "coordinates": [ -50.7279818, -20.0331384 ] } },
{ "type": "Feature", "properties": { "fid": 203529, "CNPJ": "39910650000100", "IDCIDADE": "SANTA_ALBERTINA", "NOMEFANTASIA": "MAZALL8_BIKE", "RAZAOSOCIAL": "MAZALL8_BIKE", "ENDEE": "RUA_GABRIEL_GONZALES__954_15750-031", "LMAPS": "https://www.google.com/maps?q=&layer=c&cbll=-20.0315737,-50.7274469", "O_QUE_FAZER": "FINALIZADO", "ER_REGIAO_CIDADE_min": "Santa Albertina_Votuporanga" }, "geometry": { "type": "Point", "coordinates": [ -50.7274469, -20.0315737 ] } },
{ "type": "Feature", "properties": { "fid": 206047, "CNPJ": "40564290000110", "IDCIDADE": "SANTA_ALBERTINA", "NOMEFANTASIA": "JOINHA_CONSULTORIA_EM_GESTAO_EMPRESARIAL", "RAZAOSOCIAL": "RAFAEL_SAMPAIO_CONSULTORIA_EM_GESTAO_EMPRESARIAL_LTDA", "ENDEE": "AVENIDA_FRANCISCO_SCHMIDT725__CENTRO_15750-000", "LMAPS": "https://www.google.com/maps?q=&layer=c&cbll=-20.0350572,-50.7263148", "O_QUE_FAZER": "CARTEIRA", "ER_REGIAO_CIDADE_min": "Santa Albertina_Votuporanga" }, "geometry": { "type": "Point", "coordinates": [ -50.7263148, -20.0350572 ] } },
{ "type": "Feature", "properties": { "fid": 206448, "CNPJ": "40671981000113", "IDCIDADE": "SANTA_ALBERTINA", "NOMEFANTASIA": "PIZZARIA_A_TABOQUINHA", "RAZAOSOCIAL": "JOAO_LEANDRO_DA_SILVA_LTDA", "ENDEE": "AVENIDA_FRANCISCO_SCHMIDT916__CENTRO_15750-000", "LMAPS": "https://www.google.com/maps?q=&layer=c&cbll=-20.0335383,-50.7272781", "O_QUE_FAZER": "CARTEIRA", "ER_REGIAO_CIDADE_min": "Santa Albertina_Votuporanga" }, "geometry": { "type": "Point", "coordinates": [ -50.7272781, -20.0335383 ] } },
{ "type": "Feature", "properties": { "fid": 209428, "CNPJ": "41450345000124", "IDCIDADE": "SANTA_ALBERTINA", "NOMEFANTASIA": "ACADEMIA_AMF_FITNESS", "RAZAOSOCIAL": "ACADEMIA_AMF_FITNESS_LTDA", "ENDEE": "AVENIDA_SILVIO_RALIO1007__CENTRO_15750-033", "LMAPS": "https://www.google.com/maps?q=&layer=c&cbll=-20.031726,-50.7266903", "O_QUE_FAZER": "FINALIZADO", "ER_REGIAO_CIDADE_min": "Santa Albertina_Votuporanga" }, "geometry": { "type": "Point", "coordinates": [ -50.7266903, -20.031726 ] } },
{ "type": "Feature", "properties": { "fid": 211868, "CNPJ": "42018736000137", "IDCIDADE": "SANTA_ALBERTINA", "NOMEFANTASIA": "MARMORARIA_E_PORCELANATARIA", "RAZAOSOCIAL": "MARMORARIA_E_PORCELANATARIA", "ENDEE": "AV._ANTONIO_GERALDO_FEBOLI318__JARDIM_MILITAO_01575-010", "LMAPS": "https://www.google.com/maps?q=&layer=c&cbll=-20.0374665,-50.7228784", "O_QUE_FAZER": "FINALIZADO", "ER_REGIAO_CIDADE_min": "Santa Albertina_Votuporanga" }, "geometry": { "type": "Point", "coordinates": [ -50.7228784, -20.0374665 ] } },
{ "type": "Feature", "properties": { "fid": 214205, "CNPJ": "42542569000129", "IDCIDADE": "SANTA_ALBERTINA", "NOMEFANTASIA": "DROGA_MELLO", "RAZAOSOCIAL": "DROGA_MELO_LTDA", "ENDEE": "AVENIDA_FRANCISCO_SCHIMIDT1144__CENTRO_15750-009", "LMAPS": "https://www.google.com/maps?q=&layer=c&cbll=-20.0320858,-50.7289121", "O_QUE_FAZER": "FINALIZADO", "ER_REGIAO_CIDADE_min": "Santa Albertina_Votuporanga" }, "geometry": { "type": "Point", "coordinates": [ -50.7289121, -20.0320858 ] } },
{ "type": "Feature", "properties": { "fid": 216906, "CNPJ": "43135178000152", "IDCIDADE": "SANTA_ALBERTINA", "NOMEFANTASIA": "UTI_FONE__ASSISTENCIA__TECNICA", "RAZAOSOCIAL": "UTI_FONE__ASSISTENCIA__TECNICA", "ENDEE": "FRANCISCO_SCHIMIDT904__CENTRO_15750-009", "LMAPS": "https://www.google.com/maps?q=&layer=c&cbll=-20.03368,-50.727269", "O_QUE_FAZER": "FINALIZADO", "ER_REGIAO_CIDADE_min": "Santa Albertina_Votuporanga" }, "geometry": { "type": "Point", "coordinates": [ -50.727269, -20.03368 ] } },
{ "type": "Feature", "properties": { "fid": 222156, "CNPJ": "44195407000197", "IDCIDADE": "SANTA_ALBERTINA", "NOMEFANTASIA": "FELIX_MECANICA", "RAZAOSOCIAL": "FELIX_MECANICA", "ENDEE": "ANTONIO_GERALDO_FEBOLI294__RESIDENCIAL_E_COMERCIAL_MILITAO_15750-100", "LMAPS": "https://www.google.com/maps?q=&layer=c&cbll=-20.0331384,-50.7279818", "O_QUE_FAZER": "FINALIZADO", "ER_REGIAO_CIDADE_min": "Santa Albertina_Votuporanga" }, "geometry": { "type": "Point", "coordinates": [ -50.7279818, -20.0331384 ] } },
{ "type": "Feature", "properties": { "fid": 225028, "CNPJ": "44804350000186", "IDCIDADE": "SANTA_ALBERTINA", "NOMEFANTASIA": "RESTAURANTE_CORTEZ", "RAZAOSOCIAL": "JOSE_NIVALDO_CORTEZ_LTDA", "ENDEE": "AVENIDA_FRANCISCO_SCHMIDT1117__CENTRO_15750-025", "LMAPS": "https://www.google.com/maps?q=&layer=c&cbll=-20.0324996,-50.728886", "O_QUE_FAZER": "FINALIZADO", "ER_REGIAO_CIDADE_min": "Santa Albertina_Votuporanga" }, "geometry": { "type": "Point", "coordinates": [ -50.728886, -20.0324996 ] } },
{ "type": "Feature", "properties": { "fid": 225199, "CNPJ": "44851369000183", "IDCIDADE": "SANTA ALBERTINA", "NOMEFANTASIA": "-", "RAZAOSOCIAL": "44.851.369_ANDERSON_TOZARINI", "ENDEE": "RUA OLIMPIO ESTEVAO DE LACERDA, 731, RESIDENCIAL ADESCAU III, 15751-000, SANTA ALBERTINA, SP, BRASIL", "LMAPS": "https://www.google.com/maps?q=&layer=c&cbll=-20.0360649,-50.7300588", "O_QUE_FAZER": "CARTEIRA - FAMPE", "ER_REGIAO_CIDADE_min": "Santa Albertina_Votuporanga" }, "geometry": { "type": "Point", "coordinates": [ -50.7300588, -20.0360649 ] } },
{ "type": "Feature", "properties": { "fid": 235992, "CNPJ": "47079690000180", "IDCIDADE": "SANTA_ALBERTINA", "NOMEFANTASIA": "IMPERIO__DA_LIMPEZA", "RAZAOSOCIAL": "IMPERIO__DA_LIMPEZA", "ENDEE": "FRANCISCO_SCHMIDT1109__CENTRO_15750-009", "LMAPS": "https://www.google.com/maps?q=&layer=c&cbll=-20.0324944,-50.7289054", "O_QUE_FAZER": "FINALIZADO", "ER_REGIAO_CIDADE_min": "Santa Albertina_Votuporanga" }, "geometry": { "type": "Point", "coordinates": [ -50.7289054, -20.0324944 ] } },
{ "type": "Feature", "properties": { "fid": 239546, "CNPJ": "47825910000177", "IDCIDADE": "SANTA_ALBERTINA", "NOMEFANTASIA": "MEL_.CAFE", "RAZAOSOCIAL": "MEL.CAFE_LTDA", "ENDEE": "AVENIDA_FRANCISCO_SCHIMIDT704__CENTRO_15750-000", "LMAPS": "https://www.google.com/maps?q=&layer=c&cbll=-20.0349812,-50.7259958", "O_QUE_FAZER": "CARTEIRA", "ER_REGIAO_CIDADE_min": "Santa Albertina_Votuporanga" }, "geometry": { "type": "Point", "coordinates": [ -50.7259958, -20.0349812 ] } },
{ "type": "Feature", "properties": { "fid": 240166, "CNPJ": "47956284000158", "IDCIDADE": "SANTA_ALBERTINA", "NOMEFANTASIA": "TIMBAS_BARBER_SHOP", "RAZAOSOCIAL": "TIMBAS_BARBER_SHOP", "ENDEE": "FRANCISCO_SCHMIDT763__CENTRO_15750-000", "LMAPS": "https://www.google.com/maps?q=&layer=c&cbll=-20.034768,-50.726511", "O_QUE_FAZER": "FINALIZADO", "ER_REGIAO_CIDADE_min": "Santa Albertina_Votuporanga" }, "geometry": { "type": "Point", "coordinates": [ -50.726511, -20.034768 ] } },
{ "type": "Feature", "properties": { "fid": 241108, "CNPJ": "48145657000173", "IDCIDADE": "SANTA_ALBERTINA", "NOMEFANTASIA": "E.M_CELL", "RAZAOSOCIAL": "E.M_CELL", "ENDEE": "ALCIDES_AMBROSIO_GONCALVES802__CENTRO_15750-037", "LMAPS": "https://www.google.com/maps?q=&layer=c&cbll=-20.0344121,-50.7264252", "O_QUE_FAZER": "FINALIZADO", "ER_REGIAO_CIDADE_min": "Santa Albertina_Votuporanga" }, "geometry": { "type": "Point", "coordinates": [ -50.7264252, -20.0344121 ] } },
{ "type": "Feature", "properties": { "fid": 241695, "CNPJ": "48270669000120", "IDCIDADE": "SANTA ALBERTINA", "NOMEFANTASIA": "-", "RAZAOSOCIAL": "48.270.669_VALDETE_COSTA_DA_SILVA", "ENDEE": "RUA PARA, 30, RESIDENCIAL ADESCAU, 15751-094, SANTA ALBERTINA, SP, BRASIL", "LMAPS": "https://www.google.com/maps?q=&layer=c&cbll=-20.036122,-50.7351434", "O_QUE_FAZER": "CARTEIRA - FAMPE", "ER_REGIAO_CIDADE_min": "Santa Albertina_Votuporanga" }, "geometry": { "type": "Point", "coordinates": [ -50.7351434, -20.036122 ] } },
{ "type": "Feature", "properties": { "fid": 241894, "CNPJ": "48307581000135", "IDCIDADE": "SANTA_ALBERTINA", "NOMEFANTASIA": "TECIDOS_3_S", "RAZAOSOCIAL": "TERRADAS_&_GUARNIERE_LTDA", "ENDEE": "AVENIDA_FRANCISCO_SCHMIDT930__CENTRO_15750-009", "LMAPS": "https://www.google.com/maps?q=&layer=c&cbll=-20.0334783,-50.7273555", "O_QUE_FAZER": "FINALIZADO", "ER_REGIAO_CIDADE_min": "Santa Albertina_Votuporanga" }, "geometry": { "type": "Point", "coordinates": [ -50.7273555, -20.0334783 ] } },
{ "type": "Feature", "properties": { "fid": 245679, "CNPJ": "49111198000170", "IDCIDADE": "SANTA_ALBERTINA", "NOMEFANTASIA": "MILITAO_MATERIAL_DE_CONSTRUCAO", "RAZAOSOCIAL": "IRMAOS_MILITAO_LTDA", "ENDEE": "AVENIDA_FRANCISCO_SCHMIDT400__CENTRO_15750-000", "LMAPS": "https://www.google.com/maps?q=&layer=c&cbll=-20.0366952,-50.7238702", "O_QUE_FAZER": "CARTEIRA", "ER_REGIAO_CIDADE_min": "Santa Albertina_Votuporanga" }, "geometry": { "type": "Point", "coordinates": [ -50.7238702, -20.0366952 ] } },
{ "type": "Feature", "properties": { "fid": 252730, "CNPJ": "50560010000150", "IDCIDADE": "SANTA_ALBERTINA", "NOMEFANTASIA": "GOUVEIA_MOVEIS", "RAZAOSOCIAL": "AGENOR_GOUVEIA_&_CIA._LTDA", "ENDEE": "AVENIDA_FRANCISCO_SCHIMIDT1065__CENTRO_15750-000", "LMAPS": "https://www.google.com/maps?q=&layer=c&cbll=-20.032825,-50.7286298", "O_QUE_FAZER": "CARTEIRA", "ER_REGIAO_CIDADE_min": "Santa Albertina_Votuporanga" }, "geometry": { "type": "Point", "coordinates": [ -50.7286298, -20.032825 ] } },
{ "type": "Feature", "properties": { "fid": 254402, "CNPJ": "50878126000131", "IDCIDADE": "SANTA_ALBERTINA", "NOMEFANTASIA": "CASA_DE_CARNES_J.M", "RAZAOSOCIAL": "J.M_DANTAS_BERNARDO_LTDA", "ENDEE": "AVENIDA_FRANCISCO_SCHIMIDT653__CENTRO_15750-000", "LMAPS": "https://www.google.com/maps?q=&layer=c&cbll=-20.0354288,-50.7258737", "O_QUE_FAZER": "CARTEIRA", "ER_REGIAO_CIDADE_min": "Santa Albertina_Votuporanga" }, "geometry": { "type": "Point", "coordinates": [ -50.7258737, -20.0354288 ] } },
{ "type": "Feature", "properties": { "fid": 262536, "CNPJ": "52502913000100", "IDCIDADE": "SANTA_ALBERTINA", "NOMEFANTASIA": "MARIA_MODAS", "RAZAOSOCIAL": "ELIANE_LEPRE_DE_SOUZA_CARDOZO", "ENDEE": "AVENIDA_FRANCISCO_SCHMIDT974__CENTRO_15750-009", "LMAPS": "https://www.google.com/maps?q=&layer=c&cbll=-20.0331843,-50.7277864", "O_QUE_FAZER": "FINALIZADO", "ER_REGIAO_CIDADE_min": "Santa Albertina_Votuporanga" }, "geometry": { "type": "Point", "coordinates": [ -50.7277864, -20.0331843 ] } },
{ "type": "Feature", "properties": { "fid": 265376, "CNPJ": "53115606000139", "IDCIDADE": "SANTA_ALBERTINA", "NOMEFANTASIA": "BAZAR_LEONEL", "RAZAOSOCIAL": "BAZAR_LEONEL_LTDA", "ENDEE": "AVENIDA_FRANCISCO_SCHIMIDT835__CENTRO_15750-009", "LMAPS": "https://www.google.com/maps?q=&layer=c&cbll=-20.0343284,-50.7270257", "O_QUE_FAZER": "FINALIZADO", "ER_REGIAO_CIDADE_min": "Santa Albertina_Votuporanga" }, "geometry": { "type": "Point", "coordinates": [ -50.7270257, -20.0343284 ] } },
{ "type": "Feature", "properties": { "fid": 265503, "CNPJ": "53145300000125", "IDCIDADE": "SANTA_ALBERTINA", "NOMEFANTASIA": "JOAO__CAR_AUTO_ELETRICA__INJECAO__ELTRONICA", "RAZAOSOCIAL": "JOAO__CAR_AUTO_ELETRICA__INJECAO__ELTRONICA", "ENDEE": "FREDERICO_GNANN306__RESIDENCIAL_E_COMERCIAL_MILITAO_15750-108", "LMAPS": "https://www.google.com/maps?q=&layer=c&cbll=-20.0367794,-50.7229568", "O_QUE_FAZER": "APLICAR T4", "ER_REGIAO_CIDADE_min": "Santa Albertina_Votuporanga" }, "geometry": { "type": "Point", "coordinates": [ -50.7229568, -20.0367794 ] } },
{ "type": "Feature", "properties": { "fid": 279682, "CNPJ": "56704050000104", "IDCIDADE": "SANTA_ALBERTINA", "NOMEFANTASIA": "OTICA__SANTA__LUZIA", "RAZAOSOCIAL": "OTICA__SANTA__LUZIA", "ENDEE": "BENEDITO_DE_ABREU844__CENTRO_15750-035", "LMAPS": "https://www.google.com/maps?q=&layer=c&cbll=-20.0363635,-50.7299804", "O_QUE_FAZER": "FINALIZADO", "ER_REGIAO_CIDADE_min": "Santa Albertina_Votuporanga" }, "geometry": { "type": "Point", "coordinates": [ -50.7299804, -20.0363635 ] } },
{ "type": "Feature", "properties": { "fid": 280642, "CNPJ": "57087587000135", "IDCIDADE": "SANTA_ALBERTINA", "NOMEFANTASIA": "PANIFICADORA_E_CONFEITARIA_SAO_LUIZ", "RAZAOSOCIAL": "LUIZ_CARLOS_LINO_PINTO", "ENDEE": "AVENIDA_FRANCISCO_SCHMIDT36__CENTRO_15750-000", "LMAPS": "https://www.google.com/maps?q=&layer=c&cbll=-20.0361942,-50.7247231", "O_QUE_FAZER": "CARTEIRA", "ER_REGIAO_CIDADE_min": "Santa Albertina_Votuporanga" }, "geometry": { "type": "Point", "coordinates": [ -50.7247231, -20.0361942 ] } },
{ "type": "Feature", "properties": { "fid": 282180, "CNPJ": "57495559000157", "IDCIDADE": "SANTA_ALBERTINA", "NOMEFANTASIA": "SUPRIA_SABOR_DA_FRUTA", "RAZAOSOCIAL": "SUPRIA_SABOR_DA_FRUTA", "ENDEE": "FRANCISCO_SCHIMIDT845__CENTRO_15750-009", "LMAPS": "https://www.google.com/maps?q=&layer=c&cbll=-20.034208,-50.727052", "O_QUE_FAZER": "FINALIZADO", "ER_REGIAO_CIDADE_min": "Santa Albertina_Votuporanga" }, "geometry": { "type": "Point", "coordinates": [ -50.727052, -20.034208 ] } },
{ "type": "Feature", "properties": { "fid": 285636, "CNPJ": "58501899000106", "IDCIDADE": "SANTA_ALBERTINA", "NOMEFANTASIA": "CLINICA_DE_MOTORES", "RAZAOSOCIAL": "CLINICA_DE_MOTORES", "ENDEE": "SILVIO_RALIO1007__CENTRO_15750-033", "LMAPS": "https://www.google.com/maps?q=&layer=c&cbll=-20.0316188,-50.7267031", "O_QUE_FAZER": "FINALIZADO", "ER_REGIAO_CIDADE_min": "Santa Albertina_Votuporanga" }, "geometry": { "type": "Point", "coordinates": [ -50.7267031, -20.0316188 ] } },
{ "type": "Feature", "properties": { "fid": 290479, "CNPJ": "60074366000137", "IDCIDADE": "SANTA_ALBERTINA", "NOMEFANTASIA": "DROGARIA_MORAES", "RAZAOSOCIAL": "SONIA_MARIA_BUZETTI_GUTIERREZ", "ENDEE": "AVENIDA_FRANCISCO_SCHIMIDT865__CENTRO_15750-009", "LMAPS": "https://www.google.com/maps?q=&layer=c&cbll=-20.034178,-50.7273299", "O_QUE_FAZER": "FINALIZADO", "ER_REGIAO_CIDADE_min": "Santa Albertina_Votuporanga" }, "geometry": { "type": "Point", "coordinates": [ -50.7273299, -20.034178 ] } },
{ "type": "Feature", "properties": { "fid": 293251, "CNPJ": "61043126000138", "IDCIDADE": "SANTA_ALBERTINA", "NOMEFANTASIA": "AUTENTICA_STORE", "RAZAOSOCIAL": "AUTENTICA_STORE", "ENDEE": "FRANCISCO_SCHIMIDT919__CENTRO_15750-009", "LMAPS": "https://www.google.com/maps?q=&layer=c&cbll=-20.0347683,-50.7259936", "O_QUE_FAZER": "FINALIZADO", "ER_REGIAO_CIDADE_min": "Santa Albertina_Votuporanga" }, "geometry": { "type": "Point", "coordinates": [ -50.7259936, -20.0347683 ] } },
{ "type": "Feature", "properties": { "fid": 301714, "CNPJ": "65172896000131", "IDCIDADE": "SANTA_ALBERTINA", "NOMEFANTASIA": "OSMAR_DE_MORAES", "RAZAOSOCIAL": "OSMAR_DE_MORAES", "ENDEE": "FRANCISCO_SCHIMIDT655__CENTRO_15750-009", "LMAPS": "https://www.google.com/maps?q=&layer=c&cbll=-20.0355809,-50.7258131", "O_QUE_FAZER": "FINALIZADO", "ER_REGIAO_CIDADE_min": "Santa Albertina_Votuporanga" }, "geometry": { "type": "Point", "coordinates": [ -50.7258131, -20.0355809 ] } }
]
}
