{
"type": "FeatureCollection",
"name": "ER_REGIAO_CIDADE_min_Marília_Dirceu_Marília",
"crs": { "type": "name", "properties": { "name": "urn:ogc:def:crs:OGC:1.3:CRS84" } },
"xy_coordinate_resolution": 1e-15,
"features": [
{ "type": "Feature", "properties": { "CNPJ": "43961536000186", "IDCIDADE": "MARILIA", "NOMEFANTASIA": "SABRINA_NATALIN_DE_SOUZA_DA_SILVA_48087381807", "RAZAOSOCIAL": "SAH_MODAS", "ENDEE": "RUA_ARNALDO_SPACHI164__MARINA_MORETI_17512-522", "LATITUDE": "-22.1409543", "LONGITUDE": "-49.9582549", "LMAPS": "https://www.google.com/maps?q=&layer=c&cbll=-49.9582549,-22.1409543", "O_QUE_FAZER": "FINALIZADO", "ER_REGIAO_CIDADE_min": "Marília_Dirceu_Marília", "USO": "SIM" }, "geometry": { "type": "Point", "coordinates": [ -49.9582549, -22.1409543 ] } },
{ "type": "Feature", "properties": { "CNPJ": "16697222000145", "IDCIDADE": "MARILIA", "NOMEFANTASIA": "JF_SCUTTI", "RAZAOSOCIAL": "JOSE_FRANCISCO_SCUTTI", "ENDEE": "AVENIDA_SIGISMUNDO_NUNES_DE_OLIVEIRA1814__JARDIM_NAZARETH_17518-001", "LATITUDE": "-22.14306", "LONGITUDE": "-49.9400517", "LMAPS": "https://www.google.com/maps?q=&layer=c&cbll=-49.9400517,-22.14306", "O_QUE_FAZER": "CARTEIRA", "ER_REGIAO_CIDADE_min": "Marília_Dirceu_Marília", "USO": "SIM" }, "geometry": { "type": "Point", "coordinates": [ -49.9400517, -22.14306 ] } }
]
}
