{
"type": "FeatureCollection",
"name": "ER_REGIAO_CIDADE_min_Vista Alegre do Alto_Barretos",
"crs": { "type": "name", "properties": { "name": "urn:ogc:def:crs:OGC:1.3:CRS84" } },
"xy_coordinate_resolution": 1e-15,
"features": [
{ "type": "Feature", "properties": { "CNPJ": "29637291000105", "IDCIDADE": "VISTA_ALEGRE_DO_ALTO", "NOMEFANTASIA": "PADARIA_CAFE_&_CIA_LTDA", "RAZAOSOCIAL": "PADARIA_CAFE_E_CIA", "ENDEE": "AVENIDA_PIRANGI54__JARDIM_PAULISTA_15920-000", "LATITUDE": "-21.1696989", "LONGITUDE": "-48.628141", "LMAPS": "https://www.google.com/maps?q=&layer=c&cbll=-48.628141,-21.1696989", "O_QUE_FAZER": "FINALIZADO", "field_10": null, "field_11": null, "field_12": null, "field_13": null, "ER_REGIAO_CIDADE_min": "Vista Alegre do Alto_Barretos" }, "geometry": { "type": "Point", "coordinates": [ -48.628141, -21.1696989 ] } },
{ "type": "Feature", "properties": { "CNPJ": "32274574000144", "IDCIDADE": "VISTA_ALEGRE_DO_ALTO", "NOMEFANTASIA": "SERV_FESTA_VISTA_ALEGRE_DO_ALTO_LTDA", "RAZAOSOCIAL": "SERV_FESTA_", "ENDEE": "RUA_HERCULANO_DO_LIVRAMENTO234__CENTRO_15920-000", "LATITUDE": "-21.1754786", "LONGITUDE": "-48.6280631", "LMAPS": "https://www.google.com/maps?q=&layer=c&cbll=-48.6280631,-21.1754786", "O_QUE_FAZER": "FINALIZADO", "field_10": null, "field_11": null, "field_12": null, "field_13": null, "ER_REGIAO_CIDADE_min": "Vista Alegre do Alto_Barretos" }, "geometry": { "type": "Point", "coordinates": [ -48.6280631, -21.1754786 ] } },
{ "type": "Feature", "properties": { "CNPJ": "40221682000187", "IDCIDADE": "VISTA ALEGRE DO ALTO", "NOMEFANTASIA": null, "RAZAOSOCIAL": "GABRIEL_&_GABRIEL_COMERCIO_DE_RACOES_LTDA", "ENDEE": "RUA JOAO RICARDO DE MELLO, 88, CENTRO, 15920-000, VISTA ALEGRE DO ALTO, SP, BRASIL", "LATITUDE": "-21.1746402", "LONGITUDE": "-48.6307923", "LMAPS": "https://www.google.com/maps?q=&layer=c&cbll=-21.1746402,-48.6307923", "O_QUE_FAZER": "CARTEIRA - FAMPE", "field_10": null, "field_11": null, "field_12": null, "field_13": null, "ER_REGIAO_CIDADE_min": "Vista Alegre do Alto_Barretos" }, "geometry": { "type": "Point", "coordinates": [ -48.6307923, -21.1746402 ] } },
{ "type": "Feature", "properties": { "CNPJ": "34579865000176", "IDCIDADE": "VISTA ALEGRE DO ALTO", "NOMEFANTASIA": "SUKHA", "RAZAOSOCIAL": "SUKHA_LTDA", "ENDEE": "10A RUA TEUTLY CORREA DA ROCHA, 252, CENTRO, 15920-000, VISTA ALEGRE DO ALTO, SP, BRASIL", "LATITUDE": "-21.1676301", "LONGITUDE": "-48.6292524", "LMAPS": "https://www.google.com/maps?q=&layer=c&cbll=-21.1676301,-48.6292524", "O_QUE_FAZER": "CARTEIRA - FAMPE", "field_10": null, "field_11": null, "field_12": null, "field_13": null, "ER_REGIAO_CIDADE_min": "Vista Alegre do Alto_Barretos" }, "geometry": { "type": "Point", "coordinates": [ -48.6292524, -21.1676301 ] } }
]
}
