{
"type": "FeatureCollection",
"name": "ER_REGIAO_CIDADE_min_Joanópolis_Guarulhos",
"crs": { "type": "name", "properties": { "name": "urn:ogc:def:crs:OGC:1.3:CRS84" } },
"xy_coordinate_resolution": 1e-15,
"features": [
{ "type": "Feature", "properties": { "CNPJ": "12267063000198", "IDCIDADE": "GUARULHOS", "NOMEFANTASIA": "RESTAURANTE_POINT_DO_MARQUINHOS", "RAZAOSOCIAL": "POINT_DO_MARQUINHOS_RESTAURANTE_LTDA", "ENDEE": "RUA_ALZIMAR_VARGAS_BATISTA122__PARQUE_CONTINENTAL_I_07077-203", "LATITUDE": "-22.9060333", "LONGITUDE": "-46.1924933", "LMAPS": "https://www.google.com/maps?q=&layer=c&cbll=-46.1924933,-22.9060333", "O_QUE_FAZER": "CARTEIRA", "field_10": null, "field_11": null, "field_12": null, "field_13": null, "ER_REGIAO_CIDADE_min": "Joanópolis_Guarulhos" }, "geometry": { "type": "Point", "coordinates": [ -46.1924933, -22.9060333 ] } },
{ "type": "Feature", "properties": { "CNPJ": "29854694000106", "IDCIDADE": "JOANOPOLIS", "NOMEFANTASIA": "DANIEL_SOARES_DE_BRITO", "RAZAOSOCIAL": "MERCADINHO_VITORIA", "ENDEE": "RUA_SEBASTIAO_ZAPPA378__CENTRO_12980-000", "LATITUDE": "-22.9249988", "LONGITUDE": "-46.2784873", "LMAPS": "https://www.google.com/maps?q=&layer=c&cbll=-46.2784873,-22.9249988", "O_QUE_FAZER": "FINALIZADO", "field_10": null, "field_11": null, "field_12": null, "field_13": null, "ER_REGIAO_CIDADE_min": "Joanópolis_Guarulhos" }, "geometry": { "type": "Point", "coordinates": [ -46.2784873, -22.9249988 ] } },
{ "type": "Feature", "properties": { "CNPJ": "20919748000108", "IDCIDADE": "JOANOPOLIS", "NOMEFANTASIA": "ADINKRA_ESTUDIO_LTDA.", "RAZAOSOCIAL": "ADINKRA_ESTUDIO", "ENDEE": "RUA_NICOLA_VICENZO_CONDE79__JARDIM_SAO_LUIZ_12980-000", "LATITUDE": "-22.9346295", "LONGITUDE": "-46.2695383", "LMAPS": "https://www.google.com/maps?q=&layer=c&cbll=-46.2695383,-22.9346295", "O_QUE_FAZER": "FINALIZADO", "field_10": null, "field_11": null, "field_12": null, "field_13": null, "ER_REGIAO_CIDADE_min": "Joanópolis_Guarulhos" }, "geometry": { "type": "Point", "coordinates": [ -46.2695383, -22.9346295 ] } },
{ "type": "Feature", "properties": { "CNPJ": "09591973000117", "IDCIDADE": "JOANÓPOLIS", "NOMEFANTASIA": "JC PALETES", "RAZAOSOCIAL": "DALOSTT & DALOSTT MADEIRAS LTDA", "ENDEE": "RUA VICENTE RODRIGUES MARQUES, S/N, LOTE 38, JARDIM SAO JOAO II, 12980-000, JOANÓPOLIS, SP, BRASIL", "LATITUDE": "-22.9245874", "LONGITUDE": "-46.2782368", "LMAPS": "https://www.google.com/maps?q=&layer=c&cbll=-22.9245874,-46.2782368", "O_QUE_FAZER": "CARTEIRA - FAMPE", "field_10": null, "field_11": null, "field_12": null, "field_13": null, "ER_REGIAO_CIDADE_min": "Joanópolis_Guarulhos" }, "geometry": { "type": "Point", "coordinates": [ -46.2782368, -22.9245874 ] } },
{ "type": "Feature", "properties": { "CNPJ": "29378903000192", "IDCIDADE": "JOANÓPOLIS", "NOMEFANTASIA": "BIOFIT ACADEMIA", "RAZAOSOCIAL": "SUELEN MAYARA NEVES DOS SANTOS", "ENDEE": "RUA MAJOR JOAQUIM LUIZ, 359, CENTRO, 12980-000, JOANÓPOLIS, SP, BRASIL", "LATITUDE": "-22.9269505", "LONGITUDE": "-46.2752709", "LMAPS": "https://www.google.com/maps?q=&layer=c&cbll=-22.9269505,-46.2752709", "O_QUE_FAZER": "CARTEIRA - FAMPE", "field_10": null, "field_11": null, "field_12": null, "field_13": null, "ER_REGIAO_CIDADE_min": "Joanópolis_Guarulhos" }, "geometry": { "type": "Point", "coordinates": [ -46.2752709, -22.9269505 ] } },
{ "type": "Feature", "properties": { "CNPJ": "22719757000172", "IDCIDADE": "JOANÓPOLIS", "NOMEFANTASIA": null, "RAZAOSOCIAL": "LUIZ FERNANDO CASSALHO DE OLIVEIRA", "ENDEE": "RUA FIORAVANTE TUCCI, 60, CENTRO, 12980-000, JOANÓPOLIS, SP, BRASIL", "LATITUDE": "-22.9312369", "LONGITUDE": "-46.2743728", "LMAPS": "https://www.google.com/maps?q=&layer=c&cbll=-22.9312369,-46.2743728", "O_QUE_FAZER": "CARTEIRA - FAMPE", "field_10": null, "field_11": null, "field_12": null, "field_13": null, "ER_REGIAO_CIDADE_min": "Joanópolis_Guarulhos" }, "geometry": { "type": "Point", "coordinates": [ -46.2743728, -22.9312369 ] } },
{ "type": "Feature", "properties": { "CNPJ": "49951314000169", "IDCIDADE": "JOANÓPOLIS", "NOMEFANTASIA": "JM AGRO PET", "RAZAOSOCIAL": "JM AGRO PET LTDA", "ENDEE": "RUA ANSELMO CAPARICA, 412, CENTRO, 12980-000, JOANÓPOLIS, SP, BRASIL", "LATITUDE": "-22.9320006", "LONGITUDE": "-46.2724196", "LMAPS": "https://www.google.com/maps?q=&layer=c&cbll=-22.9320006,-46.2724196", "O_QUE_FAZER": "CARTEIRA - FAMPE", "field_10": null, "field_11": null, "field_12": null, "field_13": null, "ER_REGIAO_CIDADE_min": "Joanópolis_Guarulhos" }, "geometry": { "type": "Point", "coordinates": [ -46.2724196, -22.9320006 ] } },
{ "type": "Feature", "properties": { "CNPJ": "22444337000120", "IDCIDADE": "JOANÓPOLIS", "NOMEFANTASIA": "IMOBILIARIA VALE DAS AGUAS", "RAZAOSOCIAL": "NELSON CANDIDO IMOBILIARIA LTDA", "ENDEE": "RUA ANTONIO FERREIRA DE ALMEIDA, 347, CENTRO, 12980-000, JOANÓPOLIS, SP, BRASIL", "LATITUDE": "-22.9325105", "LONGITUDE": "-46.2777074", "LMAPS": "https://www.google.com/maps?q=&layer=c&cbll=-22.9325105,-46.2777074", "O_QUE_FAZER": "CARTEIRA - FAMPE", "field_10": null, "field_11": null, "field_12": null, "field_13": null, "ER_REGIAO_CIDADE_min": "Joanópolis_Guarulhos" }, "geometry": { "type": "Point", "coordinates": [ -46.2777074, -22.9325105 ] } },
{ "type": "Feature", "properties": { "CNPJ": "47311337000183", "IDCIDADE": "JOANÓPOLIS", "NOMEFANTASIA": "EMPORIO CACHOEIRA", "RAZAOSOCIAL": "EMPORIO CACHOEIRA ARTES & ARTIGOS COMERCIAL LTDA", "ENDEE": "RUA FRANCISCO WOHLERS, 448, JARDIM SAO LUIZ, 12980-000, JOANÓPOLIS, SP, BRASIL", "LATITUDE": "-22.9329038", "LONGITUDE": "-46.2699399", "LMAPS": "https://www.google.com/maps?q=&layer=c&cbll=-22.9329038,-46.2699399", "O_QUE_FAZER": "CARTEIRA - FAMPE", "field_10": null, "field_11": null, "field_12": null, "field_13": null, "ER_REGIAO_CIDADE_min": "Joanópolis_Guarulhos" }, "geometry": { "type": "Point", "coordinates": [ -46.2699399, -22.9329038 ] } },
{ "type": "Feature", "properties": { "CNPJ": "40408282000185", "IDCIDADE": "JOANÓPOLIS", "NOMEFANTASIA": null, "RAZAOSOCIAL": "POUSADA DA VILLA LTDA", "ENDEE": "RUA ESTR CAROLINO GONCALVES SILVEIRA BUENO-JNP, SN, PIRES, 12983-899, JOANÓPOLIS, SP, BRASIL", "LATITUDE": "-22.9366806", "LONGITUDE": "-46.2759068", "LMAPS": "https://www.google.com/maps?q=&layer=c&cbll=-22.9366806,-46.2759068", "O_QUE_FAZER": "CARTEIRA - FAMPE", "field_10": null, "field_11": null, "field_12": null, "field_13": null, "ER_REGIAO_CIDADE_min": "Joanópolis_Guarulhos" }, "geometry": { "type": "Point", "coordinates": [ -46.2759068, -22.9366806 ] } }
]
}
