{
"type": "FeatureCollection",
"name": "ER_REGIAO_CIDADE_min_Jaborandi_Barretos",
"crs": { "type": "name", "properties": { "name": "urn:ogc:def:crs:OGC:1.3:CRS84" } },
"xy_coordinate_resolution": 1e-15,
"features": [
{ "type": "Feature", "properties": { "CNPJ": "40806402000100", "IDCIDADE": "JABORANDI", "NOMEFANTASIA": "RAFAEL_GUIDEROLI_COSTA", "RAZAOSOCIAL": "PIT_STOP_MERCEARIA", "ENDEE": "RUA_ANTONIO_BRUNO444__CENTRO_14775-000", "LATITUDE": "-20.689082", "LONGITUDE": "-48.4143462", "LMAPS": "https://www.google.com/maps?q=&layer=c&cbll=-48.4143462,-20.689082", "O_QUE_FAZER": "FINALIZADO", "ER_REGIAO_CIDADE_min": "Jaborandi_Barretos" }, "geometry": { "type": "Point", "coordinates": [ -48.4143462, -20.689082 ] } }
]
}
