{
"type": "FeatureCollection",
"name": "ER_REGIAO_CIDADE_min_Mirassolândia_São José do Rio Preto",
"crs": { "type": "name", "properties": { "name": "urn:ogc:def:crs:OGC:1.3:CRS84" } },
"xy_coordinate_resolution": 1e-15,
"features": [
{ "type": "Feature", "properties": { "CNPJ": "04840124000136", "IDCIDADE": "MIRASSOLANDIA", "NOMEFANTASIA": "A.M_DE_MORAES_CARANANTE", "RAZAOSOCIAL": "A.M_DE_MORAES_CARANANTE", "ENDEE": "RUA_ANTONIO_BATISTA_RODRIGUES287__JARDIM_PRISCILA_15145-000", "LATITUDE": "-20.6171797", "LONGITUDE": "-49.4649943", "LMAPS": "https://www.google.com/maps?q=&layer=c&cbll=-49.4649943,-20.6171797", "O_QUE_FAZER": "FINALIZADO", "field_10": null, "field_11": null, "field_12": null, "field_13": null, "ER_REGIAO_CIDADE_min": "Mirassolândia_São José do Rio Preto" }, "geometry": { "type": "Point", "coordinates": [ -49.4649943, -20.6171797 ] } },
{ "type": "Feature", "properties": { "CNPJ": "15308674000125", "IDCIDADE": "MIRASSOLÂNDIA", "NOMEFANTASIA": "N & V SILVA TRATORES", "RAZAOSOCIAL": "N E V LOCACAO DE EQUIPAMENTOS AGRICOLAS LTDA", "ENDEE": "FAZENDA SAO JOAO, SN, CORREGO BALSAMO, 15145-000, MIRASSOLÂNDIA, SP, BRASIL", "LATITUDE": "-20.6139343", "LONGITUDE": "-49.4657278", "LMAPS": "https://www.google.com/maps?q=&layer=c&cbll=-20.6139343,-49.4657278", "O_QUE_FAZER": "CARTEIRA - FAMPE", "field_10": null, "field_11": null, "field_12": null, "field_13": null, "ER_REGIAO_CIDADE_min": "Mirassolândia_São José do Rio Preto" }, "geometry": { "type": "Point", "coordinates": [ -49.4657278, -20.6139343 ] } }
]
}
