{
"type": "FeatureCollection",
"name": "ER_REGIAO_CIDADE_min_Canitar_Ourinhos",
"crs": { "type": "name", "properties": { "name": "urn:ogc:def:crs:OGC:1.3:CRS84" } },
"xy_coordinate_resolution": 1e-15,
"features": [
{ "type": "Feature", "properties": { "CNPJ": "55422894000108", "IDCIDADE": "CANITAR", "NOMEFANTASIA": "-", "RAZAOSOCIAL": "55.422.894 CLEYSON GOUVEIA DA COSTA", "ENDEE": "RUA_MARIA JOSÉ GIMENES GIRALDI_184_MARK VILE_18990-483_CANITAR", "LATITUDE": "-22.997141", "LONGITUDE": "-49.7862367", "LMAPS": "https://www.google.com/maps?q=&layer=c&cbll=-22.997141,-49.7862367", "O_QUE_FAZER": "FINALIZADO", "field_10": null, "field_11": null, "field_12": null, "field_13": null, "ER_REGIAO_CIDADE_min": "Canitar_Ourinhos" }, "geometry": { "type": "Point", "coordinates": [ -49.7862367, -22.997141 ] } },
{ "type": "Feature", "properties": { "CNPJ": "16596141000159", "IDCIDADE": "CANITAR", "NOMEFANTASIA": "16.596.141_EVANDRO_CELSO_AUGUSTO_RIBEIRO", "RAZAOSOCIAL": "MAOS_DE_OBRA_INSTALACOES_E_REPAROS", "ENDEE": "RUA_PAULO_SERGIO_VIEIRA_DA_SILVA32__JARDIM_VITORIA_18990-600", "LATITUDE": "-23.004788", "LONGITUDE": "-49.7904259", "LMAPS": "https://www.google.com/maps?q=&layer=c&cbll=-49.7904259,-23.004788", "O_QUE_FAZER": "FINALIZADO", "field_10": null, "field_11": null, "field_12": null, "field_13": null, "ER_REGIAO_CIDADE_min": "Canitar_Ourinhos" }, "geometry": { "type": "Point", "coordinates": [ -49.7904259, -23.004788 ] } },
{ "type": "Feature", "properties": { "CNPJ": "10924809000163", "IDCIDADE": "CANITAR", "NOMEFANTASIA": "V._VERONEZ_MECANICA", "RAZAOSOCIAL": "SERDIESEL_OFICINA_MECANICA", "ENDEE": "RUA_VEREADOR_HELIO_GOUVEIA_DE_MELO65__DISTRITO_INDUSTRIAL_II_18990-034", "LATITUDE": "-23.0054595", "LONGITUDE": "-49.7831769", "LMAPS": "https://www.google.com/maps?q=&layer=c&cbll=-49.7831769,-23.0054595", "O_QUE_FAZER": "FINALIZADO", "field_10": null, "field_11": null, "field_12": null, "field_13": null, "ER_REGIAO_CIDADE_min": "Canitar_Ourinhos" }, "geometry": { "type": "Point", "coordinates": [ -49.7831769, -23.0054595 ] } },
{ "type": "Feature", "properties": { "CNPJ": "25152459000131", "IDCIDADE": "CANITAR", "NOMEFANTASIA": "25.152.459_VINICIUS_RIBEIRO_FIGUEIRA", "RAZAOSOCIAL": "SHOP_MIX", "ENDEE": "RUA_VEREADOR_PEDRO_MACEDO555__CENTRO_18990-154", "LATITUDE": "-23.0064405", "LONGITUDE": "-49.7859971", "LMAPS": "https://www.google.com/maps?q=&layer=c&cbll=-49.7859971,-23.0064405", "O_QUE_FAZER": "FINALIZADO", "field_10": null, "field_11": null, "field_12": null, "field_13": null, "ER_REGIAO_CIDADE_min": "Canitar_Ourinhos" }, "geometry": { "type": "Point", "coordinates": [ -49.7859971, -23.0064405 ] } },
{ "type": "Feature", "properties": { "CNPJ": "49860555000100", "IDCIDADE": "CANITAR", "NOMEFANTASIA": null, "RAZAOSOCIAL": "ROLIM HOLDING E PARTICIPACOES LTDA", "ENDEE": "AREA RURAL, S/N, AREA RURAL DE CANITAR, 18994-899, CANITAR, SP, BRASIL", "LATITUDE": "-23.0054595", "LONGITUDE": "-49.7831769", "LMAPS": "https://www.google.com/maps?q=&layer=c&cbll=-23.0054595,-49.7831769", "O_QUE_FAZER": "CARTEIRA - FAMPE", "field_10": null, "field_11": null, "field_12": null, "field_13": null, "ER_REGIAO_CIDADE_min": "Canitar_Ourinhos" }, "geometry": { "type": "Point", "coordinates": [ -49.7831769, -23.0054595 ] } },
{ "type": "Feature", "properties": { "CNPJ": "27922569000160", "IDCIDADE": "CANITAR", "NOMEFANTASIA": "THIAGO ADRIANO ESPOSTO DEUS E FIEL", "RAZAOSOCIAL": "THIAGO ADRIANO ESPOSTO LTDA", "ENDEE": "RUA JOAQUIM FELICIANO, 306, VILA MANOEL CABETE, 18990-186, CANITAR, SP, BRASIL", "LATITUDE": "-23.0063613", "LONGITUDE": "-49.7795259", "LMAPS": "https://www.google.com/maps?q=&layer=c&cbll=-23.0063613,-49.7795259", "O_QUE_FAZER": "CARTEIRA - FAMPE", "field_10": null, "field_11": null, "field_12": null, "field_13": null, "ER_REGIAO_CIDADE_min": "Canitar_Ourinhos" }, "geometry": { "type": "Point", "coordinates": [ -49.7795259, -23.0063613 ] } }
]
}
