{
"type": "FeatureCollection",
"name": "ER_REGIAO_CIDADE_min_Tupi Paulista_Tupi Paulista_Presidente Prudente",
"crs": { "type": "name", "properties": { "name": "urn:ogc:def:crs:OGC:1.3:CRS84" } },
"xy_coordinate_resolution": 1e-15,
"features": [
{ "type": "Feature", "properties": { "fid": 24, "CNPJ": "00002034000115", "IDCIDADE": "TUPI_PAULISTA", "NOMEFANTASIA": "DROGARIA_SAO_LUCAS", "RAZAOSOCIAL": "FABIO_ZATTE", "ENDEE": "AVENIDA_BENEDITA_CAMARGO1479__JARDIM_APARECIDA_17930-000", "LMAPS": "https://www.google.com/maps?q=&layer=c&cbll=-21.3824091,-51.5806606", "O_QUE_FAZER": "CARTEIRA", "ER_REGIAO_CIDADE_min": "Tupi Paulista_Tupi Paulista_Presidente Prudente" }, "geometry": { "type": "Point", "coordinates": [ -51.5806606, -21.3824091 ] } },
{ "type": "Feature", "properties": { "fid": 1121, "CNPJ": "00233216000105", "IDCIDADE": "TUPI_PAULISTA", "NOMEFANTASIA": "RIAVEDA_MODAS", "RAZAOSOCIAL": "ADEVAIR_NASCIMBEM", "ENDEE": "AVENIDA_NOVE_DE_JULHO499__CENTRO_17930-000", "LMAPS": "https://www.google.com/maps?q=&layer=c&cbll=-21.3883408,-51.5736356", "O_QUE_FAZER": "CARTEIRA", "ER_REGIAO_CIDADE_min": "Tupi Paulista_Tupi Paulista_Presidente Prudente" }, "geometry": { "type": "Point", "coordinates": [ -51.5736356, -21.3883408 ] } },
{ "type": "Feature", "properties": { "fid": 3051, "CNPJ": "00618332000134", "IDCIDADE": "TUPI_PAULISTA", "NOMEFANTASIA": "A_DINALTIA", "RAZAOSOCIAL": "LEANDRO_&_VERONESE_LTDA", "ENDEE": "AVENIDA_BRASIL881__CENTRO_17930-029", "LMAPS": "https://www.google.com/maps?q=&layer=c&cbll=-21.3882833,-51.5788617", "O_QUE_FAZER": "CARTEIRA", "ER_REGIAO_CIDADE_min": "Tupi Paulista_Tupi Paulista_Presidente Prudente" }, "geometry": { "type": "Point", "coordinates": [ -51.5788617, -21.3882833 ] } },
{ "type": "Feature", "properties": { "fid": 5777, "CNPJ": "01191950000103", "IDCIDADE": "TUPI_PAULISTA", "NOMEFANTASIA": "VISUAL_COSMETICOS", "RAZAOSOCIAL": "STELLA_MARIS_BRAGA_ESPERANCA_COSTA", "ENDEE": "AVENIDA_NOVE_DE_JULHO504__CENTRO_17930-000", "LMAPS": "https://www.google.com/maps?q=&layer=c&cbll=-21.3885384,-51.5732171", "O_QUE_FAZER": "CARTEIRA", "ER_REGIAO_CIDADE_min": "Tupi Paulista_Tupi Paulista_Presidente Prudente" }, "geometry": { "type": "Point", "coordinates": [ -51.5732171, -21.3885384 ] } },
{ "type": "Feature", "properties": { "fid": 8037, "CNPJ": "01661761000319", "IDCIDADE": "TUPI_PAULISTA", "NOMEFANTASIA": "LABORATORIO_TRIANON", "RAZAOSOCIAL": "LABORATORIO_TRIANON_LTDA", "ENDEE": "RUA_DUQUE_DE_CAXIAS499__CENTRO_17930-000", "LMAPS": "https://www.google.com/maps?q=&layer=c&cbll=-21.387188,-51.5737064", "O_QUE_FAZER": "CARTEIRA", "ER_REGIAO_CIDADE_min": "Tupi Paulista_Tupi Paulista_Presidente Prudente" }, "geometry": { "type": "Point", "coordinates": [ -51.5737064, -21.387188 ] } },
{ "type": "Feature", "properties": { "fid": 9505, "CNPJ": "01952526000134", "IDCIDADE": "TUPI_PAULISTA", "NOMEFANTASIA": "PALACIO_RECICLAVEIS", "RAZAOSOCIAL": "JORGE_ALBERTO_BALASSO", "ENDEE": "AVENIDA_NOVE_DE_JULHO115__CENTRO_17930-000", "LMAPS": "https://www.google.com/maps?q=&layer=c&cbll=-21.3928166,-51.5780461", "O_QUE_FAZER": "CARTEIRA", "ER_REGIAO_CIDADE_min": "Tupi Paulista_Tupi Paulista_Presidente Prudente" }, "geometry": { "type": "Point", "coordinates": [ -51.5780461, -21.3928166 ] } },
{ "type": "Feature", "properties": { "fid": 10293, "CNPJ": "02119884000123", "IDCIDADE": "TUPI_PAULISTA", "NOMEFANTASIA": "VIDA_PREV", "RAZAOSOCIAL": "IRMAOS_OLIVEIRA_DRACENA_LTDA", "ENDEE": "AVENIDA_NOVE_DE_JULHO430__CENTRO_17930-000", "LMAPS": "https://www.google.com/maps?q=&layer=c&cbll=-21.3894695,-51.5743092", "O_QUE_FAZER": "CARTEIRA", "ER_REGIAO_CIDADE_min": "Tupi Paulista_Tupi Paulista_Presidente Prudente" }, "geometry": { "type": "Point", "coordinates": [ -51.5743092, -21.3894695 ] } },
{ "type": "Feature", "properties": { "fid": 12740, "CNPJ": "02594041000189", "IDCIDADE": "TUPI_PAULISTA", "NOMEFANTASIA": "CENTER_VILLE", "RAZAOSOCIAL": "MARIA_DA_GLORIA_TRINDADE_MEIRA", "ENDEE": "AVENIDA_BENEDITA_CAMARGO1262__JARDIM_APARECIDA_17930-000", "LMAPS": "https://www.google.com/maps?q=&layer=c&cbll=-21.3837047,-51.5789624", "O_QUE_FAZER": "CARTEIRA", "ER_REGIAO_CIDADE_min": "Tupi Paulista_Tupi Paulista_Presidente Prudente" }, "geometry": { "type": "Point", "coordinates": [ -51.5789624, -21.3837047 ] } },
{ "type": "Feature", "properties": { "fid": 12869, "CNPJ": "02618979000191", "IDCIDADE": "TUPI_PAULISTA", "NOMEFANTASIA": "ESCRITORIO_SAP_PALU", "RAZAOSOCIAL": "PRUDENTE_&_PRUDENTE_S/C_LTDA", "ENDEE": "AVENIDA_NOVE_DE_JULHO665__CENTRO_17930-000", "LMAPS": "https://www.google.com/maps?q=&layer=c&cbll=-21.3874092,-51.572367", "O_QUE_FAZER": "CARTEIRA", "ER_REGIAO_CIDADE_min": "Tupi Paulista_Tupi Paulista_Presidente Prudente" }, "geometry": { "type": "Point", "coordinates": [ -51.572367, -21.3874092 ] } },
{ "type": "Feature", "properties": { "fid": 13362, "CNPJ": "02709607000170", "IDCIDADE": "TUPI_PAULISTA", "NOMEFANTASIA": "CENTER_INFORMATICA", "RAZAOSOCIAL": "CENTER_INFORMATICA_LTDA", "ENDEE": "AVENIDA_NOVE_DE_JULHO683__CENTRO_17930-000", "LMAPS": "https://www.google.com/maps?q=&layer=c&cbll=-21.3872084,-51.5723721", "O_QUE_FAZER": "CARTEIRA", "ER_REGIAO_CIDADE_min": "Tupi Paulista_Tupi Paulista_Presidente Prudente" }, "geometry": { "type": "Point", "coordinates": [ -51.5723721, -21.3872084 ] } },
{ "type": "Feature", "properties": { "fid": 17519, "CNPJ": "03390154000125", "IDCIDADE": "TUPI_PAULISTA", "NOMEFANTASIA": "VIDRO_CENTER", "RAZAOSOCIAL": "VIDRACARIA_E_BOX_VIDROCENTER_LTDA", "ENDEE": "AVENIDA_BENEDITA_CAMARGO1251__JARDIM_APARECIDA_17930-000", "LMAPS": "https://www.google.com/maps?q=&layer=c&cbll=-21.384004,-51.5790446", "O_QUE_FAZER": "CARTEIRA", "ER_REGIAO_CIDADE_min": "Tupi Paulista_Tupi Paulista_Presidente Prudente" }, "geometry": { "type": "Point", "coordinates": [ -51.5790446, -21.384004 ] } },
{ "type": "Feature", "properties": { "fid": 17599, "CNPJ": "03404957000191", "IDCIDADE": "TUPI_PAULISTA", "NOMEFANTASIA": "GR_CONVENIENCIA", "RAZAOSOCIAL": "GR_CONVENIENCIA_LTDA", "ENDEE": "AVENIDA_NOVE_DE_JULHO1166__CENTRO_17930-000", "LMAPS": "https://www.google.com/maps?q=&layer=c&cbll=-21.3847065,-51.5688873", "O_QUE_FAZER": "CARTEIRA", "ER_REGIAO_CIDADE_min": "Tupi Paulista_Tupi Paulista_Presidente Prudente" }, "geometry": { "type": "Point", "coordinates": [ -51.5688873, -21.3847065 ] } },
{ "type": "Feature", "properties": { "fid": 18243, "CNPJ": "03503392000108", "IDCIDADE": "TUPI_PAULISTA", "NOMEFANTASIA": "LEILA_CALCADOS", "RAZAOSOCIAL": "LEILA_C._M._VICENTIN_CALCADOS_LTDA", "ENDEE": "AVENIDA_NOVE_DE_JULHO608__CENTRO_17930-000", "LMAPS": "https://www.google.com/maps?q=&layer=c&cbll=-21.3879655,-51.5725993", "O_QUE_FAZER": "CARTEIRA", "ER_REGIAO_CIDADE_min": "Tupi Paulista_Tupi Paulista_Presidente Prudente" }, "geometry": { "type": "Point", "coordinates": [ -51.5725993, -21.3879655 ] } },
{ "type": "Feature", "properties": { "fid": 18922, "CNPJ": "03617738000190", "IDCIDADE": "TUPI_PAULISTA", "NOMEFANTASIA": "CASA_DOS_COLCHOES", "RAZAOSOCIAL": "CASA_DOS_COLCHOES_TUPI_PAULISTA_LTDA", "ENDEE": "AVENIDA_NOVE_DE_JULHO658__CENTRO_17930-000", "LMAPS": "https://www.google.com/maps?q=&layer=c&cbll=-21.3875653,-51.5721731", "O_QUE_FAZER": "CARTEIRA", "ER_REGIAO_CIDADE_min": "Tupi Paulista_Tupi Paulista_Presidente Prudente" }, "geometry": { "type": "Point", "coordinates": [ -51.5721731, -21.3875653 ] } },
{ "type": "Feature", "properties": { "fid": 22638, "CNPJ": "04194634000183", "IDCIDADE": "TUPI_PAULISTA", "NOMEFANTASIA": "PASTELARIA_PORTA_ABERTA", "RAZAOSOCIAL": "SONIA_M._B._REGAGNANI", "ENDEE": "AVENIDA_NOVE_DE_JULHO792__CENTRO_17930-000", "LMAPS": "https://www.google.com/maps?q=&layer=c&cbll=-21.3867433,-51.5711691", "O_QUE_FAZER": "CARTEIRA", "ER_REGIAO_CIDADE_min": "Tupi Paulista_Tupi Paulista_Presidente Prudente" }, "geometry": { "type": "Point", "coordinates": [ -51.5711691, -21.3867433 ] } },
{ "type": "Feature", "properties": { "fid": 23396, "CNPJ": "04323568000102", "IDCIDADE": "TUPI_PAULISTA", "NOMEFANTASIA": "ABC_REDE", "RAZAOSOCIAL": "ABCREDE_PROVEDOR_DE_INTERNET_LTDA", "ENDEE": "AVENIDA_NOVE_DE_JULHO683__CENTRO_17930-000", "LMAPS": "https://www.google.com/maps?q=&layer=c&cbll=-21.3871617,-51.5723969", "O_QUE_FAZER": "CARTEIRA", "ER_REGIAO_CIDADE_min": "Tupi Paulista_Tupi Paulista_Presidente Prudente" }, "geometry": { "type": "Point", "coordinates": [ -51.5723969, -21.3871617 ] } },
{ "type": "Feature", "properties": { "fid": 24440, "CNPJ": "04483759000123", "IDCIDADE": "TUPI_PAULISTA", "NOMEFANTASIA": "RICHARDS_LUB", "RAZAOSOCIAL": "RICHARD_WILLIANS_AURESCO", "ENDEE": "AVENIDA_BRASIL516__CENTRO_17930-000", "LMAPS": "https://www.google.com/maps?q=&layer=c&cbll=-21.3907542,-51.576395", "O_QUE_FAZER": "CARTEIRA", "ER_REGIAO_CIDADE_min": "Tupi Paulista_Tupi Paulista_Presidente Prudente" }, "geometry": { "type": "Point", "coordinates": [ -51.576395, -21.3907542 ] } },
{ "type": "Feature", "properties": { "fid": 24745, "CNPJ": "04529886000116", "IDCIDADE": "TUPI_PAULISTA", "NOMEFANTASIA": "MIVEIS_POSTINGUE", "RAZAOSOCIAL": "INDUSTRIA_E_COMERCIO_DE_MOVEIS_POSTINGUE_LTDA", "ENDEE": "AVENIDA_NOVE_DE_JULHO1281__CENTRO_17930-000", "LMAPS": "https://www.google.com/maps?q=&layer=c&cbll=-21.383585,-51.5681921", "O_QUE_FAZER": "CARTEIRA", "ER_REGIAO_CIDADE_min": "Tupi Paulista_Tupi Paulista_Presidente Prudente" }, "geometry": { "type": "Point", "coordinates": [ -51.5681921, -21.383585 ] } },
{ "type": "Feature", "properties": { "fid": 29188, "CNPJ": "05145971000143", "IDCIDADE": "TUPI_PAULISTA", "NOMEFANTASIA": "TUPICOPA_LOTERIA", "RAZAOSOCIAL": "TUPI_COPA_LOTERIAS_LTDA", "ENDEE": "AVENIDA_NOVE_DE_JULHO792__CENTRO_17930-000", "LMAPS": "https://www.google.com/maps?q=&layer=c&cbll=-21.3869572,-51.5714756", "O_QUE_FAZER": "CARTEIRA", "ER_REGIAO_CIDADE_min": "Tupi Paulista_Tupi Paulista_Presidente Prudente" }, "geometry": { "type": "Point", "coordinates": [ -51.5714756, -21.3869572 ] } },
{ "type": "Feature", "properties": { "fid": 30409, "CNPJ": "05330798000153", "IDCIDADE": "TUPI_PAULISTA", "NOMEFANTASIA": "DEPOSITO_ZIZA", "RAZAOSOCIAL": "ADALGIZA_ARAUJO_DE_SOUZA", "ENDEE": "AVENIDA_JOAO_MOELLERS724__CENTRO_17930-001", "LMAPS": "https://www.google.com/maps?q=&layer=c&cbll=-21.3832556,-51.5750432", "O_QUE_FAZER": "CARTEIRA", "ER_REGIAO_CIDADE_min": "Tupi Paulista_Tupi Paulista_Presidente Prudente" }, "geometry": { "type": "Point", "coordinates": [ -51.5750432, -21.3832556 ] } },
{ "type": "Feature", "properties": { "fid": 32041, "CNPJ": "05566254000195", "IDCIDADE": "TUPI_PAULISTA", "NOMEFANTASIA": "HOTEL_SANO", "RAZAOSOCIAL": "HOTEL_SAO_BENTO_TUPI_PAULISTA_LTDA", "ENDEE": "RUA_TIRADENTES615__CENTRO_17930-037", "LMAPS": "https://www.google.com/maps?q=&layer=c&cbll=-21.3875989,-51.5742723", "O_QUE_FAZER": "CARTEIRA", "ER_REGIAO_CIDADE_min": "Tupi Paulista_Tupi Paulista_Presidente Prudente" }, "geometry": { "type": "Point", "coordinates": [ -51.5742723, -21.3875989 ] } },
{ "type": "Feature", "properties": { "fid": 34622, "CNPJ": "05914860000154", "IDCIDADE": "TUPI_PAULISTA", "NOMEFANTASIA": "ERVA_DOCE", "RAZAOSOCIAL": "GONCALVES_&_OTONI_FARMACIA_DE_MANIPULACAO_LTDA", "ENDEE": "AVENIDA_NOVE_DE_JULHO537__CENTRO_17930-000", "LMAPS": "https://www.google.com/maps?q=&layer=c&cbll=-21.3882163,-51.5732753", "O_QUE_FAZER": "CARTEIRA", "ER_REGIAO_CIDADE_min": "Tupi Paulista_Tupi Paulista_Presidente Prudente" }, "geometry": { "type": "Point", "coordinates": [ -51.5732753, -21.3882163 ] } },
{ "type": "Feature", "properties": { "fid": 34999, "CNPJ": "05961857000191", "IDCIDADE": "TUPI_PAULISTA", "NOMEFANTASIA": "GABI_PRESENTES", "RAZAOSOCIAL": "CASSIA_ALEXANDRE_FERREIRA_GARCIA", "ENDEE": "AVENIDA_NOVE_DE_JULHO785__CENTRO_17930-000", "LMAPS": "https://www.google.com/maps?q=&layer=c&cbll=-21.3867074,-51.5715592", "O_QUE_FAZER": "CARTEIRA", "ER_REGIAO_CIDADE_min": "Tupi Paulista_Tupi Paulista_Presidente Prudente" }, "geometry": { "type": "Point", "coordinates": [ -51.5715592, -21.3867074 ] } },
{ "type": "Feature", "properties": { "fid": 36159, "CNPJ": "06119139000135", "IDCIDADE": "TUPI_PAULISTA", "NOMEFANTASIA": "HELIO_AITO_ELETRICA", "RAZAOSOCIAL": "ROSILENE_FIORUCI", "ENDEE": "AVENIDA_NOVE_DE_JULHO1417__CENTRO_17930-000", "LMAPS": "https://www.google.com/maps?q=&layer=c&cbll=-21.3825168,-51.5668736", "O_QUE_FAZER": "CARTEIRA", "ER_REGIAO_CIDADE_min": "Tupi Paulista_Tupi Paulista_Presidente Prudente" }, "geometry": { "type": "Point", "coordinates": [ -51.5668736, -21.3825168 ] } },
{ "type": "Feature", "properties": { "fid": 38306, "CNPJ": "06879678000172", "IDCIDADE": "TUPI_PAULISTA", "NOMEFANTASIA": "LECO_PNEUS", "RAZAOSOCIAL": "MENEGATTI_&_TAHARA_LTDA", "ENDEE": "AVENIDA_NOVE_DE_JULHO62__CENTRO_17930-000", "LMAPS": "https://www.google.com/maps?q=&layer=c&cbll=-21.3913941,-51.5763197", "O_QUE_FAZER": "CARTEIRA", "ER_REGIAO_CIDADE_min": "Tupi Paulista_Tupi Paulista_Presidente Prudente" }, "geometry": { "type": "Point", "coordinates": [ -51.5763197, -21.3913941 ] } },
{ "type": "Feature", "properties": { "fid": 40021, "CNPJ": "07109827000187", "IDCIDADE": "TUPI_PAULISTA", "NOMEFANTASIA": "CENTER_GUIDO", "RAZAOSOCIAL": "NATALIA_LENSI_GUIDO", "ENDEE": "AVENIDA_NOVE_DE_JULHO517__CENTRO_17930-000", "LMAPS": "https://www.google.com/maps?q=&layer=c&cbll=-21.3883083,-51.5734584", "O_QUE_FAZER": "CARTEIRA", "ER_REGIAO_CIDADE_min": "Tupi Paulista_Tupi Paulista_Presidente Prudente" }, "geometry": { "type": "Point", "coordinates": [ -51.5734584, -21.3883083 ] } },
{ "type": "Feature", "properties": { "fid": 40662, "CNPJ": "07197485000102", "IDCIDADE": "TUPI_PAULISTA", "NOMEFANTASIA": "MOTO_BOY", "RAZAOSOCIAL": "SANDRA_BONO_DO_PRADO_ALVARES", "ENDEE": "AVENIDA_DONA_ANTONIA_PORTOLEZ715__CENTRO_17930-049", "LMAPS": "https://www.google.com/maps?q=&layer=c&cbll=-21.3831983,-51.5708533", "O_QUE_FAZER": "CARTEIRA", "ER_REGIAO_CIDADE_min": "Tupi Paulista_Tupi Paulista_Presidente Prudente" }, "geometry": { "type": "Point", "coordinates": [ -51.5708533, -21.3831983 ] } },
{ "type": "Feature", "properties": { "fid": 41223, "CNPJ": "07264858000102", "IDCIDADE": "TUPI_PAULISTA", "NOMEFANTASIA": "CASA_BELLA_MAIS", "RAZAOSOCIAL": "CASA_BELLA_MAIS_LTDA", "ENDEE": "AVENIDA_NOVE_DE_JULHO1022__CENTRO_17930-000", "LMAPS": "https://www.google.com/maps?q=&layer=c&cbll=-21.3854365,-51.5694311", "O_QUE_FAZER": "CARTEIRA", "ER_REGIAO_CIDADE_min": "Tupi Paulista_Tupi Paulista_Presidente Prudente" }, "geometry": { "type": "Point", "coordinates": [ -51.5694311, -21.3854365 ] } },
{ "type": "Feature", "properties": { "fid": 41593, "CNPJ": "07309595000100", "IDCIDADE": "TUPI_PAULISTA", "NOMEFANTASIA": "BISCA_CELL", "RAZAOSOCIAL": "ALISSON_WILLIAN_BISCA", "ENDEE": "AVENIDA_NOVE_DE_JULHO412__CENTRO_17930-000", "LMAPS": "https://www.google.com/maps?q=&layer=c&cbll=-21.3890883,-51.573685", "O_QUE_FAZER": "CARTEIRA", "ER_REGIAO_CIDADE_min": "Tupi Paulista_Tupi Paulista_Presidente Prudente" }, "geometry": { "type": "Point", "coordinates": [ -51.573685, -21.3890883 ] } },
{ "type": "Feature", "properties": { "fid": 47295, "CNPJ": "08001545000124", "IDCIDADE": "TUPI_PAULISTA", "NOMEFANTASIA": "MINI_MERCADO_PAO_DEMEL", "RAZAOSOCIAL": "EDENIO_PEREIRA_DA_SILVA", "ENDEE": "AVENIDA_MARACANA273__VILA_MARACANA_17930-000", "LMAPS": "https://www.google.com/maps?q=&layer=c&cbll=-21.3951489,-51.5776241", "O_QUE_FAZER": "CARTEIRA", "ER_REGIAO_CIDADE_min": "Tupi Paulista_Tupi Paulista_Presidente Prudente" }, "geometry": { "type": "Point", "coordinates": [ -51.5776241, -21.3951489 ] } },
{ "type": "Feature", "properties": { "fid": 47924, "CNPJ": "08084995000128", "IDCIDADE": "TUPI_PAULISTA", "NOMEFANTASIA": "IRIO", "RAZAOSOCIAL": "IRIO_CACAMBAS_E_MATERIAIS_DE_CONSTRUCAO_LTDA", "ENDEE": "RUA_PRESIDENTE_ROOSEVELT51__VILA_STAUT_17934-120", "LMAPS": "https://www.google.com/maps?q=&layer=c&cbll=-21.3913432,-51.5773727", "O_QUE_FAZER": "CARTEIRA", "ER_REGIAO_CIDADE_min": "Tupi Paulista_Tupi Paulista_Presidente Prudente" }, "geometry": { "type": "Point", "coordinates": [ -51.5773727, -21.3913432 ] } },
{ "type": "Feature", "properties": { "fid": 50392, "CNPJ": "08448269000147", "IDCIDADE": "TUPI_PAULISTA", "NOMEFANTASIA": "ABC_REDE", "RAZAOSOCIAL": "ABCREDE_TELECOM_INFORMATICA_LTDA", "ENDEE": "AVENIDA_NOVE_DE_JULHO744__CENTRO_17930-000", "LMAPS": "https://www.google.com/maps?q=&layer=c&cbll=-21.3870967,-51.5715913", "O_QUE_FAZER": "CARTEIRA", "ER_REGIAO_CIDADE_min": "Tupi Paulista_Tupi Paulista_Presidente Prudente" }, "geometry": { "type": "Point", "coordinates": [ -51.5715913, -21.3870967 ] } },
{ "type": "Feature", "properties": { "fid": 51719, "CNPJ": "08690668000110", "IDCIDADE": "TUPI_PAULISTA", "NOMEFANTASIA": "DROGARIA_TOTAL", "RAZAOSOCIAL": "FLAVIO_AUGUSTO_TEMPORIM_CHIARARI", "ENDEE": "AVENIDA_NOVE_DE_JULHO198__CENTRO_17930-000", "LMAPS": "https://www.google.com/maps?q=&layer=c&cbll=-21.3904896,-51.5754573", "O_QUE_FAZER": "CARTEIRA", "ER_REGIAO_CIDADE_min": "Tupi Paulista_Tupi Paulista_Presidente Prudente" }, "geometry": { "type": "Point", "coordinates": [ -51.5754573, -21.3904896 ] } },
{ "type": "Feature", "properties": { "fid": 53560, "CNPJ": "08909827000124", "IDCIDADE": "TUPI_PAULISTA", "NOMEFANTASIA": "MERCADINHO_SERVE_BEM", "RAZAOSOCIAL": "LUCY_KELLY_LORENCO_DE_ALMEIDA_HARO", "ENDEE": "AVENIDA_BENEDITA_CAMARGO1173__JARDIM_APARECIDA_17930-000", "LMAPS": "https://www.google.com/maps?q=&layer=c&cbll=-21.3845824,-51.578502", "O_QUE_FAZER": "CARTEIRA", "ER_REGIAO_CIDADE_min": "Tupi Paulista_Tupi Paulista_Presidente Prudente" }, "geometry": { "type": "Point", "coordinates": [ -51.578502, -21.3845824 ] } },
{ "type": "Feature", "properties": { "fid": 53826, "CNPJ": "08940141000104", "IDCIDADE": "TUPI_PAULISTA", "NOMEFANTASIA": "DROGARIA_DROGA_VIDA", "RAZAOSOCIAL": "FARMACIA_DROGA_VIDA_TUPI_PAULISTA_LTDA", "ENDEE": "AVENIDA_NOVE_DE_JULHO388__CENTRO_17930-000", "LMAPS": "https://www.google.com/maps?q=&layer=c&cbll=-21.3893259,-51.574188", "O_QUE_FAZER": "CARTEIRA", "ER_REGIAO_CIDADE_min": "Tupi Paulista_Tupi Paulista_Presidente Prudente" }, "geometry": { "type": "Point", "coordinates": [ -51.574188, -21.3893259 ] } },
{ "type": "Feature", "properties": { "fid": 53948, "CNPJ": "08953602000175", "IDCIDADE": "TUPI_PAULISTA", "NOMEFANTASIA": "POLIALTO_FUNILARIA_E_PINTURA", "RAZAOSOCIAL": "NILSOM_JOSE_DUARTE", "ENDEE": "AVENIDA_NOVE_DE_JULHO1192__CENTRO_17930-000", "LMAPS": "https://www.google.com/maps?q=&layer=c&cbll=-21.384455,-51.56858", "O_QUE_FAZER": "CARTEIRA", "ER_REGIAO_CIDADE_min": "Tupi Paulista_Tupi Paulista_Presidente Prudente" }, "geometry": { "type": "Point", "coordinates": [ -51.56858, -21.384455 ] } },
{ "type": "Feature", "properties": { "fid": 53968, "CNPJ": "08955790000170", "IDCIDADE": "TUPI_PAULISTA", "NOMEFANTASIA": "KIDELICIA", "RAZAOSOCIAL": "S_C_P_AMADOR", "ENDEE": "AVENIDA_NOVE_DE_JULHO491__CENTRO_17930-000", "LMAPS": "https://www.google.com/maps?q=&layer=c&cbll=-21.3885091,-51.5736151", "O_QUE_FAZER": "CARTEIRA", "ER_REGIAO_CIDADE_min": "Tupi Paulista_Tupi Paulista_Presidente Prudente" }, "geometry": { "type": "Point", "coordinates": [ -51.5736151, -21.3885091 ] } },
{ "type": "Feature", "properties": { "fid": 54323, "CNPJ": "08997353000110", "IDCIDADE": "TUPI_PAULISTA", "NOMEFANTASIA": "PEPE_CAR", "RAZAOSOCIAL": "WILSON_REIS_ALVES", "ENDEE": "AVENIDA_JOAO_MOELLERS263__CENTRO_17930-001", "LMAPS": "https://www.google.com/maps?q=&layer=c&cbll=-21.3854094,-51.5782186", "O_QUE_FAZER": "CARTEIRA", "ER_REGIAO_CIDADE_min": "Tupi Paulista_Tupi Paulista_Presidente Prudente" }, "geometry": { "type": "Point", "coordinates": [ -51.5782186, -21.3854094 ] } },
{ "type": "Feature", "properties": { "fid": 54532, "CNPJ": "09036794000118", "IDCIDADE": "TUPI_PAULISTA", "NOMEFANTASIA": "ALUANCA_MOVEIS_E_ELETRO", "RAZAOSOCIAL": "ACS_COMERCIO_DE_MOVEIS_LTDA", "ENDEE": "AVENIDA_NOVE_DE_JULHO839__CENTRO_17930-000", "LMAPS": "https://www.google.com/maps?q=&layer=c&cbll=-21.3862462,-51.5711883", "O_QUE_FAZER": "CARTEIRA", "ER_REGIAO_CIDADE_min": "Tupi Paulista_Tupi Paulista_Presidente Prudente" }, "geometry": { "type": "Point", "coordinates": [ -51.5711883, -21.3862462 ] } },
{ "type": "Feature", "properties": { "fid": 55557, "CNPJ": "09138004000105", "IDCIDADE": "TUPI_PAULISTA", "NOMEFANTASIA": "GF_CAPITAL", "RAZAOSOCIAL": "LEONARDO_ALVES_GRASSI", "ENDEE": "AVENIDA_NOVE_DE_JULHO505__CENTRO_17930-000", "LMAPS": "https://www.google.com/maps?q=&layer=c&cbll=-21.3925398,-51.5787231", "O_QUE_FAZER": "CARTEIRA", "ER_REGIAO_CIDADE_min": "Tupi Paulista_Tupi Paulista_Presidente Prudente" }, "geometry": { "type": "Point", "coordinates": [ -51.5787231, -21.3925398 ] } },
{ "type": "Feature", "properties": { "fid": 57562, "CNPJ": "09364164000172", "IDCIDADE": "TUPI_PAULISTA", "NOMEFANTASIA": "VIVI_FASHION", "RAZAOSOCIAL": "VILMA_FELIX_DA_SILVA_SEGATO", "ENDEE": "AVENIDA_NOVE_DE_JULHO552__CENTRO_17930-000", "LMAPS": "https://www.google.com/maps?q=&layer=c&cbll=-21.3882867,-51.5730333", "O_QUE_FAZER": "CARTEIRA", "ER_REGIAO_CIDADE_min": "Tupi Paulista_Tupi Paulista_Presidente Prudente" }, "geometry": { "type": "Point", "coordinates": [ -51.5730333, -21.3882867 ] } },
{ "type": "Feature", "properties": { "fid": 58094, "CNPJ": "09424049000146", "IDCIDADE": "TUPI_PAULISTA", "NOMEFANTASIA": "JOAO_DE_BARRO", "RAZAOSOCIAL": "ALECHANDRE_GASQUE_NARESSI", "ENDEE": "RUA_TIRADENTES638__CENTRO_17930-037", "LMAPS": "https://www.google.com/maps?q=&layer=c&cbll=-21.3872466,-51.5741844", "O_QUE_FAZER": "CARTEIRA", "ER_REGIAO_CIDADE_min": "Tupi Paulista_Tupi Paulista_Presidente Prudente" }, "geometry": { "type": "Point", "coordinates": [ -51.5741844, -21.3872466 ] } },
{ "type": "Feature", "properties": { "fid": 59458, "CNPJ": "09571567000192", "IDCIDADE": "TUPI_PAULISTA", "NOMEFANTASIA": "KERO_KERO", "RAZAOSOCIAL": "PASTELARIA_KERO_KERO_LTDA", "ENDEE": "AVENIDA_NOVE_DE_JULHO614__CENTRO_17930-000", "LMAPS": "https://www.google.com/maps?q=&layer=c&cbll=-21.3879001,-51.5725369", "O_QUE_FAZER": "CARTEIRA", "ER_REGIAO_CIDADE_min": "Tupi Paulista_Tupi Paulista_Presidente Prudente" }, "geometry": { "type": "Point", "coordinates": [ -51.5725369, -21.3879001 ] } },
{ "type": "Feature", "properties": { "fid": 62838, "CNPJ": "10443314000112", "IDCIDADE": "TUPI_PAULISTA", "NOMEFANTASIA": "CHIARA_E_VARBEL", "RAZAOSOCIAL": "TIHARA_&_BERBEL_LTDA", "ENDEE": "RUA_RAFAEL_AIELO136__JARDIM_APARECIDA_17930-000", "LMAPS": "https://www.google.com/maps?q=&layer=c&cbll=-21.3840532,-51.5795807", "O_QUE_FAZER": "CARTEIRA", "ER_REGIAO_CIDADE_min": "Tupi Paulista_Tupi Paulista_Presidente Prudente" }, "geometry": { "type": "Point", "coordinates": [ -51.5795807, -21.3840532 ] } },
{ "type": "Feature", "properties": { "fid": 63777, "CNPJ": "10541128000116", "IDCIDADE": "TUPI_PAULISTA", "NOMEFANTASIA": "TOP_VISTORIAS", "RAZAOSOCIAL": "TORREZAN_&_ROSSETO_LTDA", "ENDEE": "AVENIDA_SETE_DE_SETEMBRO388__CENTRO_17930-000", "LMAPS": "https://www.google.com/maps?q=&layer=c&cbll=-21.387165,-51.570665", "O_QUE_FAZER": "CARTEIRA", "ER_REGIAO_CIDADE_min": "Tupi Paulista_Tupi Paulista_Presidente Prudente" }, "geometry": { "type": "Point", "coordinates": [ -51.570665, -21.387165 ] } },
{ "type": "Feature", "properties": { "fid": 65326, "CNPJ": "10709415000192", "IDCIDADE": "TUPI_PAULISTA", "NOMEFANTASIA": "RELOJOARIA_TONIELO", "RAZAOSOCIAL": "JOAO_TONIOLO_NETO", "ENDEE": "AVENIDA_NOVE_DE_JULHO544__CENTRO_17930-000", "LMAPS": "https://www.google.com/maps?q=&layer=c&cbll=-21.3883732,-51.5731421", "O_QUE_FAZER": "CARTEIRA", "ER_REGIAO_CIDADE_min": "Tupi Paulista_Tupi Paulista_Presidente Prudente" }, "geometry": { "type": "Point", "coordinates": [ -51.5731421, -21.3883732 ] } },
{ "type": "Feature", "properties": { "fid": 65732, "CNPJ": "10748397001715", "IDCIDADE": "TUPI_PAULISTA", "NOMEFANTASIA": "VIVO_TUPI_PAULISTA", "RAZAOSOCIAL": "WEST_TELECOM_TECNOLOGIA_LTDA", "ENDEE": "AVENIDA_NOVE_DE_JULHO438__CENTRO_17930-000", "LMAPS": "https://www.google.com/maps?q=&layer=c&cbll=-21.3890192,-51.5737812", "O_QUE_FAZER": "CARTEIRA", "ER_REGIAO_CIDADE_min": "Tupi Paulista_Tupi Paulista_Presidente Prudente" }, "geometry": { "type": "Point", "coordinates": [ -51.5737812, -21.3890192 ] } },
{ "type": "Feature", "properties": { "fid": 65877, "CNPJ": "10762494000103", "IDCIDADE": "TUPI_PAULISTA", "NOMEFANTASIA": "GILDOCAR_CENTRO_AUTOMOTIVA", "RAZAOSOCIAL": "RODOLFO_GASQUE_TREVISAN_LTDA", "ENDEE": "AVENIDA_BRASIL442__CENTRO_17930-000", "LMAPS": "https://www.google.com/maps?q=&layer=c&cbll=-21.3912076,-51.5758496", "O_QUE_FAZER": "CARTEIRA", "ER_REGIAO_CIDADE_min": "Tupi Paulista_Tupi Paulista_Presidente Prudente" }, "geometry": { "type": "Point", "coordinates": [ -51.5758496, -21.3912076 ] } },
{ "type": "Feature", "properties": { "fid": 66268, "CNPJ": "10806452000119", "IDCIDADE": "TUPI_PAULISTA", "NOMEFANTASIA": "ESCRITORIO_ZERPO", "RAZAOSOCIAL": "RODRIGO_DO_PRADO_ZANONI", "ENDEE": "AVENIDA_NOVE_DE_JULHO371__CENTRO_17930-000", "LMAPS": "https://www.google.com/maps?q=&layer=c&cbll=-21.3890917,-51.5743117", "O_QUE_FAZER": "CARTEIRA", "ER_REGIAO_CIDADE_min": "Tupi Paulista_Tupi Paulista_Presidente Prudente" }, "geometry": { "type": "Point", "coordinates": [ -51.5743117, -21.3890917 ] } },
{ "type": "Feature", "properties": { "fid": 66445, "CNPJ": "10823990000111", "IDCIDADE": "TUPI_PAULISTA", "NOMEFANTASIA": "VAPT_VUPT_CONVENIENCIA", "RAZAOSOCIAL": "ANALIDIA_LOPES_ONISHI", "ENDEE": "AVENIDA_NOVE_DE_JULHO235__CENTRO_17930-000", "LMAPS": "https://www.google.com/maps?q=&layer=c&cbll=-21.3916007,-51.5773025", "O_QUE_FAZER": "CARTEIRA", "ER_REGIAO_CIDADE_min": "Tupi Paulista_Tupi Paulista_Presidente Prudente" }, "geometry": { "type": "Point", "coordinates": [ -51.5773025, -21.3916007 ] } },
{ "type": "Feature", "properties": { "fid": 67794, "CNPJ": "10971657000150", "IDCIDADE": "TUPI_PAULISTA", "NOMEFANTASIA": "ALCIONE_REFRIGERACAO", "RAZAOSOCIAL": "ROGERIO_MORAES_BOTELHO", "ENDEE": "AVENIDA_NOVE_DE_JULHO273__CENTRO_17930-000", "LMAPS": "https://www.google.com/maps?q=&layer=c&cbll=-21.389622,-51.5752763", "O_QUE_FAZER": "CARTEIRA", "ER_REGIAO_CIDADE_min": "Tupi Paulista_Tupi Paulista_Presidente Prudente" }, "geometry": { "type": "Point", "coordinates": [ -51.5752763, -21.389622 ] } },
{ "type": "Feature", "properties": { "fid": 67836, "CNPJ": "10975609000130", "IDCIDADE": "TUPI_PAULISTA", "NOMEFANTASIA": "PADARIA_BOM_JESUS", "RAZAOSOCIAL": "M.B._PADARIA_BOM_JESUS_LTDA", "ENDEE": "RUA_ANTONIO_JOSE_GONCALVES_FRAGA1165__JARDIM_APARECIDA_17930-000", "LMAPS": "https://www.google.com/maps?q=&layer=c&cbll=-21.3834995,-51.5769616", "O_QUE_FAZER": "CARTEIRA - FAMPE", "ER_REGIAO_CIDADE_min": "Tupi Paulista_Tupi Paulista_Presidente Prudente" }, "geometry": { "type": "Point", "coordinates": [ -51.5769616, -21.3834995 ] } },
{ "type": "Feature", "properties": { "fid": 68760, "CNPJ": "11082876000140", "IDCIDADE": "TUPI_PAULISTA", "NOMEFANTASIA": "LABORATORIO_MASTELLINI", "RAZAOSOCIAL": "GRUPO_MASTELLINI_LTDA", "ENDEE": "RUA_OSVALDO_CRUZ907__CENTRO_17930-000", "LMAPS": "https://www.google.com/maps?q=&layer=c&cbll=-21.3868767,-51.5703233", "O_QUE_FAZER": "CARTEIRA", "ER_REGIAO_CIDADE_min": "Tupi Paulista_Tupi Paulista_Presidente Prudente" }, "geometry": { "type": "Point", "coordinates": [ -51.5703233, -21.3868767 ] } },
{ "type": "Feature", "properties": { "fid": 69686, "CNPJ": "11202480000190", "IDCIDADE": "TUPI_PAULISTA", "NOMEFANTASIA": "DI_MARIA", "RAZAOSOCIAL": "ROSIMEIRE_GUCAO_CASTANHA", "ENDEE": "AVENIDA_NOVE_DE_JULHO673__CENTRO_17930-000", "LMAPS": "https://www.google.com/maps?q=&layer=c&cbll=-21.3873798,-51.5723174", "O_QUE_FAZER": "CARTEIRA", "ER_REGIAO_CIDADE_min": "Tupi Paulista_Tupi Paulista_Presidente Prudente" }, "geometry": { "type": "Point", "coordinates": [ -51.5723174, -21.3873798 ] } },
{ "type": "Feature", "properties": { "fid": 71343, "CNPJ": "11411203000197", "IDCIDADE": "TUPI_PAULISTA", "NOMEFANTASIA": "DAELLY_SORVETES", "RAZAOSOCIAL": "ELEN_JOANA_PINHEIRO_CORADETE_BARBOSA", "ENDEE": "AVENIDA_NOVE_DE_JULHO1407__CENTRO_17930-000", "LMAPS": "https://www.google.com/maps?q=&layer=c&cbll=-21.382755,-51.5668517", "O_QUE_FAZER": "CARTEIRA", "ER_REGIAO_CIDADE_min": "Tupi Paulista_Tupi Paulista_Presidente Prudente" }, "geometry": { "type": "Point", "coordinates": [ -51.5668517, -21.382755 ] } },
{ "type": "Feature", "properties": { "fid": 76297, "CNPJ": "12239863000103", "IDCIDADE": "TUPI_PAULISTA", "NOMEFANTASIA": "DROGARIA_DROGA_MED", "RAZAOSOCIAL": "FLAVIO_MARQUEZIM_GONCALVES", "ENDEE": "AVENIDA_NOVE_DE_JULHO512__CENTRO_17930-000", "LMAPS": "https://www.google.com/maps?q=&layer=c&cbll=-21.3885295,-51.5732527", "O_QUE_FAZER": "CARTEIRA", "ER_REGIAO_CIDADE_min": "Tupi Paulista_Tupi Paulista_Presidente Prudente" }, "geometry": { "type": "Point", "coordinates": [ -51.5732527, -21.3885295 ] } },
{ "type": "Feature", "properties": { "fid": 80153, "CNPJ": "12982749000160", "IDCIDADE": "TUPI_PAULISTA", "NOMEFANTASIA": "ACOUGUE_PAGUE_MENOS", "RAZAOSOCIAL": "CASA_DE_CARNE_LUCATI_LTDA", "ENDEE": "RUA_TIRADENTES455__CENTRO_17930-037", "LMAPS": "https://www.google.com/maps?q=&layer=c&cbll=-21.388715,-51.5729834", "O_QUE_FAZER": "CARTEIRA", "ER_REGIAO_CIDADE_min": "Tupi Paulista_Tupi Paulista_Presidente Prudente" }, "geometry": { "type": "Point", "coordinates": [ -51.5729834, -21.388715 ] } },
{ "type": "Feature", "properties": { "fid": 82917, "CNPJ": "13494446000161", "IDCIDADE": "TUPI_PAULISTA", "NOMEFANTASIA": "TOP_MIX", "RAZAOSOCIAL": "SERGIO_PEREIRA_DO_NASCIMENTO", "ENDEE": "AVENIDA_NOVE_DE_JULHO648__CENTRO_17930-000", "LMAPS": "https://www.google.com/maps?q=&layer=c&cbll=-21.3876341,-51.5723457", "O_QUE_FAZER": "CARTEIRA", "ER_REGIAO_CIDADE_min": "Tupi Paulista_Tupi Paulista_Presidente Prudente" }, "geometry": { "type": "Point", "coordinates": [ -51.5723457, -21.3876341 ] } },
{ "type": "Feature", "properties": { "fid": 82935, "CNPJ": "13497840000153", "IDCIDADE": "TUPI_PAULISTA", "NOMEFANTASIA": "AIS_BARATO_CALCADOS", "RAZAOSOCIAL": "VLS_COMERCIO_DE_CALCADOS_LTDA", "ENDEE": "AVENIDA_NOVE_DE_JULHO409__CENTRO_17930-000", "LMAPS": "https://www.google.com/maps?q=&layer=c&cbll=-21.388998,-51.5741801", "O_QUE_FAZER": "CARTEIRA", "ER_REGIAO_CIDADE_min": "Tupi Paulista_Tupi Paulista_Presidente Prudente" }, "geometry": { "type": "Point", "coordinates": [ -51.5741801, -21.388998 ] } },
{ "type": "Feature", "properties": { "fid": 83749, "CNPJ": "13634141000108", "IDCIDADE": "TUPI_PAULISTA", "NOMEFANTASIA": "AUTO_ESCOLA_HABILITAR", "RAZAOSOCIAL": "CFC_B_DEMOCRATA_FORMACAO_DE_CONDUTORES_LTDA", "ENDEE": "AVENIDA_NOVE_DE_JULHO251__CENTRO_17930-000", "LMAPS": "https://www.google.com/maps?q=&layer=c&cbll=-21.390023,-51.5752977", "O_QUE_FAZER": "CARTEIRA", "ER_REGIAO_CIDADE_min": "Tupi Paulista_Tupi Paulista_Presidente Prudente" }, "geometry": { "type": "Point", "coordinates": [ -51.5752977, -21.390023 ] } },
{ "type": "Feature", "properties": { "fid": 88474, "CNPJ": "14578907000147", "IDCIDADE": "TUPI_PAULISTA", "NOMEFANTASIA": "JOANINHA_BABY_KIDS", "RAZAOSOCIAL": "CAVALCANTE_&_BONFIM_LTDA", "ENDEE": "AVENIDA_NOVE_DE_JULHO538__CENTRO_17930-000", "LMAPS": "https://www.google.com/maps?q=&layer=c&cbll=-21.3884267,-51.5730833", "O_QUE_FAZER": "CARTEIRA", "ER_REGIAO_CIDADE_min": "Tupi Paulista_Tupi Paulista_Presidente Prudente" }, "geometry": { "type": "Point", "coordinates": [ -51.5730833, -21.3884267 ] } },
{ "type": "Feature", "properties": { "fid": 89506, "CNPJ": "14794514000170", "IDCIDADE": "TUPI_PAULISTA", "NOMEFANTASIA": "IMOBOLIARIA_RENA_COSTA", "RAZAOSOCIAL": "IMOBILIARIA_RENAN_COSTA_LTDA", "ENDEE": "AVENIDA_NOVE_DE_JULHO146__CENTRO_17930-000", "LMAPS": "https://www.google.com/maps?q=&layer=c&cbll=-21.3923695,-51.5777101", "O_QUE_FAZER": "CARTEIRA", "ER_REGIAO_CIDADE_min": "Tupi Paulista_Tupi Paulista_Presidente Prudente" }, "geometry": { "type": "Point", "coordinates": [ -51.5777101, -21.3923695 ] } },
{ "type": "Feature", "properties": { "fid": 91912, "CNPJ": "15318716000109", "IDCIDADE": "TUPI_PAULISTA", "NOMEFANTASIA": "KIRA_MATERIAL_PARA_CONSTRUCAO", "RAZAOSOCIAL": "COMERCIO_DE_MATERIAIS_PARA_CONSTRUCAO_S_M_SAO_JORGE_LTDA", "ENDEE": "AVENIDA_NOVE_DE_JULHO134__CENTRO_17930-000", "LMAPS": "https://www.google.com/maps?q=&layer=c&cbll=-21.3908249,-51.5757981", "O_QUE_FAZER": "CARTEIRA", "ER_REGIAO_CIDADE_min": "Tupi Paulista_Tupi Paulista_Presidente Prudente" }, "geometry": { "type": "Point", "coordinates": [ -51.5757981, -21.3908249 ] } },
{ "type": "Feature", "properties": { "fid": 95803, "CNPJ": "16783174000108", "IDCIDADE": "TUPI_PAULISTA", "NOMEFANTASIA": "NENE_AUTO_CENTER", "RAZAOSOCIAL": "NENE_AUTO_CENTER_LTDA", "ENDEE": "AVENIDA_NOVE_DE_JULHO28__CENTRO_17930-000", "LMAPS": "https://www.google.com/maps?q=&layer=c&cbll=-21.3913658,-51.576824", "O_QUE_FAZER": "CARTEIRA", "ER_REGIAO_CIDADE_min": "Tupi Paulista_Tupi Paulista_Presidente Prudente" }, "geometry": { "type": "Point", "coordinates": [ -51.576824, -21.3913658 ] } },
{ "type": "Feature", "properties": { "fid": 97977, "CNPJ": "17207730000160", "IDCIDADE": "TUPI_PAULISTA", "NOMEFANTASIA": "MADEIREIRA_VELLO", "RAZAOSOCIAL": "EMILIA_CEREALI_DE_CAMARGO_MUNIZ_LTDA", "ENDEE": "RUA_FRANCISCO_DE_SOUZA_PERPETUO_JUNIOR306__CENTRO_17930-000", "LMAPS": "https://www.google.com/maps?q=&layer=c&cbll=-21.3943383,-51.5795615", "O_QUE_FAZER": "CARTEIRA", "ER_REGIAO_CIDADE_min": "Tupi Paulista_Tupi Paulista_Presidente Prudente" }, "geometry": { "type": "Point", "coordinates": [ -51.5795615, -21.3943383 ] } },
{ "type": "Feature", "properties": { "fid": 99554, "CNPJ": "17530218000150", "IDCIDADE": "TUPI PAULISTA", "NOMEFANTASIA": "-", "RAZAOSOCIAL": "17.530.218_FLAVIO_JOSE_DO_CARMO", "ENDEE": "1A AVENIDA ANTONIA PORTOLEZ, 845, CENTRO, 17930-000, TUPI PAULISTA, SP, BRASIL", "LMAPS": "https://www.google.com/maps?q=&layer=c&cbll=-21.3797701,-51.5744385", "O_QUE_FAZER": "CARTEIRA - FAMPE", "ER_REGIAO_CIDADE_min": "Tupi Paulista_Tupi Paulista_Presidente Prudente" }, "geometry": { "type": "Point", "coordinates": [ -51.5744385, -21.3797701 ] } },
{ "type": "Feature", "properties": { "fid": 100689, "CNPJ": "17767234000161", "IDCIDADE": "TUPI_PAULISTA", "NOMEFANTASIA": "GERNANDO_VEICULOS", "RAZAOSOCIAL": "FERNANDO_BIFI_VEICULOS_LTDA", "ENDEE": "AVENIDA_NOVE_DE_JULHO75__CENTRO_17930-000", "LMAPS": "https://www.google.com/maps?q=&layer=c&cbll=-21.3927241,-51.5785923", "O_QUE_FAZER": "CARTEIRA", "ER_REGIAO_CIDADE_min": "Tupi Paulista_Tupi Paulista_Presidente Prudente" }, "geometry": { "type": "Point", "coordinates": [ -51.5785923, -21.3927241 ] } },
{ "type": "Feature", "properties": { "fid": 100743, "CNPJ": "17776132000102", "IDCIDADE": "TUPI_PAULISTA", "NOMEFANTASIA": "OTICA_NOVA_OTICA", "RAZAOSOCIAL": "LORENA_CRESTANI_COMISSO", "ENDEE": "AVENIDA_NOVE_DE_JULHO753__CENTRO_17930-000", "LMAPS": "https://www.google.com/maps?q=&layer=c&cbll=-21.3879572,-51.5729695", "O_QUE_FAZER": "CARTEIRA", "ER_REGIAO_CIDADE_min": "Tupi Paulista_Tupi Paulista_Presidente Prudente" }, "geometry": { "type": "Point", "coordinates": [ -51.5729695, -21.3879572 ] } },
{ "type": "Feature", "properties": { "fid": 102145, "CNPJ": "18036060000120", "IDCIDADE": "TUPI_PAULISTA", "NOMEFANTASIA": "PACO_TINTAS", "RAZAOSOCIAL": "MARCOS_ROBERTO_AURESCO", "ENDEE": "AVENIDA_NOVE_DE_JULHO166__CENTRO_17930-000", "LMAPS": "https://www.google.com/maps?q=&layer=c&cbll=-21.3922717,-51.5776164", "O_QUE_FAZER": "CARTEIRA", "ER_REGIAO_CIDADE_min": "Tupi Paulista_Tupi Paulista_Presidente Prudente" }, "geometry": { "type": "Point", "coordinates": [ -51.5776164, -21.3922717 ] } },
{ "type": "Feature", "properties": { "fid": 102797, "CNPJ": "18176186000108", "IDCIDADE": "TUPI_PAULISTA", "NOMEFANTASIA": "HOTEL_TUPI", "RAZAOSOCIAL": "MOLINA_&_OLIVEIRA_HOTEL_LTDA", "ENDEE": "AVENIDA_NOVE_DE_JULHO157__CENTRO_17930-000", "LMAPS": "https://www.google.com/maps?q=&layer=c&cbll=-21.3921922,-51.5777931", "O_QUE_FAZER": "CARTEIRA", "ER_REGIAO_CIDADE_min": "Tupi Paulista_Tupi Paulista_Presidente Prudente" }, "geometry": { "type": "Point", "coordinates": [ -51.5777931, -21.3921922 ] } },
{ "type": "Feature", "properties": { "fid": 104625, "CNPJ": "18573625000108", "IDCIDADE": "TUPI PAULISTA", "NOMEFANTASIA": "CHITAO_PECAS_E_ACESSORIOS", "RAZAOSOCIAL": "JOSE_DONIZETE_GOMES_PECAS_E_ACESSORIOS", "ENDEE": "AVENIDA MARGINAL, 261, PARQUE INDUSTRIAL, 17930-000, TUPI PAULISTA, SP, BRASIL", "LMAPS": "https://www.google.com/maps?q=&layer=c&cbll=-21.3835745,-51.5855008", "O_QUE_FAZER": "CARTEIRA - FAMPE", "ER_REGIAO_CIDADE_min": "Tupi Paulista_Tupi Paulista_Presidente Prudente" }, "geometry": { "type": "Point", "coordinates": [ -51.5855008, -21.3835745 ] } },
{ "type": "Feature", "properties": { "fid": 105299, "CNPJ": "18702338000150", "IDCIDADE": "TUPI_PAULISTA", "NOMEFANTASIA": "PAES_MARIA", "RAZAOSOCIAL": "PANIFICADORA_BARRAVIEIRA_&_SILVA_LTDA", "ENDEE": "AVENIDA_NOVE_DE_JULHO1216__CENTRO_17930-000", "LMAPS": "https://www.google.com/maps?q=&layer=c&cbll=-21.3842283,-51.568435", "O_QUE_FAZER": "CARTEIRA", "ER_REGIAO_CIDADE_min": "Tupi Paulista_Tupi Paulista_Presidente Prudente" }, "geometry": { "type": "Point", "coordinates": [ -51.568435, -21.3842283 ] } },
{ "type": "Feature", "properties": { "fid": 109272, "CNPJ": "19576337000170", "IDCIDADE": "TUPI_PAULISTA", "NOMEFANTASIA": "PLANETA_AGUA", "RAZAOSOCIAL": "OLINDA_GARCIA_LOPES_LTDA", "ENDEE": "AVENIDA_JOAO_MOELLERS39__CENTRO_17930-001", "LMAPS": "https://www.google.com/maps?q=&layer=c&cbll=-21.3869667,-51.5799917", "O_QUE_FAZER": "CARTEIRA", "ER_REGIAO_CIDADE_min": "Tupi Paulista_Tupi Paulista_Presidente Prudente" }, "geometry": { "type": "Point", "coordinates": [ -51.5799917, -21.3869667 ] } },
{ "type": "Feature", "properties": { "fid": 112226, "CNPJ": "20246442000120", "IDCIDADE": "TUPI_PAULISTA", "NOMEFANTASIA": "BOTELHO_REFRIGERACAO", "RAZAOSOCIAL": "MILENE_TORQUATO_BOTELHO", "ENDEE": "AVENIDA_DONA_BENEDITA_CAMARGO927__CENTRO_17930-000", "LMAPS": "https://www.google.com/maps?q=&layer=c&cbll=-21.3896582,-51.5752556", "O_QUE_FAZER": "CARTEIRA", "ER_REGIAO_CIDADE_min": "Tupi Paulista_Tupi Paulista_Presidente Prudente" }, "geometry": { "type": "Point", "coordinates": [ -51.5752556, -21.3896582 ] } },
{ "type": "Feature", "properties": { "fid": 113143, "CNPJ": "20434266000150", "IDCIDADE": "TUPI_PAULISTA", "NOMEFANTASIA": "TERTULIA_RESTAURANTE", "RAZAOSOCIAL": "MILTON_AKIRA_TAKETA", "ENDEE": "AVENIDA_NOVE_DE_JULHO188__CENTRO_17930-000", "LMAPS": "https://www.google.com/maps?q=&layer=c&cbll=-21.3903438,-51.5755879", "O_QUE_FAZER": "CARTEIRA", "ER_REGIAO_CIDADE_min": "Tupi Paulista_Tupi Paulista_Presidente Prudente" }, "geometry": { "type": "Point", "coordinates": [ -51.5755879, -21.3903438 ] } },
{ "type": "Feature", "properties": { "fid": 116126, "CNPJ": "21136904000119", "IDCIDADE": "TUPI_PAULISTA", "NOMEFANTASIA": "CONSOLINI_PNEUS", "RAZAOSOCIAL": "RICARDO_SEDANO_CONSOLINI", "ENDEE": "AVENIDA_NOVE_DE_JULHO142__CENTRO_17930-000", "LMAPS": "https://www.google.com/maps?q=&layer=c&cbll=-21.3924267,-51.5778115", "O_QUE_FAZER": "CARTEIRA", "ER_REGIAO_CIDADE_min": "Tupi Paulista_Tupi Paulista_Presidente Prudente" }, "geometry": { "type": "Point", "coordinates": [ -51.5778115, -21.3924267 ] } },
{ "type": "Feature", "properties": { "fid": 116156, "CNPJ": "21145113000236", "IDCIDADE": "TUPI_PAULISTA", "NOMEFANTASIA": "GUIDO_STORE", "RAZAOSOCIAL": "GRUPO_GUIDO_LTDA", "ENDEE": "AVENIDA_NOVE_DE_JULHO465__CENTRO_17930-000", "LMAPS": "https://www.google.com/maps?q=&layer=c&cbll=-21.3886571,-51.5737861", "O_QUE_FAZER": "CARTEIRA", "ER_REGIAO_CIDADE_min": "Tupi Paulista_Tupi Paulista_Presidente Prudente" }, "geometry": { "type": "Point", "coordinates": [ -51.5737861, -21.3886571 ] } },
{ "type": "Feature", "properties": { "fid": 118170, "CNPJ": "21588046000143", "IDCIDADE": "TUPI_PAULISTA", "NOMEFANTASIA": "CRED_FACIL", "RAZAOSOCIAL": "AROLDO_DE_SOUZA_PAES_ASSESSORIA_E_CONSULTORIA_LTDA", "ENDEE": "RUA_TIRADENTES572__CENTRO_17930-037", "LMAPS": "https://www.google.com/maps?q=&layer=c&cbll=-21.3877784,-51.5737216", "O_QUE_FAZER": "CARTEIRA", "ER_REGIAO_CIDADE_min": "Tupi Paulista_Tupi Paulista_Presidente Prudente" }, "geometry": { "type": "Point", "coordinates": [ -51.5737216, -21.3877784 ] } },
{ "type": "Feature", "properties": { "fid": 124886, "CNPJ": "23017621000183", "IDCIDADE": "TUPI_PAULISTA", "NOMEFANTASIA": "CIA_VALERA", "RAZAOSOCIAL": "VALERIA_CRISTINA_DE_SOUZA_CONFEITARIA", "ENDEE": "RUA_DUQUE_DE_CAXIAS521__CENTRO_17930-009", "LMAPS": "https://www.google.com/maps?q=&layer=c&cbll=-21.3870835,-51.573576", "O_QUE_FAZER": "CARTEIRA", "ER_REGIAO_CIDADE_min": "Tupi Paulista_Tupi Paulista_Presidente Prudente" }, "geometry": { "type": "Point", "coordinates": [ -51.573576, -21.3870835 ] } },
{ "type": "Feature", "properties": { "fid": 128407, "CNPJ": "23762861000102", "IDCIDADE": "TUPI_PAULISTA", "NOMEFANTASIA": "GARAGE_MECANICA", "RAZAOSOCIAL": "GARAGEM_MECANICA_E_PECAS_LTDA", "ENDEE": "AVENIDA_BRASIL592__CENTRO_17930-029", "LMAPS": "https://www.google.com/maps?q=&layer=c&cbll=-21.3903218,-51.5769116", "O_QUE_FAZER": "CARTEIRA", "ER_REGIAO_CIDADE_min": "Tupi Paulista_Tupi Paulista_Presidente Prudente" }, "geometry": { "type": "Point", "coordinates": [ -51.5769116, -21.3903218 ] } },
{ "type": "Feature", "properties": { "fid": 131516, "CNPJ": "24409352000163", "IDCIDADE": "TUPI_PAULISTA", "NOMEFANTASIA": "AQUI_BARATO", "RAZAOSOCIAL": "GIULIANO_MASCOLI_DE_FAVARE", "ENDEE": "AVENIDA_NOVE_DE_JULHO563__CENTRO_17930-000", "LMAPS": "https://www.google.com/maps?q=&layer=c&cbll=-21.3880879,-51.5730775", "O_QUE_FAZER": "CARTEIRA", "ER_REGIAO_CIDADE_min": "Tupi Paulista_Tupi Paulista_Presidente Prudente" }, "geometry": { "type": "Point", "coordinates": [ -51.5730775, -21.3880879 ] } },
{ "type": "Feature", "properties": { "fid": 133657, "CNPJ": "24834828000103", "IDCIDADE": "TUPI_PAULISTA", "NOMEFANTASIA": "GOU", "RAZAOSOCIAL": "BINI_COUTINHO_ODONTOLOGIA_LTDA", "ENDEE": "RUA_DUQUE_DE_CAXIAS526__CENTRO_17930-009", "LMAPS": "https://www.google.com/maps?q=&layer=c&cbll=-21.3869917,-51.573305", "O_QUE_FAZER": "CARTEIRA", "ER_REGIAO_CIDADE_min": "Tupi Paulista_Tupi Paulista_Presidente Prudente" }, "geometry": { "type": "Point", "coordinates": [ -51.573305, -21.3869917 ] } },
{ "type": "Feature", "properties": { "fid": 137594, "CNPJ": "26133372000180", "IDCIDADE": "TUPI_PAULISTA", "NOMEFANTASIA": "ODONTO_COMPANY", "RAZAOSOCIAL": "CLINICA_ODONTOLOGICA_SORRIA_TUPI_PAULISTA_LTDA", "ENDEE": "AVENIDA_NOVE_DE_JULHO282__CENTRO_17930-000", "LMAPS": "https://www.google.com/maps?q=&layer=c&cbll=-21.3899221,-51.5748805", "O_QUE_FAZER": "CARTEIRA", "ER_REGIAO_CIDADE_min": "Tupi Paulista_Tupi Paulista_Presidente Prudente" }, "geometry": { "type": "Point", "coordinates": [ -51.5748805, -21.3899221 ] } },
{ "type": "Feature", "properties": { "fid": 137627, "CNPJ": "26142637000106", "IDCIDADE": "TUPI PAULISTA", "NOMEFANTASIA": "PERINI_TRANSPORTES", "RAZAOSOCIAL": "EDNA_DE_FATIMA_ASTOLFO_PERINI_TRANSPORTE_LTDA", "ENDEE": "RUA JOAQUIM MACHADO, 272, SALA 01, JARDIM ORIENTE, 17930-000, TUPI PAULISTA, SP, BRASIL", "LMAPS": "https://www.google.com/maps?q=&layer=c&cbll=-21.3937953,-51.57822", "O_QUE_FAZER": "CARTEIRA - FAMPE", "ER_REGIAO_CIDADE_min": "Tupi Paulista_Tupi Paulista_Presidente Prudente" }, "geometry": { "type": "Point", "coordinates": [ -51.57822, -21.3937953 ] } },
{ "type": "Feature", "properties": { "fid": 147914, "CNPJ": "28117531000188", "IDCIDADE": "TUPI PAULISTA", "NOMEFANTASIA": "NOVA_GERACAO_ASSESSORIA_FISCAL_E_CONTABIL", "RAZAOSOCIAL": "LUCAS_VALFREDO_LUNDQUIST", "ENDEE": "RUA TIRADENTES, 400, SALA B, CENTRO, 17930-000, TUPI PAULISTA, SP, BRASIL", "LMAPS": "https://www.google.com/maps?q=&layer=c&cbll=-21.3864835,-51.5754019", "O_QUE_FAZER": "CARTEIRA - FAMPE", "ER_REGIAO_CIDADE_min": "Tupi Paulista_Tupi Paulista_Presidente Prudente" }, "geometry": { "type": "Point", "coordinates": [ -51.5754019, -21.3864835 ] } },
{ "type": "Feature", "properties": { "fid": 149429, "CNPJ": "28378911000176", "IDCIDADE": "TUPI_PAULISTA", "NOMEFANTASIA": "TUPIVET", "RAZAOSOCIAL": "TUPIVET_COMERCIO_DE_RACOES_LTDA", "ENDEE": "AVENIDA_NOVE_DE_JULHO311__CENTRO_17930-000", "LMAPS": "https://www.google.com/maps?q=&layer=c&cbll=-21.3895092,-51.5749105", "O_QUE_FAZER": "CARTEIRA", "ER_REGIAO_CIDADE_min": "Tupi Paulista_Tupi Paulista_Presidente Prudente" }, "geometry": { "type": "Point", "coordinates": [ -51.5749105, -21.3895092 ] } },
{ "type": "Feature", "properties": { "fid": 149757, "CNPJ": "28438106000190", "IDCIDADE": "TUPI_PAULISTA", "NOMEFANTASIA": "RECANTO_DO_CRIADOR", "RAZAOSOCIAL": "CARLOS_HENRIQUE_MARIM_PEREIRA", "ENDEE": "AVENIDA_BRASIL932__CENTRO_17930-029", "LMAPS": "https://www.google.com/maps?q=&layer=c&cbll=-21.3875617,-51.5791367", "O_QUE_FAZER": "CARTEIRA", "ER_REGIAO_CIDADE_min": "Tupi Paulista_Tupi Paulista_Presidente Prudente" }, "geometry": { "type": "Point", "coordinates": [ -51.5791367, -21.3875617 ] } },
{ "type": "Feature", "properties": { "fid": 152936, "CNPJ": "29045840000152", "IDCIDADE": "TUPI_PAULISTA", "NOMEFANTASIA": "AR_IMPORTADOS", "RAZAOSOCIAL": "D.P._PINHO_RICCI", "ENDEE": "AVENIDA_NOVE_DE_JULHO793__CENTRO_17930-000", "LMAPS": "https://www.google.com/maps?q=&layer=c&cbll=-21.3866294,-51.5714872", "O_QUE_FAZER": "CARTEIRA", "ER_REGIAO_CIDADE_min": "Tupi Paulista_Tupi Paulista_Presidente Prudente" }, "geometry": { "type": "Point", "coordinates": [ -51.5714872, -21.3866294 ] } },
{ "type": "Feature", "properties": { "fid": 153497, "CNPJ": "29140674000173", "IDCIDADE": "TUPI PAULISTA", "NOMEFANTASIA": "CASA_DE_RACAO_OASIS", "RAZAOSOCIAL": "FERNANDO_ROBSON_MARCIANO", "ENDEE": "ESTRADA VICINAL TUPI PAULISTA A DRACENA KM 04 - ESTANCIA G.F, 837, OASIS, 17930-000, TUPI PAULISTA, SP, BRASIL", "LMAPS": "https://www.google.com/maps?q=&layer=c&cbll=-21.3883405,-51.5732814", "O_QUE_FAZER": "CARTEIRA - FAMPE", "ER_REGIAO_CIDADE_min": "Tupi Paulista_Tupi Paulista_Presidente Prudente" }, "geometry": { "type": "Point", "coordinates": [ -51.5732814, -21.3883405 ] } },
{ "type": "Feature", "properties": { "fid": 153793, "CNPJ": "29190106000187", "IDCIDADE": "TUPI_PAULISTA", "NOMEFANTASIA": "TUPI_VISTORIA", "RAZAOSOCIAL": "N._A._DE_OLIVEIRA_VISTORIA_VEICULAR", "ENDEE": "AVENIDA_BRASIL906__CENTRO_17930-029", "LMAPS": "https://www.google.com/maps?q=&layer=c&cbll=-21.3879784,-51.5787255", "O_QUE_FAZER": "CARTEIRA", "ER_REGIAO_CIDADE_min": "Tupi Paulista_Tupi Paulista_Presidente Prudente" }, "geometry": { "type": "Point", "coordinates": [ -51.5787255, -21.3879784 ] } },
{ "type": "Feature", "properties": { "fid": 153994, "CNPJ": "29229645000263", "IDCIDADE": "TUPI_PAULISTA", "NOMEFANTASIA": "ACQUA_FIT", "RAZAOSOCIAL": "RAJO_ACADEMIA_LTDA", "ENDEE": "AVENIDA_BRASIL830__CENTRO_17930-029", "LMAPS": "https://www.google.com/maps?q=&layer=c&cbll=-21.3886241,-51.5784982", "O_QUE_FAZER": "CARTEIRA", "ER_REGIAO_CIDADE_min": "Tupi Paulista_Tupi Paulista_Presidente Prudente" }, "geometry": { "type": "Point", "coordinates": [ -51.5784982, -21.3886241 ] } },
{ "type": "Feature", "properties": { "fid": 160283, "CNPJ": "30481994000176", "IDCIDADE": "TUPI_PAULISTA", "NOMEFANTASIA": "CLINICA_MIGUELOTI", "RAZAOSOCIAL": "MARIELLE_PAULA_MIGUELOTI_DOS_SANTOS_ZANONI_LTDA", "ENDEE": "RUA_TIRADENTES547__CENTRO_17930-000", "LMAPS": "https://www.google.com/maps?q=&layer=c&cbll=-21.3880444,-51.5736569", "O_QUE_FAZER": "CARTEIRA", "ER_REGIAO_CIDADE_min": "Tupi Paulista_Tupi Paulista_Presidente Prudente" }, "geometry": { "type": "Point", "coordinates": [ -51.5736569, -21.3880444 ] } },
{ "type": "Feature", "properties": { "fid": 166500, "CNPJ": "31707353000150", "IDCIDADE": "TUPI_PAULISTA", "NOMEFANTASIA": "31.707.353_ANSELMO_SILVA_PEREIRA", "RAZAOSOCIAL": "31.707.353_ANSELMO_SILVA_PEREIRA", "ENDEE": "1011_SANTA_AMELIA0__GUARACIABA_17930-000", "LMAPS": "https://www.google.com/maps?q=&layer=c&cbll=-21.3883405,-51.5732814", "O_QUE_FAZER": "FINALIZADO", "ER_REGIAO_CIDADE_min": "Tupi Paulista_Tupi Paulista_Presidente Prudente" }, "geometry": { "type": "Point", "coordinates": [ -51.5732814, -21.3883405 ] } },
{ "type": "Feature", "properties": { "fid": 168840, "CNPJ": "32182905000116", "IDCIDADE": "TUPI_PAULISTA", "NOMEFANTASIA": "SOAR_LIMP", "RAZAOSOCIAL": "S.M_HENRIQUE_PRODUTOS_DE_LIMPEZA", "ENDEE": "AVENIDA_NOVE_DE_JULHO63__CENTRO_17930-000", "LMAPS": "https://www.google.com/maps?q=&layer=c&cbll=-21.3929335,-51.5786218", "O_QUE_FAZER": "CARTEIRA", "ER_REGIAO_CIDADE_min": "Tupi Paulista_Tupi Paulista_Presidente Prudente" }, "geometry": { "type": "Point", "coordinates": [ -51.5786218, -21.3929335 ] } },
{ "type": "Feature", "properties": { "fid": 171831, "CNPJ": "32830854000191", "IDCIDADE": "TUPI_PAULISTA", "NOMEFANTASIA": "MERCADO_REAL", "RAZAOSOCIAL": "L_G_DE_ALMEIDA", "ENDEE": "AVENIDA_BENEDITA_CAMARGO1462__JARDIM_APARECIDA_17930-000", "LMAPS": "https://www.google.com/maps?q=&layer=c&cbll=-21.382562,-51.5805164", "O_QUE_FAZER": "CARTEIRA", "ER_REGIAO_CIDADE_min": "Tupi Paulista_Tupi Paulista_Presidente Prudente" }, "geometry": { "type": "Point", "coordinates": [ -51.5805164, -21.382562 ] } },
{ "type": "Feature", "properties": { "fid": 172837, "CNPJ": "33026242000103", "IDCIDADE": "TUPI_PAULISTA", "NOMEFANTASIA": "DONA_CHARME", "RAZAOSOCIAL": "MICHELE_FERNANDA_DA_SILVA_MORAES_LTDA", "ENDEE": "AVENIDA_NOVE_DE_JULHO596__CENTRO_17930-000", "LMAPS": "https://www.google.com/maps?q=&layer=c&cbll=-21.3880136,-51.572752", "O_QUE_FAZER": "CARTEIRA", "ER_REGIAO_CIDADE_min": "Tupi Paulista_Tupi Paulista_Presidente Prudente" }, "geometry": { "type": "Point", "coordinates": [ -51.572752, -21.3880136 ] } },
{ "type": "Feature", "properties": { "fid": 182375, "CNPJ": "34851978000189", "IDCIDADE": "TUPI_PAULISTA", "NOMEFANTASIA": "EMPORIO_DOS_PAES", "RAZAOSOCIAL": "JULIO_CESAR_PEREIRA_CONFEITARIA", "ENDEE": "AVENIDA_NOVE_DE_JULHO86__CENTRO_17930-000", "LMAPS": "https://www.google.com/maps?q=&layer=c&cbll=-21.3911505,-51.5762847", "O_QUE_FAZER": "CARTEIRA", "ER_REGIAO_CIDADE_min": "Tupi Paulista_Tupi Paulista_Presidente Prudente" }, "geometry": { "type": "Point", "coordinates": [ -51.5762847, -21.3911505 ] } },
{ "type": "Feature", "properties": { "fid": 195839, "CNPJ": "37836714000144", "IDCIDADE": "TUPI_PAULISTA", "NOMEFANTASIA": "DROGAO_POPULAR", "RAZAOSOCIAL": "JEANDERSON_PEROZZI_DE_CARVALHO", "ENDEE": "AVENIDA_NOVE_DE_JULHO1007__CENTRO_17930-000", "LMAPS": "https://www.google.com/maps?q=&layer=c&cbll=-21.385343,-51.5699464", "O_QUE_FAZER": "CARTEIRA", "ER_REGIAO_CIDADE_min": "Tupi Paulista_Tupi Paulista_Presidente Prudente" }, "geometry": { "type": "Point", "coordinates": [ -51.5699464, -21.385343 ] } },
{ "type": "Feature", "properties": { "fid": 200350, "CNPJ": "39255967000150", "IDCIDADE": "TUPI_PAULISTA", "NOMEFANTASIA": "GF_CAPITAL", "RAZAOSOCIAL": "GRASSI_&_FERNANDES_LTDA", "ENDEE": "AVENIDA_NOVE_DE_JULHO312__CENTRO_17930-000", "LMAPS": "https://www.google.com/maps?q=&layer=c&cbll=-21.3896891,-51.5746874", "O_QUE_FAZER": "CARTEIRA", "ER_REGIAO_CIDADE_min": "Tupi Paulista_Tupi Paulista_Presidente Prudente" }, "geometry": { "type": "Point", "coordinates": [ -51.5746874, -21.3896891 ] } },
{ "type": "Feature", "properties": { "fid": 200804, "CNPJ": "39346316000175", "IDCIDADE": "TUPI_PAULISTA", "NOMEFANTASIA": "RETRI_RAS", "RAZAOSOCIAL": "IRIVAN_PEREIRA_DE_SOUZA", "ENDEE": "RUA_PRINCESA_ISABEL540__CENTRO_17930-033", "LMAPS": "https://www.google.com/maps?q=&layer=c&cbll=-21.3892587,-51.5749982", "O_QUE_FAZER": "CARTEIRA", "ER_REGIAO_CIDADE_min": "Tupi Paulista_Tupi Paulista_Presidente Prudente" }, "geometry": { "type": "Point", "coordinates": [ -51.5749982, -21.3892587 ] } },
{ "type": "Feature", "properties": { "fid": 204494, "CNPJ": "40121562000108", "IDCIDADE": "TUPI_PAULISTA", "NOMEFANTASIA": "STAR_MOTOS", "RAZAOSOCIAL": "START_MOTOS_LTDA", "ENDEE": "RUA_OLIVIO_SEGATTO521__CENTRO_17930-000", "LMAPS": "https://www.google.com/maps?q=&layer=c&cbll=-21.3857754,-51.5707212", "O_QUE_FAZER": "CARTEIRA", "ER_REGIAO_CIDADE_min": "Tupi Paulista_Tupi Paulista_Presidente Prudente" }, "geometry": { "type": "Point", "coordinates": [ -51.5707212, -21.3857754 ] } },
{ "type": "Feature", "properties": { "fid": 207092, "CNPJ": "40836644000139", "IDCIDADE": "TUPI_PAULISTA", "NOMEFANTASIA": "RACOES_CALIFORNIA", "RAZAOSOCIAL": "LARICE_RIBEIRO_DE_MELLO", "ENDEE": "AVENIDA_NOVE_DE_JULHO1112__CENTRO_17930-000", "LMAPS": "https://www.google.com/maps?q=&layer=c&cbll=-21.3848242,-51.5691646", "O_QUE_FAZER": "CARTEIRA", "ER_REGIAO_CIDADE_min": "Tupi Paulista_Tupi Paulista_Presidente Prudente" }, "geometry": { "type": "Point", "coordinates": [ -51.5691646, -21.3848242 ] } },
{ "type": "Feature", "properties": { "fid": 207245, "CNPJ": "40865168000184", "IDCIDADE": "TUPI_PAULISTA", "NOMEFANTASIA": "SPARTAN_BOX", "RAZAOSOCIAL": "SPARTAN_BOX_CROSS_TRAINING_E_FUNCIONAL_LTDA", "ENDEE": "AVENIDA_NOVE_DE_JULHO1755__CENTRO_17930-000", "LMAPS": "https://www.google.com/maps?q=&layer=c&cbll=-21.380504,-51.5644864", "O_QUE_FAZER": "CARTEIRA", "ER_REGIAO_CIDADE_min": "Tupi Paulista_Tupi Paulista_Presidente Prudente" }, "geometry": { "type": "Point", "coordinates": [ -51.5644864, -21.380504 ] } },
{ "type": "Feature", "properties": { "fid": 209221, "CNPJ": "41387387000249", "IDCIDADE": "TUPI_PAULISTA", "NOMEFANTASIA": "NIYATI_EMPORIA", "RAZAOSOCIAL": "NIYATI_COMERCIO_DE_PRODUTOS_NATURAIS_LTDA", "ENDEE": "AVENIDA_NOVE_DE_JULHO403__CENTRO_17930-000", "LMAPS": "https://www.google.com/maps?q=&layer=c&cbll=-21.3890687,-51.5741787", "O_QUE_FAZER": "CARTEIRA", "ER_REGIAO_CIDADE_min": "Tupi Paulista_Tupi Paulista_Presidente Prudente" }, "geometry": { "type": "Point", "coordinates": [ -51.5741787, -21.3890687 ] } },
{ "type": "Feature", "properties": { "fid": 209831, "CNPJ": "41559029000195", "IDCIDADE": "TUPI_PAULISTA", "NOMEFANTASIA": "TEC_VIN_INFORMATICA", "RAZAOSOCIAL": "EUQUERIO_PEREIRA_MOLINA_JUNIOR", "ENDEE": "RUA_PRINCESA_ISABEL435__CENTRO_17930-033", "LMAPS": "https://www.google.com/maps?q=&layer=c&cbll=-21.3898233,-51.574645", "O_QUE_FAZER": "CARTEIRA", "ER_REGIAO_CIDADE_min": "Tupi Paulista_Tupi Paulista_Presidente Prudente" }, "geometry": { "type": "Point", "coordinates": [ -51.574645, -21.3898233 ] } },
{ "type": "Feature", "properties": { "fid": 210684, "CNPJ": "41751187000142", "IDCIDADE": "TUPI_PAULISTA", "NOMEFANTASIA": "NEVES_CALCADOS", "RAZAOSOCIAL": "FLAVIO_MARQUEZIM_GONCALVES_LTDA", "ENDEE": "AVENIDA_NOVE_DE_JULHO562__CENTRO_17930-000", "LMAPS": "https://www.google.com/maps?q=&layer=c&cbll=-21.3882375,-51.5729065", "O_QUE_FAZER": "CARTEIRA", "ER_REGIAO_CIDADE_min": "Tupi Paulista_Tupi Paulista_Presidente Prudente" }, "geometry": { "type": "Point", "coordinates": [ -51.5729065, -21.3882375 ] } },
{ "type": "Feature", "properties": { "fid": 214049, "CNPJ": "42509187000101", "IDCIDADE": "TUPI_PAULISTA", "NOMEFANTASIA": "ESCRITORIO_TUPI", "RAZAOSOCIAL": "CONTABIL_ASSESSORIA_E_DESPACHANTE_LTDA", "ENDEE": "AVENIDA_NOVE_DE_JULHO458__CENTRO_17930-000", "LMAPS": "https://www.google.com/maps?q=&layer=c&cbll=-21.3888426,-51.5736189", "O_QUE_FAZER": "CARTEIRA", "ER_REGIAO_CIDADE_min": "Tupi Paulista_Tupi Paulista_Presidente Prudente" }, "geometry": { "type": "Point", "coordinates": [ -51.5736189, -21.3888426 ] } },
{ "type": "Feature", "properties": { "fid": 224560, "CNPJ": "44673015000196", "IDCIDADE": "TUPI_PAULISTA", "NOMEFANTASIA": "FRUTYDELLYS_TUPI", "RAZAOSOCIAL": "CHR_SORVETES_LTDA", "ENDEE": "AVENIDA_NOVE_DE_JULHO464__CENTRO_17930-000", "LMAPS": "https://www.google.com/maps?q=&layer=c&cbll=-21.3887404,-51.5736402", "O_QUE_FAZER": "CARTEIRA - FAMPE", "ER_REGIAO_CIDADE_min": "Tupi Paulista_Tupi Paulista_Presidente Prudente" }, "geometry": { "type": "Point", "coordinates": [ -51.5736402, -21.3887404 ] } },
{ "type": "Feature", "properties": { "fid": 226418, "CNPJ": "45110634000135", "IDCIDADE": "TUPI_PAULISTA", "NOMEFANTASIA": "BENDITA_FOME", "RAZAOSOCIAL": "JAICE_CRISTINA_DA_SILVA_PASCHOALETTE", "ENDEE": "AVENIDA_NOVE_DE_JULHO380__CENTRO_17930-000", "LMAPS": "https://www.google.com/maps?q=&layer=c&cbll=-21.3893591,-51.5742078", "O_QUE_FAZER": "CARTEIRA", "ER_REGIAO_CIDADE_min": "Tupi Paulista_Tupi Paulista_Presidente Prudente" }, "geometry": { "type": "Point", "coordinates": [ -51.5742078, -21.3893591 ] } },
{ "type": "Feature", "properties": { "fid": 226684, "CNPJ": "45176085000100", "IDCIDADE": "TUPI_PAULISTA", "NOMEFANTASIA": "KALIM", "RAZAOSOCIAL": "RPM_TUPI_PRODUTOS_DE_LIMPEZA_E_JARDINAGEM_LTDA", "ENDEE": "AVENIDA_NOVE_DE_JULHO351__CENTRO_17930-000", "LMAPS": "https://www.google.com/maps?q=&layer=c&cbll=-21.3893493,-51.5745468", "O_QUE_FAZER": "CARTEIRA", "ER_REGIAO_CIDADE_min": "Tupi Paulista_Tupi Paulista_Presidente Prudente" }, "geometry": { "type": "Point", "coordinates": [ -51.5745468, -21.3893493 ] } },
{ "type": "Feature", "properties": { "fid": 227088, "CNPJ": "45258093000197", "IDCIDADE": "TUPI_PAULISTA", "NOMEFANTASIA": "LECO_GAZ_E_AGUA", "RAZAOSOCIAL": "MICHELLE_MITUE_TAHARA_MENEGATTI", "ENDEE": "AVENIDA_NOVE_DE_JULHO50__CENTRO_17930-000", "LMAPS": "https://www.google.com/maps?q=&layer=c&cbll=-21.3914511,-51.5765205", "O_QUE_FAZER": "CARTEIRA", "ER_REGIAO_CIDADE_min": "Tupi Paulista_Tupi Paulista_Presidente Prudente" }, "geometry": { "type": "Point", "coordinates": [ -51.5765205, -21.3914511 ] } },
{ "type": "Feature", "properties": { "fid": 232925, "CNPJ": "46459426000109", "IDCIDADE": "TUPI_PAULISTA", "NOMEFANTASIA": "RELOJOARIA_SEIKO", "RAZAOSOCIAL": "MASAOKA_&_KANAOKA_LTDA", "ENDEE": "AVENIDA_NOVE_DE_JULHO488__CENTRO_17930-000", "LMAPS": "https://www.google.com/maps?q=&layer=c&cbll=-21.3886623,-51.5734224", "O_QUE_FAZER": "CARTEIRA", "ER_REGIAO_CIDADE_min": "Tupi Paulista_Tupi Paulista_Presidente Prudente" }, "geometry": { "type": "Point", "coordinates": [ -51.5734224, -21.3886623 ] } },
{ "type": "Feature", "properties": { "fid": 236745, "CNPJ": "47227460000110", "IDCIDADE": "TUPI_PAULISTA", "NOMEFANTASIA": "OVOS", "RAZAOSOCIAL": "SOUZA_&_HERNANDES_LTDA", "ENDEE": "AVENIDA_NOVE_DE_JULHO1477__CENTRO_17930-000", "LMAPS": "https://www.google.com/maps?q=&layer=c&cbll=-21.3822299,-51.5661752", "O_QUE_FAZER": "CARTEIRA", "ER_REGIAO_CIDADE_min": "Tupi Paulista_Tupi Paulista_Presidente Prudente" }, "geometry": { "type": "Point", "coordinates": [ -51.5661752, -21.3822299 ] } },
{ "type": "Feature", "properties": { "fid": 237423, "CNPJ": "47373763000141", "IDCIDADE": "TUPI_PAULISTA", "NOMEFANTASIA": "FISIOCENTER", "RAZAOSOCIAL": "SOLANGE_MARIA_FIORUCI_VESSONI", "ENDEE": "AVENIDA_NOVE_DE_JULHO304__CENTRO_17930-000", "LMAPS": "https://www.google.com/maps?q=&layer=c&cbll=-21.389827,-51.5748575", "O_QUE_FAZER": "CARTEIRA", "ER_REGIAO_CIDADE_min": "Tupi Paulista_Tupi Paulista_Presidente Prudente" }, "geometry": { "type": "Point", "coordinates": [ -51.5748575, -21.389827 ] } },
{ "type": "Feature", "properties": { "fid": 237755, "CNPJ": "47436742000128", "IDCIDADE": "TUPI_PAULISTA", "NOMEFANTASIA": "EMPORIO_D'TALIA", "RAZAOSOCIAL": "BGB_COMERCIAL_LTDA", "ENDEE": "AVENIDA_BRASIL616__CENTRO_17930-029", "LMAPS": "https://www.google.com/maps?q=&layer=c&cbll=-21.3901993,-51.5771338", "O_QUE_FAZER": "CARTEIRA", "ER_REGIAO_CIDADE_min": "Tupi Paulista_Tupi Paulista_Presidente Prudente" }, "geometry": { "type": "Point", "coordinates": [ -51.5771338, -21.3901993 ] } },
{ "type": "Feature", "properties": { "fid": 244452, "CNPJ": "48808406000121", "IDCIDADE": "TUPI_PAULISTA", "NOMEFANTASIA": "FARMAIS", "RAZAOSOCIAL": "LUIZ_CARLOS_ERNESTO_E_CIA_LTDA", "ENDEE": "AVENIDA_NOVE_DE_JULHO651__CENTRO_17930-000", "LMAPS": "https://www.google.com/maps?q=&layer=c&cbll=-21.387475,-51.5725633", "O_QUE_FAZER": "CARTEIRA", "ER_REGIAO_CIDADE_min": "Tupi Paulista_Tupi Paulista_Presidente Prudente" }, "geometry": { "type": "Point", "coordinates": [ -51.5725633, -21.387475 ] } },
{ "type": "Feature", "properties": { "fid": 245834, "CNPJ": "49144252000183", "IDCIDADE": "TUPI_PAULISTA", "NOMEFANTASIA": "DIGYDOOR", "RAZAOSOCIAL": "GUILHERME_RODRIGUES_MENDES", "ENDEE": "AVENIDA_SETE_DE_SETEMBRO541__CENTRO_17930-000", "LMAPS": "https://www.google.com/maps?q=&layer=c&cbll=-21.3862546,-51.5715898", "O_QUE_FAZER": "CARTEIRA", "ER_REGIAO_CIDADE_min": "Tupi Paulista_Tupi Paulista_Presidente Prudente" }, "geometry": { "type": "Point", "coordinates": [ -51.5715898, -21.3862546 ] } },
{ "type": "Feature", "properties": { "fid": 250380, "CNPJ": "50070668000183", "IDCIDADE": "TUPI_PAULISTA", "NOMEFANTASIA": "BORRACHARIA_TUPI", "RAZAOSOCIAL": "BORRACHARIA_TUPI_LTDA", "ENDEE": "AVENIDA_NOVE_DE_JULHO1051__CENTRO_17930-000", "LMAPS": "https://www.google.com/maps?q=&layer=c&cbll=-21.3850901,-51.5696299", "O_QUE_FAZER": "CARTEIRA", "ER_REGIAO_CIDADE_min": "Tupi Paulista_Tupi Paulista_Presidente Prudente" }, "geometry": { "type": "Point", "coordinates": [ -51.5696299, -21.3850901 ] } },
{ "type": "Feature", "properties": { "fid": 251032, "CNPJ": "50197721000101", "IDCIDADE": "TUPI_PAULISTA", "NOMEFANTASIA": "MY_WEB_INTERNET", "RAZAOSOCIAL": "MY_WEB_LTDA", "ENDEE": "RUA_TIRADENTES529__CENTRO_17930-037", "LMAPS": "https://www.google.com/maps?q=&layer=c&cbll=-21.3881498,-51.5735784", "O_QUE_FAZER": "CARTEIRA", "ER_REGIAO_CIDADE_min": "Tupi Paulista_Tupi Paulista_Presidente Prudente" }, "geometry": { "type": "Point", "coordinates": [ -51.5735784, -21.3881498 ] } },
{ "type": "Feature", "properties": { "fid": 251514, "CNPJ": "50292244000163", "IDCIDADE": "TUPI_PAULISTA", "NOMEFANTASIA": "CASA_DE_CARNES_MODELO", "RAZAOSOCIAL": "CASA_DE_CARNE_MODELO_LTDA", "ENDEE": "AVENIDA_NOVE_DE_JULHO164__CENTRO_17930-000", "LMAPS": "https://www.google.com/maps?q=&layer=c&cbll=-21.3906388,-51.5757417", "O_QUE_FAZER": "CARTEIRA - FAMPE", "ER_REGIAO_CIDADE_min": "Tupi Paulista_Tupi Paulista_Presidente Prudente" }, "geometry": { "type": "Point", "coordinates": [ -51.5757417, -21.3906388 ] } },
{ "type": "Feature", "properties": { "fid": 255331, "CNPJ": "51058046000100", "IDCIDADE": "TUPI_PAULISTA", "NOMEFANTASIA": "FABIANO_VEICULOS", "RAZAOSOCIAL": "JMSF_VEICULOS_LTDA", "ENDEE": "AVENIDA_NOVE_DE_JULHO12__CENTRO_17930-000", "LMAPS": "https://www.google.com/maps?q=&layer=c&cbll=-21.3935412,-51.5787562", "O_QUE_FAZER": "CARTEIRA", "ER_REGIAO_CIDADE_min": "Tupi Paulista_Tupi Paulista_Presidente Prudente" }, "geometry": { "type": "Point", "coordinates": [ -51.5787562, -21.3935412 ] } },
{ "type": "Feature", "properties": { "fid": 257890, "CNPJ": "51563306000197", "IDCIDADE": "TUPI_PAULISTA", "NOMEFANTASIA": "CASA_CARNES_UCKES", "RAZAOSOCIAL": "CASA_DE_CARNES_UCLES_LTDA", "ENDEE": "AVENIDA_JOAO_MOELLERS823__CENTRO_17930-001", "LMAPS": "https://www.google.com/maps?q=&layer=c&cbll=-21.3820017,-51.5741861", "O_QUE_FAZER": "CARTEIRA", "ER_REGIAO_CIDADE_min": "Tupi Paulista_Tupi Paulista_Presidente Prudente" }, "geometry": { "type": "Point", "coordinates": [ -51.5741861, -21.3820017 ] } },
{ "type": "Feature", "properties": { "fid": 259511, "CNPJ": "51889385000120", "IDCIDADE": "TUPI_PAULISTA", "NOMEFANTASIA": "VM_CONVENIENCIA", "RAZAOSOCIAL": "VM_CONVENIENCIA_LTDA", "ENDEE": "AVENIDA_NOVE_DE_JULHO77__CENTRO_17930-000", "LMAPS": "https://www.google.com/maps?q=&layer=c&cbll=-21.3909322,-51.576475", "O_QUE_FAZER": "CARTEIRA", "ER_REGIAO_CIDADE_min": "Tupi Paulista_Tupi Paulista_Presidente Prudente" }, "geometry": { "type": "Point", "coordinates": [ -51.576475, -21.3909322 ] } },
{ "type": "Feature", "properties": { "fid": 259641, "CNPJ": "51916194000372", "IDCIDADE": "TUPI_PAULISTA", "NOMEFANTASIA": "COZ_AJEANS", "RAZAOSOCIAL": "ARTHUR_OLIVEIRA_PALONI_SILVA", "ENDEE": "AVENIDA_NOVE_DE_JULHO545__CENTRO_17930-000", "LMAPS": "https://www.google.com/maps?q=&layer=c&cbll=-21.388,-51.5733933", "O_QUE_FAZER": "CARTEIRA", "ER_REGIAO_CIDADE_min": "Tupi Paulista_Tupi Paulista_Presidente Prudente" }, "geometry": { "type": "Point", "coordinates": [ -51.5733933, -21.388 ] } },
{ "type": "Feature", "properties": { "fid": 265134, "CNPJ": "53053101000197", "IDCIDADE": "TUPI_PAULISTA", "NOMEFANTASIA": "OTICA_E_RELOJOARIA_FIO_DE_OURO", "RAZAOSOCIAL": "ULISSES_SOARES_VIEIRA", "ENDEE": "AVENIDA_NOVE_DE_JULHO498__CENTRO_17930-000", "LMAPS": "https://www.google.com/maps?q=&layer=c&cbll=-21.3886252,-51.5733618", "O_QUE_FAZER": "CARTEIRA", "ER_REGIAO_CIDADE_min": "Tupi Paulista_Tupi Paulista_Presidente Prudente" }, "geometry": { "type": "Point", "coordinates": [ -51.5733618, -21.3886252 ] } },
{ "type": "Feature", "properties": { "fid": 269266, "CNPJ": "54025372000100", "IDCIDADE": "TUPI_PAULISTA", "NOMEFANTASIA": "FORT_AUTO_PECAS", "RAZAOSOCIAL": "FORTE_AUTO_PECAS_E_ACESSORIOS_LTDA", "ENDEE": "RUA_PRINCESA_ISABEL535__CENTRO_17930-033", "LMAPS": "https://www.google.com/maps?q=&layer=c&cbll=-21.3894282,-51.574951", "O_QUE_FAZER": "CARTEIRA", "ER_REGIAO_CIDADE_min": "Tupi Paulista_Tupi Paulista_Presidente Prudente" }, "geometry": { "type": "Point", "coordinates": [ -51.574951, -21.3894282 ] } },
{ "type": "Feature", "properties": { "fid": 269685, "CNPJ": "54114897000103", "IDCIDADE": "TUPI_PAULISTA", "NOMEFANTASIA": "AUTO_ELETRICA_PIATO", "RAZAOSOCIAL": "PIATO_E_PIATOS_LTDA", "ENDEE": "AVENIDA_NOVE_DE_JULHO78__CENTRO_17930-000", "LMAPS": "https://www.google.com/maps?q=&layer=c&cbll=-21.3912169,-51.5763717", "O_QUE_FAZER": "CARTEIRA", "ER_REGIAO_CIDADE_min": "Tupi Paulista_Tupi Paulista_Presidente Prudente" }, "geometry": { "type": "Point", "coordinates": [ -51.5763717, -21.3912169 ] } },
{ "type": "Feature", "properties": { "fid": 270158, "CNPJ": "54216196000185", "IDCIDADE": "TUPI_PAULISTA", "NOMEFANTASIA": "PADARIA_PAO_DA_VIDA", "RAZAOSOCIAL": "COMERCIAL_SOUSA_LTDA", "ENDEE": "AVENIDA_NOVE_DE_JULHO86__CENTRO_17930-000", "LMAPS": "https://www.google.com/maps?q=&layer=c&cbll=-21.3928436,-51.5781977", "O_QUE_FAZER": "CARTEIRA", "ER_REGIAO_CIDADE_min": "Tupi Paulista_Tupi Paulista_Presidente Prudente" }, "geometry": { "type": "Point", "coordinates": [ -51.5781977, -21.3928436 ] } },
{ "type": "Feature", "properties": { "fid": 270159, "CNPJ": "54216285000121", "IDCIDADE": "TUPI_PAULISTA", "NOMEFANTASIA": "MERCADO_OLIVEIRA", "RAZAOSOCIAL": "EDSON_IZIDIO_DA_SILVA", "ENDEE": "RUA_PRINCESA_ISABEL1264__JARDIM_APARECIDA_17930-033", "LMAPS": "https://www.google.com/maps?q=&layer=c&cbll=-21.3842538,-51.5798892", "O_QUE_FAZER": "CARTEIRA", "ER_REGIAO_CIDADE_min": "Tupi Paulista_Tupi Paulista_Presidente Prudente" }, "geometry": { "type": "Point", "coordinates": [ -51.5798892, -21.3842538 ] } },
{ "type": "Feature", "properties": { "fid": 273028, "CNPJ": "54835618000109", "IDCIDADE": "TUPI_PAULISTA", "NOMEFANTASIA": "ALPHA_AUTO_MECANICA", "RAZAOSOCIAL": "LANDERSON_GONCALVES_DE_CARVALHO", "ENDEE": "RUA_FRANCISCO_DE_SOUZA_PERPETUO_JUNIOR294__CENTRO_17930-000", "LMAPS": "https://www.google.com/maps?q=&layer=c&cbll=-21.3944987,-51.579589", "O_QUE_FAZER": "CARTEIRA", "ER_REGIAO_CIDADE_min": "Tupi Paulista_Tupi Paulista_Presidente Prudente" }, "geometry": { "type": "Point", "coordinates": [ -51.579589, -21.3944987 ] } },
{ "type": "Feature", "properties": { "fid": 275003, "CNPJ": "55286721000100", "IDCIDADE": "TUPI_PAULISTA", "NOMEFANTASIA": "ACQUA_ATIVA", "RAZAOSOCIAL": "LUCAS_GOMES_BALDOINO_LTDA", "ENDEE": "AVENIDA_DONA_ANTONIA_PORTOLEZ1190__CENTRO_17930-049", "LMAPS": "https://www.google.com/maps?q=&layer=c&cbll=-21.3797927,-51.5738137", "O_QUE_FAZER": "CARTEIRA", "ER_REGIAO_CIDADE_min": "Tupi Paulista_Tupi Paulista_Presidente Prudente" }, "geometry": { "type": "Point", "coordinates": [ -51.5738137, -21.3797927 ] } },
{ "type": "Feature", "properties": { "fid": 275685, "CNPJ": "55440550000113", "IDCIDADE": "TUPI_PAULISTA", "NOMEFANTASIA": "LEMONE_KIDS", "RAZAOSOCIAL": "MATHEUS_AMADOR_RAMALHO", "ENDEE": "RUA_TIRADENTES537__CENTRO_17930-037", "LMAPS": "https://www.google.com/maps?q=&layer=c&cbll=-21.388134,-51.5736175", "O_QUE_FAZER": "CARTEIRA", "ER_REGIAO_CIDADE_min": "Tupi Paulista_Tupi Paulista_Presidente Prudente" }, "geometry": { "type": "Point", "coordinates": [ -51.5736175, -21.388134 ] } },
{ "type": "Feature", "properties": { "fid": 277300, "CNPJ": "55840613000129", "IDCIDADE": "TUPI PAULISTA", "NOMEFANTASIA": "Mmbarbosa_Automotiva", "RAZAOSOCIAL": "MMBARBOSA_AUTOMOTIVA_LTDA", "ENDEE": "RUA ANTONIO GAYAO, 254, RESIDENCIAL HOSOUME, 17930-154, TUPI PAULISTA, SP, BRASIL", "LMAPS": "https://www.google.com/maps?q=&layer=c&cbll=-21.3784673,-51.5722453", "O_QUE_FAZER": "CARTEIRA - FAMPE", "ER_REGIAO_CIDADE_min": "Tupi Paulista_Tupi Paulista_Presidente Prudente" }, "geometry": { "type": "Point", "coordinates": [ -51.5722453, -21.3784673 ] } },
{ "type": "Feature", "properties": { "fid": 289449, "CNPJ": "59750445000131", "IDCIDADE": "TUPI PAULISTA", "NOMEFANTASIA": null, "RAZAOSOCIAL": "59.750.445_JULIO_CESAR_ANTONIO_SOARES", "ENDEE": "RUA DOM PEDRO II, 1040, CENTRO, 17930-003, TUPI PAULISTA, SP, BRASIL", "LMAPS": "https://www.google.com/maps?q=&layer=c&cbll=-21.3819578,-51.5721209", "O_QUE_FAZER": "CARTEIRA - FAMPE", "ER_REGIAO_CIDADE_min": "Tupi Paulista_Tupi Paulista_Presidente Prudente" }, "geometry": { "type": "Point", "coordinates": [ -51.5721209, -21.3819578 ] } },
{ "type": "Feature", "properties": { "fid": 289696, "CNPJ": "59811751000130", "IDCIDADE": "TUPI PAULISTA", "NOMEFANTASIA": null, "RAZAOSOCIAL": "ESIO_EDUARDO_VERONA", "ENDEE": "RUA PROFESSORA CELIA APARECIDA COMADUCCI TREVIZAN, 139, QUADRAA LOTE 05, JARDIM DAS ACACIAS, 17934-010, TUPI PAULISTA, SP, BRASIL", "LMAPS": "https://www.google.com/maps?q=&layer=c&cbll=-21.3883405,-51.5732814", "O_QUE_FAZER": "CARTEIRA - FAMPE", "ER_REGIAO_CIDADE_min": "Tupi Paulista_Tupi Paulista_Presidente Prudente" }, "geometry": { "type": "Point", "coordinates": [ -51.5732814, -21.3883405 ] } },
{ "type": "Feature", "properties": { "fid": 291073, "CNPJ": "60287349000188", "IDCIDADE": "TUPI_PAULISTA", "NOMEFANTASIA": "MERCADINHO_POPULAR", "RAZAOSOCIAL": "LUIZ_FABIANO_SCALABRINI_&_CIA_LTDA", "ENDEE": "AVENIDA_BENEDITA_CAMARGO1436__JARDIM_APARECIDA_17930-000", "LMAPS": "https://www.google.com/maps?q=&layer=c&cbll=-21.3826501,-51.5801541", "O_QUE_FAZER": "CARTEIRA", "ER_REGIAO_CIDADE_min": "Tupi Paulista_Tupi Paulista_Presidente Prudente" }, "geometry": { "type": "Point", "coordinates": [ -51.5801541, -21.3826501 ] } },
{ "type": "Feature", "properties": { "fid": 292239, "CNPJ": "60695517000174", "IDCIDADE": "TUPI_PAULISTA", "NOMEFANTASIA": "MARIA_BONITA", "RAZAOSOCIAL": "MARIA_LUIZA_TEMPORIM_CHIARARI", "ENDEE": "AVENIDA_NOVE_DE_JULHO334__CENTRO_17930-000", "LMAPS": "https://www.google.com/maps?q=&layer=c&cbll=-21.3898927,-51.5742939", "O_QUE_FAZER": "CARTEIRA", "ER_REGIAO_CIDADE_min": "Tupi Paulista_Tupi Paulista_Presidente Prudente" }, "geometry": { "type": "Point", "coordinates": [ -51.5742939, -21.3898927 ] } },
{ "type": "Feature", "properties": { "fid": 295479, "CNPJ": "61880228000108", "IDCIDADE": "TUPI PAULISTA", "NOMEFANTASIA": null, "RAZAOSOCIAL": "61.880.228_RODRIGO_GUMERCINDO_FRASSON", "ENDEE": "RUA DAS ROSAS, 777, JARDIM PRIMAVERA, 17934-162, TUPI PAULISTA, SP, BRASIL", "LMAPS": "https://www.google.com/maps?q=&layer=c&cbll=-21.3986793,-51.5860808", "O_QUE_FAZER": "CARTEIRA - FAMPE", "ER_REGIAO_CIDADE_min": "Tupi Paulista_Tupi Paulista_Presidente Prudente" }, "geometry": { "type": "Point", "coordinates": [ -51.5860808, -21.3986793 ] } },
{ "type": "Feature", "properties": { "fid": 296866, "CNPJ": "62440607000140", "IDCIDADE": "TUPI_PAULISTA", "NOMEFANTASIA": "LOJAS_DOS_RETALHOS", "RAZAOSOCIAL": "VALDIR_ANTONIO_&_CIA_LTDA", "ENDEE": "AVENIDA_NOVE_DE_JULHO635__CENTRO_17930-000", "LMAPS": "https://www.google.com/maps?q=&layer=c&cbll=-21.3874757,-51.5726789", "O_QUE_FAZER": "CARTEIRA", "ER_REGIAO_CIDADE_min": "Tupi Paulista_Tupi Paulista_Presidente Prudente" }, "geometry": { "type": "Point", "coordinates": [ -51.5726789, -21.3874757 ] } },
{ "type": "Feature", "properties": { "fid": 297953, "CNPJ": "62905450000180", "IDCIDADE": "TUPI_PAULISTA", "NOMEFANTASIA": "CEARA_PRESENTES", "RAZAOSOCIAL": "ASSILON_CARNEIRO_DE_SOUZA_NETO", "ENDEE": "RUA_SAO_PAULO460__VILA_MARACANA_PAULISTA_17930-000", "LMAPS": "https://www.google.com/maps?q=&layer=c&cbll=-21.3961231,-51.5772417", "O_QUE_FAZER": "CARTEIRA", "ER_REGIAO_CIDADE_min": "Tupi Paulista_Tupi Paulista_Presidente Prudente" }, "geometry": { "type": "Point", "coordinates": [ -51.5772417, -21.3961231 ] } },
{ "type": "Feature", "properties": { "fid": 302887, "CNPJ": "65798241000173", "IDCIDADE": "TUPI_PAULISTA", "NOMEFANTASIA": "SANDRA_CALCADOS", "RAZAOSOCIAL": "PIATO_SCALABRINI_LTDA", "ENDEE": "AVENIDA_NOVE_DE_JULHO496__CENTRO_17930-000", "LMAPS": "https://www.google.com/maps?q=&layer=c&cbll=-21.3886359,-51.5734264", "O_QUE_FAZER": "CARTEIRA", "ER_REGIAO_CIDADE_min": "Tupi Paulista_Tupi Paulista_Presidente Prudente" }, "geometry": { "type": "Point", "coordinates": [ -51.5734264, -21.3886359 ] } },
{ "type": "Feature", "properties": { "fid": 307519, "CNPJ": "68069244000164", "IDCIDADE": "TUPI_PAULISTA", "NOMEFANTASIA": "A_CAMPONESA", "RAZAOSOCIAL": "JOSE_ANTONIO_DE_CALAIS", "ENDEE": "AVENIDA_NOVE_DE_JULHO212__CENTRO_17930-000", "LMAPS": "https://www.google.com/maps?q=&layer=c&cbll=-21.3904,-51.575399", "O_QUE_FAZER": "CARTEIRA", "ER_REGIAO_CIDADE_min": "Tupi Paulista_Tupi Paulista_Presidente Prudente" }, "geometry": { "type": "Point", "coordinates": [ -51.575399, -21.3904 ] } },
{ "type": "Feature", "properties": { "fid": 308209, "CNPJ": "68400787000112", "IDCIDADE": "TUPI_PAULISTA", "NOMEFANTASIA": "AGROTUPI", "RAZAOSOCIAL": "AGRO_TUPI_-_COMERCIO_E_REPRESENTACOES_LTDA", "ENDEE": "AVENIDA_DONA_BENEDITA_CAMARGO515__CENTRO_17930-000", "LMAPS": "https://www.google.com/maps?q=&layer=c&cbll=-21.3888734,-51.5742532", "O_QUE_FAZER": "CARTEIRA", "ER_REGIAO_CIDADE_min": "Tupi Paulista_Tupi Paulista_Presidente Prudente" }, "geometry": { "type": "Point", "coordinates": [ -51.5742532, -21.3888734 ] } },
{ "type": "Feature", "properties": { "fid": 309362, "CNPJ": "71657456000177", "IDCIDADE": "TUPI_PAULISTA", "NOMEFANTASIA": "AUTO_ELETRICA_JJ", "RAZAOSOCIAL": "LAVINIO_ASTOLFO", "ENDEE": "AVENIDA_NOVE_DE_JULHO940__CENTRO_17930-000", "LMAPS": "https://www.google.com/maps?q=&layer=c&cbll=-21.3858685,-51.5702686", "O_QUE_FAZER": "CARTEIRA - FAMPE", "ER_REGIAO_CIDADE_min": "Tupi Paulista_Tupi Paulista_Presidente Prudente" }, "geometry": { "type": "Point", "coordinates": [ -51.5702686, -21.3858685 ] } },
{ "type": "Feature", "properties": { "fid": 309984, "CNPJ": "72697865000160", "IDCIDADE": "TUPI_PAULISTA", "NOMEFANTASIA": "CINELANDIA", "RAZAOSOCIAL": "CATARINA_KIMIE_AOKI", "ENDEE": "AVENIDA_NOVE_DE_JULHO400__CENTRO_17930-000", "LMAPS": "https://www.google.com/maps?q=&layer=c&cbll=-21.3892189,-51.5741094", "O_QUE_FAZER": "CARTEIRA", "ER_REGIAO_CIDADE_min": "Tupi Paulista_Tupi Paulista_Presidente Prudente" }, "geometry": { "type": "Point", "coordinates": [ -51.5741094, -21.3892189 ] } },
{ "type": "Feature", "properties": { "fid": 310178, "CNPJ": "72818271000160", "IDCIDADE": "TUPI_PAULISTA", "NOMEFANTASIA": "PAULISTA_PAULISTINHA", "RAZAOSOCIAL": "LEOPIZE_&_FRANZON_LTDA", "ENDEE": "AVENIDA_NOVE_DE_JULHO558__CENTRO_17930-000", "LMAPS": "https://www.google.com/maps?q=&layer=c&cbll=-21.3883394,-51.5729484", "O_QUE_FAZER": "CARTEIRA", "ER_REGIAO_CIDADE_min": "Tupi Paulista_Tupi Paulista_Presidente Prudente" }, "geometry": { "type": "Point", "coordinates": [ -51.5729484, -21.3883394 ] } },
{ "type": "Feature", "properties": { "fid": 311384, "CNPJ": "74515073000152", "IDCIDADE": "TUPI_PAULISTA", "NOMEFANTASIA": "MECANICA_HARO_SILVA", "RAZAOSOCIAL": "ROBERTO_HARO", "ENDEE": "RUA_IRAJA156__JARDIM_APARECIDA_17930-000", "LMAPS": "https://www.google.com/maps?q=&layer=c&cbll=-21.3863569,-51.5813756", "O_QUE_FAZER": "CARTEIRA", "ER_REGIAO_CIDADE_min": "Tupi Paulista_Tupi Paulista_Presidente Prudente" }, "geometry": { "type": "Point", "coordinates": [ -51.5813756, -21.3863569 ] } },
{ "type": "Feature", "properties": { "fid": 311934, "CNPJ": "96277694000188", "IDCIDADE": "TUPI_PAULISTA", "NOMEFANTASIA": "CHARME_COSMETICOS_E_EMB.", "RAZAOSOCIAL": "CHARME_COSMETICOS_&_EMBALAGENS_LTDA", "ENDEE": "RUA_TIRADENTES553__CENTRO_17930-037", "LMAPS": "https://www.google.com/maps?q=&layer=c&cbll=-21.388005,-51.5737367", "O_QUE_FAZER": "CARTEIRA", "ER_REGIAO_CIDADE_min": "Tupi Paulista_Tupi Paulista_Presidente Prudente" }, "geometry": { "type": "Point", "coordinates": [ -51.5737367, -21.388005 ] } },
{ "type": "Feature", "properties": { "fid": 312444, "CNPJ": "96637822000157", "IDCIDADE": "TUPI_PAULISTA", "NOMEFANTASIA": "DOLE_MAT._CONST", "RAZAOSOCIAL": "DOLE_MATERIAIS_PARA_CONSTRUCAO_LTDA", "ENDEE": "RUA_JUVENAL_CAMARGO185__JARDIM_APARECIDA_17932-002", "LMAPS": "https://www.google.com/maps?q=&layer=c&cbll=-21.3843915,-51.5784106", "O_QUE_FAZER": "CARTEIRA", "ER_REGIAO_CIDADE_min": "Tupi Paulista_Tupi Paulista_Presidente Prudente" }, "geometry": { "type": "Point", "coordinates": [ -51.5784106, -21.3843915 ] } }
]
}
