{
"type": "FeatureCollection",
"name": "ER_REGIAO_CIDADE_min_São Roque_Canguera_Osasco",
"crs": { "type": "name", "properties": { "name": "urn:ogc:def:crs:OGC:1.3:CRS84" } },
"xy_coordinate_resolution": 1e-15,
"features": [
{ "type": "Feature", "properties": { "fid": 32200, "CNPJ": "05587371000135", "IDCIDADE": "SAO ROQUE", "NOMEFANTASIA": null, "RAZAOSOCIAL": "JEFERSON_ANTONIO_VITORINO_GODINHO", "ENDEE": "RUA BELMIRO AUGUSTO DE MORAES, 107, CANGUERA, 18145-000, SÃO ROQUE, SP, BRASIL", "LMAPS": "https://www.google.com/maps?q=&layer=c&cbll=-23.60159,-47.16474", "O_QUE_FAZER": "CARTEIRA - FAMPE", "ER_REGIAO_CIDADE_min": "São Roque_Canguera_Osasco" }, "geometry": { "type": "Point", "coordinates": [ -47.16474, -23.60159 ] } },
{ "type": "Feature", "properties": { "fid": 105821, "CNPJ": "18812486000128", "IDCIDADE": "SAO ROQUE", "NOMEFANTASIA": null, "RAZAOSOCIAL": "VINHOS_SOROCAMIRIM_LTDA", "ENDEE": "ESTRADA ACHILES AUGUSTO DE MORAES, 707, SOROCAMIRIM (CANGUERA), 18145-115, SÃO ROQUE, SP, BRASIL", "LMAPS": "https://www.google.com/maps?q=&layer=c&cbll=-23.5845982,-47.1415096", "O_QUE_FAZER": "CARTEIRA - FAMPE", "ER_REGIAO_CIDADE_min": "São Roque_Canguera_Osasco" }, "geometry": { "type": "Point", "coordinates": [ -47.1415096, -23.5845982 ] } },
{ "type": "Feature", "properties": { "fid": 132442, "CNPJ": "24582319000130", "IDCIDADE": "SAO ROQUE", "NOMEFANTASIA": "PIPITA_ALIMENTOS", "RAZAOSOCIAL": "PIPITA_ALIMENTOS_LTDA", "ENDEE": "ESTRADA DO RIO ABAIXO, 1001, PAVAO (CANGUERA), 18145-651, SÃO ROQUE, SP, BRASIL", "LMAPS": "https://www.google.com/maps?q=&layer=c&cbll=-23.6492353,-47.0799811", "O_QUE_FAZER": "CARTEIRA - FAMPE", "ER_REGIAO_CIDADE_min": "São Roque_Canguera_Osasco" }, "geometry": { "type": "Point", "coordinates": [ -47.0799811, -23.6492353 ] } },
{ "type": "Feature", "properties": { "fid": 187909, "CNPJ": "36063664000147", "IDCIDADE": "SAO_ROQUE", "NOMEFANTASIA": "GRANER_LABORATORIO_E_SERVICOS_VETERINARIOS_LTDA", "RAZAOSOCIAL": "GRANER_LABORATORIO_E_SERVICOS_VETERINARIOS_LTDA", "ENDEE": "ESTRADA_DO_SOROCAMIRIM31__SOROCAMIRIM_18145-102", "LMAPS": "https://www.google.com/maps?q=&layer=c&cbll=-23.6030566,-47.1270502", "O_QUE_FAZER": "FINALIZADO", "ER_REGIAO_CIDADE_min": "São Roque_Canguera_Osasco" }, "geometry": { "type": "Point", "coordinates": [ -47.1270502, -23.6030566 ] } },
{ "type": "Feature", "properties": { "fid": 189328, "CNPJ": "36363849000177", "IDCIDADE": "SAO ROQUE", "NOMEFANTASIA": "RESTAURANTE_VILLA_ALMEIDA", "RAZAOSOCIAL": "JOSE_ROBERTO_DE_ALMEIDA", "ENDEE": "ESTRADA DO VINHO, 6501, CENTRO (CANGUERA), 18145-002, SÃO ROQUE, SP, BRASIL", "LMAPS": "https://www.google.com/maps?q=&layer=c&cbll=-23.5821642,-47.1429934", "O_QUE_FAZER": "CARTEIRA - FAMPE", "ER_REGIAO_CIDADE_min": "São Roque_Canguera_Osasco" }, "geometry": { "type": "Point", "coordinates": [ -47.1429934, -23.5821642 ] } },
{ "type": "Feature", "properties": { "fid": 204950, "CNPJ": "40238349000180", "IDCIDADE": "SAO_ROQUE", "NOMEFANTASIA": "DENER_CAIQUE_NATARULA_40835164888", "RAZAOSOCIAL": "DENER_CAIQUE_NATARULA_40835164888", "ENDEE": "RUA_DOMINGOS_NATARULA58__PARQUE_TERESA_CRISTINA_18145-852", "LMAPS": "https://www.google.com/maps?q=&layer=c&cbll=-23.5849484,-47.1765759", "O_QUE_FAZER": "FINALIZADO", "ER_REGIAO_CIDADE_min": "São Roque_Canguera_Osasco" }, "geometry": { "type": "Point", "coordinates": [ -47.1765759, -23.5849484 ] } },
{ "type": "Feature", "properties": { "fid": 224475, "CNPJ": "44658434000159", "IDCIDADE": "IBIUNA", "NOMEFANTASIA": null, "RAZAOSOCIAL": "LILIANE_REGINA_MARTINS_35470106837", "ENDEE": "RUA RUA JOAO MATIUSSO, 00, VOTORANTIM, 18150-000, IBIÚNA, SP, BRASIL", "LMAPS": "https://www.google.com/maps?q=&layer=c&cbll=-23.6068571,-47.166471", "O_QUE_FAZER": "CARTEIRA - FAMPE", "ER_REGIAO_CIDADE_min": "São Roque_Canguera_Osasco" }, "geometry": { "type": "Point", "coordinates": [ -47.166471, -23.6068571 ] } },
{ "type": "Feature", "properties": { "fid": 263070, "CNPJ": "52610889000122", "IDCIDADE": "SAO_ROQUE", "NOMEFANTASIA": "52.610.889_MILENE_REVIGLIO_DE_GOES", "RAZAOSOCIAL": "52.610.889_MILENE_REVIGLIO_DE_GOES", "ENDEE": "ESTRADA_DO_VINHO9651__CENTRO_18145-002", "LMAPS": "https://www.google.com/maps?q=&layer=c&cbll=-23.5909128,-47.1476508", "O_QUE_FAZER": "FINALIZADO", "ER_REGIAO_CIDADE_min": "São Roque_Canguera_Osasco" }, "geometry": { "type": "Point", "coordinates": [ -47.1476508, -23.5909128 ] } }
]
}
