{
"type": "FeatureCollection",
"name": "ER_REGIAO_CIDADE_min_José Bonifácio_Araçatuba",
"crs": { "type": "name", "properties": { "name": "urn:ogc:def:crs:OGC:1.3:CRS84" } },
"xy_coordinate_resolution": 1e-15,
"features": [
{ "type": "Feature", "properties": { "CNPJ": "05533873000183", "IDCIDADE": "JOSE_BONIFACIO", "NOMEFANTASIA": "ELETRONICA_FACHIN", "RAZAOSOCIAL": "FABRICIO_FACHIN", "ENDEE": "AVENIDA_ANTONIO_GONCALVES_DA_SILVA1084__CENTRO_15200-000", "LMAPS": "https://www.google.com/maps?q=&layer=c&cbll=-49.6853608,-21.0580304", "O_QUE_FAZER": "CARTEIRA", "ER_REGIAO_CIDADE_min": "José Bonifácio_Araçatuba" }, "geometry": { "type": "Point", "coordinates": [ -49.6853608, -21.0580304 ] } },
{ "type": "Feature", "properties": { "CNPJ": "30282417000155", "IDCIDADE": "JOSE_BONIFACIO", "NOMEFANTASIA": "PROCEDE_VISTORIAS", "RAZAOSOCIAL": "PAULA_&_PAULA_SERVICOS_DE_FOTOS_E_VISTORIAS_LTDA", "ENDEE": "AVENIDA_ANTONIO_GONCALVES_DA_SILVA1158__CENTRO_15200-000", "LMAPS": "https://www.google.com/maps?q=&layer=c&cbll=-49.6852613,-21.058071", "O_QUE_FAZER": "CARTEIRA", "ER_REGIAO_CIDADE_min": "José Bonifácio_Araçatuba" }, "geometry": { "type": "Point", "coordinates": [ -49.6852613, -21.058071 ] } },
{ "type": "Feature", "properties": { "CNPJ": "00484290000196", "IDCIDADE": "JOSE_BONIFACIO", "NOMEFANTASIA": "MADEIREIRA_NOSSA_SENHORA_APARECIDA", "RAZAOSOCIAL": "NELSON_FELIX_DE_LIMA_&_CIA_LTDA", "ENDEE": "AVENIDA_ANTONIO_GONCALVES_DA_SILVA1435__CENTRO_15200-000", "LMAPS": "https://www.google.com/maps?q=&layer=c&cbll=-49.682814,-21.0602553", "O_QUE_FAZER": "CARTEIRA", "ER_REGIAO_CIDADE_min": "José Bonifácio_Araçatuba" }, "geometry": { "type": "Point", "coordinates": [ -49.682814, -21.0602553 ] } },
{ "type": "Feature", "properties": { "CNPJ": "04313779000156", "IDCIDADE": "JOSE_BONIFACIO", "NOMEFANTASIA": "PET_SHOP_MUNDO_ANIMAL", "RAZAOSOCIAL": "SEDIVAN_MARCELINO_DA_SILVA_&_CIA_LTDA", "ENDEE": "AVENIDA_ANTONIO_GONCALVES_DA_SILVA1480__CENTRO_15200-000", "LMAPS": "https://www.google.com/maps?q=&layer=c&cbll=-49.6824846,-21.0609274", "O_QUE_FAZER": "CARTEIRA", "ER_REGIAO_CIDADE_min": "José Bonifácio_Araçatuba" }, "geometry": { "type": "Point", "coordinates": [ -49.6824846, -21.0609274 ] } },
{ "type": "Feature", "properties": { "CNPJ": "03605198000125", "IDCIDADE": "JOSE_BONIFACIO", "NOMEFANTASIA": "ALGODAO_DOCE", "RAZAOSOCIAL": "TORRES_&_MELCHIOR_LTDA", "ENDEE": "AVENIDA_ANTONIO_GONCALVES_DA_SILVA406__CENTRO_15200-000", "LMAPS": "https://www.google.com/maps?q=&layer=c&cbll=-49.6899229,-21.0535585", "O_QUE_FAZER": "CARTEIRA", "ER_REGIAO_CIDADE_min": "José Bonifácio_Araçatuba" }, "geometry": { "type": "Point", "coordinates": [ -49.6899229, -21.0535585 ] } },
{ "type": "Feature", "properties": { "CNPJ": "04490870000147", "IDCIDADE": "JOSE_BONIFACIO", "NOMEFANTASIA": "VISAGE_RIGOR", "RAZAOSOCIAL": "CARLOS_ROBERTO_RODRIGUES_JOSE_BONIFACIO", "ENDEE": "AVENIDA_ANTONIO_GONCALVES_DA_SILVA446__CENTRO_15200-000", "LMAPS": "https://www.google.com/maps?q=&layer=c&cbll=-49.6895651,-21.0539025", "O_QUE_FAZER": "CARTEIRA", "ER_REGIAO_CIDADE_min": "José Bonifácio_Araçatuba" }, "geometry": { "type": "Point", "coordinates": [ -49.6895651, -21.0539025 ] } },
{ "type": "Feature", "properties": { "CNPJ": "56160104000118", "IDCIDADE": "JOSE_BONIFACIO", "NOMEFANTASIA": "SONY_MODAS", "RAZAOSOCIAL": "SONIA_MARIA_AMORIM_TAKAKI_-_VESTUARIO", "ENDEE": "AVENIDA_ANTONIO_GONCALVES_DA_SILVA524__CENTRO_15200-000", "LMAPS": "https://www.google.com/maps?q=&layer=c&cbll=-49.6891492,-21.0543707", "O_QUE_FAZER": "CARTEIRA", "ER_REGIAO_CIDADE_min": "José Bonifácio_Araçatuba" }, "geometry": { "type": "Point", "coordinates": [ -49.6891492, -21.0543707 ] } },
{ "type": "Feature", "properties": { "CNPJ": "00896470000185", "IDCIDADE": "JOSE_BONIFACIO", "NOMEFANTASIA": "CARIOCA_MOVEIS_PARA_ESCRITORIOS", "RAZAOSOCIAL": "MIGUEL_BUAINAIN_NETO_LTDA", "ENDEE": "AVENIDA_ANTONIO_GONCALVES_DA_SILVA534__CENTRO_15200-000", "LMAPS": "https://www.google.com/maps?q=&layer=c&cbll=-49.6891415,-21.0545342", "O_QUE_FAZER": "CARTEIRA", "ER_REGIAO_CIDADE_min": "José Bonifácio_Araçatuba" }, "geometry": { "type": "Point", "coordinates": [ -49.6891415, -21.0545342 ] } },
{ "type": "Feature", "properties": { "CNPJ": "14870435000100", "IDCIDADE": "JOSE_BONIFACIO", "NOMEFANTASIA": "LOJAS_POLLY", "RAZAOSOCIAL": "POLIANA_S_E_ALVES_-_VESTUARIO", "ENDEE": "AVENIDA_ANTONIO_GONCALVES_DA_SILVA547__CENTRO_15200-000", "LMAPS": "https://www.google.com/maps?q=&layer=c&cbll=-49.6887445,-21.0543637", "O_QUE_FAZER": "CARTEIRA", "ER_REGIAO_CIDADE_min": "José Bonifácio_Araçatuba" }, "geometry": { "type": "Point", "coordinates": [ -49.6887445, -21.0543637 ] } },
{ "type": "Feature", "properties": { "CNPJ": "42148164000100", "IDCIDADE": "JOSE_BONIFACIO", "NOMEFANTASIA": "DONA_OPTICA", "RAZAOSOCIAL": "DONA_OPTICA_LTDA", "ENDEE": "AVENIDA_ANTONIO_GONCALVES_DA_SILVA668__CENTRO_15200-000", "LMAPS": "https://www.google.com/maps?q=&layer=c&cbll=-49.6881113,-21.0554126", "O_QUE_FAZER": "CARTEIRA", "ER_REGIAO_CIDADE_min": "José Bonifácio_Araçatuba" }, "geometry": { "type": "Point", "coordinates": [ -49.6881113, -21.0554126 ] } },
{ "type": "Feature", "properties": { "CNPJ": "03282997000108", "IDCIDADE": "JOSE_BONIFACIO", "NOMEFANTASIA": "ELEGANCE", "RAZAOSOCIAL": "ELEGANCE_CONFECCOES_E_ACESSORIOS_LTDA", "ENDEE": "AVENIDA_ANTONIO_GONCALVES_DA_SILVA724__CENTRO_15200-000", "LMAPS": "https://www.google.com/maps?q=&layer=c&cbll=-49.6876301,-21.0557924", "O_QUE_FAZER": "CARTEIRA", "ER_REGIAO_CIDADE_min": "José Bonifácio_Araçatuba" }, "geometry": { "type": "Point", "coordinates": [ -49.6876301, -21.0557924 ] } },
{ "type": "Feature", "properties": { "CNPJ": "46243792000126", "IDCIDADE": "JOSE_BONIFACIO", "NOMEFANTASIA": "VIDEO_CLIK", "RAZAOSOCIAL": "MARQUES_&_BALCONE_LTDA", "ENDEE": "AVENIDA_ANTONIO_GONCALVES_DA_SILVA794__CENTRO_15200-000", "LMAPS": "https://www.google.com/maps?q=&layer=c&cbll=-49.6871566,-21.0562204", "O_QUE_FAZER": "CARTEIRA", "ER_REGIAO_CIDADE_min": "José Bonifácio_Araçatuba" }, "geometry": { "type": "Point", "coordinates": [ -49.6871566, -21.0562204 ] } },
{ "type": "Feature", "properties": { "CNPJ": "03646854000138", "IDCIDADE": "JOSE_BONIFACIO", "NOMEFANTASIA": "MARIA_BACANA", "RAZAOSOCIAL": "MARIA_BACANA_BOUTIQUE_LTDA", "ENDEE": "AVENIDA_ANTONIO_GONCALVES_DA_SILVA817__CENTRO_15200-000", "LMAPS": "https://www.google.com/maps?q=&layer=c&cbll=-49.6869162,-21.0561467", "O_QUE_FAZER": "CARTEIRA", "ER_REGIAO_CIDADE_min": "José Bonifácio_Araçatuba" }, "geometry": { "type": "Point", "coordinates": [ -49.6869162, -21.0561467 ] } },
{ "type": "Feature", "properties": { "CNPJ": "45423334000106", "IDCIDADE": "JOSE_BONIFACIO", "NOMEFANTASIA": "BALAO_MAGICO", "RAZAOSOCIAL": "ERCARY_COMERCIO_DE_BRINQUEDOS_LTDA", "ENDEE": "AVENIDA_ANTONIO_GONCALVES_DA_SILVA892__CENTRO_15200-000", "LMAPS": "https://www.google.com/maps?q=&layer=c&cbll=-49.6865235,-21.0569067", "O_QUE_FAZER": "CARTEIRA", "ER_REGIAO_CIDADE_min": "José Bonifácio_Araçatuba" }, "geometry": { "type": "Point", "coordinates": [ -49.6865235, -21.0569067 ] } },
{ "type": "Feature", "properties": { "CNPJ": "32050324000120", "IDCIDADE": "JOSE_BONIFACIO", "NOMEFANTASIA": "GAMES_LASER", "RAZAOSOCIAL": "F_SCALON_MACIEL-_LAN_HOUSE_&_GAMES", "ENDEE": "AVENIDA_ANTONIO_GONCALVES_DA_SILVA984__CENTRO_15200-000", "LMAPS": "https://www.google.com/maps?q=&layer=c&cbll=-49.6859838,-21.0574426", "O_QUE_FAZER": "CARTEIRA", "ER_REGIAO_CIDADE_min": "José Bonifácio_Araçatuba" }, "geometry": { "type": "Point", "coordinates": [ -49.6859838, -21.0574426 ] } },
{ "type": "Feature", "properties": { "CNPJ": "22881497000137", "IDCIDADE": "JOSE_BONIFACIO", "NOMEFANTASIA": "PADARIA_SANTO_EXPEDITO", "RAZAOSOCIAL": "ISABELY_CAETANO_OLIVI_LTDA", "ENDEE": "AVENIDA_JOAQUIM_MOREIRA_DA_SILVA1634__SAO_JOSE_15200-000", "LMAPS": "https://www.google.com/maps?q=&layer=c&cbll=-49.6816619,-21.0619064", "O_QUE_FAZER": "CARTEIRA", "ER_REGIAO_CIDADE_min": "José Bonifácio_Araçatuba" }, "geometry": { "type": "Point", "coordinates": [ -49.6816619, -21.0619064 ] } },
{ "type": "Feature", "properties": { "CNPJ": "10256825000125", "IDCIDADE": "JOSE_BONIFACIO", "NOMEFANTASIA": "FINO_TRATO_PET_SHOP", "RAZAOSOCIAL": "LUIS_ALFREDO_ROSA", "ENDEE": "AVENIDA_JOAQUIM_MOREIRA_DA_SILVA1642__SAO_JOSE_15200-000", "LMAPS": "https://www.google.com/maps?q=&layer=c&cbll=-49.6815634,-21.0619883", "O_QUE_FAZER": "CARTEIRA", "ER_REGIAO_CIDADE_min": "José Bonifácio_Araçatuba" }, "geometry": { "type": "Point", "coordinates": [ -49.6815634, -21.0619883 ] } },
{ "type": "Feature", "properties": { "CNPJ": "10356474000124", "IDCIDADE": "JOSE_BONIFACIO", "NOMEFANTASIA": "BIG_SAT", "RAZAOSOCIAL": "ADRIANO_JOSE_GOMES", "ENDEE": "AVENIDA_JOAQUIM_MOREIRA_DA_SILVA1765__SAO_JOSE_15200-000", "LMAPS": "https://www.google.com/maps?q=&layer=c&cbll=-49.6805221,-21.0621874", "O_QUE_FAZER": "CARTEIRA", "ER_REGIAO_CIDADE_min": "José Bonifácio_Araçatuba" }, "geometry": { "type": "Point", "coordinates": [ -49.6805221, -21.0621874 ] } },
{ "type": "Feature", "properties": { "CNPJ": "06310047000138", "IDCIDADE": "JOSE_BONIFACIO", "NOMEFANTASIA": "BONFIM_MATERIAIS_ELETRICOS", "RAZAOSOCIAL": "BONFIM_&_SOUZA_COMERCIO_DE_MATERIAIS_ELETRICOS_LTDA", "ENDEE": "AVENIDA_JOAQUIM_MOREIRA_DA_SILVA1775__SAO_JOSE_15200-000", "LMAPS": "https://www.google.com/maps?q=&layer=c&cbll=-49.6803927,-21.0624465", "O_QUE_FAZER": "CARTEIRA", "ER_REGIAO_CIDADE_min": "José Bonifácio_Araçatuba" }, "geometry": { "type": "Point", "coordinates": [ -49.6803927, -21.0624465 ] } },
{ "type": "Feature", "properties": { "CNPJ": "04438186000116", "IDCIDADE": "JOSE_BONIFACIO", "NOMEFANTASIA": "AGROPECUARIA_BONFIM", "RAZAOSOCIAL": "IRMAOS_BONFIM_J.B._LTDA", "ENDEE": "AVENIDA_JOAQUIM_MOREIRA_DA_SILVA1782__SAO_JOSE_15200-000", "LMAPS": "https://www.google.com/maps?q=&layer=c&cbll=-49.6809427,-21.0629085", "O_QUE_FAZER": "CARTEIRA", "ER_REGIAO_CIDADE_min": "José Bonifácio_Araçatuba" }, "geometry": { "type": "Point", "coordinates": [ -49.6809427, -21.0629085 ] } },
{ "type": "Feature", "properties": { "CNPJ": "13190217000153", "IDCIDADE": "JOSE_BONIFACIO", "NOMEFANTASIA": "NINAS_ESTACOES", "RAZAOSOCIAL": "NINAS_CALCADOS_E_CONFECCOES_LTDA", "ENDEE": "AVENIDA_JOAQUIM_MOREIRA_DA_SILVA1842__SAO_JOSE_15200-000", "LMAPS": "https://www.google.com/maps?q=&layer=c&cbll=-49.6803841,-21.0632015", "O_QUE_FAZER": "CARTEIRA", "ER_REGIAO_CIDADE_min": "José Bonifácio_Araçatuba" }, "geometry": { "type": "Point", "coordinates": [ -49.6803841, -21.0632015 ] } },
{ "type": "Feature", "properties": { "CNPJ": "33671273000117", "IDCIDADE": "JOSE_BONIFACIO", "NOMEFANTASIA": "RAFA_ELETRO_AR", "RAZAOSOCIAL": "TAMIRES_CAROLINE_MOREIRA", "ENDEE": "AVENIDA_JOAQUIM_MOREIRA_DA_SILVA1937__SAO_JOSE_15200-000", "LMAPS": "https://www.google.com/maps?q=&layer=c&cbll=-49.6794274,-21.0636032", "O_QUE_FAZER": "CARTEIRA", "ER_REGIAO_CIDADE_min": "José Bonifácio_Araçatuba" }, "geometry": { "type": "Point", "coordinates": [ -49.6794274, -21.0636032 ] } },
{ "type": "Feature", "properties": { "CNPJ": "13140641000193", "IDCIDADE": "JOSE_BONIFACIO", "NOMEFANTASIA": "ROCAR_LUBRIFICANTES", "RAZAOSOCIAL": "M._N._MARTINS_SAURA_LTDA", "ENDEE": "AVENIDA_JOAQUIM_MOREIRA_DA_SILVA1947__SAO_JOSE_15200-000", "LMAPS": "https://www.google.com/maps?q=&layer=c&cbll=-49.6794733,-21.0638717", "O_QUE_FAZER": "CARTEIRA", "ER_REGIAO_CIDADE_min": "José Bonifácio_Araçatuba" }, "geometry": { "type": "Point", "coordinates": [ -49.6794733, -21.0638717 ] } },
{ "type": "Feature", "properties": { "CNPJ": "05849925000125", "IDCIDADE": "JOSE_BONIFACIO", "NOMEFANTASIA": "AUTO_ELETRICA_VANZELA", "RAZAOSOCIAL": "LUIZ_CARLOS_VANZELA_JUNIOR_&_CIA_LTDA", "ENDEE": "AVENIDA_JOAQUIM_MOREIRA_DA_SILVA2046__SAO_JOSE_15200-000", "LMAPS": "https://www.google.com/maps?q=&layer=c&cbll=-49.6787333,-21.064655", "O_QUE_FAZER": "CARTEIRA", "ER_REGIAO_CIDADE_min": "José Bonifácio_Araçatuba" }, "geometry": { "type": "Point", "coordinates": [ -49.6787333, -21.064655 ] } },
{ "type": "Feature", "properties": { "CNPJ": "10713593000197", "IDCIDADE": "JOSE_BONIFACIO", "NOMEFANTASIA": "AUTO_CAPADS_SAO_FRANCISCO", "RAZAOSOCIAL": "FRANCISCO_BALEEIRO_DOS_SANTOS_NETO", "ENDEE": "AVENIDA_JOAQUIM_MOREIRA_DA_SILVA2159__SAO_JOSE_15200-000", "LMAPS": "https://www.google.com/maps?q=&layer=c&cbll=-49.6778488,-21.0650199", "O_QUE_FAZER": "CARTEIRA", "ER_REGIAO_CIDADE_min": "José Bonifácio_Araçatuba" }, "geometry": { "type": "Point", "coordinates": [ -49.6778488, -21.0650199 ] } },
{ "type": "Feature", "properties": { "CNPJ": "10454030000121", "IDCIDADE": "JOSE_BONIFACIO", "NOMEFANTASIA": "TEK_CAMBIO", "RAZAOSOCIAL": "TEK_CAMBIO_JOSE_BONIFACIO_LTDA", "ENDEE": "AVENIDA_JOAQUIM_MOREIRA_DA_SILVA2359__SAO_JOSE_15200-000", "LMAPS": "https://www.google.com/maps?q=&layer=c&cbll=-49.6784508,-21.0652915", "O_QUE_FAZER": "CARTEIRA", "ER_REGIAO_CIDADE_min": "José Bonifácio_Araçatuba" }, "geometry": { "type": "Point", "coordinates": [ -49.6784508, -21.0652915 ] } },
{ "type": "Feature", "properties": { "CNPJ": "11311993000139", "IDCIDADE": "JOSE_BONIFACIO", "NOMEFANTASIA": "MARTINTAS", "RAZAOSOCIAL": "CASSIO_LUIS_PARRA", "ENDEE": "AVENIDA_JOAQUIM_MOREIRA_DA_SILVA2364__SAO_JOSE_15200-000", "LMAPS": "https://www.google.com/maps?q=&layer=c&cbll=-49.6776325,-21.0653084", "O_QUE_FAZER": "CARTEIRA", "ER_REGIAO_CIDADE_min": "José Bonifácio_Araçatuba" }, "geometry": { "type": "Point", "coordinates": [ -49.6776325, -21.0653084 ] } },
{ "type": "Feature", "properties": { "CNPJ": "72010903000164", "IDCIDADE": "JOSE_BONIFACIO", "NOMEFANTASIA": "BOLAO_VEICULOS", "RAZAOSOCIAL": "MARINALDO_CARDOSO", "ENDEE": "AVENIDA_JOAQUIM_MOREIRA_DA_SILVA2386__SAO_JOSE_15200-000", "LMAPS": "https://www.google.com/maps?q=&layer=c&cbll=-49.6772968,-21.0655085", "O_QUE_FAZER": "CARTEIRA", "ER_REGIAO_CIDADE_min": "José Bonifácio_Araçatuba" }, "geometry": { "type": "Point", "coordinates": [ -49.6772968, -21.0655085 ] } },
{ "type": "Feature", "properties": { "CNPJ": "01542654000100", "IDCIDADE": "JOSE_BONIFACIO", "NOMEFANTASIA": "AUTO_PECAS_ADALTO", "RAZAOSOCIAL": "ADAUTO_OFICINA_E_AUTO_PECAS_LTDA", "ENDEE": "AVENIDA_JOAQUIM_MOREIRA_DA_SILVA2450__SAO_JOSE_15200-000", "LMAPS": "https://www.google.com/maps?q=&layer=c&cbll=-49.6770105,-21.0657972", "O_QUE_FAZER": "CARTEIRA", "ER_REGIAO_CIDADE_min": "José Bonifácio_Araçatuba" }, "geometry": { "type": "Point", "coordinates": [ -49.6770105, -21.0657972 ] } },
{ "type": "Feature", "properties": { "CNPJ": "12058230000190", "IDCIDADE": "JOSE_BONIFACIO", "NOMEFANTASIA": "BABY_CENTRO_AUTOMOTIVO", "RAZAOSOCIAL": "RODRIGO_RONALDO_BRANDAO", "ENDEE": "AVENIDA_JOAQUIM_MOREIRA_DA_SILVA2535__SAO_JOSE_15200-000", "LMAPS": "https://www.google.com/maps?q=&layer=c&cbll=-49.6761502,-21.0654907", "O_QUE_FAZER": "CARTEIRA", "ER_REGIAO_CIDADE_min": "José Bonifácio_Araçatuba" }, "geometry": { "type": "Point", "coordinates": [ -49.6761502, -21.0654907 ] } },
{ "type": "Feature", "properties": { "CNPJ": "13459729000172", "IDCIDADE": "JOSE_BONIFACIO", "NOMEFANTASIA": "MARQUINHO_AUTO_CENTER", "RAZAOSOCIAL": "MARCOS_PAULO_CARVALHO_MUNUTE", "ENDEE": "AVENIDA_JOAQUIM_MOREIRA_DA_SILVA2590__SAO_JOSE_15200-000", "LMAPS": "https://www.google.com/maps?q=&layer=c&cbll=-49.6756685,-21.0662419", "O_QUE_FAZER": "CARTEIRA", "ER_REGIAO_CIDADE_min": "José Bonifácio_Araçatuba" }, "geometry": { "type": "Point", "coordinates": [ -49.6756685, -21.0662419 ] } },
{ "type": "Feature", "properties": { "CNPJ": "35042469000178", "IDCIDADE": "JOSE_BONIFACIO", "NOMEFANTASIA": "RIO_PISCINAS", "RAZAOSOCIAL": "LEANDRO_TADEU_NICOLAU_MACHADO", "ENDEE": "AVENIDA_JOAQUIM_MOREIRA_DA_SILVA2613__SAO_JOSE_15200-000", "LMAPS": "https://www.google.com/maps?q=&layer=c&cbll=-49.6753539,-21.0657985", "O_QUE_FAZER": "CARTEIRA", "ER_REGIAO_CIDADE_min": "José Bonifácio_Araçatuba" }, "geometry": { "type": "Point", "coordinates": [ -49.6753539, -21.0657985 ] } },
{ "type": "Feature", "properties": { "CNPJ": "00296827000194", "IDCIDADE": "JOSE_BONIFACIO", "NOMEFANTASIA": "AZALEIA_PAISAGISMO", "RAZAOSOCIAL": "COSTA_&_COSTA_-_JOSE_BONIFACIO_LTDA", "ENDEE": "AVENIDA_JOAQUIM_MOREIRA_DA_SILVA2618__SAO_JOSE_15200-000", "LMAPS": "https://www.google.com/maps?q=&layer=c&cbll=-49.6754852,-21.066369", "O_QUE_FAZER": "CARTEIRA", "ER_REGIAO_CIDADE_min": "José Bonifácio_Araçatuba" }, "geometry": { "type": "Point", "coordinates": [ -49.6754852, -21.066369 ] } },
{ "type": "Feature", "properties": { "CNPJ": "07050383000151", "IDCIDADE": "JOSE_BONIFACIO", "NOMEFANTASIA": "ART_MOVEIS_PLANEJADOS", "RAZAOSOCIAL": "APARECIDO_D._DE_ASSIS_MONTEIRO", "ENDEE": "AVENIDA_JOAQUIM_MOREIRA_DA_SILVA2641__SAO_JOSE_15200-000", "LMAPS": "https://www.google.com/maps?q=&layer=c&cbll=-49.6750258,-21.0660422", "O_QUE_FAZER": "CARTEIRA", "ER_REGIAO_CIDADE_min": "José Bonifácio_Araçatuba" }, "geometry": { "type": "Point", "coordinates": [ -49.6750258, -21.0660422 ] } },
{ "type": "Feature", "properties": { "CNPJ": "05342702000177", "IDCIDADE": "JOSE_BONIFACIO", "NOMEFANTASIA": "SORVETES_CACA", "RAZAOSOCIAL": "CARLOS_JOSE_MATOS_RODRIGUES", "ENDEE": "AVENIDA_JOAQUIM_MOREIRA_DA_SILVA2669__SAO_JOSE_15200-000", "LMAPS": "https://www.google.com/maps?q=&layer=c&cbll=-49.6747005,-21.0660504", "O_QUE_FAZER": "CARTEIRA", "ER_REGIAO_CIDADE_min": "José Bonifácio_Araçatuba" }, "geometry": { "type": "Point", "coordinates": [ -49.6747005, -21.0660504 ] } },
{ "type": "Feature", "properties": { "CNPJ": "10728916000116", "IDCIDADE": "JOSE_BONIFACIO", "NOMEFANTASIA": "AUTO_ELETRICA_POMPEO", "RAZAOSOCIAL": "AUTO_ELETRICA_POMPEO_LTDA", "ENDEE": "AVENIDA_JOAQUIM_MOREIRA_DA_SILVA2719__SAO_JOSE_15200-000", "LMAPS": "https://www.google.com/maps?q=&layer=c&cbll=-49.6742473,-21.0661735", "O_QUE_FAZER": "CARTEIRA", "ER_REGIAO_CIDADE_min": "José Bonifácio_Araçatuba" }, "geometry": { "type": "Point", "coordinates": [ -49.6742473, -21.0661735 ] } },
{ "type": "Feature", "properties": { "CNPJ": "16669271000255", "IDCIDADE": "JOSE_BONIFACIO", "NOMEFANTASIA": "ACADEMIA_LIVE", "RAZAOSOCIAL": "SANDRO_TIAKI_TAKEDA", "ENDEE": "AVENIDA_JOAQUIM_MOREIRA_DA_SILVA2731__SAO_JOSE_15200-000", "LMAPS": "https://www.google.com/maps?q=&layer=c&cbll=-49.6741302,-21.0662885", "O_QUE_FAZER": "CARTEIRA", "ER_REGIAO_CIDADE_min": "José Bonifácio_Araçatuba" }, "geometry": { "type": "Point", "coordinates": [ -49.6741302, -21.0662885 ] } },
{ "type": "Feature", "properties": { "CNPJ": "21528647000160", "IDCIDADE": "JOSE_BONIFACIO", "NOMEFANTASIA": "SMF_PORTAS_E_JANELAS", "RAZAOSOCIAL": "SMF_COMERCIO_DE_ESQUADRIAS_LTDA", "ENDEE": "AVENIDA_JOAQUIM_MOREIRA_DA_SILVA2743__SAO_JOSE_15200-000", "LMAPS": "https://www.google.com/maps?q=&layer=c&cbll=-49.6740616,-21.066329", "O_QUE_FAZER": "CARTEIRA", "ER_REGIAO_CIDADE_min": "José Bonifácio_Araçatuba" }, "geometry": { "type": "Point", "coordinates": [ -49.6740616, -21.066329 ] } },
{ "type": "Feature", "properties": { "CNPJ": "12988730000121", "IDCIDADE": "JOSE_BONIFACIO", "NOMEFANTASIA": "GORDIN_PNEUS", "RAZAOSOCIAL": "GORDIM_PNEUS_LTDA", "ENDEE": "AVENIDA_JOAQUIM_MOREIRA_DA_SILVA2753__SAO_JOSE_15200-000", "LMAPS": "https://www.google.com/maps?q=&layer=c&cbll=-49.673906,-21.0663737", "O_QUE_FAZER": "CARTEIRA", "ER_REGIAO_CIDADE_min": "José Bonifácio_Araçatuba" }, "geometry": { "type": "Point", "coordinates": [ -49.673906, -21.0663737 ] } },
{ "type": "Feature", "properties": { "CNPJ": "38174533000162", "IDCIDADE": "JOSE_BONIFACIO", "NOMEFANTASIA": "DIONISIO_VITORIAS", "RAZAOSOCIAL": "LEANDRO_DIONISIO_&_CIA.LTDA.", "ENDEE": "AVENIDA_JOAQUIM_MOREIRA_DA_SILVA2805__SAO_JOSE_15200-000", "LMAPS": "https://www.google.com/maps?q=&layer=c&cbll=-49.6734085,-21.0663247", "O_QUE_FAZER": "CARTEIRA", "ER_REGIAO_CIDADE_min": "José Bonifácio_Araçatuba" }, "geometry": { "type": "Point", "coordinates": [ -49.6734085, -21.0663247 ] } },
{ "type": "Feature", "properties": { "CNPJ": "04460753000211", "IDCIDADE": "JOSE_BONIFACIO", "NOMEFANTASIA": "JONI_BONI_SERV_FESTA", "RAZAOSOCIAL": "RAFAEL_MANOEL_DIONISIO", "ENDEE": "AVENIDA_JOAQUIM_MOREIRA_DA_SILVA2809__SAO_JOSE_15200-000", "LMAPS": "https://www.google.com/maps?q=&layer=c&cbll=-49.6734117,-21.0665414", "O_QUE_FAZER": "CARTEIRA", "ER_REGIAO_CIDADE_min": "José Bonifácio_Araçatuba" }, "geometry": { "type": "Point", "coordinates": [ -49.6734117, -21.0665414 ] } },
{ "type": "Feature", "properties": { "CNPJ": "20039826000171", "IDCIDADE": "JOSE_BONIFACIO", "NOMEFANTASIA": "MAP_COMUNICACAO_VISUAL", "RAZAOSOCIAL": "SIMONE_DE_FATIMA_GARCIA", "ENDEE": "AVENIDA_JOAQUIM_MOREIRA_DA_SILVA2971__SAO_JOSE_15200-000", "LMAPS": "https://www.google.com/maps?q=&layer=c&cbll=-49.6717038,-21.0672416", "O_QUE_FAZER": "CARTEIRA", "ER_REGIAO_CIDADE_min": "José Bonifácio_Araçatuba" }, "geometry": { "type": "Point", "coordinates": [ -49.6717038, -21.0672416 ] } },
{ "type": "Feature", "properties": { "CNPJ": "29244609000279", "IDCIDADE": "JOSE_BONIFACIO", "NOMEFANTASIA": "NET_FIBRA", "RAZAOSOCIAL": "NET_FIBRA_SCM_LTDA", "ENDEE": "AVENIDA_NOVE_DE_JULHO1019__CENTRO_15200-000", "LMAPS": "https://www.google.com/maps?q=&layer=c&cbll=-49.6852418,-21.0565433", "O_QUE_FAZER": "CARTEIRA", "ER_REGIAO_CIDADE_min": "José Bonifácio_Araçatuba" }, "geometry": { "type": "Point", "coordinates": [ -49.6852418, -21.0565433 ] } },
{ "type": "Feature", "properties": { "CNPJ": "03416741000146", "IDCIDADE": "JOSE_BONIFACIO", "NOMEFANTASIA": "ELLUS_INFORMATICA", "RAZAOSOCIAL": "ELLUSA_BRASIL_INFORMATICA_LTDA", "ENDEE": "AVENIDA_NOVE_DE_JULHO1049__CENTRO_15200-000", "LMAPS": "https://www.google.com/maps?q=&layer=c&cbll=-49.6851493,-21.0568016", "O_QUE_FAZER": "CARTEIRA", "ER_REGIAO_CIDADE_min": "José Bonifácio_Araçatuba" }, "geometry": { "type": "Point", "coordinates": [ -49.6851493, -21.0568016 ] } },
{ "type": "Feature", "properties": { "CNPJ": "68376151000182", "IDCIDADE": "JOSE_BONIFACIO", "NOMEFANTASIA": "ART_MANHA", "RAZAOSOCIAL": "APARECIDA_NIZATO_BIANCHI", "ENDEE": "AVENIDA_NOVE_DE_JULHO1074__CENTRO_15200-000", "LMAPS": "https://www.google.com/maps?q=&layer=c&cbll=-49.6850646,-21.0570313", "O_QUE_FAZER": "CARTEIRA", "ER_REGIAO_CIDADE_min": "José Bonifácio_Araçatuba" }, "geometry": { "type": "Point", "coordinates": [ -49.6850646, -21.0570313 ] } },
{ "type": "Feature", "properties": { "CNPJ": "44469730000101", "IDCIDADE": "JOSE_BONIFACIO", "NOMEFANTASIA": "DOCTORS_COLCHOES", "RAZAOSOCIAL": "LUANA_DE_OLIVEIRA_BRITO", "ENDEE": "AVENIDA_NOVE_DE_JULHO1083__CENTRO_15200-000", "LMAPS": "https://www.google.com/maps?q=&layer=c&cbll=-49.6848723,-21.0569257", "O_QUE_FAZER": "CARTEIRA", "ER_REGIAO_CIDADE_min": "José Bonifácio_Araçatuba" }, "geometry": { "type": "Point", "coordinates": [ -49.6848723, -21.0569257 ] } },
{ "type": "Feature", "properties": { "CNPJ": "11527107000109", "IDCIDADE": "JOSE_BONIFACIO", "NOMEFANTASIA": "FAMA_ARMARINHOS", "RAZAOSOCIAL": "ROSANA_MARIA_ZAQUEO_BIGATAO", "ENDEE": "AVENIDA_NOVE_DE_JULHO1110__CENTRO_15200-000", "LMAPS": "https://www.google.com/maps?q=&layer=c&cbll=-49.6848153,-21.0573323", "O_QUE_FAZER": "CARTEIRA", "ER_REGIAO_CIDADE_min": "José Bonifácio_Araçatuba" }, "geometry": { "type": "Point", "coordinates": [ -49.6848153, -21.0573323 ] } },
{ "type": "Feature", "properties": { "CNPJ": "51348324000156", "IDCIDADE": "JOSE_BONIFACIO", "NOMEFANTASIA": "FARMACIA_9_DE_JULHO", "RAZAOSOCIAL": "R_A_DROGARIAS_LTDA", "ENDEE": "AVENIDA_NOVE_DE_JULHO1178__CENTRO_15200-000", "LMAPS": "https://www.google.com/maps?q=&layer=c&cbll=-49.6843911,-21.057721", "O_QUE_FAZER": "CARTEIRA", "ER_REGIAO_CIDADE_min": "José Bonifácio_Araçatuba" }, "geometry": { "type": "Point", "coordinates": [ -49.6843911, -21.057721 ] } },
{ "type": "Feature", "properties": { "CNPJ": "05468813000124", "IDCIDADE": "JOSE_BONIFACIO", "NOMEFANTASIA": "ORIGINAL_IT", "RAZAOSOCIAL": "BRANDAO_&_LIMA_ARTIGOS_ESPORTIVOS_LTDA", "ENDEE": "AVENIDA_NOVE_DE_JULHO1182__CENTRO_15200-000", "LMAPS": "https://www.google.com/maps?q=&layer=c&cbll=-49.6860967,-21.0553267", "O_QUE_FAZER": "CARTEIRA", "ER_REGIAO_CIDADE_min": "José Bonifácio_Araçatuba" }, "geometry": { "type": "Point", "coordinates": [ -49.6860967, -21.0553267 ] } },
{ "type": "Feature", "properties": { "CNPJ": "03132151000191", "IDCIDADE": "JOSE_BONIFACIO", "NOMEFANTASIA": "LABORATORIO_DE_ANALISES_CLINICAS_GALLI", "RAZAOSOCIAL": "LABORATORIO_DE_ANALISES_CLINICAS_GALLI_LTDA", "ENDEE": "AVENIDA_NOVE_DE_JULHO1188__CENTRO_15200-000", "LMAPS": "https://www.google.com/maps?q=&layer=c&cbll=-49.6843194,-21.0578308", "O_QUE_FAZER": "CARTEIRA", "ER_REGIAO_CIDADE_min": "José Bonifácio_Araçatuba" }, "geometry": { "type": "Point", "coordinates": [ -49.6843194, -21.0578308 ] } },
{ "type": "Feature", "properties": { "CNPJ": "27050733000197", "IDCIDADE": "JOSE_BONIFACIO", "NOMEFANTASIA": "OUTLET_DOS_OCULOS", "RAZAOSOCIAL": "PENELOPE_DOS_SANTOS_GONCALVES_ZANIBONI", "ENDEE": "AVENIDA_NOVE_DE_JULHO1216__CENTRO_15200-000", "LMAPS": "https://www.google.com/maps?q=&layer=c&cbll=-49.6845553,-21.0581389", "O_QUE_FAZER": "CARTEIRA", "ER_REGIAO_CIDADE_min": "José Bonifácio_Araçatuba" }, "geometry": { "type": "Point", "coordinates": [ -49.6845553, -21.0581389 ] } },
{ "type": "Feature", "properties": { "CNPJ": "58234469000175", "IDCIDADE": "JOSE_BONIFACIO", "NOMEFANTASIA": "FOTO_IDEAL", "RAZAOSOCIAL": "CARLOS_ALBERTO_BEDIM", "ENDEE": "AVENIDA_NOVE_DE_JULHO1249__CENTRO_15200-000", "LMAPS": "https://www.google.com/maps?q=&layer=c&cbll=-49.6838771,-21.0580317", "O_QUE_FAZER": "CARTEIRA", "ER_REGIAO_CIDADE_min": "José Bonifácio_Araçatuba" }, "geometry": { "type": "Point", "coordinates": [ -49.6838771, -21.0580317 ] } },
{ "type": "Feature", "properties": { "CNPJ": "27551970000131", "IDCIDADE": "JOSE_BONIFACIO", "NOMEFANTASIA": "ARTE_MOVEIS_RUSTICO", "RAZAOSOCIAL": "ART_MOVEIS_RUSTICOS_LTDA", "ENDEE": "AVENIDA_NOVE_DE_JULHO1261__CENTRO_15200-000", "LMAPS": "https://www.google.com/maps?q=&layer=c&cbll=-49.683635,-21.0581305", "O_QUE_FAZER": "CARTEIRA", "ER_REGIAO_CIDADE_min": "José Bonifácio_Araçatuba" }, "geometry": { "type": "Point", "coordinates": [ -49.683635, -21.0581305 ] } },
{ "type": "Feature", "properties": { "CNPJ": "05867698000160", "IDCIDADE": "JOSE_BONIFACIO", "NOMEFANTASIA": "SORVERTERIA_VENDRAME", "RAZAOSOCIAL": "FABIANE_CARMONA_LARA_VENDRAME", "ENDEE": "AVENIDA_NOVE_DE_JULHO1262__CENTRO_15200-000", "LMAPS": "https://www.google.com/maps?q=&layer=c&cbll=-49.6839194,-21.0583447", "O_QUE_FAZER": "CARTEIRA", "ER_REGIAO_CIDADE_min": "José Bonifácio_Araçatuba" }, "geometry": { "type": "Point", "coordinates": [ -49.6839194, -21.0583447 ] } },
{ "type": "Feature", "properties": { "CNPJ": "46603890000127", "IDCIDADE": "JOSE_BONIFACIO", "NOMEFANTASIA": "ELETROTECNICA_VOLPI", "RAZAOSOCIAL": "VICENTE_PEDRO_VOLPI", "ENDEE": "AVENIDA_NOVE_DE_JULHO163__CENTRO_15200-000", "LMAPS": "https://www.google.com/maps?q=&layer=c&cbll=-49.690614,-21.0512034", "O_QUE_FAZER": "CARTEIRA", "ER_REGIAO_CIDADE_min": "José Bonifácio_Araçatuba" }, "geometry": { "type": "Point", "coordinates": [ -49.690614, -21.0512034 ] } },
{ "type": "Feature", "properties": { "CNPJ": "10745829000177", "IDCIDADE": "JOSE_BONIFACIO", "NOMEFANTASIA": "MULTI_PESCA", "RAZAOSOCIAL": "J._GONSALES_JUNIOR_ARTIGOS_DE_PESCA_LTDA", "ENDEE": "AVENIDA_NOVE_DE_JULHO173__CENTRO_15200-000", "LMAPS": "https://www.google.com/maps?q=&layer=c&cbll=-49.690614,-21.0513685", "O_QUE_FAZER": "CARTEIRA", "ER_REGIAO_CIDADE_min": "José Bonifácio_Araçatuba" }, "geometry": { "type": "Point", "coordinates": [ -49.690614, -21.0513685 ] } },
{ "type": "Feature", "properties": { "CNPJ": "45838895000176", "IDCIDADE": "JOSE_BONIFACIO", "NOMEFANTASIA": "DRA_MALU", "RAZAOSOCIAL": "MARIA_LUIZA_BONAQUISTA_CARDOSO_LTDA", "ENDEE": "AVENIDA_NOVE_DE_JULHO209__CENTRO_15200-000", "LMAPS": "https://www.google.com/maps?q=&layer=c&cbll=-49.6904429,-21.0515156", "O_QUE_FAZER": "CARTEIRA", "ER_REGIAO_CIDADE_min": "José Bonifácio_Araçatuba" }, "geometry": { "type": "Point", "coordinates": [ -49.6904429, -21.0515156 ] } },
{ "type": "Feature", "properties": { "CNPJ": "17779212000111", "IDCIDADE": "JOSE_BONIFACIO", "NOMEFANTASIA": "FABRIMAC", "RAZAOSOCIAL": "FABRICIO_JOSE_MARTINS_DE_SA", "ENDEE": "AVENIDA_NOVE_DE_JULHO234__CENTRO_15200-000", "LMAPS": "https://www.google.com/maps?q=&layer=c&cbll=-49.6901347,-21.0520711", "O_QUE_FAZER": "CARTEIRA", "ER_REGIAO_CIDADE_min": "José Bonifácio_Araçatuba" }, "geometry": { "type": "Point", "coordinates": [ -49.6901347, -21.0520711 ] } },
{ "type": "Feature", "properties": { "CNPJ": "13014661000118", "IDCIDADE": "JOSE_BONIFACIO", "NOMEFANTASIA": "DROGARIA_LIDER", "RAZAOSOCIAL": "CRISTIANO_BARACIOLI_CLEMENTE", "ENDEE": "AVENIDA_NOVE_DE_JULHO392__CENTRO_15200-000", "LMAPS": "https://www.google.com/maps?q=&layer=c&cbll=-49.6893881,-21.0528014", "O_QUE_FAZER": "CARTEIRA", "ER_REGIAO_CIDADE_min": "José Bonifácio_Araçatuba" }, "geometry": { "type": "Point", "coordinates": [ -49.6893881, -21.0528014 ] } },
{ "type": "Feature", "properties": { "CNPJ": "14137054000299", "IDCIDADE": "JOSE_BONIFACIO", "NOMEFANTASIA": "ATRACAO_JEANS", "RAZAOSOCIAL": "F._A._DE_LIMA_VESTUARIO_LTDA", "ENDEE": "AVENIDA_NOVE_DE_JULHO402__CENTRO_15200-000", "LMAPS": "https://www.google.com/maps?q=&layer=c&cbll=-49.6892887,-21.0528116", "O_QUE_FAZER": "CARTEIRA", "ER_REGIAO_CIDADE_min": "José Bonifácio_Araçatuba" }, "geometry": { "type": "Point", "coordinates": [ -49.6892887, -21.0528116 ] } },
{ "type": "Feature", "properties": { "CNPJ": "05975014000144", "IDCIDADE": "JOSE_BONIFACIO", "NOMEFANTASIA": "MULTI_OTICA", "RAZAOSOCIAL": "CARLOS_GUSTAVO_LOPES", "ENDEE": "AVENIDA_NOVE_DE_JULHO410__CENTRO_15200-000", "LMAPS": "https://www.google.com/maps?q=&layer=c&cbll=-49.6892937,-21.0528713", "O_QUE_FAZER": "CARTEIRA", "ER_REGIAO_CIDADE_min": "José Bonifácio_Araçatuba" }, "geometry": { "type": "Point", "coordinates": [ -49.6892937, -21.0528713 ] } },
{ "type": "Feature", "properties": { "CNPJ": "21909456000149", "IDCIDADE": "JOSE_BONIFACIO", "NOMEFANTASIA": "CAFETEIRA_MASSA", "RAZAOSOCIAL": "ANTONIO_MARTINS_FONTES_-_CAFETERIA", "ENDEE": "AVENIDA_NOVE_DE_JULHO536__CENTRO_15200-000", "LMAPS": "https://www.google.com/maps?q=&layer=c&cbll=-49.6884417,-21.0537317", "O_QUE_FAZER": "CARTEIRA", "ER_REGIAO_CIDADE_min": "José Bonifácio_Araçatuba" }, "geometry": { "type": "Point", "coordinates": [ -49.6884417, -21.0537317 ] } },
{ "type": "Feature", "properties": { "CNPJ": "01928318000108", "IDCIDADE": "JOSE_BONIFACIO", "NOMEFANTASIA": "LUCIMARA_MODAS", "RAZAOSOCIAL": "LUCIMARA_APARECIDA_VIVAS", "ENDEE": "AVENIDA_NOVE_DE_JULHO544__CENTRO_15200-000", "LMAPS": "https://www.google.com/maps?q=&layer=c&cbll=-49.6883509,-21.0537692", "O_QUE_FAZER": "CARTEIRA", "ER_REGIAO_CIDADE_min": "José Bonifácio_Araçatuba" }, "geometry": { "type": "Point", "coordinates": [ -49.6883509, -21.0537692 ] } },
{ "type": "Feature", "properties": { "CNPJ": "01913362000136", "IDCIDADE": "JOSE_BONIFACIO", "NOMEFANTASIA": "LANCHONETE_BELESSAN", "RAZAOSOCIAL": "ANTONIO_CEZAR_QUINTO_-_BAR", "ENDEE": "AVENIDA_NOVE_DE_JULHO547__CENTRO_15200-000", "LMAPS": "https://www.google.com/maps?q=&layer=c&cbll=-49.6882822,-21.0536693", "O_QUE_FAZER": "CARTEIRA", "ER_REGIAO_CIDADE_min": "José Bonifácio_Araçatuba" }, "geometry": { "type": "Point", "coordinates": [ -49.6882822, -21.0536693 ] } },
{ "type": "Feature", "properties": { "CNPJ": "05334968000178", "IDCIDADE": "JOSE_BONIFACIO", "NOMEFANTASIA": "CRISTINA_MODAD", "RAZAOSOCIAL": "CRISTINA_MODAS_J.B._LTDA", "ENDEE": "AVENIDA_NOVE_DE_JULHO548__CENTRO_15200-000", "LMAPS": "https://www.google.com/maps?q=&layer=c&cbll=-49.68839,-21.0538808", "O_QUE_FAZER": "CARTEIRA", "ER_REGIAO_CIDADE_min": "José Bonifácio_Araçatuba" }, "geometry": { "type": "Point", "coordinates": [ -49.68839, -21.0538808 ] } },
{ "type": "Feature", "properties": { "CNPJ": "43466804000193", "IDCIDADE": "JOSE_BONIFACIO", "NOMEFANTASIA": "ROSA_CHOCK", "RAZAOSOCIAL": "CREACOES_ROSA_CHOCK_LTDA", "ENDEE": "AVENIDA_NOVE_DE_JULHO567__CENTRO_15200-000", "LMAPS": "https://www.google.com/maps?q=&layer=c&cbll=-49.688034,-21.0537461", "O_QUE_FAZER": "CARTEIRA", "ER_REGIAO_CIDADE_min": "José Bonifácio_Araçatuba" }, "geometry": { "type": "Point", "coordinates": [ -49.688034, -21.0537461 ] } },
{ "type": "Feature", "properties": { "CNPJ": "15212718000119", "IDCIDADE": "JOSE_BONIFACIO", "NOMEFANTASIA": "MALWEE", "RAZAOSOCIAL": "MARCELA_DIONISIO_VOLPE", "ENDEE": "AVENIDA_NOVE_DE_JULHO573__CENTRO_15200-000", "LMAPS": "https://www.google.com/maps?q=&layer=c&cbll=-49.6879513,-21.0537537", "O_QUE_FAZER": "CARTEIRA", "ER_REGIAO_CIDADE_min": "José Bonifácio_Araçatuba" }, "geometry": { "type": "Point", "coordinates": [ -49.6879513, -21.0537537 ] } },
{ "type": "Feature", "properties": { "CNPJ": "05903394000101", "IDCIDADE": "JOSE_BONIFACIO", "NOMEFANTASIA": "OTICA_E_RELOJOARIA_IDEAL", "RAZAOSOCIAL": "OTICA_E_RELOJOARIA_IDEAL_LTDA", "ENDEE": "AVENIDA_NOVE_DE_JULHO576__CENTRO_15200-000", "LMAPS": "https://www.google.com/maps?q=&layer=c&cbll=-49.6881901,-21.0540389", "O_QUE_FAZER": "CARTEIRA", "ER_REGIAO_CIDADE_min": "José Bonifácio_Araçatuba" }, "geometry": { "type": "Point", "coordinates": [ -49.6881901, -21.0540389 ] } },
{ "type": "Feature", "properties": { "CNPJ": "06244379000242", "IDCIDADE": "JOSE_BONIFACIO", "NOMEFANTASIA": "AQUARELA_CALCADOS", "RAZAOSOCIAL": "ZANUTO_&_RODRIGUES_ZANUTO_LTDA", "ENDEE": "AVENIDA_NOVE_DE_JULHO579__CENTRO_15200-000", "LMAPS": "https://www.google.com/maps?q=&layer=c&cbll=-49.687913,-21.0538142", "O_QUE_FAZER": "CARTEIRA", "ER_REGIAO_CIDADE_min": "José Bonifácio_Araçatuba" }, "geometry": { "type": "Point", "coordinates": [ -49.687913, -21.0538142 ] } },
{ "type": "Feature", "properties": { "CNPJ": "96348404000140", "IDCIDADE": "JOSE_BONIFACIO", "NOMEFANTASIA": "TOK_FINAL", "RAZAOSOCIAL": "SANDRA_REGINA_FERRO_CALIXTO_&_CIA_LTDA", "ENDEE": "AVENIDA_NOVE_DE_JULHO583__CENTRO_15200-000", "LMAPS": "https://www.google.com/maps?q=&layer=c&cbll=-49.6879296,-21.0539441", "O_QUE_FAZER": "CARTEIRA", "ER_REGIAO_CIDADE_min": "José Bonifácio_Araçatuba" }, "geometry": { "type": "Point", "coordinates": [ -49.6879296, -21.0539441 ] } },
{ "type": "Feature", "properties": { "CNPJ": "32162453000100", "IDCIDADE": "JOSE_BONIFACIO", "NOMEFANTASIA": "PIMENTA_ROSA", "RAZAOSOCIAL": "MARIANA_SERON_SCARPELLI_&_CIA_LTDA", "ENDEE": "AVENIDA_NOVE_DE_JULHO586__CENTRO_15200-000", "LMAPS": "https://www.google.com/maps?q=&layer=c&cbll=-49.6881641,-21.0540834", "O_QUE_FAZER": "CARTEIRA", "ER_REGIAO_CIDADE_min": "José Bonifácio_Araçatuba" }, "geometry": { "type": "Point", "coordinates": [ -49.6881641, -21.0540834 ] } },
{ "type": "Feature", "properties": { "CNPJ": "08398937000179", "IDCIDADE": "JOSE_BONIFACIO", "NOMEFANTASIA": "FARMACIA_CENTRAL", "RAZAOSOCIAL": "R.V.G_JB_LTDA", "ENDEE": "AVENIDA_NOVE_DE_JULHO596__CENTRO_15200-000", "LMAPS": "https://www.google.com/maps?q=&layer=c&cbll=-49.688026,-21.0541312", "O_QUE_FAZER": "CARTEIRA", "ER_REGIAO_CIDADE_min": "José Bonifácio_Araçatuba" }, "geometry": { "type": "Point", "coordinates": [ -49.688026, -21.0541312 ] } },
{ "type": "Feature", "properties": { "CNPJ": "08161054000302", "IDCIDADE": "JOSE_BONIFACIO", "NOMEFANTASIA": "MIX_BIJU", "RAZAOSOCIAL": "EDISON_PIOVEZAM_D'AGOSTINI", "ENDEE": "AVENIDA_NOVE_DE_JULHO597__CENTRO_15200-000", "LMAPS": "https://www.google.com/maps?q=&layer=c&cbll=-49.6878916,-21.053914", "O_QUE_FAZER": "CARTEIRA", "ER_REGIAO_CIDADE_min": "José Bonifácio_Araçatuba" }, "geometry": { "type": "Point", "coordinates": [ -49.6878916, -21.053914 ] } },
{ "type": "Feature", "properties": { "CNPJ": "18382940000158", "IDCIDADE": "JOSE_BONIFACIO", "NOMEFANTASIA": "VETERINARIA_SIMONATO", "RAZAOSOCIAL": "RISSIEIRE_JOSE_SIMONATO", "ENDEE": "AVENIDA_NOVE_DE_JULHO63__CENTRO_15200-000", "LMAPS": "https://www.google.com/maps?q=&layer=c&cbll=-49.6912594,-21.0509771", "O_QUE_FAZER": "CARTEIRA", "ER_REGIAO_CIDADE_min": "José Bonifácio_Araçatuba" }, "geometry": { "type": "Point", "coordinates": [ -49.6912594, -21.0509771 ] } },
{ "type": "Feature", "properties": { "CNPJ": "47487948000187", "IDCIDADE": "JOSE_BONIFACIO", "NOMEFANTASIA": "OTMIX_PRESENTES", "RAZAOSOCIAL": "OTMIX_VARIEDADES_LTDA", "ENDEE": "AVENIDA_NOVE_DE_JULHO653__CENTRO_15200-000", "LMAPS": "https://www.google.com/maps?q=&layer=c&cbll=-49.6875091,-21.0544352", "O_QUE_FAZER": "CARTEIRA", "ER_REGIAO_CIDADE_min": "José Bonifácio_Araçatuba" }, "geometry": { "type": "Point", "coordinates": [ -49.6875091, -21.0544352 ] } },
{ "type": "Feature", "properties": { "CNPJ": "56478084000128", "IDCIDADE": "JOSE_BONIFACIO", "NOMEFANTASIA": "PAPELARIA_ARTE_UTIL", "RAZAOSOCIAL": "PAPELARIA_ARTE_UTIL_LTDA", "ENDEE": "AVENIDA_NOVE_DE_JULHO674__CENTRO_15200-000", "LMAPS": "https://www.google.com/maps?q=&layer=c&cbll=-49.6875048,-21.0545805", "O_QUE_FAZER": "CARTEIRA", "ER_REGIAO_CIDADE_min": "José Bonifácio_Araçatuba" }, "geometry": { "type": "Point", "coordinates": [ -49.6875048, -21.0545805 ] } },
{ "type": "Feature", "properties": { "CNPJ": "58735895000192", "IDCIDADE": "JOSE_BONIFACIO", "NOMEFANTASIA": "CILMARA_CALCADOS", "RAZAOSOCIAL": "B.E._CALIXTO_LTDA", "ENDEE": "AVENIDA_NOVE_DE_JULHO686__CENTRO_15200-000", "LMAPS": "https://www.google.com/maps?q=&layer=c&cbll=-49.6874967,-21.0546719", "O_QUE_FAZER": "CARTEIRA", "ER_REGIAO_CIDADE_min": "José Bonifácio_Araçatuba" }, "geometry": { "type": "Point", "coordinates": [ -49.6874967, -21.0546719 ] } },
{ "type": "Feature", "properties": { "CNPJ": "46934964000108", "IDCIDADE": "JOSE_BONIFACIO", "NOMEFANTASIA": "A_ECONOMICA", "RAZAOSOCIAL": "JOSE_ANTONIO_ALVES_PENTEADO", "ENDEE": "AVENIDA_NOVE_DE_JULHO687__CENTRO_15200-000", "LMAPS": "https://www.google.com/maps?q=&layer=c&cbll=-49.6873422,-21.0545865", "O_QUE_FAZER": "CARTEIRA", "ER_REGIAO_CIDADE_min": "José Bonifácio_Araçatuba" }, "geometry": { "type": "Point", "coordinates": [ -49.6873422, -21.0545865 ] } },
{ "type": "Feature", "properties": { "CNPJ": "04418959000100", "IDCIDADE": "JOSE_BONIFACIO", "NOMEFANTASIA": "PONTO_QUENTE", "RAZAOSOCIAL": "ANA_REGINA_GULINELI", "ENDEE": "AVENIDA_NOVE_DE_JULHO715__CENTRO_15200-000", "LMAPS": "https://www.google.com/maps?q=&layer=c&cbll=-49.6870511,-21.0546005", "O_QUE_FAZER": "CARTEIRA", "ER_REGIAO_CIDADE_min": "José Bonifácio_Araçatuba" }, "geometry": { "type": "Point", "coordinates": [ -49.6870511, -21.0546005 ] } },
{ "type": "Feature", "properties": { "CNPJ": "71599450000190", "IDCIDADE": "JOSE_BONIFACIO", "NOMEFANTASIA": "DIGICAMS", "RAZAOSOCIAL": "ANTONIO_FERREIRA_DA_SILVA-JOSE_BONIFACIO", "ENDEE": "AVENIDA_NOVE_DE_JULHO728__CENTRO_15200-000", "LMAPS": "https://www.google.com/maps?q=&layer=c&cbll=-49.6872341,-21.0548389", "O_QUE_FAZER": "CARTEIRA", "ER_REGIAO_CIDADE_min": "José Bonifácio_Araçatuba" }, "geometry": { "type": "Point", "coordinates": [ -49.6872341, -21.0548389 ] } },
{ "type": "Feature", "properties": { "CNPJ": "66605064000124", "IDCIDADE": "JOSE_BONIFACIO", "NOMEFANTASIA": "VISUAL_COSMETICOS", "RAZAOSOCIAL": "LUCINEIRY_R_VILAS_BOAS", "ENDEE": "AVENIDA_NOVE_DE_JULHO732__CENTRO_15200-000", "LMAPS": "https://www.google.com/maps?q=&layer=c&cbll=-49.6872171,-21.0549445", "O_QUE_FAZER": "CARTEIRA", "ER_REGIAO_CIDADE_min": "José Bonifácio_Araçatuba" }, "geometry": { "type": "Point", "coordinates": [ -49.6872171, -21.0549445 ] } },
{ "type": "Feature", "properties": { "CNPJ": "00180613000158", "IDCIDADE": "JOSE_BONIFACIO", "NOMEFANTASIA": "MARINA_CALCADOS", "RAZAOSOCIAL": "GISELE_CRISTINA_P_DUARTE", "ENDEE": "AVENIDA_NOVE_DE_JULHO762__CENTRO_15200-000", "LMAPS": "https://www.google.com/maps?q=&layer=c&cbll=-49.6870729,-21.0551542", "O_QUE_FAZER": "CARTEIRA", "ER_REGIAO_CIDADE_min": "José Bonifácio_Araçatuba" }, "geometry": { "type": "Point", "coordinates": [ -49.6870729, -21.0551542 ] } },
{ "type": "Feature", "properties": { "CNPJ": "57946964000144", "IDCIDADE": "JOSE_BONIFACIO", "NOMEFANTASIA": "MAGIA_MODAS", "RAZAOSOCIAL": "RODRIGUES_&_MENDONCA_LTDA", "ENDEE": "AVENIDA_NOVE_DE_JULHO766__CENTRO_15200-000", "LMAPS": "https://www.google.com/maps?q=&layer=c&cbll=-49.6869451,-21.0551098", "O_QUE_FAZER": "CARTEIRA", "ER_REGIAO_CIDADE_min": "José Bonifácio_Araçatuba" }, "geometry": { "type": "Point", "coordinates": [ -49.6869451, -21.0551098 ] } },
{ "type": "Feature", "properties": { "CNPJ": "09518003000196", "IDCIDADE": "JOSE_BONIFACIO", "NOMEFANTASIA": "OTICA_VEJA", "RAZAOSOCIAL": "SILVIO_LUIZ_INOCENCIO_DOS_SANTOS", "ENDEE": "AVENIDA_NOVE_DE_JULHO782__CENTRO_15200-000", "LMAPS": "https://www.google.com/maps?q=&layer=c&cbll=-49.6868645,-21.0552461", "O_QUE_FAZER": "CARTEIRA", "ER_REGIAO_CIDADE_min": "José Bonifácio_Araçatuba" }, "geometry": { "type": "Point", "coordinates": [ -49.6868645, -21.0552461 ] } },
{ "type": "Feature", "properties": { "CNPJ": "10227699000180", "IDCIDADE": "JOSE_BONIFACIO", "NOMEFANTASIA": "MULT_CELL", "RAZAOSOCIAL": "MULT_CELL_JB_COMERCIO_DE_PECAS_E_TELECOMUNICACOES_LTDA", "ENDEE": "AVENIDA_NOVE_DE_JULHO786__CENTRO_15200-000", "LMAPS": "https://www.google.com/maps?q=&layer=c&cbll=-49.686841,-21.0552456", "O_QUE_FAZER": "CARTEIRA", "ER_REGIAO_CIDADE_min": "José Bonifácio_Araçatuba" }, "geometry": { "type": "Point", "coordinates": [ -49.686841, -21.0552456 ] } },
{ "type": "Feature", "properties": { "CNPJ": "18934354000179", "IDCIDADE": "JOSE_BONIFACIO", "NOMEFANTASIA": "PAPELARIA_LAPIS_COLORIDO", "RAZAOSOCIAL": "CRISTIANA_APARECIDA_MIRANDA_PRADO_ROSA", "ENDEE": "AVENIDA_NOVE_DE_JULHO789__CENTRO_15200-000", "LMAPS": "https://www.google.com/maps?q=&layer=c&cbll=-49.6867266,-21.0551305", "O_QUE_FAZER": "CARTEIRA", "ER_REGIAO_CIDADE_min": "José Bonifácio_Araçatuba" }, "geometry": { "type": "Point", "coordinates": [ -49.6867266, -21.0551305 ] } },
{ "type": "Feature", "properties": { "CNPJ": "35018963000288", "IDCIDADE": "JOSE_BONIFACIO", "NOMEFANTASIA": "LUPO", "RAZAOSOCIAL": "LEHMAN_WEAR_STORE_COMERCIO_DE_CONFECCOES_LTDA", "ENDEE": "AVENIDA_NOVE_DE_JULHO838__CENTRO_15200-000", "LMAPS": "https://www.google.com/maps?q=&layer=c&cbll=-49.6865278,-21.0556025", "O_QUE_FAZER": "CARTEIRA", "ER_REGIAO_CIDADE_min": "José Bonifácio_Araçatuba" }, "geometry": { "type": "Point", "coordinates": [ -49.6865278, -21.0556025 ] } },
{ "type": "Feature", "properties": { "CNPJ": "09343141000181", "IDCIDADE": "JOSE_BONIFACIO", "NOMEFANTASIA": "CENTRO_OTICO", "RAZAOSOCIAL": "JOYCE_MARA_LOPES_OTICA", "ENDEE": "AVENIDA_NOVE_DE_JULHO855__CENTRO_15200-000", "LMAPS": "https://www.google.com/maps?q=&layer=c&cbll=-49.6863439,-21.0556199", "O_QUE_FAZER": "CARTEIRA", "ER_REGIAO_CIDADE_min": "José Bonifácio_Araçatuba" }, "geometry": { "type": "Point", "coordinates": [ -49.6863439, -21.0556199 ] } },
{ "type": "Feature", "properties": { "CNPJ": "36097086000160", "IDCIDADE": "JOSE_BONIFACIO", "NOMEFANTASIA": "SHOW_DO_REAL", "RAZAOSOCIAL": "MM_SILVA_UTILIDADES_DOMESTICAS_LTDA", "ENDEE": "AVENIDA_NOVE_DE_JULHO86__CENTRO_15200-000", "LMAPS": "https://www.google.com/maps?q=&layer=c&cbll=-49.6912873,-21.0510324", "O_QUE_FAZER": "CARTEIRA", "ER_REGIAO_CIDADE_min": "José Bonifácio_Araçatuba" }, "geometry": { "type": "Point", "coordinates": [ -49.6912873, -21.0510324 ] } },
{ "type": "Feature", "properties": { "CNPJ": "35610384000149", "IDCIDADE": "JOSE_BONIFACIO", "NOMEFANTASIA": "GLE_PERFUMARIA_NATURA", "RAZAOSOCIAL": "GLEISON_LUCIO_ROSSI", "ENDEE": "AVENIDA_NOVE_DE_JULHO869__CENTRO_15200-000", "LMAPS": "https://www.google.com/maps?q=&layer=c&cbll=-49.6862652,-21.0556833", "O_QUE_FAZER": "CARTEIRA", "ER_REGIAO_CIDADE_min": "José Bonifácio_Araçatuba" }, "geometry": { "type": "Point", "coordinates": [ -49.6862652, -21.0556833 ] } },
{ "type": "Feature", "properties": { "CNPJ": "34929164000110", "IDCIDADE": "JOSE_BONIFACIO", "NOMEFANTASIA": "CACAU_SHOW", "RAZAOSOCIAL": "J_K_COMERCIO_DE_CHOCOLATES_LTDA", "ENDEE": "AVENIDA_NOVE_DE_JULHO876__CENTRO_15200-000", "LMAPS": "https://www.google.com/maps?q=&layer=c&cbll=-49.6864161,-21.0557512", "O_QUE_FAZER": "CARTEIRA", "ER_REGIAO_CIDADE_min": "José Bonifácio_Araçatuba" }, "geometry": { "type": "Point", "coordinates": [ -49.6864161, -21.0557512 ] } },
{ "type": "Feature", "properties": { "CNPJ": "43694673000100", "IDCIDADE": "JOSE_BONIFACIO", "NOMEFANTASIA": "MERCADAO_DOS_OCULOS", "RAZAOSOCIAL": "RVA_JB_OTICAS_LTDA", "ENDEE": "AVENIDA_NOVE_DE_JULHO878__CENTRO_15200-000", "LMAPS": "https://www.google.com/maps?q=&layer=c&cbll=-49.686293,-21.055867", "O_QUE_FAZER": "CARTEIRA", "ER_REGIAO_CIDADE_min": "José Bonifácio_Araçatuba" }, "geometry": { "type": "Point", "coordinates": [ -49.686293, -21.055867 ] } },
{ "type": "Feature", "properties": { "CNPJ": "11510212000135", "IDCIDADE": "JOSE_BONIFACIO", "NOMEFANTASIA": "NVDE", "RAZAOSOCIAL": "JOSE_ADALBERTO_LOPES_FILHO", "ENDEE": "AVENIDA_NOVE_DE_JULHO929__CENTRO_15200-000", "LMAPS": "https://www.google.com/maps?q=&layer=c&cbll=-49.6858748,-21.0560095", "O_QUE_FAZER": "CARTEIRA", "ER_REGIAO_CIDADE_min": "José Bonifácio_Araçatuba" }, "geometry": { "type": "Point", "coordinates": [ -49.6858748, -21.0560095 ] } },
{ "type": "Feature", "properties": { "CNPJ": "51348332000100", "IDCIDADE": "JOSE_BONIFACIO", "NOMEFANTASIA": "LOJA_BAILO", "RAZAOSOCIAL": "BAILO_&_BAILO_LTDA", "ENDEE": "AVENIDA_NOVE_DE_JULHO946__CENTRO_15200-000", "LMAPS": "https://www.google.com/maps?q=&layer=c&cbll=-49.6858858,-21.0562943", "O_QUE_FAZER": "CARTEIRA", "ER_REGIAO_CIDADE_min": "José Bonifácio_Araçatuba" }, "geometry": { "type": "Point", "coordinates": [ -49.6858858, -21.0562943 ] } },
{ "type": "Feature", "properties": { "CNPJ": "10634080000190", "IDCIDADE": "JOSE_BONIFACIO", "NOMEFANTASIA": "LARY_COSMETICOS", "RAZAOSOCIAL": "V_A_PEQUENO_&_PEQUENO_LTDA", "ENDEE": "AVENIDA_NOVE_DE_JULHO984__CENTRO_15200-000", "LMAPS": "https://www.google.com/maps?q=&layer=c&cbll=-49.685663,-21.0567866", "O_QUE_FAZER": "CARTEIRA", "ER_REGIAO_CIDADE_min": "José Bonifácio_Araçatuba" }, "geometry": { "type": "Point", "coordinates": [ -49.685663, -21.0567866 ] } },
{ "type": "Feature", "properties": { "CNPJ": "01070851000173", "IDCIDADE": "JOSE_BONIFACIO", "NOMEFANTASIA": "LOJA_DO_TAPECEIRO", "RAZAOSOCIAL": "SILVIO_MARCIO_CALCA", "ENDEE": "AVENIDA_SAUDADE164__VILA_SAUDADE_15200-000", "LMAPS": "https://www.google.com/maps?q=&layer=c&cbll=-49.6920518,-21.0478347", "O_QUE_FAZER": "CARTEIRA", "ER_REGIAO_CIDADE_min": "José Bonifácio_Araçatuba" }, "geometry": { "type": "Point", "coordinates": [ -49.6920518, -21.0478347 ] } },
{ "type": "Feature", "properties": { "CNPJ": "14014460000183", "IDCIDADE": "JOSE_BONIFACIO", "NOMEFANTASIA": "JOBONI", "RAZAOSOCIAL": "HELIO_FRANCISCO_ALEXANDRE", "ENDEE": "AVENIDA_SAUDADE18__VILA_SAUDADE_15200-000", "LMAPS": "https://www.google.com/maps?q=&layer=c&cbll=-49.6913615,-21.0492095", "O_QUE_FAZER": "CARTEIRA", "ER_REGIAO_CIDADE_min": "José Bonifácio_Araçatuba" }, "geometry": { "type": "Point", "coordinates": [ -49.6913615, -21.0492095 ] } },
{ "type": "Feature", "properties": { "CNPJ": "72881972000143", "IDCIDADE": "JOSE_BONIFACIO", "NOMEFANTASIA": "LAVA_JATO_DA_HORA", "RAZAOSOCIAL": "JEAN_CARLO_DA_CRUZ-JBONIFACIO", "ENDEE": "AVENIDA_SAUDADE186__VILA_SAUDADE_15200-000", "LMAPS": "https://www.google.com/maps?q=&layer=c&cbll=-49.6920183,-21.0477502", "O_QUE_FAZER": "CARTEIRA", "ER_REGIAO_CIDADE_min": "José Bonifácio_Araçatuba" }, "geometry": { "type": "Point", "coordinates": [ -49.6920183, -21.0477502 ] } },
{ "type": "Feature", "properties": { "CNPJ": "34058072000101", "IDCIDADE": "JOSE_BONIFACIO", "NOMEFANTASIA": "NEGUIM_AUTO_CENTER", "RAZAOSOCIAL": "NEGUIM_AUTO_CENTER_LTDA", "ENDEE": "AVENIDA_SAUDADE220__VILA_SAUDADE_15200-000", "LMAPS": "https://www.google.com/maps?q=&layer=c&cbll=-49.6920181,-21.0476631", "O_QUE_FAZER": "CARTEIRA", "ER_REGIAO_CIDADE_min": "José Bonifácio_Araçatuba" }, "geometry": { "type": "Point", "coordinates": [ -49.6920181, -21.0476631 ] } },
{ "type": "Feature", "properties": { "CNPJ": "26938987000183", "IDCIDADE": "JOSE_BONIFACIO", "NOMEFANTASIA": "SMART_OFFICE", "RAZAOSOCIAL": "GUILHERME_HENRIQUE_VICENTIN_CALDEIRA_LTDA", "ENDEE": "AVENIDA_SAUDADE264__VILA_SAUDADE_15200-000", "LMAPS": "https://www.google.com/maps?q=&layer=c&cbll=-49.692465,-21.0471257", "O_QUE_FAZER": "CARTEIRA", "ER_REGIAO_CIDADE_min": "José Bonifácio_Araçatuba" }, "geometry": { "type": "Point", "coordinates": [ -49.692465, -21.0471257 ] } },
{ "type": "Feature", "properties": { "CNPJ": "04858396000163", "IDCIDADE": "JOSE_BONIFACIO", "NOMEFANTASIA": "DROGARIA_SAO_VALENTIM", "RAZAOSOCIAL": "PEREIRA_&_TRINDADE_LTDA", "ENDEE": "AVENIDA_SAUDADE266__VILA_SAUDADE_15200-000", "LMAPS": "https://www.google.com/maps?q=&layer=c&cbll=-49.6924477,-21.047154", "O_QUE_FAZER": "CARTEIRA", "ER_REGIAO_CIDADE_min": "José Bonifácio_Araçatuba" }, "geometry": { "type": "Point", "coordinates": [ -49.6924477, -21.047154 ] } },
{ "type": "Feature", "properties": { "CNPJ": "61525713000163", "IDCIDADE": "JOSE_BONIFACIO", "NOMEFANTASIA": "GRAFICA_OURO_E_PRATA", "RAZAOSOCIAL": "ARNALDO_P_CALDEIRA_JUNIOR", "ENDEE": "AVENIDA_SAUDADE268__VILA_SAUDADE_15200-000", "LMAPS": "https://www.google.com/maps?q=&layer=c&cbll=-49.692548,-21.0473585", "O_QUE_FAZER": "CARTEIRA", "ER_REGIAO_CIDADE_min": "José Bonifácio_Araçatuba" }, "geometry": { "type": "Point", "coordinates": [ -49.692548, -21.0473585 ] } },
{ "type": "Feature", "properties": { "CNPJ": "07564588000155", "IDCIDADE": "JOSE_BONIFACIO", "NOMEFANTASIA": "FLOR_DE_LIZ", "RAZAOSOCIAL": "JULIANA_RODRIGUES_-_FLOR_DE_LIS_FLORICULTURA_LTDA", "ENDEE": "AVENIDA_SAUDADE290__VILA_SAUDADE_15200-000", "LMAPS": "https://www.google.com/maps?q=&layer=c&cbll=-49.692582,-21.0469643", "O_QUE_FAZER": "CARTEIRA", "ER_REGIAO_CIDADE_min": "José Bonifácio_Araçatuba" }, "geometry": { "type": "Point", "coordinates": [ -49.692582, -21.0469643 ] } },
{ "type": "Feature", "properties": { "CNPJ": "11327189000148", "IDCIDADE": "JOSE_BONIFACIO", "NOMEFANTASIA": "CASA_DO_CRIADOR_AGROPET", "RAZAOSOCIAL": "NAUL_LOPES_PEREIRA_JUNIOR", "ENDEE": "AVENIDA_SAUDADE349__VILA_SAUDADE_15200-000", "LMAPS": "https://www.google.com/maps?q=&layer=c&cbll=-49.6928233,-21.0468916", "O_QUE_FAZER": "CARTEIRA", "ER_REGIAO_CIDADE_min": "José Bonifácio_Araçatuba" }, "geometry": { "type": "Point", "coordinates": [ -49.6928233, -21.0468916 ] } },
{ "type": "Feature", "properties": { "CNPJ": "49650189000157", "IDCIDADE": "JOSE_BONIFACIO", "NOMEFANTASIA": "SUPERMERCADO_LIDER", "RAZAOSOCIAL": "SUPERMERCADO_LIDER_JOSE_BONIFACIO_LTDA", "ENDEE": "AVENIDA_SAUDADE405__VILA_SAUDADE_15200-000", "LMAPS": "https://www.google.com/maps?q=&layer=c&cbll=-49.693395,-21.046588", "O_QUE_FAZER": "CARTEIRA", "ER_REGIAO_CIDADE_min": "José Bonifácio_Araçatuba" }, "geometry": { "type": "Point", "coordinates": [ -49.693395, -21.046588 ] } },
{ "type": "Feature", "properties": { "CNPJ": "62600181000144", "IDCIDADE": "JOSE_BONIFACIO", "NOMEFANTASIA": "62.600.181_MAICON_ANDERSON_DE_AZEVEDO", "RAZAOSOCIAL": "MAICON_ANDERSON_DE_AZEVEDO", "ENDEE": "10AV_10AV_JOSE_DIAS_GIMINEZ25__VALENTIN_CIANE_15200-000", "LMAPS": "https://www.google.com/maps?q=&layer=c&cbll=-49.6782863,-21.0424153", "O_QUE_FAZER": "FINALIZADO", "ER_REGIAO_CIDADE_min": "José Bonifácio_Araçatuba" }, "geometry": { "type": "Point", "coordinates": [ -49.6782863, -21.0424153 ] } },
{ "type": "Feature", "properties": { "CNPJ": "07571486000167", "IDCIDADE": "JOSE_BONIFACIO", "NOMEFANTASIA": "LUCELIA_DE_FATIMA_CARDOZO", "RAZAOSOCIAL": "BAR_DO_GRILO", "ENDEE": "AVENIDA_NOVE_JULHO121__CENTRO_15200-000", "LMAPS": "https://www.google.com/maps?q=&layer=c&cbll=-49.6909898,-21.0509776", "O_QUE_FAZER": "FINALIZADO", "ER_REGIAO_CIDADE_min": "José Bonifácio_Araçatuba" }, "geometry": { "type": "Point", "coordinates": [ -49.6909898, -21.0509776 ] } },
{ "type": "Feature", "properties": { "CNPJ": "14359948000142", "IDCIDADE": "JOSE_BONIFACIO", "NOMEFANTASIA": "RAPHAEL_MONZANI_DOS_SANTOS", "RAZAOSOCIAL": "PH_CAR_FILM", "ENDEE": "AVENIDA_SAUDADE196__VILA_SAUDADE_15200-000", "LMAPS": "https://www.google.com/maps?q=&layer=c&cbll=-49.6920959,-21.0476629", "O_QUE_FAZER": "FINALIZADO", "ER_REGIAO_CIDADE_min": "José Bonifácio_Araçatuba" }, "geometry": { "type": "Point", "coordinates": [ -49.6920959, -21.0476629 ] } },
{ "type": "Feature", "properties": { "CNPJ": "47383367000103", "IDCIDADE": "JOSE_BONIFACIO", "NOMEFANTASIA": "47.383.367_MARCIA_DE_FATIMA_RODRIGUES_FERREIRA", "RAZAOSOCIAL": "MR29STORS_ROUPAS_&_UTILIDADES", "ENDEE": "RUA_DOM_PEDRO_II19__VILA_MAGALHAES_15200-000", "LMAPS": "https://www.google.com/maps?q=&layer=c&cbll=-49.6784964,-21.0548524", "O_QUE_FAZER": "FINALIZADO", "ER_REGIAO_CIDADE_min": "José Bonifácio_Araçatuba" }, "geometry": { "type": "Point", "coordinates": [ -49.6784964, -21.0548524 ] } },
{ "type": "Feature", "properties": { "CNPJ": "48620276000107", "IDCIDADE": "JOSE_BONIFACIO", "NOMEFANTASIA": "W.J._DA_COSTA_CONTABILIDADE_E_ECOMMERCE", "RAZAOSOCIAL": "W.J._DA_COSTA_CONTABILIDADE_E_ECOMMERCE", "ENDEE": "RUA_LUIS_AMADEU260__RED.MONSENHOR_ANGELO_ANGIOLI_15200-000", "LMAPS": "https://www.google.com/maps?q=&layer=c&cbll=-49.6804138,-21.0500097", "O_QUE_FAZER": "FINALIZADO", "ER_REGIAO_CIDADE_min": "José Bonifácio_Araçatuba" }, "geometry": { "type": "Point", "coordinates": [ -49.6804138, -21.0500097 ] } },
{ "type": "Feature", "properties": { "CNPJ": "48029544000102", "IDCIDADE": "JOSE_BONIFACIO", "NOMEFANTASIA": "CONNECTA_SEGURANCA_ELETRONICA_LTDA", "RAZAOSOCIAL": "CONNECTA_SEGURANCA_ELETRONICA_LTDA", "ENDEE": "RUA_LUIZ_AMADEU340__JAD_ALCY_SANSONE_15200-000", "LMAPS": "https://www.google.com/maps?q=&layer=c&cbll=-49.6797118,-21.0493512", "O_QUE_FAZER": "FINALIZADO", "ER_REGIAO_CIDADE_min": "José Bonifácio_Araçatuba" }, "geometry": { "type": "Point", "coordinates": [ -49.6797118, -21.0493512 ] } }
]
}
