{
"type": "FeatureCollection",
"name": "ER_REGIAO_CIDADE_min_Capital Norte_Anhanguera",
"crs": { "type": "name", "properties": { "name": "urn:ogc:def:crs:OGC:1.3:CRS84" } },
"xy_coordinate_resolution": 1e-15,
"features": [
{ "type": "Feature", "properties": { "fid": 6044, "CNPJ": "12684713000109", "IDCIDADE": "SÃO PAULO", "NOMEFANTASIA": "SANTIAGO TRANSPORTES", "RAZAOSOCIAL": "EXPRESSO A D J LTDA", "ENDEE": "RUA JOÃO FERNANDES VIEIRA, 979, JARDIM SANTA FE, 05271-280, SÃO PAULO, SP, BRASIL", "LMAPS": "https://www.google.com/maps?q=&layer=c&cbll=-23.4289093,-46.7984314", "O_QUE_FAZER": "APLICAR T2", "ER_REGIAO_CIDADE_min": "Capital Norte_Anhanguera" }, "geometry": { "type": "Point", "coordinates": [ -46.7984314, -23.4289093 ] } },
{ "type": "Feature", "properties": { "fid": 125269, "CNPJ": "15466281000140", "IDCIDADE": "SAO_PAULO", "NOMEFANTASIA": "PESQUEIRO_3_CORACOES", "RAZAOSOCIAL": "IVAN_DONIZETI_ZAMARO_ARAUJO_SANTOS", "ENDEE": "ESTRADA_DO_JARAGUA3__ANHANGUERA_05276-100", "LMAPS": "https://www.google.com/maps?q=&layer=c&cbll=-46.7845919,-23.4271813", "O_QUE_FAZER": "CARTEIRA", "ER_REGIAO_CIDADE_min": "Capital Norte_Anhanguera" }, "geometry": { "type": "Point", "coordinates": [ -46.7845919, -23.4271813 ] } },
{ "type": "Feature", "properties": { "fid": 125289, "CNPJ": "46327450000194", "IDCIDADE": "SAO_PAULO", "NOMEFANTASIA": "PESQUEIRO_E_LANCHONETE_DO_CLAUDINHO_LTDA.", "RAZAOSOCIAL": "PESQUEIRO_E_LANCHONETE_DO_CLAUDINHO_LTDA", "ENDEE": "ESTRADA_DO_JARAGUA3__ANHANGUERA_05276-100", "LMAPS": "https://www.google.com/maps?q=&layer=c&cbll=-46.7846614,-23.4274212", "O_QUE_FAZER": "CARTEIRA", "ER_REGIAO_CIDADE_min": "Capital Norte_Anhanguera" }, "geometry": { "type": "Point", "coordinates": [ -46.7846614, -23.4274212 ] } },
{ "type": "Feature", "properties": { "fid": 125334, "CNPJ": "59802397000188", "IDCIDADE": "SAO_PAULO", "NOMEFANTASIA": "COMERCIO_DE_TINTAS_TORRES_&_ARAUJO", "RAZAOSOCIAL": "COMERCIO_DE_TINTAS_TORRES_&_ARAUJO_LTDA", "ENDEE": "RUA_LEOPOLDO_DE_PASSOS_LIMA844__JARDIM_SANTA_FE_05271-000", "LMAPS": "https://www.google.com/maps?q=&layer=c&cbll=-46.7947833,-23.4281312", "O_QUE_FAZER": "CARTEIRA", "ER_REGIAO_CIDADE_min": "Capital Norte_Anhanguera" }, "geometry": { "type": "Point", "coordinates": [ -46.7947833, -23.4281312 ] } },
{ "type": "Feature", "properties": { "fid": 125374, "CNPJ": "39630388000140", "IDCIDADE": "SAO_PAULO", "NOMEFANTASIA": "HEVA_BROUNIER", "RAZAOSOCIAL": "HEVA_BROWNIE_LTDA", "ENDEE": "RUA_DIONISIO_BELLANTE76__JARDIM_SANTA_FE_05271-150", "LMAPS": "https://www.google.com/maps?q=&layer=c&cbll=-46.7953458,-23.4286563", "O_QUE_FAZER": "CARTEIRA", "ER_REGIAO_CIDADE_min": "Capital Norte_Anhanguera" }, "geometry": { "type": "Point", "coordinates": [ -46.7953458, -23.4286563 ] } },
{ "type": "Feature", "properties": { "fid": 125401, "CNPJ": "02238008000116", "IDCIDADE": "SAO_PAULO", "NOMEFANTASIA": "P._A._CLOSET_MODA_FEMININA_E_INFANTIL", "RAZAOSOCIAL": "LU_MODAS_ARMARINHOS_&_ACESSORIOS_LTDA", "ENDEE": "RUA_LEOPOLDO_DE_PASSOS_LIMA682__JARDIM_SANTA_FE_05271-000", "LMAPS": "https://www.google.com/maps?q=&layer=c&cbll=-46.7935367,-23.4288883", "O_QUE_FAZER": "CARTEIRA", "ER_REGIAO_CIDADE_min": "Capital Norte_Anhanguera" }, "geometry": { "type": "Point", "coordinates": [ -46.7935367, -23.4288883 ] } },
{ "type": "Feature", "properties": { "fid": 125410, "CNPJ": "51206093000146", "IDCIDADE": "SAO_PAULO", "NOMEFANTASIA": "F1_MECANICA", "RAZAOSOCIAL": "F1_MECANICA_DE_AUTOS_LTDA", "ENDEE": "RUA_FLORIANO_ALVES_DA_COSTA193__JARDIM_SANTA_FE_05271-160", "LMAPS": "https://www.google.com/maps?q=&layer=c&cbll=-46.7924517,-23.4289667", "O_QUE_FAZER": "CARTEIRA", "ER_REGIAO_CIDADE_min": "Capital Norte_Anhanguera" }, "geometry": { "type": "Point", "coordinates": [ -46.7924517, -23.4289667 ] } },
{ "type": "Feature", "properties": { "fid": 125434, "CNPJ": "74678624000107", "IDCIDADE": "SAO_PAULO", "NOMEFANTASIA": "PIPOCA_MATERIAIS_DE_CONSTRUCAO", "RAZAOSOCIAL": "PIPOCA_COMERCIO_DE_MATERIAIS_PARA_CONSTRUCAO_LTDA", "ENDEE": "RUA_LEOPOLDO_DE_PASSOS_LIMA600__JARDIM_SANTA_FE_05271-000", "LMAPS": "https://www.google.com/maps?q=&layer=c&cbll=-46.7926821,-23.4291869", "O_QUE_FAZER": "CARTEIRA", "ER_REGIAO_CIDADE_min": "Capital Norte_Anhanguera" }, "geometry": { "type": "Point", "coordinates": [ -46.7926821, -23.4291869 ] } },
{ "type": "Feature", "properties": { "fid": 125440, "CNPJ": "35258017000128", "IDCIDADE": "SAO_PAULO", "NOMEFANTASIA": "AUTOMOTIVO_AGUIA", "RAZAOSOCIAL": "AGUIA_CENTRO_AUTOMOTIVO_LTDA", "ENDEE": "RUA_POMPEU_BERTINI22__JARDIM_SANTA_FE_05271-110", "LMAPS": "https://www.google.com/maps?q=&layer=c&cbll=-46.7936867,-23.4292033", "O_QUE_FAZER": "CARTEIRA", "ER_REGIAO_CIDADE_min": "Capital Norte_Anhanguera" }, "geometry": { "type": "Point", "coordinates": [ -46.7936867, -23.4292033 ] } },
{ "type": "Feature", "properties": { "fid": 125451, "CNPJ": "20099124000183", "IDCIDADE": "SAO_PAULO", "NOMEFANTASIA": "MERCADAO_DE_CARNES_BELA_VISTA", "RAZAOSOCIAL": "MERCADAO_DE_CARNES_BELA_VISTA_LTDA", "ENDEE": "RUA_LEOPOLDO_DE_PASSOS_LIMA583__JARDIM_SANTA_FE_05271-000", "LMAPS": "https://www.google.com/maps?q=&layer=c&cbll=-46.7925808,-23.429312", "O_QUE_FAZER": "CARTEIRA", "ER_REGIAO_CIDADE_min": "Capital Norte_Anhanguera" }, "geometry": { "type": "Point", "coordinates": [ -46.7925808, -23.429312 ] } },
{ "type": "Feature", "properties": { "fid": 125455, "CNPJ": "66063355000138", "IDCIDADE": "SAO_PAULO", "NOMEFANTASIA": "AUTO_ESCOLA_GUEDES", "RAZAOSOCIAL": "CENTRO_DE_FORMACAO_DE_CONDUTORES_GUEDES_-_BRITANIA_A/B_LTDA", "ENDEE": "RUA_POMPEU_BERTINI157__JARDIM_SANTA_FE_05271-110", "LMAPS": "https://www.google.com/maps?q=&layer=c&cbll=-46.7932929,-23.4293992", "O_QUE_FAZER": "CARTEIRA", "ER_REGIAO_CIDADE_min": "Capital Norte_Anhanguera" }, "geometry": { "type": "Point", "coordinates": [ -46.7932929, -23.4293992 ] } },
{ "type": "Feature", "properties": { "fid": 125468, "CNPJ": "50981613000125", "IDCIDADE": "SAO_PAULO", "NOMEFANTASIA": "FEMININO_PERFUMES_E_COSMETICOS", "RAZAOSOCIAL": "MF_COSMETICOS_LTDA", "ENDEE": "RUA_LEOPOLDO_DE_PASSOS_LIMA536__JARDIM_SANTA_FE_05271-000", "LMAPS": "https://www.google.com/maps?q=&layer=c&cbll=-46.7923567,-23.42956", "O_QUE_FAZER": "CARTEIRA", "ER_REGIAO_CIDADE_min": "Capital Norte_Anhanguera" }, "geometry": { "type": "Point", "coordinates": [ -46.7923567, -23.42956 ] } },
{ "type": "Feature", "properties": { "fid": 125477, "CNPJ": "07011282000171", "IDCIDADE": "SAO_PAULO", "NOMEFANTASIA": "AGULHAS_DE_OURO", "RAZAOSOCIAL": "LUCIANA_DE_VASCONCELOS_ROLO", "ENDEE": "RUA_LEOPOLDO_DE_PASSOS_LIMA492__JARDIM_SANTA_FE_05271-000", "LMAPS": "https://www.google.com/maps?q=&layer=c&cbll=-46.7918937,-23.4296289", "O_QUE_FAZER": "CARTEIRA", "ER_REGIAO_CIDADE_min": "Capital Norte_Anhanguera" }, "geometry": { "type": "Point", "coordinates": [ -46.7918937, -23.4296289 ] } },
{ "type": "Feature", "properties": { "fid": 125485, "CNPJ": "20847946000103", "IDCIDADE": "SAO_PAULO", "NOMEFANTASIA": "CESA_E_DL", "RAZAOSOCIAL": "DANILO_SOUSA_SILVA", "ENDEE": "RUA_LEOPOLDO_DE_PASSOS_LIMA504__JARDIM_SANTA_FE_05271-000", "LMAPS": "https://www.google.com/maps?q=&layer=c&cbll=-46.7921134,-23.4296906", "O_QUE_FAZER": "CARTEIRA", "ER_REGIAO_CIDADE_min": "Capital Norte_Anhanguera" }, "geometry": { "type": "Point", "coordinates": [ -46.7921134, -23.4296906 ] } },
{ "type": "Feature", "properties": { "fid": 125497, "CNPJ": "14166999000158", "IDCIDADE": "SAO_PAULO", "NOMEFANTASIA": "BAZAR_EL_ELION", "RAZAOSOCIAL": "CLARICE_DEGAN_DE_SANTANA", "ENDEE": "RUA_LEOPOLDO_DE_PASSOS_LIMA368__JARDIM_SANTA_FE_05271-000", "LMAPS": "https://www.google.com/maps?q=&layer=c&cbll=-46.7908533,-23.4297801", "O_QUE_FAZER": "CARTEIRA", "ER_REGIAO_CIDADE_min": "Capital Norte_Anhanguera" }, "geometry": { "type": "Point", "coordinates": [ -46.7908533, -23.4297801 ] } },
{ "type": "Feature", "properties": { "fid": 125515, "CNPJ": "14767202000178", "IDCIDADE": "SAO_PAULO", "NOMEFANTASIA": "GESSO_CUSTODIO", "RAZAOSOCIAL": "CUSTODIO_GESSO_&_TEXTURA_LTDA", "ENDEE": "RUA_LEOPOLDO_DE_PASSOS_LIMA254__JARDIM_SANTA_FE_05271-000", "LMAPS": "https://www.google.com/maps?q=&layer=c&cbll=-46.7896345,-23.4299791", "O_QUE_FAZER": "CARTEIRA", "ER_REGIAO_CIDADE_min": "Capital Norte_Anhanguera" }, "geometry": { "type": "Point", "coordinates": [ -46.7896345, -23.4299791 ] } },
{ "type": "Feature", "properties": { "fid": 125517, "CNPJ": "50954466000102", "IDCIDADE": "SAO_PAULO", "NOMEFANTASIA": "HORTICULTURA_FRUTI_MORRO_DOCE", "RAZAOSOCIAL": "HORTIFRUT_MORRO_DOCE_LTDA", "ENDEE": "RUA_LEOPOLDO_DE_PASSOS_LIMA218__JARDIM_SANTA_FE_05271-000", "LMAPS": "https://www.google.com/maps?q=&layer=c&cbll=-46.7895757,-23.4300039", "O_QUE_FAZER": "CARTEIRA", "ER_REGIAO_CIDADE_min": "Capital Norte_Anhanguera" }, "geometry": { "type": "Point", "coordinates": [ -46.7895757, -23.4300039 ] } },
{ "type": "Feature", "properties": { "fid": 125521, "CNPJ": "41561345000100", "IDCIDADE": "SAO_PAULO", "NOMEFANTASIA": "SORRIDENTS", "RAZAOSOCIAL": "MORRO_DOCE_CLINICA_ODONTOLOGICA_LTDA", "ENDEE": "RUA_LEOPOLDO_DE_PASSOS_LIMA232__JARDIM_SANTA_FE_05271-000", "LMAPS": "https://www.google.com/maps?q=&layer=c&cbll=-46.7894768,-23.4300324", "O_QUE_FAZER": "CARTEIRA", "ER_REGIAO_CIDADE_min": "Capital Norte_Anhanguera" }, "geometry": { "type": "Point", "coordinates": [ -46.7894768, -23.4300324 ] } },
{ "type": "Feature", "properties": { "fid": 125525, "CNPJ": "14770433000130", "IDCIDADE": "SAO_PAULO", "NOMEFANTASIA": "PASTELARIA_BRASILEIRA", "RAZAOSOCIAL": "ENIVALDO_M_RODRIGUES_PASTELARIA", "ENDEE": "RUA_LEOPOLDO_DE_PASSOS_LIMA305__JARDIM_SANTA_FE_05271-000", "LMAPS": "https://www.google.com/maps?q=&layer=c&cbll=-46.7901627,-23.4300464", "O_QUE_FAZER": "CARTEIRA", "ER_REGIAO_CIDADE_min": "Capital Norte_Anhanguera" }, "geometry": { "type": "Point", "coordinates": [ -46.7901627, -23.4300464 ] } },
{ "type": "Feature", "properties": { "fid": 125529, "CNPJ": "46892547000140", "IDCIDADE": "SAO_PAULO", "NOMEFANTASIA": "MEGA_ESTELAR", "RAZAOSOCIAL": "MEGA_ESTELAR_PAPELARIA_LTDA", "ENDEE": "RUA_LEOPOLDO_DE_PASSOS_LIMA371__JARDIM_SANTA_FE_05271-000", "LMAPS": "https://www.google.com/maps?q=&layer=c&cbll=-46.7911962,-23.4300999", "O_QUE_FAZER": "CARTEIRA", "ER_REGIAO_CIDADE_min": "Capital Norte_Anhanguera" }, "geometry": { "type": "Point", "coordinates": [ -46.7911962, -23.4300999 ] } },
{ "type": "Feature", "properties": { "fid": 125530, "CNPJ": "23359541000106", "IDCIDADE": "SAO_PAULO", "NOMEFANTASIA": "MARMORARIA_LEOPOLDO", "RAZAOSOCIAL": "A._R._DE_BARROS_MARMORARIA", "ENDEE": "RUA_LEOPOLDO_DE_PASSOS_LIMA243__JARDIM_SANTA_FE_05271-000", "LMAPS": "https://www.google.com/maps?q=&layer=c&cbll=-46.7896169,-23.4301012", "O_QUE_FAZER": "CARTEIRA", "ER_REGIAO_CIDADE_min": "Capital Norte_Anhanguera" }, "geometry": { "type": "Point", "coordinates": [ -46.7896169, -23.4301012 ] } },
{ "type": "Feature", "properties": { "fid": 125552, "CNPJ": "09584264000104", "IDCIDADE": "SAO_PAULO", "NOMEFANTASIA": "BR_VETERINARIO", "RAZAOSOCIAL": "BRITANIA_PET_-_CLINICA_VETERINARIA_-_BANHO_E_TOSA_LTDA", "ENDEE": "RUA_LEOPOLDO_DE_PASSOS_LIMA199__JARDIM_SANTA_FE_05271-000", "LMAPS": "https://www.google.com/maps?q=&layer=c&cbll=-46.7892266,-23.4302851", "O_QUE_FAZER": "CARTEIRA", "ER_REGIAO_CIDADE_min": "Capital Norte_Anhanguera" }, "geometry": { "type": "Point", "coordinates": [ -46.7892266, -23.4302851 ] } },
{ "type": "Feature", "properties": { "fid": 125576, "CNPJ": "28291882000100", "IDCIDADE": "SAO_PAULO", "NOMEFANTASIA": "DROGAO_MAIS_POPULAR", "RAZAOSOCIAL": "DROGAO_MAIS_POPULAR_LTDA", "ENDEE": "RUA_LEOPOLDO_DE_PASSOS_LIMA108__JARDIM_SANTA_FE_05271-000", "LMAPS": "https://www.google.com/maps?q=&layer=c&cbll=-46.7884168,-23.4304868", "O_QUE_FAZER": "CARTEIRA", "ER_REGIAO_CIDADE_min": "Capital Norte_Anhanguera" }, "geometry": { "type": "Point", "coordinates": [ -46.7884168, -23.4304868 ] } },
{ "type": "Feature", "properties": { "fid": 125581, "CNPJ": "00321066000183", "IDCIDADE": "SAO_PAULO", "NOMEFANTASIA": "ROSMANINHO", "RAZAOSOCIAL": "ANA_PAULA_CONCEICAO_BATISTA_ROSMANINHO", "ENDEE": "RUA_LEOPOLDO_DE_PASSOS_LIMA100__JARDIM_SANTA_FE_05271-000", "LMAPS": "https://www.google.com/maps?q=&layer=c&cbll=-46.7883217,-23.4305117", "O_QUE_FAZER": "CARTEIRA", "ER_REGIAO_CIDADE_min": "Capital Norte_Anhanguera" }, "geometry": { "type": "Point", "coordinates": [ -46.7883217, -23.4305117 ] } },
{ "type": "Feature", "properties": { "fid": 125592, "CNPJ": "34023724000172", "IDCIDADE": "SAO_PAULO", "NOMEFANTASIA": "DOCE_VANILLA", "RAZAOSOCIAL": "DOCE_VANILLIA_CONFEITARIA_LTDA", "ENDEE": "RUA_ADELAIDE_AMARAL109__JARDIM_SANTA_FE_05269-260", "LMAPS": "https://www.google.com/maps?q=&layer=c&cbll=-46.7900084,-23.4305796", "O_QUE_FAZER": "CARTEIRA", "ER_REGIAO_CIDADE_min": "Capital Norte_Anhanguera" }, "geometry": { "type": "Point", "coordinates": [ -46.7900084, -23.4305796 ] } },
{ "type": "Feature", "properties": { "fid": 125604, "CNPJ": "43490292000109", "IDCIDADE": "SAO_PAULO", "NOMEFANTASIA": "PARDAL", "RAZAOSOCIAL": "PARDAL_DIESEL_SERVICOS_PARA_HDD_LTDA", "ENDEE": "RUA_POMPEU_BERTINI11__JARDIM_SANTA_FE_05271-110", "LMAPS": "https://www.google.com/maps?q=&layer=c&cbll=-46.7929556,-23.4306641", "O_QUE_FAZER": "CARTEIRA", "ER_REGIAO_CIDADE_min": "Capital Norte_Anhanguera" }, "geometry": { "type": "Point", "coordinates": [ -46.7929556, -23.4306641 ] } },
{ "type": "Feature", "properties": { "fid": 125606, "CNPJ": "22151537000276", "IDCIDADE": "SAO_PAULO", "NOMEFANTASIA": "MMD", "RAZAOSOCIAL": "MADEIREIRA_MUTINGA_LTDA", "ENDEE": "RUA_LEOPOLDO_DE_PASSOS_LIMA63__JARDIM_SANTA_FE_05271-000", "LMAPS": "https://www.google.com/maps?q=&layer=c&cbll=-46.7878811,-23.4307178", "O_QUE_FAZER": "CARTEIRA", "ER_REGIAO_CIDADE_min": "Capital Norte_Anhanguera" }, "geometry": { "type": "Point", "coordinates": [ -46.7878811, -23.4307178 ] } },
{ "type": "Feature", "properties": { "fid": 125657, "CNPJ": "39492176000143", "IDCIDADE": "SAO_PAULO", "NOMEFANTASIA": "CANNBAR", "RAZAOSOCIAL": "CANHA_BAR_LTDA", "ENDEE": "AVENIDA_PIERO_TRICCA214__JARDIM_SANTA_FE_05271-240", "LMAPS": "https://www.google.com/maps?q=&layer=c&cbll=-46.7909613,-23.4314901", "O_QUE_FAZER": "CARTEIRA", "ER_REGIAO_CIDADE_min": "Capital Norte_Anhanguera" }, "geometry": { "type": "Point", "coordinates": [ -46.7909613, -23.4314901 ] } },
{ "type": "Feature", "properties": { "fid": 125663, "CNPJ": "14134025000192", "IDCIDADE": "SAO_PAULO", "NOMEFANTASIA": "PONTO_40", "RAZAOSOCIAL": "ESPACO_GARAGE.40_DETAILING_LTDA", "ENDEE": "RUA_DIEGO_VELASQUEZ182__JARDIM_BRITANIA_05269-030", "LMAPS": "https://www.google.com/maps?q=&layer=c&cbll=-46.7889483,-23.4315317", "O_QUE_FAZER": "CARTEIRA", "ER_REGIAO_CIDADE_min": "Capital Norte_Anhanguera" }, "geometry": { "type": "Point", "coordinates": [ -46.7889483, -23.4315317 ] } },
{ "type": "Feature", "properties": { "fid": 125674, "CNPJ": "22235636000155", "IDCIDADE": "SAO_PAULO", "NOMEFANTASIA": "MG_SILVA_PNEUS", "RAZAOSOCIAL": "MGSILVA_PNEUS_LTDA", "ENDEE": "RUA_NESTOR_GOMES44__JARDIM_SANTA_FE_05271-090", "LMAPS": "https://www.google.com/maps?q=&layer=c&cbll=-46.7922831,-23.4316744", "O_QUE_FAZER": "CARTEIRA", "ER_REGIAO_CIDADE_min": "Capital Norte_Anhanguera" }, "geometry": { "type": "Point", "coordinates": [ -46.7922831, -23.4316744 ] } },
{ "type": "Feature", "properties": { "fid": 125698, "CNPJ": "13708800000103", "IDCIDADE": "SAO_PAULO", "NOMEFANTASIA": "BOMBAS_ANHAGUERA", "RAZAOSOCIAL": "ANHANGUERA_BOMBAS_LTDA", "ENDEE": "RUA_DIEGO_VELASQUEZ184__JARDIM_BRITANIA_05269-030", "LMAPS": "https://www.google.com/maps?q=&layer=c&cbll=-46.7889717,-23.43185", "O_QUE_FAZER": "CARTEIRA", "ER_REGIAO_CIDADE_min": "Capital Norte_Anhanguera" }, "geometry": { "type": "Point", "coordinates": [ -46.7889717, -23.43185 ] } },
{ "type": "Feature", "properties": { "fid": 125701, "CNPJ": "24389834000956", "IDCIDADE": "SAO_PAULO", "NOMEFANTASIA": "ROBSON_ALMEIDA_ACADEMIA", "RAZAOSOCIAL": "ROBSON_ALMEIDA_CONDICIONAMENTO_FISICO_LTDA.", "ENDEE": "RUA_VIRGINIA_CASTIGLIONI200__JARDIM_SANTA_FE_05271-060", "LMAPS": "https://www.google.com/maps?q=&layer=c&cbll=-46.7923478,-23.4318557", "O_QUE_FAZER": "CARTEIRA", "ER_REGIAO_CIDADE_min": "Capital Norte_Anhanguera" }, "geometry": { "type": "Point", "coordinates": [ -46.7923478, -23.4318557 ] } },
{ "type": "Feature", "properties": { "fid": 125707, "CNPJ": "03381072000114", "IDCIDADE": "SAO_PAULO", "NOMEFANTASIA": "COLEGIO_SALLES", "RAZAOSOCIAL": "COLEGIO_SEMEAR_LTDA", "ENDEE": "RUA_DIEGO_VELASQUEZ177__JARDIM_BRITANIA_05269-030", "LMAPS": "https://www.google.com/maps?q=&layer=c&cbll=-46.789058,-23.4319103", "O_QUE_FAZER": "CARTEIRA", "ER_REGIAO_CIDADE_min": "Capital Norte_Anhanguera" }, "geometry": { "type": "Point", "coordinates": [ -46.789058, -23.4319103 ] } },
{ "type": "Feature", "properties": { "fid": 125711, "CNPJ": "12083611000120", "IDCIDADE": "SAO_PAULO", "NOMEFANTASIA": "DEPOSITO_ALEMAO", "RAZAOSOCIAL": "EUSTAQUIO_DOS_SANTOS_LIMA", "ENDEE": "RUA_MACHADO_DE_ASSIS41__CONJUNTO_RESIDENCIAL_MORADA_DO_SOL_04106-000", "LMAPS": "https://www.google.com/maps?q=&layer=c&cbll=-46.777172,-23.4319369", "O_QUE_FAZER": "CARTEIRA", "ER_REGIAO_CIDADE_min": "Capital Norte_Anhanguera" }, "geometry": { "type": "Point", "coordinates": [ -46.777172, -23.4319369 ] } },
{ "type": "Feature", "properties": { "fid": 125769, "CNPJ": "10864597000176", "IDCIDADE": "SAO_PAULO", "NOMEFANTASIA": "PADARIA", "RAZAOSOCIAL": "PADARIA_E_MERCEARIA_SOL_NASCENTE_LTDA", "ENDEE": "RUA_FERNANDO_PESSOA10__CONJUNTO_RESIDENCIAL_MORADA_DO_SOL_05281-080", "LMAPS": "https://www.google.com/maps?q=&layer=c&cbll=-46.7797262,-23.4323685", "O_QUE_FAZER": "CARTEIRA", "ER_REGIAO_CIDADE_min": "Capital Norte_Anhanguera" }, "geometry": { "type": "Point", "coordinates": [ -46.7797262, -23.4323685 ] } },
{ "type": "Feature", "properties": { "fid": 125774, "CNPJ": "23589072000111", "IDCIDADE": "SAO_PAULO", "NOMEFANTASIA": "LTL_PRESENTES", "RAZAOSOCIAL": "TATIANE_CONCEICAO_DE_OLIVEIRA_GUIMARAES_LTDA", "ENDEE": "RUA_VIRGINIA_CASTIGLIONI303__JARDIM_SANTA_FE_05271-060", "LMAPS": "https://www.google.com/maps?q=&layer=c&cbll=-46.7923681,-23.4323813", "O_QUE_FAZER": "CARTEIRA", "ER_REGIAO_CIDADE_min": "Capital Norte_Anhanguera" }, "geometry": { "type": "Point", "coordinates": [ -46.7923681, -23.4323813 ] } },
{ "type": "Feature", "properties": { "fid": 125799, "CNPJ": "43551805000136", "IDCIDADE": "SAO_PAULO", "NOMEFANTASIA": "MERCADINHO_COMPRE_BEM", "RAZAOSOCIAL": "J._J._DOS_SANTOS_MERCADINHO_COMPRE_BEM_LTDA", "ENDEE": "RUA_MARIO_DE_ANDRADE2__CONJUNTO_RESIDENCIAL_MORADA_DO_SOL_05281-060", "LMAPS": "https://www.google.com/maps?q=&layer=c&cbll=-46.7786038,-23.4325804", "O_QUE_FAZER": "CARTEIRA", "ER_REGIAO_CIDADE_min": "Capital Norte_Anhanguera" }, "geometry": { "type": "Point", "coordinates": [ -46.7786038, -23.4325804 ] } },
{ "type": "Feature", "properties": { "fid": 125802, "CNPJ": "12285483000105", "IDCIDADE": "SAO_PAULO", "NOMEFANTASIA": "OTICAS_CANAA", "RAZAOSOCIAL": "W&M_COMERCIO_VAREJISTA_DE_OCULOS_LTDA", "ENDEE": "RUA_PONCIANO_BARBOSA17__JARDIM_SANTA_FE_05271-080", "LMAPS": "https://www.google.com/maps?q=&layer=c&cbll=-46.7925953,-23.4325861", "O_QUE_FAZER": "CARTEIRA", "ER_REGIAO_CIDADE_min": "Capital Norte_Anhanguera" }, "geometry": { "type": "Point", "coordinates": [ -46.7925953, -23.4325861 ] } },
{ "type": "Feature", "properties": { "fid": 125819, "CNPJ": "26193865000105", "IDCIDADE": "SAO_PAULO", "NOMEFANTASIA": "PRECO_JUSTO", "RAZAOSOCIAL": "MINIMERCADO_E_PADARIA_MACIEL_ALMEIDA_LTDA", "ENDEE": "AVENIDA_EUCLIDES_DA_CUNHA52__CONJUNTO_RESIDENCIAL_MORADA_DO_SOL_05281-000", "LMAPS": "https://www.google.com/maps?q=&layer=c&cbll=-46.7813517,-23.4327361", "O_QUE_FAZER": "CARTEIRA", "ER_REGIAO_CIDADE_min": "Capital Norte_Anhanguera" }, "geometry": { "type": "Point", "coordinates": [ -46.7813517, -23.4327361 ] } },
{ "type": "Feature", "properties": { "fid": 125822, "CNPJ": "47918650000184", "IDCIDADE": "SAO_PAULO", "NOMEFANTASIA": "JNS_MERCADINHO_PINGUIM", "RAZAOSOCIAL": "J._N._S._LISBOA_MERCADINHO_PINGUIM_LTDA", "ENDEE": "RUA_MACHADO_DE_ASSIS15__CONJUNTO_RESIDENCIAL_MORADA_DO_SOL_05281-010", "LMAPS": "https://www.google.com/maps?q=&layer=c&cbll=-46.7770903,-23.4327492", "O_QUE_FAZER": "CARTEIRA", "ER_REGIAO_CIDADE_min": "Capital Norte_Anhanguera" }, "geometry": { "type": "Point", "coordinates": [ -46.7770903, -23.4327492 ] } },
{ "type": "Feature", "properties": { "fid": 125824, "CNPJ": "38484458000136", "IDCIDADE": "SAO_PAULO", "NOMEFANTASIA": "ADEGA_DOALEMAO", "RAZAOSOCIAL": "NAL_ADEGA_DO_ALEMAO_LTDA", "ENDEE": "RUA_MEM_DE_SA26__RESIDENCIAL_SOL_NASCENTE_05283-230", "LMAPS": "https://www.google.com/maps?q=&layer=c&cbll=-46.7762575,-23.4327567", "O_QUE_FAZER": "CARTEIRA", "ER_REGIAO_CIDADE_min": "Capital Norte_Anhanguera" }, "geometry": { "type": "Point", "coordinates": [ -46.7762575, -23.4327567 ] } },
{ "type": "Feature", "properties": { "fid": 125825, "CNPJ": "51488977000130", "IDCIDADE": "SAO_PAULO", "NOMEFANTASIA": "ANA_MERCEARIA", "RAZAOSOCIAL": "ADR_DE_LACERDA_CANTINA", "ENDEE": "RUA_VIRGINIA_CASTIGLIONI372__JARDIM_SANTA_FE_05271-060", "LMAPS": "https://www.google.com/maps?q=&layer=c&cbll=-46.7927053,-23.4327616", "O_QUE_FAZER": "CARTEIRA", "ER_REGIAO_CIDADE_min": "Capital Norte_Anhanguera" }, "geometry": { "type": "Point", "coordinates": [ -46.7927053, -23.4327616 ] } },
{ "type": "Feature", "properties": { "fid": 125834, "CNPJ": "24449024000190", "IDCIDADE": "SAO_PAULO", "NOMEFANTASIA": "PET_GARDEN_TON_E_JULIA", "RAZAOSOCIAL": "PET_E_GARDEN_TOM_&_JULIA_LTDA", "ENDEE": "RUA_DIEGO_VELASQUEZ301__JARDIM_BRITANIA_05269-030", "LMAPS": "https://www.google.com/maps?q=&layer=c&cbll=-46.7894193,-23.4328687", "O_QUE_FAZER": "CARTEIRA", "ER_REGIAO_CIDADE_min": "Capital Norte_Anhanguera" }, "geometry": { "type": "Point", "coordinates": [ -46.7894193, -23.4328687 ] } },
{ "type": "Feature", "properties": { "fid": 125887, "CNPJ": "66888595000848", "IDCIDADE": "SAO_PAULO", "NOMEFANTASIA": "CEVIDAO_MERCADO", "RAZAOSOCIAL": "SUPERMERCADO_SERVIDAO_LTDA", "ENDEE": "AVENIDA_EUCLIDES_DA_CUNHA5__CONJUNTO_RESIDENCIAL_MORADA_DO_SOL_03016-030", "LMAPS": "https://www.google.com/maps?q=&layer=c&cbll=-46.7771021,-23.4332836", "O_QUE_FAZER": "CARTEIRA", "ER_REGIAO_CIDADE_min": "Capital Norte_Anhanguera" }, "geometry": { "type": "Point", "coordinates": [ -46.7771021, -23.4332836 ] } },
{ "type": "Feature", "properties": { "fid": 125890, "CNPJ": "17252382000143", "IDCIDADE": "SAO_PAULO", "NOMEFANTASIA": "DROGARIA_NOVA_SOL_NASCENTE", "RAZAOSOCIAL": "DROGARIA_NOVA_SOL_NASCENTE_LTDA", "ENDEE": "RUA_VISCONDE_DE_MAUA61__RESIDENCIAL_SOL_NASCENTE_05283-220", "LMAPS": "https://www.google.com/maps?q=&layer=c&cbll=-46.7769521,-23.4333129", "O_QUE_FAZER": "CARTEIRA", "ER_REGIAO_CIDADE_min": "Capital Norte_Anhanguera" }, "geometry": { "type": "Point", "coordinates": [ -46.7769521, -23.4333129 ] } },
{ "type": "Feature", "properties": { "fid": 125956, "CNPJ": "34407418000130", "IDCIDADE": "SAO_PAULO", "NOMEFANTASIA": "TRANSPORTE_TOMIO", "RAZAOSOCIAL": "ALEXANDRE_TOMIO_UMINO_LTDA", "ENDEE": "RODOVIA_ANHANGUERA4912__JARDIM_JARAGUA_05240-000", "LMAPS": "https://www.google.com/maps?q=&layer=c&cbll=-46.7857484,-23.4338417", "O_QUE_FAZER": "CARTEIRA", "ER_REGIAO_CIDADE_min": "Capital Norte_Anhanguera" }, "geometry": { "type": "Point", "coordinates": [ -46.7857484, -23.4338417 ] } },
{ "type": "Feature", "properties": { "fid": 125960, "CNPJ": "32688260000198", "IDCIDADE": "SAO_PAULO", "NOMEFANTASIA": "NEYTRANSPORTES", "RAZAOSOCIAL": "AUDILENE_MENDES_DE_ARAUJO_DA_SILVA", "ENDEE": "RUA_ANHANGUERA4912__JARDIM_JARAGUA_05269-160", "LMAPS": "https://www.google.com/maps?q=&layer=c&cbll=-46.78553,-23.433895", "O_QUE_FAZER": "CARTEIRA", "ER_REGIAO_CIDADE_min": "Capital Norte_Anhanguera" }, "geometry": { "type": "Point", "coordinates": [ -46.78553, -23.433895 ] } },
{ "type": "Feature", "properties": { "fid": 125962, "CNPJ": "10578811000128", "IDCIDADE": "SAO_PAULO", "NOMEFANTASIA": "VANDERLAN_PAES_SIQUEIRA", "RAZAOSOCIAL": "VANDERLAN_PAES_SIQUEIRA_-_ELETROELETRONICOS", "ENDEE": "ESTRADA_CORONEL_JOSE_GLADIADOR90__JARDIM_ANHANGUERA_05267-000", "LMAPS": "https://www.google.com/maps?q=&layer=c&cbll=-46.7926117,-23.4339217", "O_QUE_FAZER": "CARTEIRA", "ER_REGIAO_CIDADE_min": "Capital Norte_Anhanguera" }, "geometry": { "type": "Point", "coordinates": [ -46.7926117, -23.4339217 ] } },
{ "type": "Feature", "properties": { "fid": 126012, "CNPJ": "12812187000107", "IDCIDADE": "SAO_PAULO", "NOMEFANTASIA": "PADARIA_DA_FRAN", "RAZAOSOCIAL": "FRANCISCA_ANTONIA_LEITE_NASCIMENTO", "ENDEE": "RUA_SAO_RAFAEL96__RESIDENCIAL_SOL_NASCENTE_03113-020", "LMAPS": "https://www.google.com/maps?q=&layer=c&cbll=-46.7763437,-23.434345", "O_QUE_FAZER": "CARTEIRA", "ER_REGIAO_CIDADE_min": "Capital Norte_Anhanguera" }, "geometry": { "type": "Point", "coordinates": [ -46.7763437, -23.434345 ] } },
{ "type": "Feature", "properties": { "fid": 126014, "CNPJ": "06332587000112", "IDCIDADE": "SAO_PAULO", "NOMEFANTASIA": "AMARIS", "RAZAOSOCIAL": "ARMARINS_SOL_COMERCIO_EM_ARMARINHOS_E_PAPELARIA_LTDA", "ENDEE": "RUA_SAO_RAFAEL98__RESIDENCIAL_SOL_NASCENTE_03113-020", "LMAPS": "https://www.google.com/maps?q=&layer=c&cbll=-46.7763832,-23.4343458", "O_QUE_FAZER": "CARTEIRA", "ER_REGIAO_CIDADE_min": "Capital Norte_Anhanguera" }, "geometry": { "type": "Point", "coordinates": [ -46.7763832, -23.4343458 ] } },
{ "type": "Feature", "properties": { "fid": 126015, "CNPJ": "67700500000107", "IDCIDADE": "SAO_PAULO", "NOMEFANTASIA": "M_RAMOS", "RAZAOSOCIAL": "M.RAMOS_COMERCIAL_LTDA", "ENDEE": "ESTRADA_CORONEL_JOSE_GLADIADOR134__JARDIM_ANHANGUERA_05267-000", "LMAPS": "https://www.google.com/maps?q=&layer=c&cbll=-46.7925271,-23.4343531", "O_QUE_FAZER": "CARTEIRA", "ER_REGIAO_CIDADE_min": "Capital Norte_Anhanguera" }, "geometry": { "type": "Point", "coordinates": [ -46.7925271, -23.4343531 ] } },
{ "type": "Feature", "properties": { "fid": 126023, "CNPJ": "61527917000133", "IDCIDADE": "SAO_PAULO", "NOMEFANTASIA": "T._PAVAO_COMERCIO_ROUPAS", "RAZAOSOCIAL": "I._PAVAO_ISHIZAKI", "ENDEE": "RODOVIA_ANHANGUERA4912__VILA_JARAGUA_05163-000", "LMAPS": "https://www.google.com/maps?q=&layer=c&cbll=-46.7868283,-23.4343933", "O_QUE_FAZER": "CARTEIRA", "ER_REGIAO_CIDADE_min": "Capital Norte_Anhanguera" }, "geometry": { "type": "Point", "coordinates": [ -46.7868283, -23.4343933 ] } },
{ "type": "Feature", "properties": { "fid": 126027, "CNPJ": "16927434000171", "IDCIDADE": "SAO_PAULO", "NOMEFANTASIA": "TA_LIGADO", "RAZAOSOCIAL": "MRA_UTILIDADES_LTDA.", "ENDEE": "ESTRADA_CORONEL_JOSE_GLADIADOR167__JARDIM_ANHANGUERA_05267-000", "LMAPS": "https://www.google.com/maps?q=&layer=c&cbll=-46.7921835,-23.4344325", "O_QUE_FAZER": "CARTEIRA", "ER_REGIAO_CIDADE_min": "Capital Norte_Anhanguera" }, "geometry": { "type": "Point", "coordinates": [ -46.7921835, -23.4344325 ] } },
{ "type": "Feature", "properties": { "fid": 126038, "CNPJ": "19029097000193", "IDCIDADE": "SAO_PAULO", "NOMEFANTASIA": "LANCHES_CANAA", "RAZAOSOCIAL": "LANCHES_E_REFEICOES_CANAA_LTDA", "ENDEE": "RUA_IGAPORA173__CONJUNTO_RESIDENCIAL_JARDIM_CANAA_05268-240", "LMAPS": "https://www.google.com/maps?q=&layer=c&cbll=-46.7925604,-23.4344904", "O_QUE_FAZER": "CARTEIRA", "ER_REGIAO_CIDADE_min": "Capital Norte_Anhanguera" }, "geometry": { "type": "Point", "coordinates": [ -46.7925604, -23.4344904 ] } },
{ "type": "Feature", "properties": { "fid": 126064, "CNPJ": "29727935000156", "IDCIDADE": "SAO_PAULO", "NOMEFANTASIA": "CHIQUE_MODAS ", "RAZAOSOCIAL": "C_L_CHIQUE_MODAS_LTDA", "ENDEE": "ESTRADA_CORONEL_JOSE_GLADIADOR197__JARDIM_ANHANGUERA_05267-000", "LMAPS": "https://www.google.com/maps?q=&layer=c&cbll=-46.7921637,-23.4347535", "O_QUE_FAZER": "CARTEIRA", "ER_REGIAO_CIDADE_min": "Capital Norte_Anhanguera" }, "geometry": { "type": "Point", "coordinates": [ -46.7921637, -23.4347535 ] } },
{ "type": "Feature", "properties": { "fid": 126066, "CNPJ": "04479118000103", "IDCIDADE": "SAO_PAULO", "NOMEFANTASIA": "DRUFOR", "RAZAOSOCIAL": "DRUFOR_COMERCIO_DE_EMBALAGENS_LTDA", "ENDEE": "ESTRADA_CORONEL_JOSE_GLADIADOR194__JARDIM_ANHANGÜERA_05267-000", "LMAPS": "https://www.google.com/maps?q=&layer=c&cbll=-46.7921026,-23.4347667", "O_QUE_FAZER": "CARTEIRA", "ER_REGIAO_CIDADE_min": "Capital Norte_Anhanguera" }, "geometry": { "type": "Point", "coordinates": [ -46.7921026, -23.4347667 ] } },
{ "type": "Feature", "properties": { "fid": 126072, "CNPJ": "13667635000199", "IDCIDADE": "SAO_PAULO", "NOMEFANTASIA": "MARY_MOVEIS", "RAZAOSOCIAL": "MARIANA_CRISTINA_DOS_SANTOS_-_LOJA_DE_MOVEIS", "ENDEE": "ESTRADA_CORONEL_JOSE_GLADIADOR198__JARDIM_ANHANGUERA_05267-000", "LMAPS": "https://www.google.com/maps?q=&layer=c&cbll=-46.7922055,-23.4347932", "O_QUE_FAZER": "CARTEIRA", "ER_REGIAO_CIDADE_min": "Capital Norte_Anhanguera" }, "geometry": { "type": "Point", "coordinates": [ -46.7922055, -23.4347932 ] } },
{ "type": "Feature", "properties": { "fid": 126086, "CNPJ": "46147137000174", "IDCIDADE": "SAO_PAULO", "NOMEFANTASIA": "DALLAS_DESPACHANTE", "RAZAOSOCIAL": "DALLAS_DESPACHANTE_LTDA", "ENDEE": "ESTRADA_CORONEL_JOSE_GLADIADOR214__JARDIM_ANHANGUERA_05267-000", "LMAPS": "https://www.google.com/maps?q=&layer=c&cbll=-46.7919788,-23.4348802", "O_QUE_FAZER": "CARTEIRA", "ER_REGIAO_CIDADE_min": "Capital Norte_Anhanguera" }, "geometry": { "type": "Point", "coordinates": [ -46.7919788, -23.4348802 ] } },
{ "type": "Feature", "properties": { "fid": 126110, "CNPJ": "01696341000106", "IDCIDADE": "SAO_PAULO", "NOMEFANTASIA": "AUTO_ESCOLA_VAN_CANAA", "RAZAOSOCIAL": "AUTO_ESCOLA_VAN_CANAAN_LTDA", "ENDEE": "ESTRADA_CORONEL_JOSE_GLADIADOR234__JARDIM_ANHANGÜERA_05267-000", "LMAPS": "https://www.google.com/maps?q=&layer=c&cbll=-46.7919581,-23.4350964", "O_QUE_FAZER": "CARTEIRA", "ER_REGIAO_CIDADE_min": "Capital Norte_Anhanguera" }, "geometry": { "type": "Point", "coordinates": [ -46.7919581, -23.4350964 ] } },
{ "type": "Feature", "properties": { "fid": 126114, "CNPJ": "46900511000160", "IDCIDADE": "SAO_PAULO", "NOMEFANTASIA": "BOI_NOBRE", "RAZAOSOCIAL": "BOI_NOBRE_DO_MORRO_DOCE_COMERCIO_DE_CARNES_E_REFEICOES_LTDA", "ENDEE": "ESTRADA_CORONEL_JOSE_GLADIADOR247__JARDIM_ANHANGÜERA_05267-000", "LMAPS": "https://www.google.com/maps?q=&layer=c&cbll=-46.7919801,-23.4351108", "O_QUE_FAZER": "CARTEIRA", "ER_REGIAO_CIDADE_min": "Capital Norte_Anhanguera" }, "geometry": { "type": "Point", "coordinates": [ -46.7919801, -23.4351108 ] } },
{ "type": "Feature", "properties": { "fid": 126116, "CNPJ": "10303076000140", "IDCIDADE": "SAO_PAULO", "NOMEFANTASIA": "MARIA_GRACIETE_ALVES_DA_SILVA", "RAZAOSOCIAL": "MARIA_GRACIETE_ALVES_DA_SILVA", "ENDEE": "ESTRADA_CORONEL_JOSE_GLADIADOR245__JARDIM_ANHANGUERA_05267-000", "LMAPS": "https://www.google.com/maps?q=&layer=c&cbll=-46.7919738,-23.435126", "O_QUE_FAZER": "CARTEIRA", "ER_REGIAO_CIDADE_min": "Capital Norte_Anhanguera" }, "geometry": { "type": "Point", "coordinates": [ -46.7919738, -23.435126 ] } },
{ "type": "Feature", "properties": { "fid": 126129, "CNPJ": "33888810000185", "IDCIDADE": "SAO_PAULO", "NOMEFANTASIA": "PETCANAA", "RAZAOSOCIAL": "PET_CANAA_ANIMAIS_FANTASTICOS_LTDA", "ENDEE": "ESTRADA_CORONEL_JOSE_GLADIADOR254__JARDIM_ANHANGÜERA_05267-000", "LMAPS": "https://www.google.com/maps?q=&layer=c&cbll=-46.7919421,-23.4352493", "O_QUE_FAZER": "CARTEIRA", "ER_REGIAO_CIDADE_min": "Capital Norte_Anhanguera" }, "geometry": { "type": "Point", "coordinates": [ -46.7919421, -23.4352493 ] } },
{ "type": "Feature", "properties": { "fid": 126139, "CNPJ": "00639272000136", "IDCIDADE": "SAO_PAULO", "NOMEFANTASIA": "CANAA_DELICIAS_DO_TRIGO", "RAZAOSOCIAL": "CANAA_DELICIAS_DO_TRIGO_LTDA", "ENDEE": "ESTRADA_CORONEL_JOSE_GLADIADOR273__JARDIM_ANHANGUERA_05267-000", "LMAPS": "https://www.google.com/maps?q=&layer=c&cbll=-46.7918283,-23.435345", "O_QUE_FAZER": "CARTEIRA", "ER_REGIAO_CIDADE_min": "Capital Norte_Anhanguera" }, "geometry": { "type": "Point", "coordinates": [ -46.7918283, -23.435345 ] } },
{ "type": "Feature", "properties": { "fid": 126143, "CNPJ": "56185799000192", "IDCIDADE": "SAO_PAULO", "NOMEFANTASIA": "GF_EMPORIO_DO_NORTE", "RAZAOSOCIAL": "GF_EMPORIO_DO_NORTE_LTDA", "ENDEE": "RUA_DELSUC_ALVES_DE_MAGALHAES538__JARDIM_BRITANIA_05268-010", "LMAPS": "https://www.google.com/maps?q=&layer=c&cbll=-46.7914155,-23.4353841", "O_QUE_FAZER": "CARTEIRA", "ER_REGIAO_CIDADE_min": "Capital Norte_Anhanguera" }, "geometry": { "type": "Point", "coordinates": [ -46.7914155, -23.4353841 ] } },
{ "type": "Feature", "properties": { "fid": 126146, "CNPJ": "27285414000160", "IDCIDADE": "SAO_PAULO", "NOMEFANTASIA": "MARIVAS_FARMA", "RAZAOSOCIAL": "MARIVALDO_PEREIRA_DOS_SANTOS_FARMACIA", "ENDEE": "RUA_DELSUC_ALVES_DE_MAGALHAES552__JARDIM_BRITANIA_05268-010", "LMAPS": "https://www.google.com/maps?q=&layer=c&cbll=-46.791556,-23.4353974", "O_QUE_FAZER": "CARTEIRA", "ER_REGIAO_CIDADE_min": "Capital Norte_Anhanguera" }, "geometry": { "type": "Point", "coordinates": [ -46.791556, -23.4353974 ] } },
{ "type": "Feature", "properties": { "fid": 126153, "CNPJ": "32279252000198", "IDCIDADE": "SAO_PAULO", "NOMEFANTASIA": "SCARIO_PECAS_AUTOMOTIVAS", "RAZAOSOCIAL": "SCARIO_PECAS_AUTOMOTIVAS_LTDA", "ENDEE": "RUA_DELSUC_ALVES_DE_MAGALHAES502__JARDIM_BRITANIA_05268-010", "LMAPS": "https://www.google.com/maps?q=&layer=c&cbll=-46.7910905,-23.4354651", "O_QUE_FAZER": "CARTEIRA", "ER_REGIAO_CIDADE_min": "Capital Norte_Anhanguera" }, "geometry": { "type": "Point", "coordinates": [ -46.7910905, -23.4354651 ] } },
{ "type": "Feature", "properties": { "fid": 126156, "CNPJ": "57450439000214", "IDCIDADE": "SAO_PAULO", "NOMEFANTASIA": "OSVALDO_CORREIA", "RAZAOSOCIAL": "OSWALDO_CORREA_ERCOLE_&_CIA_LTDA", "ENDEE": "ESTRADA_DE_LIGACAO2100__JARDIM_BRITANIA_05112-000", "LMAPS": "https://www.google.com/maps?q=&layer=c&cbll=-46.7855498,-23.4354751", "O_QUE_FAZER": "CARTEIRA", "ER_REGIAO_CIDADE_min": "Capital Norte_Anhanguera" }, "geometry": { "type": "Point", "coordinates": [ -46.7855498, -23.4354751 ] } },
{ "type": "Feature", "properties": { "fid": 126157, "CNPJ": "28177439000103", "IDCIDADE": "SAO_PAULO", "NOMEFANTASIA": "B&T_COMERCIO_E_SERVICOS", "RAZAOSOCIAL": "B&T_COMERCIO_E_SERVICOS_LTDA", "ENDEE": "RUA_DELSUC_ALVES_DE_MAGALHAES484__JARDIM_BRITANIA_05268-010", "LMAPS": "https://www.google.com/maps?q=&layer=c&cbll=-46.7908022,-23.4354808", "O_QUE_FAZER": "CARTEIRA", "ER_REGIAO_CIDADE_min": "Capital Norte_Anhanguera" }, "geometry": { "type": "Point", "coordinates": [ -46.7908022, -23.4354808 ] } },
{ "type": "Feature", "properties": { "fid": 126158, "CNPJ": "48204649000150", "IDCIDADE": "SAO_PAULO", "NOMEFANTASIA": "TENDENCIA_CALCADOS", "RAZAOSOCIAL": "CANAA_TENDENCIAS_CALCADOS_LTDA", "ENDEE": "ESTRADA_CORONEL_JOSE_GLADIADOR276__JARDIM_ANHANGÜERA_05267-000", "LMAPS": "https://www.google.com/maps?q=&layer=c&cbll=-46.7920974,-23.4354814", "O_QUE_FAZER": "CARTEIRA", "ER_REGIAO_CIDADE_min": "Capital Norte_Anhanguera" }, "geometry": { "type": "Point", "coordinates": [ -46.7920974, -23.4354814 ] } },
{ "type": "Feature", "properties": { "fid": 126161, "CNPJ": "25893039000106", "IDCIDADE": "SAO_PAULO", "NOMEFANTASIA": "ADEGA_30", "RAZAOSOCIAL": "MF_ADEGA_SAO_PAULO_LTDA", "ENDEE": "RUA_SAO_PAULO30__RESIDENCIAL_SOL_NASCENTE_04236-080", "LMAPS": "https://www.google.com/maps?q=&layer=c&cbll=-46.7730583,-23.4354983", "O_QUE_FAZER": "CARTEIRA", "ER_REGIAO_CIDADE_min": "Capital Norte_Anhanguera" }, "geometry": { "type": "Point", "coordinates": [ -46.7730583, -23.4354983 ] } },
{ "type": "Feature", "properties": { "fid": 126165, "CNPJ": "35789170000262", "IDCIDADE": "SAO_PAULO", "NOMEFANTASIA": "MANEKIM_MODAS", "RAZAOSOCIAL": "MANEKIM_MODAS_COMERCIO_DE_ROUPAS_E_ACESSORIOS_LTDA", "ENDEE": "RUA_DELSUC_ALVES_DE_MAGALHAES468__JARDIM_BRITANIA_05268-010", "LMAPS": "https://www.google.com/maps?q=&layer=c&cbll=-46.7905534,-23.4355208", "O_QUE_FAZER": "CARTEIRA", "ER_REGIAO_CIDADE_min": "Capital Norte_Anhanguera" }, "geometry": { "type": "Point", "coordinates": [ -46.7905534, -23.4355208 ] } },
{ "type": "Feature", "properties": { "fid": 126175, "CNPJ": "57329184000155", "IDCIDADE": "SAO_PAULO", "NOMEFANTASIA": "NASCENTE_SUPERMERCADO", "RAZAOSOCIAL": "JOSE_AMERICO_CAMPOS_CERQUEIRA_SUPERMERCADO_LTDA", "ENDEE": "RUA_SAO_PAULO35__RESIDENCIAL_SOL_NASCENTE_04236-080", "LMAPS": "https://www.google.com/maps?q=&layer=c&cbll=-46.7731671,-23.4355833", "O_QUE_FAZER": "CARTEIRA", "ER_REGIAO_CIDADE_min": "Capital Norte_Anhanguera" }, "geometry": { "type": "Point", "coordinates": [ -46.7731671, -23.4355833 ] } },
{ "type": "Feature", "properties": { "fid": 126188, "CNPJ": "08866475000177", "IDCIDADE": "SAO_PAULO", "NOMEFANTASIA": "DEPOSITO_DOIS_IRMAOS", "RAZAOSOCIAL": "L.J._COMERCIO_DE_MATERIAL_PARA_CONSTRUCAO_LTDA", "ENDEE": "RUA_ALBERTO_CALLIX960__JARDIM_ANHANGÜERA_05267-030", "LMAPS": "https://www.google.com/maps?q=&layer=c&cbll=-46.7916405,-23.435683", "O_QUE_FAZER": "CARTEIRA", "ER_REGIAO_CIDADE_min": "Capital Norte_Anhanguera" }, "geometry": { "type": "Point", "coordinates": [ -46.7916405, -23.435683 ] } },
{ "type": "Feature", "properties": { "fid": 126191, "CNPJ": "56019868000198", "IDCIDADE": "SAO_PAULO", "NOMEFANTASIA": "DEPOSITO_CANAA", "RAZAOSOCIAL": "E._A._COMERCIO_DE_MATERIAL_PARA_CONTRUCAO_LTDA", "ENDEE": "RUA_DEPUTADO_CYRO_ALBUQUERQUE90__JARDIM_SANTA_FE_05271-270", "LMAPS": "https://www.google.com/maps?q=&layer=c&cbll=-46.7916263,-23.4356873", "O_QUE_FAZER": "CARTEIRA", "ER_REGIAO_CIDADE_min": "Capital Norte_Anhanguera" }, "geometry": { "type": "Point", "coordinates": [ -46.7916263, -23.4356873 ] } },
{ "type": "Feature", "properties": { "fid": 126217, "CNPJ": "07601417000159", "IDCIDADE": "SAO_PAULO", "NOMEFANTASIA": "GERA_ACESSORIOS", "RAZAOSOCIAL": "J._P._AMADIO", "ENDEE": "RODOVIA_ANHANGUERA24__VILA_SULINA_05276-000", "LMAPS": "https://www.google.com/maps?q=&layer=c&cbll=-46.78534,-23.4359133", "O_QUE_FAZER": "CARTEIRA", "ER_REGIAO_CIDADE_min": "Capital Norte_Anhanguera" }, "geometry": { "type": "Point", "coordinates": [ -46.78534, -23.4359133 ] } },
{ "type": "Feature", "properties": { "fid": 126218, "CNPJ": "20488773000176", "IDCIDADE": "SAO_PAULO", "NOMEFANTASIA": "OTICA_TOP", "RAZAOSOCIAL": "RR_COMERCIO_VAREJISTA_DE_OCULOS_LTDA", "ENDEE": "ESTRADA_CORONEL_JOSE_GLADIADOR336__JARDIM_ANHANGÜERA_05267-000", "LMAPS": "https://www.google.com/maps?q=&layer=c&cbll=-46.7920568,-23.4359136", "O_QUE_FAZER": "CARTEIRA", "ER_REGIAO_CIDADE_min": "Capital Norte_Anhanguera" }, "geometry": { "type": "Point", "coordinates": [ -46.7920568, -23.4359136 ] } },
{ "type": "Feature", "properties": { "fid": 126239, "CNPJ": "52065185000116", "IDCIDADE": "SAO_PAULO", "NOMEFANTASIA": "LEVE_MAIS", "RAZAOSOCIAL": "MERCADO_LEVE_MAIS_-_COMERCIO_DE_PRODUTOS_ALIMENTICIOS_LTDA", "ENDEE": "RUA_SAO_PAULO19__RESIDENCIAL_SOL_NASCENTE_04236-080", "LMAPS": "https://www.google.com/maps?q=&layer=c&cbll=-46.7734071,-23.4360488", "O_QUE_FAZER": "CARTEIRA", "ER_REGIAO_CIDADE_min": "Capital Norte_Anhanguera" }, "geometry": { "type": "Point", "coordinates": [ -46.7734071, -23.4360488 ] } },
{ "type": "Feature", "properties": { "fid": 126244, "CNPJ": "72957145000196", "IDCIDADE": "SAO_PAULO", "NOMEFANTASIA": "HEITOR_PECAS", "RAZAOSOCIAL": "HEITOR_MARTINS_PECAS", "ENDEE": "ESTRADA_CORONEL_JOSE_GLADIADOR344__JARDIM_ANHANGÜERA_05267-000", "LMAPS": "https://www.google.com/maps?q=&layer=c&cbll=-46.792045,-23.4360683", "O_QUE_FAZER": "CARTEIRA", "ER_REGIAO_CIDADE_min": "Capital Norte_Anhanguera" }, "geometry": { "type": "Point", "coordinates": [ -46.792045, -23.4360683 ] } },
{ "type": "Feature", "properties": { "fid": 126251, "CNPJ": "34683158000125", "IDCIDADE": "SAO_PAULO", "NOMEFANTASIA": "DROGARIA_MANTOVANI", "RAZAOSOCIAL": "DROGARIA_IRMAOS_MANTOVANI_LTDA", "ENDEE": "ESTRADA_DE_LIGACAO26__RESIDENCIAL_SOL_NASCENTE_05280-000", "LMAPS": "https://www.google.com/maps?q=&layer=c&cbll=-46.7749534,-23.4360865", "O_QUE_FAZER": "CARTEIRA", "ER_REGIAO_CIDADE_min": "Capital Norte_Anhanguera" }, "geometry": { "type": "Point", "coordinates": [ -46.7749534, -23.4360865 ] } },
{ "type": "Feature", "properties": { "fid": 126275, "CNPJ": "18343701000199", "IDCIDADE": "SAO_PAULO", "NOMEFANTASIA": "CONVENIENCIA", "RAZAOSOCIAL": "SUPER_CONVENIENCIA_KM24_LTDA", "ENDEE": "RODOVIA_ANHANGUERA24__VILA_SULINA_05276-000", "LMAPS": "https://www.google.com/maps?q=&layer=c&cbll=-46.7856274,-23.4362556", "O_QUE_FAZER": "CARTEIRA", "ER_REGIAO_CIDADE_min": "Capital Norte_Anhanguera" }, "geometry": { "type": "Point", "coordinates": [ -46.7856274, -23.4362556 ] } },
{ "type": "Feature", "properties": { "fid": 126292, "CNPJ": "08049966000125", "IDCIDADE": "SAO_PAULO", "NOMEFANTASIA": "MERCEARIA_AIKIBOM", "RAZAOSOCIAL": "MERCEARIA_AIKIBOM_LTDA", "ENDEE": "RUA_JANAUBA292__RESIDENCIAL_SOL_NASCENTE_05280-130", "LMAPS": "https://www.google.com/maps?q=&layer=c&cbll=-46.7735922,-23.4364223", "O_QUE_FAZER": "CARTEIRA", "ER_REGIAO_CIDADE_min": "Capital Norte_Anhanguera" }, "geometry": { "type": "Point", "coordinates": [ -46.7735922, -23.4364223 ] } },
{ "type": "Feature", "properties": { "fid": 126296, "CNPJ": "58086763000187", "IDCIDADE": "SAO_PAULO", "NOMEFANTASIA": "KMTY_DROGARIAS", "RAZAOSOCIAL": "KMTY_DROGARIAS_LTDA", "ENDEE": "RUA_SAO_PAULO1__RESIDENCIAL_SOL_NASCENTE_05280-110", "LMAPS": "https://www.google.com/maps?q=&layer=c&cbll=-46.7736756,-23.4364446", "O_QUE_FAZER": "CARTEIRA", "ER_REGIAO_CIDADE_min": "Capital Norte_Anhanguera" }, "geometry": { "type": "Point", "coordinates": [ -46.7736756, -23.4364446 ] } },
{ "type": "Feature", "properties": { "fid": 126313, "CNPJ": "37884353000101", "IDCIDADE": "SAO_PAULO", "NOMEFANTASIA": "ESMERALDA_DOCES", "RAZAOSOCIAL": "ESMERINDA_DOCES_LTDA", "ENDEE": "RUA_MARIO_PALMERIO0__JARDIM_ANHANGUERA_05267-040", "LMAPS": "https://www.google.com/maps?q=&layer=c&cbll=-46.7916022,-23.4366435", "O_QUE_FAZER": "CARTEIRA", "ER_REGIAO_CIDADE_min": "Capital Norte_Anhanguera" }, "geometry": { "type": "Point", "coordinates": [ -46.7916022, -23.4366435 ] } },
{ "type": "Feature", "properties": { "fid": 126322, "CNPJ": "12710050000141", "IDCIDADE": "SAO_PAULO", "NOMEFANTASIA": "O_REI_DAS_PANELAS", "RAZAOSOCIAL": "O_REI_DAS_PANELAS_FOGOES_E_UTENSILIOS_DOMESTICOS_LTDA", "ENDEE": "ESTRADA_CORONEL_JOSE_GLADIADOR435__JARDIM_ANHANGÜERA_05267-000", "LMAPS": "https://www.google.com/maps?q=&layer=c&cbll=-46.7924157,-23.4367189", "O_QUE_FAZER": "CARTEIRA", "ER_REGIAO_CIDADE_min": "Capital Norte_Anhanguera" }, "geometry": { "type": "Point", "coordinates": [ -46.7924157, -23.4367189 ] } },
{ "type": "Feature", "properties": { "fid": 126328, "CNPJ": "17929986000181", "IDCIDADE": "SAO_PAULO", "NOMEFANTASIA": "LAJES_BOM_FIM", "RAZAOSOCIAL": "M.BOMFIM_CONSTRUCOES", "ENDEE": "RUA_ANABA2__JARDIM_ROSINHA_05274-070", "LMAPS": "https://www.google.com/maps?q=&layer=c&cbll=-46.8027467,-23.43675", "O_QUE_FAZER": "CARTEIRA", "ER_REGIAO_CIDADE_min": "Capital Norte_Anhanguera" }, "geometry": { "type": "Point", "coordinates": [ -46.8027467, -23.43675 ] } },
{ "type": "Feature", "properties": { "fid": 126357, "CNPJ": "36421536000128", "IDCIDADE": "SAO_PAULO", "NOMEFANTASIA": "FARMA_BELA", "RAZAOSOCIAL": "PAULA_M_RUIZ_DROGARIA", "ENDEE": "ESTRADA_CORONEL_JOSE_GLADIADOR476__JARDIM_ANHANGÜERA_05267-000", "LMAPS": "https://www.google.com/maps?q=&layer=c&cbll=-46.7927848,-23.4369501", "O_QUE_FAZER": "CARTEIRA", "ER_REGIAO_CIDADE_min": "Capital Norte_Anhanguera" }, "geometry": { "type": "Point", "coordinates": [ -46.7927848, -23.4369501 ] } },
{ "type": "Feature", "properties": { "fid": 126392, "CNPJ": "19915871000163", "IDCIDADE": "SAO_PAULO", "NOMEFANTASIA": "MINI_MERCADO_PAES_E_FILHO", "RAZAOSOCIAL": "VONARIA_FEITOSA_DE_OLIVEIRA", "ENDEE": "RUA_ANABA31__JARDIM_ROSINHA_05274-070", "LMAPS": "https://www.google.com/maps?q=&layer=c&cbll=-46.8023612,-23.4373084", "O_QUE_FAZER": "CARTEIRA", "ER_REGIAO_CIDADE_min": "Capital Norte_Anhanguera" }, "geometry": { "type": "Point", "coordinates": [ -46.8023612, -23.4373084 ] } },
{ "type": "Feature", "properties": { "fid": 126394, "CNPJ": "17819672000126", "IDCIDADE": "SAO_PAULO", "NOMEFANTASIA": "E_A_BARROS_PET_SHOP", "RAZAOSOCIAL": "E_A_BARROS_PET_SHOP", "ENDEE": "ESTRADA_CORONEL_JOSE_GLADIADOR514__JARDIM_ANHANGÜERA_05267-000", "LMAPS": "https://www.google.com/maps?q=&layer=c&cbll=-46.7928839,-23.4373271", "O_QUE_FAZER": "CARTEIRA", "ER_REGIAO_CIDADE_min": "Capital Norte_Anhanguera" }, "geometry": { "type": "Point", "coordinates": [ -46.7928839, -23.4373271 ] } },
{ "type": "Feature", "properties": { "fid": 126396, "CNPJ": "17435638000158", "IDCIDADE": "SAO_PAULO", "NOMEFANTASIA": "PEDRO_JORGE", "RAZAOSOCIAL": "GRUPO_GOLDEN_LTDA", "ENDEE": "RUA_FLORENCIO_CARPI38__JARDIM_ANHANGUERA_04344-095", "LMAPS": "https://www.google.com/maps?q=&layer=c&cbll=-46.7921892,-23.4373483", "O_QUE_FAZER": "CARTEIRA", "ER_REGIAO_CIDADE_min": "Capital Norte_Anhanguera" }, "geometry": { "type": "Point", "coordinates": [ -46.7921892, -23.4373483 ] } },
{ "type": "Feature", "properties": { "fid": 126411, "CNPJ": "22381310000136", "IDCIDADE": "SAO_PAULO", "NOMEFANTASIA": "BOI_GORDINHO", "RAZAOSOCIAL": "CASA_DE_CARNES_BOI_GORDINHO_LTDA", "ENDEE": "RUA_ANABA45__JARDIM_ROSINHA_05274-070", "LMAPS": "https://www.google.com/maps?q=&layer=c&cbll=-46.8021611,-23.4375094", "O_QUE_FAZER": "CARTEIRA", "ER_REGIAO_CIDADE_min": "Capital Norte_Anhanguera" }, "geometry": { "type": "Point", "coordinates": [ -46.8021611, -23.4375094 ] } },
{ "type": "Feature", "properties": { "fid": 126425, "CNPJ": "38260522000103", "IDCIDADE": "SAO_PAULO", "NOMEFANTASIA": "LAJES_GENESIS_MATERIAL_CONTRUCAO", "RAZAOSOCIAL": "LAJES_GENESIS_-_MATERIAIS_PARA_CONSTRUCAO_EM_GERAL_LTDA", "ENDEE": "ESTRADA_DE_LIGACAO74__RESIDENCIAL_SOL_NASCENTE_05280-000", "LMAPS": "https://www.google.com/maps?q=&layer=c&cbll=-46.7718233,-23.4376083", "O_QUE_FAZER": "CARTEIRA", "ER_REGIAO_CIDADE_min": "Capital Norte_Anhanguera" }, "geometry": { "type": "Point", "coordinates": [ -46.7718233, -23.4376083 ] } },
{ "type": "Feature", "properties": { "fid": 126432, "CNPJ": "16535371000108", "IDCIDADE": "SAO_PAULO", "NOMEFANTASIA": "IRMAO_GOMES", "RAZAOSOCIAL": "ANTONIO_I_GOMES_IRMAO", "ENDEE": "RUA_ANABA51__JARDIM_ROSINHA_05274-070", "LMAPS": "https://www.google.com/maps?q=&layer=c&cbll=-46.8020273,-23.4376558", "O_QUE_FAZER": "CARTEIRA", "ER_REGIAO_CIDADE_min": "Capital Norte_Anhanguera" }, "geometry": { "type": "Point", "coordinates": [ -46.8020273, -23.4376558 ] } },
{ "type": "Feature", "properties": { "fid": 126443, "CNPJ": "11193021000197", "IDCIDADE": "SAO_PAULO", "NOMEFANTASIA": "EVER_-_AREIA_E_PEDRA", "RAZAOSOCIAL": "JOSE_EVERALDO_JORGE_DE_OLIVEIRA", "ENDEE": "ESTRADA_CORONEL_JOSE_GLADIADOR1310__JARDIM_ANHANGÜERA_05267-000", "LMAPS": "https://www.google.com/maps?q=&layer=c&cbll=-46.7934551,-23.4377634", "O_QUE_FAZER": "CARTEIRA", "ER_REGIAO_CIDADE_min": "Capital Norte_Anhanguera" }, "geometry": { "type": "Point", "coordinates": [ -46.7934551, -23.4377634 ] } },
{ "type": "Feature", "properties": { "fid": 126446, "CNPJ": "49545464000172", "IDCIDADE": "SAO_PAULO", "NOMEFANTASIA": "EVER_AREIA_E_PEDRA", "RAZAOSOCIAL": "E&F_MATERIAIS_PARA_CONSTRUCAO_LTDA", "ENDEE": "ESTRADA_CORONEL_JOSE_GLADIADOR574__JARDIM_ANHANGÜERA_05267-000", "LMAPS": "https://www.google.com/maps?q=&layer=c&cbll=-46.7934398,-23.4377909", "O_QUE_FAZER": "CARTEIRA", "ER_REGIAO_CIDADE_min": "Capital Norte_Anhanguera" }, "geometry": { "type": "Point", "coordinates": [ -46.7934398, -23.4377909 ] } },
{ "type": "Feature", "properties": { "fid": 126454, "CNPJ": "36489900000191", "IDCIDADE": "SAO_PAULO", "NOMEFANTASIA": "INNOVARE", "RAZAOSOCIAL": "INNOVARE_COMERCIO_DE_MARMORES_E_GRANITOS_LTDA", "ENDEE": "ESTRADA_DE_LIGACAO72__RESIDENCIAL_SOL_NASCENTE_05280-000", "LMAPS": "https://www.google.com/maps?q=&layer=c&cbll=-46.7717983,-23.43785", "O_QUE_FAZER": "CARTEIRA", "ER_REGIAO_CIDADE_min": "Capital Norte_Anhanguera" }, "geometry": { "type": "Point", "coordinates": [ -46.7717983, -23.43785 ] } },
{ "type": "Feature", "properties": { "fid": 126455, "CNPJ": "42372329000123", "IDCIDADE": "SAO_PAULO", "NOMEFANTASIA": "MERCADAO_DE_CARNES_GLADIADOR_LTDA", "RAZAOSOCIAL": "MERCADAO_DE_CARNES_GLADIADOR_LTDA", "ENDEE": "ESTRADA_CORONEL_JOSE_GLADIADOR605__JARDIM_ANHANGÜERA_05267-000", "LMAPS": "https://www.google.com/maps?q=&layer=c&cbll=-46.7931965,-23.4378647", "O_QUE_FAZER": "CARTEIRA", "ER_REGIAO_CIDADE_min": "Capital Norte_Anhanguera" }, "geometry": { "type": "Point", "coordinates": [ -46.7931965, -23.4378647 ] } },
{ "type": "Feature", "properties": { "fid": 126456, "CNPJ": "47551578000108", "IDCIDADE": "SAO_PAULO", "NOMEFANTASIA": "NEY_BLOCOS", "RAZAOSOCIAL": "CASA_SAO_JOSE_COMERCIO_DE_BLOCOS_E_ARTEFATOS_DE_CIMENTO_LTDA", "ENDEE": "ESTRADA_CORONEL_JOSE_GLADIADOR600__JARDIM_ANHANGÜERA_05267-000", "LMAPS": "https://www.google.com/maps?q=&layer=c&cbll=-46.7934061,-23.4378663", "O_QUE_FAZER": "CARTEIRA", "ER_REGIAO_CIDADE_min": "Capital Norte_Anhanguera" }, "geometry": { "type": "Point", "coordinates": [ -46.7934061, -23.4378663 ] } },
{ "type": "Feature", "properties": { "fid": 126457, "CNPJ": "32612238000164", "IDCIDADE": "SAO_PAULO", "NOMEFANTASIA": "RJE_MARMORARIA", "RAZAOSOCIAL": "RJE_MARMORARIA_LTDA", "ENDEE": "ESTRADA_DE_LIGACAO64__RESIDENCIAL_SOL_NASCENTE_05280-000", "LMAPS": "https://www.google.com/maps?q=&layer=c&cbll=-46.7720431,-23.4378735", "O_QUE_FAZER": "CARTEIRA", "ER_REGIAO_CIDADE_min": "Capital Norte_Anhanguera" }, "geometry": { "type": "Point", "coordinates": [ -46.7720431, -23.4378735 ] } },
{ "type": "Feature", "properties": { "fid": 126470, "CNPJ": "48430500000190", "IDCIDADE": "SAO_PAULO", "NOMEFANTASIA": "SAUDE_ROSINHA", "RAZAOSOCIAL": "DROGARIA_SAUDE_ROSINHA_LTDA", "ENDEE": "RUA_COMUNIDADE18__JARDIM_ROSINHA_08041-173", "LMAPS": "https://www.google.com/maps?q=&layer=c&cbll=-46.8014635,-23.4379883", "O_QUE_FAZER": "CARTEIRA", "ER_REGIAO_CIDADE_min": "Capital Norte_Anhanguera" }, "geometry": { "type": "Point", "coordinates": [ -46.8014635, -23.4379883 ] } },
{ "type": "Feature", "properties": { "fid": 126472, "CNPJ": "39412790000158", "IDCIDADE": "SAO_PAULO", "NOMEFANTASIA": "SOL_BEACH", "RAZAOSOCIAL": "SOL_BEACH_ESPORTES_E_EVENTOS_LTDA", "ENDEE": "RUA_PRAIA_DOS_ESTALEIROS54__JARAGUA_05180-000", "LMAPS": "https://www.google.com/maps?q=&layer=c&cbll=-46.7713836,-23.4380037", "O_QUE_FAZER": "CARTEIRA", "ER_REGIAO_CIDADE_min": "Capital Norte_Anhanguera" }, "geometry": { "type": "Point", "coordinates": [ -46.7713836, -23.4380037 ] } },
{ "type": "Feature", "properties": { "fid": 126480, "CNPJ": "09464692000101", "IDCIDADE": "SAO_PAULO", "NOMEFANTASIA": "T.S._DOS_SANTOS_LOCADORA", "RAZAOSOCIAL": "T.S._DOS_SANTOS_LOCADORA", "ENDEE": "RUA_COMUNIDADE61__JARDIM_ROSINHA_08041-173", "LMAPS": "https://www.google.com/maps?q=&layer=c&cbll=-46.8012244,-23.4381606", "O_QUE_FAZER": "CARTEIRA", "ER_REGIAO_CIDADE_min": "Capital Norte_Anhanguera" }, "geometry": { "type": "Point", "coordinates": [ -46.8012244, -23.4381606 ] } },
{ "type": "Feature", "properties": { "fid": 126502, "CNPJ": "05535914000170", "IDCIDADE": "SAO_PAULO", "NOMEFANTASIA": "DROGARIA_ROSINHA", "RAZAOSOCIAL": "ADILSON_TEIXEIRA_DE_MELO", "ENDEE": "RUA_DO_ESPANHOL2__JARDIM_ROSINHA_05274-030", "LMAPS": "https://www.google.com/maps?q=&layer=c&cbll=-46.8018144,-23.438356", "O_QUE_FAZER": "CARTEIRA", "ER_REGIAO_CIDADE_min": "Capital Norte_Anhanguera" }, "geometry": { "type": "Point", "coordinates": [ -46.8018144, -23.438356 ] } },
{ "type": "Feature", "properties": { "fid": 126506, "CNPJ": "25032701000133", "IDCIDADE": "SAO_PAULO", "NOMEFANTASIA": "CASA_DO_NORTE_FREITAS", "RAZAOSOCIAL": "G._F._DOS_SANTOS_CASA_DO_NORTE", "ENDEE": "RUA_DO_ESPANHOL3__JARDIM_ROSINHA_05274-030", "LMAPS": "https://www.google.com/maps?q=&layer=c&cbll=-46.8016901,-23.438432", "O_QUE_FAZER": "CARTEIRA", "ER_REGIAO_CIDADE_min": "Capital Norte_Anhanguera" }, "geometry": { "type": "Point", "coordinates": [ -46.8016901, -23.438432 ] } },
{ "type": "Feature", "properties": { "fid": 126519, "CNPJ": "57914670000130", "IDCIDADE": "SAO_PAULO", "NOMEFANTASIA": "ADEGA_WM", "RAZAOSOCIAL": "MAWM_ADMINISTRACAO_LTDA", "ENDEE": "RUA_MARIO_PALMERIO46__JARDIM_ANHANGÜERA_05267-040", "LMAPS": "https://www.google.com/maps?q=&layer=c&cbll=-46.7899017,-23.4385702", "O_QUE_FAZER": "CARTEIRA", "ER_REGIAO_CIDADE_min": "Capital Norte_Anhanguera" }, "geometry": { "type": "Point", "coordinates": [ -46.7899017, -23.4385702 ] } },
{ "type": "Feature", "properties": { "fid": 126531, "CNPJ": "42342363000155", "IDCIDADE": "SAO_PAULO", "NOMEFANTASIA": "GUIGUIMODAS", "RAZAOSOCIAL": "W_F_DE_SOUZA_MODAS", "ENDEE": "RUA_DO_ESPANHOL15__JARDIM_ROSINHA_05274-030", "LMAPS": "https://www.google.com/maps?q=&layer=c&cbll=-46.8020358,-23.438689", "O_QUE_FAZER": "CARTEIRA", "ER_REGIAO_CIDADE_min": "Capital Norte_Anhanguera" }, "geometry": { "type": "Point", "coordinates": [ -46.8020358, -23.438689 ] } },
{ "type": "Feature", "properties": { "fid": 126534, "CNPJ": "04156727000113", "IDCIDADE": "SAO_PAULO", "NOMEFANTASIA": "SQUINA", "RAZAOSOCIAL": "DSMAC_BRASIL_LTDA", "ENDEE": "RUA_DOM_AGNELO_ROSSI19__JARDIM_ANHANGUERA_05267-060", "LMAPS": "https://www.google.com/maps?q=&layer=c&cbll=-46.7937911,-23.4387331", "O_QUE_FAZER": "CARTEIRA", "ER_REGIAO_CIDADE_min": "Capital Norte_Anhanguera" }, "geometry": { "type": "Point", "coordinates": [ -46.7937911, -23.4387331 ] } },
{ "type": "Feature", "properties": { "fid": 126542, "CNPJ": "04232370000105", "IDCIDADE": "SAO_PAULO", "NOMEFANTASIA": "COMERCIAL_MANTOANI", "RAZAOSOCIAL": "COMERCIAL_MANTOANI_LTDA", "ENDEE": "RUA_DOM_AGNELO_ROSSI32__JARDIM_ANHANGÜERA_05267-060", "LMAPS": "https://www.google.com/maps?q=&layer=c&cbll=-46.7935695,-23.4387722", "O_QUE_FAZER": "CARTEIRA", "ER_REGIAO_CIDADE_min": "Capital Norte_Anhanguera" }, "geometry": { "type": "Point", "coordinates": [ -46.7935695, -23.4387722 ] } },
{ "type": "Feature", "properties": { "fid": 126543, "CNPJ": "10429585000113", "IDCIDADE": "SAO_PAULO", "NOMEFANTASIA": "PET_CHICAO", "RAZAOSOCIAL": "F_DE_SOUZA_MONTEIRO_PET_SHOP", "ENDEE": "AVENIDA_FELIPPO_STURBA97__JARDIM_ANHANGÜERA_05267-200", "LMAPS": "https://www.google.com/maps?q=&layer=c&cbll=-46.7896506,-23.4387866", "O_QUE_FAZER": "CARTEIRA", "ER_REGIAO_CIDADE_min": "Capital Norte_Anhanguera" }, "geometry": { "type": "Point", "coordinates": [ -46.7896506, -23.4387866 ] } },
{ "type": "Feature", "properties": { "fid": 126544, "CNPJ": "49750579000107", "IDCIDADE": "SAO_PAULO", "NOMEFANTASIA": "BF_FITNIX", "RAZAOSOCIAL": "M6_FITCENTER_LTDA", "ENDEE": "AVENIDA_FELIPPO_STURBA97__JARDIM_ANHANGÜERA_05267-200", "LMAPS": "https://www.google.com/maps?q=&layer=c&cbll=-46.7897485,-23.4387929", "O_QUE_FAZER": "CARTEIRA", "ER_REGIAO_CIDADE_min": "Capital Norte_Anhanguera" }, "geometry": { "type": "Point", "coordinates": [ -46.7897485, -23.4387929 ] } },
{ "type": "Feature", "properties": { "fid": 126549, "CNPJ": "66888595000929", "IDCIDADE": "SAO_PAULO", "NOMEFANTASIA": "IRMAOS_SUNIDOS", "RAZAOSOCIAL": "SUPERMERCADO_SERVIDAO_LTDA", "ENDEE": "RUA_ANABA85__JARDIM_ROSINHA_05274-070", "LMAPS": "https://www.google.com/maps?q=&layer=c&cbll=-46.8013056,-23.4388279", "O_QUE_FAZER": "CARTEIRA", "ER_REGIAO_CIDADE_min": "Capital Norte_Anhanguera" }, "geometry": { "type": "Point", "coordinates": [ -46.8013056, -23.4388279 ] } },
{ "type": "Feature", "properties": { "fid": 126569, "CNPJ": "10692396000139", "IDCIDADE": "SAO_PAULO", "NOMEFANTASIA": "MORRO_DOCE_COMERCIO_GAS", "RAZAOSOCIAL": "M_C_DE_LIMA_COMERCIO_LTDA", "ENDEE": "ESTRADA_CORONEL_JOSE_GLADIADOR733__JARDIM_ANHANGÜERA_05267-000", "LMAPS": "https://www.google.com/maps?q=&layer=c&cbll=-46.794072,-23.4389401", "O_QUE_FAZER": "CARTEIRA", "ER_REGIAO_CIDADE_min": "Capital Norte_Anhanguera" }, "geometry": { "type": "Point", "coordinates": [ -46.794072, -23.4389401 ] } },
{ "type": "Feature", "properties": { "fid": 126570, "CNPJ": "11188579000184", "IDCIDADE": "SAO_PAULO", "NOMEFANTASIA": "AUGUSTO_FERNANDES_MATERIAS", "RAZAOSOCIAL": "AUGUSTO_FERNANDES_MATERIAS", "ENDEE": "RUA_DOM_AGNELO_ROSSI546__JARDIM_ANHANGÜERA_05267-060", "LMAPS": "https://www.google.com/maps?q=&layer=c&cbll=-46.7933007,-23.4389556", "O_QUE_FAZER": "CARTEIRA", "ER_REGIAO_CIDADE_min": "Capital Norte_Anhanguera" }, "geometry": { "type": "Point", "coordinates": [ -46.7933007, -23.4389556 ] } },
{ "type": "Feature", "properties": { "fid": 126577, "CNPJ": "14791045000136", "IDCIDADE": "SAO_PAULO", "NOMEFANTASIA": "SACOLA_MARANHAO", "RAZAOSOCIAL": "GILVAM_DOS_SANTOS_LIMA_HORTIFRUTI", "ENDEE": "RUA_SERRA_DA_CAPELINHA17__JARDIM_MONTE_BELO_05272-170", "LMAPS": "https://www.google.com/maps?q=&layer=c&cbll=-46.8025602,-23.4390001", "O_QUE_FAZER": "CARTEIRA", "ER_REGIAO_CIDADE_min": "Capital Norte_Anhanguera" }, "geometry": { "type": "Point", "coordinates": [ -46.8025602, -23.4390001 ] } },
{ "type": "Feature", "properties": { "fid": 126600, "CNPJ": "02607738000228", "IDCIDADE": "SAO_PAULO", "NOMEFANTASIA": "FARMA_100", "RAZAOSOCIAL": "DROGARIA_NOVA_SANTA_FE_LTDA", "ENDEE": "RUA_FRANCELINA_DE_OLIVEIRA_AFONSO101__JARDIM_ANHANGÜERA_05267-070", "LMAPS": "https://www.google.com/maps?q=&layer=c&cbll=-46.7903557,-23.4391705", "O_QUE_FAZER": "CARTEIRA", "ER_REGIAO_CIDADE_min": "Capital Norte_Anhanguera" }, "geometry": { "type": "Point", "coordinates": [ -46.7903557, -23.4391705 ] } },
{ "type": "Feature", "properties": { "fid": 126620, "CNPJ": "38201209000196", "IDCIDADE": "SAO_PAULO", "NOMEFANTASIA": "CAMILLA_COLCHOES", "RAZAOSOCIAL": "P._S._SILVA_-_MOVEIS_E_COLCHOES", "ENDEE": "ESTRADA_CORONEL_JOSE_GLADIADOR837__JARDIM_ANHANGÜERA_05267-000", "LMAPS": "https://www.google.com/maps?q=&layer=c&cbll=-46.7949563,-23.4393098", "O_QUE_FAZER": "CARTEIRA", "ER_REGIAO_CIDADE_min": "Capital Norte_Anhanguera" }, "geometry": { "type": "Point", "coordinates": [ -46.7949563, -23.4393098 ] } },
{ "type": "Feature", "properties": { "fid": 126638, "CNPJ": "01195777000111", "IDCIDADE": "SAO_PAULO", "NOMEFANTASIA": "MOTTA", "RAZAOSOCIAL": "MOTTA_COMERCIO_DE_LAJES_LTDA", "ENDEE": "ESTRADA_CORONEL_JOSE_GLADIADOR855__JARDIM_ANHANGÜERA_05267-000", "LMAPS": "https://www.google.com/maps?q=&layer=c&cbll=-46.7951388,-23.4394714", "O_QUE_FAZER": "CARTEIRA", "ER_REGIAO_CIDADE_min": "Capital Norte_Anhanguera" }, "geometry": { "type": "Point", "coordinates": [ -46.7951388, -23.4394714 ] } },
{ "type": "Feature", "properties": { "fid": 126647, "CNPJ": "13015570000105", "IDCIDADE": "SAO_PAULO", "NOMEFANTASIA": "ANICETOCAR", "RAZAOSOCIAL": "ANICETOCAR_MECANICA_E_AUTOPECAS_LTDA", "ENDEE": "AVENIDA_FELIPPO_STURBA189__JARDIM_ANHANGÜERA_05267-200", "LMAPS": "https://www.google.com/maps?q=&layer=c&cbll=-46.7903365,-23.4395409", "O_QUE_FAZER": "CARTEIRA", "ER_REGIAO_CIDADE_min": "Capital Norte_Anhanguera" }, "geometry": { "type": "Point", "coordinates": [ -46.7903365, -23.4395409 ] } },
{ "type": "Feature", "properties": { "fid": 126650, "CNPJ": "50251656000155", "IDCIDADE": "SAO_PAULO", "NOMEFANTASIA": "LEAL_MADEREIRA", "RAZAOSOCIAL": "LEAL_COMERCIO_DE_MADEIRAS_E_MATERIAL_PARA_CONSTRUCAO_LTDA", "ENDEE": "ESTRADA_CORONEL_JOSE_GLADIADOR865__JARDIM_ANHANGÜERA_05267-000", "LMAPS": "https://www.google.com/maps?q=&layer=c&cbll=-46.7951932,-23.4395761", "O_QUE_FAZER": "CARTEIRA", "ER_REGIAO_CIDADE_min": "Capital Norte_Anhanguera" }, "geometry": { "type": "Point", "coordinates": [ -46.7951932, -23.4395761 ] } },
{ "type": "Feature", "properties": { "fid": 126669, "CNPJ": "58061120000189", "IDCIDADE": "SAO_PAULO", "NOMEFANTASIA": "F_&_J", "RAZAOSOCIAL": "PRIMOS_F&J_COLCHOES_E_MOVEIS_LTDA", "ENDEE": "RUA_DOM_AGNELO_ROSSI162__JARDIM_ANHANGÜERA_05267-060", "LMAPS": "https://www.google.com/maps?q=&layer=c&cbll=-46.7925075,-23.4397206", "O_QUE_FAZER": "CARTEIRA", "ER_REGIAO_CIDADE_min": "Capital Norte_Anhanguera" }, "geometry": { "type": "Point", "coordinates": [ -46.7925075, -23.4397206 ] } },
{ "type": "Feature", "properties": { "fid": 126763, "CNPJ": "52150163000154", "IDCIDADE": "SAO_PAULO", "NOMEFANTASIA": "BARBOSA_MATERIAIS", "RAZAOSOCIAL": "BARBOSA_MATERIAIS_PARA_CONSTRUCAO_LTDA", "ENDEE": "AVENIDA_FELIPPO_STURBA266__JARDIM_ANHANGÜERA_05267-200", "LMAPS": "https://www.google.com/maps?q=&layer=c&cbll=-46.7903419,-23.4404538", "O_QUE_FAZER": "CARTEIRA", "ER_REGIAO_CIDADE_min": "Capital Norte_Anhanguera" }, "geometry": { "type": "Point", "coordinates": [ -46.7903419, -23.4404538 ] } },
{ "type": "Feature", "properties": { "fid": 126899, "CNPJ": "49139513000177", "IDCIDADE": "SAO_PAULO", "NOMEFANTASIA": "BAR", "RAZAOSOCIAL": "JOAO_ALVES_DOS_SANTOS_-_BAR_E_RESTAURANTE", "ENDEE": "AVENIDA_FELIPPO_STURBA416__JARDIM_ANHANGÜERA_05267-200", "LMAPS": "https://www.google.com/maps?q=&layer=c&cbll=-46.7906231,-23.4417568", "O_QUE_FAZER": "CARTEIRA", "ER_REGIAO_CIDADE_min": "Capital Norte_Anhanguera" }, "geometry": { "type": "Point", "coordinates": [ -46.7906231, -23.4417568 ] } },
{ "type": "Feature", "properties": { "fid": 126943, "CNPJ": "11514875000128", "IDCIDADE": "SAO_PAULO", "NOMEFANTASIA": "EAC_RODRIGUES", "RAZAOSOCIAL": "E.A.C.RODRIGUES_DEPOSITO", "ENDEE": "RUA_ILHA_DOS_FERREIROS37__JARDIM_MONTE_BELO_05272-060", "LMAPS": "https://www.google.com/maps?q=&layer=c&cbll=-46.8011675,-23.4421397", "O_QUE_FAZER": "CARTEIRA", "ER_REGIAO_CIDADE_min": "Capital Norte_Anhanguera" }, "geometry": { "type": "Point", "coordinates": [ -46.8011675, -23.4421397 ] } },
{ "type": "Feature", "properties": { "fid": 126967, "CNPJ": "15456451000105", "IDCIDADE": "SAO_PAULO", "NOMEFANTASIA": "MERCADO_VAZAO", "RAZAOSOCIAL": "MERCADO_VAZAO_LTDA", "ENDEE": "AVENIDA_FELIPPO_STURBA298__JARDIM_ANHANGÜERA_05267-200", "LMAPS": "https://www.google.com/maps?q=&layer=c&cbll=-46.7913681,-23.4423267", "O_QUE_FAZER": "CARTEIRA", "ER_REGIAO_CIDADE_min": "Capital Norte_Anhanguera" }, "geometry": { "type": "Point", "coordinates": [ -46.7913681, -23.4423267 ] } },
{ "type": "Feature", "properties": { "fid": 127284, "CNPJ": "26600430000138", "IDCIDADE": "SAO_PAULO", "NOMEFANTASIA": "JOANA_DARK", "RAZAOSOCIAL": "J._D._COMERCIAL_E_DISTRIBUIDORA_DE_ALIMENTOS_LTDA", "ENDEE": "RUA_EDUARDO_GRUSIUS28__PARQUE_ESPERANCA_05266-010", "LMAPS": "https://www.google.com/maps?q=&layer=c&cbll=-46.7972567,-23.4446349", "O_QUE_FAZER": "CARTEIRA", "ER_REGIAO_CIDADE_min": "Capital Norte_Anhanguera" }, "geometry": { "type": "Point", "coordinates": [ -46.7972567, -23.4446349 ] } },
{ "type": "Feature", "properties": { "fid": 127315, "CNPJ": "06001225000149", "IDCIDADE": "SAO_PAULO", "NOMEFANTASIA": "COSME_DAMIAO_SOUSA_MACHADO", "RAZAOSOCIAL": "COSME_DAMIAO_SOUSA_MACHADO", "ENDEE": "RUA_GEORGE_DENOLA1__PARQUE_ESPERANCA_05266-030", "LMAPS": "https://www.google.com/maps?q=&layer=c&cbll=-46.7973967,-23.4448768", "O_QUE_FAZER": "CARTEIRA", "ER_REGIAO_CIDADE_min": "Capital Norte_Anhanguera" }, "geometry": { "type": "Point", "coordinates": [ -46.7973967, -23.4448768 ] } },
{ "type": "Feature", "properties": { "fid": 127421, "CNPJ": "51954461000134", "IDCIDADE": "SAO_PAULO", "NOMEFANTASIA": "MERCEARIA_DAS_GEMEAS", "RAZAOSOCIAL": "ELIANE_CHAGAS", "ENDEE": "RUA_NARCISE_CARBONEL149__PARQUE_ESPERANCA_05266-020", "LMAPS": "https://www.google.com/maps?q=&layer=c&cbll=-46.7990948,-23.4454262", "O_QUE_FAZER": "CARTEIRA", "ER_REGIAO_CIDADE_min": "Capital Norte_Anhanguera" }, "geometry": { "type": "Point", "coordinates": [ -46.7990948, -23.4454262 ] } },
{ "type": "Feature", "properties": { "fid": 127464, "CNPJ": "08383727000107", "IDCIDADE": "SAO_PAULO", "NOMEFANTASIA": "NOVA_ESPERANCA", "RAZAOSOCIAL": "M_DO_S.A.P_SOARES_MERCEARIA", "ENDEE": "RUA_RAMOS_MEJIA135__PARQUE_ESPERANCA_05266-060", "LMAPS": "https://www.google.com/maps?q=&layer=c&cbll=-46.798045,-23.445808", "O_QUE_FAZER": "CARTEIRA", "ER_REGIAO_CIDADE_min": "Capital Norte_Anhanguera" }, "geometry": { "type": "Point", "coordinates": [ -46.798045, -23.445808 ] } },
{ "type": "Feature", "properties": { "fid": 127497, "CNPJ": "05471508000191", "IDCIDADE": "SAO_PAULO", "NOMEFANTASIA": "WANDER_MERCADINHO", "RAZAOSOCIAL": "WANDY_-_MERCADINHOS_LTDA", "ENDEE": "RUA_EDUARDO_GRUSIUS922__PARQUE_ESPERANCA_05266-010", "LMAPS": "https://www.google.com/maps?q=&layer=c&cbll=-46.7981055,-23.4460778", "O_QUE_FAZER": "CARTEIRA", "ER_REGIAO_CIDADE_min": "Capital Norte_Anhanguera" }, "geometry": { "type": "Point", "coordinates": [ -46.7981055, -23.4460778 ] } },
{ "type": "Feature", "properties": { "fid": 127505, "CNPJ": "49224630000139", "IDCIDADE": "SAO_PAULO", "NOMEFANTASIA": "FARMALIZ", "RAZAOSOCIAL": "FARMA_LIZ_LTDA", "ENDEE": "RUA_EDUARDO_GRUSIUS192__PARQUE_ESPERANCA_05266-010", "LMAPS": "https://www.google.com/maps?q=&layer=c&cbll=-46.7982671,-23.4461125", "O_QUE_FAZER": "CARTEIRA", "ER_REGIAO_CIDADE_min": "Capital Norte_Anhanguera" }, "geometry": { "type": "Point", "coordinates": [ -46.7982671, -23.4461125 ] } },
{ "type": "Feature", "properties": { "fid": 127525, "CNPJ": "08020722000110", "IDCIDADE": "SAO_PAULO", "NOMEFANTASIA": "M_&_M_MATERIAL_PARA_CONSTRUCAO", "RAZAOSOCIAL": "MAURO_&_MARCELO_SANTOS_COMERCIO_DE_MATERIAL_PARA_CONSTRUCAO_LTDA", "ENDEE": "RUA_EDUARDO_GRUSIUS196__PARQUE_ESPERANCA_05266-010", "LMAPS": "https://www.google.com/maps?q=&layer=c&cbll=-46.7983648,-23.4463089", "O_QUE_FAZER": "CARTEIRA", "ER_REGIAO_CIDADE_min": "Capital Norte_Anhanguera" }, "geometry": { "type": "Point", "coordinates": [ -46.7983648, -23.4463089 ] } },
{ "type": "Feature", "properties": { "fid": 127577, "CNPJ": "09026275000179", "IDCIDADE": "SAO_PAULO", "NOMEFANTASIA": "HASSIA", "RAZAOSOCIAL": "MERCADINHO_HASSAI_DE_SOL_NASCENTE_LTDA", "ENDEE": "RUA_EDUARDO_GRUSIUS252__PARQUE_ESPERANCA_05266-010", "LMAPS": "https://www.google.com/maps?q=&layer=c&cbll=-46.7985483,-23.4467033", "O_QUE_FAZER": "CARTEIRA", "ER_REGIAO_CIDADE_min": "Capital Norte_Anhanguera" }, "geometry": { "type": "Point", "coordinates": [ -46.7985483, -23.4467033 ] } },
{ "type": "Feature", "properties": { "fid": 127984, "CNPJ": "12792534000187", "IDCIDADE": "SAO_PAULO", "NOMEFANTASIA": "MERCADO_SIQUEIRA", "RAZAOSOCIAL": "MERCADO_SIQUEIRA_LTDA", "ENDEE": "RUA_FRANCISCO_BELLAZZI93__JARDIM_JARAGUA_05265-040", "LMAPS": "https://www.google.com/maps?q=&layer=c&cbll=-46.7889659,-23.4496867", "O_QUE_FAZER": "CARTEIRA", "ER_REGIAO_CIDADE_min": "Capital Norte_Anhanguera" }, "geometry": { "type": "Point", "coordinates": [ -46.7889659, -23.4496867 ] } },
{ "type": "Feature", "properties": { "fid": 128009, "CNPJ": "32873972000187", "IDCIDADE": "SAO_PAULO", "NOMEFANTASIA": "CEIFA", "RAZAOSOCIAL": "COLEGIO_FERNANDO_DE_ALMEIDA_LTDA", "ENDEE": "RUA_FRANCISCO_BELLAZZI117__JARDIM_JARAGUA_05265-040", "LMAPS": "https://www.google.com/maps?q=&layer=c&cbll=-46.7892364,-23.4498666", "O_QUE_FAZER": "CARTEIRA", "ER_REGIAO_CIDADE_min": "Capital Norte_Anhanguera" }, "geometry": { "type": "Point", "coordinates": [ -46.7892364, -23.4498666 ] } },
{ "type": "Feature", "properties": { "fid": 128056, "CNPJ": "36880207000145", "IDCIDADE": "SAO_PAULO", "NOMEFANTASIA": "PAIS_E_FILHOS", "RAZAOSOCIAL": "ACOUGUE_PAIS_E_FILHOS", "ENDEE": "RUA_GIOVANI_PALADINO5__JARDIM_JARAGUA_05265-020", "LMAPS": "https://www.google.com/maps?q=&layer=c&cbll=-46.788556,-23.45011", "O_QUE_FAZER": "CARTEIRA", "ER_REGIAO_CIDADE_min": "Capital Norte_Anhanguera" }, "geometry": { "type": "Point", "coordinates": [ -46.788556, -23.45011 ] } },
{ "type": "Feature", "properties": { "fid": 128324, "CNPJ": "15094793000122", "IDCIDADE": "SAO_PAULO", "NOMEFANTASIA": "DROGARIA_JD_JARAGUA", "RAZAOSOCIAL": "FABIO_RUIZ_DROGARIA", "ENDEE": "RUA_PRESIDENTE_FELIX_PAIVA255__JARDIM_JARAGUA_05265-050", "LMAPS": "https://www.google.com/maps?q=&layer=c&cbll=-46.7894475,-23.4515724", "O_QUE_FAZER": "CARTEIRA", "ER_REGIAO_CIDADE_min": "Capital Norte_Anhanguera" }, "geometry": { "type": "Point", "coordinates": [ -46.7894475, -23.4515724 ] } },
{ "type": "Feature", "properties": { "fid": 128356, "CNPJ": "37837392000158", "IDCIDADE": "SAO_PAULO", "NOMEFANTASIA": "MORRO_ALTO", "RAZAOSOCIAL": "MERCADO_MORRO_ALTO_LTDA", "ENDEE": "RUA_PRESIDENTE_FELIX_PAIVA231__JARDIM_JARAGUA_05265-050", "LMAPS": "https://www.google.com/maps?q=&layer=c&cbll=-46.7896005,-23.4517088", "O_QUE_FAZER": "CARTEIRA", "ER_REGIAO_CIDADE_min": "Capital Norte_Anhanguera" }, "geometry": { "type": "Point", "coordinates": [ -46.7896005, -23.4517088 ] } },
{ "type": "Feature", "properties": { "fid": 128378, "CNPJ": "09423343000133", "IDCIDADE": "SAO_PAULO", "NOMEFANTASIA": "NICE_MATERIAIS_CONSTRUCAO", "RAZAOSOCIAL": "H_O_DE_ANDRADE_COMERCIO", "ENDEE": "RUA_PRESIDENTE_FELIX_PAIVA302__JARDIM_JARAGUA_05265-050", "LMAPS": "https://www.google.com/maps?q=&layer=c&cbll=-46.789936,-23.4518012", "O_QUE_FAZER": "CARTEIRA", "ER_REGIAO_CIDADE_min": "Capital Norte_Anhanguera" }, "geometry": { "type": "Point", "coordinates": [ -46.789936, -23.4518012 ] } },
{ "type": "Feature", "properties": { "fid": 204272, "CNPJ": "11034009000130", "IDCIDADE": "SAO_PAULO", "NOMEFANTASIA": "BATERIA_UNIAO", "RAZAOSOCIAL": "UNIAO_BATERIAS_LTDA", "ENDEE": "RUA_LEOPOLDO_DE_PASSOS_LIMA292__JARDIM_SANTA_FE_05271-000", "LMAPS": "https://www.google.com/maps?q=&layer=c&cbll=-46.7899169,-23.4299114", "O_QUE_FAZER": "CARTEIRA - FAMPE", "ER_REGIAO_CIDADE_min": "Capital Norte_Anhanguera" }, "geometry": { "type": "Point", "coordinates": [ -46.7899169, -23.4299114 ] } },
{ "type": "Feature", "properties": { "fid": 204280, "CNPJ": "13708538000105", "IDCIDADE": "SAO_PAULO", "NOMEFANTASIA": "M&M_AFIACAO", "RAZAOSOCIAL": "MARCO_ANTONIO_DE_SOUZA", "ENDEE": "ESTRADA_CORONEL_JOSE_GLADIADOR320__JARDIM_ANHANGÜERA_05267-000", "LMAPS": "https://www.google.com/maps?q=&layer=c&cbll=-46.7919246,-23.4357616", "O_QUE_FAZER": "CARTEIRA - FAMPE", "ER_REGIAO_CIDADE_min": "Capital Norte_Anhanguera" }, "geometry": { "type": "Point", "coordinates": [ -46.7919246, -23.4357616 ] } },
{ "type": "Feature", "properties": { "fid": 211055, "CNPJ": "34230970000103", "IDCIDADE": "SÃO PAULO", "NOMEFANTASIA": null, "RAZAOSOCIAL": "FRANCINEI GONCALVES DA SILVA 30031235808", "ENDEE": "RUA DIEGO VELASQUEZ, 52, JARDIM BRITANIA, 05269-030, SÃO PAULO, SP, BRASIL", "LMAPS": "https://www.google.com/maps?q=&layer=c&cbll=-23.431703,-46.7879698", "O_QUE_FAZER": "CARTEIRA - FAMPE", "ER_REGIAO_CIDADE_min": "Capital Norte_Anhanguera" }, "geometry": { "type": "Point", "coordinates": [ -46.7879698, -23.431703 ] } },
{ "type": "Feature", "properties": { "fid": 211086, "CNPJ": "31999185000113", "IDCIDADE": "SÃO PAULO", "NOMEFANTASIA": null, "RAZAOSOCIAL": "J P CONSTRUCOES LTDA", "ENDEE": "RUA DELSUC ALVES DE MAGALHAES, 189, JARDIM BRITANIA, 05268-010, SÃO PAULO, SP, BRASIL", "LMAPS": "https://www.google.com/maps?q=&layer=c&cbll=-23.4357041,-46.7892067", "O_QUE_FAZER": "CARTEIRA - FAMPE", "ER_REGIAO_CIDADE_min": "Capital Norte_Anhanguera" }, "geometry": { "type": "Point", "coordinates": [ -46.7892067, -23.4357041 ] } },
{ "type": "Feature", "properties": { "fid": 211098, "CNPJ": "57353826000151", "IDCIDADE": "SÃO PAULO", "NOMEFANTASIA": null, "RAZAOSOCIAL": "ALVES E FARIAS TRANSPORTES LTDA", "ENDEE": "VIA ANHANGÜERA, S/N, BLOCO 2 ARMZ 21, JARDIM JARAGUÁ, 05275-000, SÃO PAULO, SP, BRASIL", "LMAPS": "https://www.google.com/maps?q=&layer=c&cbll=-23.4379302,-46.786039", "O_QUE_FAZER": "CARTEIRA - FAMPE", "ER_REGIAO_CIDADE_min": "Capital Norte_Anhanguera" }, "geometry": { "type": "Point", "coordinates": [ -46.786039, -23.4379302 ] } },
{ "type": "Feature", "properties": { "fid": 211125, "CNPJ": "22952115000119", "IDCIDADE": "SÃO PAULO", "NOMEFANTASIA": "BOTECAO DA VILANI", "RAZAOSOCIAL": "BOTECAO DA VILANI BAR RESTAURANTE E EVENTOS LTDA", "ENDEE": "RUA FAICAL MURAD, 761, JARDIM ANHANGUERA, 05267-170, SÃO PAULO, SP, BRASIL", "LMAPS": "https://www.google.com/maps?q=&layer=c&cbll=-23.4420998,-46.7883901", "O_QUE_FAZER": "CARTEIRA - FAMPE", "ER_REGIAO_CIDADE_min": "Capital Norte_Anhanguera" }, "geometry": { "type": "Point", "coordinates": [ -46.7883901, -23.4420998 ] } },
{ "type": "Feature", "properties": { "fid": 211165, "CNPJ": "30411580000170", "IDCIDADE": "SÃO PAULO", "NOMEFANTASIA": "J.M.S. REFORMAS EM GERAL", "RAZAOSOCIAL": "JOSE ADEMILSON DA SILVA", "ENDEE": "RUA SALVADOR ALLEGRA, 207, PARQUE ESPERANCA, 05266-070, SÃO PAULO, SP, BRASIL", "LMAPS": "https://www.google.com/maps?q=&layer=c&cbll=-23.4460231,-46.7990776", "O_QUE_FAZER": "CARTEIRA - FAMPE", "ER_REGIAO_CIDADE_min": "Capital Norte_Anhanguera" }, "geometry": { "type": "Point", "coordinates": [ -46.7990776, -23.4460231 ] } },
{ "type": "Feature", "properties": { "fid": 232770, "CNPJ": "47068584000109", "IDCIDADE": "SAO_PAULO", "NOMEFANTASIA": "TAPFER_COMERCIO", "RAZAOSOCIAL": "TAPFER_COMERCIO_E_SERVICOS_LTDA", "ENDEE": "ESTRADA_CORONEL_JOSE_GLADIADOR74__JARDIM_ANHANGUERA_05105-090", "LMAPS": "https://www.google.com/maps?q=&layer=c&cbll=-46.7926717,-23.4337933", "O_QUE_FAZER": "FINALIZADO", "ER_REGIAO_CIDADE_min": "Capital Norte_Anhanguera" }, "geometry": { "type": "Point", "coordinates": [ -46.7926717, -23.4337933 ] } },
{ "type": "Feature", "properties": { "fid": 232777, "CNPJ": "02381692000190", "IDCIDADE": "SAO_PAULO", "NOMEFANTASIA": "MAD_&_NEIA", "RAZAOSOCIAL": "WILLAMS_FERNANDES_DA_SILVA", "ENDEE": "RUA_MONTE_CASTELO8__RESIDENCIAL_SOL_NASCENTE_05283-130", "LMAPS": "https://www.google.com/maps?q=&layer=c&cbll=-46.7757469,-23.4341101", "O_QUE_FAZER": "FINALIZADO", "ER_REGIAO_CIDADE_min": "Capital Norte_Anhanguera" }, "geometry": { "type": "Point", "coordinates": [ -46.7757469, -23.4341101 ] } },
{ "type": "Feature", "properties": { "fid": 232852, "CNPJ": "35020407000165", "IDCIDADE": "SAO_PAULO", "NOMEFANTASIA": "SANTOS_ALVES_IMOVEIS", "RAZAOSOCIAL": "SANTOS_&_ALVES_EMPREENDIMENTOS_IMOBILIARIOS_LTDA", "ENDEE": "RUA_FLORENCIO_CARPI615__JARDIM_ANHANGUERA_05267-030", "LMAPS": "https://www.google.com/maps?q=&layer=c&cbll=-46.7919049,-23.4375871", "O_QUE_FAZER": "FINALIZADO", "ER_REGIAO_CIDADE_min": "Capital Norte_Anhanguera" }, "geometry": { "type": "Point", "coordinates": [ -46.7919049, -23.4375871 ] } },
{ "type": "Feature", "properties": { "fid": 232915, "CNPJ": "41979338000114", "IDCIDADE": "SAO_PAULO", "NOMEFANTASIA": "41.979.338_MARCOS_RODRIGUES_DA_SILVA", "RAZAOSOCIAL": "41.979.338_MARCOS_RODRIGUES_DA_SILVA", "ENDEE": "RUA_HERCULANO_JOSE_DOS_SANTOS804__JARDIM_ANHANGUERA_05267-190", "LMAPS": "https://www.google.com/maps?q=&layer=c&cbll=-46.789193,-23.439935", "O_QUE_FAZER": "FINALIZADO", "ER_REGIAO_CIDADE_min": "Capital Norte_Anhanguera" }, "geometry": { "type": "Point", "coordinates": [ -46.789193, -23.439935 ] } },
{ "type": "Feature", "properties": { "fid": 233010, "CNPJ": "48647236000140", "IDCIDADE": "SAO_PAULO", "NOMEFANTASIA": "-", "RAZAOSOCIAL": "ANDERSON PAULINO CARDOSO 33665433886", "ENDEE": "RUA_SERRA DAS BICAS_1_JARDIM MONTE BELO_05272-075_SAO_PAULO", "LMAPS": "https://www.google.com/maps?q=&layer=c&cbll=-23.4446026,-46.8028881", "O_QUE_FAZER": "FINALIZADO", "ER_REGIAO_CIDADE_min": "Capital Norte_Anhanguera" }, "geometry": { "type": "Point", "coordinates": [ -46.8028881, -23.4446026 ] } },
{ "type": "Feature", "properties": { "fid": 233109, "CNPJ": "37342068000169", "IDCIDADE": "SAO_PAULO", "NOMEFANTASIA": "-", "RAZAOSOCIAL": "37.342.068 SIRLANDES EVANGELISTA DOS SANTOS", "ENDEE": "RUA_PRESIDENTE FELIX PAIVA_1035_JARDIM JARAGUÁ_05265-050_SAO_PAULO", "LMAPS": "https://www.google.com/maps?q=&layer=c&cbll=-23.4502849,-46.7891336", "O_QUE_FAZER": "FINALIZADO", "ER_REGIAO_CIDADE_min": "Capital Norte_Anhanguera" }, "geometry": { "type": "Point", "coordinates": [ -46.7891336, -23.4502849 ] } },
{ "type": "Feature", "properties": { "fid": 233164, "CNPJ": "43115194000183", "IDCIDADE": "SAO_PAULO", "NOMEFANTASIA": "43.115.194_ANA_PAULA_SOUZA_DE_QUEIROZ", "RAZAOSOCIAL": "43.115.194_ANA_PAULA_SOUZA_DE_QUEIROZ", "ENDEE": "RUA_FRANCISCO_BELLAZZI971__JARDIM_JARAGUA_05265-040", "LMAPS": "https://www.google.com/maps?q=&layer=c&cbll=-46.7911944,-23.4534252", "O_QUE_FAZER": "FINALIZADO", "ER_REGIAO_CIDADE_min": "Capital Norte_Anhanguera" }, "geometry": { "type": "Point", "coordinates": [ -46.7911944, -23.4534252 ] } },
{ "type": "Feature", "properties": { "fid": 242298, "CNPJ": "41278126000100", "IDCIDADE": null, "NOMEFANTASIA": "ROSALINA COSTA TEIXEIRA PEREIRA", "RAZAOSOCIAL": "ROSALINA COSTA TEIXEIRA PEREIRA 25583520833", "ENDEE": "RUA JANAUBA, 2, RESIDENCIAL SOL NASCENTE, 05280-130, SÃO PAULO, SP, BRASIL", "LMAPS": "https://www.google.com/maps?q=&layer=c&cbll=-23.4361479,-46.7713133", "O_QUE_FAZER": "FINALIZADO", "ER_REGIAO_CIDADE_min": "Capital Norte_Anhanguera" }, "geometry": { "type": "Point", "coordinates": [ -46.7713133, -23.4361479 ] } },
{ "type": "Feature", "properties": { "fid": 269314, "CNPJ": "30177434000122", "IDCIDADE": "SAO_PAULO", "NOMEFANTASIA": "30.177.434_SANDRO_DOS_SANTOS_DE_SOUZA", "RAZAOSOCIAL": "30.177.434_SANDRO_DOS_SANTOS_DE_SOUZA", "ENDEE": "RUA_PONCIANO_BARBOSA31__JARDIM_SANTA_FE_05271-080", "LMAPS": "https://www.google.com/maps?q=&layer=c&cbll=-46.7927809,-23.4323921", "O_QUE_FAZER": "FINALIZADO", "ER_REGIAO_CIDADE_min": "Capital Norte_Anhanguera" }, "geometry": { "type": "Point", "coordinates": [ -46.7927809, -23.4323921 ] } },
{ "type": "Feature", "properties": { "fid": 269332, "CNPJ": "21880532000130", "IDCIDADE": "SAO_PAULO", "NOMEFANTASIA": "JOSE_ORNELAS_CARDOZO_40394220668", "RAZAOSOCIAL": "LFL_ATACADO_DA_CONSTRUCAO", "ENDEE": "RUA_ERICO_VERISSIMO11__RESIDENCIAL_SOL_NASCENTE_05283-200", "LMAPS": "https://www.google.com/maps?q=&layer=c&cbll=-46.7734806,-23.4326276", "O_QUE_FAZER": "FINALIZADO", "ER_REGIAO_CIDADE_min": "Capital Norte_Anhanguera" }, "geometry": { "type": "Point", "coordinates": [ -46.7734806, -23.4326276 ] } },
{ "type": "Feature", "properties": { "fid": 269350, "CNPJ": "43694447000110", "IDCIDADE": "SAO_PAULO", "NOMEFANTASIA": "COMERCIO_DE_CALCADOS_ANTONIA_LTDA", "RAZAOSOCIAL": "BARONESA_CALCADOS", "ENDEE": "RUA_PADRE_MANOEL_DA_NOBREGA66__RESIDENCIAL_SOL_NASCENTE_05283-180", "LMAPS": "https://www.google.com/maps?q=&layer=c&cbll=-46.7740876,-23.4329198", "O_QUE_FAZER": "FINALIZADO", "ER_REGIAO_CIDADE_min": "Capital Norte_Anhanguera" }, "geometry": { "type": "Point", "coordinates": [ -46.7740876, -23.4329198 ] } },
{ "type": "Feature", "properties": { "fid": 269476, "CNPJ": "20806895000163", "IDCIDADE": "SAO_PAULO", "NOMEFANTASIA": "20.806.895_LUCINARDO_TAVARES_DA_SILVA", "RAZAOSOCIAL": "20.806.895_LUCINARDO_TAVARES_DA_SILVA", "ENDEE": "RUA_AIRUMA97__JARDIM_ROSINHA_05274-120", "LMAPS": "https://www.google.com/maps?q=&layer=c&cbll=-46.8008792,-23.4378024", "O_QUE_FAZER": "FINALIZADO", "ER_REGIAO_CIDADE_min": "Capital Norte_Anhanguera" }, "geometry": { "type": "Point", "coordinates": [ -46.8008792, -23.4378024 ] } },
{ "type": "Feature", "properties": { "fid": 269480, "CNPJ": "61398775000151", "IDCIDADE": "SAO_PAULO", "NOMEFANTASIA": "61.398.775_RODRIGO_DAMASCENO_DE_OLIVEIRA", "RAZAOSOCIAL": "61.398.775_RODRIGO_DAMASCENO_DE_OLIVEIRA", "ENDEE": "RUA_DOS_FAISOES54__MORADA_DO_SOL_05273-204", "LMAPS": "https://www.google.com/maps?q=&layer=c&cbll=-46.8092608,-23.4382682", "O_QUE_FAZER": "FINALIZADO", "ER_REGIAO_CIDADE_min": "Capital Norte_Anhanguera" }, "geometry": { "type": "Point", "coordinates": [ -46.8092608, -23.4382682 ] } },
{ "type": "Feature", "properties": { "fid": 269496, "CNPJ": "42163530000109", "IDCIDADE": "SAO_PAULO", "NOMEFANTASIA": "JOSILENE_FERREIRA_DA_FONSECA_ALMEIDA_03477265424", "RAZAOSOCIAL": "TOP_TENDENCIAS_", "ENDEE": "RUA_ANABA75__JARDIM_ROSINHA_05274-070", "LMAPS": "https://www.google.com/maps?q=&layer=c&cbll=-46.80145,-23.4385635", "O_QUE_FAZER": "FINALIZADO", "ER_REGIAO_CIDADE_min": "Capital Norte_Anhanguera" }, "geometry": { "type": "Point", "coordinates": [ -46.80145, -23.4385635 ] } },
{ "type": "Feature", "properties": { "fid": 270001, "CNPJ": "55774399000150", "IDCIDADE": "SAO_PAULO", "NOMEFANTASIA": "55.774.399_JARBAS_SILVA_DE_CAMPOS", "RAZAOSOCIAL": "55.774.399_JARBAS_SILVA_DE_CAMPOS", "ENDEE": "RUA_PELICANO41__SITIO_ITABERABA_II_05270-280", "LMAPS": "https://www.google.com/maps?q=&layer=c&cbll=-46.7999294,-23.4484907", "O_QUE_FAZER": "FINALIZADO", "ER_REGIAO_CIDADE_min": "Capital Norte_Anhanguera" }, "geometry": { "type": "Point", "coordinates": [ -46.7999294, -23.4484907 ] } },
{ "type": "Feature", "properties": { "fid": 270027, "CNPJ": "42037781000139", "IDCIDADE": "SAO_PAULO", "NOMEFANTASIA": "ILVAN_ALVES_DE_BRITO_30234493844", "RAZAOSOCIAL": "ILVAN_ALVES_DE_BRITO_30234493844", "ENDEE": "RUA_SOROCABA51__SITIO_ITABERABA_I_05270-070", "LMAPS": "https://www.google.com/maps?q=&layer=c&cbll=-46.7993142,-23.4488088", "O_QUE_FAZER": "FINALIZADO", "ER_REGIAO_CIDADE_min": "Capital Norte_Anhanguera" }, "geometry": { "type": "Point", "coordinates": [ -46.7993142, -23.4488088 ] } },
{ "type": "Feature", "properties": { "fid": 270050, "CNPJ": "36362420000165", "IDCIDADE": "SAO_PAULO", "NOMEFANTASIA": "ATP&PIVETTI_SERVICOS_ADMINISTRATIVOS_E_MARKETING_LTDA", "RAZAOSOCIAL": "PIVETTI_CONSULTORIA_EM_SISTEMAS", "ENDEE": "RUA_FRANCISCO_BELLAZZI120__JARDIM_JARAGUA_05265-040", "LMAPS": "https://www.google.com/maps?q=&layer=c&cbll=-46.7891356,-23.4490578", "O_QUE_FAZER": "FINALIZADO", "ER_REGIAO_CIDADE_min": "Capital Norte_Anhanguera" }, "geometry": { "type": "Point", "coordinates": [ -46.7891356, -23.4490578 ] } },
{ "type": "Feature", "properties": { "fid": 270071, "CNPJ": "34598863000124", "IDCIDADE": "SAO_PAULO", "NOMEFANTASIA": "34.598.863_WAGNER_DE_JESUS", "RAZAOSOCIAL": "WAGNER_DE_JESUS", "ENDEE": "RUA_TUPA3__SITIO_ITABERABA_I_05270-040", "LMAPS": "https://www.google.com/maps?q=&layer=c&cbll=-46.798643,-23.449359", "O_QUE_FAZER": "FINALIZADO", "ER_REGIAO_CIDADE_min": "Capital Norte_Anhanguera" }, "geometry": { "type": "Point", "coordinates": [ -46.798643, -23.449359 ] } },
{ "type": "Feature", "properties": { "fid": 270146, "CNPJ": "42056007000175", "IDCIDADE": "SAO_PAULO", "NOMEFANTASIA": "MARIA_EDIJANETE_CAVALCANTE_DA_SILVA_06138056400", "RAZAOSOCIAL": "MARIA_EDJANETE_CAVALCANTE_DA_SILVA", "ENDEE": "RUA_ALBATROZ132__SITIO_ITABERABA_II_05270-230", "LMAPS": "https://www.google.com/maps?q=&layer=c&cbll=-46.8026068,-23.4503063", "O_QUE_FAZER": "FINALIZADO", "ER_REGIAO_CIDADE_min": "Capital Norte_Anhanguera" }, "geometry": { "type": "Point", "coordinates": [ -46.8026068, -23.4503063 ] } },
{ "type": "Feature", "properties": { "fid": 297621, "CNPJ": "58982506000123", "IDCIDADE": "SÃO PAULO", "NOMEFANTASIA": "LEXYS GESTAO EM NEGOCIOS", "RAZAOSOCIAL": "LEXYS CONSULTORIA E ASSESSORIA EMPRESARIAL LTDA", "ENDEE": "AVENIDA EUCLIDES DA CUNHA, 25, CONJUNTO RESIDENCIAL MORADA DO SOL, 05281-000, SÃO PAULO, SP, BRASIL", "LMAPS": "https://www.google.com/maps?q=&layer=c&cbll=-23.4327686,-46.779188", "O_QUE_FAZER": "FINALIZADO", "ER_REGIAO_CIDADE_min": "Capital Norte_Anhanguera" }, "geometry": { "type": "Point", "coordinates": [ -46.779188, -23.4327686 ] } },
{ "type": "Feature", "properties": { "fid": 301697, "CNPJ": "59863359000135", "IDCIDADE": "SAO PAULO", "NOMEFANTASIA": "-", "RAZAOSOCIAL": "59.863.359 JOSE FLAVIO BEZERRA", "ENDEE": "RUA MORADA DE TERESINA, 33, CASA A, SOL NASCENTE, 05281-205, SÃO PAULO, SP, BRASIL", "LMAPS": "https://www.google.com/maps?q=&layer=c&cbll=-23.4312484,-46.7768515", "O_QUE_FAZER": "CARTEIRA - FAMPE", "ER_REGIAO_CIDADE_min": "Capital Norte_Anhanguera" }, "geometry": { "type": "Point", "coordinates": [ -46.7768515, -23.4312484 ] } },
{ "type": "Feature", "properties": { "fid": 301705, "CNPJ": "66359970000196", "IDCIDADE": "SAO PAULO", "NOMEFANTASIA": "-", "RAZAOSOCIAL": "66.359.970 LAVINIE DOS SANTOS DIAS", "ENDEE": "RUA FRANCISCO ALBANEZI, 98, JARDIM BRITANIA, 05269-040, SÃO PAULO, SP, BRASIL", "LMAPS": "https://www.google.com/maps?q=&layer=c&cbll=-23.4320692,-46.7898324", "O_QUE_FAZER": "CARTEIRA - FAMPE", "ER_REGIAO_CIDADE_min": "Capital Norte_Anhanguera" }, "geometry": { "type": "Point", "coordinates": [ -46.7898324, -23.4320692 ] } },
{ "type": "Feature", "properties": { "fid": 301714, "CNPJ": "63646917000188", "IDCIDADE": "SAO PAULO", "NOMEFANTASIA": "-", "RAZAOSOCIAL": "63.646.917 LORENA CAMARGO RODRIGUES DOS SANTOS", "ENDEE": "RUA MONTEIRO LOBATO, 30A, CONJUNTO RESIDENCIAL MORADA DO SOL, 05281-020, SÃO PAULO, SP, BRASIL", "LMAPS": "https://www.google.com/maps?q=&layer=c&cbll=-23.432493,-46.7774007", "O_QUE_FAZER": "CARTEIRA - FAMPE", "ER_REGIAO_CIDADE_min": "Capital Norte_Anhanguera" }, "geometry": { "type": "Point", "coordinates": [ -46.7774007, -23.432493 ] } },
{ "type": "Feature", "properties": { "fid": 301716, "CNPJ": "67852460000119", "IDCIDADE": "SAO PAULO", "NOMEFANTASIA": "-", "RAZAOSOCIAL": "67.852.460 THAIS RAMOS DE OLIVEIRA", "ENDEE": "RUA VISCONDE DE MAUA, 11, RESIDENCIAL SOL NASCENTE, 05283-220, SÃO PAULO, SP, BRASIL", "LMAPS": "https://www.google.com/maps?q=&layer=c&cbll=-23.4329329,-46.7754648", "O_QUE_FAZER": "CARTEIRA - FAMPE", "ER_REGIAO_CIDADE_min": "Capital Norte_Anhanguera" }, "geometry": { "type": "Point", "coordinates": [ -46.7754648, -23.4329329 ] } },
{ "type": "Feature", "properties": { "fid": 301717, "CNPJ": "29296567000139", "IDCIDADE": "SAO PAULO", "NOMEFANTASIA": "Ip Eletrica", "RAZAOSOCIAL": "IP PRESTACAO DE SERVICO EM ELETRICA LTDA", "ENDEE": "RUA VISCONDE DE MAUA, 17, RESIDENCIAL SOL NASCENTE, 05283-220, SÃO PAULO, SP, BRASIL", "LMAPS": "https://www.google.com/maps?q=&layer=c&cbll=-23.4329426,-46.7756632", "O_QUE_FAZER": "CARTEIRA - FAMPE", "ER_REGIAO_CIDADE_min": "Capital Norte_Anhanguera" }, "geometry": { "type": "Point", "coordinates": [ -46.7756632, -23.4329426 ] } },
{ "type": "Feature", "properties": { "fid": 301733, "CNPJ": "44843790000142", "IDCIDADE": "SAO PAULO", "NOMEFANTASIA": "-", "RAZAOSOCIAL": "TAINA FERREIRA DE OLIVEIRA XAVIER DA SILVA 39828543850", "ENDEE": "RUA SAO RAFAEL, 95, RESIDENCIAL SOL NASCENTE, 05283-110, SÃO PAULO, SP, BRASIL", "LMAPS": "https://www.google.com/maps?q=&layer=c&cbll=-23.4344217,-46.776065", "O_QUE_FAZER": "CARTEIRA - FAMPE", "ER_REGIAO_CIDADE_min": "Capital Norte_Anhanguera" }, "geometry": { "type": "Point", "coordinates": [ -46.776065, -23.4344217 ] } },
{ "type": "Feature", "properties": { "fid": 301740, "CNPJ": "43802961000122", "IDCIDADE": "SAO PAULO", "NOMEFANTASIA": "-", "RAZAOSOCIAL": "LUCAS FERRAZ SOARES 40305911830", "ENDEE": "RUA DOMENICO ASPARI, 130, JARDIM BRITANIA, 05269-010, SÃO PAULO, SP, BRASIL", "LMAPS": "https://www.google.com/maps?q=&layer=c&cbll=-23.4348421,-46.7868536", "O_QUE_FAZER": "CARTEIRA - FAMPE", "ER_REGIAO_CIDADE_min": "Capital Norte_Anhanguera" }, "geometry": { "type": "Point", "coordinates": [ -46.7868536, -23.4348421 ] } },
{ "type": "Feature", "properties": { "fid": 301742, "CNPJ": "26110376000142", "IDCIDADE": "SAO PAULO", "NOMEFANTASIA": "-", "RAZAOSOCIAL": "BRUNA RAQUEL SALES SIQUEIRA 37380977830", "ENDEE": "RUA ELISA DINA, 121, JARDIM BRITANIA, 05269-060, SÃO PAULO, SP, BRASIL", "LMAPS": "https://www.google.com/maps?q=&layer=c&cbll=-23.4349578,-46.789612", "O_QUE_FAZER": "CARTEIRA - FAMPE", "ER_REGIAO_CIDADE_min": "Capital Norte_Anhanguera" }, "geometry": { "type": "Point", "coordinates": [ -46.789612, -23.4349578 ] } },
{ "type": "Feature", "properties": { "fid": 301755, "CNPJ": "57158442000188", "IDCIDADE": "SAO PAULO", "NOMEFANTASIA": "-", "RAZAOSOCIAL": "57.158.442 MARIA LUISA MENDES RIBEIRO", "ENDEE": "RUA JOSE XAVIER DA COSTA, 28, CONJUNTO RESIDENCIAL JARDIM CANAA, 05268-040, SÃO PAULO, SP, BRASIL", "LMAPS": "https://www.google.com/maps?q=&layer=c&cbll=-23.436462,-46.7907854", "O_QUE_FAZER": "CARTEIRA - FAMPE", "ER_REGIAO_CIDADE_min": "Capital Norte_Anhanguera" }, "geometry": { "type": "Point", "coordinates": [ -46.7907854, -23.436462 ] } },
{ "type": "Feature", "properties": { "fid": 301758, "CNPJ": "61794092000113", "IDCIDADE": "SAO PAULO", "NOMEFANTASIA": "-", "RAZAOSOCIAL": "61.794.092 MONICA OLIVIA DE LUCA", "ENDEE": "RUA OLGA BENARIO, 19, VILA DOS PALMARES, 05273-050, SÃO PAULO, SP, BRASIL", "LMAPS": "https://www.google.com/maps?q=&layer=c&cbll=-23.4367842,-46.8044961", "O_QUE_FAZER": "CARTEIRA - FAMPE", "ER_REGIAO_CIDADE_min": "Capital Norte_Anhanguera" }, "geometry": { "type": "Point", "coordinates": [ -46.8044961, -23.4367842 ] } },
{ "type": "Feature", "properties": { "fid": 301762, "CNPJ": "52336212000148", "IDCIDADE": "SAO PAULO", "NOMEFANTASIA": "-", "RAZAOSOCIAL": "52.336.212 KELVIN HENRIQUE FERNANDES", "ENDEE": "RUA ADONIRAN BARBOSA, 14, CONJ, RESIDENCIAL SOL NASCENTE, 05282-020, SÃO PAULO, SP, BRASIL", "LMAPS": "https://www.google.com/maps?q=&layer=c&cbll=-23.4373148,-46.7800244", "O_QUE_FAZER": "CARTEIRA - FAMPE", "ER_REGIAO_CIDADE_min": "Capital Norte_Anhanguera" }, "geometry": { "type": "Point", "coordinates": [ -46.7800244, -23.4373148 ] } },
{ "type": "Feature", "properties": { "fid": 301772, "CNPJ": "16751438000141", "IDCIDADE": "SAO PAULO", "NOMEFANTASIA": "-", "RAZAOSOCIAL": "16.751.438 DEBORA ROCHA DA SILVA HONORATO", "ENDEE": "RUA DOM OSCAR HOMERO, 84, RESIDENCIAL SOL NASCENTE, 05280-020, SÃO PAULO, SP, BRASIL", "LMAPS": "https://www.google.com/maps?q=&layer=c&cbll=-23.438251,-46.7725261", "O_QUE_FAZER": "CARTEIRA - FAMPE", "ER_REGIAO_CIDADE_min": "Capital Norte_Anhanguera" }, "geometry": { "type": "Point", "coordinates": [ -46.7725261, -23.438251 ] } },
{ "type": "Feature", "properties": { "fid": 301773, "CNPJ": "37044194000137", "IDCIDADE": "SAO PAULO", "NOMEFANTASIA": "-", "RAZAOSOCIAL": "IVANEIA RIBEIRO DE SOUSA 32060260833", "ENDEE": "RUA CAZUZA, 03, CONJ AREA, RESIDENCIAL SOL NASCENTE, 05282-090, SÃO PAULO, SP, BRASIL", "LMAPS": "https://www.google.com/maps?q=&layer=c&cbll=-23.4382812,-46.7800904", "O_QUE_FAZER": "CARTEIRA - FAMPE", "ER_REGIAO_CIDADE_min": "Capital Norte_Anhanguera" }, "geometry": { "type": "Point", "coordinates": [ -46.7800904, -23.4382812 ] } },
{ "type": "Feature", "properties": { "fid": 301780, "CNPJ": "64363420000115", "IDCIDADE": "SAO PAULO", "NOMEFANTASIA": "-", "RAZAOSOCIAL": "64.363.420 PAULO CESAR CARDOSO DOS SANTOS", "ENDEE": "RUA ANABA, 93, JARDIM ROSINHA, 05274-070, SÃO PAULO, SP, BRASIL", "LMAPS": "https://www.google.com/maps?q=&layer=c&cbll=-23.4391014,-46.8012311", "O_QUE_FAZER": "CARTEIRA - FAMPE", "ER_REGIAO_CIDADE_min": "Capital Norte_Anhanguera" }, "geometry": { "type": "Point", "coordinates": [ -46.8012311, -23.4391014 ] } },
{ "type": "Feature", "properties": { "fid": 301783, "CNPJ": "67285369000169", "IDCIDADE": "SAO PAULO", "NOMEFANTASIA": "-", "RAZAOSOCIAL": "67.285.369 CAMILA REBECA DA SILVA", "ENDEE": "RUA ALZIRINHA CAMARGO, 23, RESIDENCIAL SOL NASCENTE, 05280-040, SÃO PAULO, SP, BRASIL", "LMAPS": "https://www.google.com/maps?q=&layer=c&cbll=-23.4392534,-46.771744", "O_QUE_FAZER": "CARTEIRA - FAMPE", "ER_REGIAO_CIDADE_min": "Capital Norte_Anhanguera" }, "geometry": { "type": "Point", "coordinates": [ -46.771744, -23.4392534 ] } },
{ "type": "Feature", "properties": { "fid": 301803, "CNPJ": "65550400000116", "IDCIDADE": "SAO PAULO", "NOMEFANTASIA": "-", "RAZAOSOCIAL": "65.550.400 BRUNA MARIA DA SILVA", "ENDEE": "RUA ANABA, 179, JARDIM ROSINHA, 05274-070, SÃO PAULO, SP, BRASIL", "LMAPS": "https://www.google.com/maps?q=&layer=c&cbll=-23.4408376,-46.8004802", "O_QUE_FAZER": "CARTEIRA - FAMPE", "ER_REGIAO_CIDADE_min": "Capital Norte_Anhanguera" }, "geometry": { "type": "Point", "coordinates": [ -46.8004802, -23.4408376 ] } },
{ "type": "Feature", "properties": { "fid": 301866, "CNPJ": "49159576000195", "IDCIDADE": "SAO PAULO", "NOMEFANTASIA": "-", "RAZAOSOCIAL": "49.159.576 GERSON RICARDO DE SOUZA OLIVEIRA ALVES", "ENDEE": "RUA LAGOA DO MORRO, 83, CASA 03, JARDIM MONTE BELO, 05272-010, SÃO PAULO, SP, BRASIL", "LMAPS": "https://www.google.com/maps?q=&layer=c&cbll=-23.4465001,-46.8021269", "O_QUE_FAZER": "CARTEIRA - FAMPE", "ER_REGIAO_CIDADE_min": "Capital Norte_Anhanguera" }, "geometry": { "type": "Point", "coordinates": [ -46.8021269, -23.4465001 ] } },
{ "type": "Feature", "properties": { "fid": 301963, "CNPJ": "40323855000178", "IDCIDADE": "SAO PAULO", "NOMEFANTASIA": "-", "RAZAOSOCIAL": "ELLEN CARVALHO DA SILVA 50395508800", "ENDEE": "RUA PRESIDENTE FELIX PAIVA, 324, JARDIM JARAGUA, 05265-050, SÃO PAULO, SP, BRASIL", "LMAPS": "https://www.google.com/maps?q=&layer=c&cbll=-23.4518909,-46.7902004", "O_QUE_FAZER": "CARTEIRA - FAMPE", "ER_REGIAO_CIDADE_min": "Capital Norte_Anhanguera" }, "geometry": { "type": "Point", "coordinates": [ -46.7902004, -23.4518909 ] } },
{ "type": "Feature", "properties": { "fid": 301983, "CNPJ": "30086327000199", "IDCIDADE": "SAO PAULO", "NOMEFANTASIA": "-", "RAZAOSOCIAL": "30.086.327 WELLINGTON SILVA DE LEMOS", "ENDEE": "RUA PRESIDENTE FELIX PAIVA, 576, JARDIM JARAGUA, 05265-050, SÃO PAULO, SP, BRASIL", "LMAPS": "https://www.google.com/maps?q=&layer=c&cbll=-23.4532012,-46.7919297", "O_QUE_FAZER": "CARTEIRA - FAMPE", "ER_REGIAO_CIDADE_min": "Capital Norte_Anhanguera" }, "geometry": { "type": "Point", "coordinates": [ -46.7919297, -23.4532012 ] } }
]
}
