{
"type": "FeatureCollection",
"name": "ER_REGIAO_CIDADE_min_Santo Antônio do Pinhal_Guaratinguetá",
"crs": { "type": "name", "properties": { "name": "urn:ogc:def:crs:OGC:1.3:CRS84" } },
"xy_coordinate_resolution": 1e-15,
"features": [
{ "type": "Feature", "properties": { "CNPJ": "24654218000128", "IDCIDADE": "SANTO_ANTONIO_DO_PINHAL", "NOMEFANTASIA": "-", "RAZAOSOCIAL": "MARCOS ROBERTO MOTA 27304561807", "ENDEE": "RUA_MARIA FERREIRA DE LIMA_145_JOAQUIM ALVES_12450-000_SANTO_ANTONIO_DO_PINHAL", "LATITUDE": "-22.8225324", "LONGITUDE": "-45.675103", "LMAPS": "https://www.google.com/maps?q=&layer=c&cbll=-22.8225324,-45.675103", "O_QUE_FAZER": "FINALIZADO", "ER_REGIAO_CIDADE_min": "Santo Antônio do Pinhal_Guaratinguetá" }, "geometry": { "type": "Point", "coordinates": [ -45.675103, -22.8225324 ] } },
{ "type": "Feature", "properties": { "CNPJ": "01888094000140", "IDCIDADE": "SANTO_ANTONIO_DO_PINHAL", "NOMEFANTASIA": "EMPORIO_DA_SERRA", "RAZAOSOCIAL": "MAX_WERNER_SAUBERLI", "ENDEE": "AVENIDA_ANTONIO_JOAQUIM_DE_OLIVEIRA646__CENTRO_12450-000", "LATITUDE": "-22.8261577", "LONGITUDE": "-45.6545917", "LMAPS": "https://www.google.com/maps?q=&layer=c&cbll=-45.6545917,-22.8261577", "O_QUE_FAZER": "CARTEIRA", "ER_REGIAO_CIDADE_min": "Santo Antônio do Pinhal_Guaratinguetá" }, "geometry": { "type": "Point", "coordinates": [ -45.6545917, -22.8261577 ] } },
{ "type": "Feature", "properties": { "CNPJ": "03396081000189", "IDCIDADE": "SANTO_ANTONIO_DO_PINHAL", "NOMEFANTASIA": "DONNA_PINHA", "RAZAOSOCIAL": "ANOUK_MIGOTTO", "ENDEE": "AVENIDA_ANTONIO_JOAQUIM_DE_OLIVEIRA647__CENTRO_12450-000", "LATITUDE": "-22.8257859", "LONGITUDE": "-45.6547236", "LMAPS": "https://www.google.com/maps?q=&layer=c&cbll=-45.6547236,-22.8257859", "O_QUE_FAZER": "CARTEIRA", "ER_REGIAO_CIDADE_min": "Santo Antônio do Pinhal_Guaratinguetá" }, "geometry": { "type": "Point", "coordinates": [ -45.6547236, -22.8257859 ] } },
{ "type": "Feature", "properties": { "CNPJ": "49392985000137", "IDCIDADE": "SANTO_ANTONIO_DO_PINHAL", "NOMEFANTASIA": "DEPOSITO_SANTA_TEREZINHA", "RAZAOSOCIAL": "DEPOSITO_M_F_BARBOSA_LTDA", "ENDEE": "AVENIDA_ANTONIO_JOSE_DE_OLIVEIRA115__CENTRO_12450-000", "LATITUDE": "-22.8259567", "LONGITUDE": "-45.66026", "LMAPS": "https://www.google.com/maps?q=&layer=c&cbll=-45.66026,-22.8259567", "O_QUE_FAZER": "CARTEIRA", "ER_REGIAO_CIDADE_min": "Santo Antônio do Pinhal_Guaratinguetá" }, "geometry": { "type": "Point", "coordinates": [ -45.66026, -22.8259567 ] } },
{ "type": "Feature", "properties": { "CNPJ": "31747731000129", "IDCIDADE": "SANTO_ANTONIO_DO_PINHAL", "NOMEFANTASIA": "FORNALHA_PIZZARIA", "RAZAOSOCIAL": "LEANDRO_AUGUSTO_JACINTHO_DE_OLIVEIRA", "ENDEE": "AVENIDA_ANTONIO_JOSE_DE_OLIVEIRA203__CENTRO_12450-000", "LATITUDE": "-22.8262688", "LONGITUDE": "-45.6594277", "LMAPS": "https://www.google.com/maps?q=&layer=c&cbll=-45.6594277,-22.8262688", "O_QUE_FAZER": "CARTEIRA", "ER_REGIAO_CIDADE_min": "Santo Antônio do Pinhal_Guaratinguetá" }, "geometry": { "type": "Point", "coordinates": [ -45.6594277, -22.8262688 ] } },
{ "type": "Feature", "properties": { "CNPJ": "49475976000100", "IDCIDADE": "SANTO_ANTONIO_DO_PINHAL", "NOMEFANTASIA": "FRITZ_RESTAURANTE", "RAZAOSOCIAL": "FLORESTA_NEGRA_EVENTOS_LTDA", "ENDEE": "AVENIDA_ANTONIO_JOSE_DE_OLIVEIRA931__CENTRO_12450-000", "LATITUDE": "-22.8259485", "LONGITUDE": "-45.6555833", "LMAPS": "https://www.google.com/maps?q=&layer=c&cbll=-45.6555833,-22.8259485", "O_QUE_FAZER": "CARTEIRA", "ER_REGIAO_CIDADE_min": "Santo Antônio do Pinhal_Guaratinguetá" }, "geometry": { "type": "Point", "coordinates": [ -45.6555833, -22.8259485 ] } },
{ "type": "Feature", "properties": { "CNPJ": "05345938000167", "IDCIDADE": "SANTO_ANTONIO_DO_PINHAL", "NOMEFANTASIA": "PINHAL_TEMPER_VIDROS", "RAZAOSOCIAL": "JUSCELINO_CARLOS_DIAS", "ENDEE": "AVENIDA_CONEGO_TOMAZ16__CENTRO_12450-000", "LATITUDE": "-22.8256096", "LONGITUDE": "-45.6645085", "LMAPS": "https://www.google.com/maps?q=&layer=c&cbll=-45.6645085,-22.8256096", "O_QUE_FAZER": "CARTEIRA", "ER_REGIAO_CIDADE_min": "Santo Antônio do Pinhal_Guaratinguetá" }, "geometry": { "type": "Point", "coordinates": [ -45.6645085, -22.8256096 ] } },
{ "type": "Feature", "properties": { "CNPJ": "22891536000187", "IDCIDADE": "SANTO_ANTONIO_DO_PINHAL", "NOMEFANTASIA": "ALPES_IMOBILIARIA", "RAZAOSOCIAL": "GUILHERME_ROBERTO_GONCALVES", "ENDEE": "AVENIDA_CONEGO_TOMAZ16__CENTRO_12450-000", "LATITUDE": "-22.8256454", "LONGITUDE": "-45.6644659", "LMAPS": "https://www.google.com/maps?q=&layer=c&cbll=-45.6644659,-22.8256454", "O_QUE_FAZER": "CARTEIRA", "ER_REGIAO_CIDADE_min": "Santo Antônio do Pinhal_Guaratinguetá" }, "geometry": { "type": "Point", "coordinates": [ -45.6644659, -22.8256454 ] } },
{ "type": "Feature", "properties": { "CNPJ": "32545310000188", "IDCIDADE": "SANTO_ANTONIO_DO_PINHAL", "NOMEFANTASIA": "W_M_ENGENHARIA_CIVIL", "RAZAOSOCIAL": "WILLIAM_ALVES_MARTINS", "ENDEE": "AVENIDA_CONEGO_TOMAZ42__CENTRO_12450-000", "LATITUDE": "-22.8255527", "LONGITUDE": "-45.6642551", "LMAPS": "https://www.google.com/maps?q=&layer=c&cbll=-45.6642551,-22.8255527", "O_QUE_FAZER": "CARTEIRA", "ER_REGIAO_CIDADE_min": "Santo Antônio do Pinhal_Guaratinguetá" }, "geometry": { "type": "Point", "coordinates": [ -45.6642551, -22.8255527 ] } },
{ "type": "Feature", "properties": { "CNPJ": "13303726000145", "IDCIDADE": "SANTO_ANTONIO_DO_PINHAL", "NOMEFANTASIA": "PICO_DOS_SPORTS", "RAZAOSOCIAL": "JEFERSON_DA_SILVA_NEVES", "ENDEE": "AVENIDA_MINISTRO_NELSON_HUNGRIA_428-C__CENTRO_12450-000", "LATITUDE": "-22.8253633", "LONGITUDE": "-45.6658717", "LMAPS": "https://www.google.com/maps?q=&layer=c&cbll=-45.6658717,-22.8253633", "O_QUE_FAZER": "CARTEIRA", "ER_REGIAO_CIDADE_min": "Santo Antônio do Pinhal_Guaratinguetá" }, "geometry": { "type": "Point", "coordinates": [ -45.6658717, -22.8253633 ] } },
{ "type": "Feature", "properties": { "CNPJ": "05369069000100", "IDCIDADE": "SANTO_ANTONIO_DO_PINHAL", "NOMEFANTASIA": "PINHAL_CENTER", "RAZAOSOCIAL": "J.R._LUCIO_CONSTRUCAO", "ENDEE": "AVENIDA_MINISTRO_NELSON_HUNGRIA12__CENTRO_12450-000", "LATITUDE": "-22.82548", "LONGITUDE": "-45.6615649", "LMAPS": "https://www.google.com/maps?q=&layer=c&cbll=-45.6615649,-22.82548", "O_QUE_FAZER": "CARTEIRA", "ER_REGIAO_CIDADE_min": "Santo Antônio do Pinhal_Guaratinguetá" }, "geometry": { "type": "Point", "coordinates": [ -45.6615649, -22.82548 ] } },
{ "type": "Feature", "properties": { "CNPJ": "04403253000167", "IDCIDADE": "SANTO_ANTONIO_DO_PINHAL", "NOMEFANTASIA": "AGROPECUARIA_PROSPERIDADE", "RAZAOSOCIAL": "PEREIRA_&_FARIA_COMERCIO_DE_RACOES_FERRAGEM_DEFENSIVOS_E_INSUMOS_AGROPECUARIOS_LTDA", "ENDEE": "AVENIDA_MINISTRO_NELSON_HUNGRIA146__CENTRO_12450-000", "LATITUDE": "-22.8252883", "LONGITUDE": "-45.66291", "LMAPS": "https://www.google.com/maps?q=&layer=c&cbll=-45.66291,-22.8252883", "O_QUE_FAZER": "CARTEIRA", "ER_REGIAO_CIDADE_min": "Santo Antônio do Pinhal_Guaratinguetá" }, "geometry": { "type": "Point", "coordinates": [ -45.66291, -22.8252883 ] } },
{ "type": "Feature", "properties": { "CNPJ": "30601422000183", "IDCIDADE": "SANTO_ANTONIO_DO_PINHAL", "NOMEFANTASIA": "TOLEDO_NEGOCIOS", "RAZAOSOCIAL": "TALLYS_TOLEDO_TEIXEIRA", "ENDEE": "AVENIDA_MINISTRO_NELSON_HUNGRIA147__CENTRO_12450-000", "LATITUDE": "-22.8254812", "LONGITUDE": "-45.6632069", "LMAPS": "https://www.google.com/maps?q=&layer=c&cbll=-45.6632069,-22.8254812", "O_QUE_FAZER": "CARTEIRA", "ER_REGIAO_CIDADE_min": "Santo Antônio do Pinhal_Guaratinguetá" }, "geometry": { "type": "Point", "coordinates": [ -45.6632069, -22.8254812 ] } },
{ "type": "Feature", "properties": { "CNPJ": "17824803000163", "IDCIDADE": "SANTO_ANTONIO_DO_PINHAL", "NOMEFANTASIA": "MISS_JADY", "RAZAOSOCIAL": "F.C._DA_COSTA_VESTUARIOS_E_ACESSORIOS", "ENDEE": "AVENIDA_MINISTRO_NELSON_HUNGRIA170__CENTRO_12450-000", "LATITUDE": "-22.8253954", "LONGITUDE": "-45.6630079", "LMAPS": "https://www.google.com/maps?q=&layer=c&cbll=-45.6630079,-22.8253954", "O_QUE_FAZER": "CARTEIRA", "ER_REGIAO_CIDADE_min": "Santo Antônio do Pinhal_Guaratinguetá" }, "geometry": { "type": "Point", "coordinates": [ -45.6630079, -22.8253954 ] } },
{ "type": "Feature", "properties": { "CNPJ": "04824275000109", "IDCIDADE": "SANTO_ANTONIO_DO_PINHAL", "NOMEFANTASIA": "ESCRITORIO_DE_CONTABILIDADE_MI", "RAZAOSOCIAL": "EMI_CONTABILIDADE_LTDA", "ENDEE": "AVENIDA_MINISTRO_NELSON_HUNGRIA177__CENTRO_12450-000", "LATITUDE": "-22.8253616", "LONGITUDE": "-45.663462", "LMAPS": "https://www.google.com/maps?q=&layer=c&cbll=-45.663462,-22.8253616", "O_QUE_FAZER": "CARTEIRA", "ER_REGIAO_CIDADE_min": "Santo Antônio do Pinhal_Guaratinguetá" }, "geometry": { "type": "Point", "coordinates": [ -45.663462, -22.8253616 ] } },
{ "type": "Feature", "properties": { "CNPJ": "09115848000130", "IDCIDADE": "SANTO_ANTONIO_DO_PINHAL", "NOMEFANTASIA": "MUNDO_DO_REAL", "RAZAOSOCIAL": "LUIZ_HENRIQUE_TORINO_FARIA", "ENDEE": "AVENIDA_MINISTRO_NELSON_HUNGRIA203__CENTRO_12450-000", "LATITUDE": "-22.8254254", "LONGITUDE": "-45.6636969", "LMAPS": "https://www.google.com/maps?q=&layer=c&cbll=-45.6636969,-22.8254254", "O_QUE_FAZER": "CARTEIRA", "ER_REGIAO_CIDADE_min": "Santo Antônio do Pinhal_Guaratinguetá" }, "geometry": { "type": "Point", "coordinates": [ -45.6636969, -22.8254254 ] } },
{ "type": "Feature", "properties": { "CNPJ": "38622643000140", "IDCIDADE": "SANTO_ANTONIO_DO_PINHAL", "NOMEFANTASIA": "IMOBILIARIA_APOIO", "RAZAOSOCIAL": "ALFREDO_SIDNEI_PAES_ROQUE_IMOBILIARIA", "ENDEE": "AVENIDA_MINISTRO_NELSON_HUNGRIA209__CENTRO_12450-000", "LATITUDE": "-22.82417", "LONGITUDE": "-45.66158", "LMAPS": "https://www.google.com/maps?q=&layer=c&cbll=-45.66158,-22.82417", "O_QUE_FAZER": "CARTEIRA", "ER_REGIAO_CIDADE_min": "Santo Antônio do Pinhal_Guaratinguetá" }, "geometry": { "type": "Point", "coordinates": [ -45.66158, -22.82417 ] } },
{ "type": "Feature", "properties": { "CNPJ": "01888094000220", "IDCIDADE": "SANTO_ANTONIO_DO_PINHAL", "NOMEFANTASIA": "EMPORIO_DA_SERRA", "RAZAOSOCIAL": "MAX_WERNER_SAUBERLI", "ENDEE": "AVENIDA_MINISTRO_NELSON_HUNGRIA280__CENTRO_12450-000", "LATITUDE": "-22.8254348", "LONGITUDE": "-45.6642565", "LMAPS": "https://www.google.com/maps?q=&layer=c&cbll=-45.6642565,-22.8254348", "O_QUE_FAZER": "CARTEIRA", "ER_REGIAO_CIDADE_min": "Santo Antônio do Pinhal_Guaratinguetá" }, "geometry": { "type": "Point", "coordinates": [ -45.6642565, -22.8254348 ] } },
{ "type": "Feature", "properties": { "CNPJ": "48914948000189", "IDCIDADE": "SANTO_ANTONIO_DO_PINHAL", "NOMEFANTASIA": "LIVRARIA_MANTIQUEIRA", "RAZAOSOCIAL": "LIVRARIA_MANTIQUEIRA_LTDA", "ENDEE": "AVENIDA_MINISTRO_NELSON_HUNGRIA302__CENTRO_12450-000", "LATITUDE": "-22.8253525", "LONGITUDE": "-45.6644499", "LMAPS": "https://www.google.com/maps?q=&layer=c&cbll=-45.6644499,-22.8253525", "O_QUE_FAZER": "CARTEIRA", "ER_REGIAO_CIDADE_min": "Santo Antônio do Pinhal_Guaratinguetá" }, "geometry": { "type": "Point", "coordinates": [ -45.6644499, -22.8253525 ] } },
{ "type": "Feature", "properties": { "CNPJ": "05155348000171", "IDCIDADE": "SANTO_ANTONIO_DO_PINHAL", "NOMEFANTASIA": "BASTIDORES_DA_MODA", "RAZAOSOCIAL": "CONFECCOES_VIA_MARIA_LTDA", "ENDEE": "AVENIDA_MINISTRO_NELSON_HUNGRIA303__CENTRO_12450-000", "LATITUDE": "-22.8239317", "LONGITUDE": "-45.6697983", "LMAPS": "https://www.google.com/maps?q=&layer=c&cbll=-45.6697983,-22.8239317", "O_QUE_FAZER": "CARTEIRA", "ER_REGIAO_CIDADE_min": "Santo Antônio do Pinhal_Guaratinguetá" }, "geometry": { "type": "Point", "coordinates": [ -45.6697983, -22.8239317 ] } },
{ "type": "Feature", "properties": { "CNPJ": "04177269000107", "IDCIDADE": "SANTO_ANTONIO_DO_PINHAL", "NOMEFANTASIA": "RESTAURANTE_VOO_LIVRE", "RAZAOSOCIAL": "RESTAURANTE_VOO_LIVRE_LTDA", "ENDEE": "AVENIDA_MINISTRO_NELSON_HUNGRIA317__CENTRO_12450-000", "LATITUDE": "-22.8257283", "LONGITUDE": "-45.6649833", "LMAPS": "https://www.google.com/maps?q=&layer=c&cbll=-45.6649833,-22.8257283", "O_QUE_FAZER": "CARTEIRA", "ER_REGIAO_CIDADE_min": "Santo Antônio do Pinhal_Guaratinguetá" }, "geometry": { "type": "Point", "coordinates": [ -45.6649833, -22.8257283 ] } },
{ "type": "Feature", "properties": { "CNPJ": "26757563000112", "IDCIDADE": "SANTO_ANTONIO_DO_PINHAL", "NOMEFANTASIA": "DROGARIA_PIMENTA", "RAZAOSOCIAL": "ELISANGELA_RIBEIRO_PIMENTA", "ENDEE": "AVENIDA_MINISTRO_NELSON_HUNGRIA320__CENTRO_12450-000", "LATITUDE": "-22.8256246", "LONGITUDE": "-45.6646299", "LMAPS": "https://www.google.com/maps?q=&layer=c&cbll=-45.6646299,-22.8256246", "O_QUE_FAZER": "CARTEIRA", "ER_REGIAO_CIDADE_min": "Santo Antônio do Pinhal_Guaratinguetá" }, "geometry": { "type": "Point", "coordinates": [ -45.6646299, -22.8256246 ] } },
{ "type": "Feature", "properties": { "CNPJ": "09364116000184", "IDCIDADE": "SANTO_ANTONIO_DO_PINHAL", "NOMEFANTASIA": "EMPORIO_SANTO_ANTONIO", "RAZAOSOCIAL": "ROSEANE_APARECIDA_DA_CRUZ", "ENDEE": "AVENIDA_MINISTRO_NELSON_HUNGRIA325__CENTRO_12450-000", "LATITUDE": "-22.825559", "LONGITUDE": "-45.6649733", "LMAPS": "https://www.google.com/maps?q=&layer=c&cbll=-45.6649733,-22.825559", "O_QUE_FAZER": "CARTEIRA", "ER_REGIAO_CIDADE_min": "Santo Antônio do Pinhal_Guaratinguetá" }, "geometry": { "type": "Point", "coordinates": [ -45.6649733, -22.825559 ] } },
{ "type": "Feature", "properties": { "CNPJ": "05020702000150", "IDCIDADE": "SANTO_ANTONIO_DO_PINHAL", "NOMEFANTASIA": "AGROSAP", "RAZAOSOCIAL": "PADILHA_CESAR_&_CESAR_LTDA", "ENDEE": "AVENIDA_MINISTRO_NELSON_HUNGRIA3270__CENTRO_12450-000", "LATITUDE": "-22.8254463", "LONGITUDE": "-45.6649929", "LMAPS": "https://www.google.com/maps?q=&layer=c&cbll=-45.6649929,-22.8254463", "O_QUE_FAZER": "CARTEIRA", "ER_REGIAO_CIDADE_min": "Santo Antônio do Pinhal_Guaratinguetá" }, "geometry": { "type": "Point", "coordinates": [ -45.6649929, -22.8254463 ] } },
{ "type": "Feature", "properties": { "CNPJ": "50366686000107", "IDCIDADE": "SANTO_ANTONIO_DO_PINHAL", "NOMEFANTASIA": "POUSADA_LA_COLLINE", "RAZAOSOCIAL": "POUSADA_LA_COLLINE_SANTO_ANTONIO_DO_PINHAL_LTDA", "ENDEE": "AVENIDA_MINISTRO_NELSON_HUNGRIA328__CENTRO_12450-000", "LATITUDE": "-22.825504", "LONGITUDE": "-45.6645795", "LMAPS": "https://www.google.com/maps?q=&layer=c&cbll=-45.6645795,-22.825504", "O_QUE_FAZER": "CARTEIRA", "ER_REGIAO_CIDADE_min": "Santo Antônio do Pinhal_Guaratinguetá" }, "geometry": { "type": "Point", "coordinates": [ -45.6645795, -22.825504 ] } },
{ "type": "Feature", "properties": { "CNPJ": "08724530000194", "IDCIDADE": "SANTO_ANTONIO_DO_PINHAL", "NOMEFANTASIA": "MOUNTAIN_SOCKS", "RAZAOSOCIAL": "MARIA_APARECIDA_BARBOSA_BENTO", "ENDEE": "AVENIDA_MINISTRO_NELSON_HUNGRIA328__CENTRO_12450-000", "LATITUDE": "-22.82554", "LONGITUDE": "-45.6646191", "LMAPS": "https://www.google.com/maps?q=&layer=c&cbll=-45.6646191,-22.82554", "O_QUE_FAZER": "CARTEIRA", "ER_REGIAO_CIDADE_min": "Santo Antônio do Pinhal_Guaratinguetá" }, "geometry": { "type": "Point", "coordinates": [ -45.6646191, -22.82554 ] } },
{ "type": "Feature", "properties": { "CNPJ": "04824241000106", "IDCIDADE": "SANTO_ANTONIO_DO_PINHAL", "NOMEFANTASIA": "SUPERMERCADO_ALMEIDA", "RAZAOSOCIAL": "PEDRO_IVAN_CARDOSO_MINIMERCADO", "ENDEE": "AVENIDA_MINISTRO_NELSON_HUNGRIA346__CENTRO_12450-000", "LATITUDE": "-22.8255599", "LONGITUDE": "-45.6647645", "LMAPS": "https://www.google.com/maps?q=&layer=c&cbll=-45.6647645,-22.8255599", "O_QUE_FAZER": "CARTEIRA", "ER_REGIAO_CIDADE_min": "Santo Antônio do Pinhal_Guaratinguetá" }, "geometry": { "type": "Point", "coordinates": [ -45.6647645, -22.8255599 ] } },
{ "type": "Feature", "properties": { "CNPJ": "09200566000131", "IDCIDADE": "SANTO_ANTONIO_DO_PINHAL", "NOMEFANTASIA": "NA_TABUA", "RAZAOSOCIAL": "DANIELA_APARECIDA_MENDONCA", "ENDEE": "AVENIDA_MINISTRO_NELSON_HUNGRIA381__CENTRO_12450-000", "LATITUDE": "-22.8256975", "LONGITUDE": "-45.6651597", "LMAPS": "https://www.google.com/maps?q=&layer=c&cbll=-45.6651597,-22.8256975", "O_QUE_FAZER": "CARTEIRA", "ER_REGIAO_CIDADE_min": "Santo Antônio do Pinhal_Guaratinguetá" }, "geometry": { "type": "Point", "coordinates": [ -45.6651597, -22.8256975 ] } },
{ "type": "Feature", "properties": { "CNPJ": "22783653000127", "IDCIDADE": "SANTO_ANTONIO_DO_PINHAL", "NOMEFANTASIA": "ELEMENTO_URBAN_SHOP", "RAZAOSOCIAL": "ELEMENTO_SHOP_CALCADOS_E_VESTUARIOS_LTDA", "ENDEE": "AVENIDA_MINISTRO_NELSON_HUNGRIA408__CENTRO_12450-000", "LATITUDE": "-22.8253647", "LONGITUDE": "-45.6658741", "LMAPS": "https://www.google.com/maps?q=&layer=c&cbll=-45.6658741,-22.8253647", "O_QUE_FAZER": "CARTEIRA", "ER_REGIAO_CIDADE_min": "Santo Antônio do Pinhal_Guaratinguetá" }, "geometry": { "type": "Point", "coordinates": [ -45.6658741, -22.8253647 ] } },
{ "type": "Feature", "properties": { "CNPJ": "03239736000105", "IDCIDADE": "SANTO_ANTONIO_DO_PINHAL", "NOMEFANTASIA": "QUITANDA_DO_FERREIRINHA", "RAZAOSOCIAL": "HORTIFRUTIGRANJEIRO_DO_FERREIRINHA_LTDA", "ENDEE": "AVENIDA_MINISTRO_NELSON_HUNGRIA409__CENTRO_12450-000", "LATITUDE": "-22.8254218", "LONGITUDE": "-45.6630216", "LMAPS": "https://www.google.com/maps?q=&layer=c&cbll=-45.6630216,-22.8254218", "O_QUE_FAZER": "CARTEIRA", "ER_REGIAO_CIDADE_min": "Santo Antônio do Pinhal_Guaratinguetá" }, "geometry": { "type": "Point", "coordinates": [ -45.6630216, -22.8254218 ] } },
{ "type": "Feature", "properties": { "CNPJ": "02456210000114", "IDCIDADE": "SANTO_ANTONIO_DO_PINHAL", "NOMEFANTASIA": "CHICO_AUTO_PECAS", "RAZAOSOCIAL": "WANDERLEY_JOSE_DE_MORAIS", "ENDEE": "AVENIDA_MINISTRO_NELSON_HUNGRIA414__CENTRO_12450-000", "LATITUDE": "-22.8255441", "LONGITUDE": "-45.6660121", "LMAPS": "https://www.google.com/maps?q=&layer=c&cbll=-45.6660121,-22.8255441", "O_QUE_FAZER": "CARTEIRA", "ER_REGIAO_CIDADE_min": "Santo Antônio do Pinhal_Guaratinguetá" }, "geometry": { "type": "Point", "coordinates": [ -45.6660121, -22.8255441 ] } },
{ "type": "Feature", "properties": { "CNPJ": "64758782000105", "IDCIDADE": "SANTO_ANTONIO_DO_PINHAL", "NOMEFANTASIA": "MATINAL", "RAZAOSOCIAL": "TEREZINHA_DE_LOURDES_CARVALHO_DE_OLIVEIRA", "ENDEE": "AVENIDA_MINISTRO_NELSON_HUNGRIA420__CENTRO_12450-000", "LATITUDE": "-22.8253267", "LONGITUDE": "-45.665964", "LMAPS": "https://www.google.com/maps?q=&layer=c&cbll=-45.665964,-22.8253267", "O_QUE_FAZER": "CARTEIRA", "ER_REGIAO_CIDADE_min": "Santo Antônio do Pinhal_Guaratinguetá" }, "geometry": { "type": "Point", "coordinates": [ -45.665964, -22.8253267 ] } },
{ "type": "Feature", "properties": { "CNPJ": "04073330000168", "IDCIDADE": "SANTO_ANTONIO_DO_PINHAL", "NOMEFANTASIA": "DELA_MODAS", "RAZAOSOCIAL": "DELOA_BANDEIRA_BARBOSA", "ENDEE": "AVENIDA_MINISTRO_NELSON_HUNGRIA440__CENTRO_12450-000", "LATITUDE": "-22.8254218", "LONGITUDE": "-45.6655508", "LMAPS": "https://www.google.com/maps?q=&layer=c&cbll=-45.6655508,-22.8254218", "O_QUE_FAZER": "CARTEIRA", "ER_REGIAO_CIDADE_min": "Santo Antônio do Pinhal_Guaratinguetá" }, "geometry": { "type": "Point", "coordinates": [ -45.6655508, -22.8254218 ] } },
{ "type": "Feature", "properties": { "CNPJ": "22164038000132", "IDCIDADE": "SANTO_ANTONIO_DO_PINHAL", "NOMEFANTASIA": "PAO_DA_SERRA", "RAZAOSOCIAL": "OLIVEIRA_PANIFICACAO_SERRA_DA_MANTIQUEIRA_LTDA", "ENDEE": "AVENIDA_MINISTRO_NELSON_HUNGRIA446__CENTRO_12450-000", "LATITUDE": "-22.8254465", "LONGITUDE": "-45.6656546", "LMAPS": "https://www.google.com/maps?q=&layer=c&cbll=-45.6656546,-22.8254465", "O_QUE_FAZER": "CARTEIRA", "ER_REGIAO_CIDADE_min": "Santo Antônio do Pinhal_Guaratinguetá" }, "geometry": { "type": "Point", "coordinates": [ -45.6656546, -22.8254465 ] } },
{ "type": "Feature", "properties": { "CNPJ": "34092674000185", "IDCIDADE": "SANTO_ANTONIO_DO_PINHAL", "NOMEFANTASIA": "GIANDUIELLA", "RAZAOSOCIAL": "R._T._JACOB_DE_FREITAS_CHOCOLATE_E_GELATO", "ENDEE": "AVENIDA_MINISTRO_NELSON_HUNGRIA475__CENTRO_12450-000", "LATITUDE": "-22.8251136", "LONGITUDE": "-45.6667146", "LMAPS": "https://www.google.com/maps?q=&layer=c&cbll=-45.6667146,-22.8251136", "O_QUE_FAZER": "CARTEIRA", "ER_REGIAO_CIDADE_min": "Santo Antônio do Pinhal_Guaratinguetá" }, "geometry": { "type": "Point", "coordinates": [ -45.6667146, -22.8251136 ] } },
{ "type": "Feature", "properties": { "CNPJ": "61120317000156", "IDCIDADE": "SANTO_ANTONIO_DO_PINHAL", "NOMEFANTASIA": "DEPOSITO_TIAO_SILVA", "RAZAOSOCIAL": "S._JOAO_DA_SILVA", "ENDEE": "AVENIDA_MINISTRO_NELSON_HUNGRIA516__CENTRO_12450-000", "LATITUDE": "-22.8250958", "LONGITUDE": "-45.6661926", "LMAPS": "https://www.google.com/maps?q=&layer=c&cbll=-45.6661926,-22.8250958", "O_QUE_FAZER": "CARTEIRA", "ER_REGIAO_CIDADE_min": "Santo Antônio do Pinhal_Guaratinguetá" }, "geometry": { "type": "Point", "coordinates": [ -45.6661926, -22.8250958 ] } },
{ "type": "Feature", "properties": { "CNPJ": "00010667000175", "IDCIDADE": "SANTO_ANTONIO_DO_PINHAL", "NOMEFANTASIA": "ZINHO_MOTOS", "RAZAOSOCIAL": "ZINHO_MOTOS_LTDA", "ENDEE": "AVENIDA_MINISTRO_NELSON_HUNGRIA533__CENTRO_12450-000", "LATITUDE": "-22.8249684", "LONGITUDE": "-45.6671217", "LMAPS": "https://www.google.com/maps?q=&layer=c&cbll=-45.6671217,-22.8249684", "O_QUE_FAZER": "CARTEIRA", "ER_REGIAO_CIDADE_min": "Santo Antônio do Pinhal_Guaratinguetá" }, "geometry": { "type": "Point", "coordinates": [ -45.6671217, -22.8249684 ] } },
{ "type": "Feature", "properties": { "CNPJ": "18520710000108", "IDCIDADE": "SANTO_ANTONIO_DO_PINHAL", "NOMEFANTASIA": "ARMAZEM_DIVINO", "RAZAOSOCIAL": "EDUARDO_MOREIRA_MARQUES_BARBOSA_LTDA", "ENDEE": "AVENIDA_MINISTRO_NELSON_HUNGRIA533__CENTRO_12450-000", "LATITUDE": "-22.8251658", "LONGITUDE": "-45.6665451", "LMAPS": "https://www.google.com/maps?q=&layer=c&cbll=-45.6665451,-22.8251658", "O_QUE_FAZER": "CARTEIRA", "ER_REGIAO_CIDADE_min": "Santo Antônio do Pinhal_Guaratinguetá" }, "geometry": { "type": "Point", "coordinates": [ -45.6665451, -22.8251658 ] } },
{ "type": "Feature", "properties": { "CNPJ": "74439647000401", "IDCIDADE": "SANTO_ANTONIO_DO_PINHAL", "NOMEFANTASIA": "MALHARIA_ALVES", "RAZAOSOCIAL": "SERGIO_ALVES_FERNANDES_MALHARIA", "ENDEE": "AVENIDA_MINISTRO_NELSON_HUNGRIA533__CENTRO_12450-000", "LATITUDE": "-22.825358", "LONGITUDE": "-45.666609", "LMAPS": "https://www.google.com/maps?q=&layer=c&cbll=-45.666609,-22.825358", "O_QUE_FAZER": "CARTEIRA", "ER_REGIAO_CIDADE_min": "Santo Antônio do Pinhal_Guaratinguetá" }, "geometry": { "type": "Point", "coordinates": [ -45.666609, -22.825358 ] } },
{ "type": "Feature", "properties": { "CNPJ": "07372597000144", "IDCIDADE": "SANTO_ANTONIO_DO_PINHAL", "NOMEFANTASIA": "LOJA_PE_DE_PANO", "RAZAOSOCIAL": "EDSON_FERNANDO_CAMARGO", "ENDEE": "AVENIDA_MINISTRO_NELSON_HUNGRIA538__CENTRO_12450-000", "LATITUDE": "-22.8248301", "LONGITUDE": "-45.6669688", "LMAPS": "https://www.google.com/maps?q=&layer=c&cbll=-45.6669688,-22.8248301", "O_QUE_FAZER": "CARTEIRA", "ER_REGIAO_CIDADE_min": "Santo Antônio do Pinhal_Guaratinguetá" }, "geometry": { "type": "Point", "coordinates": [ -45.6669688, -22.8248301 ] } },
{ "type": "Feature", "properties": { "CNPJ": "63947576000180", "IDCIDADE": "SANTO_ANTONIO_DO_PINHAL", "NOMEFANTASIA": "COLIBRIS_PIZZARIA_E_RESTAURANTE", "RAZAOSOCIAL": "KLEBER_FARIA_PIZZARIA_E_RESTAURANTE_COLIBRI", "ENDEE": "AVENIDA_MINISTRO_NELSON_HUNGRIA560__CENTRO_12450-000", "LATITUDE": "-22.824937", "LONGITUDE": "-45.6666", "LMAPS": "https://www.google.com/maps?q=&layer=c&cbll=-45.6666,-22.824937", "O_QUE_FAZER": "CARTEIRA", "ER_REGIAO_CIDADE_min": "Santo Antônio do Pinhal_Guaratinguetá" }, "geometry": { "type": "Point", "coordinates": [ -45.6666, -22.824937 ] } },
{ "type": "Feature", "properties": { "CNPJ": "20248822000101", "IDCIDADE": "SANTO_ANTONIO_DO_PINHAL", "NOMEFANTASIA": "TOCA_E_CAFE", "RAZAOSOCIAL": "SAL_EMPORIO_E_RESTAURANTES_LTDA", "ENDEE": "AVENIDA_MINISTRO_NELSON_HUNGRIA560__CENTRO_12450-000", "LATITUDE": "-22.8250231", "LONGITUDE": "-45.6665906", "LMAPS": "https://www.google.com/maps?q=&layer=c&cbll=-45.6665906,-22.8250231", "O_QUE_FAZER": "CARTEIRA", "ER_REGIAO_CIDADE_min": "Santo Antônio do Pinhal_Guaratinguetá" }, "geometry": { "type": "Point", "coordinates": [ -45.6665906, -22.8250231 ] } },
{ "type": "Feature", "properties": { "CNPJ": "24505549000104", "IDCIDADE": "SANTO_ANTONIO_DO_PINHAL", "NOMEFANTASIA": "SANTO_EMPORIO", "RAZAOSOCIAL": "MARCELO_MARCONDES_DE_CARVALHO", "ENDEE": "AVENIDA_MINISTRO_NELSON_HUNGRIA590__CENTRO_12450-000", "LATITUDE": "-22.8249174", "LONGITUDE": "-45.6668027", "LMAPS": "https://www.google.com/maps?q=&layer=c&cbll=-45.6668027,-22.8249174", "O_QUE_FAZER": "CARTEIRA", "ER_REGIAO_CIDADE_min": "Santo Antônio do Pinhal_Guaratinguetá" }, "geometry": { "type": "Point", "coordinates": [ -45.6668027, -22.8249174 ] } },
{ "type": "Feature", "properties": { "CNPJ": "02647109000140", "IDCIDADE": "SANTO_ANTONIO_DO_PINHAL", "NOMEFANTASIA": "MANI_PHARM", "RAZAOSOCIAL": "FARMACIA_MANI_PHARM_SANTO_ANTONIO_LTDA", "ENDEE": "AVENIDA_MINISTRO_NELSON_HUNGRIA615__CENTRO_12450-000", "LATITUDE": "-22.8246487", "LONGITUDE": "-45.6680244", "LMAPS": "https://www.google.com/maps?q=&layer=c&cbll=-45.6680244,-22.8246487", "O_QUE_FAZER": "CARTEIRA", "ER_REGIAO_CIDADE_min": "Santo Antônio do Pinhal_Guaratinguetá" }, "geometry": { "type": "Point", "coordinates": [ -45.6680244, -22.8246487 ] } },
{ "type": "Feature", "properties": { "CNPJ": "17371266000143", "IDCIDADE": "SANTO_ANTONIO_DO_PINHAL", "NOMEFANTASIA": "MEGA_INFORMATICA_E_SEGURANCA", "RAZAOSOCIAL": "LUCAS_HENRIQUE_DO_NASCIMENTO_E_SILVA", "ENDEE": "AVENIDA_MINISTRO_NELSON_HUNGRIA624__CENTRO_12450-000", "LATITUDE": "-22.8245013", "LONGITUDE": "-45.6679611", "LMAPS": "https://www.google.com/maps?q=&layer=c&cbll=-45.6679611,-22.8245013", "O_QUE_FAZER": "CARTEIRA", "ER_REGIAO_CIDADE_min": "Santo Antônio do Pinhal_Guaratinguetá" }, "geometry": { "type": "Point", "coordinates": [ -45.6679611, -22.8245013 ] } },
{ "type": "Feature", "properties": { "CNPJ": "05035830000178", "IDCIDADE": "SANTO_ANTONIO_DO_PINHAL", "NOMEFANTASIA": "LANCHONETE_E_PASTELARIA_DA_INES", "RAZAOSOCIAL": "M._INES_DA_SILVA_FERREIRA", "ENDEE": "AVENIDA_MINISTRO_NELSON_HUNGRIA638__CENTRO_12450-000", "LATITUDE": "-22.8244973", "LONGITUDE": "-45.668125", "LMAPS": "https://www.google.com/maps?q=&layer=c&cbll=-45.668125,-22.8244973", "O_QUE_FAZER": "CARTEIRA", "ER_REGIAO_CIDADE_min": "Santo Antônio do Pinhal_Guaratinguetá" }, "geometry": { "type": "Point", "coordinates": [ -45.668125, -22.8244973 ] } },
{ "type": "Feature", "properties": { "CNPJ": "20227537000104", "IDCIDADE": "SANTO_ANTONIO_DO_PINHAL", "NOMEFANTASIA": "SUPERMERCADO_ZE_GRILO", "RAZAOSOCIAL": "DARLENE_APARECIDA_CARDOSO", "ENDEE": "AVENIDA_MINISTRO_NELSON_HUNGRIA654__CENTRO_12450-000", "LATITUDE": "-22.8244851", "LONGITUDE": "-45.667885", "LMAPS": "https://www.google.com/maps?q=&layer=c&cbll=-45.667885,-22.8244851", "O_QUE_FAZER": "CARTEIRA", "ER_REGIAO_CIDADE_min": "Santo Antônio do Pinhal_Guaratinguetá" }, "geometry": { "type": "Point", "coordinates": [ -45.667885, -22.8244851 ] } },
{ "type": "Feature", "properties": { "CNPJ": "26587123000164", "IDCIDADE": "SANTO_ANTONIO_DO_PINHAL", "NOMEFANTASIA": "POUSADA_SANTO_ANTONIO", "RAZAOSOCIAL": "OSNI_TIMONI_GOES", "ENDEE": "AVENIDA_MINISTRO_NELSON_HUNGRIA684__CENTRO_12450-000", "LATITUDE": "-22.8239412", "LONGITUDE": "-45.6683172", "LMAPS": "https://www.google.com/maps?q=&layer=c&cbll=-45.6683172,-22.8239412", "O_QUE_FAZER": "CARTEIRA", "ER_REGIAO_CIDADE_min": "Santo Antônio do Pinhal_Guaratinguetá" }, "geometry": { "type": "Point", "coordinates": [ -45.6683172, -22.8239412 ] } },
{ "type": "Feature", "properties": { "CNPJ": "53539992000196", "IDCIDADE": "SANTO_ANTONIO_DO_PINHAL", "NOMEFANTASIA": "PINHAL_TELECOMUNICACOES", "RAZAOSOCIAL": "PINHAL_TELECOMUNICACOES_LTDA", "ENDEE": "AVENIDA_MINISTRO_NELSON_HUNGRIA686__CENTRO_12450-000", "LATITUDE": "-22.8241417", "LONGITUDE": "-45.6684883", "LMAPS": "https://www.google.com/maps?q=&layer=c&cbll=-45.6684883,-22.8241417", "O_QUE_FAZER": "CARTEIRA", "ER_REGIAO_CIDADE_min": "Santo Antônio do Pinhal_Guaratinguetá" }, "geometry": { "type": "Point", "coordinates": [ -45.6684883, -22.8241417 ] } },
{ "type": "Feature", "properties": { "CNPJ": "48820532000100", "IDCIDADE": "SANTO_ANTONIO_DO_PINHAL", "NOMEFANTASIA": "PET_CENTER", "RAZAOSOCIAL": "LUCIANA_FARIA_DE_GUARNIERI_PEREIRA_LTDA", "ENDEE": "AVENIDA_MINISTRO_NELSON_HUNGRIA686__CENTRO_12450-000", "LATITUDE": "-22.8242609", "LONGITUDE": "-45.6685473", "LMAPS": "https://www.google.com/maps?q=&layer=c&cbll=-45.6685473,-22.8242609", "O_QUE_FAZER": "CARTEIRA", "ER_REGIAO_CIDADE_min": "Santo Antônio do Pinhal_Guaratinguetá" }, "geometry": { "type": "Point", "coordinates": [ -45.6685473, -22.8242609 ] } },
{ "type": "Feature", "properties": { "CNPJ": "05938663000175", "IDCIDADE": "SANTO_ANTONIO_DO_PINHAL", "NOMEFANTASIA": "PADARIA_PIONEIRA", "RAZAOSOCIAL": "VANDERLEI_R._RODRIGUES_PADARIA", "ENDEE": "AVENIDA_MINISTRO_NELSON_HUNGRIA70__CENTRO_12450-000", "LATITUDE": "-22.8254301", "LONGITUDE": "-45.6620986", "LMAPS": "https://www.google.com/maps?q=&layer=c&cbll=-45.6620986,-22.8254301", "O_QUE_FAZER": "CARTEIRA", "ER_REGIAO_CIDADE_min": "Santo Antônio do Pinhal_Guaratinguetá" }, "geometry": { "type": "Point", "coordinates": [ -45.6620986, -22.8254301 ] } },
{ "type": "Feature", "properties": { "CNPJ": "08065977000107", "IDCIDADE": "SANTO_ANTONIO_DO_PINHAL", "NOMEFANTASIA": "POUSADA_ALEMA", "RAZAOSOCIAL": "POUSADA_ALEMA_LTDA.", "ENDEE": "AVENIDA_MINISTRO_NELSON_HUNGRIA720__CENTRO_12450-000", "LATITUDE": "-22.8243118", "LONGITUDE": "-45.668289", "LMAPS": "https://www.google.com/maps?q=&layer=c&cbll=-45.668289,-22.8243118", "O_QUE_FAZER": "CARTEIRA", "ER_REGIAO_CIDADE_min": "Santo Antônio do Pinhal_Guaratinguetá" }, "geometry": { "type": "Point", "coordinates": [ -45.668289, -22.8243118 ] } },
{ "type": "Feature", "properties": { "CNPJ": "04607220000139", "IDCIDADE": "SANTO_ANTONIO_DO_PINHAL", "NOMEFANTASIA": "VIOLA_PAES_&_DOCES", "RAZAOSOCIAL": "VIOLA_PAES_E_DOCES_LTDA", "ENDEE": "AVENIDA_MINISTRO_NELSON_HUNGRIA720__CENTRO_12450-000", "LATITUDE": "-22.8244139", "LONGITUDE": "-45.668396", "LMAPS": "https://www.google.com/maps?q=&layer=c&cbll=-45.668396,-22.8244139", "O_QUE_FAZER": "CARTEIRA", "ER_REGIAO_CIDADE_min": "Santo Antônio do Pinhal_Guaratinguetá" }, "geometry": { "type": "Point", "coordinates": [ -45.668396, -22.8244139 ] } },
{ "type": "Feature", "properties": { "CNPJ": "08913005000117", "IDCIDADE": "SANTO_ANTONIO_DO_PINHAL", "NOMEFANTASIA": "GRILLO_AUTO_PECAS", "RAZAOSOCIAL": "GRILLOMOTORS_AUTO_PECAS_LTDA", "ENDEE": "AVENIDA_MINISTRO_NELSON_HUNGRIA729__CENTRO_12450-000", "LATITUDE": "-22.8246585", "LONGITUDE": "-45.6685136", "LMAPS": "https://www.google.com/maps?q=&layer=c&cbll=-45.6685136,-22.8246585", "O_QUE_FAZER": "CARTEIRA", "ER_REGIAO_CIDADE_min": "Santo Antônio do Pinhal_Guaratinguetá" }, "geometry": { "type": "Point", "coordinates": [ -45.6685136, -22.8246585 ] } },
{ "type": "Feature", "properties": { "CNPJ": "24407723000178", "IDCIDADE": "SANTO_ANTONIO_DO_PINHAL", "NOMEFANTASIA": "KROKODILLO", "RAZAOSOCIAL": "LUCAS_DE_OLIVEIRA_ROQUE", "ENDEE": "AVENIDA_MINISTRO_NELSON_HUNGRIA731__CENTRO_12450-000", "LATITUDE": "-22.82439", "LONGITUDE": "-45.6691635", "LMAPS": "https://www.google.com/maps?q=&layer=c&cbll=-45.6691635,-22.82439", "O_QUE_FAZER": "CARTEIRA", "ER_REGIAO_CIDADE_min": "Santo Antônio do Pinhal_Guaratinguetá" }, "geometry": { "type": "Point", "coordinates": [ -45.6691635, -22.82439 ] } },
{ "type": "Feature", "properties": { "CNPJ": "67293225000154", "IDCIDADE": "SANTO_ANTONIO_DO_PINHAL", "NOMEFANTASIA": "R_A_COMUNICACAO_VISUAL", "RAZAOSOCIAL": "L._R_DE_OLIVEIRA_COMUNICACAO", "ENDEE": "AVENIDA_MINISTRO_NELSON_HUNGRIA732__CENTRO_12450-000", "LATITUDE": "-22.8243711", "LONGITUDE": "-45.6684876", "LMAPS": "https://www.google.com/maps?q=&layer=c&cbll=-45.6684876,-22.8243711", "O_QUE_FAZER": "CARTEIRA", "ER_REGIAO_CIDADE_min": "Santo Antônio do Pinhal_Guaratinguetá" }, "geometry": { "type": "Point", "coordinates": [ -45.6684876, -22.8243711 ] } },
{ "type": "Feature", "properties": { "CNPJ": "26937824001310", "IDCIDADE": "SANTO_ANTONIO_DO_PINHAL", "NOMEFANTASIA": "A_N_K_SUPERMERCADO", "RAZAOSOCIAL": "ANK_-_MARKET_LTDA", "ENDEE": "AVENIDA_MINISTRO_NELSON_HUNGRIA734__CENTRO_12450-000", "LATITUDE": "-22.8242667", "LONGITUDE": "-45.6687133", "LMAPS": "https://www.google.com/maps?q=&layer=c&cbll=-45.6687133,-22.8242667", "O_QUE_FAZER": "CARTEIRA", "ER_REGIAO_CIDADE_min": "Santo Antônio do Pinhal_Guaratinguetá" }, "geometry": { "type": "Point", "coordinates": [ -45.6687133, -22.8242667 ] } },
{ "type": "Feature", "properties": { "CNPJ": "07001033000103", "IDCIDADE": "SANTO_ANTONIO_DO_PINHAL", "NOMEFANTASIA": "SANTOS_TINTAS", "RAZAOSOCIAL": "ANDREIA_A._B._DOS_SANTOS", "ENDEE": "AVENIDA_MINISTRO_NELSON_HUNGRIA827__CENTRO_12450-000", "LATITUDE": "-22.8247193", "LONGITUDE": "-45.667333", "LMAPS": "https://www.google.com/maps?q=&layer=c&cbll=-45.667333,-22.8247193", "O_QUE_FAZER": "CARTEIRA", "ER_REGIAO_CIDADE_min": "Santo Antônio do Pinhal_Guaratinguetá" }, "geometry": { "type": "Point", "coordinates": [ -45.667333, -22.8247193 ] } },
{ "type": "Feature", "properties": { "CNPJ": "07727935000113", "IDCIDADE": "SANTO_ANTONIO_DO_PINHAL", "NOMEFANTASIA": "MIL_SABORES", "RAZAOSOCIAL": "ANDREIA_CARVALHO_BERNARDO", "ENDEE": "AVENIDA_MINISTRO_NELSON_HUNGRIA89__CENTRO_12450-000", "LATITUDE": "-22.8254433", "LONGITUDE": "-45.6628233", "LMAPS": "https://www.google.com/maps?q=&layer=c&cbll=-45.6628233,-22.8254433", "O_QUE_FAZER": "CARTEIRA", "ER_REGIAO_CIDADE_min": "Santo Antônio do Pinhal_Guaratinguetá" }, "geometry": { "type": "Point", "coordinates": [ -45.6628233, -22.8254433 ] } },
{ "type": "Feature", "properties": { "CNPJ": "46787957000120", "IDCIDADE": "SANTO_ANTONIO_DO_PINHAL", "NOMEFANTASIA": "MERCADINHO_DA_SERRA", "RAZAOSOCIAL": "WANDERSON_DA_SILVA_DAMACENA", "ENDEE": "AVENIDA_MINISTRO_NELSON_HUNGRIA991__CENTRO_12450-000", "LATITUDE": "-22.8234174", "LONGITUDE": "-45.6718323", "LMAPS": "https://www.google.com/maps?q=&layer=c&cbll=-45.6718323,-22.8234174", "O_QUE_FAZER": "CARTEIRA", "ER_REGIAO_CIDADE_min": "Santo Antônio do Pinhal_Guaratinguetá" }, "geometry": { "type": "Point", "coordinates": [ -45.6718323, -22.8234174 ] } },
{ "type": "Feature", "properties": { "CNPJ": "50951132000177", "IDCIDADE": "SANTO_ANTONIO_DO_PINHAL", "NOMEFANTASIA": "RESTAURANTE_NOSSO_CANTINHO", "RAZAOSOCIAL": "RESTAURANTE_NOSSO_CANTINHO_LTDA", "ENDEE": "RUA_ANTONIO_JOAQUIM_DE_MORAES465__CENTRO_12450-000", "LATITUDE": "-22.826024", "LONGITUDE": "-45.6569962", "LMAPS": "https://www.google.com/maps?q=&layer=c&cbll=-45.6569962,-22.826024", "O_QUE_FAZER": "CARTEIRA", "ER_REGIAO_CIDADE_min": "Santo Antônio do Pinhal_Guaratinguetá" }, "geometry": { "type": "Point", "coordinates": [ -45.6569962, -22.826024 ] } },
{ "type": "Feature", "properties": { "CNPJ": "00169929000149", "IDCIDADE": "SANTO_ANTONIO_DO_PINHAL", "NOMEFANTASIA": "POUSADA_BEIRA_RIO", "RAZAOSOCIAL": "PAULO_D_S_DE_FARIA", "ENDEE": "RUA_CORONEL_SEBASTIAO_M_SILVA72__CENTRO_12450-000", "LATITUDE": "-22.8242439", "LONGITUDE": "-45.6668338", "LMAPS": "https://www.google.com/maps?q=&layer=c&cbll=-45.6668338,-22.8242439", "O_QUE_FAZER": "CARTEIRA", "ER_REGIAO_CIDADE_min": "Santo Antônio do Pinhal_Guaratinguetá" }, "geometry": { "type": "Point", "coordinates": [ -45.6668338, -22.8242439 ] } },
{ "type": "Feature", "properties": { "CNPJ": "42351991000105", "IDCIDADE": "SANTO_ANTONIO_DO_PINHAL", "NOMEFANTASIA": "AUTENTIKA", "RAZAOSOCIAL": "KARIME_MARTINS_VIEIRA_DE_SOUZA", "ENDEE": "RUA_CORONEL_SEBASTIAO_MARCONDES_DA_SILVA31__CENTRO_12450-000", "LATITUDE": "-22.8245136", "LONGITUDE": "-45.6671108", "LMAPS": "https://www.google.com/maps?q=&layer=c&cbll=-45.6671108,-22.8245136", "O_QUE_FAZER": "CARTEIRA", "ER_REGIAO_CIDADE_min": "Santo Antônio do Pinhal_Guaratinguetá" }, "geometry": { "type": "Point", "coordinates": [ -45.6671108, -22.8245136 ] } },
{ "type": "Feature", "properties": { "CNPJ": "42077970000135", "IDCIDADE": "SANTO_ANTONIO_DO_PINHAL", "NOMEFANTASIA": "IMPERIUS_BAR_E_RESTAURANTE", "RAZAOSOCIAL": "J_G_DIAS_RESTAURANTE", "ENDEE": "RUA_CORONEL_SEBASTIAO_MARCONDES_DA_SILVA6__CENTRO_12450-000", "LATITUDE": "-22.8247563", "LONGITUDE": "-45.6669487", "LMAPS": "https://www.google.com/maps?q=&layer=c&cbll=-45.6669487,-22.8247563", "O_QUE_FAZER": "CARTEIRA", "ER_REGIAO_CIDADE_min": "Santo Antônio do Pinhal_Guaratinguetá" }, "geometry": { "type": "Point", "coordinates": [ -45.6669487, -22.8247563 ] } },
{ "type": "Feature", "properties": { "CNPJ": "09289700000112", "IDCIDADE": "SANTO_ANTONIO_DO_PINHAL", "NOMEFANTASIA": "JANAINA_FERNANDES_CONTABILIDADE", "RAZAOSOCIAL": "JANNAINA_TOBIAS_FERNANDES", "ENDEE": "RUA_DEPUTADO_FRANCO_MONTORO20__CENTRO_12450-000", "LATITUDE": "-22.8256671", "LONGITUDE": "-45.6625707", "LMAPS": "https://www.google.com/maps?q=&layer=c&cbll=-45.6625707,-22.8256671", "O_QUE_FAZER": "CARTEIRA", "ER_REGIAO_CIDADE_min": "Santo Antônio do Pinhal_Guaratinguetá" }, "geometry": { "type": "Point", "coordinates": [ -45.6625707, -22.8256671 ] } },
{ "type": "Feature", "properties": { "CNPJ": "30178460000175", "IDCIDADE": "SANTO_ANTONIO_DO_PINHAL", "NOMEFANTASIA": "DROGARIA_MANTIQUEIRA", "RAZAOSOCIAL": "DROGARIA_E_PERFUMARIA_LOPES_&_TOLEDO_LTDA", "ENDEE": "RUA_EXPEDITO_COSTA_MANSO49__CENTRO_12450-000", "LATITUDE": "-22.8256683", "LONGITUDE": "-45.66604", "LMAPS": "https://www.google.com/maps?q=&layer=c&cbll=-45.66604,-22.8256683", "O_QUE_FAZER": "CARTEIRA", "ER_REGIAO_CIDADE_min": "Santo Antônio do Pinhal_Guaratinguetá" }, "geometry": { "type": "Point", "coordinates": [ -45.66604, -22.8256683 ] } },
{ "type": "Feature", "properties": { "CNPJ": "47645393000154", "IDCIDADE": "SANTO_ANTONIO_DO_PINHAL", "NOMEFANTASIA": "F_1_AUTO_EMPLACADORA", "RAZAOSOCIAL": "F1_AUTO_EMPLACADORA_LTDA", "ENDEE": "RUA_EXPEDITO_DA_COSTA_MANSO105__CENTRO_12450-000", "LATITUDE": "-22.8261398", "LONGITUDE": "-45.6659295", "LMAPS": "https://www.google.com/maps?q=&layer=c&cbll=-45.6659295,-22.8261398", "O_QUE_FAZER": "CARTEIRA", "ER_REGIAO_CIDADE_min": "Santo Antônio do Pinhal_Guaratinguetá" }, "geometry": { "type": "Point", "coordinates": [ -45.6659295, -22.8261398 ] } },
{ "type": "Feature", "properties": { "CNPJ": "28463428000190", "IDCIDADE": "SANTO_ANTONIO_DO_PINHAL", "NOMEFANTASIA": "INOVAR", "RAZAOSOCIAL": "INOVAR_CASA_E_CONSTRUCAO_LTDA", "ENDEE": "RUA_EXPEDITO_DA_COSTA_MANSO82__CENTRO_12450-000", "LATITUDE": "-22.8257849", "LONGITUDE": "-45.6662608", "LMAPS": "https://www.google.com/maps?q=&layer=c&cbll=-45.6662608,-22.8257849", "O_QUE_FAZER": "CARTEIRA", "ER_REGIAO_CIDADE_min": "Santo Antônio do Pinhal_Guaratinguetá" }, "geometry": { "type": "Point", "coordinates": [ -45.6662608, -22.8257849 ] } },
{ "type": "Feature", "properties": { "CNPJ": "48720023000105", "IDCIDADE": "SANTO_ANTONIO_DO_PINHAL", "NOMEFANTASIA": "SUPERMERCADO_AMARAL", "RAZAOSOCIAL": "A_L_DO_AMARAL", "ENDEE": "RUA_GOVERNADOR_CARVALHO_PINTO23__CENTRO_12450-000", "LATITUDE": "-22.8237092", "LONGITUDE": "-45.6666206", "LMAPS": "https://www.google.com/maps?q=&layer=c&cbll=-45.6666206,-22.8237092", "O_QUE_FAZER": "CARTEIRA", "ER_REGIAO_CIDADE_min": "Santo Antônio do Pinhal_Guaratinguetá" }, "geometry": { "type": "Point", "coordinates": [ -45.6666206, -22.8237092 ] } },
{ "type": "Feature", "properties": { "CNPJ": "12446174000161", "IDCIDADE": "SANTO_ANTONIO_DO_PINHAL", "NOMEFANTASIA": "POUSADA_NIHHON", "RAZAOSOCIAL": "REGIS_DE_OLIVEIRA_KATAYAMA", "ENDEE": "RUA_GOVERNADOR_CARVALHO_PINTO350__CENTRO_12450-000", "LATITUDE": "-22.8248913", "LONGITUDE": "-45.6646706", "LMAPS": "https://www.google.com/maps?q=&layer=c&cbll=-45.6646706,-22.8248913", "O_QUE_FAZER": "CARTEIRA", "ER_REGIAO_CIDADE_min": "Santo Antônio do Pinhal_Guaratinguetá" }, "geometry": { "type": "Point", "coordinates": [ -45.6646706, -22.8248913 ] } },
{ "type": "Feature", "properties": { "CNPJ": "20918086000143", "IDCIDADE": "SANTO_ANTONIO_DO_PINHAL", "NOMEFANTASIA": "NATIVO", "RAZAOSOCIAL": "WILLIAM_MINORU_KATAYAMA", "ENDEE": "RUA_GOVERNADOR_CARVALHO_PINTO520__CENTRO_12450-000", "LATITUDE": "-22.824773", "LONGITUDE": "-45.6643391", "LMAPS": "https://www.google.com/maps?q=&layer=c&cbll=-45.6643391,-22.824773", "O_QUE_FAZER": "CARTEIRA", "ER_REGIAO_CIDADE_min": "Santo Antônio do Pinhal_Guaratinguetá" }, "geometry": { "type": "Point", "coordinates": [ -45.6643391, -22.824773 ] } },
{ "type": "Feature", "properties": { "CNPJ": "30649467000128", "IDCIDADE": "SANTO_ANTONIO_DO_PINHAL", "NOMEFANTASIA": "PINHAL_CALHAS", "RAZAOSOCIAL": "LIDIANE_APARECIDA_DA_SILVA", "ENDEE": "RUA_GOVERNADOR_CARVALHO_PINTO636__CENTRO_12450-000", "LATITUDE": "-22.824793", "LONGITUDE": "-45.6647868", "LMAPS": "https://www.google.com/maps?q=&layer=c&cbll=-45.6647868,-22.824793", "O_QUE_FAZER": "CARTEIRA", "ER_REGIAO_CIDADE_min": "Santo Antônio do Pinhal_Guaratinguetá" }, "geometry": { "type": "Point", "coordinates": [ -45.6647868, -22.824793 ] } },
{ "type": "Feature", "properties": { "CNPJ": "13678858000151", "IDCIDADE": "SANTO_ANTONIO_DO_PINHAL", "NOMEFANTASIA": "BIAMAQ", "RAZAOSOCIAL": "K.C._DOS_SANTOS_LOCACOES_E_PECAS", "ENDEE": "RUA_GOVERNADOR_CARVALHO_PINTO846__CENTRO_12450-000", "LATITUDE": "-22.823938", "LONGITUDE": "-45.6664317", "LMAPS": "https://www.google.com/maps?q=&layer=c&cbll=-45.6664317,-22.823938", "O_QUE_FAZER": "CARTEIRA", "ER_REGIAO_CIDADE_min": "Santo Antônio do Pinhal_Guaratinguetá" }, "geometry": { "type": "Point", "coordinates": [ -45.6664317, -22.823938 ] } },
{ "type": "Feature", "properties": { "CNPJ": "34823332000198", "IDCIDADE": "SANTO_ANTONIO_DO_PINHAL", "NOMEFANTASIA": "VIDA_ATIVA", "RAZAOSOCIAL": "J_C_B_DE_LIMA_E_SILVA", "ENDEE": "RUA_GOVERNADOR_CARVALHO_PINTO856__CENTRO_12450-000", "LATITUDE": "-22.8238667", "LONGITUDE": "-45.6663757", "LMAPS": "https://www.google.com/maps?q=&layer=c&cbll=-45.6663757,-22.8238667", "O_QUE_FAZER": "CARTEIRA", "ER_REGIAO_CIDADE_min": "Santo Antônio do Pinhal_Guaratinguetá" }, "geometry": { "type": "Point", "coordinates": [ -45.6663757, -22.8238667 ] } },
{ "type": "Feature", "properties": { "CNPJ": "30800876000183", "IDCIDADE": "SANTO_ANTONIO_DO_PINHAL", "NOMEFANTASIA": "START_MATERIAIS_E_SERVICOS_ELETRICOS", "RAZAOSOCIAL": "ADILSON_DONIZETE_DE_ANDRADE", "ENDEE": "RUA_MARIA_FERREIRA_DE_LIMA152__CACHOEIRA_12450-000", "LATITUDE": "-22.8224465", "LONGITUDE": "-45.6751965", "LMAPS": "https://www.google.com/maps?q=&layer=c&cbll=-45.6751965,-22.8224465", "O_QUE_FAZER": "CARTEIRA", "ER_REGIAO_CIDADE_min": "Santo Antônio do Pinhal_Guaratinguetá" }, "geometry": { "type": "Point", "coordinates": [ -45.6751965, -22.8224465 ] } },
{ "type": "Feature", "properties": { "CNPJ": "24000105000109", "IDCIDADE": "SANTO_ANTONIO_DO_PINHAL", "NOMEFANTASIA": "COMPRE_AI", "RAZAOSOCIAL": "COMPRE_AI_LTDA", "ENDEE": "RUA_MARIA_FERREIRA_DE_LIMA174__CACHOEIRA_12450-000", "LATITUDE": "-22.8224812", "LONGITUDE": "-45.6754097", "LMAPS": "https://www.google.com/maps?q=&layer=c&cbll=-45.6754097,-22.8224812", "O_QUE_FAZER": "CARTEIRA", "ER_REGIAO_CIDADE_min": "Santo Antônio do Pinhal_Guaratinguetá" }, "geometry": { "type": "Point", "coordinates": [ -45.6754097, -22.8224812 ] } },
{ "type": "Feature", "properties": { "CNPJ": "19158991000163", "IDCIDADE": "SANTO_ANTONIO_DO_PINHAL", "NOMEFANTASIA": "OPCAO_MOTOS_RACING", "RAZAOSOCIAL": "EDUARDO_BATISTA", "ENDEE": "RUA_MARIA_FERREIRA_DE_LIMA177__CACHOEIRA_12450-000", "LATITUDE": "-22.822527", "LONGITUDE": "-45.6754152", "LMAPS": "https://www.google.com/maps?q=&layer=c&cbll=-45.6754152,-22.822527", "O_QUE_FAZER": "CARTEIRA", "ER_REGIAO_CIDADE_min": "Santo Antônio do Pinhal_Guaratinguetá" }, "geometry": { "type": "Point", "coordinates": [ -45.6754152, -22.822527 ] } },
{ "type": "Feature", "properties": { "CNPJ": "13664587000185", "IDCIDADE": "SANTO_ANTONIO_DO_PINHAL", "NOMEFANTASIA": "DOUTOR_REPARA", "RAZAOSOCIAL": "MARCIO_MACIEL_DE_SOUZA_MELLO", "ENDEE": "RUA_MARIA_FERREIRA_DE_LIMA383__CACHOEIRA_12450-000", "LATITUDE": "-22.8217087", "LONGITUDE": "-45.6769203", "LMAPS": "https://www.google.com/maps?q=&layer=c&cbll=-45.6769203,-22.8217087", "O_QUE_FAZER": "CARTEIRA", "ER_REGIAO_CIDADE_min": "Santo Antônio do Pinhal_Guaratinguetá" }, "geometry": { "type": "Point", "coordinates": [ -45.6769203, -22.8217087 ] } },
{ "type": "Feature", "properties": { "CNPJ": "29212640000147", "IDCIDADE": "SANTO_ANTONIO_DO_PINHAL", "NOMEFANTASIA": "INTERVISAO", "RAZAOSOCIAL": "E._A._DOS_SANTOS_VISTORIAS_AUTOMOTIVAS", "ENDEE": "RUA_MARIA_JACINTO_DE_FARIA162__CENTRO_12450-000", "LATITUDE": "-22.8266052", "LONGITUDE": "-45.6666699", "LMAPS": "https://www.google.com/maps?q=&layer=c&cbll=-45.6666699,-22.8266052", "O_QUE_FAZER": "CARTEIRA", "ER_REGIAO_CIDADE_min": "Santo Antônio do Pinhal_Guaratinguetá" }, "geometry": { "type": "Point", "coordinates": [ -45.6666699, -22.8266052 ] } },
{ "type": "Feature", "properties": { "CNPJ": "07956034000101", "IDCIDADE": "SANTO_ANTONIO_DO_PINHAL", "NOMEFANTASIA": "ACOUGUE_NEGRINI", "RAZAOSOCIAL": "RANGEL_NEGRINI_LARA", "ENDEE": "RUA_VIRGILIO_FARIA_DA_COSTA5__CENTRO_12450-000", "LATITUDE": "-22.8246099", "LONGITUDE": "-45.6682853", "LMAPS": "https://www.google.com/maps?q=&layer=c&cbll=-45.6682853,-22.8246099", "O_QUE_FAZER": "CARTEIRA", "ER_REGIAO_CIDADE_min": "Santo Antônio do Pinhal_Guaratinguetá" }, "geometry": { "type": "Point", "coordinates": [ -45.6682853, -22.8246099 ] } },
{ "type": "Feature", "properties": { "CNPJ": "13045688000178", "IDCIDADE": "SANTO_ANTONIO_DO_PINHAL", "NOMEFANTASIA": "BICHO_FELIZ", "RAZAOSOCIAL": "MARY_TATIANA_DE_SOUZA", "ENDEE": "TRAVESSA_GETULIO_MOTTA92__CENTRO_12450-000", "LATITUDE": "-22.8263519", "LONGITUDE": "-45.6665735", "LMAPS": "https://www.google.com/maps?q=&layer=c&cbll=-45.6665735,-22.8263519", "O_QUE_FAZER": "CARTEIRA", "ER_REGIAO_CIDADE_min": "Santo Antônio do Pinhal_Guaratinguetá" }, "geometry": { "type": "Point", "coordinates": [ -45.6665735, -22.8263519 ] } }
]
}
