{
"type": "FeatureCollection",
"name": "ER_REGIAO_CIDADE_min_Santa Adélia_Botelho_Araraquara",
"crs": { "type": "name", "properties": { "name": "urn:ogc:def:crs:OGC:1.3:CRS84" } },
"xy_coordinate_resolution": 1e-15,
"features": [
{ "type": "Feature", "properties": { "CNPJ": "44010901000130", "IDCIDADE": "SANTA ADELIA", "NOMEFANTASIA": "-", "RAZAOSOCIAL": "44.010.901_TATIANA_APARECIDA_BORDIGNON_CORREA", "ENDEE": "RUA ANTONIO FELIPE, 84, BOTELHO, 15953-000, SANTA ADÉLIA, SP, BRASIL", "LATITUDE": "-21.3634534", "LONGITUDE": "-48.7643767", "LMAPS": "https://www.google.com/maps?q=&layer=c&cbll=-21.3634534,-48.7643767", "O_QUE_FAZER": "CARTEIRA - FAMPE", "field_10": null, "field_11": null, "field_12": null, "field_13": null, "ER_REGIAO_CIDADE_min": "Santa Adélia_Botelho_Araraquara" }, "geometry": { "type": "Point", "coordinates": [ -48.7643767, -21.3634534 ] } }
]
}
