{
"type": "FeatureCollection",
"name": "ER_REGIAO_CIDADE_min_Sud Mennucci_Sud Mennucci_Araçatuba",
"crs": { "type": "name", "properties": { "name": "urn:ogc:def:crs:OGC:1.3:CRS84" } },
"xy_coordinate_resolution": 1e-15,
"features": [
{ "type": "Feature", "properties": { "CNPJ": "34189831000175", "IDCIDADE": "SUD_MENNUCCI", "NOMEFANTASIA": "AUTO_POSTO_MIL", "RAZAOSOCIAL": "L_A_Y_ROCHA_COMERCIO_DE_COMBUSTIVEIS_LTDA", "ENDEE": "AVENIDA_BENTO_ALVES_NATEL777__CENTRO_15360-000", "LMAPS": "https://www.google.com/maps?q=&layer=c&cbll=-50.9232019,-20.6881144", "O_QUE_FAZER": "CARTEIRA", "ER_REGIAO_CIDADE_min": "Sud Mennucci_Sud Mennucci_Araçatuba" }, "geometry": { "type": "Point", "coordinates": [ -50.9232019, -20.6881144 ] } },
{ "type": "Feature", "properties": { "CNPJ": "11502307000107", "IDCIDADE": "SUD_MENNUCCI", "NOMEFANTASIA": "RN_SOLUTIONS_LTDA", "RAZAOSOCIAL": "RN_SOLUTIONS", "ENDEE": "1011_CHACARA_POR_DO_SOL2__SUD_MENNUCCI_15360-000", "LMAPS": "https://www.google.com/maps?q=&layer=c&cbll=-50.9235901,-20.6904621", "O_QUE_FAZER": "FINALIZADO", "ER_REGIAO_CIDADE_min": "Sud Mennucci_Sud Mennucci_Araçatuba" }, "geometry": { "type": "Point", "coordinates": [ -50.9235901, -20.6904621 ] } },
{ "type": "Feature", "properties": { "CNPJ": "31098500000131", "IDCIDADE": "SUD_MENNUCCI", "NOMEFANTASIA": "ISABELLE_RODRIGUES_DE_CARVALHO_48145490839", "RAZAOSOCIAL": "SUD_MOVEIS", "ENDEE": "AVENIDA_DOUTOR_PROFESSOR_LUIZ_FLAVIO_GOMES664__SUD_MENNUCCI_15360-000", "LMAPS": "https://www.google.com/maps?q=&layer=c&cbll=-50.9231116,-20.6891637", "O_QUE_FAZER": "FINALIZADO", "ER_REGIAO_CIDADE_min": "Sud Mennucci_Sud Mennucci_Araçatuba" }, "geometry": { "type": "Point", "coordinates": [ -50.9231116, -20.6891637 ] } },
{ "type": "Feature", "properties": { "CNPJ": "34928868000178", "IDCIDADE": "SUD_MENNUCCI", "NOMEFANTASIA": "IMEC_SERVICOS_DE_MANUTENCAO_INDUSTRIAL_LTDA", "RAZAOSOCIAL": "IMEC_MANUTENCAO_E_SERVICOS", "ENDEE": "AVENIDA_JULIO_VENTURA655__SUD_MENNUCCI_15360-000", "LMAPS": "https://www.google.com/maps?q=&layer=c&cbll=-50.9266198,-20.6889276", "O_QUE_FAZER": "FINALIZADO", "ER_REGIAO_CIDADE_min": "Sud Mennucci_Sud Mennucci_Araçatuba" }, "geometry": { "type": "Point", "coordinates": [ -50.9266198, -20.6889276 ] } },
{ "type": "Feature", "properties": { "CNPJ": "53996023000164", "IDCIDADE": "SUD_MENNUCCI", "NOMEFANTASIA": "53.996.023_GERSON_LUIS_FENERICK", "RAZAOSOCIAL": "FENERICK_ESPETO", "ENDEE": "AVENIDA_LUIZ_FLAVIO_GOMES521__JARDIM_ALVORADA_15360-000", "LMAPS": "https://www.google.com/maps?q=&layer=c&cbll=-50.9235901,-20.6904507", "O_QUE_FAZER": "FINALIZADO", "ER_REGIAO_CIDADE_min": "Sud Mennucci_Sud Mennucci_Araçatuba" }, "geometry": { "type": "Point", "coordinates": [ -50.9235901, -20.6904507 ] } },
{ "type": "Feature", "properties": { "CNPJ": "55560484000115", "IDCIDADE": "SUD_MENNUCCI", "NOMEFANTASIA": "ANTONIO_C._F._DA_SILVA_LTDA", "RAZAOSOCIAL": "AUTO_ELETRICA_LIDER", "ENDEE": "AVENIDA_PIONEIROS0__JARDIM__PAULISTA_15360-000", "LMAPS": "https://www.google.com/maps?q=&layer=c&cbll=-50.9326423,-20.6887309", "O_QUE_FAZER": "FINALIZADO", "ER_REGIAO_CIDADE_min": "Sud Mennucci_Sud Mennucci_Araçatuba" }, "geometry": { "type": "Point", "coordinates": [ -50.9326423, -20.6887309 ] } },
{ "type": "Feature", "properties": { "CNPJ": "44003873000123", "IDCIDADE": "SUD_MENNUCCI", "NOMEFANTASIA": "NEIDE_JACINTHO_DE_ANDRADE_09272530890", "RAZAOSOCIAL": "BAR_RECANTO_DOS_AMIGOS", "ENDEE": "AVENIDA_PIONEIROS130__SUD_MENNUCCI_15360-000", "LMAPS": "https://www.google.com/maps?q=&layer=c&cbll=-50.9315389,-20.6890445", "O_QUE_FAZER": "FINALIZADO", "ER_REGIAO_CIDADE_min": "Sud Mennucci_Sud Mennucci_Araçatuba" }, "geometry": { "type": "Point", "coordinates": [ -50.9315389, -20.6890445 ] } },
{ "type": "Feature", "properties": { "CNPJ": "41560804000122", "IDCIDADE": "SUD_MENNUCCI", "NOMEFANTASIA": "CONVENIENCIA_DO_WATILA_LTDA", "RAZAOSOCIAL": "CONVENIENCIA_ALVORADA", "ENDEE": "AVENIDA_PIONEIROS161__SUD_MENNUCCI_15360-000", "LMAPS": "https://www.google.com/maps?q=&layer=c&cbll=-50.9312333,-20.6888252", "O_QUE_FAZER": "FINALIZADO", "ER_REGIAO_CIDADE_min": "Sud Mennucci_Sud Mennucci_Araçatuba" }, "geometry": { "type": "Point", "coordinates": [ -50.9312333, -20.6888252 ] } },
{ "type": "Feature", "properties": { "CNPJ": "25530599000104", "IDCIDADE": "SUD_MENNUCCI", "NOMEFANTASIA": "FABIO_DE_SOUZA_DA_SILVA_02044270102", "RAZAOSOCIAL": "CASA_DO_ESPETO", "ENDEE": "AVENIDA_PIONEIROS171__SUD_MENNUCCI_15360-000", "LMAPS": "https://www.google.com/maps?q=&layer=c&cbll=-50.9311426,-20.6888579", "O_QUE_FAZER": "FINALIZADO", "ER_REGIAO_CIDADE_min": "Sud Mennucci_Sud Mennucci_Araçatuba" }, "geometry": { "type": "Point", "coordinates": [ -50.9311426, -20.6888579 ] } },
{ "type": "Feature", "properties": { "CNPJ": "58337212000149", "IDCIDADE": "SUD_MENNUCCI", "NOMEFANTASIA": "58.337.212_PEDRO_ROBERTO_PEREZ", "RAZAOSOCIAL": "4_PATAS_RACOES", "ENDEE": "AVENIDA_PIONEIROS181__SUD_MENNUCCI_15360-000", "LMAPS": "https://www.google.com/maps?q=&layer=c&cbll=-50.9310096,-20.6888609", "O_QUE_FAZER": "FINALIZADO", "ER_REGIAO_CIDADE_min": "Sud Mennucci_Sud Mennucci_Araçatuba" }, "geometry": { "type": "Point", "coordinates": [ -50.9310096, -20.6888609 ] } },
{ "type": "Feature", "properties": { "CNPJ": "47924801000107", "IDCIDADE": "SUD_MENNUCCI", "NOMEFANTASIA": "VALDETE_ROCHA_DE_JESUS_SILVA_32119001871", "RAZAOSOCIAL": "ALEXANDRE__BICICLETARIA", "ENDEE": "AVENIDA_PIONEIROS191__SUD_MENNUCCI_15360-000", "LMAPS": "https://www.google.com/maps?q=&layer=c&cbll=-50.9309187,-20.6889768", "O_QUE_FAZER": "FINALIZADO", "ER_REGIAO_CIDADE_min": "Sud Mennucci_Sud Mennucci_Araçatuba" }, "geometry": { "type": "Point", "coordinates": [ -50.9309187, -20.6889768 ] } },
{ "type": "Feature", "properties": { "CNPJ": "33956917000113", "IDCIDADE": "SUD_MENNUCCI", "NOMEFANTASIA": "33.956.917_RAMON_SOSSOLOTI_SANCHES", "RAZAOSOCIAL": "PADARIA_DO_CARLAO", "ENDEE": "AVENIDA_PIONEIROS217__SUD_MENNUCCI_15360-000", "LMAPS": "https://www.google.com/maps?q=&layer=c&cbll=-50.9307181,-20.6890101", "O_QUE_FAZER": "FINALIZADO", "ER_REGIAO_CIDADE_min": "Sud Mennucci_Sud Mennucci_Araçatuba" }, "geometry": { "type": "Point", "coordinates": [ -50.9307181, -20.6890101 ] } },
{ "type": "Feature", "properties": { "CNPJ": "51761760000152", "IDCIDADE": "SUD_MENNUCCI", "NOMEFANTASIA": "51.761.760_HELOISA_GONCALVES_DA_SILVA", "RAZAOSOCIAL": "HELO_DELIVERY", "ENDEE": "AVENIDA_PIONEIROS237__SUD_MENNUCCI_15360-000", "LMAPS": "https://www.google.com/maps?q=&layer=c&cbll=-50.9304979,-20.6890391", "O_QUE_FAZER": "FINALIZADO", "ER_REGIAO_CIDADE_min": "Sud Mennucci_Sud Mennucci_Araçatuba" }, "geometry": { "type": "Point", "coordinates": [ -50.9304979, -20.6890391 ] } },
{ "type": "Feature", "properties": { "CNPJ": "34973702000173", "IDCIDADE": "SUD_MENNUCCI", "NOMEFANTASIA": "ZANATTA_SUPERMERCADO_LTDA", "RAZAOSOCIAL": "SUPERMERCADO_ZANATTA", "ENDEE": "AVENIDA_PIONEIROS247__JARDIM__PAULISTA_15360-000", "LMAPS": "https://www.google.com/maps?q=&layer=c&cbll=-50.9277444,-20.6894793", "O_QUE_FAZER": "FINALIZADO", "ER_REGIAO_CIDADE_min": "Sud Mennucci_Sud Mennucci_Araçatuba" }, "geometry": { "type": "Point", "coordinates": [ -50.9277444, -20.6894793 ] } },
{ "type": "Feature", "properties": { "CNPJ": "40356234000190", "IDCIDADE": "SUD_MENNUCCI", "NOMEFANTASIA": "ROSILENE_ROSA_FERREIRA", "RAZAOSOCIAL": "PADARIA_DA_ROSE", "ENDEE": "AVENIDA_PIONEIROS300__SUD_MENNUCCI_15360-000", "LMAPS": "https://www.google.com/maps?q=&layer=c&cbll=-50.9299241,-20.6894121", "O_QUE_FAZER": "FINALIZADO", "ER_REGIAO_CIDADE_min": "Sud Mennucci_Sud Mennucci_Araçatuba" }, "geometry": { "type": "Point", "coordinates": [ -50.9299241, -20.6894121 ] } },
{ "type": "Feature", "properties": { "CNPJ": "57822646000171", "IDCIDADE": "SUD_MENNUCCI", "NOMEFANTASIA": "57.822.646_LUIS_HENRIQUE_SANTOS_DE_OLIVEIRA", "RAZAOSOCIAL": "THE_BRUTES", "ENDEE": "AVENIDA_PIONEIROS435__CENTRO_15360-000", "LMAPS": "https://www.google.com/maps?q=&layer=c&cbll=-50.9251139,-20.6900323", "O_QUE_FAZER": "FINALIZADO", "ER_REGIAO_CIDADE_min": "Sud Mennucci_Sud Mennucci_Araçatuba" }, "geometry": { "type": "Point", "coordinates": [ -50.9251139, -20.6900323 ] } },
{ "type": "Feature", "properties": { "CNPJ": "17526927000162", "IDCIDADE": "SUD_MENNUCCI", "NOMEFANTASIA": "SIMONE_CARDOSO_DI_CONDI_29777053843", "RAZAOSOCIAL": "QUALITY_HA8R", "ENDEE": "AVENIDA_PIONEIROS435__SUD_MENNUCCI_15360-000", "LMAPS": "https://www.google.com/maps?q=&layer=c&cbll=-50.9251139,-20.6900323", "O_QUE_FAZER": "FINALIZADO", "ER_REGIAO_CIDADE_min": "Sud Mennucci_Sud Mennucci_Araçatuba" }, "geometry": { "type": "Point", "coordinates": [ -50.9251139, -20.6900323 ] } },
{ "type": "Feature", "properties": { "CNPJ": "33145235000120", "IDCIDADE": "SUD_MENNUCCI", "NOMEFANTASIA": "33.145.235_ANDERSON_RICARDO_DOTTA", "RAZAOSOCIAL": "STAR_CELL", "ENDEE": "AVENIDA_PIONEIROS461__SUD_MENNUCCI_15360-000", "LMAPS": "https://www.google.com/maps?q=&layer=c&cbll=-50.9280028,-20.6894999", "O_QUE_FAZER": "FINALIZADO", "ER_REGIAO_CIDADE_min": "Sud Mennucci_Sud Mennucci_Araçatuba" }, "geometry": { "type": "Point", "coordinates": [ -50.9280028, -20.6894999 ] } },
{ "type": "Feature", "properties": { "CNPJ": "32956199000112", "IDCIDADE": "SUD_MENNUCCI", "NOMEFANTASIA": "SILVANA_DA_SILVA_ZACARIAS_07853253877", "RAZAOSOCIAL": "BAR_DA_DONA_MELANIA", "ENDEE": "AVENIDA_PIONEIROS529__SUD_MENNUCCI_15360-000", "LMAPS": "https://www.google.com/maps?q=&layer=c&cbll=-50.9275484,-20.6896272", "O_QUE_FAZER": "FINALIZADO", "ER_REGIAO_CIDADE_min": "Sud Mennucci_Sud Mennucci_Araçatuba" }, "geometry": { "type": "Point", "coordinates": [ -50.9275484, -20.6896272 ] } },
{ "type": "Feature", "properties": { "CNPJ": "05372004000114", "IDCIDADE": "SUD_MENNUCCI", "NOMEFANTASIA": "JOSE_RICARDO_SOLFA_LTDA", "RAZAOSOCIAL": "AGRO_PECUARIA_SAN_JUAN", "ENDEE": "AVENIDA_PIONEIROS535__SUD_MENNUCCI_15360-000", "LMAPS": "https://www.google.com/maps?q=&layer=c&cbll=-50.924084,-20.690339", "O_QUE_FAZER": "FINALIZADO", "ER_REGIAO_CIDADE_min": "Sud Mennucci_Sud Mennucci_Araçatuba" }, "geometry": { "type": "Point", "coordinates": [ -50.924084, -20.690339 ] } },
{ "type": "Feature", "properties": { "CNPJ": "10683419000149", "IDCIDADE": "SUD_MENNUCCI", "NOMEFANTASIA": "RODRIGO_VENANCIO_DE_CARVALHO", "RAZAOSOCIAL": "SORVETEIRA_CRISTLAL", "ENDEE": "AVENIDA_PIONEIROS585__SUD_MENNUCCI_15360-000", "LMAPS": "https://www.google.com/maps?q=&layer=c&cbll=-50.9270677,-20.6896983", "O_QUE_FAZER": "FINALIZADO", "ER_REGIAO_CIDADE_min": "Sud Mennucci_Sud Mennucci_Araçatuba" }, "geometry": { "type": "Point", "coordinates": [ -50.9270677, -20.6896983 ] } },
{ "type": "Feature", "properties": { "CNPJ": "37406765000136", "IDCIDADE": "SUD_MENNUCCI", "NOMEFANTASIA": "37.406.765_DINALVA_SANTA_BARBOSA", "RAZAOSOCIAL": "HOUSE_GASTRO_BAR", "ENDEE": "AVENIDA_PIONEIROS613__SUD_MENNUCCI_15360-000", "LMAPS": "https://www.google.com/maps?q=&layer=c&cbll=-50.926822,-20.689759", "O_QUE_FAZER": "FINALIZADO", "ER_REGIAO_CIDADE_min": "Sud Mennucci_Sud Mennucci_Araçatuba" }, "geometry": { "type": "Point", "coordinates": [ -50.926822, -20.689759 ] } },
{ "type": "Feature", "properties": { "CNPJ": "30253752000125", "IDCIDADE": "SUD_MENNUCCI", "NOMEFANTASIA": "D._M._BONFIM", "RAZAOSOCIAL": "CONSTRUMAIS", "ENDEE": "AVENIDA_PIONEIROS622__CENTRO_15360-000", "LMAPS": "https://www.google.com/maps?q=&layer=c&cbll=-50.9268507,-20.6900431", "O_QUE_FAZER": "FINALIZADO", "ER_REGIAO_CIDADE_min": "Sud Mennucci_Sud Mennucci_Araçatuba" }, "geometry": { "type": "Point", "coordinates": [ -50.9268507, -20.6900431 ] } },
{ "type": "Feature", "properties": { "CNPJ": "51185231000158", "IDCIDADE": "SUD_MENNUCCI", "NOMEFANTASIA": "DROGARIA_VOLTOLINI_LTDA", "RAZAOSOCIAL": "DROGARIA_VOLTOLINI", "ENDEE": "AVENIDA_PIONEIROS646__SUD_MENNUCCI_15360-000", "LMAPS": "https://www.google.com/maps?q=&layer=c&cbll=-50.9266468,-20.6900523", "O_QUE_FAZER": "FINALIZADO", "ER_REGIAO_CIDADE_min": "Sud Mennucci_Sud Mennucci_Araçatuba" }, "geometry": { "type": "Point", "coordinates": [ -50.9266468, -20.6900523 ] } },
{ "type": "Feature", "properties": { "CNPJ": "28840042000150", "IDCIDADE": "SUD_MENNUCCI", "NOMEFANTASIA": "28.840.042_ROSELI_MARCIANO_ROSA", "RAZAOSOCIAL": "ROSELI_MARCIANO", "ENDEE": "AVENIDA_PIONEIROS672__CENTRO_15360-000", "LMAPS": "https://www.google.com/maps?q=&layer=c&cbll=-50.9263404,-20.6900923", "O_QUE_FAZER": "FINALIZADO", "ER_REGIAO_CIDADE_min": "Sud Mennucci_Sud Mennucci_Araçatuba" }, "geometry": { "type": "Point", "coordinates": [ -50.9263404, -20.6900923 ] } },
{ "type": "Feature", "properties": { "CNPJ": "12998700000104", "IDCIDADE": "SUD_MENNUCCI", "NOMEFANTASIA": "EMERSON_PINHEIRO_DE_ANDRADE_03674352680", "RAZAOSOCIAL": "PONTO_X", "ENDEE": "AVENIDA_PIONEIROS682__CENTRO_15360-000", "LMAPS": "https://www.google.com/maps?q=&layer=c&cbll=-50.9262237,-20.690075", "O_QUE_FAZER": "FINALIZADO", "ER_REGIAO_CIDADE_min": "Sud Mennucci_Sud Mennucci_Araçatuba" }, "geometry": { "type": "Point", "coordinates": [ -50.9262237, -20.690075 ] } },
{ "type": "Feature", "properties": { "CNPJ": "59301202000116", "IDCIDADE": "SUD_MENNUCCI", "NOMEFANTASIA": "ELISA_ELIAS_PINA_DE_SOUZA_LTDA", "RAZAOSOCIAL": "CASA_DO_PESCADOR", "ENDEE": "AVENIDA_PIONEIROS7017__CENTRO_15360-000", "LMAPS": "https://www.google.com/maps?q=&layer=c&cbll=-50.9235748,-20.6904379", "O_QUE_FAZER": "FINALIZADO", "ER_REGIAO_CIDADE_min": "Sud Mennucci_Sud Mennucci_Araçatuba" }, "geometry": { "type": "Point", "coordinates": [ -50.9235748, -20.6904379 ] } },
{ "type": "Feature", "properties": { "CNPJ": "58305576000147", "IDCIDADE": "SUD_MENNUCCI", "NOMEFANTASIA": "HEYTOR_NUNES_COMERCIO_DE_CARNES_LTDA", "RAZAOSOCIAL": "HILLARIO'S", "ENDEE": "AVENIDA_PIONEIROS708__SUD_MENNUCCI_15360-000", "LMAPS": "https://www.google.com/maps?q=&layer=c&cbll=-50.9259335,-20.6901772", "O_QUE_FAZER": "FINALIZADO", "ER_REGIAO_CIDADE_min": "Sud Mennucci_Sud Mennucci_Araçatuba" }, "geometry": { "type": "Point", "coordinates": [ -50.9259335, -20.6901772 ] } },
{ "type": "Feature", "properties": { "CNPJ": "04396432000114", "IDCIDADE": "SUD_MENNUCCI", "NOMEFANTASIA": "04.396.432_JOSE_MAURICIO_BORIM", "RAZAOSOCIAL": "O_REI_DO_1,99", "ENDEE": "AVENIDA_PIONEIROS709__SUD_MENNUCCI_15360-000", "LMAPS": "https://www.google.com/maps?q=&layer=c&cbll=-50.922607,-20.690561", "O_QUE_FAZER": "FINALIZADO", "ER_REGIAO_CIDADE_min": "Sud Mennucci_Sud Mennucci_Araçatuba" }, "geometry": { "type": "Point", "coordinates": [ -50.922607, -20.690561 ] } },
{ "type": "Feature", "properties": { "CNPJ": "43093989000138", "IDCIDADE": "SUD_MENNUCCI", "NOMEFANTASIA": "43.093.989_LUCAS_APARECIDO_RODRIGUES_DOS_SANTOS", "RAZAOSOCIAL": "BARBEARIA_DOM_LUCAS", "ENDEE": "AVENIDA_PIONEIROS714__SUD_MENNUCCI_15360-000", "LMAPS": "https://www.google.com/maps?q=&layer=c&cbll=-50.922531,-20.690834", "O_QUE_FAZER": "FINALIZADO", "ER_REGIAO_CIDADE_min": "Sud Mennucci_Sud Mennucci_Araçatuba" }, "geometry": { "type": "Point", "coordinates": [ -50.922531, -20.690834 ] } },
{ "type": "Feature", "properties": { "CNPJ": "28501939000159", "IDCIDADE": "SUD_MENNUCCI", "NOMEFANTASIA": "ANA_FLAVIA_RODRIGUES_LEITE_35223217829", "RAZAOSOCIAL": "BARUK", "ENDEE": "AVENIDA_PIONEIROS722__CENTRO_15360-000", "LMAPS": "https://www.google.com/maps?q=&layer=c&cbll=-50.922377,-20.690785", "O_QUE_FAZER": "FINALIZADO", "ER_REGIAO_CIDADE_min": "Sud Mennucci_Sud Mennucci_Araçatuba" }, "geometry": { "type": "Point", "coordinates": [ -50.922377, -20.690785 ] } },
{ "type": "Feature", "properties": { "CNPJ": "34951826000158", "IDCIDADE": "SUD_MENNUCCI", "NOMEFANTASIA": "LEANDRO_PANTALEAO_DA_SILVA_42047083826", "RAZAOSOCIAL": "CASA_DOS_BRINQUEDOS", "ENDEE": "AVENIDA_PIONEIROS728__CENTRO_15360-000", "LMAPS": "https://www.google.com/maps?q=&layer=c&cbll=-50.9224338,-20.6908681", "O_QUE_FAZER": "FINALIZADO", "ER_REGIAO_CIDADE_min": "Sud Mennucci_Sud Mennucci_Araçatuba" }, "geometry": { "type": "Point", "coordinates": [ -50.9224338, -20.6908681 ] } },
{ "type": "Feature", "properties": { "CNPJ": "41512452000130", "IDCIDADE": "SUD_MENNUCCI", "NOMEFANTASIA": "41.512.452_LUIZ_RICARDO_TAVARES_NOGUEIRA_DA_SILVA", "RAZAOSOCIAL": "BOLA_8_SALGADERIA", "ENDEE": "AVENIDA_PIONEIROS728__CENTRO_15360-000", "LMAPS": "https://www.google.com/maps?q=&layer=c&cbll=-50.9224338,-20.6908681", "O_QUE_FAZER": "FINALIZADO", "ER_REGIAO_CIDADE_min": "Sud Mennucci_Sud Mennucci_Araçatuba" }, "geometry": { "type": "Point", "coordinates": [ -50.9224338, -20.6908681 ] } },
{ "type": "Feature", "properties": { "CNPJ": "07017675000192", "IDCIDADE": "SUD_MENNUCCI", "NOMEFANTASIA": "07.017.675_NEUSA_BARBOSA_PANTALEAO_DA_SILVA", "RAZAOSOCIAL": "CONTIGO_MODAS", "ENDEE": "AVENIDA_PIONEIROS740__SUD_MENNUCCI_15360-000", "LMAPS": "https://www.google.com/maps?q=&layer=c&cbll=-50.9256899,-20.6902416", "O_QUE_FAZER": "FINALIZADO", "ER_REGIAO_CIDADE_min": "Sud Mennucci_Sud Mennucci_Araçatuba" }, "geometry": { "type": "Point", "coordinates": [ -50.9256899, -20.6902416 ] } },
{ "type": "Feature", "properties": { "CNPJ": "45103645000198", "IDCIDADE": "SUD_MENNUCCI", "NOMEFANTASIA": "ANTENOR_MARTINS_GARCIA", "RAZAOSOCIAL": "FUNERARIA_ORGANIZACAO_SOCIAL_DE_LUTO", "ENDEE": "AVENIDA_PIONEIROS746__CENTRO_15360-000", "LMAPS": "https://www.google.com/maps?q=&layer=c&cbll=-50.9255596,-20.6902088", "O_QUE_FAZER": "FINALIZADO", "ER_REGIAO_CIDADE_min": "Sud Mennucci_Sud Mennucci_Araçatuba" }, "geometry": { "type": "Point", "coordinates": [ -50.9255596, -20.6902088 ] } },
{ "type": "Feature", "properties": { "CNPJ": "40810023000186", "IDCIDADE": "SUD_MENNUCCI", "NOMEFANTASIA": "40.810.023_JANAINA_LIMA_FERREIRA", "RAZAOSOCIAL": "JANAINA_FERREIRA", "ENDEE": "AVENIDA_PIONEIROS751__CENTRO_15360-000", "LMAPS": "https://www.google.com/maps?q=&layer=c&cbll=-50.925475,-20.6899671", "O_QUE_FAZER": "FINALIZADO", "ER_REGIAO_CIDADE_min": "Sud Mennucci_Sud Mennucci_Araçatuba" }, "geometry": { "type": "Point", "coordinates": [ -50.925475, -20.6899671 ] } },
{ "type": "Feature", "properties": { "CNPJ": "31347308000131", "IDCIDADE": "SUD_MENNUCCI", "NOMEFANTASIA": "CLAUDIA_HELENA_MORAES_GUIMARAES_25343522882", "RAZAOSOCIAL": "SIMPLES_ASSIM", "ENDEE": "AVENIDA_PIONEIROS828__CENTRO_15360-000", "LMAPS": "https://www.google.com/maps?q=&layer=c&cbll=-50.9214569,-20.690964", "O_QUE_FAZER": "FINALIZADO", "ER_REGIAO_CIDADE_min": "Sud Mennucci_Sud Mennucci_Araçatuba" }, "geometry": { "type": "Point", "coordinates": [ -50.9214569, -20.690964 ] } },
{ "type": "Feature", "properties": { "CNPJ": "54362759000143", "IDCIDADE": "SUD_MENNUCCI", "NOMEFANTASIA": "54.362.759_ROBERTO_CARLOS_DE_MEDEIROS", "RAZAOSOCIAL": "SABOR_DA_ROCA", "ENDEE": "AVENIDA_PIONEIROS854__CENTRO_15360-000", "LMAPS": "https://www.google.com/maps?q=&layer=c&cbll=-50.9246213,-20.690455", "O_QUE_FAZER": "FINALIZADO", "ER_REGIAO_CIDADE_min": "Sud Mennucci_Sud Mennucci_Araçatuba" }, "geometry": { "type": "Point", "coordinates": [ -50.9246213, -20.690455 ] } },
{ "type": "Feature", "properties": { "CNPJ": "41037653000122", "IDCIDADE": "SUD_MENNUCCI", "NOMEFANTASIA": "FARMAFORTE_FARMACIA_LTDA", "RAZAOSOCIAL": "FARMA_FORTE", "ENDEE": "AVENIDA_PIONEIROS943__SUD_MENNUCCI_15360-000", "LMAPS": "https://www.google.com/maps?q=&layer=c&cbll=-50.9236358,-20.690287", "O_QUE_FAZER": "FINALIZADO", "ER_REGIAO_CIDADE_min": "Sud Mennucci_Sud Mennucci_Araçatuba" }, "geometry": { "type": "Point", "coordinates": [ -50.9236358, -20.690287 ] } },
{ "type": "Feature", "properties": { "CNPJ": "35393291000100", "IDCIDADE": "SUD_MENNUCCI", "NOMEFANTASIA": "IZAIAS_FRANCISCO_DA_CRUZ_55757375868", "RAZAOSOCIAL": "BAR_DO_ISAIAS", "ENDEE": "AVENIDA_PIONEIROS98__SUD_MENNUCCI_15360-000", "LMAPS": "https://www.google.com/maps?q=&layer=c&cbll=-50.9318588,-20.6889838", "O_QUE_FAZER": "FINALIZADO", "ER_REGIAO_CIDADE_min": "Sud Mennucci_Sud Mennucci_Araçatuba" }, "geometry": { "type": "Point", "coordinates": [ -50.9318588, -20.6889838 ] } },
{ "type": "Feature", "properties": { "CNPJ": "51988746000196", "IDCIDADE": "SUD_MENNUCCI", "NOMEFANTASIA": "51.988.746_GLEISE_JOSIANE_BONFIM_MARQUES", "RAZAOSOCIAL": "CONTAINER_CHOPP", "ENDEE": "AVENIDA_PROFESSOR_DR_LUIZ_FLAVIO_GOMES810__SUD_MENNUCCI_15360-000", "LMAPS": "https://www.google.com/maps?q=&layer=c&cbll=-50.9251092,-20.6931061", "O_QUE_FAZER": "FINALIZADO", "ER_REGIAO_CIDADE_min": "Sud Mennucci_Sud Mennucci_Araçatuba" }, "geometry": { "type": "Point", "coordinates": [ -50.9251092, -20.6931061 ] } },
{ "type": "Feature", "properties": { "CNPJ": "15128587000196", "IDCIDADE": "SUD_MENNUCCI", "NOMEFANTASIA": "L.A_SOLUCOES_TECNOLOGICAS_E_TELECOM_LTDA", "RAZAOSOCIAL": "LA_SOLUCOES_TECNOLOGICAS", "ENDEE": "AVENIDA_PROFESSOR_LU8S_FLAVIO_GNES536__SUD_MENNUCCI_15360-000", "LMAPS": "https://www.google.com/maps?q=&layer=c&cbll=-50.9235901,-20.6904621", "O_QUE_FAZER": "FINALIZADO", "ER_REGIAO_CIDADE_min": "Sud Mennucci_Sud Mennucci_Araçatuba" }, "geometry": { "type": "Point", "coordinates": [ -50.9235901, -20.6904621 ] } },
{ "type": "Feature", "properties": { "CNPJ": "07444884000112", "IDCIDADE": "SUD_MENNUCCI", "NOMEFANTASIA": "VALQUIRIA_CRISTINA_ZEQUINATO", "RAZAOSOCIAL": "BICICLERARIA_E_BORRACHARIA_MODEO", "ENDEE": "AVENIDA_PROFESSOR_LUIZ_FLAVIO_GOMES847__SUD_MENNUCCI_15360-000", "LMAPS": "https://www.google.com/maps?q=&layer=c&cbll=-50.9235901,-20.6904621", "O_QUE_FAZER": "FINALIZADO", "ER_REGIAO_CIDADE_min": "Sud Mennucci_Sud Mennucci_Araçatuba" }, "geometry": { "type": "Point", "coordinates": [ -50.9235901, -20.6904621 ] } },
{ "type": "Feature", "properties": { "CNPJ": "43681745000176", "IDCIDADE": "SUD_MENNUCCI", "NOMEFANTASIA": "GLAUCIA_ALVES_DE_FREITAS_CONDE", "RAZAOSOCIAL": "GF", "ENDEE": "AVENIDA_SAO_PAULO583__CENTRO_15360-000", "LMAPS": "https://www.google.com/maps?q=&layer=c&cbll=-50.9230658,-20.6857069", "O_QUE_FAZER": "FINALIZADO", "ER_REGIAO_CIDADE_min": "Sud Mennucci_Sud Mennucci_Araçatuba" }, "geometry": { "type": "Point", "coordinates": [ -50.9230658, -20.6857069 ] } },
{ "type": "Feature", "properties": { "CNPJ": "59809719000110", "IDCIDADE": "SUD_MENNUCCI", "NOMEFANTASIA": "59.809.719_MARCUS_FELIPE_DE_CONDE_GARCIA", "RAZAOSOCIAL": "CONDE_ESTETICA_AUTOMOTIVO", "ENDEE": "CLAUDO_CLAUDO_LUIS_DE_CASTILHO477__SUD_MENNUCCI_15360-000", "LMAPS": "https://www.google.com/maps?q=&layer=c&cbll=-50.9247209,-20.6904259", "O_QUE_FAZER": "FINALIZADO", "ER_REGIAO_CIDADE_min": "Sud Mennucci_Sud Mennucci_Araçatuba" }, "geometry": { "type": "Point", "coordinates": [ -50.9247209, -20.6904259 ] } },
{ "type": "Feature", "properties": { "CNPJ": "48397572000182", "IDCIDADE": "SUD_MENNUCCI", "NOMEFANTASIA": "BRUNO_FERREIRA_DOS_SANTOS_BARRETO_45826493860", "RAZAOSOCIAL": "LAVA_MILL", "ENDEE": "JOAQUIM_JOAQUIM_CUSTODIO_PACCA777__SUD_MENNUCCI_15360-000", "LMAPS": "https://www.google.com/maps?q=&layer=c&cbll=-50.9188642,-20.6889679", "O_QUE_FAZER": "FINALIZADO", "ER_REGIAO_CIDADE_min": "Sud Mennucci_Sud Mennucci_Araçatuba" }, "geometry": { "type": "Point", "coordinates": [ -50.9188642, -20.6889679 ] } },
{ "type": "Feature", "properties": { "CNPJ": "14631476000135", "IDCIDADE": "SUD_MENNUCCI", "NOMEFANTASIA": "EDNA_APARECIDA_DOS_SANTOS_SOUZA_04482046817", "RAZAOSOCIAL": "SALAO_DA_EDNA", "ENDEE": "LAZARO_LAZARO_BENTO_DE_SOUZA624__PLANALTO_15360-000", "LMAPS": "https://www.google.com/maps?q=&layer=c&cbll=-50.9235901,-20.6904621", "O_QUE_FAZER": "FINALIZADO", "ER_REGIAO_CIDADE_min": "Sud Mennucci_Sud Mennucci_Araçatuba" }, "geometry": { "type": "Point", "coordinates": [ -50.9235901, -20.6904621 ] } },
{ "type": "Feature", "properties": { "CNPJ": "51953240000141", "IDCIDADE": "SUD_MENNUCCI", "NOMEFANTASIA": "51.953.240_JOSE_CARLOS_DIAS_JUNIOR", "RAZAOSOCIAL": "ARENA_BEACH_TENIS", "ENDEE": "RODOVIA_CELSO_TORQUATO_JUNQUEIRA0__CENTRO_15360-000", "LMAPS": "https://www.google.com/maps?q=&layer=c&cbll=-50.9235901,-20.6904621", "O_QUE_FAZER": "FINALIZADO", "ER_REGIAO_CIDADE_min": "Sud Mennucci_Sud Mennucci_Araçatuba" }, "geometry": { "type": "Point", "coordinates": [ -50.9235901, -20.6904621 ] } },
{ "type": "Feature", "properties": { "CNPJ": "48715322000143", "IDCIDADE": "SUD_MENNUCCI", "NOMEFANTASIA": "FERNANDO_PAYA_TOMINAGA_30766686841", "RAZAOSOCIAL": "ESTETICA_AUTOMOTIVA_FERNANDO_TANAKA", "ENDEE": "RUA_ANGELIM_GITTI191__SUD_MENNUCCI_15360-000", "LMAPS": "https://www.google.com/maps?q=&layer=c&cbll=-50.9235901,-20.6904621", "O_QUE_FAZER": "FINALIZADO", "ER_REGIAO_CIDADE_min": "Sud Mennucci_Sud Mennucci_Araçatuba" }, "geometry": { "type": "Point", "coordinates": [ -50.9235901, -20.6904621 ] } },
{ "type": "Feature", "properties": { "CNPJ": "27127785000114", "IDCIDADE": "SUD_MENNUCCI", "NOMEFANTASIA": "27.127.785_SAMIRIS_FERREIRA_ANDRADE_LIMA", "RAZAOSOCIAL": "ESMALTERIA_SAMIRA_ANDRADES", "ENDEE": "RUA_ANTONIO_RAGONHA238__SUD_MENNUCCI_15360-000", "LMAPS": "https://www.google.com/maps?q=&layer=c&cbll=-50.9272241,-20.691717", "O_QUE_FAZER": "FINALIZADO", "ER_REGIAO_CIDADE_min": "Sud Mennucci_Sud Mennucci_Araçatuba" }, "geometry": { "type": "Point", "coordinates": [ -50.9272241, -20.691717 ] } },
{ "type": "Feature", "properties": { "CNPJ": "48545742000129", "IDCIDADE": "SUD_MENNUCCI", "NOMEFANTASIA": "ANTONIO_CARLOS_DE_OLIVEIRA_06166975899", "RAZAOSOCIAL": "BAR_E_MERCEARIA_BOM_SUCESSO", "ENDEE": "RUA_ANTONIO_RIBEIRO_DE_ALMEIDA360__JARDIM_VICTOR_PAYA_BELDA_15360-000", "LMAPS": "https://www.google.com/maps?q=&layer=c&cbll=-50.935032,-20.689468", "O_QUE_FAZER": "FINALIZADO", "ER_REGIAO_CIDADE_min": "Sud Mennucci_Sud Mennucci_Araçatuba" }, "geometry": { "type": "Point", "coordinates": [ -50.935032, -20.689468 ] } },
{ "type": "Feature", "properties": { "CNPJ": "14707552000149", "IDCIDADE": "SUD_MENNUCCI", "NOMEFANTASIA": "ANDERSON_HAYUB_MARQUES_26337211847", "RAZAOSOCIAL": "DICAS_PIZZA", "ENDEE": "RUA_APARECIDA_GORRETI_MARQUES1177__SUD_MENNUCCI_15360-000", "LMAPS": "https://www.google.com/maps?q=&layer=c&cbll=-50.9186961,-20.6922853", "O_QUE_FAZER": "FINALIZADO", "ER_REGIAO_CIDADE_min": "Sud Mennucci_Sud Mennucci_Araçatuba" }, "geometry": { "type": "Point", "coordinates": [ -50.9186961, -20.6922853 ] } },
{ "type": "Feature", "properties": { "CNPJ": "33649169000126", "IDCIDADE": "SUD_MENNUCCI", "NOMEFANTASIA": "33.649.169_ANDRE_LENNON_SANTOS_LIMA", "RAZAOSOCIAL": "ALUMINIO_BRASIL", "ENDEE": "RUA_AUGUSTINHO_ALEGRE_CHIC681__SUD_MENNUCCI_15360-000", "LMAPS": "https://www.google.com/maps?q=&layer=c&cbll=-50.9205111,-20.6892168", "O_QUE_FAZER": "FINALIZADO", "ER_REGIAO_CIDADE_min": "Sud Mennucci_Sud Mennucci_Araçatuba" }, "geometry": { "type": "Point", "coordinates": [ -50.9205111, -20.6892168 ] } },
{ "type": "Feature", "properties": { "CNPJ": "37141602000179", "IDCIDADE": "SUD_MENNUCCI", "NOMEFANTASIA": "VALTER_FERNANDES_ROCHA_02826943820", "RAZAOSOCIAL": "BAR_DO_VALTAO", "ENDEE": "RUA_AUGUSTINHO_ALEGRE_CHIC689__SUD_MENNUCCI_15360-000", "LMAPS": "https://www.google.com/maps?q=&layer=c&cbll=-50.920331,-20.689215", "O_QUE_FAZER": "FINALIZADO", "ER_REGIAO_CIDADE_min": "Sud Mennucci_Sud Mennucci_Araçatuba" }, "geometry": { "type": "Point", "coordinates": [ -50.920331, -20.689215 ] } },
{ "type": "Feature", "properties": { "CNPJ": "21511978000198", "IDCIDADE": "SUD_MENNUCCI", "NOMEFANTASIA": "21.511.978_TATIANE_GARZARO_VALVERDE", "RAZAOSOCIAL": "REQUINTE_PERSONALIZADOS", "ENDEE": "RUA_BENEDITO_FERREIRA_DOS_SANTOS160__SUD_MENNUCCI_15360-000", "LMAPS": "https://www.google.com/maps?q=&layer=c&cbll=-50.918688,-20.684853", "O_QUE_FAZER": "FINALIZADO", "ER_REGIAO_CIDADE_min": "Sud Mennucci_Sud Mennucci_Araçatuba" }, "geometry": { "type": "Point", "coordinates": [ -50.918688, -20.684853 ] } },
{ "type": "Feature", "properties": { "CNPJ": "19629458000132", "IDCIDADE": "SUD_MENNUCCI", "NOMEFANTASIA": "LETICIA_RODRIGUES_MARTELO_38135212810", "RAZAOSOCIAL": "BAR_DOS_AMIGOS", "ENDEE": "RUA_BENEDITO_RODRIGUES172__SUD_MENNUCCI_15360-000", "LMAPS": "https://www.google.com/maps?q=&layer=c&cbll=-50.9194258,-20.6876281", "O_QUE_FAZER": "FINALIZADO", "ER_REGIAO_CIDADE_min": "Sud Mennucci_Sud Mennucci_Araçatuba" }, "geometry": { "type": "Point", "coordinates": [ -50.9194258, -20.6876281 ] } },
{ "type": "Feature", "properties": { "CNPJ": "37879561000112", "IDCIDADE": "SUD_MENNUCCI", "NOMEFANTASIA": "INALDES_BARBOSA_DA_SILVA_52088154515", "RAZAOSOCIAL": "LG_MODAS", "ENDEE": "RUA_BENEDITO_RODRIGUES240__CENTRO_15360-000", "LMAPS": "https://www.google.com/maps?q=&layer=c&cbll=-50.9189303,-20.6869379", "O_QUE_FAZER": "FINALIZADO", "ER_REGIAO_CIDADE_min": "Sud Mennucci_Sud Mennucci_Araçatuba" }, "geometry": { "type": "Point", "coordinates": [ -50.9189303, -20.6869379 ] } },
{ "type": "Feature", "properties": { "CNPJ": "08159033000190", "IDCIDADE": "SUD_MENNUCCI", "NOMEFANTASIA": "08.159.033_MARTA_NELY_DOS_SANTOS", "RAZAOSOCIAL": "MERCEARIA_BRASILIA", "ENDEE": "RUA_BENEDITO_RODRIGUES798__SUD_MENNUCCI_15360-000", "LMAPS": "https://www.google.com/maps?q=&layer=c&cbll=-50.9189111,-20.6869202", "O_QUE_FAZER": "FINALIZADO", "ER_REGIAO_CIDADE_min": "Sud Mennucci_Sud Mennucci_Araçatuba" }, "geometry": { "type": "Point", "coordinates": [ -50.9189111, -20.6869202 ] } },
{ "type": "Feature", "properties": { "CNPJ": "57842051000188", "IDCIDADE": "SUD_MENNUCCI", "NOMEFANTASIA": "57.842.051_ANDRESS_ALVES_DOS_SANTOS", "RAZAOSOCIAL": "JS_SOM", "ENDEE": "RUA_CARLOS_ALEGRE_FERREIRA350__SUD_MENNUCCI_15360-000", "LMAPS": "https://www.google.com/maps?q=&layer=c&cbll=-50.9225083,-20.6890506", "O_QUE_FAZER": "FINALIZADO", "ER_REGIAO_CIDADE_min": "Sud Mennucci_Sud Mennucci_Araçatuba" }, "geometry": { "type": "Point", "coordinates": [ -50.9225083, -20.6890506 ] } },
{ "type": "Feature", "properties": { "CNPJ": "34254669000121", "IDCIDADE": "SUD_MENNUCCI", "NOMEFANTASIA": "ADEMIR_DOMINGUES_DE_JESUS_07852203809", "RAZAOSOCIAL": "SAFIRA_MODAS", "ENDEE": "RUA_CARLOS_ALEGRE_FERREIRA462__SUD_MENNUCCI_15360-000", "LMAPS": "https://www.google.com/maps?q=&layer=c&cbll=-50.9227482,-20.6903164", "O_QUE_FAZER": "FINALIZADO", "ER_REGIAO_CIDADE_min": "Sud Mennucci_Sud Mennucci_Araçatuba" }, "geometry": { "type": "Point", "coordinates": [ -50.9227482, -20.6903164 ] } },
{ "type": "Feature", "properties": { "CNPJ": "13309477000103", "IDCIDADE": "SUD_MENNUCCI", "NOMEFANTASIA": "VALDEVINO_DE_SOUZA_29583553816", "RAZAOSOCIAL": "METRALHA_SOM", "ENDEE": "RUA_CARLOS_ALEGRE_FERREIRA560__SUD_MENNUCCI_15360-000", "LMAPS": "https://www.google.com/maps?q=&layer=c&cbll=-50.9229708,-20.6910799", "O_QUE_FAZER": "FINALIZADO", "ER_REGIAO_CIDADE_min": "Sud Mennucci_Sud Mennucci_Araçatuba" }, "geometry": { "type": "Point", "coordinates": [ -50.9229708, -20.6910799 ] } },
{ "type": "Feature", "properties": { "CNPJ": "50616599000160", "IDCIDADE": "SUD_MENNUCCI", "NOMEFANTASIA": "50.616.599_MARIA_CAROLINI_DE_ALMEIDA_SANTOS", "RAZAOSOCIAL": "MARIA_CAROLINE", "ENDEE": "RUA_CARLOS_ALEGRE_FERREIRA570__SUD_MENNUCCI_15360-000", "LMAPS": "https://www.google.com/maps?q=&layer=c&cbll=-50.9229926,-20.6911725", "O_QUE_FAZER": "FINALIZADO", "ER_REGIAO_CIDADE_min": "Sud Mennucci_Sud Mennucci_Araçatuba" }, "geometry": { "type": "Point", "coordinates": [ -50.9229926, -20.6911725 ] } },
{ "type": "Feature", "properties": { "CNPJ": "67479667000190", "IDCIDADE": "SUD_MENNUCCI", "NOMEFANTASIA": "DONIZETE_RODRIGUES_DOS_SANTOS", "RAZAOSOCIAL": "AGRO_TOP", "ENDEE": "RUA_CARLOS_ALEGRE_FERREIRA686__CENTRO_15360-000", "LMAPS": "https://www.google.com/maps?q=&layer=c&cbll=-50.9232699,-20.6923354", "O_QUE_FAZER": "FINALIZADO", "ER_REGIAO_CIDADE_min": "Sud Mennucci_Sud Mennucci_Araçatuba" }, "geometry": { "type": "Point", "coordinates": [ -50.9232699, -20.6923354 ] } },
{ "type": "Feature", "properties": { "CNPJ": "50216601000104", "IDCIDADE": "SUD_MENNUCCI", "NOMEFANTASIA": "50.216.601_MARIA_JOSE_MARINHO_DE_MELO", "RAZAOSOCIAL": "SUPREMA_RESOLVE", "ENDEE": "RUA_CICERO_CASTILHO_CUNHA367__SUD_MENNUCCI_15360-000", "LMAPS": "https://www.google.com/maps?q=&layer=c&cbll=-50.925804,-20.6908679", "O_QUE_FAZER": "FINALIZADO", "ER_REGIAO_CIDADE_min": "Sud Mennucci_Sud Mennucci_Araçatuba" }, "geometry": { "type": "Point", "coordinates": [ -50.925804, -20.6908679 ] } },
{ "type": "Feature", "properties": { "CNPJ": "02313715000120", "IDCIDADE": "SUD_MENNUCCI", "NOMEFANTASIA": "NEIDE_GONCALVES_DE_OLIVEIRA_ROUPAS", "RAZAOSOCIAL": "RUA_GRIFE_MODAS", "ENDEE": "RUA_CICERO_CASTILHO_CUNHA518__SUD_MENNUCCI_15360-000", "LMAPS": "https://www.google.com/maps?q=&layer=c&cbll=-50.9230272,-20.6913026", "O_QUE_FAZER": "FINALIZADO", "ER_REGIAO_CIDADE_min": "Sud Mennucci_Sud Mennucci_Araçatuba" }, "geometry": { "type": "Point", "coordinates": [ -50.9230272, -20.6913026 ] } },
{ "type": "Feature", "properties": { "CNPJ": "51594405000136", "IDCIDADE": "SUD_MENNUCCI", "NOMEFANTASIA": "51.594.405_LETICIA_VITORIA_ALVES", "RAZAOSOCIAL": "X_OUTLET", "ENDEE": "RUA_CICERO_CASTILHO_CUNHA564__SUD_MENNUCCI_15360-000", "LMAPS": "https://www.google.com/maps?q=&layer=c&cbll=-50.9224632,-20.6917567", "O_QUE_FAZER": "FINALIZADO", "ER_REGIAO_CIDADE_min": "Sud Mennucci_Sud Mennucci_Araçatuba" }, "geometry": { "type": "Point", "coordinates": [ -50.9224632, -20.6917567 ] } },
{ "type": "Feature", "properties": { "CNPJ": "27159713000159", "IDCIDADE": "SUD_MENNUCCI", "NOMEFANTASIA": "27.159.713_NEUSA_HANSEN_PEREIRA", "RAZAOSOCIAL": "HAMBURGAO_LANCHES", "ENDEE": "RUA_CLAUDIO_LUIS_DE_CASTILHO0__SUD_MENNUCCI_15360-000", "LMAPS": "https://www.google.com/maps?q=&layer=c&cbll=-50.9235886,-20.686416", "O_QUE_FAZER": "FINALIZADO", "ER_REGIAO_CIDADE_min": "Sud Mennucci_Sud Mennucci_Araçatuba" }, "geometry": { "type": "Point", "coordinates": [ -50.9235886, -20.686416 ] } },
{ "type": "Feature", "properties": { "CNPJ": "31469507000112", "IDCIDADE": "SUD_MENNUCCI", "NOMEFANTASIA": "LIDIANE_ROSA_DA_SILVA_29855941896", "RAZAOSOCIAL": "PASEL_DA_LIDI", "ENDEE": "RUA_CLAUDIO_LUIS_DE_CASTILHO0__SUD_MENNUCCI_15360-000", "LMAPS": "https://www.google.com/maps?q=&layer=c&cbll=-50.9235886,-20.686416", "O_QUE_FAZER": "FINALIZADO", "ER_REGIAO_CIDADE_min": "Sud Mennucci_Sud Mennucci_Araçatuba" }, "geometry": { "type": "Point", "coordinates": [ -50.9235886, -20.686416 ] } },
{ "type": "Feature", "properties": { "CNPJ": "48242019000170", "IDCIDADE": "SUD_MENNUCCI", "NOMEFANTASIA": "48.242.019_NELI_RAFAEL_DA_SILVA", "RAZAOSOCIAL": "DUDA_LANCHES", "ENDEE": "RUA_CLAUDIO_LUIS_DE_CASTILHO465__SUD_MENNUCCI_15360-000", "LMAPS": "https://www.google.com/maps?q=&layer=c&cbll=-50.9244786,-20.6907465", "O_QUE_FAZER": "FINALIZADO", "ER_REGIAO_CIDADE_min": "Sud Mennucci_Sud Mennucci_Araçatuba" }, "geometry": { "type": "Point", "coordinates": [ -50.9244786, -20.6907465 ] } },
{ "type": "Feature", "properties": { "CNPJ": "41334245000132", "IDCIDADE": "SUD_MENNUCCI", "NOMEFANTASIA": "STELA_CRISTINA_DE_LISBOA_36696248803", "RAZAOSOCIAL": "RESTAURANTE_TEMPERO_CASEIRO", "ENDEE": "RUA_CLAUDIO_LUIS_DE_CASTILHO554__SUD_MENNUCCI_15360-000", "LMAPS": "https://www.google.com/maps?q=&layer=c&cbll=-50.9249161,-20.6915344", "O_QUE_FAZER": "FINALIZADO", "ER_REGIAO_CIDADE_min": "Sud Mennucci_Sud Mennucci_Araçatuba" }, "geometry": { "type": "Point", "coordinates": [ -50.9249161, -20.6915344 ] } },
{ "type": "Feature", "properties": { "CNPJ": "49250411000124", "IDCIDADE": "SUD_MENNUCCI", "NOMEFANTASIA": "49.250.411_MARILZA_YUKIKO_OSEDO", "RAZAOSOCIAL": "_ICHIBAN_STUDIO", "ENDEE": "RUA_CLAUDIO_LUIZ_DE_CASRILHO632__SUD_MENNUCCI_15360-000", "LMAPS": "https://www.google.com/maps?q=&layer=c&cbll=-50.9250834,-20.6922042", "O_QUE_FAZER": "FINALIZADO", "ER_REGIAO_CIDADE_min": "Sud Mennucci_Sud Mennucci_Araçatuba" }, "geometry": { "type": "Point", "coordinates": [ -50.9250834, -20.6922042 ] } },
{ "type": "Feature", "properties": { "CNPJ": "56264979000160", "IDCIDADE": "SUD_MENNUCCI", "NOMEFANTASIA": "56.264.979_ELAINE_PEREIRA", "RAZAOSOCIAL": "ELAINE_AUTO_MECANICA", "ENDEE": "RUA_CLAUDIO_LUIZ_DE_CASRILHO733__SUD_MENNUCCI_15360-000", "LMAPS": "https://www.google.com/maps?q=&layer=c&cbll=-50.9247641,-20.6923102", "O_QUE_FAZER": "FINALIZADO", "ER_REGIAO_CIDADE_min": "Sud Mennucci_Sud Mennucci_Araçatuba" }, "geometry": { "type": "Point", "coordinates": [ -50.9247641, -20.6923102 ] } },
{ "type": "Feature", "properties": { "CNPJ": "13457326000194", "IDCIDADE": "SUD_MENNUCCI", "NOMEFANTASIA": "ERIKA_ALVES_DE_SOUZA_32907158848", "RAZAOSOCIAL": "BEM_ME_QUER", "ENDEE": "RUA_CLEMENCIA_MARIA_DE_JESUS136__SUD_MENNUCCI_15360-000", "LMAPS": "https://www.google.com/maps?q=&layer=c&cbll=-50.931168,-20.687601", "O_QUE_FAZER": "FINALIZADO", "ER_REGIAO_CIDADE_min": "Sud Mennucci_Sud Mennucci_Araçatuba" }, "geometry": { "type": "Point", "coordinates": [ -50.931168, -20.687601 ] } },
{ "type": "Feature", "properties": { "CNPJ": "05841444000173", "IDCIDADE": "SUD_MENNUCCI", "NOMEFANTASIA": "SUELY_SILVA_DA_CRUZ_BAR", "RAZAOSOCIAL": "BAR_SERTANEJO", "ENDEE": "RUA_CONCORDIA1015__SUD_MENNUCCI_15360-000", "LMAPS": "https://www.google.com/maps?q=&layer=c&cbll=-50.919038,-20.687402", "O_QUE_FAZER": "FINALIZADO", "ER_REGIAO_CIDADE_min": "Sud Mennucci_Sud Mennucci_Araçatuba" }, "geometry": { "type": "Point", "coordinates": [ -50.919038, -20.687402 ] } },
{ "type": "Feature", "properties": { "CNPJ": "28451082000100", "IDCIDADE": "SUD_MENNUCCI", "NOMEFANTASIA": "28.451.082_EDILBERTO_FERNANDES_DE_OLIVEIRA", "RAZAOSOCIAL": "BAIANO_BARBEARIA", "ENDEE": "RUA_CRISTINO_JOSE_CARDOSO125__SUD_MENNUCCI_15360-000", "LMAPS": "https://www.google.com/maps?q=&layer=c&cbll=-50.921742,-20.6913034", "O_QUE_FAZER": "FINALIZADO", "ER_REGIAO_CIDADE_min": "Sud Mennucci_Sud Mennucci_Araçatuba" }, "geometry": { "type": "Point", "coordinates": [ -50.921742, -20.6913034 ] } },
{ "type": "Feature", "properties": { "CNPJ": "44103697000100", "IDCIDADE": "SUD_MENNUCCI", "NOMEFANTASIA": "44.103.697_EDI_CARLOS_DE_CARVALHO", "RAZAOSOCIAL": "EDINHO_AUTO_MECANICA", "ENDEE": "RUA_CRISTINO_JOSE_CARDOSO175__SUD_MENNUCCI_15360-000", "LMAPS": "https://www.google.com/maps?q=&layer=c&cbll=-50.9226314,-20.6938241", "O_QUE_FAZER": "FINALIZADO", "ER_REGIAO_CIDADE_min": "Sud Mennucci_Sud Mennucci_Araçatuba" }, "geometry": { "type": "Point", "coordinates": [ -50.9226314, -20.6938241 ] } },
{ "type": "Feature", "properties": { "CNPJ": "05774695000182", "IDCIDADE": "SUD_MENNUCCI", "NOMEFANTASIA": "ADRIELE_DIANA_DA_SILVA_BORNELLI", "RAZAOSOCIAL": "DISTRIBUIDORA_BORNELLI", "ENDEE": "RUA_DOUTOR_LUIS_PEREIRA_BARRETO878__SUD_MENNUCCI_15360-000", "LMAPS": "https://www.google.com/maps?q=&layer=c&cbll=-50.9209559,-20.687559", "O_QUE_FAZER": "FINALIZADO", "ER_REGIAO_CIDADE_min": "Sud Mennucci_Sud Mennucci_Araçatuba" }, "geometry": { "type": "Point", "coordinates": [ -50.9209559, -20.687559 ] } },
{ "type": "Feature", "properties": { "CNPJ": "41626325000161", "IDCIDADE": "SUD_MENNUCCI", "NOMEFANTASIA": "RESTAURANTE_TEMPERO_DA_RAQUEL_LTDA", "RAZAOSOCIAL": "TEMPERO_DA_RAQUEL", "ENDEE": "RUA_DOUTOR_LUIZ_FLAVIO_GOMES809__CENTRO_15360-000", "LMAPS": "https://www.google.com/maps?q=&layer=c&cbll=-50.9235901,-20.6904507", "O_QUE_FAZER": "FINALIZADO", "ER_REGIAO_CIDADE_min": "Sud Mennucci_Sud Mennucci_Araçatuba" }, "geometry": { "type": "Point", "coordinates": [ -50.9235901, -20.6904507 ] } },
{ "type": "Feature", "properties": { "CNPJ": "21808171000111", "IDCIDADE": "SUD_MENNUCCI", "NOMEFANTASIA": "LUCELI_MARTINS_VIANA_24956966865", "RAZAOSOCIAL": "BAR_DO_MINEIRO", "ENDEE": "RUA_DOUTOR_LUIZ_PEREIRA_BARRETO420__CENTRO_15360-000", "LMAPS": "https://www.google.com/maps?q=&layer=c&cbll=-50.9218845,-20.6900803", "O_QUE_FAZER": "FINALIZADO", "ER_REGIAO_CIDADE_min": "Sud Mennucci_Sud Mennucci_Araçatuba" }, "geometry": { "type": "Point", "coordinates": [ -50.9218845, -20.6900803 ] } },
{ "type": "Feature", "properties": { "CNPJ": "46042161000149", "IDCIDADE": "SUD_MENNUCCI", "NOMEFANTASIA": "ALAN_VITOR_FALCO_MACEDO_42853006808", "RAZAOSOCIAL": "AM_MANUTENCAO_E_REPAROS", "ENDEE": "RUA_EVARISTO_GONCALVES1001__CENTRO_15360-000", "LMAPS": "https://www.google.com/maps?q=&layer=c&cbll=-50.9191751,-20.688432", "O_QUE_FAZER": "FINALIZADO", "ER_REGIAO_CIDADE_min": "Sud Mennucci_Sud Mennucci_Araçatuba" }, "geometry": { "type": "Point", "coordinates": [ -50.9191751, -20.688432 ] } },
{ "type": "Feature", "properties": { "CNPJ": "42966639000176", "IDCIDADE": "SUD_MENNUCCI", "NOMEFANTASIA": "THAMARA_THAIS_ARAUJO_BATISTA_41499383851", "RAZAOSOCIAL": "ZANZA_CULINARIA_JAPONESA", "ENDEE": "RUA_EVARISTO_GONCALVES739__SUD_MENNUCCI_15360-000", "LMAPS": "https://www.google.com/maps?q=&layer=c&cbll=-50.9197298,-20.6881216", "O_QUE_FAZER": "FINALIZADO", "ER_REGIAO_CIDADE_min": "Sud Mennucci_Sud Mennucci_Araçatuba" }, "geometry": { "type": "Point", "coordinates": [ -50.9197298, -20.6881216 ] } },
{ "type": "Feature", "properties": { "CNPJ": "27282577000190", "IDCIDADE": "SUD_MENNUCCI", "NOMEFANTASIA": "MILSON_RENE_ANGELINO_26227216844", "RAZAOSOCIAL": "RENE_BARBEARIA", "ENDEE": "RUA_EVARISTO_GONCALVES769__SUD_MENNUCCI_15360-000", "LMAPS": "https://www.google.com/maps?q=&layer=c&cbll=-50.921394,-20.687868", "O_QUE_FAZER": "FINALIZADO", "ER_REGIAO_CIDADE_min": "Sud Mennucci_Sud Mennucci_Araçatuba" }, "geometry": { "type": "Point", "coordinates": [ -50.921394, -20.687868 ] } },
{ "type": "Feature", "properties": { "CNPJ": "11492012000105", "IDCIDADE": "SUD_MENNUCCI", "NOMEFANTASIA": "MARIA_APARECIDA_DOS_SANTOS_CANDIDO_GONCALVES", "RAZAOSOCIAL": "CHOCOLATE_ARTE", "ENDEE": "RUA_EVARISTO_GONCALVES842__SUD_MENNUCCI_15360-000", "LMAPS": "https://www.google.com/maps?q=&layer=c&cbll=-50.9207172,-20.6882268", "O_QUE_FAZER": "FINALIZADO", "ER_REGIAO_CIDADE_min": "Sud Mennucci_Sud Mennucci_Araçatuba" }, "geometry": { "type": "Point", "coordinates": [ -50.9207172, -20.6882268 ] } },
{ "type": "Feature", "properties": { "CNPJ": "44264952000198", "IDCIDADE": "SUD_MENNUCCI", "NOMEFANTASIA": "JUSCARA_DANTAS_VIEIRA", "RAZAOSOCIAL": "MERCADO_FELIPPE_E_FERNANDA_DANTAS", "ENDEE": "RUA_FRANCISCO_LOFEGO136__SUD_MENNUCCI_15360-000", "LMAPS": "https://www.google.com/maps?q=&layer=c&cbll=-50.9351193,-20.689869", "O_QUE_FAZER": "FINALIZADO", "ER_REGIAO_CIDADE_min": "Sud Mennucci_Sud Mennucci_Araçatuba" }, "geometry": { "type": "Point", "coordinates": [ -50.9351193, -20.689869 ] } },
{ "type": "Feature", "properties": { "CNPJ": "44659651000163", "IDCIDADE": "SUD_MENNUCCI", "NOMEFANTASIA": "44.659.651_IVANETE_MARIA_CARDOSO_MOREIRA", "RAZAOSOCIAL": "AUTO_MECANICA_MOREIRA", "ENDEE": "RUA_JOAQUIM_CUSTODIO_PACCA742__SUD_MENNUCCI_15360-000", "LMAPS": "https://www.google.com/maps?q=&layer=c&cbll=-50.921751,-20.6886945", "O_QUE_FAZER": "FINALIZADO", "ER_REGIAO_CIDADE_min": "Sud Mennucci_Sud Mennucci_Araçatuba" }, "geometry": { "type": "Point", "coordinates": [ -50.921751, -20.6886945 ] } },
{ "type": "Feature", "properties": { "CNPJ": "39913544000180", "IDCIDADE": "SUD_MENNUCCI", "NOMEFANTASIA": "VANDERLEI_FERNANDES_SORMANI", "RAZAOSOCIAL": "SUD_BOX", "ENDEE": "RUA_JOAQUIM_CUSTODIO_PACCA833__SUD_MENNUCCI_15360-000", "LMAPS": "https://www.google.com/maps?q=&layer=c&cbll=-50.920793,-20.6887149", "O_QUE_FAZER": "FINALIZADO", "ER_REGIAO_CIDADE_min": "Sud Mennucci_Sud Mennucci_Araçatuba" }, "geometry": { "type": "Point", "coordinates": [ -50.920793, -20.6887149 ] } },
{ "type": "Feature", "properties": { "CNPJ": "61936902000129", "IDCIDADE": "SUD_MENNUCCI", "NOMEFANTASIA": "JANDIRA_FERREIRA_DOS_SANTOS_SUD_MENNUCCI", "RAZAOSOCIAL": "SUD_DAIANA_MODAS", "ENDEE": "RUA_JOAQUIM_CUSTODIO_PACCA843__SUD_MENNUCCI_15360-000", "LMAPS": "https://www.google.com/maps?q=&layer=c&cbll=-50.920788,-20.6888655", "O_QUE_FAZER": "FINALIZADO", "ER_REGIAO_CIDADE_min": "Sud Mennucci_Sud Mennucci_Araçatuba" }, "geometry": { "type": "Point", "coordinates": [ -50.920788, -20.6888655 ] } },
{ "type": "Feature", "properties": { "CNPJ": "17668002000156", "IDCIDADE": "SUD_MENNUCCI", "NOMEFANTASIA": "ROSELI_DE_ANDRADE_ROSA_29597231808", "RAZAOSOCIAL": "ROSE_ESTETICA", "ENDEE": "RUA_JOSE_BENIGO_GOMES160__CENTRO_15360-000", "LMAPS": "https://www.google.com/maps?q=&layer=c&cbll=-50.9286691,-20.6886982", "O_QUE_FAZER": "FINALIZADO", "ER_REGIAO_CIDADE_min": "Sud Mennucci_Sud Mennucci_Araçatuba" }, "geometry": { "type": "Point", "coordinates": [ -50.9286691, -20.6886982 ] } },
{ "type": "Feature", "properties": { "CNPJ": "57333354000175", "IDCIDADE": "SUD_MENNUCCI", "NOMEFANTASIA": "57.333.354_CAIO_VINICIUS_DA_SILVA_GARCIA", "RAZAOSOCIAL": "VARANDAS_GRILL", "ENDEE": "RUA_JOSE_BENIGO_GOMES573__SUD_MENNUCCI_15360-000", "LMAPS": "https://www.google.com/maps?q=&layer=c&cbll=-50.9235246,-20.6896786", "O_QUE_FAZER": "FINALIZADO", "ER_REGIAO_CIDADE_min": "Sud Mennucci_Sud Mennucci_Araçatuba" }, "geometry": { "type": "Point", "coordinates": [ -50.9235246, -20.6896786 ] } },
{ "type": "Feature", "properties": { "CNPJ": "36610847000135", "IDCIDADE": "SUD_MENNUCCI", "NOMEFANTASIA": "36.610.847_JOSIMAR_DOS_SANTOS_SOUZA", "RAZAOSOCIAL": "JO_SANTOS_INSTALACOES", "ENDEE": "RUA_LAZARO_BENTO_DE_SOUZA624__SUD_MENNUCCI_15360-000", "LMAPS": "https://www.google.com/maps?q=&layer=c&cbll=-50.9171782,-20.6905706", "O_QUE_FAZER": "FINALIZADO", "ER_REGIAO_CIDADE_min": "Sud Mennucci_Sud Mennucci_Araçatuba" }, "geometry": { "type": "Point", "coordinates": [ -50.9171782, -20.6905706 ] } },
{ "type": "Feature", "properties": { "CNPJ": "14559708000191", "IDCIDADE": "SUD_MENNUCCI", "NOMEFANTASIA": "JOAO_VITOR_RISSATO", "RAZAOSOCIAL": "JVS_IMPLEMENTOS", "ENDEE": "RUA_LUCINDO_MARQUES_DE_ALMEIDA121__SUD_MENNUCCI_15360-000", "LMAPS": "https://www.google.com/maps?q=&layer=c&cbll=-50.930465,-20.686363", "O_QUE_FAZER": "FINALIZADO", "ER_REGIAO_CIDADE_min": "Sud Mennucci_Sud Mennucci_Araçatuba" }, "geometry": { "type": "Point", "coordinates": [ -50.930465, -20.686363 ] } },
{ "type": "Feature", "properties": { "CNPJ": "52635195000140", "IDCIDADE": "SUD_MENNUCCI", "NOMEFANTASIA": "LAZARA_D._HERRERA_SERVICOS_MEDICOS_LTDA", "RAZAOSOCIAL": "LAZARO_D_SERVICOS_MEDICOS", "ENDEE": "RUA_LUIS_CONCORDIA250__CENTRO_15360-000", "LMAPS": "https://www.google.com/maps?q=&layer=c&cbll=-50.9287923,-20.6918857", "O_QUE_FAZER": "FINALIZADO", "ER_REGIAO_CIDADE_min": "Sud Mennucci_Sud Mennucci_Araçatuba" }, "geometry": { "type": "Point", "coordinates": [ -50.9287923, -20.6918857 ] } },
{ "type": "Feature", "properties": { "CNPJ": "41823720000134", "IDCIDADE": "SUD_MENNUCCI", "NOMEFANTASIA": "41.823.720_CELIA_CONRADO_NEGRINI", "RAZAOSOCIAL": "PAES_CASEIRO", "ENDEE": "RUA_LUIZ_CARLOS_DA_SILVA214__CENTRO_15360-000", "LMAPS": "https://www.google.com/maps?q=&layer=c&cbll=-50.927841,-20.694997", "O_QUE_FAZER": "FINALIZADO", "ER_REGIAO_CIDADE_min": "Sud Mennucci_Sud Mennucci_Araçatuba" }, "geometry": { "type": "Point", "coordinates": [ -50.927841, -20.694997 ] } },
{ "type": "Feature", "properties": { "CNPJ": "15332686000195", "IDCIDADE": "SUD_MENNUCCI", "NOMEFANTASIA": "15.332.686_DENISE_ELAINE_DE_FARIA", "RAZAOSOCIAL": "CONVENIENCIA_ARIANE", "ENDEE": "RUA_LUIZ_CARLOS_DA_SILVA295__SUD_MENNUCCI_15360-000", "LMAPS": "https://www.google.com/maps?q=&layer=c&cbll=-50.927157,-20.695201", "O_QUE_FAZER": "FINALIZADO", "ER_REGIAO_CIDADE_min": "Sud Mennucci_Sud Mennucci_Araçatuba" }, "geometry": { "type": "Point", "coordinates": [ -50.927157, -20.695201 ] } },
{ "type": "Feature", "properties": { "CNPJ": "47778654000104", "IDCIDADE": "SUD_MENNUCCI", "NOMEFANTASIA": "47.778.654_MATHEUS_CAYRES_MARTINS", "RAZAOSOCIAL": "TALITA_LAVA_CAR", "ENDEE": "RUA_MARCO_ANTONIO_M_JUNQUEIRA_FRANCO124__SUD_MENNUCCI_15360-000", "LMAPS": "https://www.google.com/maps?q=&layer=c&cbll=-50.924726,-20.693514", "O_QUE_FAZER": "FINALIZADO", "ER_REGIAO_CIDADE_min": "Sud Mennucci_Sud Mennucci_Araçatuba" }, "geometry": { "type": "Point", "coordinates": [ -50.924726, -20.693514 ] } },
{ "type": "Feature", "properties": { "CNPJ": "10680608000168", "IDCIDADE": "SUD_MENNUCCI", "NOMEFANTASIA": "REAL_HOTEL_SUD_MENNUCCI_LTDA", "RAZAOSOCIAL": "REAL_HOTEL", "ENDEE": "RUA_PROFESSOR_LUIZ_FLAVIO_GOMES875__CENTRO_15360-000", "LMAPS": "https://www.google.com/maps?q=&layer=c&cbll=-50.9235901,-20.6904507", "O_QUE_FAZER": "FINALIZADO", "ER_REGIAO_CIDADE_min": "Sud Mennucci_Sud Mennucci_Araçatuba" }, "geometry": { "type": "Point", "coordinates": [ -50.9235901, -20.6904507 ] } },
{ "type": "Feature", "properties": { "CNPJ": "13089886000133", "IDCIDADE": "SUD_MENNUCCI", "NOMEFANTASIA": "BEATRIZ_VELOZO_SANTOS_BASSO", "RAZAOSOCIAL": "BIA'S_TRUFAS", "ENDEE": "RUA_SUD_MENNUCCI_268_FUNDOS__BANDEIRANTES_D'OESTE_15360-000", "LMAPS": "https://www.google.com/maps?q=&layer=c&cbll=-50.9235901,-20.6904621", "O_QUE_FAZER": "FINALIZADO", "ER_REGIAO_CIDADE_min": "Sud Mennucci_Sud Mennucci_Araçatuba" }, "geometry": { "type": "Point", "coordinates": [ -50.9235901, -20.6904621 ] } },
{ "type": "Feature", "properties": { "CNPJ": "53293731000139", "IDCIDADE": "SUD_MENNUCCI", "NOMEFANTASIA": "BIANCA_VIEIRA_CARDOSO_PRODUTOS_AGROPECUARIOS_LTDA", "RAZAOSOCIAL": "AGROSUD", "ENDEE": "RUA_TRES_RAMOS766__CENTRO_15360-000", "LMAPS": "https://www.google.com/maps?q=&layer=c&cbll=-50.9176453,-20.6883435", "O_QUE_FAZER": "FINALIZADO", "ER_REGIAO_CIDADE_min": "Sud Mennucci_Sud Mennucci_Araçatuba" }, "geometry": { "type": "Point", "coordinates": [ -50.9176453, -20.6883435 ] } },
{ "type": "Feature", "properties": { "CNPJ": "54320295000102", "IDCIDADE": "SUD_MENNUCCI", "NOMEFANTASIA": "54.320.295_MARCIO_PARREIRA_LIMA", "RAZAOSOCIAL": "TAPECARIA_SOFT", "ENDEE": "RUA_TRES_RAMOS904__SUD_MENNUCCI_15360-000", "LMAPS": "https://www.google.com/maps?q=&layer=c&cbll=-50.9174846,-20.688111", "O_QUE_FAZER": "FINALIZADO", "ER_REGIAO_CIDADE_min": "Sud Mennucci_Sud Mennucci_Araçatuba" }, "geometry": { "type": "Point", "coordinates": [ -50.9174846, -20.688111 ] } },
{ "type": "Feature", "properties": { "CNPJ": "43524212000180", "IDCIDADE": "SUD_MENNUCCI", "NOMEFANTASIA": "DOMINGOS_LUIZ_MANSO_01710178892", "RAZAOSOCIAL": "BORRACHARIA_DO_CAVALO", "ENDEE": "RUA_VALDIR_ALVES_FERREIRA380__SUD_MENNUCCI_15360-000", "LMAPS": "https://www.google.com/maps?q=&layer=c&cbll=-50.9201997,-20.6860548", "O_QUE_FAZER": "FINALIZADO", "ER_REGIAO_CIDADE_min": "Sud Mennucci_Sud Mennucci_Araçatuba" }, "geometry": { "type": "Point", "coordinates": [ -50.9201997, -20.6860548 ] } },
{ "type": "Feature", "properties": { "CNPJ": "50056088000131", "IDCIDADE": "SUD_MENNUCCI", "NOMEFANTASIA": "-", "RAZAOSOCIAL": "50.056.088_JOSE_RENATO_LUCAS_BONFIM", "ENDEE": "RUA_FREI_FREDERICO_CURATOLO_-_ATE_3598/3599_3474_SAO_FRANCISCO_DE_ASSIS_I_15137-070_SUD_MENNUCCI", "LMAPS": "https://www.google.com/maps?q=&layer=c&cbll=-20.6904621,-50.9235901", "O_QUE_FAZER": "FINALIZADO", "ER_REGIAO_CIDADE_min": "Sud Mennucci_Sud Mennucci_Araçatuba" }, "geometry": { "type": "Point", "coordinates": [ -50.9235901, -20.6904621 ] } }
]
}
