{
"type": "FeatureCollection",
"name": "ER_REGIAO_CIDADE_min_Tupã_Universo_Marília",
"crs": { "type": "name", "properties": { "name": "urn:ogc:def:crs:OGC:1.3:CRS84" } },
"xy_coordinate_resolution": 1e-15,
"features": [
{ "type": "Feature", "properties": { "fid": 298787, "CNPJ": "57427659000146", "IDCIDADE": "TUPA", "NOMEFANTASIA": "-", "RAZAOSOCIAL": "57.427.659 IRIS SUELEM RAMOS DOS SANTOS", "ENDEE": "AVENIDA DAS NACOES, 52, CENTRO(UNIVERSO), 17623-030, TUPÃ, SP, BRASIL", "LMAPS": "https://www.google.com/maps?q=&layer=c&cbll=-21.9015545,-50.5971532", "O_QUE_FAZER": "CARTEIRA - FAMPE", "ER_REGIAO_CIDADE_min": "Tupã_Universo_Marília" }, "geometry": { "type": "Point", "coordinates": [ -50.5971532, -21.9015545 ] } }
]
}
