{
"type": "FeatureCollection",
"name": "ER_REGIAO_CIDADE_min_Sandovalina_Presidente Prudente",
"crs": { "type": "name", "properties": { "name": "urn:ogc:def:crs:OGC:1.3:CRS84" } },
"xy_coordinate_resolution": 1e-15,
"features": [
{ "type": "Feature", "properties": { "fid": 109879, "CNPJ": "19715818000119", "IDCIDADE": "SANDOVALINA", "NOMEFANTASIA": "BMC_MATERIAIS_PARA_CONSTRUCAO", "RAZAOSOCIAL": "BMC_MATERIAIS_PARA_CONSTRUCAO_LTDA", "ENDEE": "RUA MANOEL PEDRO DA SILVA, 946, CENTRO, 19250021, SANDOVALINA, SP, BRASIL", "LMAPS": "https://www.google.com/maps?q=&layer=c&cbll=-22.4534251,-51.7623329", "O_QUE_FAZER": "CARTEIRA - FAMPE", "ER_REGIAO_CIDADE_min": "Sandovalina_Presidente Prudente" }, "geometry": { "type": "Point", "coordinates": [ -51.7623329, -22.4534251 ] } },
{ "type": "Feature", "properties": { "fid": 164406, "CNPJ": "31295634000142", "IDCIDADE": "SANDOVALINA", "NOMEFANTASIA": "AUTO_POSTO_ESTRADAO", "RAZAOSOCIAL": "MONICA_DE_OLIVEIRA_CORDEIRO_LTDA", "ENDEE": "AVENIDA PREFEITO JOAO BORGES FRIAS, 1613, CENTRO, 19250000, SANDOVALINA, SP, BRASIL", "LMAPS": "https://www.google.com/maps?q=&layer=c&cbll=-22.4573241,-51.7627815", "O_QUE_FAZER": "CARTEIRA - FAMPE", "ER_REGIAO_CIDADE_min": "Sandovalina_Presidente Prudente" }, "geometry": { "type": "Point", "coordinates": [ -51.7627815, -22.4573241 ] } },
{ "type": "Feature", "properties": { "fid": 178630, "CNPJ": "34118577000114", "IDCIDADE": "SANDOVALINA", "NOMEFANTASIA": "CONVENIENCIA_ESTRADAO", "RAZAOSOCIAL": "CONVENIENCIA_ESTRADAO_LTDA", "ENDEE": "AVENIDA PREFEITO JOAO BORGES FRIAS, 1627, CENTRO, 19250-000, SANDOVALINA, SP, BRASIL", "LMAPS": "https://www.google.com/maps?q=&layer=c&cbll=-22.4549951,-51.7669122", "O_QUE_FAZER": "CARTEIRA - FAMPE", "ER_REGIAO_CIDADE_min": "Sandovalina_Presidente Prudente" }, "geometry": { "type": "Point", "coordinates": [ -51.7669122, -22.4549951 ] } },
{ "type": "Feature", "properties": { "fid": 198815, "CNPJ": "38392842000109", "IDCIDADE": "SANDOVALINA", "NOMEFANTASIA": "PANIFICADORA_MEDEIROS", "RAZAOSOCIAL": "PANIFICADORA_E_CONFEITARIA_MEDEIROS_LTDA", "ENDEE": "AVENIDA PREFEITO JOAO BORGES FRIAS, 1162, CENTRO, 19250000, SANDOVALINA, SP, BRASIL", "LMAPS": "https://www.google.com/maps?q=&layer=c&cbll=-22.4595852,-51.7592784", "O_QUE_FAZER": "CARTEIRA - FAMPE", "ER_REGIAO_CIDADE_min": "Sandovalina_Presidente Prudente" }, "geometry": { "type": "Point", "coordinates": [ -51.7592784, -22.4595852 ] } },
{ "type": "Feature", "properties": { "fid": 226808, "CNPJ": "45201962000147", "IDCIDADE": "SANDOVALINA", "NOMEFANTASIA": "PONTO VET", "RAZAOSOCIAL": "BARBARA_VINHA_PADOVAN", "ENDEE": "AVENIDA PREFEITO JOAO BORGES FRIAS, 1149, CENTRO, 19250000, SANDOVALINA, SP, BRASIL", "LMAPS": "https://www.google.com/maps?q=&layer=c&cbll=-22.4572892,-51.7627578", "O_QUE_FAZER": "CARTEIRA - FAMPE", "ER_REGIAO_CIDADE_min": "Sandovalina_Presidente Prudente" }, "geometry": { "type": "Point", "coordinates": [ -51.7627578, -22.4572892 ] } },
{ "type": "Feature", "properties": { "fid": 268809, "CNPJ": "53920854000152", "IDCIDADE": "SANDOVALINA", "NOMEFANTASIA": "VIVEIRO_COSME_E_DAMIAO", "RAZAOSOCIAL": "VIVEIRO_COSME_E_DAMIAO_LTDA", "ENDEE": "AVENIDA DAMASIO FERREIRA BENTO, 717, CENTRO, 19250-000, SANDOVALINA, SP, BRASIL", "LMAPS": "https://www.google.com/maps?q=&layer=c&cbll=-22.4598886,-51.7653546", "O_QUE_FAZER": "CARTEIRA - FAMPE", "ER_REGIAO_CIDADE_min": "Sandovalina_Presidente Prudente" }, "geometry": { "type": "Point", "coordinates": [ -51.7653546, -22.4598886 ] } },
{ "type": "Feature", "properties": { "fid": 302372, "CNPJ": "65576792000192", "IDCIDADE": "SANDOVALINA", "NOMEFANTASIA": null, "RAZAOSOCIAL": "65.576.792_VITOR_RICARDO_DE_SENA_SALVIA", "ENDEE": "AVENIDA PREFEITO JOAO BORGES FRIAS, 1460, CENTRO, 19250-005, SANDOVALINA, SP, BRASIL", "LMAPS": "https://www.google.com/maps?q=&layer=c&cbll=-22.4571604,-51.762233", "O_QUE_FAZER": "CARTEIRA - FAMPE", "ER_REGIAO_CIDADE_min": "Sandovalina_Presidente Prudente" }, "geometry": { "type": "Point", "coordinates": [ -51.762233, -22.4571604 ] } }
]
}
