{
"type": "FeatureCollection",
"name": "ER_REGIAO_CIDADE_min_Águas da Prata_Águas da Prata_São João da Boa Vista",
"crs": { "type": "name", "properties": { "name": "urn:ogc:def:crs:OGC:1.3:CRS84" } },
"xy_coordinate_resolution": 1e-15,
"features": [
{ "type": "Feature", "properties": { "CNPJ": "07267033000141", "IDCIDADE": "AGUAS DA PRATA", "NOMEFANTASIA": null, "RAZAOSOCIAL": "LUCIMARA_MONTES_PERAL_BERTHOLUCCI", "ENDEE": "PRACA ALFREDO EGYDIO DE SOUZA ARANHA, 10, CENTRO, 13890-000, ÁGUAS DA PRATA, SP, BRASIL", "LATITUDE": "-21.9528467", "LONGITUDE": "-46.7121402", "LMAPS": "https://www.google.com/maps?q=&layer=c&cbll=-21.9528467,-46.7121402", "O_QUE_FAZER": "CARTEIRA - FAMPE", "field_10": null, "field_11": null, "field_12": null, "field_13": null, "ER_REGIAO_CIDADE_min": "Águas da Prata_Águas da Prata_São João da Boa Vista" }, "geometry": { "type": "Point", "coordinates": [ -46.7121402, -21.9528467 ] } },
{ "type": "Feature", "properties": { "CNPJ": "48635090000113", "IDCIDADE": "AGUAS DA PRATA", "NOMEFANTASIA": "DISTRIBUIDORA_UAI_GALDINO", "RAZAOSOCIAL": "DISTRIBUIDORA_UAI_GALDINO_LTDA", "ENDEE": "RUA CORONEL ERNESTO DE OLIVEIRA, 630, VILA AMERICO, 13893-154, ÁGUAS DA PRATA, SP, BRASIL", "LATITUDE": "-21.9472532", "LONGITUDE": "-46.7189597", "LMAPS": "https://www.google.com/maps?q=&layer=c&cbll=-21.9472532,-46.7189597", "O_QUE_FAZER": "CARTEIRA - FAMPE", "field_10": null, "field_11": null, "field_12": null, "field_13": null, "ER_REGIAO_CIDADE_min": "Águas da Prata_Águas da Prata_São João da Boa Vista" }, "geometry": { "type": "Point", "coordinates": [ -46.7189597, -21.9472532 ] } },
{ "type": "Feature", "properties": { "CNPJ": "24174152000179", "IDCIDADE": "AGUAS DA PRATA", "NOMEFANTASIA": null, "RAZAOSOCIAL": "24.174.152_ROSEMAR_CASSAN_RIBEIRO_GUIMARAES", "ENDEE": "RUA GABRIEL RABELO DE ANDRADE, 140, CENTRO, 13890-015, ÁGUAS DA PRATA, SP, BRASIL", "LATITUDE": "-21.9379353", "LONGITUDE": "-46.7186147", "LMAPS": "https://www.google.com/maps?q=&layer=c&cbll=-21.9379353,-46.7186147", "O_QUE_FAZER": "CARTEIRA - FAMPE", "field_10": null, "field_11": null, "field_12": null, "field_13": null, "ER_REGIAO_CIDADE_min": "Águas da Prata_Águas da Prata_São João da Boa Vista" }, "geometry": { "type": "Point", "coordinates": [ -46.7186147, -21.9379353 ] } },
{ "type": "Feature", "properties": { "CNPJ": "26994278000115", "IDCIDADE": "AGUAS DA PRATA", "NOMEFANTASIA": null, "RAZAOSOCIAL": "26.994.278_ALINE_DE_SOUZA_COSTA", "ENDEE": "10A RUA DIVINO EUGENIO VIEIRA, 140, JARDIM AGUAS DA PRATA, 13890-000, ÁGUAS DA PRATA, SP, BRASIL", "LATITUDE": "-21.950089", "LONGITUDE": "-46.7210544", "LMAPS": "https://www.google.com/maps?q=&layer=c&cbll=-21.950089,-46.7210544", "O_QUE_FAZER": "CARTEIRA - FAMPE", "field_10": null, "field_11": null, "field_12": null, "field_13": null, "ER_REGIAO_CIDADE_min": "Águas da Prata_Águas da Prata_São João da Boa Vista" }, "geometry": { "type": "Point", "coordinates": [ -46.7210544, -21.950089 ] } },
{ "type": "Feature", "properties": { "CNPJ": "38398180000184", "IDCIDADE": "AGUAS DA PRATA", "NOMEFANTASIA": null, "RAZAOSOCIAL": "38.398.180_RODRIGO_BIXESTO_DA_SILVA_HOFFMANN", "ENDEE": "RUA JOSE PEREIRA BERTOLOTTI, 65, JARDIM AGUAS DA PRATA, 13890-000, ÁGUAS DA PRATA, SP, BRASIL", "LATITUDE": "-21.9474161", "LONGITUDE": "-46.7255064", "LMAPS": "https://www.google.com/maps?q=&layer=c&cbll=-21.9474161,-46.7255064", "O_QUE_FAZER": "CARTEIRA - FAMPE", "field_10": null, "field_11": null, "field_12": null, "field_13": null, "ER_REGIAO_CIDADE_min": "Águas da Prata_Águas da Prata_São João da Boa Vista" }, "geometry": { "type": "Point", "coordinates": [ -46.7255064, -21.9474161 ] } },
{ "type": "Feature", "properties": { "CNPJ": "20866821000112", "IDCIDADE": "AGUAS DA PRATA", "NOMEFANTASIA": null, "RAZAOSOCIAL": "20.866.821_LUIZ_EDUARDO_MARCOLINO_VENTURA", "ENDEE": "RUA CORONEL ERNESTO DE OLIVEIRA, 475, VILA AMERICO, 13890-000, ÁGUAS DA PRATA, SP, BRASIL", "LATITUDE": "-21.946444", "LONGITUDE": "-46.7179499", "LMAPS": "https://www.google.com/maps?q=&layer=c&cbll=-21.946444,-46.7179499", "O_QUE_FAZER": "CARTEIRA - FAMPE", "field_10": null, "field_11": null, "field_12": null, "field_13": null, "ER_REGIAO_CIDADE_min": "Águas da Prata_Águas da Prata_São João da Boa Vista" }, "geometry": { "type": "Point", "coordinates": [ -46.7179499, -21.946444 ] } },
{ "type": "Feature", "properties": { "CNPJ": "37190805000155", "IDCIDADE": "AGUAS DA PRATA", "NOMEFANTASIA": "ANA_MARIA_TINTAS", "RAZAOSOCIAL": "ANA_MARIA_COM._E_DISTRIBUIDORA_DE_TINTAS_LTDA", "ENDEE": "RUA CEL ERNESTO OLIVEIRA, 436, VILA AMERICO, 13890-000, ÁGUAS DA PRATA, SP, BRASIL", "LATITUDE": "-21.9459417", "LONGITUDE": "-46.7179547", "LMAPS": "https://www.google.com/maps?q=&layer=c&cbll=-21.9459417,-46.7179547", "O_QUE_FAZER": "CARTEIRA - FAMPE", "field_10": null, "field_11": null, "field_12": null, "field_13": null, "ER_REGIAO_CIDADE_min": "Águas da Prata_Águas da Prata_São João da Boa Vista" }, "geometry": { "type": "Point", "coordinates": [ -46.7179547, -21.9459417 ] } },
{ "type": "Feature", "properties": { "CNPJ": "20235243000116", "IDCIDADE": "AGUAS DA PRATA", "NOMEFANTASIA": null, "RAZAOSOCIAL": "SIRLENE_PEREIRA_ALVES_DE_CARVALHO", "ENDEE": "10A RUA MARITA NOGUEIRA, 79, TERRAS DO ALEGRE, 13890-000, ÁGUAS DA PRATA, SP, BRASIL", "LATITUDE": "-21.9437894", "LONGITUDE": "-46.7258753", "LMAPS": "https://www.google.com/maps?q=&layer=c&cbll=-21.9437894,-46.7258753", "O_QUE_FAZER": "CARTEIRA - FAMPE", "field_10": null, "field_11": null, "field_12": null, "field_13": null, "ER_REGIAO_CIDADE_min": "Águas da Prata_Águas da Prata_São João da Boa Vista" }, "geometry": { "type": "Point", "coordinates": [ -46.7258753, -21.9437894 ] } },
{ "type": "Feature", "properties": { "CNPJ": "15091500000153", "IDCIDADE": "AGUAS DA PRATA", "NOMEFANTASIA": "MATUTOS", "RAZAOSOCIAL": "EVERTON_LUIS_PETRY", "ENDEE": "ESTRADA MUNICIPAL HELIO BERTOLUCCI, 1096, FONTE PLATINA, 13890-000, ÁGUAS DA PRATA, SP, BRASIL", "LATITUDE": "-21.9422124", "LONGITUDE": "-46.6925438", "LMAPS": "https://www.google.com/maps?q=&layer=c&cbll=-21.9422124,-46.6925438", "O_QUE_FAZER": "CARTEIRA - FAMPE", "field_10": null, "field_11": null, "field_12": null, "field_13": null, "ER_REGIAO_CIDADE_min": "Águas da Prata_Águas da Prata_São João da Boa Vista" }, "geometry": { "type": "Point", "coordinates": [ -46.6925438, -21.9422124 ] } },
{ "type": "Feature", "properties": { "CNPJ": "30272598000139", "IDCIDADE": "AGUAS DA PRATA", "NOMEFANTASIA": null, "RAZAOSOCIAL": "LUCILA_DE_OLIVEIRA_JORDON_00391216902", "ENDEE": "RUA GABRIEL RABELO DE ANDRADE, 122, CENTRO, 13890-000, ÁGUAS DA PRATA, SP, BRASIL", "LATITUDE": "-21.9379353", "LONGITUDE": "-46.7186147", "LMAPS": "https://www.google.com/maps?q=&layer=c&cbll=-21.9379353,-46.7186147", "O_QUE_FAZER": "CARTEIRA - FAMPE", "field_10": null, "field_11": null, "field_12": null, "field_13": null, "ER_REGIAO_CIDADE_min": "Águas da Prata_Águas da Prata_São João da Boa Vista" }, "geometry": { "type": "Point", "coordinates": [ -46.7186147, -21.9379353 ] } },
{ "type": "Feature", "properties": { "CNPJ": "03075939000103", "IDCIDADE": "AGUAS DA PRATA", "NOMEFANTASIA": "Restaurante_Prata", "RAZAOSOCIAL": "MAGDA_CRISTINA_FRANCISCATO_DOMINGOS", "ENDEE": "RUA CEL ERNESTO DE OLIVEIRA, 26, CENTRO, 13890-000, ÁGUAS DA PRATA, SP, BRASIL", "LATITUDE": "-21.9377362", "LONGITUDE": "-46.7152976", "LMAPS": "https://www.google.com/maps?q=&layer=c&cbll=-21.9377362,-46.7152976", "O_QUE_FAZER": "CARTEIRA - FAMPE", "field_10": null, "field_11": null, "field_12": null, "field_13": null, "ER_REGIAO_CIDADE_min": "Águas da Prata_Águas da Prata_São João da Boa Vista" }, "geometry": { "type": "Point", "coordinates": [ -46.7152976, -21.9377362 ] } },
{ "type": "Feature", "properties": { "CNPJ": "16506223000165", "IDCIDADE": "AGUAS DA PRATA", "NOMEFANTASIA": "CAMPING_DO_PAIOL", "RAZAOSOCIAL": "D.F.MANCANARES_EMPREENDIMENTOS_TURISTICOS_E_HOTELARIA", "ENDEE": "RODOVIA SP 342, S/N, KM 239 + 600 METROS, ZONA RURAL, 13890-000, ÁGUAS DA PRATA, SP, BRASIL", "LATITUDE": "-21.9431425", "LONGITUDE": "-46.7163409", "LMAPS": "https://www.google.com/maps?q=&layer=c&cbll=-21.9431425,-46.7163409", "O_QUE_FAZER": "CARTEIRA - FAMPE", "field_10": null, "field_11": null, "field_12": null, "field_13": null, "ER_REGIAO_CIDADE_min": "Águas da Prata_Águas da Prata_São João da Boa Vista" }, "geometry": { "type": "Point", "coordinates": [ -46.7163409, -21.9431425 ] } },
{ "type": "Feature", "properties": { "CNPJ": "43691622000116", "IDCIDADE": "AGUAS DA PRATA", "NOMEFANTASIA": "-", "RAZAOSOCIAL": "43.691.622_RENATA_FERREIRA_MEIRELES_COZIN", "ENDEE": "AVENIDA DOUTOR LUIZ TORRES DA SILVA, 91, GALPAO, FONTE PLATINA, 13893-506, ÁGUAS DA PRATA, SP, BRASIL", "LATITUDE": "-21.9467928", "LONGITUDE": "-46.6825821", "LMAPS": "https://www.google.com/maps?q=&layer=c&cbll=-21.9467928,-46.6825821", "O_QUE_FAZER": "CARTEIRA - FAMPE", "field_10": null, "field_11": null, "field_12": null, "field_13": null, "ER_REGIAO_CIDADE_min": "Águas da Prata_Águas da Prata_São João da Boa Vista" }, "geometry": { "type": "Point", "coordinates": [ -46.6825821, -21.9467928 ] } },
{ "type": "Feature", "properties": { "CNPJ": "54198556000163", "IDCIDADE": "AGUAS DA PRATA", "NOMEFANTASIA": "-", "RAZAOSOCIAL": "54.198.556_JULIANA_SILVANTO_DE_ALMEIDA_OLIVEIRA", "ENDEE": "RUA CORONEL ERNESTO DE OLIVEIRA, 457, SALA D, VILA TRES IRMAOS, 13890-000, ÁGUAS DA PRATA, SP, BRASIL", "LATITUDE": "-21.946244", "LONGITUDE": "-46.7176682", "LMAPS": "https://www.google.com/maps?q=&layer=c&cbll=-21.946244,-46.7176682", "O_QUE_FAZER": "CARTEIRA - FAMPE", "field_10": null, "field_11": null, "field_12": null, "field_13": null, "ER_REGIAO_CIDADE_min": "Águas da Prata_Águas da Prata_São João da Boa Vista" }, "geometry": { "type": "Point", "coordinates": [ -46.7176682, -21.946244 ] } }
]
}
