{
"type": "FeatureCollection",
"name": "ER_REGIAO_CIDADE_min_Tapiraí_Rio Turvo_Sorocaba",
"crs": { "type": "name", "properties": { "name": "urn:ogc:def:crs:OGC:1.3:CRS84" } },
"xy_coordinate_resolution": 1e-15,
"features": [
{ "type": "Feature", "properties": { "CNPJ": "22590620000160", "IDCIDADE": "PILAR DO SUL", "NOMEFANTASIA": "PALLET_NASCIMENTO", "RAZAOSOCIAL": "ISAAC_DO_NASCIMENTO_26203152803", "ENDEE": "FAZENDA AMIZADE, S/N, BAIRRO DO TURVO, 18185-000, PILAR DO SUL, SP, BRASIL", "LATITUDE": "-23.901418", "LONGITUDE": "-47.5240138", "LMAPS": "https://www.google.com/maps?q=&layer=c&cbll=-23.901418,-47.5240138", "O_QUE_FAZER": "CARTEIRA - FAMPE", "field_10": null, "field_11": null, "field_12": null, "field_13": null, "ER_REGIAO_CIDADE_min": "Tapiraí_Rio Turvo_Sorocaba" }, "geometry": { "type": "Point", "coordinates": [ -47.5240138, -23.901418 ] } }
]
}
