{
"type": "FeatureCollection",
"name": "ER_REGIAO_CIDADE_min_Piracicaba_Artemis_Piracicaba",
"crs": { "type": "name", "properties": { "name": "urn:ogc:def:crs:OGC:1.3:CRS84" } },
"xy_coordinate_resolution": 1e-15,
"features": [
{ "type": "Feature", "properties": { "fid": 9331, "CNPJ": "01909701000100", "IDCIDADE": "PIRACICABA", "NOMEFANTASIA": "LOJA_DO_JAPONES", "RAZAOSOCIAL": "SIGUEO_OTSUBO_PIRACICABA", "ENDEE": "AVENIDA_FIORAVANTE_CENEDESE381__CENTRO_13432-006", "LMAPS": "https://www.google.com/maps?q=&layer=c&cbll=-22.6780463,-47.7710362", "O_QUE_FAZER": "CARTEIRA", "ER_REGIAO_CIDADE_min": "Piracicaba_Artemis_Piracicaba" }, "geometry": { "type": "Point", "coordinates": [ -47.7710362, -22.6780463 ] } },
{ "type": "Feature", "properties": { "fid": 9424, "CNPJ": "01932237000173", "IDCIDADE": "PIRACICABA", "NOMEFANTASIA": "ARTE_LAJES", "RAZAOSOCIAL": "BALTIERI_INDUSTRIA_E_COMERCIO_DE_ARTEFATOS_DE_CIMENTO_LTDA.", "ENDEE": "AVENIDA_FIORAVANTE_CENEDESE950__CENTRO_13432-006", "LMAPS": "https://www.google.com/maps?q=&layer=c&cbll=-22.6827819,-47.7737504", "O_QUE_FAZER": "CARTEIRA", "ER_REGIAO_CIDADE_min": "Piracicaba_Artemis_Piracicaba" }, "geometry": { "type": "Point", "coordinates": [ -47.7737504, -22.6827819 ] } },
{ "type": "Feature", "properties": { "fid": 24859, "CNPJ": "04544924000100", "IDCIDADE": "PIRACICABA", "NOMEFANTASIA": "AGRO_PORTO", "RAZAOSOCIAL": "AGRO-PORTO_LTDA", "ENDEE": "AVENIDA_FIORAVANTE_CENEDESE364__CENTRO_13432-006", "LMAPS": "https://www.google.com/maps?q=&layer=c&cbll=-22.6779409,-47.7712808", "O_QUE_FAZER": "CARTEIRA", "ER_REGIAO_CIDADE_min": "Piracicaba_Artemis_Piracicaba" }, "geometry": { "type": "Point", "coordinates": [ -47.7712808, -22.6779409 ] } },
{ "type": "Feature", "properties": { "fid": 61593, "CNPJ": "10316858000113", "IDCIDADE": "PIRACICABA", "NOMEFANTASIA": "VIP_MATERIAIS_DE_CONSTRUCAO", "RAZAOSOCIAL": "FERREIRA_&_MUNHOZ_COMERCIO_DE_MATERIAIS_DE_CONSTRUCAO_LTDA", "ENDEE": "AVENIDA_FIORAVANTE_CENEDESE340__CENTRO_13432-006", "LMAPS": "https://www.google.com/maps?q=&layer=c&cbll=-22.6776279,-47.7710685", "O_QUE_FAZER": "CARTEIRA", "ER_REGIAO_CIDADE_min": "Piracicaba_Artemis_Piracicaba" }, "geometry": { "type": "Point", "coordinates": [ -47.7710685, -22.6776279 ] } },
{ "type": "Feature", "properties": { "fid": 147657, "CNPJ": "28069999000144", "IDCIDADE": "PIRACICABA", "NOMEFANTASIA": "SUPERMERCADO_FERRAZ", "RAZAOSOCIAL": "F.H.M._FERRAZ_SUPERMERCADO", "ENDEE": "AVENIDA_FIORAVANTE_CENEDESE1986__CENTRO_13432-006", "LMAPS": "https://www.google.com/maps?q=&layer=c&cbll=-22.6916431,-47.7759127", "O_QUE_FAZER": "CARTEIRA", "ER_REGIAO_CIDADE_min": "Piracicaba_Artemis_Piracicaba" }, "geometry": { "type": "Point", "coordinates": [ -47.7759127, -22.6916431 ] } },
{ "type": "Feature", "properties": { "fid": 166906, "CNPJ": "31785409000194", "IDCIDADE": "PIRACICABA", "NOMEFANTASIA": "SUPERMERCADO_E_CASA_DE_CARNES_ESTER", "RAZAOSOCIAL": "SUPERMERCADO_E_CASA_DE_CARNES_ESTER_LTDA", "ENDEE": "AVENIDA_FIORAVANTE_CENEDESE1920__CENTRO_13432-006", "LMAPS": "https://www.google.com/maps?q=&layer=c&cbll=-22.6911806,-47.7757814", "O_QUE_FAZER": "CARTEIRA", "ER_REGIAO_CIDADE_min": "Piracicaba_Artemis_Piracicaba" }, "geometry": { "type": "Point", "coordinates": [ -47.7757814, -22.6911806 ] } },
{ "type": "Feature", "properties": { "fid": 182106, "CNPJ": "34802086000198", "IDCIDADE": "PIRACICABA", "NOMEFANTASIA": "AGROPECUARIA_AGUADO", "RAZAOSOCIAL": "LUIS_GUSTAVO_AGUADO", "ENDEE": "AVENIDA_FIORAVANTE_CENEDESE876__CENTRO_13432-006", "LMAPS": "https://www.google.com/maps?q=&layer=c&cbll=-22.6821082,-47.7735646", "O_QUE_FAZER": "FINALIZADO", "ER_REGIAO_CIDADE_min": "Piracicaba_Artemis_Piracicaba" }, "geometry": { "type": "Point", "coordinates": [ -47.7735646, -22.6821082 ] } },
{ "type": "Feature", "properties": { "fid": 214639, "CNPJ": "42637852000134", "IDCIDADE": "PIRACICABA", "NOMEFANTASIA": "PADARIA_MINEIROS", "RAZAOSOCIAL": "PADARIA_MINEIROS_LTDA", "ENDEE": "AVENIDA_FIORAVANTE_CENEDESE1384__CENTRO_13432-006", "LMAPS": "https://www.google.com/maps?q=&layer=c&cbll=-22.6862912,-47.7747709", "O_QUE_FAZER": "CARTEIRA", "ER_REGIAO_CIDADE_min": "Piracicaba_Artemis_Piracicaba" }, "geometry": { "type": "Point", "coordinates": [ -47.7747709, -22.6862912 ] } },
{ "type": "Feature", "properties": { "fid": 299331, "CNPJ": "63864167000110", "IDCIDADE": "PIRACICABA", "NOMEFANTASIA": "Horta_do_Porto", "RAZAOSOCIAL": "VAREJAO_HORTA_DO_PORTO_LTDA", "ENDEE": "AVENIDA FIORAVANTE CENEDESE, 727, CENTRO (ARTEMIS), 13432-006, PIRACICABA, SP, BRASIL", "LMAPS": "https://www.google.com/maps?q=&layer=c&cbll=-22.6805922,-47.7726325", "O_QUE_FAZER": "CARTEIRA - FAMPE", "ER_REGIAO_CIDADE_min": "Piracicaba_Artemis_Piracicaba" }, "geometry": { "type": "Point", "coordinates": [ -47.7726325, -22.6805922 ] } }
]
}
