{
"type": "FeatureCollection",
"name": "ER_REGIAO_CIDADE_min_Duartina_Bauru",
"crs": { "type": "name", "properties": { "name": "urn:ogc:def:crs:OGC:1.3:CRS84" } },
"xy_coordinate_resolution": 1e-15,
"features": [
{ "type": "Feature", "properties": { "CNPJ": "39668901000191", "IDCIDADE": "DUARTINA", "NOMEFANTASIA": "39.668.901_RONY_SELCO_DA_SILVA", "RAZAOSOCIAL": "39.668.901_RONY_SELCO_DA_SILVA", "ENDEE": "AVENIDA_ANTONIO_LUIZ_BENETTI593__VILA_SALOMAO_SABBAG_17471-314", "LATITUDE": "-22.4152793", "LONGITUDE": "-49.4180082", "LMAPS": "https://www.google.com/maps?q=&layer=c&cbll=-49.4180082,-22.4152793", "O_QUE_FAZER": "FINALIZADO", "field_10": null, "field_11": null, "field_12": null, "field_13": null, "ER_REGIAO_CIDADE_min": "Duartina_Bauru" }, "geometry": { "type": "Point", "coordinates": [ -49.4180082, -22.4152793 ] } },
{ "type": "Feature", "properties": { "CNPJ": "30754264000100", "IDCIDADE": "DUARTINA", "NOMEFANTASIA": "J_A_FERRAZ_DO_NASCIMENTO_ENGENHARIA", "RAZAOSOCIAL": "FN_ENGENHARIA", "ENDEE": "RUA_HORTELA200__CENTRO_17470-000", "LATITUDE": "-22.4146076", "LONGITUDE": "-49.4060459", "LMAPS": "https://www.google.com/maps?q=&layer=c&cbll=-49.4060459,-22.4146076", "O_QUE_FAZER": "FINALIZADO", "field_10": null, "field_11": null, "field_12": null, "field_13": null, "ER_REGIAO_CIDADE_min": "Duartina_Bauru" }, "geometry": { "type": "Point", "coordinates": [ -49.4060459, -22.4146076 ] } },
{ "type": "Feature", "properties": { "CNPJ": "26743051000288", "IDCIDADE": "DUARTINA", "NOMEFANTASIA": "MOLINA_MC", "RAZAOSOCIAL": "C.C._MOLINA", "ENDEE": "AVENIDA_SAO_PAULO136__CENTRO_17470-041", "LATITUDE": "-22.4152776", "LONGITUDE": "-49.4098585", "LMAPS": "https://www.google.com/maps?q=&layer=c&cbll=-49.4098585,-22.4152776", "O_QUE_FAZER": "APLICAR T2", "field_10": null, "field_11": null, "field_12": null, "field_13": null, "ER_REGIAO_CIDADE_min": "Duartina_Bauru" }, "geometry": { "type": "Point", "coordinates": [ -49.4098585, -22.4152776 ] } },
{ "type": "Feature", "properties": { "CNPJ": "05166653000169", "IDCIDADE": "DUARTINA", "NOMEFANTASIA": "FORTE_TINTAS", "RAZAOSOCIAL": "JOSE_WAGNER_FERNANDES_DUARTINA", "ENDEE": "AVENIDA_SAO_PAULO275__CENTRO_17470-041", "LATITUDE": "-22.41489", "LONGITUDE": "-49.408735", "LMAPS": "https://www.google.com/maps?q=&layer=c&cbll=-49.408735,-22.41489", "O_QUE_FAZER": "APLICAR T2", "field_10": null, "field_11": null, "field_12": null, "field_13": null, "ER_REGIAO_CIDADE_min": "Duartina_Bauru" }, "geometry": { "type": "Point", "coordinates": [ -49.408735, -22.41489 ] } },
{ "type": "Feature", "properties": { "CNPJ": "00166012000190", "IDCIDADE": "DUARTINA", "NOMEFANTASIA": "JULIO_PRESENTES", "RAZAOSOCIAL": "SONIA_FATIMA_FERRAREZI_JULIO_&_CIA_PRESENTES_E_ELETRO_LTDA", "ENDEE": "AVENIDA_SAO_PAULO285__CENTRO_17470-041", "LATITUDE": "-22.4147889", "LONGITUDE": "-49.4086558", "LMAPS": "https://www.google.com/maps?q=&layer=c&cbll=-49.4086558,-22.4147889", "O_QUE_FAZER": "APLICAR T2", "field_10": null, "field_11": null, "field_12": null, "field_13": null, "ER_REGIAO_CIDADE_min": "Duartina_Bauru" }, "geometry": { "type": "Point", "coordinates": [ -49.4086558, -22.4147889 ] } },
{ "type": "Feature", "properties": { "CNPJ": "04092754000170", "IDCIDADE": "DUARTINA", "NOMEFANTASIA": "LOJA_ABALO_INFANTIL", "RAZAOSOCIAL": "M_A_TORRES_CONFECCOES_LTDA", "ENDEE": "AVENIDA_SAO_PAULO280__CENTRO_17470-041", "LATITUDE": "-22.4150983", "LONGITUDE": "-49.40851", "LMAPS": "https://www.google.com/maps?q=&layer=c&cbll=-49.40851,-22.4150983", "O_QUE_FAZER": "APLICAR T2", "field_10": null, "field_11": null, "field_12": null, "field_13": null, "ER_REGIAO_CIDADE_min": "Duartina_Bauru" }, "geometry": { "type": "Point", "coordinates": [ -49.40851, -22.4150983 ] } },
{ "type": "Feature", "properties": { "CNPJ": "11183463000152", "IDCIDADE": "DUARTINA", "NOMEFANTASIA": "INTER_MOVEIS", "RAZAOSOCIAL": "SUSANA_MARIA_DE_PAIVA_NUNES", "ENDEE": "AVENIDA_SAO_PAULO313__CENTRO_17470-041", "LATITUDE": "-22.4148082", "LONGITUDE": "-49.4083001", "LMAPS": "https://www.google.com/maps?q=&layer=c&cbll=-49.4083001,-22.4148082", "O_QUE_FAZER": "APLICAR T2", "field_10": null, "field_11": null, "field_12": null, "field_13": null, "ER_REGIAO_CIDADE_min": "Duartina_Bauru" }, "geometry": { "type": "Point", "coordinates": [ -49.4083001, -22.4148082 ] } },
{ "type": "Feature", "properties": { "CNPJ": "08618372000198", "IDCIDADE": "DUARTINA", "NOMEFANTASIA": "KATA_MODAS", "RAZAOSOCIAL": "CATARINA_FARIA_BANHARA", "ENDEE": "AVENIDA_SAO_PAULO323__CENTRO_17470-041", "LATITUDE": "-22.4149248", "LONGITUDE": "-49.4082153", "LMAPS": "https://www.google.com/maps?q=&layer=c&cbll=-49.4082153,-22.4149248", "O_QUE_FAZER": "APLICAR T2", "field_10": null, "field_11": null, "field_12": null, "field_13": null, "ER_REGIAO_CIDADE_min": "Duartina_Bauru" }, "geometry": { "type": "Point", "coordinates": [ -49.4082153, -22.4149248 ] } },
{ "type": "Feature", "properties": { "CNPJ": "28126104000166", "IDCIDADE": "DUARTINA", "NOMEFANTASIA": "AGROPAULO", "RAZAOSOCIAL": "MARCELO_SALIM_DE_OLIVEIRA", "ENDEE": "AVENIDA_SAO_PAULO339__CENTRO_17470-041", "LATITUDE": "-22.4147617", "LONGITUDE": "-49.4080967", "LMAPS": "https://www.google.com/maps?q=&layer=c&cbll=-49.4080967,-22.4147617", "O_QUE_FAZER": "APLICAR T2", "field_10": null, "field_11": null, "field_12": null, "field_13": null, "ER_REGIAO_CIDADE_min": "Duartina_Bauru" }, "geometry": { "type": "Point", "coordinates": [ -49.4080967, -22.4147617 ] } },
{ "type": "Feature", "properties": { "CNPJ": "65632416000178", "IDCIDADE": "DUARTINA", "NOMEFANTASIA": "PASTELARIA_DO_RICARDO", "RAZAOSOCIAL": "HIFUMI_YAMAGUCHI", "ENDEE": "AVENIDA_SAO_PAULO391__CENTRO_17470-041", "LATITUDE": "-22.41475", "LONGITUDE": "-49.4076346", "LMAPS": "https://www.google.com/maps?q=&layer=c&cbll=-49.4076346,-22.41475", "O_QUE_FAZER": "APLICAR T2", "field_10": null, "field_11": null, "field_12": null, "field_13": null, "ER_REGIAO_CIDADE_min": "Duartina_Bauru" }, "geometry": { "type": "Point", "coordinates": [ -49.4076346, -22.41475 ] } },
{ "type": "Feature", "properties": { "CNPJ": "50743913000176", "IDCIDADE": "DUARTINA", "NOMEFANTASIA": "MERCADO_GARBULLIO", "RAZAOSOCIAL": "GARBULLIO_&_CIA_LTDA", "ENDEE": "AVENIDA_SAO_PAULO428__CENTRO_17470-041", "LATITUDE": "-22.4148005", "LONGITUDE": "-49.4071453", "LMAPS": "https://www.google.com/maps?q=&layer=c&cbll=-49.4071453,-22.4148005", "O_QUE_FAZER": "APLICAR T2", "field_10": null, "field_11": null, "field_12": null, "field_13": null, "ER_REGIAO_CIDADE_min": "Duartina_Bauru" }, "geometry": { "type": "Point", "coordinates": [ -49.4071453, -22.4148005 ] } },
{ "type": "Feature", "properties": { "CNPJ": "02831233000161", "IDCIDADE": "DUARTINA", "NOMEFANTASIA": "OTICA_CENTER", "RAZAOSOCIAL": "SALVIANO_&_CARDOSO_LTDA", "ENDEE": "AVENIDA_SAO_PAULO438__CENTRO_17470-041", "LATITUDE": "-22.414856", "LONGITUDE": "-49.4070474", "LMAPS": "https://www.google.com/maps?q=&layer=c&cbll=-49.4070474,-22.414856", "O_QUE_FAZER": "APLICAR T2", "field_10": null, "field_11": null, "field_12": null, "field_13": null, "ER_REGIAO_CIDADE_min": "Duartina_Bauru" }, "geometry": { "type": "Point", "coordinates": [ -49.4070474, -22.414856 ] } },
{ "type": "Feature", "properties": { "CNPJ": "02181622000199", "IDCIDADE": "DUARTINA", "NOMEFANTASIA": "AGROSHOP", "RAZAOSOCIAL": "AGROSHOP_PRODUTOS_AGROPECUARIOS_LTDA", "ENDEE": "RUA_THEOFILO_CORDOVIL129__CENTRO_17470-005", "LATITUDE": "-22.4152469", "LONGITUDE": "-49.4070005", "LMAPS": "https://www.google.com/maps?q=&layer=c&cbll=-49.4070005,-22.4152469", "O_QUE_FAZER": "APLICAR T2", "field_10": null, "field_11": null, "field_12": null, "field_13": null, "ER_REGIAO_CIDADE_min": "Duartina_Bauru" }, "geometry": { "type": "Point", "coordinates": [ -49.4070005, -22.4152469 ] } },
{ "type": "Feature", "properties": { "CNPJ": "51732343000181", "IDCIDADE": "DUARTINA", "NOMEFANTASIA": "JULIO_MAIS_PRESENTES", "RAZAOSOCIAL": "ELOISA_JULIO_BISPO", "ENDEE": "AVENIDA_SAO_PAULO519__CENTRO_17470-041", "LATITUDE": "-22.4145216", "LONGITUDE": "-49.406382", "LMAPS": "https://www.google.com/maps?q=&layer=c&cbll=-49.406382,-22.4145216", "O_QUE_FAZER": "APLICAR T2", "field_10": null, "field_11": null, "field_12": null, "field_13": null, "ER_REGIAO_CIDADE_min": "Duartina_Bauru" }, "geometry": { "type": "Point", "coordinates": [ -49.406382, -22.4145216 ] } },
{ "type": "Feature", "properties": { "CNPJ": "19263374000128", "IDCIDADE": "DUARTINA", "NOMEFANTASIA": "YNA", "RAZAOSOCIAL": "MARINA_CHACON_LOZANO", "ENDEE": "AVENIDA_SAO_PAULO529__CENTRO_17470-041", "LATITUDE": "-22.4144701", "LONGITUDE": "-49.4062102", "LMAPS": "https://www.google.com/maps?q=&layer=c&cbll=-49.4062102,-22.4144701", "O_QUE_FAZER": "APLICAR T2", "field_10": null, "field_11": null, "field_12": null, "field_13": null, "ER_REGIAO_CIDADE_min": "Duartina_Bauru" }, "geometry": { "type": "Point", "coordinates": [ -49.4062102, -22.4144701 ] } },
{ "type": "Feature", "properties": { "CNPJ": "65672495000140", "IDCIDADE": "DUARTINA", "NOMEFANTASIA": "AGRO_TERRA", "RAZAOSOCIAL": "RUI_ROBERTO_AREDES_LTDA", "ENDEE": "RUA_BENEDITO_GEBARA320__CENTRO_17470-007", "LATITUDE": "-22.4151227", "LONGITUDE": "-49.4058633", "LMAPS": "https://www.google.com/maps?q=&layer=c&cbll=-49.4058633,-22.4151227", "O_QUE_FAZER": "APLICAR T2", "field_10": null, "field_11": null, "field_12": null, "field_13": null, "ER_REGIAO_CIDADE_min": "Duartina_Bauru" }, "geometry": { "type": "Point", "coordinates": [ -49.4058633, -22.4151227 ] } },
{ "type": "Feature", "properties": { "CNPJ": "50536032000184", "IDCIDADE": "DUARTINA", "NOMEFANTASIA": "DU_199", "RAZAOSOCIAL": "C.E_ANDRADE_DE_OLIVEIRA_LOJA_DE_VARIEDADES_LTDA", "ENDEE": "AVENIDA_NOVE_DE_JULHO651__CENTRO_17470-039", "LATITUDE": "-22.413525", "LONGITUDE": "-49.4056606", "LMAPS": "https://www.google.com/maps?q=&layer=c&cbll=-49.4056606,-22.413525", "O_QUE_FAZER": "APLICAR T2", "field_10": null, "field_11": null, "field_12": null, "field_13": null, "ER_REGIAO_CIDADE_min": "Duartina_Bauru" }, "geometry": { "type": "Point", "coordinates": [ -49.4056606, -22.413525 ] } },
{ "type": "Feature", "properties": { "CNPJ": "28121045000133", "IDCIDADE": "DUARTINA", "NOMEFANTASIA": "CASA_DO_NORTE", "RAZAOSOCIAL": "RONALDO_F_DE_OLIVEIRA_COMERCIO", "ENDEE": "AVENIDA_NOVE_DE_JULHO681__CENTRO_17470-039", "LATITUDE": "-22.4133891", "LONGITUDE": "-49.4055444", "LMAPS": "https://www.google.com/maps?q=&layer=c&cbll=-49.4055444,-22.4133891", "O_QUE_FAZER": "APLICAR T2", "field_10": null, "field_11": null, "field_12": null, "field_13": null, "ER_REGIAO_CIDADE_min": "Duartina_Bauru" }, "geometry": { "type": "Point", "coordinates": [ -49.4055444, -22.4133891 ] } },
{ "type": "Feature", "properties": { "CNPJ": "06789249000104", "IDCIDADE": "DUARTINA", "NOMEFANTASIA": "VIDA_BELLA", "RAZAOSOCIAL": "CLAUDILENE_HONORATO_LEONEL_INACIO", "ENDEE": "AVENIDA_SAO_PAULO608__CENTRO_17470-041", "LATITUDE": "-22.4145514", "LONGITUDE": "-49.4055011", "LMAPS": "https://www.google.com/maps?q=&layer=c&cbll=-49.4055011,-22.4145514", "O_QUE_FAZER": "APLICAR T2", "field_10": null, "field_11": null, "field_12": null, "field_13": null, "ER_REGIAO_CIDADE_min": "Duartina_Bauru" }, "geometry": { "type": "Point", "coordinates": [ -49.4055011, -22.4145514 ] } },
{ "type": "Feature", "properties": { "CNPJ": "30842285000179", "IDCIDADE": "DUARTINA", "NOMEFANTASIA": "CIRO_MOVEIS", "RAZAOSOCIAL": "MOVEIS_CIRO_LTDA", "ENDEE": "RUA_DONA_RIMA_SIMAO431__CENTRO_17470-009", "LATITUDE": "-22.4131667", "LONGITUDE": "-49.405455", "LMAPS": "https://www.google.com/maps?q=&layer=c&cbll=-49.405455,-22.4131667", "O_QUE_FAZER": "APLICAR T2", "field_10": null, "field_11": null, "field_12": null, "field_13": null, "ER_REGIAO_CIDADE_min": "Duartina_Bauru" }, "geometry": { "type": "Point", "coordinates": [ -49.405455, -22.4131667 ] } },
{ "type": "Feature", "properties": { "CNPJ": "52045480000100", "IDCIDADE": "DUARTINA", "NOMEFANTASIA": "JAU_CALCADOS", "RAZAOSOCIAL": "ANDERSON_DE_SOUZA_SILVA_CALCADOS_LTDA", "ENDEE": "AVENIDA_SAO_PAULO629__CENTRO_17470-041", "LATITUDE": "-22.4143847", "LONGITUDE": "-49.4053178", "LMAPS": "https://www.google.com/maps?q=&layer=c&cbll=-49.4053178,-22.4143847", "O_QUE_FAZER": "APLICAR T2", "field_10": null, "field_11": null, "field_12": null, "field_13": null, "ER_REGIAO_CIDADE_min": "Duartina_Bauru" }, "geometry": { "type": "Point", "coordinates": [ -49.4053178, -22.4143847 ] } },
{ "type": "Feature", "properties": { "CNPJ": "11112123000130", "IDCIDADE": "DUARTINA", "NOMEFANTASIA": "FORTCAR_ACESSORIOS", "RAZAOSOCIAL": "COMERCIAL_SILVA_&_RODRIGUES_LTDA", "ENDEE": "AVENIDA_NOVE_DE_JULHO700__CENTRO_17470-039", "LATITUDE": "-22.4136212", "LONGITUDE": "-49.4051919", "LMAPS": "https://www.google.com/maps?q=&layer=c&cbll=-49.4051919,-22.4136212", "O_QUE_FAZER": "APLICAR T2", "field_10": null, "field_11": null, "field_12": null, "field_13": null, "ER_REGIAO_CIDADE_min": "Duartina_Bauru" }, "geometry": { "type": "Point", "coordinates": [ -49.4051919, -22.4136212 ] } },
{ "type": "Feature", "properties": { "CNPJ": "03673405000189", "IDCIDADE": "DUARTINA", "NOMEFANTASIA": "CHERRY_OTICA", "RAZAOSOCIAL": "ROSELI_FERNANDES_DA_SILVA_DUARTINA", "ENDEE": "AVENIDA_SAO_PAULO630__CENTRO_17470-041", "LATITUDE": "-22.4145924", "LONGITUDE": "-49.4051503", "LMAPS": "https://www.google.com/maps?q=&layer=c&cbll=-49.4051503,-22.4145924", "O_QUE_FAZER": "APLICAR T2", "field_10": null, "field_11": null, "field_12": null, "field_13": null, "ER_REGIAO_CIDADE_min": "Duartina_Bauru" }, "geometry": { "type": "Point", "coordinates": [ -49.4051503, -22.4145924 ] } },
{ "type": "Feature", "properties": { "CNPJ": "07094184000145", "IDCIDADE": "DUARTINA", "NOMEFANTASIA": "AGUA_E_CIA", "RAZAOSOCIAL": "FONTES_E_FARIAS_LTDA", "ENDEE": "RUA_SETE_DE_SETEMBRO427__CENTRO_17470-015", "LATITUDE": "-22.412169", "LONGITUDE": "-49.4026493", "LMAPS": "https://www.google.com/maps?q=&layer=c&cbll=-49.4026493,-22.412169", "O_QUE_FAZER": "APLICAR T2", "field_10": null, "field_11": null, "field_12": null, "field_13": null, "ER_REGIAO_CIDADE_min": "Duartina_Bauru" }, "geometry": { "type": "Point", "coordinates": [ -49.4026493, -22.412169 ] } },
{ "type": "Feature", "properties": { "CNPJ": "49671831000184", "IDCIDADE": "DUARTINA", "NOMEFANTASIA": "REDE_ADNAI", "RAZAOSOCIAL": "49.671.831_CASSIO_GONCALVES_PEREIRA_JUNIOR", "ENDEE": "AVENIDA SÃO PAULO, 20, CENTRO, 17470-041, DUARTINA, SP, BRASIL", "LATITUDE": "-22.4154932", "LONGITUDE": "-49.4110581", "LMAPS": "https://www.google.com/maps?q=&layer=c&cbll=-22.4154932,-49.4110581", "O_QUE_FAZER": "APLICAR T2", "field_10": null, "field_11": null, "field_12": null, "field_13": null, "ER_REGIAO_CIDADE_min": "Duartina_Bauru" }, "geometry": { "type": "Point", "coordinates": [ -49.4110581, -22.4154932 ] } },
{ "type": "Feature", "properties": { "CNPJ": "44942479000150", "IDCIDADE": "DUARTINA", "NOMEFANTASIA": "LANCHONETE_PONTO_CHIQUE", "RAZAOSOCIAL": "NARA_CRISTINA_BASILIO_DOS_SANTOS_05838898836", "ENDEE": "RUA MANOEL SALUSTIANO CAVALCANTI, 4, VILA MARSIGLIO, 17471-022, DUARTINA, SP, BRASIL", "LATITUDE": "-22.4152844", "LONGITUDE": "-49.4115037", "LMAPS": "https://www.google.com/maps?q=&layer=c&cbll=-22.4152844,-49.4115037", "O_QUE_FAZER": "APLICAR T2", "field_10": null, "field_11": null, "field_12": null, "field_13": null, "ER_REGIAO_CIDADE_min": "Duartina_Bauru" }, "geometry": { "type": "Point", "coordinates": [ -49.4115037, -22.4152844 ] } },
{ "type": "Feature", "properties": { "CNPJ": "34805174000143", "IDCIDADE": "DUARTINA", "NOMEFANTASIA": "CICLO_DOUPLAS_BICICLETARIA", "RAZAOSOCIAL": "34.805.174_ROZANA_BATISTA_MIRANDA", "ENDEE": "AVENIDA SÃO PAULO, 280, CENTRO, 17470-041, DUARTINA, SP, BRASIL", "LATITUDE": "-22.4152219", "LONGITUDE": "-49.408704", "LMAPS": "https://www.google.com/maps?q=&layer=c&cbll=-22.4152219,-49.408704", "O_QUE_FAZER": "APLICAR T2", "field_10": null, "field_11": null, "field_12": null, "field_13": null, "ER_REGIAO_CIDADE_min": "Duartina_Bauru" }, "geometry": { "type": "Point", "coordinates": [ -49.408704, -22.4152219 ] } },
{ "type": "Feature", "properties": { "CNPJ": "11525092000140", "IDCIDADE": "DUARTINA", "NOMEFANTASIA": "MR_SOM", "RAZAOSOCIAL": "AUGUSTO_MARCELO_REINER", "ENDEE": "AVENIDA SÃO PAULO, 228, CENTRO, 17470-041, DUARTINA, BRASIL", "LATITUDE": "-22.4151556", "LONGITUDE": "-49.4091548", "LMAPS": "https://www.google.com/maps?q=&layer=c&cbll=-22.4151556,-49.4091548", "O_QUE_FAZER": "APLICAR T2", "field_10": null, "field_11": null, "field_12": null, "field_13": null, "ER_REGIAO_CIDADE_min": "Duartina_Bauru" }, "geometry": { "type": "Point", "coordinates": [ -49.4091548, -22.4151556 ] } },
{ "type": "Feature", "properties": { "CNPJ": "53781755000137", "IDCIDADE": "DUARTINA", "NOMEFANTASIA": "SEMPRE_COUTRY", "RAZAOSOCIAL": "53.781.755_RODRIGO_DONIZETE_ZANON", "ENDEE": "RUA THEÓFILO CORDOVIL, 146, CENTRO, 17470-005, DUARTINA, SP, BRASIL", "LATITUDE": "-22.415072", "LONGITUDE": "-49.406717", "LMAPS": "https://www.google.com/maps?q=&layer=c&cbll=-22.415072,-49.406717", "O_QUE_FAZER": "APLICAR T2", "field_10": null, "field_11": null, "field_12": null, "field_13": null, "ER_REGIAO_CIDADE_min": "Duartina_Bauru" }, "geometry": { "type": "Point", "coordinates": [ -49.406717, -22.415072 ] } },
{ "type": "Feature", "properties": { "CNPJ": "55033454000150", "IDCIDADE": "DUARTINA", "NOMEFANTASIA": "IBITINGA_EMXOVAIS", "RAZAOSOCIAL": "55.033.454_EVERIDIANA_MARY_VENANCIO", "ENDEE": "ESTRADA SÃO PAULO, 265, CENTRO, 17470-041, DUARTINA, SP, BRASIL", "LATITUDE": "-22.4149451", "LONGITUDE": "-49.4088553", "LMAPS": "https://www.google.com/maps?q=&layer=c&cbll=-22.4149451,-49.4088553", "O_QUE_FAZER": "APLICAR T2", "field_10": null, "field_11": null, "field_12": null, "field_13": null, "ER_REGIAO_CIDADE_min": "Duartina_Bauru" }, "geometry": { "type": "Point", "coordinates": [ -49.4088553, -22.4149451 ] } },
{ "type": "Feature", "properties": { "CNPJ": "20847650000184", "IDCIDADE": "DUARTINA", "NOMEFANTASIA": "DONA_CARLOTA_ASSESSÓRIOS", "RAZAOSOCIAL": "RAQUEL_FIGUEIREDO_DE_ALMEIDA_34941319885", "ENDEE": "AVENIDA SÃO PAULO, 400, CENTRO, 17470-041, DUARTINA, SP, BRASIL", "LATITUDE": "-22.4148686", "LONGITUDE": "-49.4074131", "LMAPS": "https://www.google.com/maps?q=&layer=c&cbll=-22.4148686,-49.4074131", "O_QUE_FAZER": "APLICAR T2", "field_10": null, "field_11": null, "field_12": null, "field_13": null, "ER_REGIAO_CIDADE_min": "Duartina_Bauru" }, "geometry": { "type": "Point", "coordinates": [ -49.4074131, -22.4148686 ] } },
{ "type": "Feature", "properties": { "CNPJ": "66552759000195", "IDCIDADE": "DUARTINA", "NOMEFANTASIA": "SABATINI_MODAS", "RAZAOSOCIAL": "66.552.759_MARISA_PIRISSATO_SABBATINI", "ENDEE": "AVENIDA SÃO PAULO, 620, CENTRO, 17470-041, DUARTINA, SP, BRASIL", "LATITUDE": "-22.4146419", "LONGITUDE": "-49.4053181", "LMAPS": "https://www.google.com/maps?q=&layer=c&cbll=-22.4146419,-49.4053181", "O_QUE_FAZER": "APLICAR T2", "field_10": null, "field_11": null, "field_12": null, "field_13": null, "ER_REGIAO_CIDADE_min": "Duartina_Bauru" }, "geometry": { "type": "Point", "coordinates": [ -49.4053181, -22.4146419 ] } },
{ "type": "Feature", "properties": { "CNPJ": "32889908000194", "IDCIDADE": "DUARTINA", "NOMEFANTASIA": "ATRAÇÃO_JEANS", "RAZAOSOCIAL": "R_N_SANTOS_CONFECCOES", "ENDEE": "AVENIDA SÃO PAULO, 475, CENTRO, 17470-041, DUARTINA, SP, BRASIL", "LATITUDE": "-22.4145554", "LONGITUDE": "-49.4067582", "LMAPS": "https://www.google.com/maps?q=&layer=c&cbll=-22.4145554,-49.4067582", "O_QUE_FAZER": "APLICAR T2", "field_10": null, "field_11": null, "field_12": null, "field_13": null, "ER_REGIAO_CIDADE_min": "Duartina_Bauru" }, "geometry": { "type": "Point", "coordinates": [ -49.4067582, -22.4145554 ] } },
{ "type": "Feature", "properties": { "CNPJ": "01669528000110", "IDCIDADE": "DUARTINA", "NOMEFANTASIA": "RELOJOARIA_SÃO_JOSÉ", "RAZAOSOCIAL": "MARELLI_DE_JESUS_FRAUZINO_MALDONADO", "ENDEE": "AVENIDA SÃO PAULO, 495, CENTRO, 17470-009, DUARTINA, BRASIL", "LATITUDE": "-22.4144633", "LONGITUDE": "-49.4065838", "LMAPS": "https://www.google.com/maps?q=&layer=c&cbll=-22.4144633,-49.4065838", "O_QUE_FAZER": "APLICAR T2", "field_10": null, "field_11": null, "field_12": null, "field_13": null, "ER_REGIAO_CIDADE_min": "Duartina_Bauru" }, "geometry": { "type": "Point", "coordinates": [ -49.4065838, -22.4144633 ] } },
{ "type": "Feature", "properties": { "CNPJ": "46843942000132", "IDCIDADE": "DUARTINA", "NOMEFANTASIA": "MAGAZINE_SÃO_JORGE", "RAZAOSOCIAL": "SALIBA_MIGUEL_MURAD", "ENDEE": "AVENIDA SÃO PAULO, 505, CENTRO, 17470-009, DUARTINA, BRASIL", "LATITUDE": "-22.4144611", "LONGITUDE": "-49.4063732", "LMAPS": "https://www.google.com/maps?q=&layer=c&cbll=-22.4144611,-49.4063732", "O_QUE_FAZER": "APLICAR T2", "field_10": null, "field_11": null, "field_12": null, "field_13": null, "ER_REGIAO_CIDADE_min": "Duartina_Bauru" }, "geometry": { "type": "Point", "coordinates": [ -49.4063732, -22.4144611 ] } },
{ "type": "Feature", "properties": { "CNPJ": "27488070000197", "IDCIDADE": "DUARTINA", "NOMEFANTASIA": "FAST_FEST", "RAZAOSOCIAL": "27.488.070_BRUNO_GRACIA_DE_OLIVEIRA_CANASSA", "ENDEE": "AVENIDA SÃO PAULO, 505, CENTRO, 17470-041, DUARTINA, SP, BRASIL", "LATITUDE": "-22.4144261", "LONGITUDE": "-49.4064779", "LMAPS": "https://www.google.com/maps?q=&layer=c&cbll=-22.4144261,-49.4064779", "O_QUE_FAZER": "APLICAR T2", "field_10": null, "field_11": null, "field_12": null, "field_13": null, "ER_REGIAO_CIDADE_min": "Duartina_Bauru" }, "geometry": { "type": "Point", "coordinates": [ -49.4064779, -22.4144261 ] } },
{ "type": "Feature", "properties": { "CNPJ": "51177545000109", "IDCIDADE": "DUARTINA", "NOMEFANTASIA": "MULTI_ACESSÓRIOS_E_PRESENTES", "RAZAOSOCIAL": "51.177.545_CASSIO_JOSE_DE_ANDRADE_MANGIALARDO", "ENDEE": "AVENIDA SÃO PAULO, 613, CENTRO, 17470-041, DUARTINA, SP, BRASIL", "LATITUDE": "-22.4144212", "LONGITUDE": "-49.4054102", "LMAPS": "https://www.google.com/maps?q=&layer=c&cbll=-22.4144212,-49.4054102", "O_QUE_FAZER": "APLICAR T2", "field_10": null, "field_11": null, "field_12": null, "field_13": null, "ER_REGIAO_CIDADE_min": "Duartina_Bauru" }, "geometry": { "type": "Point", "coordinates": [ -49.4054102, -22.4144212 ] } },
{ "type": "Feature", "properties": { "CNPJ": "59902888000109", "IDCIDADE": "DUARTINA", "NOMEFANTASIA": "DI_VERO", "RAZAOSOCIAL": "DI_VERO_PADARIA_&_CAFE_LTDA", "ENDEE": "AVENIDA SÃO PAULO, 127, CENTRO, 17470-041, DUARTINA, SP, BRASIL", "LATITUDE": "-22.4143194", "LONGITUDE": "-49.4048599", "LMAPS": "https://www.google.com/maps?q=&layer=c&cbll=-22.4143194,-49.4048599", "O_QUE_FAZER": "APLICAR T2", "field_10": null, "field_11": null, "field_12": null, "field_13": null, "ER_REGIAO_CIDADE_min": "Duartina_Bauru" }, "geometry": { "type": "Point", "coordinates": [ -49.4048599, -22.4143194 ] } },
{ "type": "Feature", "properties": { "CNPJ": "58949503000198", "IDCIDADE": "DUARTINA", "NOMEFANTASIA": "TABERNA_BEER", "RAZAOSOCIAL": "58.949.503_MARCO_ANTONIO_CANEDO_BERTAO", "ENDEE": "RUA DOMICIANO AREDES, 385, CENTRO, 17470-011, DUARTINA, SP, BRASIL", "LATITUDE": "-22.4142103", "LONGITUDE": "-49.4047204", "LMAPS": "https://www.google.com/maps?q=&layer=c&cbll=-22.4142103,-49.4047204", "O_QUE_FAZER": "APLICAR T2", "field_10": null, "field_11": null, "field_12": null, "field_13": null, "ER_REGIAO_CIDADE_min": "Duartina_Bauru" }, "geometry": { "type": "Point", "coordinates": [ -49.4047204, -22.4142103 ] } },
{ "type": "Feature", "properties": { "CNPJ": "47971969000173", "IDCIDADE": "DUARTINA", "NOMEFANTASIA": "ELÓI_MODAS", "RAZAOSOCIAL": "47.971.969_JOSILENE_DA_SILVA_ALMEIDA_GODOY", "ENDEE": "RUA DONA RIMA SIMÃO, 293, CENTRO, 17470-009, DUARTINA, SP, BRASIL", "LATITUDE": "-22.4141916", "LONGITUDE": "-49.4052949", "LMAPS": "https://www.google.com/maps?q=&layer=c&cbll=-22.4141916,-49.4052949", "O_QUE_FAZER": "APLICAR T2", "field_10": null, "field_11": null, "field_12": null, "field_13": null, "ER_REGIAO_CIDADE_min": "Duartina_Bauru" }, "geometry": { "type": "Point", "coordinates": [ -49.4052949, -22.4141916 ] } },
{ "type": "Feature", "properties": { "CNPJ": "66538614000130", "IDCIDADE": "DUARTINA", "NOMEFANTASIA": "CASA_DE_CARNES_E_EMPORIO_SANTA_LUZIA_LTDA", "RAZAOSOCIAL": "DAVID_MAICON_MORAES_LTDA", "ENDEE": "PRACA EMBAIXADOR PEDRO DE TOLEDO, 163, CENTRO, 17470-010, DUARTINA, SP, BRASIL", "LATITUDE": "-22.4141597", "LONGITUDE": "-49.4046139", "LMAPS": "https://www.google.com/maps?q=&layer=c&cbll=-22.4141597,-49.4046139", "O_QUE_FAZER": "APLICAR T2", "field_10": null, "field_11": null, "field_12": null, "field_13": null, "ER_REGIAO_CIDADE_min": "Duartina_Bauru" }, "geometry": { "type": "Point", "coordinates": [ -49.4046139, -22.4141597 ] } },
{ "type": "Feature", "properties": { "CNPJ": "64440624000102", "IDCIDADE": "DUARTINA", "NOMEFANTASIA": "FLOR_DO_CARMELO_STOR", "RAZAOSOCIAL": "64.440.624_NATHALIA_TAMELINI_ZANATTA", "ENDEE": "AVENIDA SÃO PAULO, 231, CENTRO, 17470-041, DUARTINA, SP, BRASIL", "LATITUDE": "-22.4140531", "LONGITUDE": "-49.4039262", "LMAPS": "https://www.google.com/maps?q=&layer=c&cbll=-22.4140531,-49.4039262", "O_QUE_FAZER": "APLICAR T2", "field_10": null, "field_11": null, "field_12": null, "field_13": null, "ER_REGIAO_CIDADE_min": "Duartina_Bauru" }, "geometry": { "type": "Point", "coordinates": [ -49.4039262, -22.4140531 ] } },
{ "type": "Feature", "properties": { "CNPJ": "41718383000115", "IDCIDADE": "DUARTINA", "NOMEFANTASIA": "BARBEARIA_LOS_SANTOS", "RAZAOSOCIAL": "41.718.383_PEDRO_CAMPANHA", "ENDEE": "RUA DONA RIMA SIMÃO, 329, CENTRO, 17470-009, DUARTINA, SP, BRASIL", "LATITUDE": "-22.4139861", "LONGITUDE": "-49.4053966", "LMAPS": "https://www.google.com/maps?q=&layer=c&cbll=-22.4139861,-49.4053966", "O_QUE_FAZER": "APLICAR T2", "field_10": null, "field_11": null, "field_12": null, "field_13": null, "ER_REGIAO_CIDADE_min": "Duartina_Bauru" }, "geometry": { "type": "Point", "coordinates": [ -49.4053966, -22.4139861 ] } },
{ "type": "Feature", "properties": { "CNPJ": "40624238000102", "IDCIDADE": "DUARTINA", "NOMEFANTASIA": "VILA_GYM", "RAZAOSOCIAL": "ACADEMIA_VILA_GYM_LTDA", "ENDEE": "AVENIDA_SAO_PAULO299__VILA_DUARTINA_17470-041", "LATITUDE": "-22.4162272", "LONGITUDE": "-49.4159531", "LMAPS": "https://www.google.com/maps?q=&layer=c&cbll=-49.4159531,-22.4162272", "O_QUE_FAZER": "APLICAR T2", "field_10": null, "field_11": null, "field_12": null, "field_13": null, "ER_REGIAO_CIDADE_min": "Duartina_Bauru" }, "geometry": { "type": "Point", "coordinates": [ -49.4159531, -22.4162272 ] } },
{ "type": "Feature", "properties": { "CNPJ": "04354792000153", "IDCIDADE": "DUARTINA", "NOMEFANTASIA": "PANIFICADORA_CRISTO_REDENTOR", "RAZAOSOCIAL": "ANTONIO_CARLOS_DA_SILVA_MARANHO", "ENDEE": "AVENIDA_SAO_PAULO164__VILA_DUARTINA_17470-041", "LATITUDE": "-22.4148651", "LONGITUDE": "-49.4129725", "LMAPS": "https://www.google.com/maps?q=&layer=c&cbll=-49.4129725,-22.4148651", "O_QUE_FAZER": "APLICAR T2", "field_10": null, "field_11": null, "field_12": null, "field_13": null, "ER_REGIAO_CIDADE_min": "Duartina_Bauru" }, "geometry": { "type": "Point", "coordinates": [ -49.4129725, -22.4148651 ] } },
{ "type": "Feature", "properties": { "CNPJ": "01153514000140", "IDCIDADE": "DUARTINA", "NOMEFANTASIA": "ELIANE_PRESENTES", "RAZAOSOCIAL": "ELIANE_GUSMAO_NUNES_SIMAO_&_CIA_LTDA", "ENDEE": "AVENIDA_NOVE_DE_JULHO657__CENTRO_17470-039", "LATITUDE": "-22.4135909", "LONGITUDE": "-49.4054421", "LMAPS": "https://www.google.com/maps?q=&layer=c&cbll=-49.4054421,-22.4135909", "O_QUE_FAZER": "APLICAR T2", "field_10": null, "field_11": null, "field_12": null, "field_13": null, "ER_REGIAO_CIDADE_min": "Duartina_Bauru" }, "geometry": { "type": "Point", "coordinates": [ -49.4054421, -22.4135909 ] } },
{ "type": "Feature", "properties": { "CNPJ": "60169864000163", "IDCIDADE": "DUARTINA", "NOMEFANTASIA": "TOK_DE_AMOR_PRESENTES", "RAZAOSOCIAL": "60.169.864_GABRIELA_CARDOSO_SABINO", "ENDEE": "AVENIDA SÃO PAULO, 280, CENTRO, 17470-041, DUARTINA, SP, BRASIL", "LATITUDE": "-22.4152219", "LONGITUDE": "-49.408704", "LMAPS": "https://www.google.com/maps?q=&layer=c&cbll=-22.4152219,-49.408704", "O_QUE_FAZER": "APLICAR T2", "field_10": null, "field_11": null, "field_12": null, "field_13": null, "ER_REGIAO_CIDADE_min": "Duartina_Bauru" }, "geometry": { "type": "Point", "coordinates": [ -49.408704, -22.4152219 ] } },
{ "type": "Feature", "properties": { "CNPJ": "20499912000167", "IDCIDADE": "DUARTINA", "NOMEFANTASIA": "AGROPECUARIA_FRACAROLI", "RAZAOSOCIAL": "JOSE_LUIS_FRACAROLI", "ENDEE": "AVENIDA_SAO_PAULO629__CENTRO_17470-041", "LATITUDE": "-22.4144977", "LONGITUDE": "-49.4051892", "LMAPS": "https://www.google.com/maps?q=&layer=c&cbll=-49.4051892,-22.4144977", "O_QUE_FAZER": "APLICAR T3", "field_10": null, "field_11": null, "field_12": null, "field_13": null, "ER_REGIAO_CIDADE_min": "Duartina_Bauru" }, "geometry": { "type": "Point", "coordinates": [ -49.4051892, -22.4144977 ] } },
{ "type": "Feature", "properties": { "CNPJ": "21748048000152", "IDCIDADE": "DUARTINA", "NOMEFANTASIA": "SUPERMERCADO_DALU", "RAZAOSOCIAL": "LUCIELMA_DE_SOUSA_SALVADOR", "ENDEE": "RUA_TSUTOMU_MURAKAMI157__VILA_SALOMAO_SABBAG_17471-344", "LATITUDE": "-22.4176233", "LONGITUDE": "-49.4165317", "LMAPS": "https://www.google.com/maps?q=&layer=c&cbll=-49.4165317,-22.4176233", "O_QUE_FAZER": "CARTEIRA", "field_10": null, "field_11": null, "field_12": null, "field_13": null, "ER_REGIAO_CIDADE_min": "Duartina_Bauru" }, "geometry": { "type": "Point", "coordinates": [ -49.4165317, -22.4176233 ] } },
{ "type": "Feature", "properties": { "CNPJ": "74612169000139", "IDCIDADE": "DUARTINA", "NOMEFANTASIA": "COLCHOES_NUNES", "RAZAOSOCIAL": "ELIAS_GUSMAO_NUNES", "ENDEE": "AVENIDA_SAO_PAULO464__CENTRO_17470-041", "LATITUDE": "-22.415395", "LONGITUDE": "-49.4125983", "LMAPS": "https://www.google.com/maps?q=&layer=c&cbll=-49.4125983,-22.415395", "O_QUE_FAZER": "CARTEIRA", "field_10": null, "field_11": null, "field_12": null, "field_13": null, "ER_REGIAO_CIDADE_min": "Duartina_Bauru" }, "geometry": { "type": "Point", "coordinates": [ -49.4125983, -22.415395 ] } },
{ "type": "Feature", "properties": { "CNPJ": "04648022000113", "IDCIDADE": "DUARTINA", "NOMEFANTASIA": "LM_PECAS", "RAZAOSOCIAL": "TRES_IRMAOS_MARANHO_PECAS_E_ROLAMENTOS_LTDA", "ENDEE": "AVENIDA_NOVE_DE_JULHO277__CENTRO_17470-039", "LATITUDE": "-22.4140766", "LONGITUDE": "-49.4093583", "LMAPS": "https://www.google.com/maps?q=&layer=c&cbll=-49.4093583,-22.4140766", "O_QUE_FAZER": "CARTEIRA", "field_10": null, "field_11": null, "field_12": null, "field_13": null, "ER_REGIAO_CIDADE_min": "Duartina_Bauru" }, "geometry": { "type": "Point", "coordinates": [ -49.4093583, -22.4140766 ] } },
{ "type": "Feature", "properties": { "CNPJ": "26686738000148", "IDCIDADE": "DUARTINA", "NOMEFANTASIA": "MEGA_REAL", "RAZAOSOCIAL": "BV_COMERCIO_VAREJISTA_DE_UTILIDADES_DOMESTICAS_LTDA", "ENDEE": "AVENIDA_SAO_PAULO214__CENTRO_17470-041", "LATITUDE": "-22.4151986", "LONGITUDE": "-49.4093473", "LMAPS": "https://www.google.com/maps?q=&layer=c&cbll=-49.4093473,-22.4151986", "O_QUE_FAZER": "CARTEIRA", "field_10": null, "field_11": null, "field_12": null, "field_13": null, "ER_REGIAO_CIDADE_min": "Duartina_Bauru" }, "geometry": { "type": "Point", "coordinates": [ -49.4093473, -22.4151986 ] } },
{ "type": "Feature", "properties": { "CNPJ": "00918487000196", "IDCIDADE": "DUARTINA", "NOMEFANTASIA": "BORRACHARIA_PIZENTE", "RAZAOSOCIAL": "JOAO_ANTONIO_PIZENTE_DUARTINA", "ENDEE": "AVENIDA_NOVE_DE_JULHO290__CENTRO_17470-039", "LATITUDE": "-22.4145233", "LONGITUDE": "-49.4091918", "LMAPS": "https://www.google.com/maps?q=&layer=c&cbll=-49.4091918,-22.4145233", "O_QUE_FAZER": "CARTEIRA", "field_10": null, "field_11": null, "field_12": null, "field_13": null, "ER_REGIAO_CIDADE_min": "Duartina_Bauru" }, "geometry": { "type": "Point", "coordinates": [ -49.4091918, -22.4145233 ] } },
{ "type": "Feature", "properties": { "CNPJ": "08685437000118", "IDCIDADE": "DUARTINA", "NOMEFANTASIA": "BUCA_RICARDO", "RAZAOSOCIAL": "RICARDO_MARANHO_BERTOLDO", "ENDEE": "AVENIDA_NOVE_DE_JULHO300__CENTRO_17470-039", "LATITUDE": "-22.4143132", "LONGITUDE": "-49.4090814", "LMAPS": "https://www.google.com/maps?q=&layer=c&cbll=-49.4090814,-22.4143132", "O_QUE_FAZER": "CARTEIRA", "field_10": null, "field_11": null, "field_12": null, "field_13": null, "ER_REGIAO_CIDADE_min": "Duartina_Bauru" }, "geometry": { "type": "Point", "coordinates": [ -49.4090814, -22.4143132 ] } },
{ "type": "Feature", "properties": { "CNPJ": "20762360000138", "IDCIDADE": "DUARTINA", "NOMEFANTASIA": "AQUARELA_PAPELARIA", "RAZAOSOCIAL": "PAPELARIA_ANZOLIN_LTDA", "ENDEE": "AVENIDA_SAO_PAULO414__CENTRO_17470-041", "LATITUDE": "-22.417305", "LONGITUDE": "-49.40806", "LMAPS": "https://www.google.com/maps?q=&layer=c&cbll=-49.40806,-22.417305", "O_QUE_FAZER": "CARTEIRA", "field_10": null, "field_11": null, "field_12": null, "field_13": null, "ER_REGIAO_CIDADE_min": "Duartina_Bauru" }, "geometry": { "type": "Point", "coordinates": [ -49.40806, -22.417305 ] } },
{ "type": "Feature", "properties": { "CNPJ": "12325501000127", "IDCIDADE": "DUARTINA", "NOMEFANTASIA": "CENTER_VET", "RAZAOSOCIAL": "KALINE_AZENHA_CARLONI", "ENDEE": "RUA_JOSE_ALVES_PEIXOTO_DE_NORONHA233__CENTRO_17470-003", "LATITUDE": "-22.4145901", "LONGITUDE": "-49.407981", "LMAPS": "https://www.google.com/maps?q=&layer=c&cbll=-49.407981,-22.4145901", "O_QUE_FAZER": "CARTEIRA", "field_10": null, "field_11": null, "field_12": null, "field_13": null, "ER_REGIAO_CIDADE_min": "Duartina_Bauru" }, "geometry": { "type": "Point", "coordinates": [ -49.407981, -22.4145901 ] } },
{ "type": "Feature", "properties": { "CNPJ": "07293866000187", "IDCIDADE": "DUARTINA", "NOMEFANTASIA": "FRUTO_FAMILIA", "RAZAOSOCIAL": "VALERIA_A._CARDOSO_BALESTRA", "ENDEE": "RUA_THEOFILO_CORDOVIL345__CENTRO_17470-005", "LATITUDE": "-22.4129833", "LONGITUDE": "-49.4079283", "LMAPS": "https://www.google.com/maps?q=&layer=c&cbll=-49.4079283,-22.4129833", "O_QUE_FAZER": "CARTEIRA", "field_10": null, "field_11": null, "field_12": null, "field_13": null, "ER_REGIAO_CIDADE_min": "Duartina_Bauru" }, "geometry": { "type": "Point", "coordinates": [ -49.4079283, -22.4129833 ] } },
{ "type": "Feature", "properties": { "CNPJ": "07119981000130", "IDCIDADE": "DUARTINA", "NOMEFANTASIA": "LOJA_ABALO_2", "RAZAOSOCIAL": "ARENET_COMERCIO_DE_CONFECCOES_LTDA", "ENDEE": "AVENIDA_SAO_PAULO377__CENTRO_17470-041", "LATITUDE": "-22.4147836", "LONGITUDE": "-49.4077218", "LMAPS": "https://www.google.com/maps?q=&layer=c&cbll=-49.4077218,-22.4147836", "O_QUE_FAZER": "CARTEIRA", "field_10": null, "field_11": null, "field_12": null, "field_13": null, "ER_REGIAO_CIDADE_min": "Duartina_Bauru" }, "geometry": { "type": "Point", "coordinates": [ -49.4077218, -22.4147836 ] } },
{ "type": "Feature", "properties": { "CNPJ": "10593517000195", "IDCIDADE": "DUARTINA", "NOMEFANTASIA": "AGROVETCAMP", "RAZAOSOCIAL": "VETCAMP_PRODUTOS_AGROPECUARIOS_LTDA", "ENDEE": "AVENIDA_SAO_PAULO370__CENTRO_17470-041", "LATITUDE": "-22.4149877", "LONGITUDE": "-49.407704", "LMAPS": "https://www.google.com/maps?q=&layer=c&cbll=-49.407704,-22.4149877", "O_QUE_FAZER": "CARTEIRA", "field_10": null, "field_11": null, "field_12": null, "field_13": null, "ER_REGIAO_CIDADE_min": "Duartina_Bauru" }, "geometry": { "type": "Point", "coordinates": [ -49.407704, -22.4149877 ] } },
{ "type": "Feature", "properties": { "CNPJ": "04961144000246", "IDCIDADE": "DUARTINA", "NOMEFANTASIA": "LOPES_E_BONACI", "RAZAOSOCIAL": "LOPES_CASA_E_CONSTRUCOES_LTDA", "ENDEE": "AVENIDA_SAO_PAULO943__CENTRO_17470-039", "LATITUDE": "-22.4150965", "LONGITUDE": "-49.4074368", "LMAPS": "https://www.google.com/maps?q=&layer=c&cbll=-49.4074368,-22.4150965", "O_QUE_FAZER": "CARTEIRA", "field_10": null, "field_11": null, "field_12": null, "field_13": null, "ER_REGIAO_CIDADE_min": "Duartina_Bauru" }, "geometry": { "type": "Point", "coordinates": [ -49.4074368, -22.4150965 ] } },
{ "type": "Feature", "properties": { "CNPJ": "34401062000127", "IDCIDADE": "DUARTINA", "NOMEFANTASIA": "MILANI_ESTOFARIA", "RAZAOSOCIAL": "GILSON_MILANI", "ENDEE": "RUA_THEOFILO_CORDOVIL345__CENTRO_17470-005", "LATITUDE": "-22.4132298", "LONGITUDE": "-49.4073969", "LMAPS": "https://www.google.com/maps?q=&layer=c&cbll=-49.4073969,-22.4132298", "O_QUE_FAZER": "CARTEIRA", "field_10": null, "field_11": null, "field_12": null, "field_13": null, "ER_REGIAO_CIDADE_min": "Duartina_Bauru" }, "geometry": { "type": "Point", "coordinates": [ -49.4073969, -22.4132298 ] } },
{ "type": "Feature", "properties": { "CNPJ": "02095217000158", "IDCIDADE": "DUARTINA", "NOMEFANTASIA": "JLF_MC", "RAZAOSOCIAL": "JOAO_LOZANO_NETTO_LTDA", "ENDEE": "AVENIDA_SAO_PAULO413__CENTRO_17470-041", "LATITUDE": "-22.4147778", "LONGITUDE": "-49.4073668", "LMAPS": "https://www.google.com/maps?q=&layer=c&cbll=-49.4073668,-22.4147778", "O_QUE_FAZER": "CARTEIRA", "field_10": null, "field_11": null, "field_12": null, "field_13": null, "ER_REGIAO_CIDADE_min": "Duartina_Bauru" }, "geometry": { "type": "Point", "coordinates": [ -49.4073668, -22.4147778 ] } },
{ "type": "Feature", "properties": { "CNPJ": "47641576000100", "IDCIDADE": "DUARTINA", "NOMEFANTASIA": "JLF_MC", "RAZAOSOCIAL": "JOAO_LOZANO_FILHO_LTDA", "ENDEE": "AVENIDA_SAO_PAULO413__CENTRO_17470-041", "LATITUDE": "-22.4145913", "LONGITUDE": "-49.407359", "LMAPS": "https://www.google.com/maps?q=&layer=c&cbll=-49.407359,-22.4145913", "O_QUE_FAZER": "CARTEIRA", "field_10": null, "field_11": null, "field_12": null, "field_13": null, "ER_REGIAO_CIDADE_min": "Duartina_Bauru" }, "geometry": { "type": "Point", "coordinates": [ -49.407359, -22.4145913 ] } },
{ "type": "Feature", "properties": { "CNPJ": "02694906000189", "IDCIDADE": "DUARTINA", "NOMEFANTASIA": "APSE_CAMISARIA", "RAZAOSOCIAL": "CONFECCOES_SANTA_LUZIA_LTDA", "ENDEE": "RUA_THEOFILO_CORDOVIL305__CENTRO_17470-134", "LATITUDE": "-22.4131056", "LONGITUDE": "-49.4073315", "LMAPS": "https://www.google.com/maps?q=&layer=c&cbll=-49.4073315,-22.4131056", "O_QUE_FAZER": "CARTEIRA", "field_10": null, "field_11": null, "field_12": null, "field_13": null, "ER_REGIAO_CIDADE_min": "Duartina_Bauru" }, "geometry": { "type": "Point", "coordinates": [ -49.4073315, -22.4131056 ] } },
{ "type": "Feature", "properties": { "CNPJ": "58312992000172", "IDCIDADE": "DUARTINA", "NOMEFANTASIA": "EU_E_ELA_COSMETICOS", "RAZAOSOCIAL": "R_R_COMERCIO_DE_PERFUMES_E_COSMETICOS_LTDA", "ENDEE": "AVENIDA_SAO_PAULO420__CENTRO_17470-041", "LATITUDE": "-22.4149034", "LONGITUDE": "-49.40728", "LMAPS": "https://www.google.com/maps?q=&layer=c&cbll=-49.40728,-22.4149034", "O_QUE_FAZER": "CARTEIRA", "field_10": null, "field_11": null, "field_12": null, "field_13": null, "ER_REGIAO_CIDADE_min": "Duartina_Bauru" }, "geometry": { "type": "Point", "coordinates": [ -49.40728, -22.4149034 ] } },
{ "type": "Feature", "properties": { "CNPJ": "71838379000151", "IDCIDADE": "DUARTINA", "NOMEFANTASIA": "ESSE_MODAS", "RAZAOSOCIAL": "SINETE_DO_CARMO_FURLANETTO_FERRO", "ENDEE": "AVENIDA_SAO_PAULO420__CENTRO_17470-041", "LATITUDE": "-22.4148566", "LONGITUDE": "-49.4070576", "LMAPS": "https://www.google.com/maps?q=&layer=c&cbll=-49.4070576,-22.4148566", "O_QUE_FAZER": "CARTEIRA", "field_10": null, "field_11": null, "field_12": null, "field_13": null, "ER_REGIAO_CIDADE_min": "Duartina_Bauru" }, "geometry": { "type": "Point", "coordinates": [ -49.4070576, -22.4148566 ] } },
{ "type": "Feature", "properties": { "CNPJ": "30053377000170", "IDCIDADE": "DUARTINA", "NOMEFANTASIA": "AGROPECUARIA_ANIMALI", "RAZAOSOCIAL": "ANIMALI_PRODUTOS_AGROPECUARIOS_LTDA", "ENDEE": "AVENIDA_NOVE_DE_JULHO513__CENTRO_17470-039", "LATITUDE": "-22.4136626", "LONGITUDE": "-49.4069886", "LMAPS": "https://www.google.com/maps?q=&layer=c&cbll=-49.4069886,-22.4136626", "O_QUE_FAZER": "CARTEIRA", "field_10": null, "field_11": null, "field_12": null, "field_13": null, "ER_REGIAO_CIDADE_min": "Duartina_Bauru" }, "geometry": { "type": "Point", "coordinates": [ -49.4069886, -22.4136626 ] } },
{ "type": "Feature", "properties": { "CNPJ": "07817753000133", "IDCIDADE": "DUARTINA", "NOMEFANTASIA": "KI_PASTEL", "RAZAOSOCIAL": "VANDA_MARIA_DA_SILVA_LTDA", "ENDEE": "RUA_THEOFILO_CORDOVIL180__CENTRO_17470-005", "LATITUDE": "-22.4141943", "LONGITUDE": "-49.4069125", "LMAPS": "https://www.google.com/maps?q=&layer=c&cbll=-49.4069125,-22.4141943", "O_QUE_FAZER": "CARTEIRA", "field_10": null, "field_11": null, "field_12": null, "field_13": null, "ER_REGIAO_CIDADE_min": "Duartina_Bauru" }, "geometry": { "type": "Point", "coordinates": [ -49.4069125, -22.4141943 ] } },
{ "type": "Feature", "properties": { "CNPJ": "34580034000114", "IDCIDADE": "DUARTINA", "NOMEFANTASIA": "ELETRICA_E_CIA", "RAZAOSOCIAL": "NR_COMERCIO_DE_MATERIAIS_ELETRICOS_LTDA", "ENDEE": "AVENIDA_NOVE_DE_JULHO523__CENTRO_17470-039", "LATITUDE": "-22.4136237", "LONGITUDE": "-49.4069062", "LMAPS": "https://www.google.com/maps?q=&layer=c&cbll=-49.4069062,-22.4136237", "O_QUE_FAZER": "CARTEIRA", "field_10": null, "field_11": null, "field_12": null, "field_13": null, "ER_REGIAO_CIDADE_min": "Duartina_Bauru" }, "geometry": { "type": "Point", "coordinates": [ -49.4069062, -22.4136237 ] } },
{ "type": "Feature", "properties": { "CNPJ": "43392430000109", "IDCIDADE": "DUARTINA", "NOMEFANTASIA": "CASA_PRIMAVERA", "RAZAOSOCIAL": "LOURIVAL_RIBEIRO_DE_ALMEIDA", "ENDEE": "AVENIDA_SAO_PAULO471__CENTRO_17470-041", "LATITUDE": "-22.4146757", "LONGITUDE": "-49.4068379", "LMAPS": "https://www.google.com/maps?q=&layer=c&cbll=-49.4068379,-22.4146757", "O_QUE_FAZER": "CARTEIRA", "field_10": null, "field_11": null, "field_12": null, "field_13": null, "ER_REGIAO_CIDADE_min": "Duartina_Bauru" }, "geometry": { "type": "Point", "coordinates": [ -49.4068379, -22.4146757 ] } },
{ "type": "Feature", "properties": { "CNPJ": "05311264000180", "IDCIDADE": "DUARTINA", "NOMEFANTASIA": "CFC_DUARTINENSE", "RAZAOSOCIAL": "CENTRO_DE_FORMACAO_DE_CONDUTORES_DUARTINENSE_LTDA", "ENDEE": "RUA_THEOFILO_CORDOVIL122__CENTRO_17470-005", "LATITUDE": "-22.4152996", "LONGITUDE": "-49.4067675", "LMAPS": "https://www.google.com/maps?q=&layer=c&cbll=-49.4067675,-22.4152996", "O_QUE_FAZER": "CARTEIRA", "field_10": null, "field_11": null, "field_12": null, "field_13": null, "ER_REGIAO_CIDADE_min": "Duartina_Bauru" }, "geometry": { "type": "Point", "coordinates": [ -49.4067675, -22.4152996 ] } },
{ "type": "Feature", "properties": { "CNPJ": "10398355000134", "IDCIDADE": "DUARTINA", "NOMEFANTASIA": "OTICA_VISUAL", "RAZAOSOCIAL": "SHIRLEI_PARRA_MARTINES", "ENDEE": "AVENIDA_SAO_PAULO474__CENTRO_17470-041", "LATITUDE": "-22.4147759", "LONGITUDE": "-49.4067446", "LMAPS": "https://www.google.com/maps?q=&layer=c&cbll=-49.4067446,-22.4147759", "O_QUE_FAZER": "CARTEIRA", "field_10": null, "field_11": null, "field_12": null, "field_13": null, "ER_REGIAO_CIDADE_min": "Duartina_Bauru" }, "geometry": { "type": "Point", "coordinates": [ -49.4067446, -22.4147759 ] } },
{ "type": "Feature", "properties": { "CNPJ": "47232465000131", "IDCIDADE": "DUARTINA", "NOMEFANTASIA": "PAPELARIA_NELSINHO", "RAZAOSOCIAL": "SILVANA_D_FURLANETTO_DA_SILVA", "ENDEE": "AVENIDA_SAO_PAULO492__CENTRO_17470-041", "LATITUDE": "-22.4147722", "LONGITUDE": "-49.4066647", "LMAPS": "https://www.google.com/maps?q=&layer=c&cbll=-49.4066647,-22.4147722", "O_QUE_FAZER": "CARTEIRA", "field_10": null, "field_11": null, "field_12": null, "field_13": null, "ER_REGIAO_CIDADE_min": "Duartina_Bauru" }, "geometry": { "type": "Point", "coordinates": [ -49.4066647, -22.4147722 ] } },
{ "type": "Feature", "properties": { "CNPJ": "19758282000119", "IDCIDADE": "DUARTINA", "NOMEFANTASIA": "PAPELARIA_NELSINHO", "RAZAOSOCIAL": "JEFFERSON_MATHEUS_DA_SILVA", "ENDEE": "AVENIDA_SAO_PAULO500__CENTRO_17470-041", "LATITUDE": "-22.4146842", "LONGITUDE": "-49.4066178", "LMAPS": "https://www.google.com/maps?q=&layer=c&cbll=-49.4066178,-22.4146842", "O_QUE_FAZER": "CARTEIRA", "field_10": null, "field_11": null, "field_12": null, "field_13": null, "ER_REGIAO_CIDADE_min": "Duartina_Bauru" }, "geometry": { "type": "Point", "coordinates": [ -49.4066178, -22.4146842 ] } },
{ "type": "Feature", "properties": { "CNPJ": "60031127000108", "IDCIDADE": "DUARTINA", "NOMEFANTASIA": "TOP_DROGARIAS", "RAZAOSOCIAL": "MANIPULA_PHARMA_SANTA_LUZIA_LTDA", "ENDEE": "AVENIDA_EXPEDICIONARIO_ANTONIO_APARECIDO408__CENTRO_17470-043", "LATITUDE": "-22.4157917", "LONGITUDE": "-49.4066175", "LMAPS": "https://www.google.com/maps?q=&layer=c&cbll=-49.4066175,-22.4157917", "O_QUE_FAZER": "CARTEIRA", "field_10": null, "field_11": null, "field_12": null, "field_13": null, "ER_REGIAO_CIDADE_min": "Duartina_Bauru" }, "geometry": { "type": "Point", "coordinates": [ -49.4066175, -22.4157917 ] } },
{ "type": "Feature", "properties": { "CNPJ": "04961144000165", "IDCIDADE": "DUARTINA", "NOMEFANTASIA": "LB_MATERIAIS_DE_CONSTRUCAO", "RAZAOSOCIAL": "LOPES_CASA_E_CONSTRUCOES_LTDA", "ENDEE": "RUA_BENEDITO_GEBARA283__CENTRO_17470-007", "LATITUDE": "-22.4148287", "LONGITUDE": "-49.4065922", "LMAPS": "https://www.google.com/maps?q=&layer=c&cbll=-49.4065922,-22.4148287", "O_QUE_FAZER": "CARTEIRA", "field_10": null, "field_11": null, "field_12": null, "field_13": null, "ER_REGIAO_CIDADE_min": "Duartina_Bauru" }, "geometry": { "type": "Point", "coordinates": [ -49.4065922, -22.4148287 ] } },
{ "type": "Feature", "properties": { "CNPJ": "14647165000164", "IDCIDADE": "DUARTINA", "NOMEFANTASIA": "ATHTETICA_FITNESS", "RAZAOSOCIAL": "D._B._HERNANDES_&_CIA_LTDA", "ENDEE": "AVENIDA_AURELIANO_AREDES372__CENTRO_17470-049", "LATITUDE": "-22.415995", "LONGITUDE": "-49.4064651", "LMAPS": "https://www.google.com/maps?q=&layer=c&cbll=-49.4064651,-22.415995", "O_QUE_FAZER": "CARTEIRA", "field_10": null, "field_11": null, "field_12": null, "field_13": null, "ER_REGIAO_CIDADE_min": "Duartina_Bauru" }, "geometry": { "type": "Point", "coordinates": [ -49.4064651, -22.415995 ] } },
{ "type": "Feature", "properties": { "CNPJ": "34009945000196", "IDCIDADE": "DUARTINA", "NOMEFANTASIA": "MERCADO_PORTUGUES", "RAZAOSOCIAL": "SILVANA_MARIA_MONTEFUSCO", "ENDEE": "AVENIDA_NOVE_DE_JULHO588__CENTRO_17470-041", "LATITUDE": "-22.4138737", "LONGITUDE": "-49.4062591", "LMAPS": "https://www.google.com/maps?q=&layer=c&cbll=-49.4062591,-22.4138737", "O_QUE_FAZER": "CARTEIRA", "field_10": null, "field_11": null, "field_12": null, "field_13": null, "ER_REGIAO_CIDADE_min": "Duartina_Bauru" }, "geometry": { "type": "Point", "coordinates": [ -49.4062591, -22.4138737 ] } },
{ "type": "Feature", "properties": { "CNPJ": "02973038000176", "IDCIDADE": "DUARTINA", "NOMEFANTASIA": "LABORATORIO_SAO_LUCAS", "RAZAOSOCIAL": "LABORATORIO_ZAPPAROLLI_ROJAS_LTDA", "ENDEE": "AVENIDA_EXPEDICIONARIO_ANTONIO_APARECIDO470__CENTRO_17470-043", "LATITUDE": "-22.4155817", "LONGITUDE": "-49.4061017", "LMAPS": "https://www.google.com/maps?q=&layer=c&cbll=-49.4061017,-22.4155817", "O_QUE_FAZER": "CARTEIRA", "field_10": null, "field_11": null, "field_12": null, "field_13": null, "ER_REGIAO_CIDADE_min": "Duartina_Bauru" }, "geometry": { "type": "Point", "coordinates": [ -49.4061017, -22.4155817 ] } },
{ "type": "Feature", "properties": { "CNPJ": "10189489000145", "IDCIDADE": "DUARTINA", "NOMEFANTASIA": "A_CALCEVEST", "RAZAOSOCIAL": "JULISMAR_ANTONIO_MENDONCA", "ENDEE": "AVENIDA_NOVE_DE_JULHO608__CENTRO_17470-039", "LATITUDE": "-22.4138522", "LONGITUDE": "-49.40606", "LMAPS": "https://www.google.com/maps?q=&layer=c&cbll=-49.40606,-22.4138522", "O_QUE_FAZER": "CARTEIRA", "field_10": null, "field_11": null, "field_12": null, "field_13": null, "ER_REGIAO_CIDADE_min": "Duartina_Bauru" }, "geometry": { "type": "Point", "coordinates": [ -49.40606, -22.4138522 ] } },
{ "type": "Feature", "properties": { "CNPJ": "02581032000153", "IDCIDADE": "DUARTINA", "NOMEFANTASIA": "SUPERMERCADO_MAX", "RAZAOSOCIAL": "KATIA_REGINA_MARTINUCCI_DE_OLIVEIRA_LTDA", "ENDEE": "RUA_BENEDITO_GEBARA226__CENTRO_17470-007", "LATITUDE": "-22.4153564", "LONGITUDE": "-49.405896", "LMAPS": "https://www.google.com/maps?q=&layer=c&cbll=-49.405896,-22.4153564", "O_QUE_FAZER": "CARTEIRA", "field_10": null, "field_11": null, "field_12": null, "field_13": null, "ER_REGIAO_CIDADE_min": "Duartina_Bauru" }, "geometry": { "type": "Point", "coordinates": [ -49.405896, -22.4153564 ] } },
{ "type": "Feature", "properties": { "CNPJ": "29263703000194", "IDCIDADE": "DUARTINA", "NOMEFANTASIA": "DROGARIA_AVENIDA_SAO_PAULO", "RAZAOSOCIAL": "DROGARIA_AVENIDA_SAO_PAULO_LTDA", "ENDEE": "AVENIDA_SAO_PAULO486__CENTRO_17470-041", "LATITUDE": "-22.4187217", "LONGITUDE": "-49.4058867", "LMAPS": "https://www.google.com/maps?q=&layer=c&cbll=-49.4058867,-22.4187217", "O_QUE_FAZER": "CARTEIRA", "field_10": null, "field_11": null, "field_12": null, "field_13": null, "ER_REGIAO_CIDADE_min": "Duartina_Bauru" }, "geometry": { "type": "Point", "coordinates": [ -49.4058867, -22.4187217 ] } },
{ "type": "Feature", "properties": { "CNPJ": "36242796000136", "IDCIDADE": "DUARTINA", "NOMEFANTASIA": "QUEIROZ_GASPAR_ESPECIALIDADES", "RAZAOSOCIAL": "QUEIROZ_GASPAR_CLINICA_MEDICA_LTDA.", "ENDEE": "RUA_BENEDITO_GEBARA207__CENTRO_17470-007", "LATITUDE": "-22.415886", "LONGITUDE": "-49.405886", "LMAPS": "https://www.google.com/maps?q=&layer=c&cbll=-49.405886,-22.415886", "O_QUE_FAZER": "CARTEIRA", "field_10": null, "field_11": null, "field_12": null, "field_13": null, "ER_REGIAO_CIDADE_min": "Duartina_Bauru" }, "geometry": { "type": "Point", "coordinates": [ -49.405886, -22.415886 ] } },
{ "type": "Feature", "properties": { "CNPJ": "17644427000125", "IDCIDADE": "DUARTINA", "NOMEFANTASIA": "DROGARIA_TOTAL", "RAZAOSOCIAL": "MARINO_-_DROGARIA_LTDA", "ENDEE": "AVENIDA_NOVE_DE_JULHO631__CENTRO_17470-039", "LATITUDE": "-22.4136066", "LONGITUDE": "-49.4058275", "LMAPS": "https://www.google.com/maps?q=&layer=c&cbll=-49.4058275,-22.4136066", "O_QUE_FAZER": "CARTEIRA", "field_10": null, "field_11": null, "field_12": null, "field_13": null, "ER_REGIAO_CIDADE_min": "Duartina_Bauru" }, "geometry": { "type": "Point", "coordinates": [ -49.4058275, -22.4136066 ] } },
{ "type": "Feature", "properties": { "CNPJ": "68221175000162", "IDCIDADE": "DUARTINA", "NOMEFANTASIA": "BOM_PRECO", "RAZAOSOCIAL": "TOLEDO_&_ROCHA_COMERCIO_DE_CONFECCOES_LTDA", "ENDEE": "AVENIDA_SAO_PAULO595__CENTRO_17470-041", "LATITUDE": "-22.4144285", "LONGITUDE": "-49.4057723", "LMAPS": "https://www.google.com/maps?q=&layer=c&cbll=-49.4057723,-22.4144285", "O_QUE_FAZER": "CARTEIRA", "field_10": null, "field_11": null, "field_12": null, "field_13": null, "ER_REGIAO_CIDADE_min": "Duartina_Bauru" }, "geometry": { "type": "Point", "coordinates": [ -49.4057723, -22.4144285 ] } },
{ "type": "Feature", "properties": { "CNPJ": "46150819000136", "IDCIDADE": "DUARTINA", "NOMEFANTASIA": "FARMACIA_CENTRAL", "RAZAOSOCIAL": "VERMEJO_&_VERMEJO_LTDA", "ENDEE": "AVENIDA_SAO_PAULO80__CENTRO_17470-041", "LATITUDE": "-22.4145002", "LONGITUDE": "-49.405745", "LMAPS": "https://www.google.com/maps?q=&layer=c&cbll=-49.405745,-22.4145002", "O_QUE_FAZER": "CARTEIRA", "field_10": null, "field_11": null, "field_12": null, "field_13": null, "ER_REGIAO_CIDADE_min": "Duartina_Bauru" }, "geometry": { "type": "Point", "coordinates": [ -49.405745, -22.4145002 ] } },
{ "type": "Feature", "properties": { "CNPJ": "01597158000153", "IDCIDADE": "DUARTINA", "NOMEFANTASIA": "BONI_CALCADOS", "RAZAOSOCIAL": "BONI_CALCADOS_E_CONFECCOES_LTDA", "ENDEE": "AVENIDA_SAO_PAULO588__CENTRO_17470-041", "LATITUDE": "-22.4146927", "LONGITUDE": "-49.4056188", "LMAPS": "https://www.google.com/maps?q=&layer=c&cbll=-49.4056188,-22.4146927", "O_QUE_FAZER": "CARTEIRA", "field_10": null, "field_11": null, "field_12": null, "field_13": null, "ER_REGIAO_CIDADE_min": "Duartina_Bauru" }, "geometry": { "type": "Point", "coordinates": [ -49.4056188, -22.4146927 ] } },
{ "type": "Feature", "properties": { "CNPJ": "67029918000134", "IDCIDADE": "DUARTINA", "NOMEFANTASIA": "CASA_DE_CARNES_BANDEIRANTES", "RAZAOSOCIAL": "NORBERTO_CARLOS_QUINTINO", "ENDEE": "AVENIDA_SAO_PAULO588__CENTRO_17470-010", "LATITUDE": "-22.4145989", "LONGITUDE": "-49.4055985", "LMAPS": "https://www.google.com/maps?q=&layer=c&cbll=-49.4055985,-22.4145989", "O_QUE_FAZER": "CARTEIRA", "field_10": null, "field_11": null, "field_12": null, "field_13": null, "ER_REGIAO_CIDADE_min": "Duartina_Bauru" }, "geometry": { "type": "Point", "coordinates": [ -49.4055985, -22.4145989 ] } },
{ "type": "Feature", "properties": { "CNPJ": "03241488000137", "IDCIDADE": "DUARTINA", "NOMEFANTASIA": "DROGARIA_SAO_JOAO", "RAZAOSOCIAL": "RICARDO_DORETTO_RIZZI", "ENDEE": "AVENIDA_SAO_PAULO613__CENTRO_17470-039", "LATITUDE": "-22.4144173", "LONGITUDE": "-49.4055843", "LMAPS": "https://www.google.com/maps?q=&layer=c&cbll=-49.4055843,-22.4144173", "O_QUE_FAZER": "CARTEIRA", "field_10": null, "field_11": null, "field_12": null, "field_13": null, "ER_REGIAO_CIDADE_min": "Duartina_Bauru" }, "geometry": { "type": "Point", "coordinates": [ -49.4055843, -22.4144173 ] } },
{ "type": "Feature", "properties": { "CNPJ": "15253899000121", "IDCIDADE": "DUARTINA", "NOMEFANTASIA": "CAFE_DUARTINA", "RAZAOSOCIAL": "ANA_PAULA_NASCIMENTO_NEVES_QUINTINO", "ENDEE": "AVENIDA_SAO_PAULO600__CENTRO_17470-041", "LATITUDE": "-22.4145192", "LONGITUDE": "-49.405563", "LMAPS": "https://www.google.com/maps?q=&layer=c&cbll=-49.405563,-22.4145192", "O_QUE_FAZER": "CARTEIRA", "field_10": null, "field_11": null, "field_12": null, "field_13": null, "ER_REGIAO_CIDADE_min": "Duartina_Bauru" }, "geometry": { "type": "Point", "coordinates": [ -49.405563, -22.4145192 ] } },
{ "type": "Feature", "properties": { "CNPJ": "12842489000128", "IDCIDADE": "DUARTINA", "NOMEFANTASIA": "KI_BARATO", "RAZAOSOCIAL": "MATEUS_&_NASCIMENTO_CONFECCOES_LTDA", "ENDEE": "AVENIDA_SAO_PAULO601__CENTRO_17470-041", "LATITUDE": "-22.414334", "LONGITUDE": "-49.4055468", "LMAPS": "https://www.google.com/maps?q=&layer=c&cbll=-49.4055468,-22.414334", "O_QUE_FAZER": "CARTEIRA", "field_10": null, "field_11": null, "field_12": null, "field_13": null, "ER_REGIAO_CIDADE_min": "Duartina_Bauru" }, "geometry": { "type": "Point", "coordinates": [ -49.4055468, -22.414334 ] } },
{ "type": "Feature", "properties": { "CNPJ": "10813520000177", "IDCIDADE": "DUARTINA", "NOMEFANTASIA": "CRIATIVA", "RAZAOSOCIAL": "NATALIA_&_NATALIA_ENXOVAIS_LTDA", "ENDEE": "RUA_DONA_RIMA_SIMAO417__CENTRO_17470-009", "LATITUDE": "-22.4132721", "LONGITUDE": "-49.4054671", "LMAPS": "https://www.google.com/maps?q=&layer=c&cbll=-49.4054671,-22.4132721", "O_QUE_FAZER": "CARTEIRA", "field_10": null, "field_11": null, "field_12": null, "field_13": null, "ER_REGIAO_CIDADE_min": "Duartina_Bauru" }, "geometry": { "type": "Point", "coordinates": [ -49.4054671, -22.4132721 ] } },
{ "type": "Feature", "properties": { "CNPJ": "10450538000151", "IDCIDADE": "DUARTINA", "NOMEFANTASIA": "ESTACAO_DUARTINA", "RAZAOSOCIAL": "CAMILA_BENETTI_MARQUES_VALENTE", "ENDEE": "RUA_DONA_RIMA_SIMAO412__CENTRO_17470-009", "LATITUDE": "-22.4134113", "LONGITUDE": "-49.4054148", "LMAPS": "https://www.google.com/maps?q=&layer=c&cbll=-49.4054148,-22.4134113", "O_QUE_FAZER": "CARTEIRA", "field_10": null, "field_11": null, "field_12": null, "field_13": null, "ER_REGIAO_CIDADE_min": "Duartina_Bauru" }, "geometry": { "type": "Point", "coordinates": [ -49.4054148, -22.4134113 ] } },
{ "type": "Feature", "properties": { "CNPJ": "46413362000105", "IDCIDADE": "DUARTINA", "NOMEFANTASIA": "CHOCOLATES_DUARTINA", "RAZAOSOCIAL": "RAMOS_&_CIA_CHOCOLATES_LTDA", "ENDEE": "RUA_DONA_RIMA_SIMAO314__CENTRO_17470-009", "LATITUDE": "-22.4141798", "LONGITUDE": "-49.4051149", "LMAPS": "https://www.google.com/maps?q=&layer=c&cbll=-49.4051149,-22.4141798", "O_QUE_FAZER": "CARTEIRA", "field_10": null, "field_11": null, "field_12": null, "field_13": null, "ER_REGIAO_CIDADE_min": "Duartina_Bauru" }, "geometry": { "type": "Point", "coordinates": [ -49.4051149, -22.4141798 ] } },
{ "type": "Feature", "properties": { "CNPJ": "20947956000102", "IDCIDADE": "DUARTINA", "NOMEFANTASIA": "BARATOTAL", "RAZAOSOCIAL": "MARIA_ALICE_G._DO_ESPIRITO_SANTO_RAMOS", "ENDEE": "RUA_DONA_RIMA_SIMAO310__CENTRO_17470-009", "LATITUDE": "-22.4142649", "LONGITUDE": "-49.4051005", "LMAPS": "https://www.google.com/maps?q=&layer=c&cbll=-49.4051005,-22.4142649", "O_QUE_FAZER": "CARTEIRA", "field_10": null, "field_11": null, "field_12": null, "field_13": null, "ER_REGIAO_CIDADE_min": "Duartina_Bauru" }, "geometry": { "type": "Point", "coordinates": [ -49.4051005, -22.4142649 ] } },
{ "type": "Feature", "properties": { "CNPJ": "50721599000120", "IDCIDADE": "DUARTINA", "NOMEFANTASIA": "OOPSS_PRESENTES", "RAZAOSOCIAL": "JLF_HIPERMERCADO_DA_CONSTRUCAO_LTDA", "ENDEE": "AVENIDA_NOVE_DE_JULHO431__CENTRO_17470-039", "LATITUDE": "-22.4142518", "LONGITUDE": "-49.4050617", "LMAPS": "https://www.google.com/maps?q=&layer=c&cbll=-49.4050617,-22.4142518", "O_QUE_FAZER": "CARTEIRA", "field_10": null, "field_11": null, "field_12": null, "field_13": null, "ER_REGIAO_CIDADE_min": "Duartina_Bauru" }, "geometry": { "type": "Point", "coordinates": [ -49.4050617, -22.4142518 ] } },
{ "type": "Feature", "properties": { "CNPJ": "03706759000182", "IDCIDADE": "DUARTINA", "NOMEFANTASIA": "FLORALIS", "RAZAOSOCIAL": "RADUAN_E_FRONTERA_LTDA", "ENDEE": "PRACA_EMBAIXADOR_PEDRO_DE_TOLEDO137__CENTRO_17470-010", "LATITUDE": "-22.4142852", "LONGITUDE": "-49.404794", "LMAPS": "https://www.google.com/maps?q=&layer=c&cbll=-49.404794,-22.4142852", "O_QUE_FAZER": "CARTEIRA", "field_10": null, "field_11": null, "field_12": null, "field_13": null, "ER_REGIAO_CIDADE_min": "Duartina_Bauru" }, "geometry": { "type": "Point", "coordinates": [ -49.404794, -22.4142852 ] } },
{ "type": "Feature", "properties": { "CNPJ": "46284458000110", "IDCIDADE": "DUARTINA", "NOMEFANTASIA": "CASA_DE_CARNES_SANTA_LUZIA", "RAZAOSOCIAL": "CASA_DE_CARNES_E_EMPORIO_SANTA_LUZIA_LTDA", "ENDEE": "PRACA_EMBAIXADOR_PEDRO_DE_TOLEDO163__CENTRO_17470-010", "LATITUDE": "-22.4143409", "LONGITUDE": "-49.4045735", "LMAPS": "https://www.google.com/maps?q=&layer=c&cbll=-49.4045735,-22.4143409", "O_QUE_FAZER": "CARTEIRA", "field_10": null, "field_11": null, "field_12": null, "field_13": null, "ER_REGIAO_CIDADE_min": "Duartina_Bauru" }, "geometry": { "type": "Point", "coordinates": [ -49.4045735, -22.4143409 ] } },
{ "type": "Feature", "properties": { "CNPJ": "04557921000100", "IDCIDADE": "DUARTINA", "NOMEFANTASIA": "GRAFICA_DUARTINA", "RAZAOSOCIAL": "PAULO_CEZAR_BENETTI_MARQUES_DUARTINA", "ENDEE": "RUA_DOMICIANO_AREDES369__CENTRO_17470-015", "LATITUDE": "-22.4137583", "LONGITUDE": "-49.404405", "LMAPS": "https://www.google.com/maps?q=&layer=c&cbll=-49.404405,-22.4137583", "O_QUE_FAZER": "CARTEIRA", "field_10": null, "field_11": null, "field_12": null, "field_13": null, "ER_REGIAO_CIDADE_min": "Duartina_Bauru" }, "geometry": { "type": "Point", "coordinates": [ -49.404405, -22.4137583 ] } },
{ "type": "Feature", "properties": { "CNPJ": "06171845000126", "IDCIDADE": "DUARTINA", "NOMEFANTASIA": "ECLIPSE_CONFECCOES", "RAZAOSOCIAL": "ECLIPSE_CONFECCOES_E_SILK_INDUSTRIA_E_COMERCIO_LTDA", "ENDEE": "RUA_SETE_DE_SETEMBRO880__CENTRO_17470-015", "LATITUDE": "-22.4083491", "LONGITUDE": "-49.4033067", "LMAPS": "https://www.google.com/maps?q=&layer=c&cbll=-49.4033067,-22.4083491", "O_QUE_FAZER": "CARTEIRA", "field_10": null, "field_11": null, "field_12": null, "field_13": null, "ER_REGIAO_CIDADE_min": "Duartina_Bauru" }, "geometry": { "type": "Point", "coordinates": [ -49.4033067, -22.4083491 ] } },
{ "type": "Feature", "properties": { "CNPJ": "11269991000129", "IDCIDADE": "DUARTINA", "NOMEFANTASIA": "LB_MARMORARIA", "RAZAOSOCIAL": "L._HENRIQUE_BAGON_&_CIA_LTDA", "ENDEE": "RUA_SETE_DE_SETEMBRO880__CENTRO_17470-015", "LATITUDE": "-22.4084446", "LONGITUDE": "-49.4032057", "LMAPS": "https://www.google.com/maps?q=&layer=c&cbll=-49.4032057,-22.4084446", "O_QUE_FAZER": "CARTEIRA", "field_10": null, "field_11": null, "field_12": null, "field_13": null, "ER_REGIAO_CIDADE_min": "Duartina_Bauru" }, "geometry": { "type": "Point", "coordinates": [ -49.4032057, -22.4084446 ] } },
{ "type": "Feature", "properties": { "CNPJ": "68308543000104", "IDCIDADE": "DUARTINA", "NOMEFANTASIA": "M_ELISA_CONFECCOES", "RAZAOSOCIAL": "M._ELISA_CONFECCOES_LTDA", "ENDEE": "AVENIDA_NOVE_DE_JULHO927__CENTRO_17470-039", "LATITUDE": "-22.413055", "LONGITUDE": "-49.4031367", "LMAPS": "https://www.google.com/maps?q=&layer=c&cbll=-49.4031367,-22.413055", "O_QUE_FAZER": "CARTEIRA", "field_10": null, "field_11": null, "field_12": null, "field_13": null, "ER_REGIAO_CIDADE_min": "Duartina_Bauru" }, "geometry": { "type": "Point", "coordinates": [ -49.4031367, -22.413055 ] } },
{ "type": "Feature", "properties": { "CNPJ": "10937741000157", "IDCIDADE": "DUARTINA", "NOMEFANTASIA": "4_PATAS", "RAZAOSOCIAL": "R_S_YANAGIWARA_PET_SHOP_LTDA", "ENDEE": "RUA_SETE_DE_SETEMBRO466__CENTRO_17470-015", "LATITUDE": "-22.4119446", "LONGITUDE": "-49.4026375", "LMAPS": "https://www.google.com/maps?q=&layer=c&cbll=-49.4026375,-22.4119446", "O_QUE_FAZER": "CARTEIRA", "field_10": null, "field_11": null, "field_12": null, "field_13": null, "ER_REGIAO_CIDADE_min": "Duartina_Bauru" }, "geometry": { "type": "Point", "coordinates": [ -49.4026375, -22.4119446 ] } },
{ "type": "Feature", "properties": { "CNPJ": "39329981000150", "IDCIDADE": "DUARTINA", "NOMEFANTASIA": "MERCADO_MARCONI", "RAZAOSOCIAL": "EDIVALDO_MARCONI_MINIMERCADO", "ENDEE": "AVENIDA_NOVE_DE_JULHO1181__CENTRO_17470-039", "LATITUDE": "-22.4129075", "LONGITUDE": "-49.400511", "LMAPS": "https://www.google.com/maps?q=&layer=c&cbll=-49.400511,-22.4129075", "O_QUE_FAZER": "CARTEIRA", "field_10": null, "field_11": null, "field_12": null, "field_13": null, "ER_REGIAO_CIDADE_min": "Duartina_Bauru" }, "geometry": { "type": "Point", "coordinates": [ -49.400511, -22.4129075 ] } },
{ "type": "Feature", "properties": { "CNPJ": "51056260000110", "IDCIDADE": "DUARTINA", "NOMEFANTASIA": "-", "RAZAOSOCIAL": "51.056.260_DIOGO_FRANCISCO_DE_OLIVEIRA", "ENDEE": "RUA WENCESLAU CORDOVIL JUNIOR, 435, VILA SALOMAO SABBAG, 17471-302, DUARTINA, SP, BRASIL", "LATITUDE": "-22.414043", "LONGITUDE": "-49.4185913", "LMAPS": "https://www.google.com/maps?q=&layer=c&cbll=-22.414043,-49.4185913", "O_QUE_FAZER": "CARTEIRA - FAMPE", "field_10": null, "field_11": null, "field_12": null, "field_13": null, "ER_REGIAO_CIDADE_min": "Duartina_Bauru" }, "geometry": { "type": "Point", "coordinates": [ -49.4185913, -22.414043 ] } },
{ "type": "Feature", "properties": { "CNPJ": "07034487000172", "IDCIDADE": "DUARTINA", "NOMEFANTASIA": "SUPERMERCADO SANTOS", "RAZAOSOCIAL": "COMERCIO VAREJISTA DE ALIMENTOS SANTOS E ANTIQUEIRA LTDA", "ENDEE": "AVENIDA SÃO PAULO, 339, CENTRO, 17470-000, DUARTINA, SP, BRASIL", "LATITUDE": "-22.4161696", "LONGITUDE": "-49.4164088", "LMAPS": "-", "O_QUE_FAZER": "Aplicar T2", "field_10": null, "field_11": null, "field_12": null, "field_13": null, "ER_REGIAO_CIDADE_min": "Duartina_Bauru" }, "geometry": { "type": "Point", "coordinates": [ -49.4164088, -22.4161696 ] } },
{ "type": "Feature", "properties": { "CNPJ": "44234217000131", "IDCIDADE": "DUARTINA", "NOMEFANTASIA": "AGROSANTOS", "RAZAOSOCIAL": "GUILHERME DOS SANTOS ANTIQUEIRA LTDA", "ENDEE": "AVENIDA SÃO PAULO, 333, CENTRO, 17470-000, DUARTINA, SP, BRASIL", "LATITUDE": "-22.4163661", "LONGITUDE": "-49.416193", "LMAPS": "-", "O_QUE_FAZER": "Aplicar T2", "field_10": null, "field_11": null, "field_12": null, "field_13": null, "ER_REGIAO_CIDADE_min": "Duartina_Bauru" }, "geometry": { "type": "Point", "coordinates": [ -49.416193, -22.4163661 ] } },
{ "type": "Feature", "properties": { "CNPJ": "22310282000166", "IDCIDADE": "DUARTINA", "NOMEFANTASIA": "BENE LU", "RAZAOSOCIAL": "ROSENI DA SILVA BUSQUINI 35456240807", "ENDEE": "AVENIDA SÃO PAULO, 84, CENTRO, 17470-000, DUARTINA, SP, BRASIL", "LATITUDE": "-22.4156252", "LONGITUDE": "-49.4135488", "LMAPS": "-", "O_QUE_FAZER": "Aplicar T2", "field_10": null, "field_11": null, "field_12": null, "field_13": null, "ER_REGIAO_CIDADE_min": "Duartina_Bauru" }, "geometry": { "type": "Point", "coordinates": [ -49.4135488, -22.4156252 ] } },
{ "type": "Feature", "properties": { "CNPJ": "43894974000179", "IDCIDADE": "DUARTINA", "NOMEFANTASIA": "CASA DE CARNES 5 ESTRELAS", "RAZAOSOCIAL": "JOEL CARLOS QUINTINO", "ENDEE": "AVENIDA SÃO PAULO, 40, CENTRO, 17470-000, DUARTINA, SP, BRASIL", "LATITUDE": "-22.4155864", "LONGITUDE": "-49.4126933", "LMAPS": "-", "O_QUE_FAZER": "Aplicar T2", "field_10": null, "field_11": null, "field_12": null, "field_13": null, "ER_REGIAO_CIDADE_min": "Duartina_Bauru" }, "geometry": { "type": "Point", "coordinates": [ -49.4126933, -22.4155864 ] } },
{ "type": "Feature", "properties": { "CNPJ": "59880798000156", "IDCIDADE": "DUARTINA", "NOMEFANTASIA": "JERÔNIMO TEC", "RAZAOSOCIAL": "59.880.798 CASSIO DE SOUZA DIVINO", "ENDEE": "RUA GABRIEL SIMÃO, 26, CENTRO, 17470-000, DUARTINA, SP, BRASIL", "LATITUDE": "-22.4153389", "LONGITUDE": "-49.4101371", "LMAPS": "-", "O_QUE_FAZER": "Aplicar T2", "field_10": null, "field_11": null, "field_12": null, "field_13": null, "ER_REGIAO_CIDADE_min": "Duartina_Bauru" }, "geometry": { "type": "Point", "coordinates": [ -49.4101371, -22.4153389 ] } },
{ "type": "Feature", "properties": { "CNPJ": "14843206000198", "IDCIDADE": "DUARTINA", "NOMEFANTASIA": "CONTATO MODAS", "RAZAOSOCIAL": "14.843.206 FRANCISCO MALDONADO NETTO", "ENDEE": "RUA BENEDITO GEBARA, 295, CENTRO, 17470-000, DUARTINA, SP, BRASIL", "LATITUDE": "-22.4151647", "LONGITUDE": "-49.4060096", "LMAPS": "-", "O_QUE_FAZER": "Aplicar T2", "field_10": null, "field_11": null, "field_12": null, "field_13": null, "ER_REGIAO_CIDADE_min": "Duartina_Bauru" }, "geometry": { "type": "Point", "coordinates": [ -49.4060096, -22.4151647 ] } },
{ "type": "Feature", "properties": { "CNPJ": "50057863000173", "IDCIDADE": "DUARTINA", "NOMEFANTASIA": "LABELLE", "RAZAOSOCIAL": "50.057.863 JOSE EDUARDO TASCIN", "ENDEE": "RUA BENEDITO GEBARA, 305, CENTRO, 17470-007, DUARTINA, SP, BRASIL", "LATITUDE": "-22.4149749", "LONGITUDE": "-49.4060933", "LMAPS": "-", "O_QUE_FAZER": "Aplicar T2", "field_10": null, "field_11": null, "field_12": null, "field_13": null, "ER_REGIAO_CIDADE_min": "Duartina_Bauru" }, "geometry": { "type": "Point", "coordinates": [ -49.4060933, -22.4149749 ] } },
{ "type": "Feature", "properties": { "CNPJ": "50188705000152", "IDCIDADE": "DUARTINA", "NOMEFANTASIA": "RESTAURANTE DONA MENINA", "RAZAOSOCIAL": "ANADIR RAMIRES SILVA", "ENDEE": "RUA BENEDITO GEBARA, 333, CENTRO, 17470-000, DUARTINA, SP, BRASIL", "LATITUDE": "-22.4149713", "LONGITUDE": "-49.406129", "LMAPS": "-", "O_QUE_FAZER": "Aplicar T3", "field_10": null, "field_11": null, "field_12": null, "field_13": null, "ER_REGIAO_CIDADE_min": "Duartina_Bauru" }, "geometry": { "type": "Point", "coordinates": [ -49.406129, -22.4149713 ] } },
{ "type": "Feature", "properties": { "CNPJ": "74263757000104", "IDCIDADE": "DUARTINA", "NOMEFANTASIA": "ROBERTA CALCADOS", "RAZAOSOCIAL": "GISMAR MARIA PIROLO AMOR", "ENDEE": "AVENIDA SÃO PAULO, 620, CENTRO, 17470-041, DUARTINA, SP, BRASIL", "LATITUDE": "-22.414536", "LONGITUDE": "-49.4053287", "LMAPS": "-", "O_QUE_FAZER": "Aplicar T3", "field_10": null, "field_11": null, "field_12": null, "field_13": null, "ER_REGIAO_CIDADE_min": "Duartina_Bauru" }, "geometry": { "type": "Point", "coordinates": [ -49.4053287, -22.414536 ] } },
{ "type": "Feature", "properties": { "CNPJ": "29630178000106", "IDCIDADE": "DUARTINA", "NOMEFANTASIA": "PRATICU'S ALIMENTOS", "RAZAOSOCIAL": "PAULO CESAR DE OLIVEIRA GUIMARO", "ENDEE": "RUA BENEDITO GEBARA, 292, CENTRO, 17470-000, DUARTINA, SP, BRASIL", "LATITUDE": "-22.4147094", "LONGITUDE": "-49.4059193", "LMAPS": "-", "O_QUE_FAZER": "Aplicar T3", "field_10": null, "field_11": null, "field_12": null, "field_13": null, "ER_REGIAO_CIDADE_min": "Duartina_Bauru" }, "geometry": { "type": "Point", "coordinates": [ -49.4059193, -22.4147094 ] } },
{ "type": "Feature", "properties": { "CNPJ": "51152156000129", "IDCIDADE": "DUARTINA", "NOMEFANTASIA": "DUARCHINA", "RAZAOSOCIAL": "51.152.156 ISABELA BIZARRO INACIO", "ENDEE": "AVENIDA SÃO PAULO, 588, CENTRO, 17470-000, DUARTINA, SP, BRASIL", "LATITUDE": "-22.4145998", "LONGITUDE": "-49.4058088", "LMAPS": "-", "O_QUE_FAZER": "Aplicar T3", "field_10": null, "field_11": null, "field_12": null, "field_13": null, "ER_REGIAO_CIDADE_min": "Duartina_Bauru" }, "geometry": { "type": "Point", "coordinates": [ -49.4058088, -22.4145998 ] } },
{ "type": "Feature", "properties": { "CNPJ": "25306900000192", "IDCIDADE": "DUARTINA", "NOMEFANTASIA": "ONLINE LANHOUSE", "RAZAOSOCIAL": "25.306.900 IVAN GONCALVES", "ENDEE": "RUA DOMICIANO AREDES, 21, CENTRO, 17470-000, DUARTINA, SP, BRASIL", "LATITUDE": "-22.4137628", "LONGITUDE": "-49.4043865", "LMAPS": "-", "O_QUE_FAZER": "Aplicar T3", "field_10": null, "field_11": null, "field_12": null, "field_13": null, "ER_REGIAO_CIDADE_min": "Duartina_Bauru" }, "geometry": { "type": "Point", "coordinates": [ -49.4043865, -22.4137628 ] } },
{ "type": "Feature", "properties": { "CNPJ": "33793590000106", "IDCIDADE": "DUARTINA", "NOMEFANTASIA": "ART IMPC EMBALAGENS", "RAZAOSOCIAL": "33.793.590 MAURICIO SOARES DA SILVA", "ENDEE": "RUA DOMICIANO AREDES, 191, CENTRO, 17470-000, DUARTINA, SP, BRASIL", "LATITUDE": "-22.4152606", "LONGITUDE": "-49.4043109", "LMAPS": "-", "O_QUE_FAZER": "FINALIZADO", "field_10": null, "field_11": null, "field_12": null, "field_13": null, "ER_REGIAO_CIDADE_min": "Duartina_Bauru" }, "geometry": { "type": "Point", "coordinates": [ -49.4043109, -22.4152606 ] } },
{ "type": "Feature", "properties": { "CNPJ": "14623270000244", "IDCIDADE": "DUARTINA", "NOMEFANTASIA": "ZANIRATO TELECOM", "RAZAOSOCIAL": "ANDRE LUIS ZANIRATO", "ENDEE": "AVENIDA SÃO PAULO, 572, CENTRO, 17470-000, DUARTINA, SP, BRASIL", "LATITUDE": "-22.4146211", "LONGITUDE": "-49.4058573", "LMAPS": "-", "O_QUE_FAZER": "FINALIZADO", "field_10": null, "field_11": null, "field_12": null, "field_13": null, "ER_REGIAO_CIDADE_min": "Duartina_Bauru" }, "geometry": { "type": "Point", "coordinates": [ -49.4058573, -22.4146211 ] } },
{ "type": "Feature", "properties": { "CNPJ": "28780551000134", "IDCIDADE": "DUARTINA", "NOMEFANTASIA": "PALÁCIO DO SORVETE", "RAZAOSOCIAL": "28.780.551 RENAN CORREIA COSTA", "ENDEE": "RUA DOMICIANO AREDES, 21, CENTRO, 17470-000, DUARTINA, SP, BRASIL", "LATITUDE": "-22.413714", "LONGITUDE": "-49.4042137", "LMAPS": "-", "O_QUE_FAZER": "FINALIZADO", "field_10": null, "field_11": null, "field_12": null, "field_13": null, "ER_REGIAO_CIDADE_min": "Duartina_Bauru" }, "geometry": { "type": "Point", "coordinates": [ -49.4042137, -22.413714 ] } },
{ "type": "Feature", "properties": { "CNPJ": "52038939000149", "IDCIDADE": "DUARTINA", "NOMEFANTASIA": "DIVINO ESPRESSO", "RAZAOSOCIAL": "52.038.939 CAROLINA GEROLDO", "ENDEE": "AVENIDA SÃO PAULO, 465, CENTRO, 17470-000, DUARTINA, SP, BRASIL", "LATITUDE": "-22.4145935", "LONGITUDE": "-49.4069121", "LMAPS": "-", "O_QUE_FAZER": "Aplicar T2", "field_10": null, "field_11": null, "field_12": null, "field_13": null, "ER_REGIAO_CIDADE_min": "Duartina_Bauru" }, "geometry": { "type": "Point", "coordinates": [ -49.4069121, -22.4145935 ] } }
]
}
