{
"type": "FeatureCollection",
"name": "ER_REGIAO_CIDADE_min_Lindóia_Campinas",
"crs": { "type": "name", "properties": { "name": "urn:ogc:def:crs:OGC:1.3:CRS84" } },
"xy_coordinate_resolution": 1e-15,
"features": [
{ "type": "Feature", "properties": { "fid": 207961, "CNPJ": "44641466000141", "IDCIDADE": "LINDÓIA", "NOMEFANTASIA": null, "RAZAOSOCIAL": "CELEIRO COMERCIO TRANSPORTES E SERVICOS LTDA", "ENDEE": "AVENIDA DO LAGO, 133, CENTRO, 13950-000, LINDÓIA, SP, BRASIL", "LMAPS": "https://www.google.com/maps?q=&layer=c&cbll=-22.5208362,-46.6449865", "O_QUE_FAZER": "CARTEIRA - FAMPE", "ER_REGIAO_CIDADE_min": "Lindóia_Campinas" }, "geometry": { "type": "Point", "coordinates": [ -46.6449865, -22.5208362 ] } },
{ "type": "Feature", "properties": { "fid": 207966, "CNPJ": "08451869000164", "IDCIDADE": "LINDÓIA", "NOMEFANTASIA": "TENDENZA DI MODA", "RAZAOSOCIAL": "ANA PAULA CULTRERA LTDA", "ENDEE": "AVENIDA 31 DE MARCO, 1250, SL 01/02, CENTRO, 13950-000, LINDÓIA, SP, BRASIL", "LMAPS": "https://www.google.com/maps?q=&layer=c&cbll=-22.5261957,-46.6462038", "O_QUE_FAZER": "CARTEIRA - FAMPE", "ER_REGIAO_CIDADE_min": "Lindóia_Campinas" }, "geometry": { "type": "Point", "coordinates": [ -46.6462038, -22.5261957 ] } },
{ "type": "Feature", "properties": { "fid": 259573, "CNPJ": "28846447000103", "IDCIDADE": "LINDOIA", "NOMEFANTASIA": "IMPACTO_GRAFICA_LTDA", "RAZAOSOCIAL": "IMPACTO_COMUNICACAO_VISUAL", "ENDEE": "AVENIDA_31_DE_MARCO1028__CENTRO_13950-019", "LMAPS": "https://www.google.com/maps?q=&layer=c&cbll=-46.6475192,-22.5248474", "O_QUE_FAZER": "FINALIZADO", "ER_REGIAO_CIDADE_min": "Lindóia_Campinas" }, "geometry": { "type": "Point", "coordinates": [ -46.6475192, -22.5248474 ] } },
{ "type": "Feature", "properties": { "fid": 307886, "CNPJ": "52904850000118", "IDCIDADE": "LINDOIA", "NOMEFANTASIA": "-", "RAZAOSOCIAL": "52.904.850 LARISSA RIBEIRO DE PAIVA", "ENDEE": "RUA APARECIDO ZAMBOIM, 154, APT 4, CONJUNTO HABITACIONAL ERNESTO TARDELLI, 13952-010, LINDÓIA, SP, BRASIL", "LMAPS": "https://www.google.com/maps?q=&layer=c&cbll=-22.5294263,-46.652298", "O_QUE_FAZER": "CARTEIRA - FAMPE", "ER_REGIAO_CIDADE_min": "Lindóia_Campinas" }, "geometry": { "type": "Point", "coordinates": [ -46.652298, -22.5294263 ] } }
]
}
