{
"type": "FeatureCollection",
"name": "ER_REGIAO_CIDADE_min_Irapuã_São José do Rio Preto",
"crs": { "type": "name", "properties": { "name": "urn:ogc:def:crs:OGC:1.3:CRS84" } },
"xy_coordinate_resolution": 1e-15,
"features": [
{ "type": "Feature", "properties": { "fid": 58263, "CNPJ": "09440137000131", "IDCIDADE": "IRAPUA", "NOMEFANTASIA": null, "RAZAOSOCIAL": "ARIANE_SULEMI_DE_LIMA", "ENDEE": "AVENIDA CYRO JACYNTHO FERRETTI, 495, ARDIM ALVORADA, 14990-000, IRAPUÃ, SP, BRASIL", "LMAPS": "https://www.google.com/maps?q=&layer=c&cbll=-21.2716135,-49.4124046", "O_QUE_FAZER": "CARTEIRA - FAMPE", "ER_REGIAO_CIDADE_min": "Irapuã_São José do Rio Preto" }, "geometry": { "type": "Point", "coordinates": [ -49.4124046, -21.2716135 ] } },
{ "type": "Feature", "properties": { "fid": 99514, "CNPJ": "17522923000106", "IDCIDADE": "IRAPUA", "NOMEFANTASIA": null, "RAZAOSOCIAL": "AUTO_POSTO_IRAPUA_LTDA", "ENDEE": "PRACA MONSENHOR SIMAO BACKER, 80, CENTRO, 14990-000, IRAPUÃ, SP, BRASIL", "LMAPS": "https://www.google.com/maps?q=&layer=c&cbll=-21.2793293,-49.4090511", "O_QUE_FAZER": "CARTEIRA - FAMPE", "ER_REGIAO_CIDADE_min": "Irapuã_São José do Rio Preto" }, "geometry": { "type": "Point", "coordinates": [ -49.4090511, -21.2793293 ] } },
{ "type": "Feature", "properties": { "fid": 272634, "CNPJ": "54751504000172", "IDCIDADE": "CRISTAIS_PAULISTA", "NOMEFANTASIA": "-", "RAZAOSOCIAL": "54.751.504_WAGNER_LUIS_DOS_SANTOS_MORAES", "ENDEE": "RUA_VEREADOR JOSÉ SABINO_790_CENTRO_14340-015_IRAPUA", "LMAPS": "https://www.google.com/maps?q=&layer=c&cbll=-21.2816304,-49.4099116", "O_QUE_FAZER": "FINALIZADO", "ER_REGIAO_CIDADE_min": "Irapuã_São José do Rio Preto" }, "geometry": { "type": "Point", "coordinates": [ -49.4099116, -21.2816304 ] } },
{ "type": "Feature", "properties": { "fid": 305054, "CNPJ": "66894250000120", "IDCIDADE": "IRAPUA", "NOMEFANTASIA": null, "RAZAOSOCIAL": "66.894.250_EDSON_DOS_SANTOS", "ENDEE": "AVENIDA FRANCISCO PINHEIRO, 515, CENTRO, 14990-001, IRAPUÃ, SP, BRASIL", "LMAPS": "https://www.google.com/maps?q=&layer=c&cbll=-21.2784468,-49.4126555", "O_QUE_FAZER": "CARTEIRA - FAMPE", "ER_REGIAO_CIDADE_min": "Irapuã_São José do Rio Preto" }, "geometry": { "type": "Point", "coordinates": [ -49.4126555, -21.2784468 ] } }
]
}
