{
"type": "FeatureCollection",
"name": "ER_REGIAO_CIDADE_min_São João das Duas Pontes_Votuporanga",
"crs": { "type": "name", "properties": { "name": "urn:ogc:def:crs:OGC:1.3:CRS84" } },
"xy_coordinate_resolution": 1e-15,
"features": [
{ "type": "Feature", "properties": { "fid": 39166, "CNPJ": "07007940000151", "IDCIDADE": "SAO_JOAO_DAS_DUAS_PONTES", "NOMEFANTASIA": "R_B_MODAS", "RAZAOSOCIAL": "ROSANGELA_MARIA_CAGNIN_SIQUEIRA_BARBOZA", "ENDEE": "RUA_ARNALDO_RODRIGUES_NETO389__CENTRO_15640-000", "LMAPS": "https://www.google.com/maps?q=&layer=c&cbll=-20.3891897,-50.3789451", "O_QUE_FAZER": "FINALIZADO", "ER_REGIAO_CIDADE_min": "São João das Duas Pontes_Votuporanga" }, "geometry": { "type": "Point", "coordinates": [ -50.3789451, -20.3891897 ] } },
{ "type": "Feature", "properties": { "fid": 63262, "CNPJ": "10483624000160", "IDCIDADE": "SAO_JOAO_DAS_DUAS_PONTES", "NOMEFANTASIA": "MIX_FARMA_DROGARIA_E_PERFUMRIA", "RAZAOSOCIAL": "MIX_FARMA_DROGARIA_-_SAO_JOAO_DAS_DUAS_PONTES_LTDA", "ENDEE": "RUA_CARLOS_GOMES429__CENTRO_15640-000", "LMAPS": "https://www.google.com/maps?q=&layer=c&cbll=-20.3891985,-50.3790057", "O_QUE_FAZER": "FINALIZADO", "ER_REGIAO_CIDADE_min": "São João das Duas Pontes_Votuporanga" }, "geometry": { "type": "Point", "coordinates": [ -50.3790057, -20.3891985 ] } },
{ "type": "Feature", "properties": { "fid": 66273, "CNPJ": "10806854000113", "IDCIDADE": "SAO_JOAO_DAS_DUAS_PONTES", "NOMEFANTASIA": "CONSTRUBEM", "RAZAOSOCIAL": "BRUNO_BARRIENTOS_&_CIA_LTDA", "ENDEE": "RUA_CARLOS_GOMES214__CENTRO_15640-000", "LMAPS": "https://www.google.com/maps?q=&layer=c&cbll=-20.3900274,-50.3807339", "O_QUE_FAZER": "FINALIZADO", "ER_REGIAO_CIDADE_min": "São João das Duas Pontes_Votuporanga" }, "geometry": { "type": "Point", "coordinates": [ -50.3807339, -20.3900274 ] } },
{ "type": "Feature", "properties": { "fid": 75256, "CNPJ": "12022932000114", "IDCIDADE": "SAO_JOAO_DAS_DUAS_PONTES", "NOMEFANTASIA": "CASA_DE_MOVEIS_DUAS_PONTES", "RAZAOSOCIAL": "ELETRODOMESTICOS_BERMAL_COSTA_LTDA", "ENDEE": "RUA_RIO_DE_JANEIRO295__CENTRO_15640-000", "LMAPS": "https://www.google.com/maps?q=&layer=c&cbll=-20.3891043,-50.3783561", "O_QUE_FAZER": "CARTEIRA", "ER_REGIAO_CIDADE_min": "São João das Duas Pontes_Votuporanga" }, "geometry": { "type": "Point", "coordinates": [ -50.3783561, -20.3891043 ] } },
{ "type": "Feature", "properties": { "fid": 94304, "CNPJ": "15862918000389", "IDCIDADE": "SAO_JOAO_DAS_DUAS_PONTES", "NOMEFANTASIA": "RODOLFO_CANDIL_CORTE", "RAZAOSOCIAL": "RODOLFO_CANDIL_CORTE", "ENDEE": "RUA_BAHIA790__CENTRO_15640-000", "LMAPS": "https://www.google.com/maps?q=&layer=c&cbll=-20.3888684,-50.3771295", "O_QUE_FAZER": "CARTEIRA", "ER_REGIAO_CIDADE_min": "São João das Duas Pontes_Votuporanga" }, "geometry": { "type": "Point", "coordinates": [ -50.3771295, -20.3888684 ] } },
{ "type": "Feature", "properties": { "fid": 112735, "CNPJ": "20353871000104", "IDCIDADE": "SAO JOAO DAS DUAS PONTES", "NOMEFANTASIA": null, "RAZAOSOCIAL": "DONIZETE_APARECIDO_DOS_SANTOS", "ENDEE": "RUA MINAS GERAIS, 1055, CENTRO, 15640-000, SÃO JOÃO DAS DUAS PONTES, SP, BRASIL", "LMAPS": "https://www.google.com/maps?q=&layer=c&cbll=-20.3912533,-50.3787137", "O_QUE_FAZER": "CARTEIRA - FAMPE", "ER_REGIAO_CIDADE_min": "São João das Duas Pontes_Votuporanga" }, "geometry": { "type": "Point", "coordinates": [ -50.3787137, -20.3912533 ] } },
{ "type": "Feature", "properties": { "fid": 188503, "CNPJ": "36188232000162", "IDCIDADE": "SAO_JOAO_DAS_DUAS_PONTES", "NOMEFANTASIA": "PADARIA_MALU", "RAZAOSOCIAL": "LUCIANA_CRISTINA_FAZAN_VIVIANI", "ENDEE": "RUA_MINAS_GERAIS639__CENTRO_15640-000", "LMAPS": "https://www.google.com/maps?q=&layer=c&cbll=-20.387334,-50.3804125", "O_QUE_FAZER": "FINALIZADO", "ER_REGIAO_CIDADE_min": "São João das Duas Pontes_Votuporanga" }, "geometry": { "type": "Point", "coordinates": [ -50.3804125, -20.387334 ] } },
{ "type": "Feature", "properties": { "fid": 200110, "CNPJ": "39145999000100", "IDCIDADE": "SAO_JOAO_DAS_DUAS_PONTES", "NOMEFANTASIA": "OVIDIO_&_SILVAS_CONSTRUTORA_E_CONSULTORIA_EM_ENGENHARIA_CIVIL__AMBIENTAL_E_SEGURANCA_DO_TRABALHO_LTDA", "RAZAOSOCIAL": "JWL_CONSTRUTORA", "ENDEE": "RUA_CARLOS_GOMES479__CENTRO_15640-000", "LMAPS": "https://www.google.com/maps?q=&layer=c&cbll=-20.3889871,-50.378492", "O_QUE_FAZER": "FINALIZADO", "ER_REGIAO_CIDADE_min": "São João das Duas Pontes_Votuporanga" }, "geometry": { "type": "Point", "coordinates": [ -50.378492, -20.3889871 ] } },
{ "type": "Feature", "properties": { "fid": 228712, "CNPJ": "45622167000122", "IDCIDADE": "SAO_JOAO_DAS_DUAS_PONTES", "NOMEFANTASIA": "DROGA_VIDA", "RAZAOSOCIAL": "MARIA_APARECIDA_SANTIAGO_DE_SOUZA", "ENDEE": "RUA_ARNALDO_RODRIGUES_NETO410__CENTRO_15640-000", "LMAPS": "https://www.google.com/maps?q=&layer=c&cbll=-20.3889289,-50.3788727", "O_QUE_FAZER": "CARTEIRA", "ER_REGIAO_CIDADE_min": "São João das Duas Pontes_Votuporanga" }, "geometry": { "type": "Point", "coordinates": [ -50.3788727, -20.3889289 ] } },
{ "type": "Feature", "properties": { "fid": 241884, "CNPJ": "48305106000120", "IDCIDADE": "SAO_JOAO_DAS_DUAS_PONTES", "NOMEFANTASIA": "BAZAR_E_LIVRARIA_SANTO_ANTONIO", "RAZAOSOCIAL": "ZULMIRA_CARTA_DA_SILVA", "ENDEE": "RUA_CARLOS_GOMES0__CENTRO_15640-000", "LMAPS": "https://www.google.com/maps?q=&layer=c&cbll=-20.3890733,-50.3785711", "O_QUE_FAZER": "CARTEIRA", "ER_REGIAO_CIDADE_min": "São João das Duas Pontes_Votuporanga" }, "geometry": { "type": "Point", "coordinates": [ -50.3785711, -20.3890733 ] } },
{ "type": "Feature", "properties": { "fid": 245636, "CNPJ": "49102299000184", "IDCIDADE": "SAO_JOAO_DAS_DUAS_PONTES", "NOMEFANTASIA": "SUPERMERCADO_COMPRE_BEM", "RAZAOSOCIAL": "ADINAN_CESAR_CARTA", "ENDEE": "RUA_SAO_PAULO392__CENTRO_15640-000", "LMAPS": "https://www.google.com/maps?q=&layer=c&cbll=-20.3890583,-50.3778808", "O_QUE_FAZER": "CARTEIRA", "ER_REGIAO_CIDADE_min": "São João das Duas Pontes_Votuporanga" }, "geometry": { "type": "Point", "coordinates": [ -50.3778808, -20.3890583 ] } },
{ "type": "Feature", "properties": { "fid": 246887, "CNPJ": "49381809000108", "IDCIDADE": "SAO_JOAO_DAS_DUAS_PONTES", "NOMEFANTASIA": "ARMAZEM_SAO_JOAO", "RAZAOSOCIAL": "BATISTA_E_ZOCAL_LTDA", "ENDEE": "RUA_CARLOS_GOMES343__CENTRO_15640-000", "LMAPS": "https://www.google.com/maps?q=&layer=c&cbll=-20.3895229,-50.3796647", "O_QUE_FAZER": "FINALIZADO", "ER_REGIAO_CIDADE_min": "São João das Duas Pontes_Votuporanga" }, "geometry": { "type": "Point", "coordinates": [ -50.3796647, -20.3895229 ] } },
{ "type": "Feature", "properties": { "fid": 259846, "CNPJ": "51952303000145", "IDCIDADE": "SAO_JOAO_DAS_DUAS_PONTES", "NOMEFANTASIA": "JWL_MATERIAIS_PARA_CONSTRUCAO", "RAZAOSOCIAL": "SILVAS_&_OVIDIO_MATERIAIS_PARA_CONSTRUCAO_LTDA", "ENDEE": "RUA_CARLOS_GOMES479__CENTRO_15640-000", "LMAPS": "https://www.google.com/maps?q=&layer=c&cbll=-20.3890139,-50.378432", "O_QUE_FAZER": "FINALIZADO", "ER_REGIAO_CIDADE_min": "São João das Duas Pontes_Votuporanga" }, "geometry": { "type": "Point", "coordinates": [ -50.378432, -20.3890139 ] } },
{ "type": "Feature", "properties": { "fid": 262290, "CNPJ": "52458163000116", "IDCIDADE": "SAO_JOAO_DAS_DUAS_PONTES", "NOMEFANTASIA": "AUTO_POSTO_DUAS_PONTES", "RAZAOSOCIAL": "AUTO_POSTO_DUAS_PONTES_LTDA", "ENDEE": "RUA_CARLOS_GOMES276__CENTRO_15640-000", "LMAPS": "https://www.google.com/maps?q=&layer=c&cbll=-20.3898487,-50.3802274", "O_QUE_FAZER": "CARTEIRA", "ER_REGIAO_CIDADE_min": "São João das Duas Pontes_Votuporanga" }, "geometry": { "type": "Point", "coordinates": [ -50.3802274, -20.3898487 ] } },
{ "type": "Feature", "properties": { "fid": 279706, "CNPJ": "56715477000108", "IDCIDADE": "SAO_JOAO_DAS_DUAS_PONTES", "NOMEFANTASIA": "SUPERMERCADO_OLIVEIRA", "RAZAOSOCIAL": "DEVAIR_PAULINO_DE_OLIVEIRA", "ENDEE": "RUA_ARNALDO_RODRIGUES_NETO420__CENTRO_15640-000", "LMAPS": "https://www.google.com/maps?q=&layer=c&cbll=-20.3887807,-50.3789009", "O_QUE_FAZER": "FINALIZADO", "ER_REGIAO_CIDADE_min": "São João das Duas Pontes_Votuporanga" }, "geometry": { "type": "Point", "coordinates": [ -50.3789009, -20.3887807 ] } },
{ "type": "Feature", "properties": { "fid": 313095, "CNPJ": "57114989000181", "IDCIDADE": "São João Das Duas Pontes", "NOMEFANTASIA": "SMART RECH", "RAZAOSOCIAL": "57.114.989 LUANA LEIKO MIZOBATA", "ENDEE": "CARLOS GOMES, 409, CENTRO, 15640-047, São João Das Duas Pontes, SP, BRASIL", "LMAPS": "https://www.google.com/maps?q=&layer=c&cbll=-20.3864244,-50.3796417", "O_QUE_FAZER": "FINALIZADO", "ER_REGIAO_CIDADE_min": "São João das Duas Pontes_Votuporanga" }, "geometry": { "type": "Point", "coordinates": [ -50.3796417, -20.3864244 ] } },
{ "type": "Feature", "properties": { "fid": 313096, "CNPJ": "66870226000151", "IDCIDADE": "São João Das Duas Pontes", "NOMEFANTASIA": "SUPERMERCADO  C0MPRE BEM", "RAZAOSOCIAL": "GUILHERME MENDES MARTINS PRADO LTDA", "ENDEE": "SÃO PAULO, 382, CENTRO, 15640-023, São João Das Duas Pontes, SP, BRASIL", "LMAPS": "https://www.google.com/maps?q=&layer=c&cbll=-20.3890104,-50.3778061", "O_QUE_FAZER": "FINALIZADO", "ER_REGIAO_CIDADE_min": "São João das Duas Pontes_Votuporanga" }, "geometry": { "type": "Point", "coordinates": [ -50.3778061, -20.3890104 ] } },
{ "type": "Feature", "properties": { "fid": 313097, "CNPJ": "50590554000164", "IDCIDADE": "São João Das Duas Pontes", "NOMEFANTASIA": "CASA DE MÓVEIS POPULAR", "RAZAOSOCIAL": "50.590.554 MARIELI APARECIDA CESARE COSTA", "ENDEE": "CARLOS GOMES, 497, CENTRO, 15640-047, São João Das Duas Pontes, SP, BRASIL", "LMAPS": "https://www.google.com/maps?q=&layer=c&cbll=-20.3890141,-50.3784341", "O_QUE_FAZER": "FINALIZADO", "ER_REGIAO_CIDADE_min": "São João das Duas Pontes_Votuporanga" }, "geometry": { "type": "Point", "coordinates": [ -50.3784341, -20.3890141 ] } },
{ "type": "Feature", "properties": { "fid": 313098, "CNPJ": "28767913000157", "IDCIDADE": "São João Das Duas Pontes", "NOMEFANTASIA": "DELÍCIAS  DA  CASA", "RAZAOSOCIAL": "28.767.913 ELIANE PAULA FEDOSSI FERREIRA", "ENDEE": "ARNALDO RODRIGUES NETO, 791, CENTRO, 15640-029, São João Das Duas Pontes, SP, BRASIL", "LMAPS": "https://www.google.com/maps?q=&layer=c&cbll=-20.3893142,-50.3788497", "O_QUE_FAZER": "FINALIZADO", "ER_REGIAO_CIDADE_min": "São João das Duas Pontes_Votuporanga" }, "geometry": { "type": "Point", "coordinates": [ -50.3788497, -20.3893142 ] } },
{ "type": "Feature", "properties": { "fid": 313099, "CNPJ": "15334017000152", "IDCIDADE": "São João Das Duas Pontes", "NOMEFANTASIA": "SALDARIA SA LIA", "RAZAOSOCIAL": "MARIA NUNES CIRQUEIRA 25422926803", "ENDEE": "CARLOS GOMES, 287, CENTRO, 15640-047, São João Das Duas Pontes, SP, BRASIL", "LMAPS": "https://www.google.com/maps?q=&layer=c&cbll=-20.3896364,-50.3801926", "O_QUE_FAZER": "FINALIZADO", "ER_REGIAO_CIDADE_min": "São João das Duas Pontes_Votuporanga" }, "geometry": { "type": "Point", "coordinates": [ -50.3801926, -20.3896364 ] } },
{ "type": "Feature", "properties": { "fid": 313100, "CNPJ": "39713630000149", "IDCIDADE": "São João Das Duas Pontes", "NOMEFANTASIA": "ELETRÔNICA 2P", "RAZAOSOCIAL": "39.713.630 JOAO LUCAS SIQUEIRA BARBOZA", "ENDEE": "ARNALDO RODRIGUES NETO, 324, CENTRO, 15640-029, São João Das Duas Pontes, SP, BRASIL", "LMAPS": "https://www.google.com/maps?q=&layer=c&cbll=-20.389671,-50.3787821", "O_QUE_FAZER": "FINALIZADO", "ER_REGIAO_CIDADE_min": "São João das Duas Pontes_Votuporanga" }, "geometry": { "type": "Point", "coordinates": [ -50.3787821, -20.389671 ] } },
{ "type": "Feature", "properties": { "fid": 313101, "CNPJ": "20468924000124", "IDCIDADE": "São João Das Duas Pontes", "NOMEFANTASIA": "PURO GLAMUR", "RAZAOSOCIAL": "20.468.924 TAINA DE CARVALHO GARAVELO", "ENDEE": "SÃO PAULO, 306, CENTRO, 15640-023, São João Das Duas Pontes, SP, BRASIL", "LMAPS": "https://www.google.com/maps?q=&layer=c&cbll=-20.3896769,-50.3775852", "O_QUE_FAZER": "FINALIZADO", "ER_REGIAO_CIDADE_min": "São João das Duas Pontes_Votuporanga" }, "geometry": { "type": "Point", "coordinates": [ -50.3775852, -20.3896769 ] } }
]
}
