{
"type": "FeatureCollection",
"name": "ER_REGIAO_CIDADE_min_Nantes_Presidente Prudente",
"crs": { "type": "name", "properties": { "name": "urn:ogc:def:crs:OGC:1.3:CRS84" } },
"xy_coordinate_resolution": 1e-15,
"features": [
{ "type": "Feature", "properties": { "fid": 208274, "CNPJ": "07227378000171", "IDCIDADE": "NANTES", "NOMEFANTASIA": "JODAMA MATERIAIS PARA CONSTRUCAO", "RAZAOSOCIAL": "JOAO LUIS DE OLIVEIRA SINIGALIA", "ENDEE": "RUA SIQUEIRA, 321, CENTRO, 19645-000, NANTES, SP, BRASIL", "LMAPS": "https://www.google.com/maps?q=&layer=c&cbll=-22.618578,-51.2386086", "O_QUE_FAZER": "CARTEIRA - FAMPE", "ER_REGIAO_CIDADE_min": "Nantes_Presidente Prudente" }, "geometry": { "type": "Point", "coordinates": [ -51.2386086, -22.618578 ] } },
{ "type": "Feature", "properties": { "fid": 208277, "CNPJ": "28705542000189", "IDCIDADE": "NANTES", "NOMEFANTASIA": null, "RAZAOSOCIAL": "WAGNER GONCALVES DANTAS 26564397879", "ENDEE": "RUA GONCALVES DE ASSIS, 20, CENTRO, 19645-000, NANTES, SP, BRASIL", "LMAPS": "https://www.google.com/maps?q=&layer=c&cbll=-22.618993,-51.2384177", "O_QUE_FAZER": "CARTEIRA - FAMPE", "ER_REGIAO_CIDADE_min": "Nantes_Presidente Prudente" }, "geometry": { "type": "Point", "coordinates": [ -51.2384177, -22.618993 ] } }
]
}
