{
"type": "FeatureCollection",
"name": "ER_REGIAO_CIDADE_min_Tarabai_Presidente Prudente",
"crs": { "type": "name", "properties": { "name": "urn:ogc:def:crs:OGC:1.3:CRS84" } },
"xy_coordinate_resolution": 1e-15,
"features": [
{ "type": "Feature", "properties": { "CNPJ": "21011921000120", "IDCIDADE": "TARABAI", "NOMEFANTASIA": null, "RAZAOSOCIAL": "M_M_OBRAS_DE_TERRAPLANAGEM_LTDA", "ENDEE": "CHACARA VITORIA, SN, CXPST 29, CONQUISTA- TARABAI VELHO, 19219-899, TARABAI, SP, BRASIL", "LATITUDE": "-22.3043863", "LONGITUDE": "-51.5622488", "LMAPS": "https://www.google.com/maps?q=&layer=c&cbll=-22.3043863,-51.5622488", "O_QUE_FAZER": "CARTEIRA - FAMPE", "field_10": null, "field_11": null, "field_12": null, "field_13": null, "ER_REGIAO_CIDADE_min": "Tarabai_Presidente Prudente" }, "geometry": { "type": "Point", "coordinates": [ -51.5622488, -22.3043863 ] } },
{ "type": "Feature", "properties": { "CNPJ": "18952301000180", "IDCIDADE": "TARABAI", "NOMEFANTASIA": null, "RAZAOSOCIAL": "A._J._VASCONCELOS_FUNILARIA_E_PINTURA", "ENDEE": "RUA INOCENCIO DE ALMEIDA, 65, DISTRITO INDUSTRIAL E COMERCIAL, 19210-000, TARABAI, SP, BRASIL", "LATITUDE": "-22.3037924", "LONGITUDE": "-51.5466526", "LMAPS": "https://www.google.com/maps?q=&layer=c&cbll=-22.3037924,-51.5466526", "O_QUE_FAZER": "CARTEIRA - FAMPE", "field_10": null, "field_11": null, "field_12": null, "field_13": null, "ER_REGIAO_CIDADE_min": "Tarabai_Presidente Prudente" }, "geometry": { "type": "Point", "coordinates": [ -51.5466526, -22.3037924 ] } },
{ "type": "Feature", "properties": { "CNPJ": "42112271000189", "IDCIDADE": "TARABAI", "NOMEFANTASIA": "-", "RAZAOSOCIAL": "42.112.271_VALQUIRIA_ISABELLA_GOMES_SOLER", "ENDEE": "AVENIDA 7 DE SETEMBRO, 1144, DISTRITO INDUSTRIAL E COMERCIAL, 19210-210, TARABAI, SP, BRASIL", "LATITUDE": "-22.3043863", "LONGITUDE": "-51.5622488", "LMAPS": "https://www.google.com/maps?q=&layer=c&cbll=-22.3043863,-51.5622488", "O_QUE_FAZER": "CARTEIRA - FAMPE", "field_10": null, "field_11": null, "field_12": null, "field_13": null, "ER_REGIAO_CIDADE_min": "Tarabai_Presidente Prudente" }, "geometry": { "type": "Point", "coordinates": [ -51.5622488, -22.3043863 ] } },
{ "type": "Feature", "properties": { "CNPJ": "55199873000167", "IDCIDADE": "TARABAI", "NOMEFANTASIA": "-", "RAZAOSOCIAL": "ELIZ_ESTETICA_LTDA", "ENDEE": "RUA VITALINA MARIA, 1542, SALA 02, SAO MARCOS, 19210-000, TARABAI, SP, BRASIL", "LATITUDE": "-22.3013048", "LONGITUDE": "-51.5531553", "LMAPS": "https://www.google.com/maps?q=&layer=c&cbll=-22.3013048,-51.5531553", "O_QUE_FAZER": "CARTEIRA - FAMPE", "field_10": null, "field_11": null, "field_12": null, "field_13": null, "ER_REGIAO_CIDADE_min": "Tarabai_Presidente Prudente" }, "geometry": { "type": "Point", "coordinates": [ -51.5531553, -22.3013048 ] } }
]
}
