{
"type": "FeatureCollection",
"name": "ER_REGIAO_CIDADE_min_Potirendaba_São José do Rio Preto",
"crs": { "type": "name", "properties": { "name": "urn:ogc:def:crs:OGC:1.3:CRS84" } },
"xy_coordinate_resolution": 1e-15,
"features": [
{ "type": "Feature", "properties": { "fid": 5742, "CNPJ": "01182444000158", "IDCIDADE": "POTIRENDABA", "NOMEFANTASIA": "MORVAN_TINTAS", "RAZAOSOCIAL": "IVONE_DA_SILVA_DOS_SANTOS", "ENDEE": "RUA_CAPITAO_JOSE_OLIVA1132__CENTRO_15105-000", "LMAPS": "https://www.google.com/maps?q=&layer=c&cbll=-21.0447457,-49.379653", "O_QUE_FAZER": "CARTEIRA", "ER_REGIAO_CIDADE_min": "Potirendaba_São José do Rio Preto" }, "geometry": { "type": "Point", "coordinates": [ -49.379653, -21.0447457 ] } },
{ "type": "Feature", "properties": { "fid": 11232, "CNPJ": "02286716000122", "IDCIDADE": "POTIRENDABA", "NOMEFANTASIA": "BAZAR_SANTO_ANTONIO", "RAZAOSOCIAL": "JUCILEI_APARECIDA_HIEGA", "ENDEE": "RUA_CAPITAO_JOSE_OLIVA984__CENTRO_15105-000", "LMAPS": "https://www.google.com/maps?q=&layer=c&cbll=-21.0433184,-49.3796293", "O_QUE_FAZER": "CARTEIRA", "ER_REGIAO_CIDADE_min": "Potirendaba_São José do Rio Preto" }, "geometry": { "type": "Point", "coordinates": [ -49.3796293, -21.0433184 ] } },
{ "type": "Feature", "properties": { "fid": 16820, "CNPJ": "03282445000108", "IDCIDADE": "POTIRENDABA", "NOMEFANTASIA": "LIGEIRO_MOVEIS", "RAZAOSOCIAL": "JP_LIGEIRO_MOVEIS_LTDA", "ENDEE": "AVENIDA_BARAO_DO_RIO_BRANCO580__CENTRO_15105-000", "LMAPS": "https://www.google.com/maps?q=&layer=c&cbll=-21.0435771,-49.3781886", "O_QUE_FAZER": "CARTEIRA", "ER_REGIAO_CIDADE_min": "Potirendaba_São José do Rio Preto" }, "geometry": { "type": "Point", "coordinates": [ -49.3781886, -21.0435771 ] } },
{ "type": "Feature", "properties": { "fid": 36628, "CNPJ": "06180953000165", "IDCIDADE": "POTIRENDABA", "NOMEFANTASIA": null, "RAZAOSOCIAL": "JOAO_RODRIGUES_MADEIRAS", "ENDEE": "ESTRADA VICINAL POTIRENDABA AO PEROBAL, KM 2,0, S/N, PEROBAL, 15105-000, POTIRENDABA, SP, BRASIL", "LMAPS": "https://www.google.com/maps?q=&layer=c&cbll=-21.1001256,-49.4059435", "O_QUE_FAZER": "CARTEIRA - FAMPE", "ER_REGIAO_CIDADE_min": "Potirendaba_São José do Rio Preto" }, "geometry": { "type": "Point", "coordinates": [ -49.4059435, -21.1001256 ] } },
{ "type": "Feature", "properties": { "fid": 45372, "CNPJ": "07750286000171", "IDCIDADE": "POTIRENDABA", "NOMEFANTASIA": "PALHERANI_BABY", "RAZAOSOCIAL": "PALHERANI_BABY_POTIRENDABA_LTDA", "ENDEE": "RUA_CAPITAO_JOSE_OLIVA1037__CENTRO_15105-000", "LMAPS": "https://www.google.com/maps?q=&layer=c&cbll=-21.0438925,-49.3794008", "O_QUE_FAZER": "CARTEIRA", "ER_REGIAO_CIDADE_min": "Potirendaba_São José do Rio Preto" }, "geometry": { "type": "Point", "coordinates": [ -49.3794008, -21.0438925 ] } },
{ "type": "Feature", "properties": { "fid": 50442, "CNPJ": "08458976000114", "IDCIDADE": "POTIRENDABA", "NOMEFANTASIA": "POTI_GRAF", "RAZAOSOCIAL": "ISLEIA_SOFIA_CAETANO_CHAVES_ROGERIO", "ENDEE": "AVENIDA_ANA_JOSEPHA_PERES_GARCIA584__CENTRO_15105-000", "LMAPS": "https://www.google.com/maps?q=&layer=c&cbll=-21.039765,-49.3788267", "O_QUE_FAZER": "CARTEIRA", "ER_REGIAO_CIDADE_min": "Potirendaba_São José do Rio Preto" }, "geometry": { "type": "Point", "coordinates": [ -49.3788267, -21.039765 ] } },
{ "type": "Feature", "properties": { "fid": 52770, "CNPJ": "08812632000161", "IDCIDADE": "POTIRENDABA", "NOMEFANTASIA": null, "RAZAOSOCIAL": "G._M._STECHI_CONVENIENCIA_LTDA", "ENDEE": "RUA ACHILLES MALVEZZI, 1.227, CENTRO, 15105-000, POTIRENDABA, SP, BRASIL", "LMAPS": "https://www.google.com/maps?q=&layer=c&cbll=-21.0510201,-49.3737775", "O_QUE_FAZER": "CARTEIRA - FAMPE", "ER_REGIAO_CIDADE_min": "Potirendaba_São José do Rio Preto" }, "geometry": { "type": "Point", "coordinates": [ -49.3737775, -21.0510201 ] } },
{ "type": "Feature", "properties": { "fid": 62118, "CNPJ": "10372040000118", "IDCIDADE": "POTIRENDABA", "NOMEFANTASIA": "FARMA_VIDA", "RAZAOSOCIAL": "FARMAVIDA_POTIRENDABA_LTDA", "ENDEE": "RUA_CAPITAO_JOSE_OLIVA1006__CENTRO_15105-000", "LMAPS": "https://www.google.com/maps?q=&layer=c&cbll=-21.0435639,-49.3796999", "O_QUE_FAZER": "CARTEIRA", "ER_REGIAO_CIDADE_min": "Potirendaba_São José do Rio Preto" }, "geometry": { "type": "Point", "coordinates": [ -49.3796999, -21.0435639 ] } },
{ "type": "Feature", "properties": { "fid": 75674, "CNPJ": "12109395000144", "IDCIDADE": "POTIRENDABA", "NOMEFANTASIA": "O_CRAVO_E_A_ROSA", "RAZAOSOCIAL": "S._DE_FATIMA_MENONI_LTDA", "ENDEE": "RUA_ACHILES_MALVEZZI1158__CENTRO_15105-000", "LMAPS": "https://www.google.com/maps?q=&layer=c&cbll=-21.0450285,-49.3786368", "O_QUE_FAZER": "CARTEIRA", "ER_REGIAO_CIDADE_min": "Potirendaba_São José do Rio Preto" }, "geometry": { "type": "Point", "coordinates": [ -49.3786368, -21.0450285 ] } },
{ "type": "Feature", "properties": { "fid": 80127, "CNPJ": "12977746000139", "IDCIDADE": "POTIRENDABA", "NOMEFANTASIA": "REI_DO_REAL", "RAZAOSOCIAL": "LUCIANA_PANIAGUA_FRASSON", "ENDEE": "AVENIDA_BARAO_DO_RIO_BRANCO519__CENTRO_15105-000", "LMAPS": "https://www.google.com/maps?q=&layer=c&cbll=-21.0434269,-49.3793604", "O_QUE_FAZER": "CARTEIRA", "ER_REGIAO_CIDADE_min": "Potirendaba_São José do Rio Preto" }, "geometry": { "type": "Point", "coordinates": [ -49.3793604, -21.0434269 ] } },
{ "type": "Feature", "properties": { "fid": 91869, "CNPJ": "15310090000194", "IDCIDADE": "POTIRENDABA", "NOMEFANTASIA": "METALFRAM", "RAZAOSOCIAL": "R.F._METALFRAM_LTDA", "ENDEE": "RUA_CAPITAO_JOSE_OLIVA1137__CENTRO_15105-000", "LMAPS": "https://www.google.com/maps?q=&layer=c&cbll=-21.0447467,-49.3793567", "O_QUE_FAZER": "CARTEIRA", "ER_REGIAO_CIDADE_min": "Potirendaba_São José do Rio Preto" }, "geometry": { "type": "Point", "coordinates": [ -49.3793567, -21.0447467 ] } },
{ "type": "Feature", "properties": { "fid": 100323, "CNPJ": "17693611000165", "IDCIDADE": "POTIRENDABA", "NOMEFANTASIA": "SOFT_DIGITAL", "RAZAOSOCIAL": "ROSANGELA_LEANDRO_GRILO", "ENDEE": "AVENIDA_CONSELHEIRO_RUI_BARBOSA547__CENTRO_15105-000", "LMAPS": "https://www.google.com/maps?q=&layer=c&cbll=-21.0443467,-49.3788667", "O_QUE_FAZER": "CARTEIRA", "ER_REGIAO_CIDADE_min": "Potirendaba_São José do Rio Preto" }, "geometry": { "type": "Point", "coordinates": [ -49.3788667, -21.0443467 ] } },
{ "type": "Feature", "properties": { "fid": 101732, "CNPJ": "17953826000178", "IDCIDADE": "POTIRENDABA", "NOMEFANTASIA": "EROS", "RAZAOSOCIAL": "EROS_ARTIGOS_DO_VESTUARIO_LTDA", "ENDEE": "AVENIDA_BARAO_DO_RIO_BRANCO502__CENTRO_15105-000", "LMAPS": "https://www.google.com/maps?q=&layer=c&cbll=-21.0441267,-49.3800133", "O_QUE_FAZER": "CARTEIRA", "ER_REGIAO_CIDADE_min": "Potirendaba_São José do Rio Preto" }, "geometry": { "type": "Point", "coordinates": [ -49.3800133, -21.0441267 ] } },
{ "type": "Feature", "properties": { "fid": 106088, "CNPJ": "18863853000112", "IDCIDADE": "POTIRENDABA", "NOMEFANTASIA": "BELLA_COR", "RAZAOSOCIAL": "BELLACOR_TINTAS_POTIRENDABA_LTDA", "ENDEE": "AVENIDA_ANA_JOSEPHA_PERES_GARCIA394__CENTRO_15105-000", "LMAPS": "https://www.google.com/maps?q=&layer=c&cbll=-21.0376848,-49.3786982", "O_QUE_FAZER": "CARTEIRA", "ER_REGIAO_CIDADE_min": "Potirendaba_São José do Rio Preto" }, "geometry": { "type": "Point", "coordinates": [ -49.3786982, -21.0376848 ] } },
{ "type": "Feature", "properties": { "fid": 110864, "CNPJ": "19942562000182", "IDCIDADE": "POTIRENDABA", "NOMEFANTASIA": "RA_PNEUS", "RAZAOSOCIAL": "THALITA_PALMEIRA_ROSAN", "ENDEE": "AVENIDA_ANA_JOSEPHA_PERES_GARCIA191__CENTRO_15105-000", "LMAPS": "https://www.google.com/maps?q=&layer=c&cbll=-21.0356,-49.3787067", "O_QUE_FAZER": "CARTEIRA", "ER_REGIAO_CIDADE_min": "Potirendaba_São José do Rio Preto" }, "geometry": { "type": "Point", "coordinates": [ -49.3787067, -21.0356 ] } },
{ "type": "Feature", "properties": { "fid": 114035, "CNPJ": "20665088000178", "IDCIDADE": "POTIRENDABA", "NOMEFANTASIA": null, "RAZAOSOCIAL": "RAPIDO_1500_TRANSPORTES_LTDA", "ENDEE": "RUA JOSE FORTE, 272, SALA 2, L. R. JARDIM DAS PALMEIRAS, 15105-000, POTIRENDABA, SP, BRASIL", "LMAPS": "https://www.google.com/maps?q=&layer=c&cbll=-21.0498438,-49.3814576", "O_QUE_FAZER": "CARTEIRA - FAMPE", "ER_REGIAO_CIDADE_min": "Potirendaba_São José do Rio Preto" }, "geometry": { "type": "Point", "coordinates": [ -49.3814576, -21.0498438 ] } },
{ "type": "Feature", "properties": { "fid": 115670, "CNPJ": "21044325000146", "IDCIDADE": "POTIRENDABA", "NOMEFANTASIA": "ROUPAN", "RAZAOSOCIAL": "PAMELA_MICHELETTI_DA_SILVA", "ENDEE": "RUA_ACHILES_MALVEZZI1150__CENTRO_15105-000", "LMAPS": "https://www.google.com/maps?q=&layer=c&cbll=-21.0449236,-49.378579", "O_QUE_FAZER": "CARTEIRA", "ER_REGIAO_CIDADE_min": "Potirendaba_São José do Rio Preto" }, "geometry": { "type": "Point", "coordinates": [ -49.378579, -21.0449236 ] } },
{ "type": "Feature", "properties": { "fid": 115706, "CNPJ": "21050499000111", "IDCIDADE": "POTIRENDABA", "NOMEFANTASIA": "DELICIAS_DO_TRIGO", "RAZAOSOCIAL": "PANIFICADORA_CALDEIRA_&_CALDEIRA_LTDA", "ENDEE": "AVENIDA_ANA_JOSEPHA_PERES_GARCIA506__CENTRO_15105-000", "LMAPS": "https://www.google.com/maps?q=&layer=c&cbll=-21.0389327,-49.3789301", "O_QUE_FAZER": "CARTEIRA", "ER_REGIAO_CIDADE_min": "Potirendaba_São José do Rio Preto" }, "geometry": { "type": "Point", "coordinates": [ -49.3789301, -21.0389327 ] } },
{ "type": "Feature", "properties": { "fid": 123283, "CNPJ": "22672611000119", "IDCIDADE": "POTIRENDABA", "NOMEFANTASIA": "DEPOSITO_SAO_JUDAS_TADEU", "RAZAOSOCIAL": "COIADO_&_BARRIVIERA_LTDA", "ENDEE": "AVENIDA_ANA_JOSEPHA_PERES_GARCIA280__CENTRO_15105-000", "LMAPS": "https://www.google.com/maps?q=&layer=c&cbll=-21.0364421,-49.3789767", "O_QUE_FAZER": "CARTEIRA", "ER_REGIAO_CIDADE_min": "Potirendaba_São José do Rio Preto" }, "geometry": { "type": "Point", "coordinates": [ -49.3789767, -21.0364421 ] } },
{ "type": "Feature", "properties": { "fid": 124524, "CNPJ": "22937877000146", "IDCIDADE": "POTIRENDABA", "NOMEFANTASIA": null, "RAZAOSOCIAL": "LATICINIOS_SAMIRA_POTIRENDABA_LTDA", "ENDEE": "SITIO DOS SERRANOS, S/N, AREA RURAL, 15107-899, POTIRENDABA, SP, BRASIL", "LMAPS": "https://www.google.com/maps?q=&layer=c&cbll=-21.044377,-49.3785666", "O_QUE_FAZER": "CARTEIRA - FAMPE", "ER_REGIAO_CIDADE_min": "Potirendaba_São José do Rio Preto" }, "geometry": { "type": "Point", "coordinates": [ -49.3785666, -21.044377 ] } },
{ "type": "Feature", "properties": { "fid": 130952, "CNPJ": "24295268000166", "IDCIDADE": "POTIRENDABA", "NOMEFANTASIA": "EV_MODAS", "RAZAOSOCIAL": "ERONILDES_CRISTIENE_DA_SILVA", "ENDEE": "RUA_ACHILES_MALVEZZI1108__CENTRO_15105-000", "LMAPS": "https://www.google.com/maps?q=&layer=c&cbll=-21.0445217,-49.378695", "O_QUE_FAZER": "CARTEIRA", "ER_REGIAO_CIDADE_min": "Potirendaba_São José do Rio Preto" }, "geometry": { "type": "Point", "coordinates": [ -49.378695, -21.0445217 ] } },
{ "type": "Feature", "properties": { "fid": 148020, "CNPJ": "28132018000166", "IDCIDADE": "POTIRENDABA", "NOMEFANTASIA": "EMPORIO_DA_CARNE", "RAZAOSOCIAL": "MERCEARIA_E_CASA_DE_CARNE_CALDEIRA_CALIJURI_LTDA", "ENDEE": "RUA_21_DE_MARCO1166__CENTRO_15105-000", "LMAPS": "https://www.google.com/maps?q=&layer=c&cbll=-21.0451048,-49.3797466", "O_QUE_FAZER": "CARTEIRA", "ER_REGIAO_CIDADE_min": "Potirendaba_São José do Rio Preto" }, "geometry": { "type": "Point", "coordinates": [ -49.3797466, -21.0451048 ] } },
{ "type": "Feature", "properties": { "fid": 170308, "CNPJ": "32510060000140", "IDCIDADE": "POTIRENDABA", "NOMEFANTASIA": "GENET", "RAZAOSOCIAL": "GENET_TELECOM_INFORMATICA_LTDA", "ENDEE": "RUA_21_DE_MARCO1180__CENTRO_15105-000", "LMAPS": "https://www.google.com/maps?q=&layer=c&cbll=-21.0451692,-49.3797107", "O_QUE_FAZER": "CARTEIRA", "ER_REGIAO_CIDADE_min": "Potirendaba_São José do Rio Preto" }, "geometry": { "type": "Point", "coordinates": [ -49.3797107, -21.0451692 ] } },
{ "type": "Feature", "properties": { "fid": 174871, "CNPJ": "33413922000180", "IDCIDADE": "POTIRENDABA", "NOMEFANTASIA": "BIANCA_WESTERN", "RAZAOSOCIAL": "MARTINS_E_MARTINS_COMERCIO_DE_VESTUARIO_LTDA", "ENDEE": "RUA_CAPITAO_JOSE_OLIVA1142__CENTRO_15105-000", "LMAPS": "https://www.google.com/maps?q=&layer=c&cbll=-21.0448371,-49.3796476", "O_QUE_FAZER": "CARTEIRA", "ER_REGIAO_CIDADE_min": "Potirendaba_São José do Rio Preto" }, "geometry": { "type": "Point", "coordinates": [ -49.3796476, -21.0448371 ] } },
{ "type": "Feature", "properties": { "fid": 178926, "CNPJ": "34190196000146", "IDCIDADE": "POTIRENDABA", "NOMEFANTASIA": "34.190.196_DAVINIR_MOREIRA_JUNIOR", "RAZAOSOCIAL": "34.190.196_DAVINIR_MOREIRA_JUNIOR", "ENDEE": "AVENIDA_ANA_JOSEPHA_PERES_GARCIA381__CENTRO_15105-000", "LMAPS": "https://www.google.com/maps?q=&layer=c&cbll=-21.03747,-49.3785835", "O_QUE_FAZER": "FINALIZADO", "ER_REGIAO_CIDADE_min": "Potirendaba_São José do Rio Preto" }, "geometry": { "type": "Point", "coordinates": [ -49.3785835, -21.03747 ] } },
{ "type": "Feature", "properties": { "fid": 187108, "CNPJ": "35855514000103", "IDCIDADE": "POTIRENDABA", "NOMEFANTASIA": "BOM_GOSTO", "RAZAOSOCIAL": "MINIMERCADO_BOM_GOSTO_POTIRENDABA_LTDA", "ENDEE": "RUA_CAPITAO_JOSE_OLIVA1216__CENTRO_15105-000", "LMAPS": "https://www.google.com/maps?q=&layer=c&cbll=-21.0454367,-49.379455", "O_QUE_FAZER": "CARTEIRA", "ER_REGIAO_CIDADE_min": "Potirendaba_São José do Rio Preto" }, "geometry": { "type": "Point", "coordinates": [ -49.379455, -21.0454367 ] } },
{ "type": "Feature", "properties": { "fid": 189665, "CNPJ": "36432996000151", "IDCIDADE": "POTIRENDABA", "NOMEFANTASIA": "CACAU_SHOW_POTI", "RAZAOSOCIAL": "RIBEIRO_&_SIVIERO_COMERCIO_DE_CHOCOLATES_LTDA", "ENDEE": "RUA_CAPITAO_JOSE_OLIVA1080__CENTRO_15105-000", "LMAPS": "https://www.google.com/maps?q=&layer=c&cbll=-21.044245,-49.3796217", "O_QUE_FAZER": "CARTEIRA", "ER_REGIAO_CIDADE_min": "Potirendaba_São José do Rio Preto" }, "geometry": { "type": "Point", "coordinates": [ -49.3796217, -21.044245 ] } },
{ "type": "Feature", "properties": { "fid": 193189, "CNPJ": "37318851000197", "IDCIDADE": "POTIRENDABA", "NOMEFANTASIA": null, "RAZAOSOCIAL": "SIRLEI_COIADO_DE_OLIVEIRA_FORCATO_26082418832", "ENDEE": "RUA ARMANDO GUERRA, 1039, JARDIM DO BOSQUE, 15105-000, POTIRENDABA, SP, BRASIL", "LMAPS": "https://www.google.com/maps?q=&layer=c&cbll=-21.0563168,-49.3737369", "O_QUE_FAZER": "CARTEIRA - FAMPE", "ER_REGIAO_CIDADE_min": "Potirendaba_São José do Rio Preto" }, "geometry": { "type": "Point", "coordinates": [ -49.3737369, -21.0563168 ] } },
{ "type": "Feature", "properties": { "fid": 211226, "CNPJ": "41862823000103", "IDCIDADE": "POTIRENDABA", "NOMEFANTASIA": "MB_NEGOCIOS", "RAZAOSOCIAL": "MARINA_BARRETO_NEGOCIOS_IMOBILIARIOS_LTDA", "ENDEE": "AVENIDA_CONSELHEIRO_RUI_BARBOSA481__CENTRO_15105-000", "LMAPS": "https://www.google.com/maps?q=&layer=c&cbll=-21.04436,-49.3797133", "O_QUE_FAZER": "CARTEIRA", "ER_REGIAO_CIDADE_min": "Potirendaba_São José do Rio Preto" }, "geometry": { "type": "Point", "coordinates": [ -49.3797133, -21.04436 ] } },
{ "type": "Feature", "properties": { "fid": 219074, "CNPJ": "43565876000198", "IDCIDADE": "POTIRENDABA", "NOMEFANTASIA": "WELLINGTON_VEICULOS", "RAZAOSOCIAL": "GISLAINE_MARA_BERTOCO_COMERCIO_DE_VEICULOS", "ENDEE": "AVENIDA_ANA_JOSEPHA_PERES_GARCIA238__CENTRO_15105-000", "LMAPS": "https://www.google.com/maps?q=&layer=c&cbll=-21.0360217,-49.379035", "O_QUE_FAZER": "CARTEIRA", "ER_REGIAO_CIDADE_min": "Potirendaba_São José do Rio Preto" }, "geometry": { "type": "Point", "coordinates": [ -49.379035, -21.0360217 ] } },
{ "type": "Feature", "properties": { "fid": 229137, "CNPJ": "45709254000111", "IDCIDADE": "POTIRENDABA", "NOMEFANTASIA": "VIDRACARIA_LUCENA", "RAZAOSOCIAL": "LACERDA_DE_LUCENA_VIDRACARIA_LTDA", "ENDEE": "RUA_ACHILES_MALVEZZI1213__CENTRO_15105-000", "LMAPS": "https://www.google.com/maps?q=&layer=c&cbll=-21.0454379,-49.378358", "O_QUE_FAZER": "CARTEIRA", "ER_REGIAO_CIDADE_min": "Potirendaba_São José do Rio Preto" }, "geometry": { "type": "Point", "coordinates": [ -49.378358, -21.0454379 ] } },
{ "type": "Feature", "properties": { "fid": 254365, "CNPJ": "50871367000159", "IDCIDADE": "POTIRENDABA", "NOMEFANTASIA": "TURBO_CAR", "RAZAOSOCIAL": "AUTO_PECAS_TURBO_CAR_LTDA", "ENDEE": "RUA_ACHILES_MALVEZZI1230__CENTRO_15105-000", "LMAPS": "https://www.google.com/maps?q=&layer=c&cbll=-21.0455288,-49.3787695", "O_QUE_FAZER": "CARTEIRA", "ER_REGIAO_CIDADE_min": "Potirendaba_São José do Rio Preto" }, "geometry": { "type": "Point", "coordinates": [ -49.3787695, -21.0455288 ] } },
{ "type": "Feature", "properties": { "fid": 259706, "CNPJ": "51925601000146", "IDCIDADE": "POTIRENDABA", "NOMEFANTASIA": "-", "RAZAOSOCIAL": "51.925.601_KENIA_MONIELE_FERREIRA_MARTINS", "ENDEE": "RUA NILCE RODOLFO AFONSO, 1162, CONJ, JARDIM DAS HORTENSIAS, 15105-000, POTIRENDABA, SP, BRASIL", "LMAPS": "https://www.google.com/maps?q=&layer=c&cbll=-21.0534308,-49.3729082", "O_QUE_FAZER": "CARTEIRA - FAMPE", "ER_REGIAO_CIDADE_min": "Potirendaba_São José do Rio Preto" }, "geometry": { "type": "Point", "coordinates": [ -49.3729082, -21.0534308 ] } },
{ "type": "Feature", "properties": { "fid": 261123, "CNPJ": "52219773000167", "IDCIDADE": "POTIRENDABA", "NOMEFANTASIA": "MERCADAO_DOS_OCULOS_POTIRENDABA", "RAZAOSOCIAL": "OTICA_POTY_LTDA", "ENDEE": "RUA_CAPITAO_JOSE_OLIVA937__CENTRO_15105-000", "LMAPS": "https://www.google.com/maps?q=&layer=c&cbll=-21.0429617,-49.3795183", "O_QUE_FAZER": "CARTEIRA", "ER_REGIAO_CIDADE_min": "Potirendaba_São José do Rio Preto" }, "geometry": { "type": "Point", "coordinates": [ -49.3795183, -21.0429617 ] } },
{ "type": "Feature", "properties": { "fid": 264153, "CNPJ": "52838856000134", "IDCIDADE": "POTIRENDABA", "NOMEFANTASIA": "-", "RAZAOSOCIAL": "52.838.856_JOICE_GRAZIELE_GOMES_DA_SILVA", "ENDEE": "RUA LUIZ PAVAN, 1823, JARDIM DAS HORTENSIAS, 15105-000, POTIRENDABA, SP, BRASIL", "LMAPS": "https://www.google.com/maps?q=&layer=c&cbll=-21.0559092,-49.3706763", "O_QUE_FAZER": "CARTEIRA - FAMPE", "ER_REGIAO_CIDADE_min": "Potirendaba_São José do Rio Preto" }, "geometry": { "type": "Point", "coordinates": [ -49.3706763, -21.0559092 ] } },
{ "type": "Feature", "properties": { "fid": 264950, "CNPJ": "53014510000184", "IDCIDADE": "POTIRENDABA", "NOMEFANTASIA": "PALHARES_ARMARINHOS", "RAZAOSOCIAL": "PALHARES_ARMARINHOS,_CONFECCOES_E_PAPELARIA_LTDA", "ENDEE": "AVENIDA_BARAO_DO_RIO_BRANCO528__CENTRO_15105-000", "LMAPS": "https://www.google.com/maps?q=&layer=c&cbll=-21.0434541,-49.3788593", "O_QUE_FAZER": "CARTEIRA", "ER_REGIAO_CIDADE_min": "Potirendaba_São José do Rio Preto" }, "geometry": { "type": "Point", "coordinates": [ -49.3788593, -21.0434541 ] } },
{ "type": "Feature", "properties": { "fid": 300084, "CNPJ": "64284657000100", "IDCIDADE": "POTIRENDABA", "NOMEFANTASIA": null, "RAZAOSOCIAL": "64.284.657_JESSICA_BALDISSERA_MARQUES", "ENDEE": "RUA MARIA PASTORELLI ROMERO, 541, JARDIM DAS HORTENCIAS, 15106-160, POTIRENDABA, SP, BRASIL", "LMAPS": "https://www.google.com/maps?q=&layer=c&cbll=-21.0522667,-49.3712293", "O_QUE_FAZER": "CARTEIRA - FAMPE", "ER_REGIAO_CIDADE_min": "Potirendaba_São José do Rio Preto" }, "geometry": { "type": "Point", "coordinates": [ -49.3712293, -21.0522667 ] } },
{ "type": "Feature", "properties": { "fid": 304575, "CNPJ": "66707217000144", "IDCIDADE": "POTIRENDABA", "NOMEFANTASIA": "IETEL", "RAZAOSOCIAL": "IETEL_INSTALADORA_ELETRICA_TEIXEIRA_LTDA", "ENDEE": "AVENIDA GABRIEL PERES MARTINS, 311, D.IND.SAVERIO DANIEL, 15105000, POTIRENDABA, SP, BRASIL", "LMAPS": "https://www.google.com/maps?q=&layer=c&cbll=-21.0478868,-49.3642268", "O_QUE_FAZER": "CARTEIRA - FAMPE", "ER_REGIAO_CIDADE_min": "Potirendaba_São José do Rio Preto" }, "geometry": { "type": "Point", "coordinates": [ -49.3642268, -21.0478868 ] } },
{ "type": "Feature", "properties": { "fid": 311819, "CNPJ": "96196233000180", "IDCIDADE": "POTIRENDABA", "NOMEFANTASIA": "MARIAZINHAS_COSMETICOS", "RAZAOSOCIAL": "SINHORINI_&_BALDISERA_LTDA", "ENDEE": "RUA_CAPITAO_JOSE_OLIVA1060__CENTRO_15105-000", "LMAPS": "https://www.google.com/maps?q=&layer=c&cbll=-21.0440659,-49.3798208", "O_QUE_FAZER": "CARTEIRA", "ER_REGIAO_CIDADE_min": "Potirendaba_São José do Rio Preto" }, "geometry": { "type": "Point", "coordinates": [ -49.3798208, -21.0440659 ] } },
{ "type": "Feature", "properties": { "fid": 312711, "CNPJ": "27854484000192", "IDCIDADE": "POTIRENDABA", "NOMEFANTASIA": "CAMILA CAMILO", "RAZAOSOCIAL": "CAMILA MARTINS CAMILO", "ENDEE": "RUA ACHILES MALVEZZI, 1062, CENTRO, 15105-000, POTIRENDABA, SP, BRASIL", "LMAPS": "https://www.google.com/maps?q=&layer=c&cbll=-21.042738,-49.3812827", "O_QUE_FAZER": "FINALIZADO", "ER_REGIAO_CIDADE_min": "Potirendaba_São José do Rio Preto" }, "geometry": { "type": "Point", "coordinates": [ -49.3812827, -21.042738 ] } }
]
}
