{
"type": "FeatureCollection",
"name": "ER_REGIAO_CIDADE_min_Iracemápolis_Piracicaba",
"crs": { "type": "name", "properties": { "name": "urn:ogc:def:crs:OGC:1.3:CRS84" } },
"xy_coordinate_resolution": 1e-15,
"features": [
{ "type": "Feature", "properties": { "fid": 4372, "CNPJ": "00908942000172", "IDCIDADE": "IRACEMAPOLIS", "NOMEFANTASIA": "SORVETES_SANDER", "RAZAOSOCIAL": "SORVETES_SANDER_LTDA", "ENDEE": "RUA JOAO PAULINO FUZATTO, 807, PARK EMP. DE IRACEMAPOLIS, 13498-280, IRACEMÁPOLIS, SP, BRASIL", "LMAPS": "https://www.google.com/maps?q=&layer=c&cbll=-22.5791071,-47.4949509", "O_QUE_FAZER": "CARTEIRA - FAMPE", "ER_REGIAO_CIDADE_min": "Iracemápolis_Piracicaba" }, "geometry": { "type": "Point", "coordinates": [ -47.4949509, -22.5791071 ] } },
{ "type": "Feature", "properties": { "fid": 4662, "CNPJ": "00964598000139", "IDCIDADE": "IRACEMAPOLIS", "NOMEFANTASIA": "MAYARA_JOIAS", "RAZAOSOCIAL": "UBIRATA_RENOR_BERTOLO", "ENDEE": "RUA_DOM_PEDRO_II302__CENTRO_13495-220", "LMAPS": "https://www.google.com/maps?q=&layer=c&cbll=-22.5805317,-47.5207083", "O_QUE_FAZER": "CARTEIRA", "ER_REGIAO_CIDADE_min": "Iracemápolis_Piracicaba" }, "geometry": { "type": "Point", "coordinates": [ -47.5207083, -22.5805317 ] } },
{ "type": "Feature", "properties": { "fid": 5226, "CNPJ": "01086725000107", "IDCIDADE": "IRACEMAPOLIS", "NOMEFANTASIA": null, "RAZAOSOCIAL": "FORNI_REPRESENTACOES_COMERCIAIS_LTDA.", "ENDEE": "RUA JOSE EMIDIO, 710, SALA 26, CENTRO, 13495-000, IRACEMÁPOLIS, SP, BRASIL", "LMAPS": "https://www.google.com/maps?q=&layer=c&cbll=-22.5825632,-47.5222544", "O_QUE_FAZER": "CARTEIRA - FAMPE", "ER_REGIAO_CIDADE_min": "Iracemápolis_Piracicaba" }, "geometry": { "type": "Point", "coordinates": [ -47.5222544, -22.5825632 ] } },
{ "type": "Feature", "properties": { "fid": 7128, "CNPJ": "01474290000178", "IDCIDADE": "IRACEMAPOLIS", "NOMEFANTASIA": "REGINA_FOTOS", "RAZAOSOCIAL": "REGINA_FOTO_COLOR_LTDA", "ENDEE": "RUA_ANTONIO_CASEMIRO414__CENTRO_13497-070", "LMAPS": "https://www.google.com/maps?q=&layer=c&cbll=-22.5823233,-47.5193117", "O_QUE_FAZER": "CARTEIRA", "ER_REGIAO_CIDADE_min": "Iracemápolis_Piracicaba" }, "geometry": { "type": "Point", "coordinates": [ -47.5193117, -22.5823233 ] } },
{ "type": "Feature", "properties": { "fid": 10886, "CNPJ": "02221118000175", "IDCIDADE": "IRACEMAPOLIS", "NOMEFANTASIA": "MC_MODAS", "RAZAOSOCIAL": "MAURICIO_PINTO_DE_LIMA_FILHO", "ENDEE": "RUA_DUQUE_DE_CAXIAS515__CENTRO_13495-220", "LMAPS": "https://www.google.com/maps?q=&layer=c&cbll=-22.5822433,-47.5207817", "O_QUE_FAZER": "CARTEIRA", "ER_REGIAO_CIDADE_min": "Iracemápolis_Piracicaba" }, "geometry": { "type": "Point", "coordinates": [ -47.5207817, -22.5822433 ] } },
{ "type": "Feature", "properties": { "fid": 24062, "CNPJ": "04420887000128", "IDCIDADE": "IRACEMAPOLIS", "NOMEFANTASIA": "UNIVERSAL_CALCADOS", "RAZAOSOCIAL": "MARIA_E_ULYSSES_COMERCIO_DE_CALCADOS_E_ACESSORIOS_LTDA", "ENDEE": "RUA_DOM_PEDRO_II459__CENTRO_13495-039", "LMAPS": "https://www.google.com/maps?q=&layer=c&cbll=-22.5819137,-47.5198544", "O_QUE_FAZER": "CARTEIRA", "ER_REGIAO_CIDADE_min": "Iracemápolis_Piracicaba" }, "geometry": { "type": "Point", "coordinates": [ -47.5198544, -22.5819137 ] } },
{ "type": "Feature", "properties": { "fid": 29286, "CNPJ": "05160446000105", "IDCIDADE": "IRACEMAPOLIS", "NOMEFANTASIA": "OTICAS_CAROL", "RAZAOSOCIAL": "OTICA_LEGS_IRACEMAPOLIS_LTDA", "ENDEE": "RUA_JOSE_EMIDIO564__CENTRO_13495-017", "LMAPS": "https://www.google.com/maps?q=&layer=c&cbll=-22.5818637,-47.5208491", "O_QUE_FAZER": "CARTEIRA", "ER_REGIAO_CIDADE_min": "Iracemápolis_Piracicaba" }, "geometry": { "type": "Point", "coordinates": [ -47.5208491, -22.5818637 ] } },
{ "type": "Feature", "properties": { "fid": 36365, "CNPJ": "06146909000139", "IDCIDADE": "IRACEMAPOLIS", "NOMEFANTASIA": "ESCRITORIO_SA", "RAZAOSOCIAL": "ESCRITORIO_DE_CONTABILIDADE_SALVINO_LTDA", "ENDEE": "RUA_AUTA_DE_OLIVEIRA_SIMOES500__CENTRO_13495-017", "LMAPS": "https://www.google.com/maps?q=&layer=c&cbll=-22.5820633,-47.522125", "O_QUE_FAZER": "CARTEIRA", "ER_REGIAO_CIDADE_min": "Iracemápolis_Piracicaba" }, "geometry": { "type": "Point", "coordinates": [ -47.522125, -22.5820633 ] } },
{ "type": "Feature", "properties": { "fid": 36634, "CNPJ": "06181065000167", "IDCIDADE": "IRACEMAPOLIS", "NOMEFANTASIA": "ALIANCA_METAIS", "RAZAOSOCIAL": "ALIANCA_METAIS_LTDA", "ENDEE": "AVENIDA WALDEMAR LONGATO, 624, PARK EMP. DE IRACEMAPOLIS, 13498-282, IRACEMÁPOLIS, SP, BRASIL", "LMAPS": "https://www.google.com/maps?q=&layer=c&cbll=-22.5798649,-47.4959606", "O_QUE_FAZER": "CARTEIRA - FAMPE", "ER_REGIAO_CIDADE_min": "Iracemápolis_Piracicaba" }, "geometry": { "type": "Point", "coordinates": [ -47.4959606, -22.5798649 ] } },
{ "type": "Feature", "properties": { "fid": 39006, "CNPJ": "06990229000105", "IDCIDADE": "IRACEMAPOLIS", "NOMEFANTASIA": "CARISMA._COM", "RAZAOSOCIAL": "FP_PRESENTES_&_ACESSORIOS_LTDA", "ENDEE": "RUA_JOSE_EMIDIO556__CENTRO_13495-017", "LMAPS": "https://www.google.com/maps?q=&layer=c&cbll=-22.5818257,-47.5207937", "O_QUE_FAZER": "CARTEIRA", "ER_REGIAO_CIDADE_min": "Iracemápolis_Piracicaba" }, "geometry": { "type": "Point", "coordinates": [ -47.5207937, -22.5818257 ] } },
{ "type": "Feature", "properties": { "fid": 43509, "CNPJ": "07547622000183", "IDCIDADE": "IRACEMAPOLIS", "NOMEFANTASIA": "DELICATTA_MODA_INTIMA", "RAZAOSOCIAL": "DELICATTA_MODA_INTIMA_LTDA", "ENDEE": "RUA_DOM_PEDRO_II545__CENTRO_13495-039", "LMAPS": "https://www.google.com/maps?q=&layer=c&cbll=-22.5826,-47.5196101", "O_QUE_FAZER": "CARTEIRA", "ER_REGIAO_CIDADE_min": "Iracemápolis_Piracicaba" }, "geometry": { "type": "Point", "coordinates": [ -47.5196101, -22.5826 ] } },
{ "type": "Feature", "properties": { "fid": 43563, "CNPJ": "07552893000127", "IDCIDADE": "IRACEMAPOLIS", "NOMEFANTASIA": "METALFRAN", "RAZAOSOCIAL": "METALFRAN_INDUSTRIA,_COMERCIO,_SERVICOS,_IMPORTACAO_E_EXPORTACAO_LTDA", "ENDEE": "AVENIDA BENEDITO FRANCO DE CAMPOS, 1220, II DISTRITO INDUSTRIAL, 13498-242, IRACEMÁPOLIS, SP, BRASIL", "LMAPS": "https://www.google.com/maps?q=&layer=c&cbll=-22.5822194,-47.4966338", "O_QUE_FAZER": "CARTEIRA - FAMPE", "ER_REGIAO_CIDADE_min": "Iracemápolis_Piracicaba" }, "geometry": { "type": "Point", "coordinates": [ -47.4966338, -22.5822194 ] } },
{ "type": "Feature", "properties": { "fid": 45283, "CNPJ": "07741001000136", "IDCIDADE": "IRACEMAPOLIS", "NOMEFANTASIA": "MILLTEC_AUTOMATION", "RAZAOSOCIAL": "MILLTEC_AUTOMATION_COMERCIO_DE_PECAS_LTDA", "ENDEE": "RUA EVANDRO APARECIDO AVIZU, 300, II DISTRITO INDUSTRIAL, 13495-000, IRACEMÁPOLIS, SP, BRASIL", "LMAPS": "https://www.google.com/maps?q=&layer=c&cbll=-22.579865,-47.5016759", "O_QUE_FAZER": "CARTEIRA - FAMPE", "ER_REGIAO_CIDADE_min": "Iracemápolis_Piracicaba" }, "geometry": { "type": "Point", "coordinates": [ -47.5016759, -22.579865 ] } },
{ "type": "Feature", "properties": { "fid": 50514, "CNPJ": "08468816000237", "IDCIDADE": "IRACEMAPOLIS", "NOMEFANTASIA": "OTICA_LIMEIRA", "RAZAOSOCIAL": "RODRIGO_GAROFOLO", "ENDEE": "PRACA_DA_MATRIZ144__CENTRO_13495-039", "LMAPS": "https://www.google.com/maps?q=&layer=c&cbll=-22.5806303,-47.5202287", "O_QUE_FAZER": "CARTEIRA", "ER_REGIAO_CIDADE_min": "Iracemápolis_Piracicaba" }, "geometry": { "type": "Point", "coordinates": [ -47.5202287, -22.5806303 ] } },
{ "type": "Feature", "properties": { "fid": 53312, "CNPJ": "08881182000169", "IDCIDADE": "IRACEMAPOLIS", "NOMEFANTASIA": "NEUFRAN", "RAZAOSOCIAL": "JOSE_MARIO_CIUFI", "ENDEE": "RUA_JOSE_EMIDIO576__CENTRO_13495-017", "LMAPS": "https://www.google.com/maps?q=&layer=c&cbll=-22.5817486,-47.5210369", "O_QUE_FAZER": "CARTEIRA", "ER_REGIAO_CIDADE_min": "Iracemápolis_Piracicaba" }, "geometry": { "type": "Point", "coordinates": [ -47.5210369, -22.5817486 ] } },
{ "type": "Feature", "properties": { "fid": 63502, "CNPJ": "10509567000141", "IDCIDADE": "IRACEMAPOLIS", "NOMEFANTASIA": "FARIAS_E_ALVES", "RAZAOSOCIAL": "FARIAS_E_ALVES_ESCRITORIO_CONTABIL_S/S_LTDA", "ENDEE": "RUA_JOSE_EMIDIO650__CENTRO_13495-005", "LMAPS": "https://www.google.com/maps?q=&layer=c&cbll=-22.58211,-47.5216", "O_QUE_FAZER": "CARTEIRA - FAMPE", "ER_REGIAO_CIDADE_min": "Iracemápolis_Piracicaba" }, "geometry": { "type": "Point", "coordinates": [ -47.5216, -22.58211 ] } },
{ "type": "Feature", "properties": { "fid": 66260, "CNPJ": "10805627000173", "IDCIDADE": "IRACEMAPOLIS", "NOMEFANTASIA": null, "RAZAOSOCIAL": "REIS_&_REIS_COMERCIO_E_INDUSTRIA_DE_MOVEIS_LTDA", "ENDEE": "RUA SEBASTIAO NICOLAU PIRES, 260, PQ.IND.EMPR CATHARINA B OMETTO, 13495-000, IRACEMÁPOLIS, SP, BRASIL", "LMAPS": "https://www.google.com/maps?q=&layer=c&cbll=-22.5812093,-47.5050375", "O_QUE_FAZER": "CARTEIRA - FAMPE", "ER_REGIAO_CIDADE_min": "Iracemápolis_Piracicaba" }, "geometry": { "type": "Point", "coordinates": [ -47.5050375, -22.5812093 ] } },
{ "type": "Feature", "properties": { "fid": 80716, "CNPJ": "13093561000124", "IDCIDADE": "IRACEMAPOLIS", "NOMEFANTASIA": "MANFRED_KIDS", "RAZAOSOCIAL": "LUMA_FRANCO_DE_CAMPOS_MANFREDI_ROUPAS_E_ACESSORIOS", "ENDEE": "RUA_PEDRO_CHINELATTO478__CENTRO_13495-041", "LMAPS": "https://www.google.com/maps?q=&layer=c&cbll=-22.5820429,-47.5190887", "O_QUE_FAZER": "CARTEIRA", "ER_REGIAO_CIDADE_min": "Iracemápolis_Piracicaba" }, "geometry": { "type": "Point", "coordinates": [ -47.5190887, -22.5820429 ] } },
{ "type": "Feature", "properties": { "fid": 100493, "CNPJ": "17733534000120", "IDCIDADE": "IRACEMAPOLIS", "NOMEFANTASIA": "LILAS_COSMETICOS", "RAZAOSOCIAL": "THAIS_FAVARO_LONGATO", "ENDEE": "RUA_DUQUE_DE_CAXIAS541__CENTRO_13495-017", "LMAPS": "https://www.google.com/maps?q=&layer=c&cbll=-22.5824032,-47.5207016", "O_QUE_FAZER": "CARTEIRA", "ER_REGIAO_CIDADE_min": "Iracemápolis_Piracicaba" }, "geometry": { "type": "Point", "coordinates": [ -47.5207016, -22.5824032 ] } },
{ "type": "Feature", "properties": { "fid": 100666, "CNPJ": "17765277000108", "IDCIDADE": "IRACEMAPOLIS", "NOMEFANTASIA": "CACAU_SHOW", "RAZAOSOCIAL": "RODRIGO_QUEIROZ_FRANCO", "ENDEE": "PRACA_DA_MATRIZ279__CENTRO_13495-039", "LMAPS": "https://www.google.com/maps?q=&layer=c&cbll=-22.5817005,-47.5198683", "O_QUE_FAZER": "CARTEIRA", "ER_REGIAO_CIDADE_min": "Iracemápolis_Piracicaba" }, "geometry": { "type": "Point", "coordinates": [ -47.5198683, -22.5817005 ] } },
{ "type": "Feature", "properties": { "fid": 104133, "CNPJ": "18466348000134", "IDCIDADE": "IRACEMAPOLIS", "NOMEFANTASIA": null, "RAZAOSOCIAL": "PETINIS_LANCHONETE_LTDA", "ENDEE": "RUA CESARINO BORBA, 267, CENTRO, 13495-001, IRACEMÁPOLIS, SP, BRASIL", "LMAPS": "https://www.google.com/maps?q=&layer=c&cbll=-22.578297,-47.519051", "O_QUE_FAZER": "CARTEIRA - FAMPE", "ER_REGIAO_CIDADE_min": "Iracemápolis_Piracicaba" }, "geometry": { "type": "Point", "coordinates": [ -47.519051, -22.578297 ] } },
{ "type": "Feature", "properties": { "fid": 111618, "CNPJ": "20111826000135", "IDCIDADE": "IRACEMAPOLIS", "NOMEFANTASIA": null, "RAZAOSOCIAL": "MBN_AMBIENTAL_LTDA", "ENDEE": "RUA NICANOR RAMOS, 101, PARQUE CESARINO BORBA, 13498-040, IRACEMÁPOLIS, SP, BRASIL", "LMAPS": "https://www.google.com/maps?q=&layer=c&cbll=-22.5795868,-47.5098361", "O_QUE_FAZER": "CARTEIRA - FAMPE", "ER_REGIAO_CIDADE_min": "Iracemápolis_Piracicaba" }, "geometry": { "type": "Point", "coordinates": [ -47.5098361, -22.5795868 ] } },
{ "type": "Feature", "properties": { "fid": 112375, "CNPJ": "20280817000178", "IDCIDADE": "IRACEMAPOLIS", "NOMEFANTASIA": "NAVE_LINK_NET", "RAZAOSOCIAL": "E.C.E._TELECOMUNICACOES_LTDA", "ENDEE": "RUA_PEDRO_CHINELATTO478__CENTRO_13495-041", "LMAPS": "https://www.google.com/maps?q=&layer=c&cbll=-22.5821283,-47.5190467", "O_QUE_FAZER": "CARTEIRA", "ER_REGIAO_CIDADE_min": "Iracemápolis_Piracicaba" }, "geometry": { "type": "Point", "coordinates": [ -47.5190467, -22.5821283 ] } },
{ "type": "Feature", "properties": { "fid": 113810, "CNPJ": "20607455000187", "IDCIDADE": "IRACEMAPOLIS", "NOMEFANTASIA": "INSPIRE", "RAZAOSOCIAL": "INSPIRE_MODAS_LTDA", "ENDEE": "RUA_JOSE_EMIDIO519__CENTRO_13495-017", "LMAPS": "https://www.google.com/maps?q=&layer=c&cbll=-22.5819505,-47.5202825", "O_QUE_FAZER": "CARTEIRA", "ER_REGIAO_CIDADE_min": "Iracemápolis_Piracicaba" }, "geometry": { "type": "Point", "coordinates": [ -47.5202825, -22.5819505 ] } },
{ "type": "Feature", "properties": { "fid": 114265, "CNPJ": "20718065000184", "IDCIDADE": "IRACEMAPOLIS", "NOMEFANTASIA": "REALCE_MODAS", "RAZAOSOCIAL": "JOAO_ELISEU_BUORO", "ENDEE": "PRACA_DA_MATRIZ589__CENTRO_13495-039", "LMAPS": "https://www.google.com/maps?q=&layer=c&cbll=-22.5817583,-47.5199978", "O_QUE_FAZER": "CARTEIRA", "ER_REGIAO_CIDADE_min": "Iracemápolis_Piracicaba" }, "geometry": { "type": "Point", "coordinates": [ -47.5199978, -22.5817583 ] } },
{ "type": "Feature", "properties": { "fid": 123248, "CNPJ": "22665938000163", "IDCIDADE": "IRACEMAPOLIS", "NOMEFANTASIA": "A._RODRIGUES_SOBRINHO", "RAZAOSOCIAL": "VULCAO_TAPECARIA_E_VIDROS_AUTOMOTIVOS", "ENDEE": "RUA_FLAMINIO_BARBOSA_NEVES110__PARQUE_IND._EMPR_CATHARINA_B_OMETTO_13495-000", "LMAPS": "https://www.google.com/maps?q=&layer=c&cbll=-22.578678,-47.5107501", "O_QUE_FAZER": "FINALIZADO", "ER_REGIAO_CIDADE_min": "Iracemápolis_Piracicaba" }, "geometry": { "type": "Point", "coordinates": [ -47.5107501, -22.578678 ] } },
{ "type": "Feature", "properties": { "fid": 125548, "CNPJ": "23165216000102", "IDCIDADE": "IRACEMAPOLIS", "NOMEFANTASIA": "EULA_CARVALHO", "RAZAOSOCIAL": "EULA_SILVA_CARVALHO_LTDA", "ENDEE": "RUA JOSE DOS SANTOS, 535, CENTRO, 13495-035, IRACEMÁPOLIS, SP, BRASIL", "LMAPS": "https://www.google.com/maps?q=&layer=c&cbll=-22.585026,-47.5184711", "O_QUE_FAZER": "CARTEIRA - FAMPE", "ER_REGIAO_CIDADE_min": "Iracemápolis_Piracicaba" }, "geometry": { "type": "Point", "coordinates": [ -47.5184711, -22.585026 ] } },
{ "type": "Feature", "properties": { "fid": 130979, "CNPJ": "24302673000164", "IDCIDADE": "IRACEMAPOLIS", "NOMEFANTASIA": "LOLA_MODAS_E_VARIEDADES", "RAZAOSOCIAL": "MARIANE_CRUZ_MARTIN", "ENDEE": "RUA_ANTONIO_CASEMIRO520__CENTRO_13497-070", "LMAPS": "https://www.google.com/maps?q=&layer=c&cbll=-22.582657,-47.5202753", "O_QUE_FAZER": "CARTEIRA", "ER_REGIAO_CIDADE_min": "Iracemápolis_Piracicaba" }, "geometry": { "type": "Point", "coordinates": [ -47.5202753, -22.582657 ] } },
{ "type": "Feature", "properties": { "fid": 140527, "CNPJ": "26674418000178", "IDCIDADE": "IRACEMAPOLIS", "NOMEFANTASIA": null, "RAZAOSOCIAL": "CONQUISTA_CORRETORA_DE_SEGUROS_LTDA", "ENDEE": "RUA CAPITAO PAULO SIMOES, 109, CENTRO, 13495-045, IRACEMÁPOLIS, SP, BRASIL", "LMAPS": "https://www.google.com/maps?q=&layer=c&cbll=-22.5789627,-47.5191208", "O_QUE_FAZER": "CARTEIRA - FAMPE", "ER_REGIAO_CIDADE_min": "Iracemápolis_Piracicaba" }, "geometry": { "type": "Point", "coordinates": [ -47.5191208, -22.5789627 ] } },
{ "type": "Feature", "properties": { "fid": 142220, "CNPJ": "27024243000116", "IDCIDADE": "IRACEMAPOLIS", "NOMEFANTASIA": "MERCADAO_DOS_OCULOS", "RAZAOSOCIAL": "FELCCE_OPTICA_LTDA", "ENDEE": "RUA_JOSE_EMIDIO636__CENTRO_13495-017", "LMAPS": "https://www.google.com/maps?q=&layer=c&cbll=-22.5820817,-47.5215386", "O_QUE_FAZER": "CARTEIRA", "ER_REGIAO_CIDADE_min": "Iracemápolis_Piracicaba" }, "geometry": { "type": "Point", "coordinates": [ -47.5215386, -22.5820817 ] } },
{ "type": "Feature", "properties": { "fid": 144939, "CNPJ": "27544822000190", "IDCIDADE": "IRACEMAPOLIS", "NOMEFANTASIA": "L&A_LOCADORA_DE_VEICULOS,_TRANSPORTE_E_TURISMO", "RAZAOSOCIAL": "LOS_ANGELES_LOGISTICA_LTDA", "ENDEE": "RUA CARLOS ZANELATTO, 130, JARDIM LAZARO HONORIO DE OLIVEIRA, 13497-188, IRACEMÁPOLIS, SP, BRASIL", "LMAPS": "https://www.google.com/maps?q=&layer=c&cbll=-22.5934843,-47.5131931", "O_QUE_FAZER": "CARTEIRA - FAMPE", "ER_REGIAO_CIDADE_min": "Iracemápolis_Piracicaba" }, "geometry": { "type": "Point", "coordinates": [ -47.5131931, -22.5934843 ] } },
{ "type": "Feature", "properties": { "fid": 155835, "CNPJ": "29630868000157", "IDCIDADE": "IRACEMAPOLIS", "NOMEFANTASIA": "-", "RAZAOSOCIAL": "29.630.868_GUSTAVO_PELOSI_CAVALLI", "ENDEE": "RUA PEDRO OMETTO, 525, JARDIM CAROLINA OMETTO PAVAN, 13498-006, IRACEMÁPOLIS, SP, BRASIL", "LMAPS": "https://www.google.com/maps?q=&layer=c&cbll=-22.5840785,-47.512601", "O_QUE_FAZER": "CARTEIRA - FAMPE", "ER_REGIAO_CIDADE_min": "Iracemápolis_Piracicaba" }, "geometry": { "type": "Point", "coordinates": [ -47.512601, -22.5840785 ] } },
{ "type": "Feature", "properties": { "fid": 167771, "CNPJ": "31958417000195", "IDCIDADE": "IRACEMAPOLIS", "NOMEFANTASIA": "AUTO_MECANICA_ESTOPINHA", "RAZAOSOCIAL": "RICARDO_F._ZANZIROLIMO_MECANICA", "ENDEE": "RUA JOSE MODENEZ, 615, JARDIM JOAO OMETTO, 13495000, IRACEMÁPOLIS, SP, BRASIL", "LMAPS": "https://www.google.com/maps?q=&layer=c&cbll=-22.5843063,-47.5119497", "O_QUE_FAZER": "CARTEIRA - FAMPE", "ER_REGIAO_CIDADE_min": "Iracemápolis_Piracicaba" }, "geometry": { "type": "Point", "coordinates": [ -47.5119497, -22.5843063 ] } },
{ "type": "Feature", "properties": { "fid": 169936, "CNPJ": "32431155000179", "IDCIDADE": "IRACEMAPOLIS", "NOMEFANTASIA": "RRV_SOLDA", "RAZAOSOCIAL": "RRV_FABRICACAO_DE_ESTRUTURAS_METALICAS_LTDA", "ENDEE": "RUA JOSE OSCAR TOREZAN, 408, PARK EMPRESARIAL DE IRACEMAPOLIS II, 13498-290, IRACEMÁPOLIS, SP, BRASIL", "LMAPS": "https://www.google.com/maps?q=&layer=c&cbll=-22.5809941,-47.4958155", "O_QUE_FAZER": "CARTEIRA - FAMPE", "ER_REGIAO_CIDADE_min": "Iracemápolis_Piracicaba" }, "geometry": { "type": "Point", "coordinates": [ -47.4958155, -22.5809941 ] } },
{ "type": "Feature", "properties": { "fid": 170288, "CNPJ": "32506497000100", "IDCIDADE": "IRACEMAPOLIS", "NOMEFANTASIA": "-", "RAZAOSOCIAL": "32.506.497_CARLOS_EDUARDO_RODRIGUES_DOS_SANTOS", "ENDEE": "RUA ANTONIO REIS, 66, RESIDENCIAL CAMPO VERDE, 13495-000, IRACEMÁPOLIS, SP, BRASIL", "LMAPS": "https://www.google.com/maps?q=&layer=c&cbll=-22.5868698,-47.5025864", "O_QUE_FAZER": "CARTEIRA - FAMPE", "ER_REGIAO_CIDADE_min": "Iracemápolis_Piracicaba" }, "geometry": { "type": "Point", "coordinates": [ -47.5025864, -22.5868698 ] } },
{ "type": "Feature", "properties": { "fid": 175522, "CNPJ": "33530782000120", "IDCIDADE": "IRACEMAPOLIS", "NOMEFANTASIA": "BAZZU_MODAS", "RAZAOSOCIAL": "BAZZU_MODAS_LTDA", "ENDEE": "RUA_JOSE_EMIDIO609__RESIDENCIAL_AQUARIUS_13497-070", "LMAPS": "https://www.google.com/maps?q=&layer=c&cbll=-22.5821533,-47.5212717", "O_QUE_FAZER": "CARTEIRA", "ER_REGIAO_CIDADE_min": "Iracemápolis_Piracicaba" }, "geometry": { "type": "Point", "coordinates": [ -47.5212717, -22.5821533 ] } },
{ "type": "Feature", "properties": { "fid": 180765, "CNPJ": "34541324000159", "IDCIDADE": "IRACEMAPOLIS", "NOMEFANTASIA": "DOCES_IRAMEL", "RAZAOSOCIAL": "DOCES_IRAMEL_LTDA", "ENDEE": "RUA JOSE GUERREIRO, 120, II DISTRITO INDUSTRIAL, 13498-262, IRACEMÁPOLIS, SP, BRASIL", "LMAPS": "https://www.google.com/maps?q=&layer=c&cbll=-22.5796352,-47.4973668", "O_QUE_FAZER": "CARTEIRA - FAMPE", "ER_REGIAO_CIDADE_min": "Iracemápolis_Piracicaba" }, "geometry": { "type": "Point", "coordinates": [ -47.4973668, -22.5796352 ] } },
{ "type": "Feature", "properties": { "fid": 186111, "CNPJ": "35672184000110", "IDCIDADE": "IRACEMAPOLIS", "NOMEFANTASIA": "PLANTEC", "RAZAOSOCIAL": "PLANTEC_ELETROMECANICA_COMERCIO_E_SERVICOS_DE_PECAS_E_EQUIPAMENTOS_INDUSTRAIS_LTDA", "ENDEE": "RUA PEDRO OMETTO, 639, JARDIM CAROLINA OMETTO PAVAN, 13498-006, IRACEMÁPOLIS, SP, BRASIL", "LMAPS": "https://www.google.com/maps?q=&layer=c&cbll=-22.5846163,-47.5125908", "O_QUE_FAZER": "CARTEIRA - FAMPE", "ER_REGIAO_CIDADE_min": "Iracemápolis_Piracicaba" }, "geometry": { "type": "Point", "coordinates": [ -47.5125908, -22.5846163 ] } },
{ "type": "Feature", "properties": { "fid": 188113, "CNPJ": "36110980000122", "IDCIDADE": "IRACEMAPOLIS", "NOMEFANTASIA": "ATIVA_CELULARES", "RAZAOSOCIAL": "MIGUEL_E_ROCHA_EQUIPAMENTOS_ELETRONICOS_LTDA", "ENDEE": "RUA_JOSE_EMIDIO575__CENTRO_13495-017", "LMAPS": "https://www.google.com/maps?q=&layer=c&cbll=-22.5820767,-47.52085", "O_QUE_FAZER": "APLICAR T2", "ER_REGIAO_CIDADE_min": "Iracemápolis_Piracicaba" }, "geometry": { "type": "Point", "coordinates": [ -47.52085, -22.5820767 ] } },
{ "type": "Feature", "properties": { "fid": 196680, "CNPJ": "37991383000117", "IDCIDADE": "IRACEMAPOLIS", "NOMEFANTASIA": "GAS_PAINEIRAS_COMERCIO_DE_GAS_LIQUEFEITO_DE_PETROLEO_LTDA", "RAZAOSOCIAL": "GAS_PAINEIRAS", "ENDEE": "AVENIDA_VILARINO_GONCALVES_DE_ALMEIDA475__RECANTO_DAS_PAINEIRAS_13495-000", "LMAPS": "https://www.google.com/maps?q=&layer=c&cbll=-22.5971757,-47.5084457", "O_QUE_FAZER": "FINALIZADO", "ER_REGIAO_CIDADE_min": "Iracemápolis_Piracicaba" }, "geometry": { "type": "Point", "coordinates": [ -47.5084457, -22.5971757 ] } },
{ "type": "Feature", "properties": { "fid": 203736, "CNPJ": "39956381000112", "IDCIDADE": "IRACEMAPOLIS", "NOMEFANTASIA": "VIVANA_CALCADOS", "RAZAOSOCIAL": "NATALIA_LOPES_SONEGO", "ENDEE": "RUA_PEDRO_CHINELATTO455__CENTRO_13495-041", "LMAPS": "https://www.google.com/maps?q=&layer=c&cbll=-22.5817422,-47.5189798", "O_QUE_FAZER": "CARTEIRA", "ER_REGIAO_CIDADE_min": "Iracemápolis_Piracicaba" }, "geometry": { "type": "Point", "coordinates": [ -47.5189798, -22.5817422 ] } },
{ "type": "Feature", "properties": { "fid": 205322, "CNPJ": "40360580000142", "IDCIDADE": "IRACEMAPOLIS", "NOMEFANTASIA": "BROTICAS", "RAZAOSOCIAL": "RIBEIRO_&_FONTOURA_OTICAS_LTDA", "ENDEE": "RUA_JOSE_EMIDIO565__CENTRO_13495-017", "LMAPS": "https://www.google.com/maps?q=&layer=c&cbll=-22.5819943,-47.5208121", "O_QUE_FAZER": "CARTEIRA", "ER_REGIAO_CIDADE_min": "Iracemápolis_Piracicaba" }, "geometry": { "type": "Point", "coordinates": [ -47.5208121, -22.5819943 ] } },
{ "type": "Feature", "properties": { "fid": 207570, "CNPJ": "40943894000178", "IDCIDADE": "IRACEMAPOLIS", "NOMEFANTASIA": null, "RAZAOSOCIAL": "LADP_TRANSPORTES_E_LOGISTICA", "ENDEE": "RUA RUA JOSE GOMES DE OLIVEIRA, 745, RESIDENCIAL AQUARIUS, 13495-000, IRACEMÁPOLIS, SP, BRASIL", "LMAPS": "https://www.google.com/maps?q=&layer=c&cbll=-22.5906245,-47.505802", "O_QUE_FAZER": "CARTEIRA - FAMPE", "ER_REGIAO_CIDADE_min": "Iracemápolis_Piracicaba" }, "geometry": { "type": "Point", "coordinates": [ -47.505802, -22.5906245 ] } },
{ "type": "Feature", "properties": { "fid": 216063, "CNPJ": "42975876000101", "IDCIDADE": "IRACEMAPOLIS", "NOMEFANTASIA": "ODONTOCOMPANY", "RAZAOSOCIAL": "IMPACTA_ODONTOLOGIA_LTDA", "ENDEE": "RUA_CORONEL_JOSE_LEVY562__CENTRO_13495-005", "LMAPS": "https://www.google.com/maps?q=&layer=c&cbll=-22.5809613,-47.5210957", "O_QUE_FAZER": "CARTEIRA", "ER_REGIAO_CIDADE_min": "Iracemápolis_Piracicaba" }, "geometry": { "type": "Point", "coordinates": [ -47.5210957, -22.5809613 ] } },
{ "type": "Feature", "properties": { "fid": 222201, "CNPJ": "44204860000112", "IDCIDADE": "IRACEMAPOLIS", "NOMEFANTASIA": "GABRIELA_DOS_SANTOS_TULCIN_36894716803", "RAZAOSOCIAL": "GABRIELA_DOS_SANTOS_TULCIN_36894716803", "ENDEE": "RUA_MARIO_BILATTO340__JARDIM_LAZARO_HONORIO_DE_OLIVEIRA_13497-190", "LMAPS": "https://www.google.com/maps?q=&layer=c&cbll=-22.5944428,-47.5107537", "O_QUE_FAZER": "FINALIZADO", "ER_REGIAO_CIDADE_min": "Iracemápolis_Piracicaba" }, "geometry": { "type": "Point", "coordinates": [ -47.5107537, -22.5944428 ] } },
{ "type": "Feature", "properties": { "fid": 232379, "CNPJ": "46345426000188", "IDCIDADE": "IRACEMAPOLIS", "NOMEFANTASIA": "-", "RAZAOSOCIAL": "46.345.426_DALILA_LAMONTAGNA_MOURO", "ENDEE": "RUA ANTONIO JOAQUIM FAGUNDES, 66, CENTRO, 13495-047, IRACEMÁPOLIS, SP, BRASIL", "LMAPS": "https://www.google.com/maps?q=&layer=c&cbll=-22.5786729,-47.518594", "O_QUE_FAZER": "CARTEIRA - FAMPE", "ER_REGIAO_CIDADE_min": "Iracemápolis_Piracicaba" }, "geometry": { "type": "Point", "coordinates": [ -47.518594, -22.5786729 ] } },
{ "type": "Feature", "properties": { "fid": 236062, "CNPJ": "47093941000180", "IDCIDADE": "IRACEMAPOLIS", "NOMEFANTASIA": "DE_PAULA_MIX", "RAZAOSOCIAL": "DE_PAULA_MIX_VARIEDADES_LTDA", "ENDEE": "RUA_JOSE_EMIDIO533__CENTRO_13495-017", "LMAPS": "https://www.google.com/maps?q=&layer=c&cbll=-22.5819283,-47.5204317", "O_QUE_FAZER": "CARTEIRA", "ER_REGIAO_CIDADE_min": "Iracemápolis_Piracicaba" }, "geometry": { "type": "Point", "coordinates": [ -47.5204317, -22.5819283 ] } },
{ "type": "Feature", "properties": { "fid": 237617, "CNPJ": "47408966000126", "IDCIDADE": "IRACEMAPOLIS", "NOMEFANTASIA": "Bio_Move_-_Fitness_e_Sports", "RAZAOSOCIAL": "LEONARDO_FERNANDO_TAMELIN_LIMA", "ENDEE": "RUA JOSE DOS SANTOS, 187, CENTRO, 13495-035, IRACEMÁPOLIS, SP, BRASIL", "LMAPS": "https://www.google.com/maps?q=&layer=c&cbll=-22.5850781,-47.5156791", "O_QUE_FAZER": "CARTEIRA - FAMPE", "ER_REGIAO_CIDADE_min": "Iracemápolis_Piracicaba" }, "geometry": { "type": "Point", "coordinates": [ -47.5156791, -22.5850781 ] } },
{ "type": "Feature", "properties": { "fid": 248106, "CNPJ": "49635865000113", "IDCIDADE": "IRACEMAPOLIS", "NOMEFANTASIA": "UNIVERSO_CRIATIVO", "RAZAOSOCIAL": "DEMARCHI_&_CIA_LTDA", "ENDEE": "RUA_JOSE_EMIDIO503__CENTRO_13495-039", "LMAPS": "https://www.google.com/maps?q=&layer=c&cbll=-22.58182,-47.5201583", "O_QUE_FAZER": "CARTEIRA", "ER_REGIAO_CIDADE_min": "Iracemápolis_Piracicaba" }, "geometry": { "type": "Point", "coordinates": [ -47.5201583, -22.58182 ] } },
{ "type": "Feature", "properties": { "fid": 255238, "CNPJ": "51041340000100", "IDCIDADE": "IRACEMAPOLIS", "NOMEFANTASIA": null, "RAZAOSOCIAL": "PAGGIARO_E_NASCIMENTO_CASA_DE_SUCOS_LTDA", "ENDEE": "RUA ANTONIO CASTELUCCI, 205, PARQUE CESARINO BORBA, 13498-052, IRACEMÁPOLIS, SP, BRASIL", "LMAPS": "https://www.google.com/maps?q=&layer=c&cbll=-22.5813192,-47.5085137", "O_QUE_FAZER": "CARTEIRA - FAMPE", "ER_REGIAO_CIDADE_min": "Iracemápolis_Piracicaba" }, "geometry": { "type": "Point", "coordinates": [ -47.5085137, -22.5813192 ] } },
{ "type": "Feature", "properties": { "fid": 257305, "CNPJ": "51450308000170", "IDCIDADE": "IRACEMAPOLIS", "NOMEFANTASIA": "LINDELLA_MODA_INTIMA", "RAZAOSOCIAL": "LINDELLA_MODA_INTIMA_LTDA", "ENDEE": "RUA PEDRO GONCALVES DE LIMA, 255, JARDIM JOAO OMETTO, 13498-020, IRACEMÁPOLIS, SP, BRASIL", "LMAPS": "https://www.google.com/maps?q=&layer=c&cbll=-22.5867574,-47.5121973", "O_QUE_FAZER": "CARTEIRA - FAMPE", "ER_REGIAO_CIDADE_min": "Iracemápolis_Piracicaba" }, "geometry": { "type": "Point", "coordinates": [ -47.5121973, -22.5867574 ] } },
{ "type": "Feature", "properties": { "fid": 262614, "CNPJ": "52516493000110", "IDCIDADE": "IRACEMAPOLIS", "NOMEFANTASIA": "-", "RAZAOSOCIAL": "52.516.493_REJANE_APARECIDA_DA_SILVA_DIAS", "ENDEE": "RUA DOUGLAS EVANGELISTA PICCOLI, 218, CENTRO, 13495-025, IRACEMÁPOLIS, SP, BRASIL", "LMAPS": "https://www.google.com/maps?q=&layer=c&cbll=-22.5859782,-47.5212271", "O_QUE_FAZER": "CARTEIRA - FAMPE", "ER_REGIAO_CIDADE_min": "Iracemápolis_Piracicaba" }, "geometry": { "type": "Point", "coordinates": [ -47.5212271, -22.5859782 ] } },
{ "type": "Feature", "properties": { "fid": 263182, "CNPJ": "52636423000104", "IDCIDADE": "IRACEMAPOLIS", "NOMEFANTASIA": "-", "RAZAOSOCIAL": "52.636.423_GABRIEL_TEIXEIRA_SILVA", "ENDEE": "RUA JOAO CASEMIRO, 32, JARDIM IRACEMA, 13495-228, IRACEMÁPOLIS, SP, BRASIL", "LMAPS": "https://www.google.com/maps?q=&layer=c&cbll=-22.5874791,-47.5225725", "O_QUE_FAZER": "CARTEIRA - FAMPE", "ER_REGIAO_CIDADE_min": "Iracemápolis_Piracicaba" }, "geometry": { "type": "Point", "coordinates": [ -47.5225725, -22.5874791 ] } },
{ "type": "Feature", "properties": { "fid": 282514, "CNPJ": "57589225000142", "IDCIDADE": "IRACEMAPOLIS", "NOMEFANTASIA": "57.589.225_RAPHAEL_MENEZES_DE_SOUZA", "RAZAOSOCIAL": "RAPHAEL_MENEZES_DE_SOUZA", "ENDEE": "RUA_ANTONIO_PEDROSO720__RESIDENCIAL_BELA_VISTA_13496-004", "LMAPS": "https://www.google.com/maps?q=&layer=c&cbll=-22.5924616,-47.5208296", "O_QUE_FAZER": "FINALIZADO", "ER_REGIAO_CIDADE_min": "Iracemápolis_Piracicaba" }, "geometry": { "type": "Point", "coordinates": [ -47.5208296, -22.5924616 ] } },
{ "type": "Feature", "properties": { "fid": 285031, "CNPJ": "58310103000138", "IDCIDADE": "IRACEMAPOLIS", "NOMEFANTASIA": null, "RAZAOSOCIAL": "GAS_IRACEMA_LTDA", "ENDEE": "RUA LAZARO DE ALMEIDA, 15, JARDIM ANTONIO JOAQUIM FAGUNDES, 13495-000, IRACEMÁPOLIS, SP, BRASIL", "LMAPS": "https://www.google.com/maps?q=&layer=c&cbll=-22.5862695,-47.509401", "O_QUE_FAZER": "CARTEIRA - FAMPE", "ER_REGIAO_CIDADE_min": "Iracemápolis_Piracicaba" }, "geometry": { "type": "Point", "coordinates": [ -47.509401, -22.5862695 ] } },
{ "type": "Feature", "properties": { "fid": 289176, "CNPJ": "59668511000129", "IDCIDADE": "IRACEMAPOLIS", "NOMEFANTASIA": "GEANDERSON_DO_CARMO", "RAZAOSOCIAL": "59.668.511_GEANDERSON_DO_CARMO", "ENDEE": "RUA DONA AUTA DE OLIVEIRA SIMOES, 846, JARDIM PRIMAVERA, 13495-230, IRACEMÁPOLIS, SP, BRASIL", "LMAPS": "https://www.google.com/maps?q=&layer=c&cbll=-22.5849956,-47.5223927", "O_QUE_FAZER": "APLICAR M1", "ER_REGIAO_CIDADE_min": "Iracemápolis_Piracicaba" }, "geometry": { "type": "Point", "coordinates": [ -47.5223927, -22.5849956 ] } },
{ "type": "Feature", "properties": { "fid": 289225, "CNPJ": "59681063000101", "IDCIDADE": "PARURU", "NOMEFANTASIA": null, "RAZAOSOCIAL": "59.681.063_LUCAS_MORAIS_ZANOLI", "ENDEE": "RUA_MIGUEL DE OLIVEIRA_45_JARDIM LAZARO HONORIO DE OLIVEIRA_13497-186_PARURU", "LMAPS": "https://www.google.com/maps?q=&layer=c&cbll=-22.5921616,-47.5123869", "O_QUE_FAZER": "FINALIZADO", "ER_REGIAO_CIDADE_min": "Iracemápolis_Piracicaba" }, "geometry": { "type": "Point", "coordinates": [ -47.5123869, -22.5921616 ] } },
{ "type": "Feature", "properties": { "fid": 306147, "CNPJ": "67457119000169", "IDCIDADE": "IRACEMAPOLIS", "NOMEFANTASIA": "CHEIRO_DOCE", "RAZAOSOCIAL": "CHEIRO_DOCE_PERFUMARIA_E_COSMETICOS_LTDA", "ENDEE": "RUA_PEDRO_CHINELATTO450__CENTRO_13495-041", "LMAPS": "https://www.google.com/maps?q=&layer=c&cbll=-22.5817112,-47.5191841", "O_QUE_FAZER": "CARTEIRA", "ER_REGIAO_CIDADE_min": "Iracemápolis_Piracicaba" }, "geometry": { "type": "Point", "coordinates": [ -47.5191841, -22.5817112 ] } },
{ "type": "Feature", "properties": { "fid": 309679, "CNPJ": "71881247000102", "IDCIDADE": "IRACEMAPOLIS", "NOMEFANTASIA": "SUMMER", "RAZAOSOCIAL": "MARIZILDA_VALENTINA_MORO_ROSALES", "ENDEE": "RUA_JOSE_EMIDIO528__CENTRO_13495-017", "LMAPS": "https://www.google.com/maps?q=&layer=c&cbll=-22.5817367,-47.5205267", "O_QUE_FAZER": "CARTEIRA", "ER_REGIAO_CIDADE_min": "Iracemápolis_Piracicaba" }, "geometry": { "type": "Point", "coordinates": [ -47.5205267, -22.5817367 ] } },
{ "type": "Feature", "properties": { "fid": 311886, "CNPJ": "96250469000158", "IDCIDADE": "IRACEMAPOLIS", "NOMEFANTASIA": "ACONCHEGO", "RAZAOSOCIAL": "PEZZATTE_&_BOSQUEIRO_LTDA", "ENDEE": "PRACA_DA_MATRIZ260__CENTRO_13495-041", "LMAPS": "https://www.google.com/maps?q=&layer=c&cbll=-22.5813417,-47.52034", "O_QUE_FAZER": "CARTEIRA", "ER_REGIAO_CIDADE_min": "Iracemápolis_Piracicaba" }, "geometry": { "type": "Point", "coordinates": [ -47.52034, -22.5813417 ] } },
{ "type": "Feature", "properties": { "fid": 313720, "CNPJ": "25912410000130", "IDCIDADE": "Iracemápolis", "NOMEFANTASIA": "FONTE ESSENCIAL", "RAZAOSOCIAL": "25.912.410 GILBERTO RIBEIRO AFONSO", "ENDEE": "CAPITÃO PAULO SIMÕES, 48, CENTRO, 13495-045, Iracemápolis, SP, BRASIL", "LMAPS": "https://www.google.com/maps?q=&layer=c&cbll=-22.5783828,-47.519623", "O_QUE_FAZER": "APLICAR T2", "ER_REGIAO_CIDADE_min": "Iracemápolis_Piracicaba" }, "geometry": { "type": "Point", "coordinates": [ -47.519623, -22.5783828 ] } },
{ "type": "Feature", "properties": { "fid": 313721, "CNPJ": "04447510000162", "IDCIDADE": "Iracemápolis", "NOMEFANTASIA": "IRACEMOTOS", "RAZAOSOCIAL": "RICARDO FRANCISCO CORDASSO IRACEMAPOLIS", "ENDEE": "JOSÉ OMETTO, 326, CENTRO, 13495-003, Iracemápolis, SP, BRASIL", "LMAPS": "https://www.google.com/maps?q=&layer=c&cbll=-22.5793188,-47.519324", "O_QUE_FAZER": "APLICAR T2", "ER_REGIAO_CIDADE_min": "Iracemápolis_Piracicaba" }, "geometry": { "type": "Point", "coordinates": [ -47.519324, -22.5793188 ] } },
{ "type": "Feature", "properties": { "fid": 313722, "CNPJ": "38228026000164", "IDCIDADE": "Iracemápolis", "NOMEFANTASIA": "VR DISCOR TINTAS", "RAZAOSOCIAL": "V RODRIGUES LTDA", "ENDEE": "CAPITÃO PAULO SIMÕES, 231, CENTRO, 13495-045, Iracemápolis, SP, BRASIL", "LMAPS": "https://www.google.com/maps?q=&layer=c&cbll=-22.5799262,-47.5188103", "O_QUE_FAZER": "APLICAR T2", "ER_REGIAO_CIDADE_min": "Iracemápolis_Piracicaba" }, "geometry": { "type": "Point", "coordinates": [ -47.5188103, -22.5799262 ] } },
{ "type": "Feature", "properties": { "fid": 313723, "CNPJ": "43341774000199", "IDCIDADE": "Iracemápolis", "NOMEFANTASIA": "LUX PISOS E REVESTIMENTOS", "RAZAOSOCIAL": "LUX PISOS E REVESTIMENTOS LTDA.", "ENDEE": "DUQUE DE CAXIAS, 668, JARDIM IRACEMA, 13495-220, Iracemápolis, SP, BRASIL", "LMAPS": "https://www.google.com/maps?q=&layer=c&cbll=-22.5836498,-47.5203967", "O_QUE_FAZER": "APLICAR T2", "ER_REGIAO_CIDADE_min": "Iracemápolis_Piracicaba" }, "geometry": { "type": "Point", "coordinates": [ -47.5203967, -22.5836498 ] } },
{ "type": "Feature", "properties": { "fid": 313724, "CNPJ": "63063219000150", "IDCIDADE": "Iracemápolis", "NOMEFANTASIA": "BEER EXPRESS ADEGA IRACEMAPOLIS", "RAZAOSOCIAL": "BEER EXPRESS ADEGA IRACEMAPOLIS LTDA", "ENDEE": "JERÔNYMO OMETTO, 507, JARDIM CAROLINA OMETTO PAVAN, 13498-000, Iracemápolis, SP, BRASIL", "LMAPS": "https://www.google.com/maps?q=&layer=c&cbll=-22.5841555,-47.5145388", "O_QUE_FAZER": "APLICAR T2", "ER_REGIAO_CIDADE_min": "Iracemápolis_Piracicaba" }, "geometry": { "type": "Point", "coordinates": [ -47.5145388, -22.5841555 ] } },
{ "type": "Feature", "properties": { "fid": 313725, "CNPJ": "08461020000171", "IDCIDADE": "Iracemápolis", "NOMEFANTASIA": "IRACEMA AUTO PECAS", "RAZAOSOCIAL": "MELLO E VILARES COMERCIO DE PECAS AUTOMOTIVAS E ACESSORIOS LTDA", "ENDEE": "JOSÉ DOS SANTOS, 660, CENTRO, 13495-035, Iracemápolis, SP, BRASIL", "LMAPS": "https://www.google.com/maps?q=&layer=c&cbll=-22.5848696,-47.5196799", "O_QUE_FAZER": "APLICAR T2", "ER_REGIAO_CIDADE_min": "Iracemápolis_Piracicaba" }, "geometry": { "type": "Point", "coordinates": [ -47.5196799, -22.5848696 ] } },
{ "type": "Feature", "properties": { "fid": 313726, "CNPJ": "27630864000143", "IDCIDADE": "Iracemápolis", "NOMEFANTASIA": "RAMON BATERIAS", "RAZAOSOCIAL": "RAMON BRUNO DE SOUZA 41077453841", "ENDEE": "JOÃO DADONA, 425, JARDIM LUIZ OMETTO, 13496-204, Iracemápolis, SP, BRASIL", "LMAPS": "https://www.google.com/maps?q=&layer=c&cbll=-22.585289,-47.515477", "O_QUE_FAZER": "APLICAR T2", "ER_REGIAO_CIDADE_min": "Iracemápolis_Piracicaba" }, "geometry": { "type": "Point", "coordinates": [ -47.515477, -22.585289 ] } },
{ "type": "Feature", "properties": { "fid": 313728, "CNPJ": "52821997000144", "IDCIDADE": "Iracemápolis", "NOMEFANTASIA": "HÁ AGROPET", "RAZAOSOCIAL": "52.821.997 JOSBER RODRIGO MARTINS", "ENDEE": "JOÃO DADONA, 1454, JARDIM LUIZ OMETTO, 13496-204, Iracemápolis, SP, BRASIL", "LMAPS": "https://www.google.com/maps?q=&layer=c&cbll=-22.5950933,-47.5151396", "O_QUE_FAZER": "APLICAR T2", "ER_REGIAO_CIDADE_min": "Iracemápolis_Piracicaba" }, "geometry": { "type": "Point", "coordinates": [ -47.5151396, -22.5950933 ] } }
]
}
