{
"type": "FeatureCollection",
"name": "ER_REGIAO_CIDADE_min_Monteiro Lobato_Guaratinguetá",
"crs": { "type": "name", "properties": { "name": "urn:ogc:def:crs:OGC:1.3:CRS84" } },
"xy_coordinate_resolution": 1e-15,
"features": [
{ "type": "Feature", "properties": { "fid": 57217, "CNPJ": "09327293000190", "IDCIDADE": "MONTEIRO LOBATO", "NOMEFANTASIA": null, "RAZAOSOCIAL": "LUIS_FERNANDO_DA_SILVA_GAS", "ENDEE": "RUA ANTONIO ALVES MAGALHAES, 151, CENTRO, 12250-000, MONTEIRO LOBATO, SP, BRASIL", "LMAPS": "https://www.google.com/maps?q=&layer=c&cbll=-22.9538945,-45.8386821", "O_QUE_FAZER": "CARTEIRA - FAMPE", "ER_REGIAO_CIDADE_min": "Monteiro Lobato_Guaratinguetá" }, "geometry": { "type": "Point", "coordinates": [ -45.8386821, -22.9538945 ] } },
{ "type": "Feature", "properties": { "fid": 84109, "CNPJ": "13705633000147", "IDCIDADE": "MONTEIRO LOBATO", "NOMEFANTASIA": null, "RAZAOSOCIAL": "EDS_TRANSPORTES_&_LOCACOES_LTDA", "ENDEE": "10A RUA BERNARDINO DE CAMPOS, 64, CENTRO, 12250-000, MONTEIRO LOBATO, SP, BRASIL", "LMAPS": "https://www.google.com/maps?q=&layer=c&cbll=-22.9556041,-45.8381808", "O_QUE_FAZER": "CARTEIRA - FAMPE", "ER_REGIAO_CIDADE_min": "Monteiro Lobato_Guaratinguetá" }, "geometry": { "type": "Point", "coordinates": [ -45.8381808, -22.9556041 ] } },
{ "type": "Feature", "properties": { "fid": 267510, "CNPJ": "53619760000148", "IDCIDADE": "MONTEIRO LOBATO", "NOMEFANTASIA": "-", "RAZAOSOCIAL": "53.619.760_GLEYDSON_HENRIQUE_OLIVEIRA_FERNANDES", "ENDEE": "RUA BERNARDINO DE CAMPOS, 130, BOX, CENTRO, 12250-000, MONTEIRO LOBATO, SP, BRASIL", "LMAPS": "https://www.google.com/maps?q=&layer=c&cbll=-22.955984,-45.8378874", "O_QUE_FAZER": "CARTEIRA - FAMPE", "ER_REGIAO_CIDADE_min": "Monteiro Lobato_Guaratinguetá" }, "geometry": { "type": "Point", "coordinates": [ -45.8378874, -22.955984 ] } }
]
}
