{
"type": "FeatureCollection",
"name": "ER_REGIAO_CIDADE_min_Pratânia_Bauru",
"crs": { "type": "name", "properties": { "name": "urn:ogc:def:crs:OGC:1.3:CRS84" } },
"xy_coordinate_resolution": 1e-15,
"features": [
{ "type": "Feature", "properties": { "CNPJ": "30831685000189", "IDCIDADE": "PRATANIA", "NOMEFANTASIA": "GUILHERME_DI_RAMIO_NESPEQUE_44573592890", "RAZAOSOCIAL": "AUTO_MECANICA_NESTEQUE", "ENDEE": "RUA_OCTACILIO_NOGUEIRA10__JARDIM_PARAISO_18660-510", "LATITUDE": "-22.8069054", "LONGITUDE": "-48.6658878", "LMAPS": "https://www.google.com/maps?q=&layer=c&cbll=-48.6658878,-22.8069054", "O_QUE_FAZER": "FINALIZADO", "field_10": null, "field_11": null, "field_12": null, "field_13": null, "ER_REGIAO_CIDADE_min": "Pratânia_Bauru" }, "geometry": { "type": "Point", "coordinates": [ -48.6658878, -22.8069054 ] } },
{ "type": "Feature", "properties": { "CNPJ": "30123356000183", "IDCIDADE": "PRATANIA", "NOMEFANTASIA": "TAISE_MICHELI_BAPTISTA_PRADO_MACHADO_36589901805", "RAZAOSOCIAL": "TAISE_MICHELI_BAPTISTA_PRADO_MACHADO", "ENDEE": "RUA_LAUDELINO_RAMOS1__NUCLEO_HABITACIONAL_ANGELINO_PASCHOALINOTTE_18660-494", "LATITUDE": "-22.812334", "LONGITUDE": "-48.66473", "LMAPS": "https://www.google.com/maps?q=&layer=c&cbll=-48.66473,-22.812334", "O_QUE_FAZER": "FINALIZADO", "field_10": null, "field_11": null, "field_12": null, "field_13": null, "ER_REGIAO_CIDADE_min": "Pratânia_Bauru" }, "geometry": { "type": "Point", "coordinates": [ -48.66473, -22.812334 ] } },
{ "type": "Feature", "properties": { "CNPJ": "51890421000176", "IDCIDADE": "PRATANIA", "NOMEFANTASIA": "51.890.421_ODAIRO_DA_SILVA", "RAZAOSOCIAL": "ODAIRO_SILVA", "ENDEE": "RUA_JOSE_LOPES_PIINHEIRO115__JARDIM_PAULISTA_18660-218", "LATITUDE": "-22.8109914", "LONGITUDE": "-48.6620758", "LMAPS": "https://www.google.com/maps?q=&layer=c&cbll=-48.6620758,-22.8109914", "O_QUE_FAZER": "FINALIZADO", "field_10": null, "field_11": null, "field_12": null, "field_13": null, "ER_REGIAO_CIDADE_min": "Pratânia_Bauru" }, "geometry": { "type": "Point", "coordinates": [ -48.6620758, -22.8109914 ] } },
{ "type": "Feature", "properties": { "CNPJ": "23942225000162", "IDCIDADE": "PRATANIA", "NOMEFANTASIA": "SERVICOS_DE_SOLDA_E_MANUTENCAO_BOCAO", "RAZAOSOCIAL": "J.T._TRANSPORTES,_SERVICOS_E_MANUTENCAO_LTDA.", "ENDEE": "RUA JACIRA MARIA DA CONCEICAO, 30, CENTRO, 18660-052, PRATÂNIA, SP, BRASIL", "LATITUDE": "-22.8103659", "LONGITUDE": "-48.6650909", "LMAPS": "https://www.google.com/maps?q=&layer=c&cbll=-22.8103659,-48.6650909", "O_QUE_FAZER": "CARTEIRA - FAMPE", "field_10": null, "field_11": null, "field_12": null, "field_13": null, "ER_REGIAO_CIDADE_min": "Pratânia_Bauru" }, "geometry": { "type": "Point", "coordinates": [ -48.6650909, -22.8103659 ] } },
{ "type": "Feature", "properties": { "CNPJ": "18841842000131", "IDCIDADE": "PRATANIA", "NOMEFANTASIA": "JM_EVENTOS", "RAZAOSOCIAL": "JOSE_ANTONIO_RODRIGUES_MARIANO", "ENDEE": "TRAVESSA 13 DE MAIO, 94, CENTRO, 18660-032, PRATÂNIA, SP, BRASIL", "LATITUDE": "-22.8114943", "LONGITUDE": "-48.6644169", "LMAPS": "https://www.google.com/maps?q=&layer=c&cbll=-22.8114943,-48.6644169", "O_QUE_FAZER": "CARTEIRA - FAMPE", "field_10": null, "field_11": null, "field_12": null, "field_13": null, "ER_REGIAO_CIDADE_min": "Pratânia_Bauru" }, "geometry": { "type": "Point", "coordinates": [ -48.6644169, -22.8114943 ] } },
{ "type": "Feature", "properties": { "CNPJ": "62770703000156", "IDCIDADE": "PRATANIA", "NOMEFANTASIA": "-", "RAZAOSOCIAL": "62.770.703_ADILSON_BATISTA_DO_CARMO", "ENDEE": "RUA PADRE JOSE MARINS, 253, CENTRO, 18660-024, PRATÂNIA, SP, BRASIL", "LATITUDE": "-22.8094383", "LONGITUDE": "-48.6656074", "LMAPS": "https://www.google.com/maps?q=&layer=c&cbll=-22.8094383,-48.6656074", "O_QUE_FAZER": "CARTEIRA - FAMPE", "field_10": null, "field_11": null, "field_12": null, "field_13": null, "ER_REGIAO_CIDADE_min": "Pratânia_Bauru" }, "geometry": { "type": "Point", "coordinates": [ -48.6656074, -22.8094383 ] } }
]
}
